{"type":"Feature","properties":{"GID_2":"MEX.14.76_2","GID_0":"MEX","country":"México","GID_1":"MEX.14_1","province":"Jalisco","NL_NAME_1":"NA","county":"SanMarcos","VARNAME_2":"NA","NL_NAME_2":"NA","TYPE_2":"Município","ENGTYPE_2":"Municipality","CC_2":"NA","HASC_2":"NA","name":"San_Marcos.county"},
"geometry":{"type": "MultiPolygon","coordinates": [[[[-104.1422,20.8845,1604.1881],[-104.1472,20.8912,1707.4684],[-104.1532,20.8931,1827.1691],[-104.1552,20.8977,1876.9156],[-104.1662,20.9029,1912.0984],[-104.172,20.9116,1994.4634],[-104.1792,20.9122,1998.4082],[-104.1819,20.9103,1978.3646],[-104.1907,20.9155,1898.7325],[-104.1937,20.9142,1793.251],[-104.196,20.9152,1807.0106],[-104.1977,20.9191,1756.2937],[-104.2022,20.9204,1741.5146],[-104.2018,20.922,1709.4619],[-104.2164,20.9233,1623.7751],[-104.2184,20.9205,1618.5822],[-104.2169,20.9195,1611.2081],[-104.2257,20.9165,1576.6719],[-104.2278,20.9121,1571.4349],[-104.2305,20.9115,1549.6869],[-104.2333,20.9072,1530.5883],[-104.2378,20.9043,1516.4227],[-104.2392,20.9,1486.3928],[-104.2419,20.9009,1493.2074],[-104.2437,20.8977,1488.3574],[-104.2496,20.8961,1468.1145],[-104.2504,20.8945,1464.6591],[-104.2517,20.8956,1483.0977],[-104.2532,20.8928,1452.9468],[-104.2595,20.894,1437.7737],[-104.2685,20.8873,1474.5844],[-104.2909,20.8878,1499.0239],[-104.2884,20.8853,1487.7253],[-104.2854,20.875,1366.4933],[-104.2791,20.8645,1298.9302],[-104.2907,20.8623,1230.4469],[-104.2902,20.849,1123.8481],[-104.2951,20.8479,1083.4663],[-104.2954,20.8455,1092.7686],[-104.2982,20.8474,1077.8724],[-104.3021,20.8457,1065.2877],[-104.3088,20.8468,1122.1897],[-104.3127,20.843,1055.9766],[-104.3126,20.8404,1026.9872],[-104.3157,20.840699999999998,1024.1958],[-104.3184,20.8386,1002.2717],[-104.3225,20.8413,991.3592],[-104.3317,20.8427,965.3132],[-104.3343,20.8467,965.5995],[-104.3419,20.8442,958.012],[-104.3452,20.8464,920.7476],[-104.3473,20.8448,935.0023],[-104.35,20.8457,962.9041],[-104.3536,20.8428,906.4636],[-104.3563,20.8437,922.6795],[-104.36,20.8419,909.5148],[-104.3593,20.8401,980.4549],[-104.3618,20.8409,984.3635],[-104.3617,20.8385,949.6038],[-104.3584,20.8343,1022.0732],[-104.3589,20.824,1162.0242],[-104.3571,20.8199,1311.4851],[-104.3603,20.8198,1285.9176],[-104.3641,20.8139,1462.0228],[-104.3504,20.8116,1638.8562],[-104.3759,20.7841,923.0939],[-104.3752,20.7754,815.6005],[-104.3664,20.7831,915.7441],[-104.3614,20.7854,978.6403],[-104.3582,20.7905,1080.1117],[-104.3464,20.7932,1253.9243],[-104.3453,20.7908,1286.999],[-104.3358,20.7899,1489.5735],[-104.3283,20.7981,1621.4764],[-104.2976,20.7708,1573.6851],[-104.2915,20.7706,1624.2439],[-104.2902,20.773,1673.1936],[-104.2922,20.7771,1758.5422],[-104.2899,20.7813,1722.759],[-104.2829,20.7835,1688.0319],[-104.28,20.7689,1658.4901],[-104.2745,20.77,1626.79],[-104.2735,20.7684,1641.2686],[-104.2599,20.7353,1698.8451],[-104.2478,20.7265,1654.645],[-104.2415,20.7238,1628.3969],[-104.2389,20.7257,1616.4172],[-104.2344,20.7261,1610.7919],[-104.2292,20.7244,1625.2657],[-104.2249,20.7266,1576.5706],[-104.2201,20.725,1525.6349],[-104.2142,20.7296,1510.2471],[-104.2142,20.7313,1492.3391],[-104.2107,20.7313,1467.6974],[-104.2067,20.7287,1435.7089],[-104.2033,20.7301,1417.6531],[-104.1946,20.7343,1402.1506],[-104.1944,20.7387,1393.0281],[-104.2012,20.744,1377.0276],[-104.1996,20.7488,1373.0083],[-104.1989,20.748,1376.3098],[-104.1951,20.7514,1375.1836],[-104.1978,20.7555,1386.1548],[-104.2017,20.7572,1362.4052],[-104.203,20.7634,1355.9872],[-104.2052,20.7648,1353.0905],[-104.2062,20.7726,1347.4417],[-104.2048,20.7762,1347.531],[-104.2024,20.7731,1347.1803],[-104.1983,20.7843,1363.8151],[-104.1308,20.7707,1373.1436],[-104.1262,20.7758,1371.2974],[-104.1269,20.7772,1375.541],[-104.125,20.7788,1399.2565],[-104.1301,20.779,1417.9094],[-104.1298,20.7818,1427.0542],[-104.1362,20.7846,1448.8674],[-104.1366,20.7887,1460.0581],[-104.1352,20.7894,1470.2998],[-104.1348,20.7932,1496.951],[-104.1379,20.7996,1498.775],[-104.1344,20.7993,1504.2402],[-104.1332,20.8027,1521.2676],[-104.1362,20.8061,1519.1691],[-104.1348,20.8089,1483.5381],[-104.126,20.8118,1442.4771],[-104.1243,20.8149,1408.6779],[-104.1279,20.8144,1422.4054],[-104.1293,20.8118,1452.7113],[-104.1318,20.8114,1468.4769],[-104.1368,20.8187,1595.4808],[-104.134,20.8238,1542.3334],[-104.1285,20.8248,1451.3708],[-104.1321,20.8278,1456.7567],[-104.1278,20.8334,1487.459],[-104.1281,20.8358,1498.3931],[-104.1329,20.8401,1512.4662],[-104.128,20.8419,1481.1014],[-104.1273,20.8451,1527.4502],[-104.1324,20.8496,1593.9945],[-104.1394,20.8512,1612.2927],[-104.143,20.8545,1615.1716],[-104.1423,20.8571,1634.2339],[-104.1437,20.8581,1664.6038],[-104.1457,20.856,1675.7472],[-104.1536,20.8589,1742.6373],[-104.1542,20.8632,1752.0294],[-104.153,20.864,1748.5684],[-104.1554,20.8678,1721.9393],[-104.154,20.8712,1631.8418],[-104.1487,20.8744,1591.8484],[-104.1489,20.8777,1578.1464],[-104.1472,20.8794,1585.8934],[-104.1423,20.8796,1599.0663],[-104.1422,20.8845,1604.1881]]]]}}