{"type":"Feature","properties":{"ISO3166-1-Alpha-3":"MEX","country":"Mexico","fill":"#F0F","id":"2706","name":"Baja California"},
"geometry":{"type": "MultiPolygon","coordinates": [[[[-114.09429,28.02418,0.0],[-114.10843,28.03071,0.7567],[-114.12122,28.02298,0.51],[-114.12324,28.01645,0.3141],[-114.11785,28.01111,0.0],[-114.10708,28.01348,0.0],[-114.09831,28.00028,0.3707],[-114.0713,28.00039,0.0],[-114.07746,28.00932,0.0],[-114.09429,28.02418,0.0]]],
[[[-114.1475,28.00015,0.0],[-114.15084,28.00457,0.0],[-114.14949,28.01347,0.0],[-114.14613,28.02179,0.3711],[-114.13537,28.0313,0.0],[-114.11718,28.04318,0.0],[-114.11381,28.06041,0.0],[-114.11987,28.08595,0.0],[-114.13439,28.08393,0.0],[-114.1551,28.06245,0.0],[-114.18566,28.02269,0.0],[-114.20702,27.99999,0.0],[-114.1475,28.00015,0.0]]],
[[[-115.59381,28.31717,0.0],[-115.60104,28.31602,0.0],[-115.60398,28.31014,0.0],[-115.60269,28.3043,31.5178],[-115.59232,28.2975,1.5801],[-115.57908,28.30083,3.0091],[-115.57554,28.30726,0.9335],[-115.56467,28.30737,2.6552],[-115.56778,28.31372,1.5254],[-115.57926,28.31413,0.0],[-115.58826,28.30978,26.5413],[-115.59381,28.31717,0.0]]],
[[[-115.18304,28.09515,0.0],[-115.18578,28.10617,10.6356],[-115.17646,28.11676,0.0],[-115.17534,28.12448,83.2763],[-115.16269,28.12962,0.0],[-115.15583,28.14078,0.0],[-115.15971,28.15071,0.0],[-115.15549,28.1707,0.0],[-115.15885,28.19284,0.2707],[-115.17227,28.21265,0.0],[-115.17276,28.23456,0.0],[-115.16271,28.26134,0.0],[-115.16859,28.28512,0.0],[-115.17577,28.29882,30.9472],[-115.17393,28.30883,0.0],[-115.18414,28.31474,0.0],[-115.19498,28.34136,15.4853],[-115.192,28.36084,0.0],[-115.21487,28.37828,0.0],[-115.235,28.37023,0.0],[-115.24864,28.35932,0.0],[-115.25709,28.32744,0.0],[-115.26245,28.29876,0.0],[-115.25515,28.26392,0.0],[-115.23976,28.23361,0.0],[-115.27367,28.18952,0.0],[-115.334,28.12488,0.0],[-115.35216,28.11642,0.4696],[-115.35805,28.08258,3.1849],[-115.34661,28.07105,0.0],[-115.3367,28.08444,10.3926],[-115.32167,28.08679,0.8933],[-115.30354,28.0947,0.0],[-115.28026,28.08747,0.0],[-115.26185,28.07014,10.9816],[-115.254,28.0403,12.7799],[-115.24702,28.03372,0.0],[-115.23388,28.03606,49.9533],[-115.22814,28.02832,0.0],[-115.21815,28.03175,0.0],[-115.2063,28.03794,0.0],[-115.19457,28.03392,0.0],[-115.18926,28.0303,0.0],[-115.1817,28.02758,0.0],[-115.18303,28.03478,0.0],[-115.17932,28.04034,0.0],[-115.18829,28.05635,0.0],[-115.18215,28.07024,15.3339],[-115.18797,28.0868,7.921],[-115.18304,28.09515,0.0]]],
[[[-112.30034,28.37653,94.9649],[-112.298,28.3841,59.9853],[-112.30817,28.3896,8.5161],[-112.31676,28.3834,98.5733],[-112.31363,28.37652,0.0],[-112.30659,28.37309,0.0],[-112.29955,28.36966,0.0],[-112.30034,28.37653,94.9649]]],
[[[-112.76205,28.58196,0.0],[-112.7524,28.59108,0.0],[-112.76011,28.59485,70.6835],[-112.76354,28.60282,5.8072],[-112.77842,28.6103,5.7104],[-112.783,28.61761,0.0],[-112.79125,28.62288,0.0],[-112.80496,28.63654,63.4778],[-112.86076,28.67186,6.5914],[-112.89377,28.6777,0.0],[-112.88449,28.67022,62.6026],[-112.87744,28.66339,0.0],[-112.87187,28.65558,45.6214],[-112.86523,28.65015,31.6074],[-112.8678,28.64328,0.0],[-112.84264,28.64007,3.8355],[-112.82932,28.62578,0.0],[-112.81057,28.61843,0.0],[-112.79793,28.60992,15.5425],[-112.78913,28.58687,0.0],[-112.78365,28.58598,18.2153],[-112.78099,28.58103,6.4797],[-112.77392,28.57578,4.2946],[-112.76205,28.58196,0.0]]],
[[[-112.89934,28.68941,36.8796],[-112.89898,28.69494,37.4707],[-112.91011,28.69689,20.7044],[-112.92125,28.69916,14.1937],[-112.93165,28.70859,4.732],[-112.9335,28.70175,23.2365],[-112.93052,28.69655,0.0],[-112.9205,28.69297,2.5965],[-112.90788,28.6868,0.0],[-112.89971,28.6842,51.5798],[-112.89934,28.68941,36.8796]]],
[[[-112.94697,28.72118,37.9873],[-112.95235,28.72762,2.6017],[-112.95597,28.72898,10.5004],[-112.96048,28.73248,6.2075],[-112.96594,28.73254,0.0],[-112.96323,28.73038,0.0],[-112.95963,28.72795,2.1304],[-112.95847,28.72369,5.5984],[-112.95423,28.72312,3.0719],[-112.9503,28.72201,42.1208],[-112.94733,28.7172,2.1011],[-112.94697,28.72118,37.9873]]],
[[[-112.55745,28.73381,0.0],[-112.56989,28.7289,10.32],[-112.59349,28.73223,0.0],[-112.60066,28.72797,74.7632],[-112.61315,28.72576,0.0],[-112.61224,28.70523,92.3867],[-112.60093,28.67698,76.0256],[-112.60435,28.66943,0.0],[-112.59467,28.67308,58.8758],[-112.57206,28.6684,0.0],[-112.55394,28.67229,42.2951],[-112.54574,28.68659,1.3705],[-112.54598,28.70187,4.0708],[-112.5414,28.71227,17.4009],[-112.54672,28.71746,9.8224],[-112.54796,28.72855,2.9041],[-112.55745,28.73381,0.0]]],
[[[-112.97733,28.82603,4.8854],[-112.98025,28.82606,5.2503],[-112.98181,28.82663,1.152],[-112.98391,28.826,3.3823],[-112.98463,28.82656,3.3823],[-112.98612,28.82438,2.3033],[-112.98291,28.82242,7.6767],[-112.98146,28.82085,0.0],[-112.98021,28.82103,3.5234],[-112.97676,28.82127,6.0447],[-112.97538,28.82318,16.6147],[-112.97483,28.825,2.8874],[-112.97733,28.82603,4.8854]]],
[[[-113.03536,28.89392,44.6134],[-113.03288,28.89553,101.0183],[-113.03362,28.89895,18.2866],[-113.03698,28.90084,0.0],[-113.03884,28.8995,15.9583],[-113.03761,28.89771,7.6185],[-113.03733,28.89568,0.0],[-113.03984,28.89125,19.6082],[-113.04252,28.88958,16.9556],[-113.04567,28.88981,0.0],[-113.04551,28.8883,0.0],[-113.04756,28.88604,0.0],[-113.04497,28.88331,0.0],[-113.04015,28.88447,0.0],[-113.03991,28.88806,0.0],[-113.03536,28.89392,44.6134]]],
[[[-113.47529,28.97043,57.2007],[-113.47804,28.97691,0.0],[-113.48567,28.97896,0.0],[-113.48314,28.97605,28.3681],[-113.4806,28.97514,14.8749],[-113.48267,28.97114,0.0],[-113.48092,28.96734,16.1145],[-113.47634,28.9671,39.6201],[-113.47529,28.97043,57.2007]]],
[[[-113.50829,28.99303,23.0434],[-113.50462,28.99514,57.4256],[-113.50742,29.00118,11.0343],[-113.51147,29.00191,15.5575],[-113.51597,28.99661,56.4254],[-113.51477,28.99377,60.2201],[-113.51116,28.98914,14.9343],[-113.50829,28.99303,23.0434]]],
[[[-113.45968,29.01289,0.0],[-113.46267,29.01714,0.0],[-113.46462,29.02073,22.3306],[-113.46717,29.02296,38.315],[-113.46998,29.02387,0.0],[-113.46754,29.0165,0.0],[-113.463,29.01113,0.0],[-113.45968,29.01289,0.0]]],
[[[-113.08227,29.06555,24.1626],[-113.08269,29.07161,0.0],[-113.08964,29.06994,0.0],[-113.09566,29.0635,0.0],[-113.08972,29.06302,37.3273],[-113.08227,29.06555,24.1626]]],
[[[-113.49164,29.03957,0.0],[-113.49645,29.04232,19.43],[-113.49675,29.04835,0.0],[-113.50122,29.05049,4.4975],[-113.50014,29.05622,53.2484],[-113.50596,29.0626,0.0],[-113.50556,29.07076,12.2246],[-113.50413,29.07532,109.7947],[-113.50892,29.07873,71.6781],[-113.50786,29.08291,55.3937],[-113.50405,29.08795,1.2737],[-113.50471,29.09218,0.8301],[-113.5119,29.09501,119.6888],[-113.51884,29.09556,5.5667],[-113.52715,29.0923,0.0],[-113.52271,29.08593,66.4591],[-113.52103,29.07898,3.0628],[-113.51484,29.07623,1.914],[-113.51523,29.0702,9.6065],[-113.51355,29.06324,0.0],[-113.50943,29.0608,7.0238],[-113.51221,29.0581,1.6928],[-113.51432,29.05328,50.1308],[-113.50883,29.04842,0.0],[-113.50472,29.04417,0.0],[-113.50682,29.03966,0.0],[-113.50133,29.03631,0.0],[-113.49201,29.03595,0.0],[-113.49164,29.03957,0.0]]],
[[[-118.2258,28.91505,0.0],[-118.22136,28.95934,0.0],[-118.22908,28.99597,16.2607],[-118.22053,29.01518,0.0],[-118.22959,29.06172,163.3458],[-118.25148,29.08944,106.7511],[-118.26721,29.09806,60.4138],[-118.27911,29.11624,0.0],[-118.28618,29.13644,0.0],[-118.28369,29.15186,0.0],[-118.27178,29.16512,0.0],[-118.25589,29.18093,0.0],[-118.27376,29.18956,0.0],[-118.29635,29.18616,0.0],[-118.30925,29.17156,19.291],[-118.33673,29.16329,365.7155],[-118.35678,29.14948,293.0117],[-118.36538,29.13165,0.0],[-118.3688,29.1144,0.0],[-118.36402,29.09831,0.0],[-118.35821,29.08367,361.1767],[-118.35552,29.067,0.0],[-118.33528,29.05116,0.0],[-118.3235,29.03997,0.0],[-118.31368,29.02556,73.2109],[-118.30434,28.99802,245.4283],[-118.31599,28.98169,0.0],[-118.29998,28.96776,0.0],[-118.29404,28.94812,177.9813],[-118.29747,28.93089,0.0],[-118.29275,28.91572,0.0],[-118.28359,28.89257,6.3878],[-118.29475,28.88862,0.0],[-118.29839,28.8768,0.0],[-118.28878,28.86808,0.0],[-118.28921,28.87888,0.0],[-118.28202,28.8791,0.0],[-118.27038,28.88618,0.0],[-118.25136,28.88454,0.0],[-118.2258,28.91505,0.0]]],
[[[-113.49949,29.53514,70.6546],[-113.51084,29.53758,0.8744],[-113.51088,29.54934,0.0],[-113.52365,29.54993,42.8257],[-113.52362,29.54311,37.3285],[-113.53565999999999,29.53813,11.7976],[-113.54912,29.53314,13.3723],[-113.55836,29.53808,0.0],[-113.5598,29.54428,5.3441],[-113.57114,29.53995,3.8169],[-113.56895,29.52447,50.6561],[-113.56459,29.50768,0.0],[-113.57365,29.47852,19.8606],[-113.5884,29.45685,36.9906],[-113.59342,29.43363,0.0],[-113.5891,29.4096,0.0],[-113.57198,29.39779,0.0],[-113.56068,29.38617,0.0],[-113.55857,29.37821,0.0],[-113.54368,29.36653,0.0],[-113.53937,29.35476,0.0],[-113.53155,29.3492,0.0],[-113.52444,29.33442,28.5018],[-113.51169,29.32641,2.429],[-113.50461,29.31658,7.672],[-113.50317,29.29812,38.547],[-113.49608,29.2852,22.7366],[-113.48193,29.27844,0.0],[-113.46497,29.27907,0.0],[-113.45013,29.27972,0.0],[-113.43461,29.26678,3.8952],[-113.42753,29.25201,3.3944],[-113.43103,29.24277,0.0],[-113.40553,29.21197,0.0],[-113.38721,29.19724,3.2976],[-113.36207,29.18758,39.1317],[-113.35397,29.17074,5.4252],[-113.33501,29.16096,10.1536],[-113.32109,29.15555,0.0],[-113.31255,29.14627,0.0],[-113.30065,29.14509,0.0],[-113.2927,29.13326,2.2007],[-113.27574,29.11723,31.0559],[-113.26292,29.10288,2.2467],[-113.25818,29.08771,0.0],[-113.25089,29.08198,34.2353],[-113.24363,29.06947,56.6786],[-113.22949,29.05957,22.7255],[-113.21628,29.05541,6.0741],[-113.1994,29.04681,40.6678],[-113.19075,29.02875,17.176],[-113.15916,29.01774,20.3501],[-113.14707,29.00408,8.7128],[-113.13576,29.00033,0.0],[-113.12329,28.98636,0.0],[-113.11479,28.98448,0.0],[-113.11436,29.01373,26.1273],[-113.11664,29.0262,33.1256],[-113.10208,29.05311,0.0],[-113.11777,29.05629,0.0],[-113.12485,29.06064,2.7218],[-113.13817,29.06489,0.0],[-113.14823,29.06627,2.0226],[-113.15738,29.08355,34.6541],[-113.1545,29.0934,0.6927],[-113.15806,29.10021,23.7996],[-113.17009,29.11999,0.0],[-113.17432,29.12925,2.9834],[-113.17359,29.15702,2.4729],[-113.17073,29.17861,0.0],[-113.16577,29.1891,0.0],[-113.17218,29.19467,0.0],[-113.17214,29.20639,0.0],[-113.17141,29.22613,0.0],[-113.17793,29.23788,24.2172],[-113.17881,29.25946,21.3652],[-113.16852,29.27612,4.6648],[-113.18276,29.28969,0.0],[-113.20627,29.28537,2.2173],[-113.22109,29.28908,0.0],[-113.23803,29.28847,3.7231],[-113.25568,29.28539,0.0],[-113.26414,29.28848,72.9854],[-113.27686,29.2891,3.8367],[-113.28538,29.28046,3.1241],[-113.29741,29.28046,30.9689],[-113.30659,29.29033,2.6585],[-113.3456,29.29583,0.0],[-113.37029,29.31001,8.1231],[-113.37241,29.33469,5.8412],[-113.37596,29.34393,2.9077],[-113.37314,29.36121,0.0],[-113.3611,29.37418,6.4188],[-113.34978,29.38407,0.0],[-113.36326,29.39328,1.6508],[-113.36113,29.40193,0.0],[-113.3732,29.42164,0.0],[-113.38599,29.43512,50.0492],[-113.38527,29.44256,21.4833],[-113.39449,29.45117,19.5915],[-113.39516,29.45932,2.4697],[-113.41934,29.46639,17.3954],[-113.43277,29.49254,0.0],[-113.4633,29.51888,0.0],[-113.47679,29.5321,0.0],[-113.49949,29.53514,70.6546]]],
[[[-113.56339,29.55295,0.0],[-113.56271,29.56039,23.1393],[-113.56841,29.56473,13.0481],[-113.57987,29.55942,5.3827],[-113.57331,29.548,7.2375],[-113.56339,29.55295,0.0]]],
[[[-114.39478,29.96018,0.0],[-114.40006,29.9693,88.4574],[-114.40185,29.98603,0.0],[-114.41854,29.98678,18.8893],[-114.41589,29.97613,2.9343],[-114.42202,29.96624,3.3947],[-114.40707,29.95865,3.3068],[-114.39478,29.96018,0.0]]],
[[[-114.47257,30.0169,0.0],[-114.47298,30.02244,0.0],[-114.48178,30.02139,0.0],[-114.47416,30.01378,15.1849],[-114.47257,30.0169,0.0]]],
[[[-114.54045,30.09127,22.257],[-114.55568,30.09263,0.0],[-114.55206,30.08951,1.8352],[-114.54765,30.08952,0.0],[-114.54324,30.0871,58.0059],[-114.53761,30.08226,14.8496],[-114.53441,30.0833,0.0],[-114.53683,30.08781,5.4084],[-114.54045,30.09127,22.257]]],
[[[-116.10418,30.48259,0.805],[-116.10424,30.48808,0.0],[-116.10961,30.49535,11.2084],[-116.11441,30.49622,13.2859],[-116.12284,30.49157,12.598],[-116.12277,30.48517,4.7735],[-116.11476,30.48203,3.6257],[-116.10418,30.48259,0.805]]],
[[[-117.23932,32.38912,0.0],[-117.23935,32.39714,0.0],[-117.24197,32.40443,0.0],[-117.24503,32.41463,0.2029],[-117.24764,32.41863,4.4618],[-117.25369,32.4208,0.0],[-117.25106,32.41096,0.0],[-117.24803,32.40733,0.0],[-117.2467,32.40004,0.0],[-117.24321,32.38874,0.0],[-117.23932,32.38912,0.0]]],
[[[-114.83275,32.49194,27.1256],[-114.81947,32.49931,26.5555],[-114.81937,32.49936,26.5555],[-114.82211,32.50024,27.8411],[-114.80945,32.51132,23.9085],[-114.79555,32.55223,26.7403],[-114.7942,32.57411,30.6993],[-114.80268,32.5945,27.8652],[-114.78681,32.62103,30.4333],[-114.78154,32.62806,30.984],[-114.7588,32.64483,33.7646],[-114.75116,32.65222,34.4014],[-114.73948,32.66907,34.8739],[-114.73121,32.68664,35.7353],[-114.72387,32.71152,34.5657],[-114.72428,32.71284,33.981],[-114.72428,32.71284,33.981],[-114.76454,32.70984,51.4273],[-114.83808,32.70421,53.1297],[-114.91161,32.6987,49.7678],[-114.9852,32.69312,43.2384],[-115.05873,32.68757,39.2852],[-115.13227,32.68199,32.0185],[-115.20581,32.67646,26.5915],[-115.27929,32.67082,19.4568],[-115.35285,32.66535,11.3107],[-115.42639,32.65976,5.9762],[-115.49992,32.65421,1.6323],[-115.57354,32.64865,-0.9306],[-115.64702,32.64307,-1.4026],[-115.72053,32.63752,157.9064],[-115.79406,32.63196,99.6247],[-115.8676,32.62641,142.9274],[-115.94121,32.62083,262.411],[-116.01475,32.61527,591.0281],[-116.08823,32.60966,1367.2635],[-116.16174,32.60416,878.3379],[-116.23533,32.59855,987.156],[-116.30889,32.59302,1057.895],[-116.38243,32.58747,1026.4607],[-116.45596,32.58189,899.4863],[-116.52947,32.57633,718.6147],[-116.60301,32.5708,545.1915],[-116.67654,32.56522,551.1232],[-116.7501,32.55967,375.3691],[-116.82364,32.55409,271.2472],[-116.8972,32.54853,149.5515],[-116.97074,32.54298,139.1215],[-117.04422,32.53742,18.7467],[-117.12512,32.53167,0.0],[-117.12415,32.52412,0.0],[-117.12453,32.51292,0.0],[-117.12338,32.49056,27.1121],[-117.12125,32.47191,0.0],[-117.1184,32.45454,0.0],[-117.10729,32.43765,0.0],[-117.08861,32.40493,25.0922],[-117.07348,32.36945,6.3939],[-117.02497,32.27692,26.1638],[-117.00988,32.26508,0.0],[-116.96666,32.25658,24.8916],[-116.94831,32.24702,0.0],[-116.93342,32.23379,0.0],[-116.92268,32.21939,0.0],[-116.9051,32.17837,31.89],[-116.88687,32.13203,49.5197],[-116.87865,32.06924,6.6357],[-116.87531,32.03449,58.3356],[-116.86539,32.01301,70.0761],[-116.84227,31.98652,5.2732],[-116.80386,31.97871,0.0],[-116.76989,31.97777,122.9132],[-116.75792,31.96503,127.5519],[-116.75601,31.93456,3.9928],[-116.75477,31.90964,0.0],[-116.73528,31.90348,15.7229],[-116.71879,31.90119,0.0],[-116.69473,31.89004,0.0],[-116.67638,31.86876,11.0467],[-116.65693,31.8639,8.8508],[-116.6197,31.85757,2.1549],[-116.61182,31.84288,5.2945],[-116.61,31.8226,0.0],[-116.6126,31.80103,0.0],[-116.61963,31.77174,1.1901],[-116.63044,31.75283,3.4573],[-116.64363,31.73428,1.0757],[-116.66128,31.72337,0.0],[-116.67882,31.727,1.8561],[-116.70881,31.74421,0.0],[-116.75038,31.75236,0.0],[-116.74118,31.73853,0.0],[-116.71532,31.71098,0.0],[-116.69017,31.70816,0.0],[-116.67536,31.70258,202.7818],[-116.66853,31.69701,205.7531],[-116.6551,31.67796,178.8568],[-116.64806,31.65917,19.5699],[-116.65575,31.63247,44.6654],[-116.66194,31.61644,103.1769],[-116.66417,31.60114,30.9625],[-116.64452,31.57954,128.1156],[-116.66763,31.58002,0.0],[-116.68106,31.5773,0.0],[-116.67724,31.57779,0.0],[-116.68106,31.56631,130.6793],[-116.67561,31.55264,0.0],[-116.65221,31.53791,52.7707],[-116.64696,31.52839,95.9938],[-116.60912,31.50141,39.0081],[-116.60196,31.49116,103.2598],[-116.59952,31.48387,85.9233],[-116.59594,31.47785,83.0911],[-116.58552,31.47134,99.1006],[-116.57213,31.46686,25.4685],[-116.55236,31.45209,0.0],[-116.53893,31.44725,25.8097],[-116.5301,31.44033,4.1335],[-116.51415,31.4228,16.9143],[-116.50821,31.41934,22.0457],[-116.49763,31.40681,60.696],[-116.45414,31.33854,0.0],[-116.34154,31.21955,67.8146],[-116.30944,31.1485,0.0],[-116.31811,31.08966,0.0],[-116.32612,31.02745,7.5105],[-116.34036,30.98926,0.0],[-116.33545,30.95634,0.0],[-116.30731,30.95409,0.0],[-116.26818,30.96381,0.0],[-116.24975,30.95677,65.1328],[-116.22619,30.92646,12.1344],[-116.21858,30.91315,0.0],[-116.20128,30.89159,8.8502],[-116.17577,30.86015,0.0],[-116.15208,30.85782,0.0],[-116.10564,30.81881,0.0],[-116.06802,30.81318,8.8683],[-116.05793,30.80248,9.2023],[-116.05484,30.78368,0.0],[-116.03685,30.73021,54.5809],[-116.03112,30.62714,0.0],[-116.04925,30.47959,0.0],[-116.02898,30.44127,28.0781],[-116.01233,30.39225,0.0],[-116.00455,30.35916,0.0],[-115.97978,30.35936,0.0],[-115.99136,30.38862,0.0],[-115.99645,30.41055,0.0],[-116.00609,30.42231,0.0],[-116.01464,30.42601,0.0],[-116.01513,30.43448,0.8213],[-116.01024,30.44367,0.0],[-116.00267,30.44965,0.0],[-115.98928,30.44049,11.9541],[-115.983,30.43199,0.5676],[-115.97187,30.43421,14.7286],[-115.96174,30.44221,1.9694],[-115.96329,30.45869,3.4485],[-115.97057,30.47085,0.0],[-115.98013,30.48257,5.3978],[-115.98908,30.49746,0.3498],[-115.97248,30.49282,9.3761],[-115.9547,30.47956,9.2053],[-115.94026,30.46336,0.9606],[-115.93383,30.44965,1.2761],[-115.937,30.43513,0.9731],[-115.94734,30.42341,0.0],[-115.97541,30.40127,1.1704],[-115.93293,30.40021,0.0],[-115.89833,30.38666,0.0],[-115.86597,30.36871,0.0],[-115.8373,30.34647,10.4786],[-115.82591,30.31771,1.2457],[-115.80728,30.28413,0.0],[-115.79833,30.2403,0.0],[-115.79723,30.19579,0.0],[-115.80321,30.16303,0.0],[-115.80407,30.15143,1.6514],[-115.80191,30.14313,0.0],[-115.79255,30.12954,58.2289],[-115.79039,30.12377,33.3101],[-115.78327,30.09264,0.0],[-115.79039,30.03807,0.0],[-115.81119,29.968,0.0],[-115.80748,29.9562,14.2816],[-115.76252,29.9538,11.5979],[-115.74429,29.9475,4.534],[-115.72891,29.93513,1.6109],[-115.72081,29.9208,0.0],[-115.6999,29.89801,0.7214],[-115.69478,29.86923,0.0],[-115.69074,29.85175,0.0],[-115.68577,29.83064,0.0],[-115.68801,29.80177,8.8471],[-115.69525,29.7772,2.6834],[-115.69756,29.75583,7.222],[-115.62205,29.6953,0.0],[-115.5937,29.69217,0.0],[-115.57263,29.66872,0.0],[-115.54809,29.65339,2.7663],[-115.53612,29.63516,0.0],[-115.51915,29.62726,0.0],[-115.49858,29.6114,0.0],[-115.47745,29.62645,0.0],[-115.45196,29.62011,0.0],[-115.42357,29.59569,0.0],[-115.37145,29.55695,0.0],[-115.28572,29.52989,0.0],[-115.23229,29.49006,0.0],[-115.18712,29.42862,8.7131],[-115.10424,29.41889,0.0],[-114.97204,29.37775,20.4552],[-114.92484,29.33097,3.8221],[-114.87947,29.28767,8.1887],[-114.8514,29.2583,0.0],[-114.82935,29.23159,0.0],[-114.78531,29.19416,0.0],[-114.75231,29.19282,71.6854],[-114.7438,29.18757,6.0444],[-114.73982,29.17552,4.3831],[-114.73493,29.1518,0.0],[-114.72789,29.14118,2.9868],[-114.72201,29.1175,0.0],[-114.70493,29.09611,0.0],[-114.68904,29.11314,29.3792],[-114.65954,29.10301,0.0],[-114.63142,29.09447,5.4295],[-114.62336,29.08051,0.0],[-114.61815,29.06306,7.6058],[-114.60831,29.04621,0.0],[-114.60253,29.03034,8.7953],[-114.60376,28.99761,0.0],[-114.59163,28.9654,0.0],[-114.57502,28.97923,5.196],[-114.56121,28.9804,26.9822],[-114.5563,28.97028,1.2771],[-114.54892,28.95152,0.0],[-114.54283,28.93439,15.1582],[-114.52994,28.92552,6.6893],[-114.52306,28.92536,0.0],[-114.51594,28.92967,0.0],[-114.50194,28.93256,0.0],[-114.47663,28.92914,24.0791],[-114.4594,28.91071,18.3719],[-114.43994,28.89461,11.7265],[-114.43758,28.87751,1.6859],[-114.4193,28.87848,0.0],[-114.40232,28.86025,12.8384],[-114.40728,28.83998,0.0],[-114.39165,28.80678,0.0],[-114.37092,28.81318,1.8832],[-114.36205,28.79511,0.0],[-114.36137,28.7778,0.0],[-114.34802,28.76387,36.645],[-114.34687,28.74891,0.0],[-114.34692,28.73075,4.96],[-114.31406,28.72633,0.0],[-114.29831,28.70382,0.0],[-114.27534,28.69624,19.7709],[-114.27171,28.68447,0.0],[-114.26915,28.67512,4.552],[-114.27306,28.67308,0.0],[-114.27175,28.6588,0.0],[-114.24616,28.65332,0.4125],[-114.23534,28.66006,0.0],[-114.20775,28.66144,6.1924],[-114.18399,28.66185,42.1138],[-114.17492,28.6577,40.9236],[-114.16584,28.64696,27.0225],[-114.15727,28.62567,1.6395],[-114.15497,28.60104,1.0389],[-114.15758,28.58222,0.0],[-114.16013,28.56619,0.0],[-114.14799,28.56077,4.8707],[-114.1278,28.56265,3.8156],[-114.11042,28.56184,40.3895],[-114.09634,28.55191,10.0788],[-114.08642,28.54116,24.6217],[-114.08312,28.53205,53.066],[-114.0773,28.52383,48.9873],[-114.06823,28.51801,43.7081],[-114.06901,28.5041,0.0],[-114.0715,28.48694,0.0],[-114.06432,28.47945,0.0],[-114.05089,28.47419,4.5355],[-114.04259,28.45844,1.4193],[-114.04942,28.43257,0.0],[-114.06076,28.4047,0.0],[-114.08117,28.34297,1.4892],[-114.09929,28.30713,0.0],[-114.1106,28.28622,0.0],[-114.11856,28.2693,0.0],[-114.12488,28.25573,0.5404],[-114.11737,28.25085,0.0],[-114.10985,28.24179,2.9563],[-114.09878,28.23865,0.0],[-114.08894,28.24677,0.0],[-114.0782,28.24677,0.0],[-114.06994,28.23941,0.3043],[-114.06493,28.22362,0.2456],[-114.06163,28.2121,0.0],[-114.05748,28.20628,0.0],[-114.06988,28.19357,0.6379],[-114.07867,28.17632,0.0],[-114.09016,28.15609,0.0],[-114.10569,28.13468,0.0],[-114.11042,28.12523,1.7169],[-114.11312,28.12041,0.0],[-114.10571,28.1115,0.0],[-114.10167,28.09903,0.8824],[-114.10101,28.0711,0.0],[-114.09967,28.05506,0.0],[-114.08552,28.05685,0.8624],[-114.07003,28.05507,0.0],[-114.05791,28.04199,0.0],[-114.04647,28.03843,0.0],[-114.03771,28.03723,0.0],[-114.03974,28.02773,0.0],[-114.05524,28.00754,0.225],[-114.06283,28.00049,0.0],[-114.01471,28.00059,4.73],[-113.8348,28.00126,66.2212],[-113.65487,28.00119,154.8724],[-113.47495,28.00111,184.2767],[-113.29502,28.00072,246.5843],[-113.11511,28.00026,553.8304],[-112.93519,27.99987,654.0979],[-112.76357,27.99942,1.5664],[-112.76876,28.00213,0.0],[-112.78568,28.00287,1.5813],[-112.79936,28.01742,0.0],[-112.80541,28.03205,17.0568],[-112.8037,28.04572,4.3193],[-112.79696,28.05795,9.9759],[-112.78956,28.06747,1.9034],[-112.79122,28.07817,0.0],[-112.79843,28.08145,0.8273],[-112.80139,28.08575,0.0],[-112.81177,28.12054,0.0],[-112.80771,28.15091,0.0],[-112.8039,28.16261,0.0],[-112.79897,28.16844,0.0],[-112.79572,28.18389,0.0],[-112.79381,28.19027,0.0],[-112.78646,28.19608,0.0],[-112.79183,28.20148,0.0],[-112.80027,28.20368,0.0],[-112.80502,28.21068,3.6744],[-112.83785,28.24355,57.7651],[-112.83922,28.25242,0.0],[-112.85306,28.26005,38.6704],[-112.86496,28.27183,0.0],[-112.87213,28.28374,0.0],[-112.86887,28.29973,4.1104],[-112.87426,28.30786,0.0],[-112.8703,28.33078,1.2961],[-112.85398,28.36851,18.1382],[-112.84953,28.38234,0.0],[-112.8542,28.3979,2.6274],[-112.85839,28.40384,3.0548],[-112.85149,28.4171,0.0],[-112.84474,28.42239,7.7458],[-112.84706,28.4304,0.0],[-112.8463,28.44108,1.4857],[-112.85788,28.44122,0.0],[-112.86225,28.43488,0.0],[-112.86778,28.43228,0.0],[-112.87994,28.43458,2.3446],[-112.88171,28.43726,0.0],[-112.87548,28.44518,0.0],[-112.876,28.45051,0.8679],[-112.8869,28.45598,1.9332],[-112.88556,28.46343,19.1169],[-112.90236,28.47534,6.9458],[-112.93045,28.46658,2.3392],[-112.97127,28.45633,11.6243],[-113.00164,28.45558,0.0],[-113.0361,28.46661,5.1007],[-113.03962,28.47623,0.0],[-113.06324,28.47969,12.0071],[-113.08072,28.48681,27.7027],[-113.0825,28.49318,6.6089],[-113.10297,28.50458,17.4483],[-113.11429,28.52814,6.9644],[-113.11166,28.54572,0.0],[-113.11629,28.56551,0.0],[-113.12098,28.57889,0.0],[-113.13161,28.60458,1.61],[-113.12699,28.62787,0.0],[-113.13235,28.6413,0.0],[-113.15605,28.65763,0.0],[-113.16989,28.69152,29.3051],[-113.17586,28.71351,34.4119],[-113.18199,28.71573,0.0],[-113.19424,28.74402,4.8374],[-113.19038,28.75945,0.0],[-113.1914,28.77279,0.0],[-113.19988,28.77981,86.9084],[-113.19604,28.79205,0.6873],[-113.20266,28.79851,2.6669],[-113.21184,28.80287,0.0],[-113.21416,28.81731,0.0],[-113.22026,28.82484,14.424],[-113.2341,28.83562,0.0],[-113.26039,28.84011,54.6002],[-113.26849,28.83218,0.0],[-113.28543,28.8259,14.5882],[-113.29101,28.81901,0.0],[-113.30204,28.80895,34.368],[-113.30997,28.80206,28.4213],[-113.33249,28.80062,0.0],[-113.35448,28.80027,2.8338],[-113.35185,28.81839,0.3566],[-113.36529,28.82384,0.0],[-113.37063,28.83721,3.3452],[-113.36746,28.84518,0.0],[-113.36729,28.85852,0.0],[-113.36597,28.86865,0.0],[-113.35922,28.87394,33.6025],[-113.36832,28.87774,18.5664],[-113.37251,28.88631,17.3284],[-113.38042,28.89328,0.0],[-113.37912,28.90021,0.0],[-113.3681,28.90176,0.0],[-113.36744,28.9071,0.0],[-113.39423,28.91314,10.6563],[-113.39102,28.92861,0.0],[-113.38674,28.93072,4.9407],[-113.38303,28.9355,0.8961],[-113.38787,28.9398,9.2579],[-113.40562,28.93298,0.0],[-113.40629,28.92712,0.0],[-113.41305,28.92232,2.8701],[-113.42879,28.93471,7.3611],[-113.42622,28.94914,20.4332],[-113.43466,28.95987,0.0],[-113.44023,28.95133,12.5463],[-113.45006,28.94229,0.0],[-113.46222,28.94665,0.0],[-113.47319,28.9478,1.2576],[-113.47869,28.94625,15.0692],[-113.48302,28.93934,0.0],[-113.48062,28.93343,0.0],[-113.48797,28.9303,0.0],[-113.48315,28.9217,16.6021],[-113.47221,28.91517,0.0],[-113.47903,28.90191,3.3105],[-113.47723,28.89816,10.3763],[-113.48154,28.8934,0.2808],[-113.50477,28.88932,1.0908],[-113.52485,28.89157,4.0316],[-113.52601,28.90118,0.0],[-113.53389,28.90657,0.7635],[-113.5405,28.92049,0.0],[-113.54649,28.93332,0.0],[-113.55788,28.94825,1.6219],[-113.55547,28.95526,0.0],[-113.54694,28.95898,0.0],[-113.54499,28.97553,0.0],[-113.54974,28.99318,0.0],[-113.56187,29.00015,9.7361],[-113.5636,29.01404,1.3806],[-113.56172,29.02367,4.988],[-113.55622,29.02796,1.7684],[-113.55003,29.03861,1.389],[-113.53964,29.03962,1.3729],[-113.53588,29.05142,0.0],[-113.5474,29.06537,3.7945],[-113.56433,29.09163,12.8599],[-113.57088,29.11516,0.6465],[-113.57937,29.12642,0.0],[-113.59105,29.12912,3.8883],[-113.60205,29.14088,5.4742],[-113.60852,29.15434,16.7519],[-113.60845,29.16342,2.4293],[-113.61396,29.16237,0.0],[-113.62436,29.16242,3.6419],[-113.62492,29.16991,9.2173],[-113.62855,29.17527,17.6486],[-113.63223,29.17368,0.0],[-113.64138,29.18383,0.0],[-113.63835,29.19864,22.0199],[-113.64612,29.20203,89.877],[-113.65534,29.20732,0.0],[-113.65656,29.21844,4.7098],[-113.64732,29.228,1.1115],[-113.63848,29.24048,2.9161],[-113.62308,29.25271,0.0],[-113.62487,29.2586,0.0],[-113.63158,29.26396,0.0],[-113.63633,29.28218,0.0],[-113.64852,29.29396,0.0],[-113.68084,29.316,0.0],[-113.77087,29.40776,5.0433],[-113.78739,29.41477,0.5802],[-113.79663,29.41644,41.1389],[-113.80389,29.42445,0.4217],[-113.81311,29.42824,2.8648],[-113.82475,29.42989,1.2051],[-113.83267,29.43525,58.3585],[-113.83195,29.45017,23.6899],[-113.83867,29.4566,2.5644],[-113.85032,29.45879,46.8154],[-113.86505,29.46366,47.6876],[-113.88032,29.47705,18.0318],[-113.89746,29.48565,1.6414],[-113.91088,29.50063,13.5577],[-113.92248,29.5124,0.0],[-113.9305,29.52016,3.7673],[-113.94313,29.52475,3.6746],[-113.952,29.53878,0.0],[-113.95806,29.54024,34.3752],[-113.96552,29.54671,163.3116],[-113.97419,29.55694,28.7388],[-113.98129,29.5679,0.0],[-113.99433,29.57698,41.7525],[-114.00557,29.57675,25.1884],[-114.01486,29.57795,57.3222],[-114.02251,29.58134,1.1539],[-114.02305,29.5842,9.0254],[-114.02768,29.58726,8.7459],[-114.0304,29.59321,0.0],[-114.03259,29.59443,0.0],[-114.04628,29.59638,14.2277],[-114.05038,29.60522,0.0],[-114.05639,29.61214,4.7027],[-114.05939,29.61667,0.0],[-114.06266,29.62932,0.0],[-114.08223,29.64098,0.0],[-114.0902,29.64244,1.5974],[-114.09739,29.64797,19.5329],[-114.11122,29.65306,114.1593],[-114.11237,29.65606,84.258],[-114.11871,29.66299,4.9679],[-114.12658,29.67036,0.0],[-114.13201,29.67094,72.3433],[-114.13262,29.67657,0.0],[-114.14125,29.68282,51.6323],[-114.1426,29.69067,0.0],[-114.15041,29.69398,0.0],[-114.15233,29.69255,17.6631],[-114.15783,29.69042,1.8107],[-114.16057,29.69233,0.9204],[-114.16495,29.70019,40.0927],[-114.17015,29.70234,0.0],[-114.17537,29.70473,24.941],[-114.17893,29.70759,0.0],[-114.18171,29.7095,40.7883],[-114.18332,29.71283,12.2434],[-114.18721,29.71426,0.0],[-114.19047,29.71997,3.7453],[-114.19623,29.72188,74.8212],[-114.20032,29.72735,64.5232],[-114.20331,29.73973,0.0],[-114.20848,29.74478,26.9623],[-114.22029,29.7464,16.976],[-114.2211,29.74906,0.0],[-114.22768,29.75001,22.9316],[-114.23591,29.7586,1.214],[-114.24348,29.76299,22.4314],[-114.25395,29.76207,0.3759],[-114.25755,29.76043,0.0],[-114.26025,29.7654,0.2505],[-114.2633,29.76472,0.0],[-114.26578,29.76925,0.0],[-114.27121,29.77207,9.9098],[-114.27372,29.77019,42.0182],[-114.27865,29.77043,17.7732],[-114.28054,29.77207,10.6846],[-114.28302,29.76993,12.1139],[-114.28552,29.76568,0.0],[-114.29289,29.76659,1.8462],[-114.29399,29.76134,16.5897],[-114.29234,29.75706,0.0],[-114.28606,29.75662,0.0],[-114.28796,29.75302,47.3946],[-114.28881,29.74829,5.2055],[-114.29704,29.74235,0.0],[-114.30414,29.74157,1.695],[-114.32253,29.7411,2.3831],[-114.33954,29.74472,5.522],[-114.34585,29.75159,4.6227],[-114.34585,29.75873,1.6881],[-114.35326,29.76802,0.1148],[-114.36314,29.77206,3.1277],[-114.3711,29.77017,5.8031],[-114.38125,29.77445,0.0],[-114.39224,29.78301,0.0],[-114.39582,29.79611,0.3995],[-114.39608,29.80517,1.4919],[-114.39826,29.80971,0.0],[-114.40944,29.81543,0.0],[-114.40863,29.82137,0.0],[-114.40319,29.82684,0.0],[-114.3963,29.82723,4.1583],[-114.40303,29.83282,6.049],[-114.4151,29.85477,10.6447],[-114.40879,29.88094,0.0],[-114.41684,29.8912,43.6228],[-114.42772,29.9073,0.0],[-114.45934,29.91012,1.5332],[-114.4727,29.91897,0.0],[-114.48131,29.9473,0.0],[-114.53313,29.96795,6.0785],[-114.5443,29.99168,0.0],[-114.55815,30.01763,0.0],[-114.58143,30.05112,0.0],[-114.58038,30.0726,0.0],[-114.59655,30.08945,0.0],[-114.60453,30.11074,0.0],[-114.6246,30.1175,0.866],[-114.63078,30.13238,0.0],[-114.63069,30.14452,0.0],[-114.64217,30.15503,4.9959],[-114.65264,30.17483,25.9034],[-114.6603,30.18325,0.0],[-114.66573,30.19957,0.0],[-114.6553,30.2134,0.0],[-114.65158,30.22848,51.1355],[-114.64477,30.25003,0.0],[-114.64012,30.26376,3.1651],[-114.65095,30.277,0.0],[-114.6527,30.28828,0.3243],[-114.65152,30.29645,0.0],[-114.64396,30.31373,0.0],[-114.63531,30.36456,0.0],[-114.6406,30.37521,0.0],[-114.63455,30.39679,0.5335],[-114.62952,30.4248,0.0],[-114.63664,30.44184,0.0],[-114.63806,30.46327,3.4756],[-114.63021,30.48058,1.6179],[-114.6306,30.49487,0.0],[-114.64029,30.51301,4.9838],[-114.64525,30.52412,0.0],[-114.64607,30.53449,0.0],[-114.64855,30.54386,0.0],[-114.64965,30.55456,0.0],[-114.66182,30.57434,0.0],[-114.68433,30.60677,0.6036],[-114.69847,30.63721,0.0],[-114.69189,30.671,0.0],[-114.69645,30.6875,0.0],[-114.70547,30.71172,0.0],[-114.69365,30.73626,0.0],[-114.68724,30.74499,0.0],[-114.6952,30.7613,0.0],[-114.70058,30.77482,3.6175],[-114.69686,30.81998,0.0],[-114.70394,30.83486,3.5897],[-114.7092,30.84406,2.6735],[-114.7046,30.85846,0.0],[-114.70792,30.87421,5.3672],[-114.7091,30.88496,3.5538],[-114.71045,30.91842,0.0],[-114.7149,30.92834,0.0],[-114.71676,30.93545,0.0],[-114.72026,30.9411,0.0],[-114.73634,30.94935,0.0],[-114.80354,30.97663,0.0],[-114.82177,30.98896,0.0],[-114.83239,31.00666,0.0],[-114.83292,31.02741,10.2111],[-114.81493,31.0428,56.6564],[-114.81347,31.04999,7.3158],[-114.83817,31.06661,56.2847],[-114.8639,31.08967,0.0],[-114.88404,31.12072,0.0],[-114.88868,31.16289,0.0],[-114.88378,31.18224,0.0],[-114.87263,31.27267,0.0],[-114.8752,31.3287,0.0],[-114.85231,31.38943,0.0],[-114.85291,31.52661,2.1654],[-114.84114,31.56684,2.0],[-114.82396,31.60041,2.8294],[-114.78864,31.63618,2.0],[-114.78063,31.65583,0.9345],[-114.79296,31.67927,2.422],[-114.80744,31.69831,2.0],[-114.81599,31.71914,3.1362],[-114.82799,31.78978,2.0],[-114.83503,31.80191,2.0],[-114.84944,31.8061,2.0],[-114.85618,31.82223,2.0],[-114.87002,31.83995,2.0],[-114.88896,31.85635,2.0],[-114.9134,31.86107,0.7742],[-114.92345,31.87352,0.0],[-114.93619,31.88475,0.0],[-114.95132,31.89448,2.6515],[-114.96862,31.90209,3.5435],[-114.99454,31.90656,2.6099],[-115.00211,31.90888,2.652],[-115.01195,31.91474,3.6904],[-115.01622,31.91909,3.7941],[-115.03063,31.94208,3.7462],[-115.03474,31.95474,3.7084],[-115.03523,31.96605,3.6548],[-115.02945,31.97093,3.85],[-115.02107,31.96556,3.2134],[-115.01749,31.95384,3.5972],[-115.0157,31.94221,3.9575],[-115.01207,31.93684,2.5],[-115.00585,31.93456,4.0305],[-114.99132,31.92479,3.6794],[-114.98135,31.92255,0.0],[-114.96841,31.92133,0.0],[-114.95613,31.91812,0.0],[-114.93383,31.90888,3.3124],[-114.93363,31.90876,3.3124],[-114.93698,31.93069,3.5591],[-114.93652,31.95505,2.9923],[-114.9344,31.97924,2.5],[-114.93331,32.005,2.9133],[-114.93419,32.0196,4.3263],[-114.93698,32.0319,4.4103],[-114.94254,32.04342,4.821],[-114.95161,32.05574,6.1172],[-114.95794,32.0607,6.4195],[-114.96644,32.06523,7.4393],[-114.9745,32.06957,8.051],[-114.97941,32.07401,8.465],[-114.98031,32.0897,8.6585],[-114.97042,32.10401,29.7562],[-114.95918,32.12021,9.6725],[-114.95592,32.14155,10.3335],[-114.96654,32.18059,12.4272],[-114.98401,32.2125,12.4712],[-115.00711,32.24142,13.8633],[-115.03478,32.27136,16.8179],[-115.03974,32.27718,17.8348],[-115.03711,32.2917,17.3312],[-115.02065,32.30976,16.7794],[-115.00011,32.32307,17.0598],[-114.98168,32.34149,18.1438],[-114.97171,32.36345,18.6631],[-114.96949,32.38169,16.9313],[-114.97008,32.39844,18.1503],[-114.96864,32.41598,21.4829],[-114.96019,32.43864,22.9814],[-114.94525,32.4628,21.4975],[-114.92631,32.48254,21.3972],[-114.90595,32.49171,24.0486],[-114.85368,32.48799,24.3073],[-114.83275,32.49194,27.1256]]]]}}