{"type": "Feature","bbox": [-106.2429,23.076,-105.7003,23.7665],"geometry": {"type": "MultiPolygon","coordinates": [[[[-105.7949,23.5801,1148.0941],[-105.7967,23.5834,1327.0422],[-105.8015,23.5855,1351.0952],[-105.8021,23.5877,1490.6603],[-105.8066,23.5889,1439.0449],[-105.8116,23.611,1759.9386],[-105.8455,23.6033,1992.8571],[-105.8452,23.5837,2451.2703],[-105.8536,23.5973,2072.5232],[-105.8843,23.5904,1823.7382],[-105.8927,23.5526,1909.1793],[-105.9089,23.5883,1577.02],[-105.9266,23.6841,1184.5143],[-105.9166,23.7154,839.2485],[-105.9159,23.7264,619.2445],[-105.9061,23.7371,1183.3547],[-105.9061,23.7394,1276.0605],[-105.9231,23.7478,886.6848],[-105.9229,23.7522,728.7404],[-105.9197,23.7578,430.1683],[-105.9233,23.7613,384.0786],[-105.9267,23.7615,345.0385],[-105.9316,23.7558,330.4977],[-105.9429,23.7613,379.3469],[-105.9477,23.7584,349.4453],[-105.9567,23.7572,301.439],[-105.9675,23.766,304.2573],[-105.973,23.7665,302.3885],[-105.9766,23.7653,290.8623],[-105.9779,23.7603,310.7087],[-105.9851,23.7572,345.0236],[-105.9859,23.7526,316.636],[-105.9892,23.7476,290.0429],[-105.992,23.7463,273.4427],[-105.9961,23.7474,280.3187],[-106.0001,23.751,268.9585],[-106.0099,23.7484,284.0914],[-106.0132,23.7451,277.7121],[-106.0115,23.7397,262.3625],[-106.006,23.7355,255.6396],[-106.0053,23.732,290.172],[-106.0075,23.725,251.9624],[-106.0051,23.7189,248.3346],[-106.013,23.7128,249.1923],[-106.0199,23.7164,246.1213],[-106.0263,23.7119,265.8476],[-106.022,23.7041,237.3437],[-106.0143,23.7009,238.0701],[-106.0164,23.6959,231.1218],[-106.0221,23.6908,227.7847],[-106.0205,23.6868,227.7822],[-106.0209,23.682,226.4229],[-106.0239,23.6774,230.03],[-106.0346,23.6812,221.1001],[-106.042,23.6793,212.3334],[-106.0442,23.676,213.3653],[-106.0427,23.6721,212.2613],[-106.0376,23.6726,211.609],[-106.035,23.6704,211.4833],[-106.0341,23.6644,239.8772],[-106.0386,23.6621,252.7408],[-106.0395,23.6597,213.518],[-106.0379,23.6567,215.5441],[-106.0338,23.6566,210.625],[-106.0333,23.6537,215.5108],[-106.0367,23.6522,196.7088],[-106.042,23.6557,245.5496],[-106.0497,23.6487,223.0623],[-106.057,23.6533,192.4889],[-106.063,23.6531,184.7408],[-106.0692,23.6436,188.4491],[-106.0689,23.6415,179.3382],[-106.0645,23.6398,183.5812],[-106.0616,23.6356,181.9864],[-106.0619,23.6328,184.0031],[-106.0652,23.6317,178.7109],[-106.0675,23.627,198.0277],[-106.0606,23.6158,193.2369],[-106.0624,23.612,169.9635],[-106.0665,23.6113,167.2319],[-106.0737,23.6166,163.4334],[-106.0766,23.6163,161.5126],[-106.079,23.6131,161.1044],[-106.081,23.613,165.4844],[-106.087,23.6153,170.7761],[-106.0899,23.6215,160.7792],[-106.0923,23.623,155.7556],[-106.0945,23.6181,160.4939],[-106.0851,23.6074,154.3956],[-106.0851,23.6043,147.2223],[-106.0887,23.6039,186.9293],[-106.0938,23.5985,164.9618],[-106.1003,23.5983,149.9681],[-106.1075,23.6022,190.3564],[-106.1109,23.6001,146.1321],[-106.1124,23.5954,141.8746],[-106.1106,23.5923,176.812],[-106.1125,23.5855,166.2753],[-106.1113,23.5838,140.4604],[-106.1057,23.5827,135.4545],[-106.1046,23.5785,136.4536],[-106.1141,23.5722,133.5439],[-106.1164,23.5679,132.4656],[-106.1212,23.5681,128.7658],[-106.1208,23.5745,187.7653],[-106.1228,23.5762,179.6871],[-106.1486,23.5837,124.3726],[-106.1522,23.5817,144.7602],[-106.1546,23.5737,137.3031],[-106.1438,23.5636,121.0],[-106.1501,23.5554,141.2335],[-106.1528,23.5552,137.7761],[-106.1565,23.5579,127.7307],[-106.1641,23.5594,120.5],[-106.1677,23.5645,120.5],[-106.1743,23.5664,120.5],[-106.1807,23.5608,120.5],[-106.1808,23.5549,120.5],[-106.1912,23.5524,120.5],[-106.1928,23.5464,120.5],[-106.1912,23.5422,120.5],[-106.1854,23.5374,120.5],[-106.1839,23.526,120.5],[-106.1864,23.526,120.5],[-106.1908,23.5193,120.5],[-106.1953,23.5179,120.5],[-106.1984,23.5139,120.5],[-106.1969,23.5046,120.5],[-106.1997,23.5001,120.5],[-106.2001,23.4958,120.5],[-106.1996,23.4889,120.5],[-106.1973,23.4844,120.5],[-106.2041,23.4838,123.9461],[-106.2057,23.482,124.3753],[-106.205,23.4773,76.2147],[-106.2011,23.4747,90.7969],[-106.2007,23.4701,122.4952],[-106.2033,23.4685,96.1993],[-106.2074,23.4704,71.9149],[-106.2117,23.4696,93.7106],[-106.2122,23.4659,107.1829],[-106.2081,23.4618,82.1644],[-106.2108,23.4538,79.5911],[-106.2168,23.4511,71.0645],[-106.2314,23.4522,65.491],[-106.237,23.4463,63.607],[-106.2336,23.4379,61.3166],[-106.2172,23.4328,66.3492],[-106.2116,23.4222,59.4156],[-106.2112,23.4151,54.6206],[-106.2068,23.405,55.8161],[-106.2117,23.4,48.8004],[-106.2216,23.3989,49.7115],[-106.2224,23.3971,62.8757],[-106.2106,23.3851,53.1521],[-106.2113,23.3789,48.5347],[-106.2088,23.3719,49.475],[-106.2165,23.3701,52.3849],[-106.2294,23.3705,42.8625],[-106.2352,23.3681,42.6764],[-106.2369,23.3654,85.4143],[-106.2319,23.3626,41.2132],[-106.2291,23.3577,39.0588],[-106.2387,23.3563,52.8142],[-106.2429,23.3521,49.3783],[-106.2322,23.3538,109.522],[-106.2319,23.3472,48.3239],[-106.2261,23.3428,48.8478],[-106.2217,23.3442,70.2264],[-106.22,23.3396,61.2651],[-106.2212,23.3379,61.8274],[-106.2204,23.3345,86.4418],[-106.2174,23.3327,81.0606],[-106.2141,23.3341,96.5964],[-106.2093,23.3299,119.6689],[-106.1857,23.3272,291.8559],[-106.1851,23.3104,425.4421],[-106.1746,23.3039,648.7441],[-106.1595,23.2138,48.7992],[-106.1851,23.2131,30.7486],[-106.1861,23.2075,35.0557],[-106.1949,23.2066,44.2626],[-106.2056,23.1996,18.7096],[-106.1994,23.1982,21.8454],[-106.2007,23.1907,17.9381],[-106.1958,23.1916,17.7173],[-106.1961,23.1896,17.5757],[-106.1471,23.1903,58.4506],[-106.1363,23.1826,58.2904],[-106.1398,23.183,54.5892],[-106.1392,23.1761,44.8376],[-106.1343,23.1664,36.0493],[-106.1272,23.1656,39.8366],[-106.1234,23.1626,45.5986],[-106.121,23.1643,43.7848],[-106.1204,23.161,45.5286],[-106.1117,23.1611,52.9323],[-106.1085,23.1625,54.1424],[-106.1055,23.1598,60.5271],[-106.1032,23.1615,64.5953],[-106.0998,23.1602,64.9126],[-106.101,23.1588,62.7385],[-106.0956,23.1553,74.5494],[-106.099,23.1517,83.7365],[-106.0987,23.1497,84.7811],[-106.1026,23.1479,98.5012],[-106.1068,23.143,72.7266],[-106.1065,23.1402,75.3976],[-106.1101,23.1323,78.214],[-106.1308,23.0989,18.8735],[-106.1058,23.076,25.7057],[-106.0963,23.0898,49.6918],[-106.1023,23.0955,32.3815],[-106.0927,23.1108,58.8422],[-106.0777,23.0983,30.4878],[-106.0769,23.0993,30.4843],[-106.0791,23.1026,33.4698],[-106.0776,23.1069,33.7388],[-106.0766,23.106,33.7388],[-106.0692,23.1094,40.3551],[-106.0706,23.114,48.5803],[-106.069,23.1149,48.5047],[-106.0636,23.1132,39.6778],[-106.0606,23.1145,48.4788],[-106.0457,23.1053,67.6462],[-106.0385,23.1155,83.4578],[-106.0267,23.1088,98.5918],[-106.0131,23.0965,72.1479],[-106.0103,23.1005,74.6909],[-106.0046,23.1011,76.6996],[-105.9992,23.105,78.9154],[-105.9808,23.1083,63.505],[-105.9794,23.1124,69.7001],[-105.9824,23.1157,77.4594],[-105.9805,23.1202,67.7162],[-105.974,23.1075,59.5378],[-105.9766,23.1052,57.2322],[-105.9716,23.1043,66.6495],[-105.968,23.0965,53.8713],[-105.964,23.0955,74.53],[-105.9633,23.0939,53.4491],[-105.9657,23.0902,50.5],[-105.9619,23.0889,50.5],[-105.963,23.0846,67.2342],[-105.9306,23.118,365.4606],[-105.909,23.1193,170.3046],[-105.9099,23.1389,124.53],[-105.9264,23.1782,182.3249],[-105.9227,23.19,238.728],[-105.9372,23.1933,181.1628],[-105.9383,23.2,166.5099],[-105.9434,23.2008,167.5946],[-105.9492,23.2345,137.8158],[-105.9281,23.2387,98.8203],[-105.9294,23.2426,101.6809],[-105.9361,23.2489,105.9616],[-105.9357,23.2575,129.2271],[-105.933,23.2586,126.2656],[-105.9399,23.2677,195.3713],[-105.9305,23.3215,276.1707],[-105.9173,23.3317,366.4483],[-105.8388,23.3077,1037.4933],[-105.849,23.33,1365.4814],[-105.7386,23.3386,1125.6799],[-105.718,23.3685,342.4011],[-105.7232,23.3721,403.3399],[-105.7299,23.374,336.6027],[-105.7305,23.377,350.986],[-105.7281,23.3782,352.7342],[-105.7233,23.3766,352.3786],[-105.7173,23.3786,426.2842],[-105.7173,23.38,357.9819],[-105.7225,23.3838,370.7898],[-105.7224,23.386,400.7519],[-105.7171,23.3927,371.9317],[-105.7121,23.3926,370.1153],[-105.7118,23.3978,442.5212],[-105.7086,23.4039,425.7346],[-105.7103,23.4081,406.9449],[-105.704,23.4113,379.8047],[-105.7003,23.4202,431.6],[-105.7071,23.4259,437.2657],[-105.722,23.4264,419.6093],[-105.7283,23.429,441.6563],[-105.7306,23.434,488.5076],[-105.7284,23.4396,453.1645],[-105.7389,23.4452,503.1628],[-105.7383,23.4484,489.1634],[-105.7339,23.4522,477.535],[-105.7301,23.4528,467.0587],[-105.7293,23.4579,474.5331],[-105.7247,23.4608,475.3922],[-105.7281,23.4668,520.9365],[-105.7236,23.4752,478.4833],[-105.7298,23.4823,636.7961],[-105.7342,23.4824,572.5397],[-105.7394,23.4853,605.9836],[-105.7405,23.4893,586.7669],[-105.7486,23.4937,665.8854],[-105.751,23.5003,628.1224],[-105.76,23.5025,642.1827],[-105.7601,23.5091,682.1454],[-105.7566,23.5155,710.6691],[-105.7568,23.5245,771.741],[-105.7597,23.5269,740.9608],[-105.7589,23.532,829.9089],[-105.7604,23.5351,842.6874],[-105.7691,23.5419,809.4227],[-105.768,23.5457,807.9574],[-105.7693,23.5485,811.9916],[-105.7676,23.5515,834.2928],[-105.7688,23.5557,900.7007],[-105.7703,23.5577,908.9343],[-105.7727,23.5579,892.461],[-105.7729,23.561,903.4673],[-105.7783,23.5641,923.7958],[-105.7797,23.5668,938.7538],[-105.7859,23.5695,1025.1631],[-105.7843,23.5732,1050.3086],[-105.7854,23.575,1113.1232],[-105.7898,23.5785,1112.8677],[-105.7934,23.578,1119.6257],[-105.7949,23.5801,1148.0941]]]]}
,"properties": {"GID_2": "MEX.25.5_2","GID_0": "MEX","country": "México","GID_1": "MEX.25_1","province": "Sinaloa","NL_NAME_1": "NA","county": "Concordia","VARNAME_2": "NA","NL_NAME_2": "NA","TYPE_2": "Município","ENGTYPE_2": "Municipality","CC_2": "NA","HASC_2": "NA","name": "Concordia.county","area_km2": 2172.451,"hist_schema_id": "Elevation0-9000","hist_area_km2": {"25": 14.66,"50": 39.267,"75": 81.849,"100": 98.009,"125": 118.705,"150": 119.052,"175": 101.072,"200": 92.869,"225": 75.898,"250": 67.301,"275": 63.534,"300": 58.362,"325": 56.937,"350": 53.996,"375": 48.212,"400": 43.191,"425": 40.699,"450": 36.089,"475": 33.499,"500": 31.498,"525": 30.155,"550": 31.302,"575": 30.932,"600": 29.319,"625": 29.317,"650": 26.986,"675": 26.694,"700": 24.887,"725": 24.944,"750": 24.343,"775": 23.741,"800": 23.761,"825": 24.169,"850": 22.615,"875": 21.546,"900": 21.079,"925": 20.651,"950": 20.128,"975": 19.292,"1000": 16.666,"1025": 16.434,"1050": 15.948,"1075": 16.686,"1100": 15.792,"1125": 14.451,"1150": 14.976,"1175": 14.354,"1200": 16.066,"1225": 14.159,"1250": 13.964,"1275": 14.315,"1300": 13.206,"1325": 12.35,"1350": 10.794,"1375": 11.202,"1400": 11.046,"1425": 10.541,"1450": 11.183,"1475": 10.21,"1500": 10.074,"1525": 8.926,"1550": 8.985,"1575": 8.284,"1600": 8.401,"1625": 7.331,"1650": 6.942,"1675": 6.417,"1700": 6.65,"1725": 5.639,"1750": 6.222,"1775": 6.027,"1800": 5.832,"1825": 4.86,"1850": 4.86,"1875": 5.171,"1900": 5.365,"1925": 4.685,"1950": 4.082,"1975": 3.343,"2000": 3.188,"2025": 2.469,"2050": 2.332,"2075": 1.963,"2100": 1.594,"2125": 1.419,"2150": 1.419,"2175": 1.496,"2200": 0.797,"2225": 0.816,"2250": 0.408,"2275": 0.291,"2300": 0.272,"2325": 0.214,"2350": 0.078,"2375": 0.194,"2400": 0.117,"2425": 0.097,"2450": 0.117,"2475": 0.078,"2500": 0.039,"2525": 0.058}}}