{"type":"Feature","properties":{"GID_2":"MEX.30.63_2","GID_0":"MEX","country":"México","GID_1":"MEX.30_1","province":"Veracruz","NL_NAME_1":"NA","county":"Cuichapa","VARNAME_2":"NA","NL_NAME_2":"NA","TYPE_2":"Município","ENGTYPE_2":"Municipality","CC_2":"NA","HASC_2":"NA","name":"Cuichapa.county"},
"geometry":{"type": "MultiPolygon","coordinates": [[[[-96.9043,18.7861,583.0148],[-96.8939,18.7805,566.1508],[-96.8839,18.7786,556.8904],[-96.8821,18.7752,569.4474],[-96.8771,18.7734,560.2565],[-96.8762,18.7707,546.642],[-96.871,18.7662,552.2932],[-96.87,18.7626,523.0874],[-96.8572,18.7581,505.4852],[-96.8498,18.7606,494.0701],[-96.846,18.7661,487.5252],[-96.842,18.7664,490.0752],[-96.8365,18.7639,472.3387],[-96.8213,18.7624,453.3122],[-96.8136,18.7592,450.3453],[-96.8116,18.755,446.8497],[-96.8026,18.7532,423.4763],[-96.7994,18.7506,412.9983],[-96.7955,18.7511,405.6782],[-96.7923,18.7485,417.7746],[-96.7893,18.7503,406.7717],[-96.7853,18.7495,389.2316],[-96.7791,18.7508,395.3921],[-96.7659,18.7469,385.8977],[-96.753,18.7462,357.4091],[-96.7499,18.7423,355.7254],[-96.7483,18.7434,355.7254],[-96.7465,18.7419,366.3406],[-96.7442,18.7435,352.7814],[-96.7334,18.7395,340.2492],[-96.7306,18.7421,339.197],[-96.7286,18.7419,342.1727],[-96.7252,18.7473,320.0846],[-96.7291,18.7493,327.1972],[-96.7332,18.7483,335.4153],[-96.7393,18.7534,331.6246],[-96.7442,18.7521,337.0571],[-96.7448,18.7545,335.5801],[-96.7516,18.7563,347.6757],[-96.7531,18.7582,346.1579],[-96.7563,18.7589,356.4443],[-96.757,18.7564,373.0684],[-96.7588,18.7571,377.4092],[-96.7586,18.7598,360.1595],[-96.7607,18.7591,371.3536],[-96.7598,18.761,363.6071],[-96.7647,18.7633,367.5905],[-96.7646,18.7659,370.9888],[-96.7664,18.7642,388.1821],[-96.7693,18.7669,370.5494],[-96.7728,18.7646,392.7999],[-96.7722,18.7685,381.0942],[-96.7774,18.7686,391.6972],[-96.7787,18.7664,392.9004],[-96.7824,18.766,394.4025],[-96.7811,18.7642,395.1001],[-96.7834,18.7653,399.4417],[-96.7871,18.7629,415.007],[-96.7892,18.7634,415.1313],[-96.7875,18.7659,400.6565],[-96.7883,18.7687,403.9918],[-96.7926,18.772,413.9141],[-96.7972,18.7727,424.8202],[-96.799,18.7758,437.5475],[-96.8107,18.7727,577.639],[-96.8288,18.776,697.8752],[-96.8307,18.7803,708.6257],[-96.8376,18.7859,777.9963],[-96.8457,18.7848,696.4905],[-96.8482,18.7872,714.1463],[-96.8501,18.7849,724.8599],[-96.8559,18.7871,620.5332],[-96.8556,18.7857,646.4811],[-96.864,18.7863,548.4587],[-96.8644,18.7847,579.1069],[-96.8686,18.7834,544.7253],[-96.8693,18.7858,552.442],[-96.8701,18.7848,557.3243],[-96.8715,18.7872,583.9619],[-96.8737,18.7874,587.759],[-96.8887,18.8008,589.4641],[-96.8906,18.7963,615.4493],[-96.8886,18.7934,606.8992],[-96.8931,18.7931,603.7867],[-96.892,18.79,601.8472],[-96.8998,18.7912,620.9084],[-96.9043,18.7861,583.0148]]]]}}