{"type":"Feature","properties":{"GID_2":"MEX.20.518_2","GID_0":"MEX","country":"México","GID_1":"MEX.20_1","province":"Oaxaca","NL_NAME_1":"NA","county":"SantoDomingoTeojomulco","VARNAME_2":"NA","NL_NAME_2":"NA","TYPE_2":"Município","ENGTYPE_2":"Municipality","CC_2":"NA","HASC_2":"NA","name":"Santo_Domingo_Teojomulco.county"},
"geometry":{"type": "MultiPolygon","coordinates": [[[[-97.3179,16.4801,640.2383],[-97.3095,16.4841,641.1884],[-97.3098,16.4873,625.3057],[-97.3075,16.4895,614.1252],[-97.3021,16.4905,622.8856],[-97.3018,16.494,623.4556],[-97.305,16.498,624.2015],[-97.3019,16.4972,628.3748],[-97.2988,16.4991,632.2345],[-97.2972,16.4963,651.2769],[-97.2944,16.4967,658.4428],[-97.29,16.494,672.6091],[-97.2868,16.4957,692.0494],[-97.2887,16.4977,694.4358],[-97.2878,16.5006,653.0858],[-97.2893,16.5039,646.9489],[-97.2855,16.5077,658.3457],[-97.2835,16.5062,665.2241],[-97.2788,16.5085,662.5933],[-97.2783,16.5067,667.2515],[-97.2767,16.5067,680.825],[-97.2763,16.5084,672.6832],[-97.2726,16.5081,694.5482],[-97.2695,16.5108,685.8675],[-97.2614,16.5066,729.3922],[-97.2589,16.5094,715.5389],[-97.2598,16.5117,725.077],[-97.2561,16.5167,783.4304],[-97.2565,16.5191,790.8365],[-97.2551,16.5205,793.1844],[-97.2566,16.5243,784.0653],[-97.2496,16.5259,792.1483],[-97.2484,16.523,822.67],[-97.2464,16.5242,804.3915],[-97.2409,16.5232,814.8779],[-97.2387,16.5259,874.3558],[-97.2395,16.5278,864.5905],[-97.2366,16.5278,873.2571],[-97.2338,16.5326,956.4537],[-97.2299,16.5354,899.3664],[-97.2293,16.5391,942.5908],[-97.2268,16.5396,933.6209],[-97.2255,16.5382,962.1948],[-97.2213,16.5401,956.5859],[-97.2257,16.5419,994.6556],[-97.223,16.546,1084.0641],[-97.2255,16.5463,1011.9378],[-97.2157,16.5776,1283.7402],[-97.2004,16.5916,1443.9058],[-97.1914,16.592,1538.0789],[-97.189,16.5952,1616.0496],[-97.1784,16.5981,2030.2717],[-97.1638,16.5948,2155.7026],[-97.1569,16.5908,2488.6775],[-97.1599,16.598,2463.2363],[-97.1924,16.6373,2190.7344],[-97.1986,16.647,2003.6522],[-97.2009,16.6579,2395.6238],[-97.1951,16.6706,2553.2932],[-97.1991,16.698,2634.8958],[-97.2025,16.699,2673.5352],[-97.2087,16.6695,2589.0862],[-97.2259,16.6435,2191.2639],[-97.2468,16.6422,1952.1708],[-97.2573,16.6388,1940.2396],[-97.2602,16.6299,1855.4437],[-97.2666,16.6267,1993.5269],[-97.2731,16.6159,1747.0728],[-97.2799,16.6139,1689.067],[-97.2859,16.6085,1463.8519],[-97.2948,16.6056,1460.6212],[-97.331,16.6177,1403.8561],[-97.3381,16.6177,1222.4716],[-97.3462,16.6133,1053.5315],[-97.3492,16.6101,983.1667],[-97.3499,16.6057,933.5093],[-97.3541,16.6022,899.9003],[-97.355,16.5953,856.2516],[-97.3616,16.5857,842.5331],[-97.359,16.5813,872.4677],[-97.3627,16.5807,875.1085],[-97.3673,16.5896,797.1853],[-97.3711,16.5906,818.6144],[-97.3812,16.5865,762.0327],[-97.3892,16.5783,795.3813],[-97.38,16.5598,998.0248],[-97.3474,16.5321,848.1375],[-97.3411,16.5216,794.5113],[-97.3342,16.5143,778.4589],[-97.3344,16.5122,719.9557],[-97.3319,16.5108,747.45],[-97.3331,16.5095,703.8458],[-97.331,16.5026,678.1313],[-97.3324,16.5021,697.7194],[-97.331,16.5006,673.8845],[-97.3321,16.4997,656.017],[-97.3299,16.4988,690.0549],[-97.3274,16.4904,652.3373],[-97.3252,16.4897,628.8984],[-97.3179,16.4801,640.2383]]]]}}