{"type":"Feature","properties":{"GID_2":"MEX.21.146_2","GID_0":"MEX","country":"México","GID_1":"MEX.21_1","province":"Puebla","NL_NAME_1":"NA","county":"SanSebastiánTlacotepec","VARNAME_2":"NA","NL_NAME_2":"NA","TYPE_2":"Município","ENGTYPE_2":"Municipality","CC_2":"NA","HASC_2":"NA","name":"San_Sebastián_Tlacotepec.county"},
"geometry":{"type": "MultiPolygon","coordinates": [[[[-96.8553,18.2413,453.37],[-96.8518,18.2454,401.6498],[-96.8462,18.2469,389.7649],[-96.8465,18.2508,362.2235],[-96.8438,18.2539,364.0765],[-96.8447,18.2553,395.667],[-96.8417,18.2565,378.3213],[-96.8427,18.265,333.1974],[-96.8387,18.2677,316.4867],[-96.8432,18.2711,305.1105],[-96.8373,18.2719,318.1816],[-96.8364,18.2756,338.3094],[-96.834,18.2759,309.7335],[-96.8328,18.2802,269.5334],[-96.8309,18.2806,262.59],[-96.8293,18.284,311.8969],[-96.8257,18.2964,349.99],[-96.8214,18.3002,316.0664],[-96.8176,18.3008,347.9273],[-96.8181,18.3062,334.0311],[-96.8223,18.3102,314.7493],[-96.8214,18.3213,175.1983],[-96.8131,18.3248,178.7789],[-96.8095,18.3293,128.5604],[-96.800299999999993,18.3293,126.3714],[-96.7948,18.332,147.9841],[-96.7954,18.3349,136.0927],[-96.7864,18.3365,116.5366],[-96.7842,18.3383,105.1934],[-96.7827,18.3473,141.0154],[-96.786,18.3535,86.7806],[-96.7815,18.3583,97.7971],[-96.7804,18.3635,85.4537],[-96.7766,18.3646,84.8967],[-96.768,18.3736,78.42],[-96.7635,18.375,119.1166],[-96.7628,18.3832,76.158],[-96.7541,18.3802,82.8444],[-96.7498,18.3816,79.0433],[-96.7518,18.3903,72.6126],[-96.7553,18.3906,66.9959],[-96.7539,18.3926,68.1252],[-96.7327,18.3982,62.3206],[-96.7298,18.3977,60.5],[-96.7287,18.3957,60.5],[-96.7282,18.3973,72.1259],[-96.7312,18.3994,64.6221],[-96.7313,18.4014,69.5817],[-96.7247,18.4074,62.3547],[-96.7285,18.4091,62.1604],[-96.7435,18.4073,67.5757],[-96.7537,18.4117,62.8976],[-96.7556,18.411,62.7572],[-96.7565,18.4084,65.4569],[-96.7591,18.4083,65.877],[-96.7613,18.4116,62.8236],[-96.7664,18.4127,82.1411],[-96.766,18.418,84.104],[-96.7709,18.423,72.4761],[-96.7648,18.4236,67.357],[-96.7628,18.4254,68.2865],[-96.7632,18.4271,77.9833],[-96.7704,18.4293,73.2202],[-96.7755,18.4262,71.5936],[-96.781,18.4291,62.5],[-96.7813,18.4305,71.5793],[-96.778,18.4321,66.1485],[-96.7776,18.4343,66.6931],[-96.784,18.4396,69.6528],[-96.7848,18.4442,67.9378],[-96.7765,18.4462,72.3956],[-96.7754,18.4481,69.6679],[-96.7849,18.4543,68.5261],[-96.7862,18.459,74.5603],[-96.7808,18.4623,79.9104],[-96.7804,18.465,78.2421],[-96.7822,18.4667,69.6162],[-96.7892,18.4671,71.636],[-96.7914,18.4713,84.7575],[-96.7914,18.4774,81.2817],[-96.7958,18.4802,80.2175],[-96.7968,18.4862,79.2318],[-96.793,18.4919,78.9321],[-96.7978,18.497,71.6709],[-96.7974,18.4997,75.8762],[-96.7942,18.5021,69.7606],[-96.7967,18.5114,72.732],[-96.8034,18.5115,74.2193],[-96.8098,18.5176,80.8178],[-96.8139,18.5174,77.2131],[-96.8185,18.5115,73.7769],[-96.824,18.5111,74.7079],[-96.8241,18.5056,76.0529],[-96.8273,18.5038,75.0767],[-96.8245,18.5019,78.1412],[-96.8251,18.4981,78.0598],[-96.8316,18.4973,83.5991],[-96.8386,18.4932,95.3889],[-96.844,18.4929,100.8835],[-96.862799999999993,18.4833,92.6397],[-96.8655,18.4765,89.2238],[-96.8615,18.4705,96.4136],[-96.8616,18.4659,91.0532],[-96.8548,18.4559,130.5098],[-96.8582,18.4521,91.2117],[-96.8574,18.4463,100.2984],[-96.8536,18.4402,93.2115],[-96.8544,18.4357,101.0038],[-96.8574,18.4343,101.9493],[-96.8584,18.4318,97.0035],[-96.8566,18.4265,114.156],[-96.8589,18.4219,102.5671],[-96.8558,18.42,105.1877],[-96.8548,18.4171,113.0285],[-96.8557,18.4153,106.3306],[-96.8603,18.4158,119.3664],[-96.8643,18.4143,110.2009],[-96.8661,18.4117,196.3717],[-96.8725,18.4101,155.5318],[-96.8755,18.4074,202.6197],[-96.8743,18.3937,164.2522],[-96.878,18.3928,153.623],[-96.8872,18.3825,258.6693],[-96.8774,18.3759,567.9141],[-96.8736,18.3687,1057.2081],[-96.8625,18.3607,1251.9283],[-96.8684,18.357,1306.1558],[-96.8627,18.3503,1475.8099],[-96.8522,18.3452,1394.4518],[-96.8474,18.3367,1386.3147],[-96.8466,18.3319,1329.1653],[-96.8479,18.3282,1367.101],[-96.8629,18.3115,1916.3538],[-96.8584,18.3046,1512.7446],[-96.8564,18.2962,1222.7462],[-96.8754,18.2946,962.4388],[-96.8869,18.3042,1760.9352],[-96.899,18.3006,2914.1851],[-96.9056,18.2907,2702.1514],[-96.9009,18.2798,1514.5653],[-96.9001,18.2736,1280.2347],[-96.912,18.2683,2203.5166],[-96.9074,18.2574,1805.7705],[-96.9039,18.2525,1590.5399],[-96.8994,18.25,1356.7542],[-96.9107,18.2388,1202.2495],[-96.908,18.2368,1089.2305],[-96.9004,18.2392,929.1158],[-96.8968,18.2377,981.2347],[-96.8964,18.2405,904.5599],[-96.8883,18.2409,791.6389],[-96.8853,18.244,713.9717],[-96.8753,18.2437,574.9376],[-96.862799999999993,18.2411,459.4285],[-96.8569,18.2431,466.6969],[-96.8553,18.2413,453.37]]]]}}