{"type":"Feature","properties":{"GID_2":"MEX.15.42_2","GID_0":"MEX","country":"México","GID_1":"MEX.15_1","province":"México","NL_NAME_1":"NA","county":"IxtapandelaSal","VARNAME_2":"NA","NL_NAME_2":"NA","TYPE_2":"Município","ENGTYPE_2":"Municipality","CC_2":"NA","HASC_2":"NA","name":"Ixtapandela_Sal.county"},
"geometry":{"type": "MultiPolygon","coordinates": [[[[-99.697,18.7863,1633.7551],[-99.7067,18.7934,1637.9834],[-99.7054,18.796,1640.3134],[-99.7076,18.8007,1681.2072],[-99.71,18.8019,1703.6973],[-99.7089,18.8057,1720.8049],[-99.7123,18.8114,1737.6177],[-99.7065,18.8169,1827.9124],[-99.6922,18.8226,1878.8027],[-99.6812,18.8203,1780.0686],[-99.6707,18.8207,1741.3495],[-99.669,18.8195,1735.5436],[-99.671,18.8151,1696.515],[-99.6649,18.816,1709.8074],[-99.6635,18.8179,1719.4609],[-99.6643,18.8225,1734.0391],[-99.6627,18.8238,1736.9976],[-99.6588,18.8228,1830.8934],[-99.6579,18.8247,1819.5724],[-99.6556,18.8248,1853.1237],[-99.6524,18.8273,1925.9927],[-99.6523,18.8291,1924.9861],[-99.6563,18.8299,1851.907],[-99.648,18.8335,2022.6602],[-99.6398,18.8208,1917.3555],[-99.6408,18.816,1815.0568],[-99.6377,18.8137,1789.4174],[-99.6313,18.8145,1735.2977],[-99.6259,18.8189,1638.8165],[-99.6201,18.8204,1620.1653],[-99.6126,18.8158,1552.3606],[-99.6106,18.8129,1567.1162],[-99.6094,18.8163,1565.675],[-99.6113,18.8181,1529.0964],[-99.6095,18.8197,1517.855],[-99.6123,18.8197,1561.4451],[-99.6134,18.8243,1530.0636],[-99.6195,18.8287,1586.5522],[-99.6183,18.8304,1607.5795],[-99.6194,18.8328,1610.2987],[-99.6214,18.8312,1581.1132],[-99.6216,18.8398,1666.5791],[-99.6247,18.8414,1621.3668],[-99.624,18.8451,1656.5316],[-99.6261,18.8477,1648.1462],[-99.624,18.8495,1696.894],[-99.6287,18.8561,1673.0784],[-99.63,18.8625,1701.4946],[-99.6316,18.8618,1670.958],[-99.6311,18.8641,1677.1777],[-99.6331,18.8641,1748.7809],[-99.6331,18.8671,1720.6042],[-99.636,18.8663,1712.3339],[-99.6404,18.8734,1700.0303],[-99.644,18.8738,1744.9282],[-99.6473,18.8819,1744.3679],[-99.6517,18.8818,1809.377],[-99.652,18.8898,1805.7917],[-99.6577,18.8941,1874.729],[-99.6603,18.8918,1887.6178],[-99.6608,18.8939,1845.5745],[-99.6594,18.8955,1891.6945],[-99.6613,18.8949,1845.5745],[-99.6625,18.8978,1838.668],[-99.6657,18.8985,1855.5776],[-99.6712,18.9042,1909.4894],[-99.6824,18.9059,1939.1786],[-99.683,18.9025,1914.9204],[-99.6879,18.9068,1949.9215],[-99.6937,18.9072,1969.2682],[-99.701,18.9119,2095.4634],[-99.7104,18.9131,2305.5854],[-99.7147,18.9112,2388.9563],[-99.7152,18.9073,2416.2805],[-99.717,18.9056,2380.2288],[-99.7176,18.903,2433.5952],[-99.7151,18.8991,2392.3247],[-99.7191,18.8982,2419.7888],[-99.7326,18.9033,2333.2781],[-99.7353,18.8975,2426.8901],[-99.7323,18.8969,2406.4797],[-99.7325,18.8869,2071.4009],[-99.7346,18.8807,1976.1493],[-99.7312,18.8786,1964.7894],[-99.7314,18.8756,1955.8109],[-99.7278,18.8715,1906.8971],[-99.7286,18.869,1900.3523],[-99.7267,18.8664,1872.271],[-99.7268,18.8609,1882.6719],[-99.7298,18.8599,1893.5764],[-99.7337,18.8544,1882.9038],[-99.734,18.8515,1874.7974],[-99.7283,18.8469,1848.9897],[-99.7275,18.8425,1842.4355],[-99.7307,18.8411,1855.2837],[-99.7404,18.8526,1897.835],[-99.7429,18.8513,1887.6749],[-99.7438,18.8533,1894.0586],[-99.7483,18.8512,1895.4196],[-99.7532,18.8582,1916.8013],[-99.7484,18.8459,1878.2275],[-99.7614,18.841,1886.4307],[-99.7627,18.838,1725.4832],[-99.7562,18.8321,1864.1643],[-99.7572,18.8307,1756.6833],[-99.755,18.8297,1815.8351],[-99.7547,18.8271,1725.017],[-99.7446,18.8179,1805.0179],[-99.7462,18.816,1634.9587],[-99.7449,18.8118,1612.7001],[-99.7389,18.8095,1577.8616],[-99.7375,18.8063,1565.9094],[-99.735,18.8066,1559.1462],[-99.7294,18.7999,1534.2971],[-99.724,18.7976,1520.9221],[-99.7216,18.7919,1608.3062],[-99.7172,18.7898,1570.723],[-99.7153,18.7844,1526.8223],[-99.7171,18.7814,1495.4731],[-99.7164,18.7773,1474.647],[-99.714,18.7757,1463.225],[-99.7139,18.7716,1470.4675],[-99.7092,18.7688,1431.3302],[-99.6953,18.776,1671.7242],[-99.697,18.7863,1633.7551]]]]}}