{"type": "Feature","bbox": [-100.7063,18.2726,-100.5335,18.4151],"geometry": {"type": "MultiPolygon","coordinates": [[[[-100.5848,18.2813,249.0],[-100.581,18.2868,445.7724],[-100.5764,18.2884,620.8191],[-100.5736,18.2945,579.2896],[-100.568,18.2986,631.3855],[-100.5634,18.3096,1007.6536],[-100.565,18.3114,1007.8553],[-100.5658,18.3188,1023.3024],[-100.5739,18.3173,705.075],[-100.5733,18.3306,908.5793],[-100.5707,18.3352,970.2057],[-100.5668,18.3535,446.2326],[-100.5638,18.3509,444.4784],[-100.5628,18.3482,440.3003],[-100.5642,18.3475,542.2],[-100.5621,18.3432,610.1875],[-100.5593,18.3442,582.6603],[-100.5581,18.3474,416.8226],[-100.5532,18.3476,679.1726],[-100.5438,18.333,980.4559],[-100.5343,18.3329,1073.3105],[-100.5335,18.3342,1002.3835],[-100.5372,18.3417,672.9258],[-100.5365,18.3589,432.467],[-100.5411,18.3566,417.8766],[-100.5496,18.3584,405.322],[-100.5483,18.3558,401.253],[-100.5503,18.3542,386.6162],[-100.5597,18.3527,339.472],[-100.5555,18.3587,393.5563],[-100.5502,18.3777,539.4859],[-100.545,18.3731,853.2101],[-100.5414,18.3821,602.2016],[-100.5442,18.3901,446.4336],[-100.5511,18.3897,373.2405],[-100.5505,18.3929,321.642],[-100.5617,18.3981,284.1468],[-100.5628,18.4028,277.5543],[-100.5646,18.4012,286.4556],[-100.5795,18.4106,283.1661],[-100.5878,18.4121,252.4389],[-100.5894,18.4151,259.2085],[-100.5902,18.4139,262.6709],[-100.5882,18.4115,250.2206],[-100.5892,18.4083,262.5721],[-100.5922,18.4072,250.6432],[-100.5959,18.4083,248.3185],[-100.5996,18.4058,251.1381],[-100.5961,18.3995,246.8727],[-100.6015,18.3943,247.7357],[-100.6018,18.391,246.3439],[-100.6097,18.3872,250.3449],[-100.6081,18.3812,247.0085],[-100.6106,18.3771,244.3508],[-100.6269,18.3757,250.1654],[-100.6311,18.3685,247.1762],[-100.6397,18.3639,243.3161],[-100.6415,18.3585,242.962],[-100.6408,18.3515,240.8829],[-100.6423,18.3472,236.9782],[-100.6444,18.3458,235.6936],[-100.6571,18.3605,242.7211],[-100.6636,18.3614,234.4578],[-100.6761,18.3718,231.7901],[-100.677,18.3769,238.2733],[-100.6748,18.383,231.8836],[-100.6777,18.3858,229.5415],[-100.6837,18.3869,230.2958],[-100.6887,18.3833,229.1736],[-100.6918,18.3787,233.3998],[-100.6979,18.3801,232.1852],[-100.6996,18.3787,231.098],[-100.7011,18.3758,232.2764],[-100.7004,18.3675,230.5],[-100.7063,18.3525,231.625],[-100.7011,18.3406,233.2333],[-100.6967,18.3363,233.7174],[-100.6927,18.3226,236.123],[-100.6887,18.3186,237.042],[-100.6833,18.3157,235.8245],[-100.674,18.3197,243.3069],[-100.6748,18.3296,238.7991],[-100.6732,18.3342,238.5336],[-100.665,18.3438,238.0],[-100.6568,18.3448,241.794],[-100.6506,18.3389,251.6483],[-100.6544,18.3313,245.8817],[-100.652,18.327,251.0255],[-100.6427,18.3288,248.0612],[-100.6372,18.3277,241.5],[-100.6392,18.3222,253.4884],[-100.6354,18.3221,246.9998],[-100.6345,18.3172,242.375],[-100.6257,18.3094,243.0],[-100.626,18.3012,248.1925],[-100.6171,18.3003,246.143],[-100.6206,18.2899,251.8676],[-100.6147,18.2771,258.5157],[-100.6114,18.2775,249.5081],[-100.6073,18.2739,249.8651],[-100.6006,18.2726,251.9286],[-100.5909,18.275,253.0127],[-100.5848,18.2813,249.0]]]]}
,"properties": {"GID_2": "MEX.12.57_2","GID_0": "MEX","country": "México","GID_1": "MEX.12_1","province": "Guerrero","NL_NAME_1": "NA","county": "Pungarabato","VARNAME_2": "NA","NL_NAME_2": "NA","TYPE_2": "Município","ENGTYPE_2": "Municipality","CC_2": "NA","HASC_2": "NA","name": "Pungarabato.county","area_km2": 127.28815,"hist_schema_id": "Elevation0-9000","hist_area_km2": {"225": 4.6685,"250": 59.95215,"275": 24.33045,"300": 10.3236,"325": 4.24618,"350": 2.81733,"375": 3.07893,"400": 2.83739,"425": 2.25389,"450": 1.97216,"475": 1.48918,"500": 0.80501,"525": 0.92576,"550": 0.72451,"575": 0.64404,"600": 0.66415,"625": 0.54341,"650": 0.58366,"675": 0.30188,"700": 0.28176,"725": 0.44278,"750": 0.44276,"775": 0.56355,"800": 0.28177,"825": 0.34215,"850": 0.28178,"875": 0.24151,"900": 0.28179,"925": 0.30191,"950": 0.18114,"975": 0.16102,"1000": 0.16102,"1025": 0.08051,"1050": 0.06038,"1075": 0.02013}}}