{"type":"Feature","properties":{"GID_2":"MEX.20.355_2","GID_0":"MEX","country":"México","GID_1":"MEX.20_1","province":"Oaxaca","NL_NAME_1":"NA","county":"SanVicenteNuñú","VARNAME_2":"NA","NL_NAME_2":"NA","TYPE_2":"Município","ENGTYPE_2":"Municipality","CC_2":"NA","HASC_2":"NA","name":"San_Vicente_Nuñú.county"},
"geometry":{"type": "MultiPolygon","coordinates": [[[[-97.3956,17.4011,2811.1785],[-97.3982,17.403,2878.9226],[-97.4049,17.4208,2825.2239],[-97.4049,17.4238,2730.6938],[-97.4006,17.4331,2647.6238],[-97.4037,17.436,2655.7649],[-97.4045,17.4435,2647.3879],[-97.4069,17.4464,2603.8315],[-97.4055,17.4566,2444.9124],[-97.4034,17.458,2473.5322],[-97.3988,17.4673,2475.7893],[-97.4035,17.473,2517.22],[-97.4152,17.4806,2344.2593],[-97.4266,17.4817,2278.52],[-97.4296,17.4813,2268.7637],[-97.4341,17.4768,2250.0332],[-97.4364,17.4782,2246.7495],[-97.4405,17.4762,2287.1743],[-97.4426,17.481,2259.0591],[-97.4463,17.4814,2236.1667],[-97.4632,17.4754,2491.448],[-97.4663,17.4664,2611.3259],[-97.469,17.4481,2655.9377],[-97.4659,17.4269,2800.4695],[-97.4659,17.3995,2719.6216],[-97.4441,17.3576,3119.2036],[-97.4418,17.3701,3019.0144],[-97.4299,17.3863,2805.0447],[-97.3956,17.4011,2811.1785]]]]}}