{"type": "Feature","bbox": [-89.5406,20.91,-89.3952,21.0117],"geometry": {"type": "MultiPolygon","coordinates": [[[[-89.4557,20.9132,15.102],[-89.4576,20.9161,13.6633],[-89.4504,20.9251,11.924],[-89.4476,20.9316,12.4883],[-89.4343,20.9293,14.2518],[-89.4345,20.9345,14.6151],[-89.429,20.9348,15.5513],[-89.4287,20.9362,13.948],[-89.4236,20.9355,16.0053],[-89.4104,20.9324,15.1166],[-89.4135,20.925,16.2271],[-89.4026,20.924,15.0194],[-89.4016,20.9338,15.0745],[-89.396,20.9329,15.2429],[-89.3952,20.9382,14.7112],[-89.4009,20.9394,13.7975],[-89.4008,20.9412,12.8069],[-89.4123,20.9483,10.7022],[-89.414,20.9458,10.4512],[-89.4155,20.9472,9.788],[-89.4194,20.9438,12.8968],[-89.4314,20.9545,11.8529],[-89.4312,20.9567,11.5359],[-89.425299999999993,20.9629,11.7901],[-89.4246,20.9806,10.4679],[-89.4271,20.986,10.2563],[-89.4236,20.9881,9.5471],[-89.4254,20.9953,10.5743],[-89.4243,20.9987,10.1948],[-89.432,20.9986,9.1321],[-89.4327,21.0012,10.1935],[-89.44,21.0017,10.6268],[-89.4402,21.0032,11.101],[-89.4451,21.0024,10.779],[-89.4454,21.0001,10.5622],[-89.4506,21.0008,11.7151],[-89.4502,20.9986,10.3861],[-89.4531,20.9978,10.0609],[-89.4559,21.001,10.8193],[-89.4568,21.0064,11.6589],[-89.4643,21.0059,10.1903],[-89.4648,21.0001,9.0803],[-89.4742,20.9999,8.4173],[-89.4741,21.0037,10.095],[-89.4851,21.0049,11.0372],[-89.4849,21.011,10.2904],[-89.4912,21.0117,9.7557],[-89.4919,21.0037,11.5559],[-89.5003,21.0045,10.3229],[-89.4995,20.9974,10.383],[-89.4956,20.9974,9.2521],[-89.4956,20.9935,9.9291],[-89.4986,20.9935,10.3825],[-89.4993,20.9737,9.987],[-89.4977,20.9739,10.8221],[-89.4978,20.972,11.5852],[-89.4819,20.9739,12.0677],[-89.4819,20.9684,9.7777],[-89.48,20.9687,9.7777],[-89.4801,20.9668,9.9029],[-89.472,20.9675,5.9631],[-89.4727,20.9646,11.6601],[-89.4513,20.9618,11.7852],[-89.4519,20.9591,11.6124],[-89.4572,20.9602,12.0678],[-89.458,20.9517,11.671],[-89.4733,20.955,10.6906],[-89.4722,20.9527,11.5837],[-89.4795,20.9499,12.0761],[-89.4831,20.9601,11.034],[-89.4864,20.9595,10.5363],[-89.4919,20.9612,10.5803],[-89.4906,20.9673,7.4207],[-89.5039,20.972,10.3624],[-89.504,20.9819,8.4585],[-89.5345,20.9818,9.3369],[-89.5357,20.9728,9.7001],[-89.5406,20.972,10.2175],[-89.5402,20.9605,9.9844],[-89.5144,20.9641,12.5091],[-89.5143,20.9658,9.998],[-89.5066,20.9658,10.6298],[-89.5044,20.956,12.189],[-89.5018,20.9548,11.2589],[-89.4986,20.9565,11.9193],[-89.4967,20.9469,12.1132],[-89.4924,20.947,10.4672],[-89.4938,20.9417,11.389099999999999],[-89.489,20.9405,12.2903],[-89.4889,20.9424,11.4724],[-89.4805,20.9394,8.8046],[-89.4733,20.9397,11.8947],[-89.4698,20.9382,12.0127],[-89.478,20.9329,11.671],[-89.4813,20.9264,11.8459],[-89.4854,20.9259,11.0541],[-89.4865,20.9179,11.2163],[-89.4809,20.9144,11.3774],[-89.4569,20.91,14.4409],[-89.4557,20.9132,15.102]]]]}
,"properties": {"GID_2": "MEX.31.95_2","GID_0": "MEX","country": "México","GID_1": "MEX.31_1","province": "Yucatán","NL_NAME_1": "NA","county": "Tixpéhual","VARNAME_2": "NA","NL_NAME_2": "NA","TYPE_2": "Município","ENGTYPE_2": "Municipality","CC_2": "NA","HASC_2": "NA","name": "Tixpéhual.county","area_km2": 71.43408,"hist_schema_id": "Elevation0-9000","hist_area_km2": {"0": 53.6516,"25": 17.78248}}}