{"type":"Feature","properties":{"GID_2":"MEX.12.26_2","GID_0":"MEX","country":"México","GID_1":"MEX.12_1","province":"Guerrero","NL_NAME_1":"NA","county":"CoyucadeCatalán","VARNAME_2":"NA","NL_NAME_2":"NA","TYPE_2":"Município","ENGTYPE_2":"Municipality","CC_2":"NA","HASC_2":"NA","name":"Coyucade_Catalán.county"},
"geometry":{"type": "MultiPolygon","coordinates": [[[[-100.6191,18.2845,251.2399],[-100.6207,18.2907,251.471],[-100.6171,18.3003,246.143],[-100.626,18.3012,248.1925],[-100.6257,18.3094,243.0],[-100.6345,18.3172,242.375],[-100.6354,18.3221,246.9998],[-100.6392,18.3222,253.4884],[-100.6372,18.3277,241.5],[-100.6427,18.3288,248.0612],[-100.652,18.327,251.0255],[-100.6544,18.3313,245.8817],[-100.6506,18.3389,251.6483],[-100.6568,18.3448,241.794],[-100.665,18.3438,238.0],[-100.6732,18.3342,238.5336],[-100.6747,18.3307,238.6844],[-100.6736,18.3207,238.8821],[-100.6749,18.3191,236.7008],[-100.6842,18.3158,235.8245],[-100.6927,18.3226,236.123],[-100.6967,18.3363,233.7174],[-100.7011,18.3406,233.2333],[-100.7063,18.3525,231.625],[-100.6999,18.3693,230.5],[-100.7005,18.3776,231.098],[-100.6979,18.3801,232.1852],[-100.6918,18.3787,233.3998],[-100.6887,18.3833,229.1736],[-100.6837,18.3866,230.2958],[-100.6847,18.3901,227.75],[-100.6895,18.3944,227.25],[-100.6899,18.4,228.2024],[-100.6878,18.4086,226.2156],[-100.6911,18.4142,226.0029],[-100.6983,18.4189,226.2601],[-100.7078,18.4187,226.594],[-100.7122,18.4139,226.4744],[-100.7148,18.4027,223.8434],[-100.7177,18.3996,222.5],[-100.7209,18.3995,222.125],[-100.7277,18.4062,221.5],[-100.7374,18.4273,229.3992],[-100.741,18.4282,219.289],[-100.7514,18.4258,217.0302],[-100.7556,18.4286,218.4753],[-100.7601,18.4352,215.5],[-100.7776,18.4395,218.4914],[-100.7801,18.4516,213.5],[-100.7903,18.4726,216.6679],[-100.7959,18.4796,211.125],[-100.799,18.4806,215.1082],[-100.8091,18.4765,210.5],[-100.8385,18.4731,210.2306],[-100.8592,18.4784,207.7639],[-100.8633,18.4813,206.875],[-100.8701,18.491,209.2359],[-100.8751,18.4917,212.0912],[-100.8819,18.4852,209.2192],[-100.8876,18.4681,213.1331],[-100.8944,18.4631,203.125],[-100.9002,18.464,218.5604],[-100.9082,18.4714,202.0],[-100.9123,18.4725,205.0868],[-100.9148,18.4715,203.5352],[-100.9173,18.4657,207.1539],[-100.9149,18.4588,220.7825],[-100.9179,18.449,200.0],[-100.9207,18.4457,200.0],[-100.9173,18.4476,201.7436],[-100.9173,18.4429,330.548],[-100.9243,18.4213,444.8101],[-100.9381,18.4175,484.0527],[-100.9435,18.4182,510.9774],[-100.9438,18.4095,404.5211],[-100.9461,18.4069,332.2689],[-100.9446,18.4052,335.027],[-100.9434,18.3954,251.8856],[-100.9412,18.3931,250.1592],[-100.9422,18.39,252.4186],[-100.9336,18.3808,271.1671],[-100.9352,18.3797,269.3136],[-100.9339,18.374,292.6456],[-100.9369,18.3698,318.2256],[-100.936,18.3689,318.2256],[-100.9387,18.3663,441.3445],[-100.9418,18.3661,431.1321],[-100.9401,18.3641,410.4656],[-100.941,18.362,268.828],[-100.9471,18.3609,264.4041],[-100.9495,18.3564,276.5475],[-100.9495,18.3543,278.8373],[-100.9451,18.3495,291.0151],[-100.9503,18.3472,287.3677],[-100.9511,18.3444,309.0193],[-100.9503,18.3418,352.6667],[-100.9465,18.3405,292.3379],[-100.9474,18.3363,306.7261],[-100.945,18.3323,313.1651],[-100.9509,18.3305,356.5343],[-100.9503,18.327,320.422],[-100.955,18.3247,340.4979],[-100.9573,18.3207,349.4497],[-100.9595,18.3196,333.5184],[-100.9636,18.3217,331.8196],[-100.9658,18.3166,402.182],[-100.9769,18.3111,350.8071],[-100.9766,18.3088,347.8555],[-100.9738,18.3065,379.4801],[-100.979,18.3034,374.4238],[-100.9769,18.3003,355.6519],[-100.9788,18.3004,356.7601],[-100.9763,18.296,398.0616],[-100.9781,18.2946,374.7366],[-100.9761,18.2881,409.4368],[-100.9694,18.2823,423.3865],[-100.972,18.2798,422.6543],[-100.9713,18.2772,429.7156],[-100.9744,18.2619,556.8094],[-100.9792,18.2468,754.9135],[-100.9711,18.244,891.2945],[-100.9722,18.2388,974.7604],[-100.9782,18.2316,977.9229],[-100.9855,18.2183,906.0632],[-100.9961,18.2184,698.3507],[-101.0019,18.2206,504.9036],[-101.0046,18.218,505.3637],[-101.0052,18.2146,514.9984],[-101.011,18.2165,516.2],[-101.0127,18.2145,515.9639],[-101.0127,18.21,523.0953],[-101.0169,18.2088,535.9121],[-101.0157,18.2064,532.1989],[-101.0267,18.206,543.267],[-101.0279,18.1934,591.5905],[-101.0395,18.193,561.6742],[-101.0405,18.1647,1124.6223],[-101.0429,18.1572,1261.4117],[-101.0485,18.1538,1349.3597],[-101.0548,18.1314,1432.5425],[-101.0641,18.1248,1546.8866],[-101.0682,18.115,1819.0249],[-101.0678,18.1122,1888.6194],[-101.0977,18.1178,1224.9294],[-101.1087,18.1237,1609.5472],[-101.162,18.1351,1540.9779],[-101.1673,18.137,1723.6448],[-101.1714,18.1421,1783.531],[-101.1816,18.1452,1804.6335],[-101.1827,18.1546,1975.2632],[-101.191,18.1572,1710.5642],[-101.1941,18.1364,1395.011],[-101.2008,18.1392,1505.3198],[-101.2071,18.1299,1465.4343],[-101.2107,18.1372,1586.166],[-101.2085,18.1434,1735.728],[-101.2151,18.1467,1931.1213],[-101.2188,18.1536,2259.6265],[-101.2246,18.1589,2066.4856],[-101.2255,18.1642,1976.7887],[-101.2509,18.1514,2185.9539],[-101.2403,18.1627,2087.9753],[-101.2387,18.1704,1751.4785],[-101.2426,18.1714,1688.8145],[-101.2458,18.1711,1671.4352],[-101.2466,18.1694,1652.7212],[-101.2488,18.1709,1681.1395],[-101.2517,18.1674,1623.2755],[-101.2586,18.1641,1641.3466],[-101.2578,18.1633,1558.3629],[-101.2598,18.1624,1558.5149],[-101.2601,18.1586,1580.792],[-101.262,18.1568,1566.2119],[-101.2639,18.1573,1525.8848],[-101.2635,18.155,1528.0908],[-101.2688,18.1496,1494.4825],[-101.269,18.1467,1449.0574],[-101.2728,18.1456,1460.4048],[-101.2757,18.1468,1490.291],[-101.2757,18.1488,1445.3103],[-101.2779,18.1503,1473.2256],[-101.2774,18.1524,1462.2994],[-101.2796,18.1535,1497.1061],[-101.2783,18.1615,1569.7427],[-101.2808,18.1707,1725.8643],[-101.2863,18.1633,1525.4365],[-101.2839,18.161,1509.9408],[-101.2853,18.1598,1560.8341],[-101.2812,18.1566,1529.5007],[-101.2938,18.1489,1730.5107],[-101.3096,18.1479,2084.5674],[-101.3139,18.1499,2172.4287],[-101.3179,18.1485,2244.6382],[-101.3227,18.1535,2422.9204],[-101.3325,18.1536,2668.9856],[-101.3372,18.1589,2627.1978],[-101.3415,18.1543,2108.1116],[-101.3347,18.1381,2163.9375],[-101.35,18.1331,2156.0676],[-101.3513,18.1299,2125.5999],[-101.3552,18.1287,2107.2085],[-101.3564,18.1267,2075.8096],[-101.3543,18.1229,2044.6064],[-101.3549,18.1197,1953.5007],[-101.3616,18.1184,1922.3752],[-101.3665,18.1155,1894.0726],[-101.3639,18.1112,1883.3578],[-101.3644,18.1036,1887.4667],[-101.3616,18.1025,1839.244],[-101.3621,18.0981,1823.5266],[-101.3591,18.096,1810.4932],[-101.3588,18.0929,1737.0247],[-101.3575,18.0932,1737.0247],[-101.352,18.0783,1659.6912],[-101.354,18.0747,1737.5541],[-101.3613,18.0722,1811.0889],[-101.3645,18.0641,1649.6583],[-101.3687,18.0614,1359.3423],[-101.3634,18.0596,1543.7148],[-101.3623,18.0579,1798.5461],[-101.3267,18.054,1737.3567],[-101.31,18.0546,1607.3458],[-101.3086,18.0518,1605.3843],[-101.3045,18.0521,1537.7881],[-101.3038,18.0472,1535.0254],[-101.2986,18.0402,1554.3097],[-101.2962,18.039,1594.541],[-101.2935,18.0401,1607.6101],[-101.2957,18.037,1620.475],[-101.2951,18.0348,1650.2891],[-101.2919,18.0355,1694.364],[-101.2912,18.0337,1678.5369],[-101.2854,18.0323,1742.0176],[-101.2815,18.0345,1772.4622],[-101.2793,18.0291,1889.4915],[-101.2715,18.0308,1655.7073],[-101.2706,18.0288,1579.1042],[-101.265,18.0281,1509.8604],[-101.2662,18.0292,1534.9386],[-101.2622,18.0322,1450.8989],[-101.2625,18.0403,1384.9509],[-101.2606,18.0412,1346.275],[-101.2584,18.0385,1474.4211],[-101.2579,18.0416,1329.9889],[-101.2527,18.0404,1267.6011],[-101.2481,18.0449,1200.9788],[-101.2412,18.039,1270.2385],[-101.2419,18.0371,1289.4795],[-101.2405,18.0357,1327.5549],[-101.2418,18.0354,1326.1287],[-101.242,18.0324,1338.832],[-101.2395,18.0248,1434.6743],[-101.2415,18.0215,1521.7791],[-101.2408,18.0172,1597.6831],[-101.2314,18.0133,1796.0144],[-101.2311,18.009,1962.7754],[-101.2215,18.0089,2327.9255],[-101.2161,18.0024,2246.1069],[-101.2133,18.0048,2037.0165],[-101.2081,18.0014,1688.9415],[-101.2075,18.0003,1729.8673],[-101.2173,17.9951,2422.9731],[-101.216,17.9895,2238.021],[-101.2179,17.9816,1852.0161],[-101.217,17.9777,1757.2213],[-101.2124,17.9747,1683.8938],[-101.2135,17.971,1667.9044],[-101.219,17.9657,1790.8208],[-101.2188,17.9588,1961.7468],[-101.2221,17.9568,2019.9667],[-101.2168,17.9498,1719.8782],[-101.2119,17.9481,1652.3293],[-101.2118,17.9428,1622.1677],[-101.2052,17.9508,1563.4535],[-101.2023,17.9449,1897.4514],[-101.2103,17.9408,1675.3088],[-101.206,17.9376,1692.9294],[-101.2043,17.9318,1765.1746],[-101.2064,17.9255,1888.9231],[-101.2044,17.9226,2104.5999],[-101.2005,17.919,2284.5862],[-101.175,17.9098,1807.5186],[-101.1371,17.9052,2295.4395],[-101.1603,17.8969,2236.231],[-101.1611,17.8954,2203.9333],[-101.1436,17.8809,2176.0095],[-101.1559,17.8561,1681.9297],[-101.1284,17.7575,1762.4069],[-101.1131,17.7165,1143.7285],[-101.0896,17.7251,1015.6595],[-101.0941,17.7313,1124.5861],[-101.0485,17.7441,2158.9783],[-101.0504,17.7501,1967.4979],[-101.0534,17.7814,2471.5144],[-101.0448,17.7842,2332.3337],[-101.0233,17.7872,2025.5435],[-100.9979,17.7991,2754.0947],[-100.9648,17.7473,2443.2402],[-100.9238,17.7311,2347.9617],[-100.8958,17.7023,2328.1904],[-100.8785,17.6894,2166.7886],[-100.8202,17.6966,2515.2703],[-100.813,17.6997,2172.1826],[-100.8192,17.7055,2399.958],[-100.8228,17.7065,2525.7131],[-100.8268,17.7142,2537.4619],[-100.8363,17.7172,2604.4595],[-100.8352,17.7187,2604.4595],[-100.8367,17.7221,2589.8516],[-100.844,17.7215,2248.0273],[-100.8626,17.7293,1967.3159],[-100.8624,17.7382,2312.6157],[-100.8591,17.7402,2303.2478],[-100.8597,17.748,1932.6907],[-100.8576,17.7569,1817.0178],[-100.8618,17.7654,1653.2506],[-100.8677,17.7697,1523.2385],[-100.855,17.7826,1489.1539],[-100.8536,17.7863,1433.1353],[-100.8546,17.7897,1416.4554],[-100.8482,17.7954,1398.5143],[-100.8492,17.7974,1354.7373],[-100.8443,17.8071,1349.0823],[-100.8473,17.8119,1320.554],[-100.8445,17.8197,1450.0078],[-100.8342,17.8292,1470.0348],[-100.8227,17.8352,1362.4341],[-100.8155,17.8479,1123.7966],[-100.8083,17.8528,1081.9333],[-100.8058,17.8594,1127.0662],[-100.8084,17.8674,1084.2249],[-100.8034,17.8712,1291.4895],[-100.7926,17.8694,1270.3412],[-100.7907,17.8738,1291.2496],[-100.7744,17.8842,1257.9443],[-100.7724,17.8837,1310.1451],[-100.7309,17.9122,1522.1687],[-100.7284,17.9161,1482.2241],[-100.7296,17.9335,1665.5616],[-100.7268,17.9486,1262.6378],[-100.7274,17.959,1527.7428],[-100.7256,17.9596,1527.7428],[-100.717,17.9786,1433.4957],[-100.7117,18.088,671.1521],[-100.7088,18.0992,851.2307],[-100.7158,18.104,820.9176],[-100.7182,18.11,765.7206],[-100.7144,18.1128,821.3899],[-100.7074,18.1096,715.6649],[-100.6767,18.1046,468.3716],[-100.6707,18.1124,473.0708],[-100.6665,18.1128,467.2314],[-100.6694,18.1152,465.9065],[-100.6669,18.1194,478.66],[-100.6691,18.1217,464.8362],[-100.6702,18.1268,465.3671],[-100.6613,18.126,463.995],[-100.6604,18.1222,463.7478],[-100.6581,18.1234,464.991],[-100.6593,18.1284,475.9726],[-100.6645,18.1316,437.4141],[-100.66,18.1345,461.345],[-100.6531,18.1322,429.7798],[-100.649,18.1366,483.1354],[-100.6424,18.1369,558.4271],[-100.6405,18.1396,632.2433],[-100.5991,18.1684,676.9189],[-100.6198,18.1958,830.4124],[-100.6282,18.2114,787.9013],[-100.6297,18.2185,981.7114],[-100.6275,18.2211,829.968],[-100.6259,18.2294,735.9861],[-100.6246,18.2717,522.959],[-100.6339,18.2771,278.468],[-100.6314,18.2805,272.8535],[-100.6191,18.2845,251.2399]]]]}}