{"type":"Feature","properties":{"GID_2":"MEX.15.51_2","GID_0":"MEX","country":"México","GID_1":"MEX.15_1","province":"México","NL_NAME_1":"NA","county":"Juchitepec","VARNAME_2":"NA","NL_NAME_2":"NA","TYPE_2":"Município","ENGTYPE_2":"Municipality","CC_2":"NA","HASC_2":"NA","name":"Juchitepec.county"},
"geometry":{"type": "MultiPolygon","coordinates": [[[[-98.979,19.0745,2991.1045],[-98.9692,19.0659,2778.2559],[-98.9578,19.0603,2725.7717],[-98.9443,19.0697,2805.5225],[-98.9156,19.0641,2620.0505],[-98.9152,19.0603,2604.3035],[-98.9171,19.0594,2616.2358],[-98.9034,19.0385,2456.166],[-98.8882,19.0369,2485.8872],[-98.879,19.0281,2651.1299],[-98.8625,19.0239,2586.2917],[-98.8576,19.0337,2451.1501],[-98.843,19.0403,2393.6411],[-98.8436,19.0579,2483.9841],[-98.8422,19.0725,2502.3606],[-98.8352,19.0725,2474.7214],[-98.8324,19.0786,2479.7109],[-98.8464,19.0818,2482.4128],[-98.8407,19.0857,2471.3823],[-98.8369,19.0909,2502.7246],[-98.8405,19.0954,2555.9883],[-98.8392,19.0995,2466.248],[-98.8407,19.0974,2483.0586],[-98.8454,19.098,2510.0808],[-98.8434,19.1035,2467.2109],[-98.8398,19.1032,2450.0083],[-98.8412,19.1062,2436.4561],[-98.8404,19.1085,2427.2935],[-98.8527,19.1088,2462.7698],[-98.8468,19.1235,2422.563],[-98.8475,19.1246,2411.8215],[-98.8491,19.1248,2416.5588],[-98.8508,19.1192,2435.2622],[-98.8549,19.1143,2452.5471],[-98.8753,19.1283,2474.5557],[-98.8682,19.1425,2415.2261],[-98.8706,19.1414,2423.1157],[-98.8737,19.1352,2441.8433],[-98.8806,19.1283,2489.1084],[-98.8957,19.1367,2653.7554],[-98.9178,19.1431,2811.2834],[-98.925299999999993,19.1564,2816.8318],[-98.9247,19.1585,2830.8357],[-98.9438,19.1576,2949.1965],[-98.9435,19.1611,2918.8542],[-98.9521,19.1744,2766.7112],[-98.9549,19.1741,2746.1987],[-98.9524,19.1686,2896.6389],[-98.9674,19.1644,2711.4812],[-98.9546,19.1495,2840.0286],[-98.9665,19.1439,2759.2065],[-98.9575,19.1224,2938.1479],[-98.9591,19.1043,2966.7617],[-98.9657,19.0859,2933.4346],[-98.979,19.0745,2991.1045]]]]}}