{"type":"Feature","properties":{"GID_2":"MEX.26.48_2","GID_0":"MEX","country":"México","GID_1":"MEX.26_1","province":"Sonora","NL_NAME_1":"NA","county":"Oquitoa","VARNAME_2":"NA","NL_NAME_2":"NA","TYPE_2":"Município","ENGTYPE_2":"Municipality","CC_2":"NA","HASC_2":"NA","name":"Oquitoa.county"},
"geometry":{"type": "MultiPolygon","coordinates": [[[[-111.6935,30.555,433.8126],[-111.6654,30.551,450.4354],[-111.6375,30.5549,472.5299],[-111.6314,30.5428,468.1016],[-111.6376,30.5236,453.304],[-111.6368,30.5223,453.304],[-111.5992,30.5364,479.8647],[-111.5932,30.5364,483.4169],[-111.5688,30.5664,521.5321],[-111.5368,30.5594,626.0157],[-111.5217,30.5626,624.0322],[-111.5229,30.5691,649.8069],[-111.5083,30.6248,628.8224],[-111.5151,30.6245,619.796],[-111.4903,30.6945,993.7616],[-111.5073,30.7316,944.8133],[-111.5584,30.7303,722.9937],[-111.5528,30.7406,737.0596],[-111.5521,30.7461,728.0011],[-111.5879,30.7467,669.9397],[-111.5865,30.7574,687.9597],[-111.6023,30.758,645.0331],[-111.6269,30.7925,564.1906],[-111.6308,30.8027,540.4482],[-111.6458,30.7944,537.3293],[-111.651,30.7993,524.3493],[-111.6477,30.8071,529.201],[-111.6445,30.8074,530.0791],[-111.6394,30.8109,536.0389],[-111.6447,30.8169,543.5314],[-111.6443,30.8182,547.2374],[-111.6353,30.8232,550.2599],[-111.6357,30.8859,645.2257],[-111.5961,30.8891,633.3478],[-111.6115,30.9639,787.5245],[-111.5874,30.9875,878.0052],[-111.581,31.0029,1211.2239],[-111.5835,31.0212,1334.4401],[-111.5865,31.0227,1362.2103],[-111.5889,31.0291,1205.1962],[-111.5871,31.0412,1160.0779],[-111.6253,31.0645,1550.7642],[-111.7042,31.0174,901.7509],[-111.7232,30.9948,720.1888],[-111.6987,30.8888,643.4748],[-111.7924,30.8661,527.1222],[-111.7962,30.8316,499.5346],[-111.8005,30.8118,483.0614],[-111.7996,30.7955,471.0284],[-111.8023,30.767,454.8098],[-111.7679,30.7614,488.0094],[-111.768,30.757,483.2036],[-111.7864,30.7421,456.415],[-111.7794,30.7325,452.826],[-111.7872,30.7305,450.413],[-111.7873,30.7264,448.911],[-111.779,30.7259,450.6344],[-111.7779,30.721,450.1903],[-111.7896,30.7178,443.6161],[-111.7875,30.7149,444.4409],[-111.7776,30.7175,451.0244],[-111.7737,30.7156,452.0005],[-111.7758,30.7143,450.1281],[-111.7723,30.7112,454.0615],[-111.7778,30.6873,479.2742],[-111.7571,30.6762,502.1937],[-111.7624,30.6592,589.3475],[-111.737,30.6161,482.4427],[-111.737,30.6055,436.2973],[-111.7309,30.5903,422.7487],[-111.6836,30.5944,452.7975],[-111.6935,30.555,433.8126]]]]}}