{"type": "Feature","bbox": [-104.2478,20.6353,-104.0169,20.8871],"geometry": {"type": "MultiPolygon","coordinates": [[[[-104.0307,20.732,1650.7065],[-104.0308,20.7355,1544.5524],[-104.0277,20.7357,1551.3229],[-104.0261,20.7409,1479.2654],[-104.0248,20.7426,1488.5297],[-104.0234,20.742,1469.4707],[-104.0242,20.744,1458.0377],[-104.021,20.7448,1442.3263],[-104.0203,20.7467,1430.475],[-104.0253,20.7464,1457.7102],[-104.0195,20.7479,1420.5105],[-104.0206,20.7484,1429.4694],[-104.0169,20.7553,1403.8075],[-104.0238,20.762,1396.6033],[-104.0301,20.7636,1394.291],[-104.0341,20.7623,1400.5427],[-104.0364,20.7587,1505.0546],[-104.0448,20.7575,1637.7029],[-104.048,20.7549,1679.8977],[-104.0511,20.7584,1646.402],[-104.059,20.7589,1428.3158],[-104.0576,20.7631,1406.2942],[-104.049,20.7681,1374.5466],[-104.0481,20.7708,1365.0574],[-104.0541,20.778,1364.1163],[-104.0682,20.7852,1363.9154],[-104.0643,20.8107,1360.4949],[-104.0713,20.8117,1361.6788],[-104.0749,20.8178,1371.2939],[-104.0715,20.8197,1376.2092],[-104.0689,20.8258,1427.6744],[-104.0655,20.8285,1445.8401],[-104.0682,20.8432,1559.7847],[-104.0658,20.8457,1510.4508],[-104.0601,20.846,1470.9716],[-104.0653,20.8512,1525.7163],[-104.0741,20.8544,1752.7715],[-104.0755,20.862,1761.3773],[-104.0716,20.8683,1556.1121],[-104.0703,20.8831,1393.4714],[-104.0804,20.8829,1397.2118],[-104.0793,20.8779,1428.4934],[-104.0804,20.8749,1476.6211],[-104.0843,20.8722,1524.3069],[-104.0847,20.8684,1638.974],[-104.0871,20.8694,1614.3394],[-104.0853,20.8809,1413.6383],[-104.0926,20.8834,1388.1525],[-104.0922,20.8859,1381.9758],[-104.0977,20.8871,1390.7513],[-104.0981,20.8855,1387.8442],[-104.1057,20.883,1401.4551],[-104.1084,20.8847,1405.1355],[-104.1182,20.8833,1427.3508],[-104.122,20.8847,1465.3103],[-104.1288,20.8842,1516.3359],[-104.1314,20.8822,1537.3741],[-104.1386,20.8866,1561.026],[-104.1409,20.8863,1571.39],[-104.1423,20.8796,1599.0663],[-104.1472,20.8794,1585.8934],[-104.1489,20.8777,1578.1464],[-104.1487,20.8744,1591.8484],[-104.154,20.8712,1631.8418],[-104.1554,20.8678,1721.9393],[-104.153,20.864,1748.5684],[-104.1542,20.8632,1752.0294],[-104.1536,20.8589,1742.6373],[-104.1457,20.856,1675.7472],[-104.1437,20.8581,1664.6038],[-104.1423,20.8571,1634.2339],[-104.143,20.8545,1615.1716],[-104.1394,20.8512,1612.2927],[-104.1324,20.8496,1593.9945],[-104.1273,20.8451,1527.4502],[-104.128,20.8419,1481.1014],[-104.1329,20.8401,1512.4662],[-104.1281,20.8358,1498.3931],[-104.1278,20.8334,1487.459],[-104.1321,20.8278,1456.7567],[-104.1285,20.8248,1451.3708],[-104.134,20.8238,1542.3334],[-104.1368,20.8187,1595.4808],[-104.1318,20.8114,1468.4769],[-104.1293,20.8118,1452.7113],[-104.1279,20.8144,1422.4054],[-104.1243,20.8149,1408.6779],[-104.126,20.8118,1442.4771],[-104.1348,20.8089,1483.5381],[-104.1362,20.8061,1519.1691],[-104.1332,20.8027,1521.2676],[-104.1344,20.7993,1504.2402],[-104.1379,20.7996,1498.775],[-104.1348,20.7932,1496.951],[-104.1352,20.7894,1470.2998],[-104.1366,20.7887,1460.0581],[-104.1362,20.7846,1448.8674],[-104.1298,20.7818,1427.0542],[-104.1301,20.779,1417.9094],[-104.125,20.7788,1399.2565],[-104.1269,20.7772,1375.541],[-104.1262,20.7758,1371.2974],[-104.1308,20.7707,1373.1436],[-104.1983,20.7843,1363.8151],[-104.2024,20.7731,1347.1803],[-104.2048,20.7762,1347.531],[-104.2062,20.7726,1347.4417],[-104.2052,20.7648,1353.0905],[-104.203,20.7634,1355.9872],[-104.2017,20.7572,1362.4052],[-104.1978,20.7555,1386.1548],[-104.1951,20.7514,1375.1836],[-104.1989,20.748,1376.3098],[-104.1996,20.7488,1373.0083],[-104.2012,20.744,1377.0276],[-104.1944,20.7387,1393.0281],[-104.1946,20.7343,1402.1506],[-104.2067,20.7287,1435.7089],[-104.2107,20.7313,1467.6974],[-104.2142,20.7313,1492.3391],[-104.2142,20.7296,1510.2471],[-104.2201,20.725,1525.6349],[-104.2249,20.7266,1576.5706],[-104.2292,20.7244,1625.2657],[-104.2344,20.7261,1610.7919],[-104.2389,20.7257,1616.4172],[-104.2415,20.7238,1628.3969],[-104.2478,20.7265,1654.645],[-104.2466,20.7183,1501.0687],[-104.2422,20.7152,1416.8665],[-104.2414,20.71,1404.1709],[-104.2474,20.7056,1259.4971],[-104.2475,20.6977,1199.1417],[-104.2428,20.6943,1112.8156],[-104.2433,20.6917,1084.3638],[-104.2473,20.6899,1040.9365],[-104.2398,20.6904,1033.9551],[-104.239,20.6921,1049.5126],[-104.2337,20.6946,1054.0996],[-104.2318,20.6918,1097.4656],[-104.2282,20.6919,1148.2986],[-104.2242,20.6897,1123.4995],[-104.222,20.6848,1219.7488],[-104.2165,20.6802,1216.9609],[-104.2155,20.6776,1241.2355],[-104.2183,20.6703,1329.5588],[-104.2121,20.6654,1473.2833],[-104.2136,20.6604,1599.2012],[-104.2095,20.6587,1604.7433],[-104.201,20.6606,1497.2985],[-104.1986,20.6584,1628.724],[-104.1929,20.6625,1500.8954],[-104.1889,20.663,1523.0837],[-104.1846,20.6612,1551.4657],[-104.182,20.6583,1593.6682],[-104.1826,20.6568,1631.0464],[-104.1804,20.6571,1561.0898],[-104.1754,20.6537,1608.7902],[-104.1572,20.6502,1559.5092],[-104.1519,20.6504,1539.807],[-104.1523,20.6516,1531.4207],[-104.149,20.6524,1538.5808],[-104.1483,20.6507,1536.738],[-104.1426,20.6483,1547.7706],[-104.1361,20.6483,1560.3009],[-104.1358,20.6499,1556.7804],[-104.13,20.6477,1567.4917],[-104.1268,20.6483,1573.1031],[-104.1251,20.6548,1626.2372],[-104.1177,20.6514,1730.6934],[-104.1148,20.6458,1723.1879],[-104.1068,20.6383,1745.8423],[-104.1026,20.6384,1693.4291],[-104.0978,20.6353,1616.585],[-104.0936,20.6364,1575.51],[-104.0948,20.6394,1592.9128],[-104.089,20.6404,1665.0991],[-104.0876,20.6444,1750.9767],[-104.0801,20.652,1913.0903],[-104.0757,20.6537,1977.0605],[-104.0796,20.6565,2063.3413],[-104.0749,20.6564,2011.3137],[-104.07,20.6526,2084.5994],[-104.0638,20.6525,2065.1543],[-104.0625,20.6556,1979.6003],[-104.0583,20.6585,1987.2483],[-104.0591,20.6613,2008.4081],[-104.0562,20.6622,1980.2517],[-104.0574,20.6802,1511.2651],[-104.0563,20.6872,1610.1458],[-104.052,20.692,1678.8345],[-104.0322,20.7278,1691.7731],[-104.0302,20.729,1625.1497],[-104.0307,20.732,1650.7065]]]]}
,"properties": {"GID_2": "MEX.14.37_2","GID_0": "MEX","country": "México","GID_1": "MEX.14_1","province": "Jalisco","NL_NAME_1": "NA","county": "Etzatlán","VARNAME_2": "NA","NL_NAME_2": "NA","TYPE_2": "Município","ENGTYPE_2": "Municipality","CC_2": "NA","HASC_2": "NA","name": "Etzatlán.county","area_km2": 338.7969,"hist_schema_id": "Elevation0-9000","hist_area_km2": {"1025": 0.0992,"1050": 0.119,"1075": 0.1587,"1100": 0.1587,"1125": 0.2975,"1150": 0.476,"1175": 0.6148,"1200": 0.9123,"1225": 0.8528,"1250": 1.1702,"1275": 1.2892,"1300": 1.3685,"1325": 1.7255,"1350": 14.8679,"1375": 34.8486,"1400": 23.4113,"1425": 15.1263,"1450": 13.937,"1475": 12.7872,"1500": 13.5007,"1525": 13.2034,"1550": 13.6999,"1575": 13.3429,"1600": 12.1345,"1625": 11.0441,"1650": 9.6761,"1675": 9.8749,"1700": 12.1561,"1725": 12.3346,"1750": 12.5928,"1775": 10.2728,"1800": 10.6894,"1825": 9.4795,"1850": 8.7658,"1875": 6.4257,"1900": 5.5133,"1925": 4.5416,"1950": 4.2244,"1975": 3.332,"2000": 3.0742,"2025": 2.9353,"2050": 2.1023,"2075": 2.1421,"2100": 1.5669,"2125": 1.4677,"2150": 1.1108,"2175": 0.5951,"2200": 0.7736,"2225": 0.7538,"2250": 0.6347,"2275": 0.4959,"2300": 0.119}}}