{"type":"Feature","properties":{"GID_2":"MEX.15.9_2","GID_0":"MEX","country":"México","GID_1":"MEX.15_1","province":"México","NL_NAME_1":"NA","county":"Amecameca","VARNAME_2":"NA","NL_NAME_2":"NA","TYPE_2":"Município","ENGTYPE_2":"Municipality","CC_2":"NA","HASC_2":"NA","name":"Amecameca.county"},
"geometry":{"type": "MultiPolygon","coordinates": [[[[-98.6392,19.1636,4927.4771],[-98.6716,19.1832,3978.1101],[-98.6796,19.1821,3853.2534],[-98.7001,19.1713,3363.1528],[-98.7169,19.1791,3228.3311],[-98.7274,19.1707,2941.6802],[-98.7359,19.1807,2894.7886],[-98.7418,19.1808,2894.8438],[-98.7466,19.1781,2799.1875],[-98.7586,19.1778,2670.8501],[-98.7585,19.1744,2720.8682],[-98.7601,19.1726,2749.3872],[-98.7575,19.1717,2782.5078],[-98.7602,19.1661,2739.2024],[-98.7647,19.1617,2479.6833],[-98.7694,19.1525,2468.3315],[-98.7762,19.1491,2461.5874],[-98.7789,19.1572,2468.8682],[-98.7769,19.1606,2465.8547],[-98.7797,19.1629,2469.1897],[-98.7811,19.1622,2475.4551],[-98.7841,19.1705,2490.3574],[-98.7883,19.1712,2499.7346],[-98.7897,19.1764,2529.8374],[-98.8019,19.1733,2730.9084],[-98.807,19.1711,2667.4683],[-98.8074,19.1693,2654.0532],[-98.8181,19.1692,2866.2827],[-98.8115,19.1578,2606.8557],[-98.794,19.1602,2495.2544],[-98.7895,19.1557,2469.2114],[-98.791,19.153,2474.3611],[-98.7907,19.1461,2451.0325],[-98.7887,19.1476,2452.7312],[-98.7834,19.1445,2452.5491],[-98.7746,19.1441,2464.1602],[-98.7777,19.1352,2457.0911],[-98.7768,19.1312,2467.2334],[-98.7741,19.1316,2473.5728],[-98.7728,19.1301,2496.6147],[-98.778,19.1219,2459.8325],[-98.7859,19.1229,2450.9534],[-98.7895,19.1167,2460.6106],[-98.7876,19.1129,2460.332],[-98.7922,19.1116,2484.2822],[-98.7962,19.1065,2510.6487],[-98.7947,19.1029,2509.7502],[-98.7995,19.0968,2541.1619],[-98.8019,19.0899,2591.7961],[-98.8032,19.0901,2591.7961],[-98.8034,19.0886,2583.5361],[-98.8107,19.0914,2645.667],[-98.8175,19.0754,2501.5693],[-98.7969,19.0757,2515.3452],[-98.7918,19.0745,2489.4731],[-98.7932,19.0634,2395.8855],[-98.798,19.0638,2407.7139],[-98.7984,19.0621,2397.2402],[-98.7875,19.0568,2391.3667],[-98.7831,19.0693,2425.7739],[-98.7846,19.0706,2433.1465],[-98.7843,19.0764,2460.8906],[-98.7755,19.0727,2451.0747],[-98.7734,19.0749,2465.1357],[-98.7713,19.0736,2467.5505],[-98.7642,19.0793,2502.5823],[-98.7613,19.0712,2484.4658],[-98.7483,19.0776,2558.5576],[-98.7421,19.079,2597.6885],[-98.7291,19.0775,2685.6577],[-98.7288,19.0848,2677.0676],[-98.7319,19.0843,2647.0657],[-98.7372,19.0881,2611.0498],[-98.7417,19.0889,2583.2131],[-98.7403,19.0923,2570.4036],[-98.7288,19.089,2648.9438],[-98.7228,19.0822,2715.6665],[-98.7108,19.0759,2843.8689],[-98.7017,19.0744,2925.0854],[-98.6985,19.0743,2954.1694],[-98.6952,19.076,2963.5674],[-98.6955,19.0773,2953.3533],[-98.69,19.0779,3141.3232],[-98.6796,19.0869,3310.5122],[-98.6472,19.086,3681.5879],[-98.6393,19.0774,3722.925],[-98.6311,19.088,3615.0586],[-98.6259,19.0894,3574.104],[-98.6261,19.0922,3550.3884],[-98.6325,19.0987,3643.5117],[-98.6326,19.1006,3666.8179],[-98.6308,19.1024,3677.9285],[-98.6288,19.1163,3679.8394],[-98.6263,19.1172,3771.5823],[-98.6255,19.1196,3811.4399],[-98.627,19.1248,3929.7573],[-98.6396,19.1232,3790.7529],[-98.6407,19.1255,3857.918],[-98.6389,19.1506,4519.1538],[-98.6353,19.147,4549.0737],[-98.6392,19.1636,4927.4771]]]]}}