{"type":"Feature","properties":{"GID_2":"MEX.16.86_2","GID_0":"MEX","country":"México","GID_1":"MEX.16_1","province":"Michoacán","NL_NAME_1":"NA","county":"Tangancícuaro","VARNAME_2":"NA","NL_NAME_2":"NA","TYPE_2":"Município","ENGTYPE_2":"Municipality","CC_2":"NA","HASC_2":"NA","name":"Tangancícuaro.county"},
"geometry":{"type": "MultiPolygon","coordinates": [[[[-102.2123,19.8142,1865.3555],[-102.1958,19.8217,1891.2468],[-102.194,19.8267,1852.2125],[-102.1964,19.8327,1831.8231],[-102.1937,19.838,1803.4087],[-102.1972,19.8419,1776.022],[-102.1906,19.8389,1797.1584],[-102.1876,19.8415,1793.8407],[-102.1861,19.8476,1773.406],[-102.1847,19.8478,1773.406],[-102.1848,19.8456,1770.3314],[-102.1797,19.8462,1749.6177],[-102.1739,19.8434,1758.6201],[-102.1677,19.845,1759.295],[-102.1676,19.8498,1736.5046],[-102.1637,19.8491,1755.8005],[-102.1641,19.8554,1761.1473],[-102.1629,19.8589,1724.8107],[-102.161,19.8582,1730.4512],[-102.1613,19.8595,1723.6167],[-102.1653,19.862,1724.8455],[-102.175,19.8616,1731.1399],[-102.1813,19.864,1719.8403],[-102.1879,19.8717,1716.5468],[-102.1849,19.8773,1712.5067],[-102.1774,19.8797,1709.6021],[-102.1736,19.8853,1706.0416],[-102.1572,19.8779,1710.2388],[-102.1558,19.8804,1703.6415],[-102.1513,19.8816,1706.8672],[-102.1521,19.8845,1701.0835],[-102.1483,19.8849,1706.9077],[-102.1425,19.8888,1703.2087],[-102.1385,19.8864,1709.4358],[-102.1367,19.8842,1709.9066],[-102.1374,19.8825,1711.2439],[-102.1335,19.8786,1722.4352],[-102.1266,19.8809,1749.9456],[-102.1127,19.875,1860.0549],[-102.0953,19.8901,2278.8289],[-102.1077,19.943,2182.2234],[-102.1306,19.962,1752.4333],[-102.1362,19.9603,1747.8389],[-102.1398,19.9642,1749.4727],[-102.1374,19.9661,1745.9448],[-102.1378,19.9744,1748.8997],[-102.1319,19.9776,1743.0],[-102.1445,19.9842,1789.5636],[-102.1582,19.9864,1803.7836],[-102.1682,19.9933,1717.1113],[-102.1743,19.9947,1684.2651],[-102.178,19.9927,1644.5575],[-102.1789,19.9938,1618.493],[-102.1789,19.9928,1622.1213],[-102.1754,19.9892,1723.2133],[-102.1735,19.9817,1670.2197],[-102.1743,19.9792,1636.8281],[-102.1804,19.9774,1650.14],[-102.1826,19.9788,1642.0999],[-102.185,19.9771,1644.8596],[-102.2081,19.9826,1670.7634],[-102.2271,19.9571,1810.5388],[-102.239,19.9547,1703.843],[-102.2477,19.9557,1654.0413],[-102.2526,19.9533,1625.3073],[-102.2513,19.95,1625.2893],[-102.2548,19.9492,1604.2819],[-102.259,19.9486,1617.0605],[-102.2683,19.9506,1573.785],[-102.2663,19.9471,1575.099],[-102.2665,19.9424,1576.4873],[-102.2639,19.942,1580.2747],[-102.2607,19.9384,1582.5032],[-102.2573,19.9384,1585.4656],[-102.2557,19.9349,1589.614],[-102.2533,19.935,1593.0699],[-102.25,19.9321,1595.8018],[-102.2453,19.932,1603.2303],[-102.2419,19.9275,1614.4657],[-102.2458,19.9249,1641.0786],[-102.2484,19.9197,1691.8726],[-102.2465,19.9164,1726.3184],[-102.2503,19.9105,1775.7125],[-102.2509,19.9027,1819.0074],[-102.2731,19.8817,2437.2629],[-102.3002,19.8869,2039.6139],[-102.3024,19.885,2034.689],[-102.3039,19.8892,1982.2153],[-102.3067,19.8892,1987.535],[-102.3103,19.8858,1952.9639],[-102.3196,19.8883,1903.7122],[-102.3232,19.8936,1851.9502],[-102.3237,19.9025,1783.3411],[-102.3255,19.9036,1784.1676],[-102.3282,19.9026,1778.4723],[-102.3285,19.9082,1759.2766],[-102.3452,19.8852,1964.9147],[-102.3472,19.8867,1942.4612],[-102.3497,19.885,1953.3081],[-102.3522,19.8866,1961.1489],[-102.3583,19.882,1968.9398],[-102.3667,19.8803,1989.0554],[-102.3823,19.8819,1998.4336],[-102.3861,19.8804,2034.4148],[-102.395,19.8805,2008.3914],[-102.4007,19.8733,2076.5513],[-102.4078,19.8695,2083.4116],[-102.4081,19.8668,2130.5786],[-102.4042,19.8653,2132.8933],[-102.3926,19.8539,2151.5591],[-102.3796,19.8364,2200.2227],[-102.3801,19.83,2234.9404],[-102.3873,19.8229,2377.0693],[-102.3846,19.8198,2352.769],[-102.3892,19.8185,2377.8208],[-102.391,19.8158,2387.8357],[-102.3894,19.8128,2397.9138],[-102.3849,19.8147,2379.1716],[-102.375,19.81,2298.7129],[-102.3765,19.803,2308.5991],[-102.381,19.8032,2328.6301],[-102.3848,19.7962,2341.4189],[-102.3848,19.7894,2333.6548],[-102.3833,19.7884,2336.9741],[-102.3767,19.793,2349.627],[-102.3688,19.7888,2447.0667],[-102.3645,19.7851,2544.5557],[-102.3497,19.7608,3268.2822],[-102.3459,19.7566,3180.7124],[-102.3386,19.7523,3467.7024],[-102.3335,19.7567,3175.2607],[-102.3317,19.7549,3253.0881],[-102.3291,19.7552,3252.6069],[-102.314,19.7618,2694.7273],[-102.3087,19.7622,2628.7339],[-102.3058,19.7641,2549.3025],[-102.302,19.7636,2522.4143],[-102.299,19.7673,2428.0339],[-102.2936,19.7689,2403.2954],[-102.2908,19.7774,2280.8401],[-102.286,19.7815,2223.6929],[-102.2848,19.7891,2167.6204],[-102.2821,19.791,2152.3459],[-102.2805,19.7976,2123.4683],[-102.2708,19.805,2078.915],[-102.2665,19.8033,2051.9478],[-102.2597,19.8064,2028.5428],[-102.2579,19.8095,2008.3007],[-102.2494,19.8033,2017.4873],[-102.2383,19.8034,1981.2898],[-102.232,19.801,1967.4971],[-102.2273,19.8026,1944.1044],[-102.2237,19.8089,1872.0251],[-102.2222,19.8075,1883.3132],[-102.2123,19.8142,1865.3555]],
[[-102.2451,19.9426,1651.4663],[-102.2417,19.9394,1659.332],[-102.2454,19.9383,1627.381],[-102.246,19.9408,1636.1869],[-102.2482,19.9413,1620.9232],[-102.2455,19.9409,1636.1869],[-102.2451,19.9426,1651.4663]]]]}}