{"type":"Feature","properties":{"GID_2":"MEX.20.191_2","GID_0":"MEX","country":"México","GID_1":"MEX.20_1","province":"Oaxaca","NL_NAME_1":"NA","county":"SanJuanChilateca","VARNAME_2":"NA","NL_NAME_2":"NA","TYPE_2":"Município","ENGTYPE_2":"Municipality","CC_2":"NA","HASC_2":"NA","name":"San_Juan_Chilateca.county"},
"geometry":{"type": "MultiPolygon","coordinates": [[[[-96.6557,16.8274,1613.3613],[-96.6626,16.8339,1520.7166],[-96.662,16.8361,1516.6799],[-96.6663,16.8373,1511.7736],[-96.6677,16.8358,1508.9442],[-96.6665,16.8344,1509.9204],[-96.6693,16.8347,1507.2184],[-96.6719,16.8383,1504.5211],[-96.6755,16.835,1499.6711],[-96.6817,16.8367,1500.5238],[-96.6813,16.8393,1505.2051],[-96.6823,16.8338,1499.3262],[-96.6881,16.8356,1497.7661],[-96.6906,16.8287,1490.5431],[-96.6894,16.8268,1489.0106],[-96.6804,16.8227,1491.1931],[-96.6748,16.8215,1496.1124],[-96.6764,16.8245,1493.3608],[-96.6724,16.8236,1496.2378],[-96.6674,16.821,1506.5166],[-96.6669,16.8187,1511.9729],[-96.6591,16.816,1533.0072],[-96.6557,16.8274,1613.3613]]]]}}