{"type":"Feature","properties":{"GID_2":"MEX.12.34_2","GID_0":"MEX","country":"México","GID_1":"MEX.12_1","province":"Guerrero","NL_NAME_1":"NA","county":"GeneralCanutoA.Neri","VARNAME_2":"NA","NL_NAME_2":"NA","TYPE_2":"Município","ENGTYPE_2":"Municipality","CC_2":"NA","HASC_2":"NA","name":"General_Canuto_A.Neri.county"},
"geometry":{"type": "MultiPolygon","coordinates": [[[[-100.0617,18.3679,1350.0885],[-100.0597,18.368,1364.6296],[-100.0589,18.3725,1214.6685],[-100.0669,18.3756,1074.5521],[-100.0673,18.3823,1177.8242],[-100.0483,18.3813,1436.4371],[-100.0402,18.3793,1731.1981],[-100.0395,18.3852,1666.6545],[-100.0432,18.3958,1527.249],[-100.0459,18.3984,1501.4771],[-100.0394,18.4042,1276.9667],[-100.0359,18.4033,1353.0341],[-100.0246,18.4056,1400.3534],[-100.0185,18.4027,1543.7799],[-100.0149,18.4078,1561.1531],[-100.0187,18.4129,1414.6967],[-100.0252,18.413,1193.1696],[-100.0275,18.4228,1066.3599],[-100.0181,18.4255,1495.4369],[-100.0209,18.4307,1203.5892],[-100.0205,18.437,1043.8062],[-100.0239,18.4404,1123.0884],[-100.0319,18.4403,942.3942],[-100.0355,18.4495,864.5365],[-100.0408,18.4485,881.918],[-100.0406,18.4517,907.5812],[-100.0472,18.4503,916.3225],[-100.0472,18.4518,969.111],[-100.0394,18.4523,956.3435],[-100.0253,18.4591,945.0014],[-100.021,18.4567,1101.8365],[-100.0041,18.4562,1651.0527],[-99.9993,18.46,1602.6989],[-100.0024,18.4676,1490.7681],[-100.0006,18.4748,1054.8855],[-100.0047,18.4776,1048.7983],[-100.0071,18.4838,1037.4224],[-100.0367,18.4809,827.9723],[-100.0368,18.485,912.9142],[-100.0318,18.4847,915.828],[-100.0314,18.4864,978.2676],[-100.0352,18.4937,957.8939],[-100.0515,18.5048,828.1502],[-100.0681,18.5205,772.7138],[-100.0687,18.529,800.8091],[-100.074,18.5387,818.2327],[-100.0768,18.5488,941.4402],[-100.0818,18.5404,824.7952],[-100.0853,18.5386,785.92],[-100.09,18.5222,620.1101],[-100.1045,18.524,868.7724],[-100.1227,18.5165,588.9934],[-100.12,18.5162,564.9514],[-100.1209,18.5137,597.8348],[-100.118,18.5137,561.0057],[-100.1197,18.5116,547.2137],[-100.1186,18.51,537.8463],[-100.1215,18.5116,541.8934],[-100.1225,18.5102,542.3181],[-100.1185,18.506,538.1362],[-100.1226,18.5056,547.0114],[-100.1253,18.5081,538.3119],[-100.128,18.5078,542.7825],[-100.127,18.5026,536.4774],[-100.1303,18.5032,532.0076],[-100.1322,18.5,547.3174],[-100.1341,18.5065,523.4841],[-100.1362,18.5061,528.6591],[-100.1393,18.5017,527.1091],[-100.1422,18.5025,548.3717],[-100.1459,18.4956,527.3277],[-100.1456,18.488,528.3751],[-100.1468,18.4899,509.4634],[-100.1508,18.4882,512.3656],[-100.1517,18.4914,502.5541],[-100.1594,18.4917,493.3409],[-100.1593,18.4888,493.7416],[-100.1561,18.4901,489.7954],[-100.1572,18.4871,497.6635],[-100.1589,18.4884,489.6583],[-100.1608,18.4858,489.4744],[-100.162,18.4877,513.9908],[-100.1633,18.4856,486.7791],[-100.1662,18.4865,495.8513],[-100.1643,18.4831,474.9438],[-100.1669,18.482,477.0437],[-100.1653,18.4797,483.093],[-100.1694,18.4791,484.569],[-100.1704,18.4834,478.9859],[-100.1717,18.4811,473.3527],[-100.1742,18.4817,489.7451],[-100.172,18.4715,498.2],[-100.1824,18.4681,457.3228],[-100.1802,18.4658,457.5643],[-100.1806,18.4641,466.4022],[-100.1849,18.4583,471.6749],[-100.1865,18.46,458.5526],[-100.1881,18.4591,458.5526],[-100.1857,18.4551,525.1296],[-100.1917,18.4549,456.3505],[-100.195,18.4568,446.7856],[-100.1964,18.4547,449.9565],[-100.1977,18.4566,442.2384],[-100.2001,18.4567,437.5551],[-100.1992,18.4519,440.4382],[-100.2076,18.4419,436.0732],[-100.2097,18.4416,442.3767],[-100.208,18.4485,430.5566],[-100.2113,18.4491,453.9406],[-100.2129,18.4466,431.8155],[-100.2175,18.4456,445.4777],[-100.2182,18.4406,427.6689],[-100.2236,18.4388,447.2226],[-100.2244,18.4341,423.5952],[-100.2279,18.4347,428.2195],[-100.227,18.4309,424.852],[-100.2255,18.4314,424.852],[-100.2203,18.4224,488.2432],[-100.2167,18.4133,605.9252],[-100.2105,18.4062,683.6213],[-100.2024,18.4086,710.1469],[-100.1986,18.4135,658.4475],[-100.2011,18.4152,668.675],[-100.1962,18.4202,640.6892],[-100.1981,18.4214,574.104],[-100.1924,18.4328,499.4769],[-100.189,18.432,515.2197],[-100.1844,18.4234,599.3112],[-100.1709,18.4195,817.9844],[-100.175,18.4158,844.7433],[-100.1727,18.4094,1083.6672],[-100.1742,18.4087,1006.7515],[-100.169,18.402,969.265],[-100.1736,18.3947,896.3761],[-100.1712,18.3932,992.3015],[-100.1696,18.3863,832.278],[-100.1676,18.3866,811.5667],[-100.167,18.3919,978.6691],[-100.165,18.3938,1064.8511],[-100.1609,18.3877,862.2949],[-100.1626,18.3835,679.2168],[-100.169,18.3781,577.9548],[-100.1629,18.3765,623.2631],[-100.155,18.3718,793.4458],[-100.1499,18.3768,772.5906],[-100.1404,18.3771,813.2239],[-100.1401,18.3827,1000.0544],[-100.138,18.3844,1025.4631],[-100.1301,18.385,1024.4165],[-100.1291,18.3729,908.8797],[-100.1253,18.3728,931.0325],[-100.1206,18.3675,926.8745],[-100.1119,18.3624,945.9409],[-100.1099,18.3583,1004.5829],[-100.1109,18.3547,933.8292],[-100.1084,18.3502,918.1588],[-100.1088,18.3462,956.5496],[-100.1078,18.3475,940.0005],[-100.1056,18.3464,956.0719],[-100.1047,18.343,1032.6276],[-100.0867,18.3389,1241.3362],[-100.0829,18.3396,1324.3453],[-100.0801,18.347,1367.5796],[-100.0885,18.3507,1216.4933],[-100.0943,18.3506,1123.7659],[-100.0947,18.354,1101.7495],[-100.0932,18.354,1122.0967],[-100.092,18.3567,1109.6262],[-100.0887,18.3565,1097.8171],[-100.0871,18.3583,1158.4042],[-100.0886,18.3614,1069.0791],[-100.085,18.363,1111.7109],[-100.0891,18.3671,1102.4421],[-100.0845,18.3689,972.4854],[-100.0828,18.3666,1166.2036],[-100.0755,18.3648,1163.979],[-100.0617,18.3679,1350.0885]]]]}}