{"type":"Feature","properties":{"GID_2":"MEX.5.96_2","GID_0":"MEX","country":"México","GID_1":"MEX.5_1","province":"Chiapas","NL_NAME_1":"NA","county":"Suchiate","VARNAME_2":"NA","NL_NAME_2":"NA","TYPE_2":"Município","ENGTYPE_2":"Municipality","CC_2":"NA","HASC_2":"NA","name":"Suchiate.county"},
"geometry":{"type": "MultiPolygon","coordinates": [[[[-92.1558,14.7309,30.6404],[-92.1695,14.7323,39.2421],[-92.1791,14.7231,33.1016],[-92.1809,14.7107,28.904],[-92.2023,14.7131,29.1589],[-92.2226,14.6992,20.3257],[-92.2229,14.6966,17.1105],[-92.2485,14.6992,18.6809],[-92.2558,14.7167,25.1302],[-92.2646,14.7164,23.1817],[-92.2681,14.7208,17.8705],[-92.2703,14.7184,22.0985],[-92.2675,14.71,15.9092],[-92.2714,14.7083,14.6275],[-92.2717,14.7028,16.942],[-92.273,14.7022,13.8616],[-92.2751,14.7043,14.8162],[-92.2793,14.6966,11.8045],[-92.2812,14.6967,16.8947],[-92.2801,14.6947,12.9416],[-92.284,14.692,17.0349],[-92.2848,14.6884,15.387],[-92.2828,14.6825,11.9693],[-92.2862,14.6812,10.2132],[-92.288,14.6779,13.7264],[-92.2902,14.6784,9.1766],[-92.2885,14.6733,11.6883],[-92.2905,14.6706,9.8899],[-92.2891,14.6684,9.2977],[-92.2955,14.6656,11.6748],[-92.2953,14.664,10.8095],[-92.2904,14.6634,10.5394],[-92.2899,14.6616,10.6112],[-92.2937,14.6612,10.7313],[-92.2951,14.6558,8.6391],[-92.2993,14.6565,8.4903],[-92.3002,14.6492,8.139],[-92.3022,14.6486,6.5958],[-92.3029,14.6499,5.8549],[-92.3021,14.6456,7.0474],[-92.3066,14.6429,5.9673],[-92.305,14.6387,6.0446],[-92.3102,14.636,5.675],[-92.3118,14.6297,5.0502],[-92.3146,14.6307,5.2724],[-92.3169,14.6251,6.2693],[-92.3165,14.6213,3.1034],[-92.3194,14.6188,0.0],[-92.2295,14.5351,2.1511],[-92.2294,14.5364,5.5547],[-92.2372,14.5432,5.3237],[-92.221,14.5355,2.5916],[-92.2168,14.5448,3.3623],[-92.2166,14.5547,1.5],[-92.2153,14.5569,5.9627],[-92.2084,14.559,5.662],[-92.2043,14.5643,6.5149],[-92.1982,14.5643,6.6995],[-92.1833,14.5777,7.335],[-92.1818,14.5911,12.5346],[-92.178,14.6007,11.1861],[-92.1778,14.6074,9.9862],[-92.1746,14.6114,13.5261],[-92.1814,14.6142,10.3407],[-92.1771,14.6206,18.2903],[-92.1771,14.6262,15.1011],[-92.1725,14.6309,14.9132],[-92.1683,14.6406,16.8861],[-92.1591,14.6419,20.8498],[-92.1604,14.6507,17.1951],[-92.1501,14.6559,17.8211],[-92.146,14.6626,18.0],[-92.147,14.6814,24.3662],[-92.143,14.6913,21.896],[-92.1474,14.6978,24.6534],[-92.149,14.7054,29.3795],[-92.1483,14.7206,36.8106],[-92.1544,14.726,29.5344],[-92.1558,14.7309,30.6404]]]]}}