{"type":"Feature","properties":{"featurecla":"River","scalerank":8,"rivernum":658,"dissolve":"658River","name":"Yaqui5","name_alt":null,"note":null,"min_zoom":7.0,"strokeweig":0.25,"name_en":"Yaqui","min_label":8.0},
"geometry":{"type": "LineString","coordinates": [[-109.622607421875,28.90790436405662,278.3645],[-109.629443359375,28.828729559369116,216.1909],[-109.631884765625,28.81891510624412,314.3513],[-109.63623046875,28.80780670780662,286.619],[-109.6381103515625,28.796893621869117,459.9283],[-109.63315429687499,28.787469793744116,417.6083],[-109.6246826171875,28.775897528119117,586.7862],[-109.62724609375,28.76666901249412,323.0336],[-109.6337158203125,28.756854559369117,253.6868],[-109.636962890625,28.743426824994117,204.2665],[-109.63413085937499,28.74127838749412,219.7997],[-109.606201171875,28.700067449994116,271.3595],[-109.583740234375,28.674335028119117,247.6115],[-109.58334960937499,28.66535065311912,198.6887],[-109.58642578125,28.655877996869116,242.1245],[-109.58847656249999,28.643426824994116,205.3042],[-109.586474609375,28.63031647343162,256.4753],[-109.58139648437499,28.62665436405662,255.2348],[-109.57480468749999,28.62555573124412,261.3481],[-109.56796875,28.620477606244116,218.5656],[-109.5597412109375,28.60370514530662,220.1544],[-109.555712890625,28.585223699994117,180.4604],[-109.55429687499999,28.54108307499412,192.0448],[-109.55107421875,28.531268621869117,176.2788],[-109.54379882812499,28.531024481244117,207.0903],[-109.5365478515625,28.53583405155662,162.4781],[-109.53110351562499,28.544452215619117,237.8739],[-109.526416015625,28.54315827030662,245.4574],[-109.521728515625,28.53912994999412,300.0137],[-109.519580078125,28.53424713749412,244.0103],[-109.5209228515625,28.527362371869117,284.6606],[-109.5263671875,28.51666901249412,193.7499],[-109.527099609375,28.510614324994116,197.9418],[-109.524462890625,28.48590729374412,195.5063],[-109.52622070312499,28.47516510624412,171.0848],[-109.5509521484375,28.451678778119117,168.7946],[-109.551513671875,28.44513580936912,186.6662],[-109.5475341796875,28.417840887494116,156.475],[-109.54990234374999,28.412469793744116,147.6101],[-109.5612060546875,28.37348053593162,231.9645],[-109.56865234375,28.371356512494117,156.6036],[-109.600830078125,28.35602448124412,138.9843],[-109.5990478515625,28.35236237186912,147.7784],[-109.58701171874999,28.344598699994116,195.6673],[-109.591064453125,28.32709381718162,160.1939],[-109.608935546875,28.297137762494117,154.9186],[-109.6161376953125,28.275262762494116,248.4591],[-109.62158203125,28.26691315311912,187.4535],[-109.63315429687499,28.26361725468162,230.2182],[-109.6455078125,28.25836823124412,155.2893],[-109.651611328125,28.24567291874412,139.9366],[-109.6573974609375,28.21576569218162,114.5892],[-109.6683837890625,28.19281647343162,115.8635],[-109.6844970703125,28.177264715619117,247.5329],[-109.705810546875,28.16718170780662,261.9845],[-109.77719726562499,28.14911530155662,149.8976],[-109.7908203125,28.14752838749412,122.1675],[-109.7987548828125,28.148309637494116,181.9117],[-109.8037109375,28.15094635624412,119.9448],[-109.80625,28.156024481244117,104.7064],[-109.80698242187499,28.163934637494116,118.8033],[-109.8348876953125,28.17487213749412,130.7991],[-109.8439208984375,28.161737371869116,97.0536],[-109.8668701171875,28.14313385624412,116.9968],[-109.8781005859375,28.129754949994116,106.8452]]}}