{"type":"Feature","properties":{"featurecla":"Lake Centerline","scalerank":8,"rivernum":658,"dissolve":"658Lake Centerline","name":"Yaqui1","name_alt":null,"note":null,"min_zoom":7.0,"strokeweig":0.25,"name_en":"Yaqui","min_label":8.0},
"geometry":{"type": "LineString","coordinates": [[-109.34482421874999,29.17719147343162,576.9292],[-109.3571044921875,29.173114324994117,384.597],[-109.37822265625,29.15985748905662,358.9662],[-109.3949462890625,29.141229559369116,359.4528],[-109.4154541015625,29.13007233280662,375.3439],[-109.44028320312499,29.12421295780662,723.3066],[-109.465087890625,29.120135809369117,425.889],[-109.485888671875,29.120721746869116,595.8226],[-109.5271484375,29.140008856244116,335.2928],[-109.582080078125,29.159540106244116,332.9718],[-109.6240234375,29.154901434369116,332.0],[-109.651611328125,29.145868231244116,332.0],[-109.6661865234375,29.13507721561912,332.0],[-109.6767578125,29.106805731244116,332.0],[-109.67612304687499,29.073016668744117,443.3925],[-109.66245117187499,29.03693268436912,337.7979],[-109.64877929687499,29.008417059369116,332.0],[-109.637939453125,28.981073309369116,273.0707],[-109.628955078125,28.95380280155662,470.0539],[-109.62509765624999,28.92987702030662,391.8817],[-109.6227294921875,28.908954168744117,277.209]]}}