{"type":"Feature","properties":{"featurecla":"River","scalerank":8,"rivernum":714,"dissolve":"714River","name":"Bavispe1","name_alt":null,"note":null,"min_zoom":7.0,"strokeweig":0.2,"name_en":"Bavispe","min_label":8.0},
"geometry":{"type": "LineString","coordinates": [[-108.642578125,29.90155670780662,1378.4166],[-108.65976562499999,29.940545965619116,1397.2512],[-108.67197265624999,29.95844147343162,1467.0736],[-108.68686523437499,29.97162506718162,1755.9958],[-108.69365234375,29.974969793744116,1813.9991],[-108.70004882812499,29.976581121869117,1863.7488],[-108.71484375,29.97724030155662,1454.2776],[-108.736083984375,29.98273346561912,1703.1753],[-108.7504150390625,29.99616119999412,1612.0681],[-108.759521484375,30.01459381718162,1330.1451],[-108.802783203125,30.16864655155662,1228.3628],[-108.8094970703125,30.18280670780662,1256.6644],[-108.822509765625,30.192157293744117,1253.6376],[-108.8368408203125,30.20624420780662,1445.2446],[-108.8448974609375,30.20941803593162,1142.0515],[-108.86455078125,30.21076080936912,1222.2716],[-108.87387695312499,30.21283600468162,1107.9634],[-108.8827392578125,30.21625397343162,1128.411],[-108.894580078125,30.224139715619117,1210.4819],[-108.90234375,30.234491278119116,1140.8167],[-108.9027587890625,30.24701569218162,1079.8816],[-108.89267578124999,30.26129791874412,1075.355],[-108.89072265624999,30.273211981244117,1116.5342],[-108.90708007812499,30.280536199994117,1095.1907],[-108.93735351562499,30.285174871869117,1049.3771],[-108.946826171875,30.28888580936912,1045.6346],[-108.95244140625,30.29352448124412,1057.9886],[-108.955078125,30.300067449994117,1043.8137],[-108.95537109375,30.30939362186912,1049.6285],[-108.95688476562499,30.31806061405662,1046.7401],[-108.96396484374999,30.334588934369116,1130.1028],[-108.964111328125,30.34320709843162,1128.031],[-108.96079101562499,30.349237371869116,1116.7246],[-108.94365234375,30.36566803593162,1081.5798],[-108.935107421875,30.38056061405662,1017.9227],[-108.9248046875,30.41388580936912,1000.7797],[-108.92021484375,30.443622137494117,994.2825],[-108.9215576171875,30.454852606244117,990.689],[-108.93505859375,30.49286530155662,988.7519],[-108.938037109375,30.49725983280662,981.7177],[-108.945556640625,30.503924871869117,994.5374],[-108.952392578125,30.50861237186912,988.3699],[-108.95834960937499,30.51398346561912,986.7966],[-108.96337890625,30.52252838749412,970.2899],[-108.96708984375,30.53412506718162,968.7542],[-108.968994140625,30.546893621869117,968.8083],[-108.967529296875,30.55927155155662,1022.8073],[-108.96127929687499,30.56976959843162,1005.4285],[-108.95703125,30.60675690311912,943.1917],[-109.03251953125,30.678583074994116,928.339],[-109.039794921875,30.709735418744117,944.3574],[-109.064453125,30.727557684369117,902.6108],[-109.07114257812499,30.73395416874412,914.2012],[-109.075439453125,30.74176666874412,925.1235],[-109.07773437499999,30.757831121869117,908.9923],[-109.08676757812499,30.776483465619116,935.7202],[-109.103076171875,30.797870184369117,921.5419],[-109.12314453124999,30.81806061405662,920.6432],[-109.1400634765625,30.827020574994116,979.2351],[-109.19809570312499,30.833270574994117,888.9028],[-109.209765625,30.831073309369117,856.9101]]}}