{"type":"Feature","properties":{"featurecla":"River","scalerank":8,"rivernum":658,"dissolve":"658River","name":"Yaqui6","name_alt":null,"note":null,"min_zoom":7.0,"strokeweig":0.25,"name_en":"Yaqui","min_label":8.0},
"geometry":{"type": "LineString","coordinates": [[-109.89755859374999,27.83844635624412,87.0],[-109.895556640625,27.796161199994117,47.2598],[-109.8986083984375,27.74201080936912,49.2419],[-109.9078125,27.69135162968162,39.0413],[-109.92431640625,27.659686590619117,36.2211],[-109.91684570312499,27.653436590619116,36.2674],[-109.9287109375,27.63910553593162,34.173],[-109.94101562499999,27.628192449994117,34.8736],[-109.95590820312499,27.62116119999412,35.8131],[-109.975830078125,27.61871979374412,33.3271],[-109.99277343749999,27.61469147343162,35.3416],[-110.00634765625,27.605096746869116,33.1123],[-110.03134765624999,27.58038971561912,29.5333],[-110.033740234375,27.57648346561912,29.417],[-110.037646484375,27.573504949994117,28.8751],[-110.04716796875,27.571551824994117,27.4957],[-110.0829345703125,27.578143621869117,25.5758],[-110.08818359375,27.57465241093162,25.3906],[-110.09604492187499,27.56000397343162,27.8242],[-110.1123046875,27.55133698124412,25.1864],[-110.125244140625,27.55182526249412,24.4569],[-110.12353515625,27.564715887494117,22.7881],[-110.125537109375,27.56830475468162,22.483],[-110.127490234375,27.570819403119117,21.8489],[-110.12900390624999,27.57343170780662,22.5573],[-110.12973632812499,27.57770416874412,25.6561],[-110.1659423828125,27.56879303593162,22.0292],[-110.1952392578125,27.577997137494116,17.2733],[-110.222705078125,27.594012762494117,20.5326],[-110.2775146484375,27.61151764530662,14.4467],[-110.287353515625,27.61249420780662,13.4543],[-110.29038085937499,27.60907623905662,12.848],[-110.2947265625,27.602557684369117,13.8012],[-110.30136718749999,27.598407293744117,17.3304],[-110.311279296875,27.60224030155662,13.6622],[-110.358935546875,27.64093659061912,12.7437],[-110.373046875,27.646600653119116,10.391],[-110.3763916015625,27.643426824994116,9.7955],[-110.378955078125,27.63641998905662,12.1456],[-110.3837158203125,27.62933991093162,11.5409],[-110.3935546875,27.62616608280662,9.4888],[-110.4020263671875,27.624627996869116,10.2646],[-110.450439453125,27.60040924686912,5.5254],[-110.4664794921875,27.59943268436912,6.6721],[-110.48291015625,27.608758856244116,6.9239],[-110.4962646484375,27.61957428593162,4.7354],[-110.50498046874999,27.62128327030662,3.9207],[-110.513720703125,27.61920807499412,4.0327],[-110.52695312499999,27.61871979374412,3.1784],[-110.5475341796875,27.62457916874412,2.5529],[-110.609619140625,27.666522528119117,0.0]]}}