{"type":"Feature","properties":{"GID_2":"MEX.31.62_2","GID_0":"MEX","country":"México","GID_1":"MEX.31_1","province":"Yucatán","NL_NAME_1":"NA","county":"Sacalum","VARNAME_2":"NA","NL_NAME_2":"NA","TYPE_2":"Município","ENGTYPE_2":"Municipality","CC_2":"NA","HASC_2":"NA","name":"Sacalum.county"},
"geometry":{"type": "MultiPolygon","coordinates": [[[[-89.7547,20.6071,15.5062],[-89.7568,20.6009,18.2514],[-89.7556,20.5916,10.3186],[-89.7508,20.5962,14.8182],[-89.7453,20.593,17.1453],[-89.7277,20.5808,19.3293],[-89.7268,20.5734,20.1719],[-89.7093,20.5617,18.3596],[-89.7029,20.5611,21.841],[-89.7021,20.5576,22.8439],[-89.7033,20.5548,20.9327],[-89.7013,20.5454,17.2661],[-89.7084,20.5476,17.3292],[-89.7065,20.5394,21.1513],[-89.7137,20.5413,19.9188],[-89.7137,20.5341,24.6078],[-89.7048,20.533,17.7545],[-89.7027,20.5368,20.69],[-89.7005,20.5366,21.5339],[-89.7006,20.5344,19.3459],[-89.6986,20.5334,21.1536],[-89.6913,20.5331,23.0823],[-89.6918,20.5236,24.0628],[-89.6837,20.5241,24.9686],[-89.6824,20.559,24.454],[-89.6338,20.5598,22.6086],[-89.6331,20.525,23.3251],[-89.6359,20.5161,20.5935],[-89.6329,20.5112,23.283],[-89.6362,20.5002,26.7909],[-89.6414,20.4947,27.2712],[-89.6423,20.4885,27.249],[-89.6399,20.4877,27.2388],[-89.6413,20.483,25.3543],[-89.6389,20.4634,28.3991],[-89.6385,20.4426,30.1522],[-89.5991,20.4217,30.1481],[-89.5972,20.4259,29.6338],[-89.5955,20.4247,29.7302],[-89.5951,20.4259,30.0235],[-89.5791,20.4209,28.0658],[-89.5804,20.4184,29.2178],[-89.5751,20.4159,27.4591],[-89.5776,20.4097,27.9384],[-89.5643,20.4022,26.0642],[-89.5584,20.4154,29.4391],[-89.5775,20.4239,27.8787],[-89.5754,20.43,27.3001],[-89.5843,20.4323,25.5073],[-89.582,20.4411,27.2296],[-89.5872,20.4423,27.6688],[-89.5873,20.445,27.2139],[-89.5861,20.4474,27.19],[-89.5802,20.4471,27.7532],[-89.579,20.4602,28.6311],[-89.5898,20.4604,29.6847],[-89.5896,20.4651,28.8964],[-89.5756,20.4639,28.9532],[-89.568,20.4602,28.2855],[-89.5425,20.4574,25.4837],[-89.5402,20.4757,27.1011],[-89.5269,20.4818,25.7321],[-89.5263,20.4833,27.1923],[-89.5319,20.4866,27.3102],[-89.5501,20.4909,20.729],[-89.566,20.4866,24.9248],[-89.5703,20.4895,26.7113],[-89.5677,20.4977,25.9474],[-89.5811,20.4962,19.0506],[-89.5815,20.5004,21.884],[-89.5882,20.5046,23.8645],[-89.5869,20.5064,22.3854],[-89.5834,20.5065,24.3455],[-89.5792,20.5151,23.4947],[-89.5802,20.5184,23.1119],[-89.5783,20.5215,21.92],[-89.5675,20.5236,23.8023],[-89.5645,20.5226,22.6961],[-89.5613,20.5287,23.1279],[-89.5491,20.5381,22.8311],[-89.5374,20.5365,20.5805],[-89.5395,20.5492,20.405],[-89.5399,20.5651,20.3877],[-89.544,20.5663,21.0387],[-89.5441,20.5816,18.6156],[-89.5745,20.5856,19.3344],[-89.5746,20.598,19.9369],[-89.5994,20.5984,19.0631],[-89.6009,20.5929,19.4708],[-89.6076,20.5915,21.3277],[-89.6075,20.5953,21.3271],[-89.6207,20.5988,19.2433],[-89.6205,20.5928,21.8362],[-89.6294,20.5918,19.0368],[-89.6288,20.599,20.6489],[-89.6504,20.6092,20.7551],[-89.656,20.6083,19.2145],[-89.6301,20.5867,18.0037],[-89.6156,20.5775,14.1403],[-89.6167,20.5747,17.6265],[-89.6443,20.5777,16.5502],[-89.6443,20.5762,16.8593],[-89.6466,20.5763,17.4256],[-89.6473,20.5727,21.2333],[-89.6502,20.5722,21.4833],[-89.666,20.5825,16.9955],[-89.6686,20.5928,16.4693],[-89.6907,20.6007,19.8918],[-89.7065,20.6027,19.2363],[-89.7161,20.6079,12.0665],[-89.7216,20.6086,12.5454],[-89.7357,20.6096,15.4953],[-89.744,20.607,8.0448],[-89.7547,20.6071,15.5062]]]]}}