{"type":"Feature","properties":{"GID_2":"MEX.12.31_2","GID_0":"MEX","country":"México","GID_1":"MEX.12_1","province":"Guerrero","NL_NAME_1":"NA","county":"CutzamaladePinzón","VARNAME_2":"NA","NL_NAME_2":"NA","TYPE_2":"Município","ENGTYPE_2":"Municipality","CC_2":"NA","HASC_2":"NA","name":"Cutzamalade_Pinzón.county"},
"geometry":{"type": "MultiPolygon","coordinates": [[[[-100.4222,18.7635,545.7231],[-100.4278,18.7666,541.1335],[-100.4261,18.7696,526.2667],[-100.4264,18.7743,537.1389],[-100.4318,18.7755,532.7761],[-100.4309,18.7835,519.9276],[-100.4353,18.7796,510.9147],[-100.4366,18.7831,515.1372],[-100.4409,18.7819,507.6165],[-100.4428,18.7798,509.5883],[-100.4418,18.7765,507.5338],[-100.4446,18.7768,510.3061],[-100.4455,18.7792,522.4012],[-100.4505,18.78,505.7105],[-100.4507,18.7828,512.1823],[-100.4528,18.7816,506.233],[-100.4535,18.7784,496.5581],[-100.4572,18.7787,506.5778],[-100.4557,18.7843,543.7062],[-100.458,18.7882,578.7231],[-100.4575,18.79,569.5083],[-100.4594,18.791,563.9962],[-100.4584,18.7957,592.7374],[-100.4594,18.7969,592.7374],[-100.4622,18.797,675.3932],[-100.4651,18.7944,762.9398],[-100.4776,18.796,1052.2762],[-100.4818,18.7987,1260.771],[-100.4903,18.7893,669.2097],[-100.4976,18.806,1129.8086],[-100.4959,18.8082,1006.4351],[-100.4899,18.8104,1437.1187],[-100.4935,18.8239,1372.0634],[-100.5022,18.8309,1630.8015],[-100.514,18.8293,1527.7649],[-100.5386,18.8441,1434.9298],[-100.538,18.8362,1775.8184],[-100.5411,18.8367,1452.7749],[-100.5446,18.838,1081.2275],[-100.5518,18.8455,852.7363],[-100.5664,18.8486,671.2249],[-100.5722,18.8542,603.7317],[-100.577,18.8556,586.0543],[-100.5768,18.8578,583.4521],[-100.5855,18.8588,556.5698],[-100.5908,18.8659,558.6524],[-100.5925,18.8659,591.0082],[-100.5914,18.8679,552.9178],[-100.5975,18.8762,546.9146],[-100.6052,18.8757,478.9534],[-100.6069,18.8834,471.161],[-100.6107,18.8873,414.0801],[-100.6132,18.887,413.6138],[-100.6157,18.88,500.7321],[-100.6204,18.8785,405.574],[-100.6196,18.8745,412.5592],[-100.6234,18.8713,398.9904],[-100.6222,18.8668,422.5852],[-100.6254,18.8659,405.0729],[-100.6294,18.8679,404.5375],[-100.6346,18.8666,430.0161],[-100.6375,18.8676,417.7714],[-100.6408,18.8659,389.7117],[-100.6404,18.8622,422.9171],[-100.6452,18.8603,394.2076],[-100.6428,18.8521,383.9228],[-100.6434,18.8489,382.3523],[-100.6517,18.8479,393.404],[-100.6535,18.8439,393.527],[-100.6507,18.8399,418.0649],[-100.6564,18.8384,371.8399],[-100.6593,18.834,387.6774],[-100.6661,18.8343,373.1598],[-100.6684,18.829,370.8048],[-100.6716,18.8282,363.6519],[-100.6729,18.8248,360.8179],[-100.6714,18.8207,361.1008],[-100.668,18.8215,360.8818],[-100.6669,18.8194,391.6374],[-100.6762,18.8168,376.2853],[-100.68,18.8172,359.1736],[-100.6799,18.8096,358.0],[-100.6833,18.8086,359.1065],[-100.6847,18.8032,358.0],[-100.6877,18.8045,358.0],[-100.6899,18.8025,358.0],[-100.692,18.8056,372.3272],[-100.6961,18.7941,358.0],[-100.7058,18.7964,358.0],[-100.7055,18.8137,358.0],[-100.7028,18.8238,358.0],[-100.712,18.8259,360.1532],[-100.7122,18.83,358.0],[-100.7096,18.8358,358.0],[-100.724,18.8492,358.3801],[-100.7364,18.8513,359.3731],[-100.7375,18.8552,364.3194],[-100.7364,18.8602,358.4669],[-100.7411,18.8604,360.7101],[-100.7457,18.8577,363.3424],[-100.7483,18.8613,418.917],[-100.7474,18.8664,362.2946],[-100.7494,18.8681,363.5162],[-100.7597,18.8658,360.9254],[-100.7639,18.8669,372.6061],[-100.7652,18.8644,382.5411],[-100.7664,18.8656,385.5279],[-100.7679,18.864,379.6708],[-100.7691,18.8602,413.5918],[-100.7733,18.8588,425.124],[-100.7769,18.8598,420.6943],[-100.7821,18.8543,562.8649],[-100.7794,18.8514,587.4018],[-100.7804,18.8484,644.8809],[-100.7881,18.8388,910.2112],[-100.788,18.837,945.7668],[-100.7918,18.8342,1007.9702],[-100.7916,18.8293,1076.3273],[-100.7825,18.8017,1252.3821],[-100.7851,18.7965,1269.4358],[-100.7955,18.7889,1041.5791],[-100.799,18.7845,1121.6252],[-100.7945,18.7715,866.9493],[-100.7942,18.7648,735.2544],[-100.792,18.7646,698.5211],[-100.7927,18.7625,665.1953],[-100.7902,18.7614,661.9349],[-100.7918,18.7578,606.9865],[-100.7937,18.7579,635.1569],[-100.7931,18.7557,605.7819],[-100.7954,18.7548,580.118],[-100.7971,18.748,598.1521],[-100.7969,18.7463,562.4014],[-100.7885,18.7412,533.2043],[-100.7841,18.7452,542.0748],[-100.7818,18.7451,550.9769],[-100.7789,18.7426,587.2087],[-100.7802,18.7398,588.7222],[-100.7729,18.7326,567.7822],[-100.7754,18.7298,529.9924],[-100.7739,18.7275,532.3782],[-100.78,18.713,448.7399],[-100.7809,18.7035,440.1075],[-100.7854,18.6915,411.348],[-100.7835,18.687,392.8671],[-100.7798,18.6884,418.1281],[-100.7803,18.6901,424.4647],[-100.7728,18.6906,517.0885],[-100.7703,18.6927,529.2532],[-100.7702,18.6905,528.1321],[-100.7637,18.6829,512.5603],[-100.7613,18.676,486.817],[-100.7612,18.6717,473.5651],[-100.7655,18.6642,498.269],[-100.7594,18.6557,423.5125],[-100.7588,18.6429,423.2742],[-100.7601,18.6416,393.9054],[-100.7579,18.6392,399.4262],[-100.7512,18.6417,478.619],[-100.7522,18.6302,510.4735],[-100.7584,18.6096,733.8246],[-100.7616,18.5944,456.4228],[-100.7607,18.5924,437.0323],[-100.7642,18.5817,607.2318],[-100.7635,18.5633,545.4576],[-100.7649,18.5612,477.4897],[-100.7442,18.5181,562.1454],[-100.732,18.521,363.3525],[-100.7227,18.5138,385.0792],[-100.7095,18.496,340.1144],[-100.707,18.4899,343.1488],[-100.7084,18.4875,339.6654],[-100.715,18.4864,386.9122],[-100.7046,18.4833,332.9754],[-100.7012,18.4851,319.1075],[-100.6978,18.4906,353.5876],[-100.6878,18.4832,530.582],[-100.676,18.4784,509.7334],[-100.6525,18.4648,384.3625],[-100.6495,18.4621,434.3939],[-100.648,18.4574,340.4297],[-100.6372,18.4577,312.7036],[-100.6353,18.443,317.3631],[-100.6319,18.441,300.8872],[-100.6315,18.4385,299.7034],[-100.6077,18.4254,295.2023],[-100.5944,18.4161,276.9874],[-100.5894,18.4151,259.2085],[-100.5878,18.4121,252.4389],[-100.5795,18.4106,283.1661],[-100.5646,18.4012,286.4556],[-100.5628,18.4028,277.5543],[-100.5617,18.3981,284.1468],[-100.5574,18.3968,293.6459],[-100.5457,18.41,299.331],[-100.5311,18.4306,322.5333],[-100.5248,18.4269,337.8212],[-100.5049,18.4639,491.4388],[-100.5078,18.4649,479.339],[-100.5012,18.4739,446.0236],[-100.502,18.4817,488.4294],[-100.5038,18.4823,563.0721],[-100.5176,18.5061,683.1331],[-100.5109,18.5137,378.9324],[-100.5049,18.5239,341.458],[-100.5055,18.5255,339.1203],[-100.4917,18.5289,355.2611],[-100.4921,18.5393,400.4116],[-100.4811,18.565,993.5591],[-100.4875,18.5712,968.5878],[-100.4819,18.5761,1320.7784],[-100.4715,18.6077,1268.8839],[-100.4764,18.6301,1239.9508],[-100.487,18.6404,1433.6949],[-100.4887,18.6471,1136.3335],[-100.4869,18.6576,1165.4774],[-100.4778,18.673,1496.9791],[-100.4787,18.6862,1524.9268],[-100.4734,18.6909,1462.3798],[-100.4545,18.6944,871.2079],[-100.4471,18.7016,872.4744],[-100.4499,18.7036,898.7249],[-100.4504,18.716,921.7689],[-100.4443,18.7231,715.8901],[-100.4402,18.7397,605.9235],[-100.4373,18.7456,564.3658],[-100.4371,18.7506,528.4816],[-100.4181,18.7595,563.4601],[-100.4222,18.7635,545.7231]]]]}}