{"type": "Feature","bbox": [-102.6861,19.8818,-102.4794,20.1017],"geometry": {"type": "MultiPolygon","coordinates": [[[[-102.524,20.082,1956.4312],[-102.534,20.0882,1877.7744],[-102.5375,20.0886,1891.5759],[-102.5366,20.091,1862.8293],[-102.5412,20.0979,1872.5938],[-102.5506,20.1017,2065.0691],[-102.5557,20.094,1981.0325],[-102.5521,20.0864,1805.1422],[-102.5556,20.0875,1797.4344],[-102.5573,20.0863,1771.8329],[-102.5665,20.0865,1739.1481],[-102.5869,20.0758,1538.929],[-102.589,20.0786,1528.5516],[-102.5968,20.0786,1524.2725],[-102.604,20.0807,1524.6876],[-102.605,20.078,1524.6096],[-102.6066,20.0791,1523.6362],[-102.6083,20.0758,1523.5259],[-102.6345,20.0791,1523.9341],[-102.6469,20.084,1523.9978],[-102.6482,20.087,1523.9227],[-102.6527,20.0888,1523.9287],[-102.6602,20.0956,1523.3063],[-102.6721,20.0914,1523.2795],[-102.6703,20.0892,1522.8823],[-102.6741,20.0877,1523.2604],[-102.6722,20.0864,1524.8165],[-102.6745,20.0831,1522.9747],[-102.6654,20.0391,1522.5662],[-102.6637,20.0206,1523.6958],[-102.6612,20.0136,1524.6371],[-102.6649,19.9973,1525.7649],[-102.6586,19.9909,1526.5552],[-102.6537,19.9897,1529.3301],[-102.6548,19.9874,1549.7363],[-102.6536,19.9872,1543.9596],[-102.6612,19.97,1634.5914],[-102.6598,19.9678,1647.5801],[-102.6637,19.9628,1698.7032],[-102.6647,19.9551,1909.2898],[-102.6713,19.9463,2127.9258],[-102.6861,19.9393,2441.0879],[-102.6824,19.9272,2223.1899],[-102.6779,19.9204,2145.9241],[-102.6788,19.9172,2078.3979],[-102.6771,19.9111,2027.2834],[-102.6783,19.9068,2018.5361],[-102.6733,19.9063,1946.816],[-102.668,19.9024,1940.0033],[-102.6431,19.901,1803.9991],[-102.6274,19.8981,1894.6814],[-102.6103,19.8818,2020.7593],[-102.6087,19.8819,2020.7593],[-102.6068,19.8889,1984.7703],[-102.5985,19.8928,1890.2051],[-102.6003,19.8954,1877.5383],[-102.5969,19.8991,1936.136],[-102.5487,19.9034,1994.7861],[-102.53,19.9108,1806.118],[-102.5111,19.9121,1822.3455],[-102.5141,19.9168,1805.7305],[-102.5161,19.9276,1743.9216],[-102.5249,19.9358,1700.2375],[-102.5225,19.9573,1659.8185],[-102.521,19.9605,1640.6211],[-102.5172,19.9624,1639.359],[-102.5056,19.963,1642.1829],[-102.5029,19.9647,1641.5],[-102.5014,19.9637,1654.2235],[-102.4972,19.9663,1652.4481],[-102.4873,19.9644,1693.0562],[-102.4838,19.9792,1995.3882],[-102.5002,19.9849,2076.3223],[-102.499,19.9908,2048.3018],[-102.5005,19.9951,1937.0592],[-102.4989,19.9987,1798.4647],[-102.5013,20.0066,1706.6792],[-102.4991,20.011,1656.797],[-102.493,20.0132,1645.1309],[-102.4898,20.039,1758.326],[-102.4814,20.0484,1622.0983],[-102.4799,20.0479,1607.7944],[-102.4794,20.0511,1592.4686],[-102.4804,20.0529,1581.4374],[-102.4845,20.0529,1607.2444],[-102.4885,20.0577,1696.4858],[-102.4941,20.0592,1716.8406],[-102.5035,20.0655,1776.0194],[-102.5159,20.0686,1866.8481],[-102.5182,20.0679,1860.7788],[-102.524,20.082,1956.4312]]]]}
,"properties": {"GID_2": "MEX.16.105_2","GID_0": "MEX","country": "México","GID_1": "MEX.16_1","province": "Michoacán","NL_NAME_1": "NA","county": "Villamar","VARNAME_2": "NA","NL_NAME_2": "NA","TYPE_2": "Município","ENGTYPE_2": "Municipality","CC_2": "NA","HASC_2": "NA","name": "Villamar.county","area_km2": 351.3058,"hist_schema_id": "Elevation0-9000","hist_area_km2": {"1525": 88.1993,"1550": 5.1599,"1575": 28.2569,"1600": 33.653,"1625": 21.6989,"1650": 21.7186,"1675": 19.3476,"1700": 19.0492,"1725": 16.3198,"1750": 15.4037,"1775": 13.7101,"1800": 13.0721,"1825": 10.76,"1850": 8.1103,"1875": 7.7716,"1900": 6.197,"1925": 4.7225,"1950": 3.3478,"1975": 2.4711,"2000": 1.8135,"2025": 1.1559,"2050": 1.2555,"2075": 0.9566,"2100": 0.7374,"2125": 1.0164,"2150": 1.1759,"2175": 0.8371,"2200": 0.857,"2225": 0.6178,"2250": 0.6178,"2275": 0.4185,"2300": 0.279,"2325": 0.2392,"2350": 0.1395,"2375": 0.0598,"2400": 0.0797,"2425": 0.0598,"2450": 0.0199}}}