{"type": "Feature","bbox": [-103.784,18.8261,-103.5783,19.0886],"geometry": {"type": "MultiPolygon","coordinates": [[[[-103.7686,19.0681,713.7501],[-103.7741,19.0599,618.1378],[-103.7707,19.0455,486.2387],[-103.772,19.0379,550.5171],[-103.7679,19.027,567.8341],[-103.7719,19.0218,407.1511],[-103.7699,19.0001,713.9186],[-103.7807,18.9999,791.5985],[-103.7776,18.9779,426.3506],[-103.784,18.9561,166.5862],[-103.7699,18.9483,39.2816],[-103.7763,18.943,35.8244],[-103.7651,18.9406,35.6744],[-103.7622,18.9487,45.6684],[-103.7515,18.9449,92.7166],[-103.7762,18.9178,23.1365],[-103.7753,18.9161,20.0],[-103.7723,18.916,20.4505],[-103.7722,18.9183,20.5428],[-103.7693,18.9194,29.6796],[-103.767,18.9227,56.586],[-103.7639,18.9212,26.907],[-103.7692,18.911,21.0151],[-103.748,18.909,524.097],[-103.7452,18.9174,590.9355],[-103.7408,18.9176,625.6154],[-103.7383,18.9042,551.5656],[-103.7411,18.9008,484.2285],[-103.7377,18.904,514.889],[-103.7356,18.9025,580.3218],[-103.732,18.9077,517.4061],[-103.73,18.9078,503.8322],[-103.728,18.9039,459.3671],[-103.7308,18.9122,499.8444],[-103.7288,18.9129,509.7683],[-103.7208,18.9015,405.5918],[-103.711,18.9009,389.5935],[-103.7109,18.8942,384.229],[-103.7027,18.8917,327.5918],[-103.7051,18.8901,418.4402],[-103.6956,18.8822,134.9018],[-103.6916,18.8833,122.2776],[-103.6867,18.8816,118.0954],[-103.6942,18.8655,357.2093],[-103.671,18.8545,98.4236],[-103.6686,18.8585,103.497],[-103.6522,18.8489,455.3189],[-103.6533,18.8455,676.1313],[-103.6515,18.8447,855.5496],[-103.6503,18.8408,764.5601],[-103.6246,18.8261,24.7264],[-103.6262,18.831,42.3109],[-103.6174,18.8397,30.5],[-103.6178,18.8445,30.5],[-103.6244,18.8527,32.4004],[-103.6343,18.8592,34.5308],[-103.6406,18.8672,36.6292],[-103.6403,18.8695,35.6616],[-103.6323,18.8793,53.1059],[-103.6303,18.8853,40.4527],[-103.6196,18.8932,44.4698],[-103.6098,18.8893,48.118],[-103.6056,18.8832,48.1036],[-103.6025,18.8816,75.1006],[-103.5968,18.8842,57.5972],[-103.5882,18.8758,56.1567],[-103.5899,18.8708,77.1637],[-103.5864,18.8655,59.9778],[-103.5844,18.8662,61.0815],[-103.5837,18.8739,66.9789],[-103.5783,18.8788,329.1855],[-103.5806,18.8862,447.1608],[-103.5864,18.8917,558.875],[-103.5907,18.9035,497.4517],[-103.5962,18.9042,545.3079],[-103.5896,18.9069,471.6344],[-103.5852,18.9173,543.2679],[-103.58,18.9171,360.2515],[-103.5814,18.921,453.5319],[-103.5797,18.9284,699.4215],[-103.5848,18.929,749.1777],[-103.588,18.9269,734.4703],[-103.5895,18.9341,867.5635],[-103.5874,18.9402,821.6681],[-103.59,18.947,897.0323],[-103.588,18.95,972.5835],[-103.5893,18.9515,1003.4647],[-103.5854,18.9772,1233.5319],[-103.5923,18.981,1064.1836],[-103.5898,18.982,1194.3197],[-103.5889,18.9853,1236.7128],[-103.5934,19.0017,1230.3529],[-103.5922,19.0045,1265.4818],[-103.6031,19.0102,1264.5371],[-103.6084,19.0188,1212.4417],[-103.6083,19.023,1245.321],[-103.6118,19.0285,1021.6788],[-103.6161,19.0302,1064.1855],[-103.6205,19.0285,972.0186],[-103.6295,19.0297,1014.5988],[-103.636,19.0283,1007.3234],[-103.6469,19.0219,573.9485],[-103.6484,19.0167,477.1935],[-103.6503,19.021,575.1541],[-103.6491,19.0221,599.2924],[-103.6485,19.0324,654.8014],[-103.6429,19.0514,905.9697],[-103.6441,19.0516,942.2271],[-103.645,19.0562,1005.338],[-103.6573,19.0582,1172.7169],[-103.6584,19.0626,1151.5508],[-103.6791,19.0705,825.4534],[-103.6834,19.0728,827.1019],[-103.6824,19.0748,780.1401],[-103.7182,19.0885,194.2073],[-103.7193,19.0886,194.2073],[-103.7203,19.0801,180.8216],[-103.7277,19.0715,166.7177],[-103.7251,19.0647,166.2952],[-103.7406,19.0699,463.3392],[-103.7421,19.0657,370.6011],[-103.7503,19.0643,341.0756],[-103.7511,19.0612,308.5284],[-103.7535,19.0625,328.3053],[-103.752,19.0653,320.0626],[-103.7529,19.0718,343.3837],[-103.7669,19.0707,667.472],[-103.7686,19.0681,713.7501]]]]}
,"properties": {"GID_2": "MEX.8.6_2","GID_0": "MEX","country": "México","GID_1": "MEX.8_1","province": "Colima","NL_NAME_1": "NA","county": "Ixtlahuacán","VARNAME_2": "NA","NL_NAME_2": "NA","TYPE_2": "Município","ENGTYPE_2": "Municipality","CC_2": "NA","HASC_2": "NA","name": "Ixtlahuacán.county","area_km2": 377.7202,"hist_schema_id": "Elevation0-9000","hist_area_km2": {"25": 2.8888,"50": 9.7084,"75": 11.1919,"100": 24.369,"125": 31.6431,"150": 22.4573,"175": 18.1468,"200": 16.7225,"225": 15.4393,"250": 14.3962,"275": 15.6189,"300": 16.942,"325": 15.8387,"350": 13.1122,"375": 12.4312,"400": 10.7067,"425": 8.7018,"450": 8.9825,"475": 8.3811,"500": 7.5189,"525": 8.762,"550": 7.539,"575": 6.7367,"600": 5.6739,"625": 5.5936,"650": 5.1926,"675": 4.8718,"700": 4.3506,"725": 4.2502,"750": 3.4681,"775": 3.6485,"800": 3.5684,"825": 3.5684,"850": 3.1272,"875": 2.3855,"900": 2.145,"925": 1.8243,"950": 1.8443,"975": 1.8844,"1000": 1.6439,"1025": 1.6038,"1050": 1.303,"1075": 1.6038,"1100": 1.6038,"1125": 1.5236,"1150": 0.9623,"1175": 0.5412,"1200": 0.3809,"1225": 0.441,"1250": 0.2205,"1275": 0.1203,"1300": 0.1002,"1325": 0.02,"1350": 0.02}}}