{"type":"Feature","properties":{"GID_2":"MEX.15.6_2","GID_0":"MEX","country":"México","GID_1":"MEX.15_1","province":"México","NL_NAME_1":"NA","county":"AlmoloyadelRío","VARNAME_2":"NA","NL_NAME_2":"NA","TYPE_2":"Município","ENGTYPE_2":"Municipality","CC_2":"NA","HASC_2":"NA","name":"Almoloyadel_Río.county"},
"geometry":{"type": "MultiPolygon","coordinates": [[[[-99.4879,19.1496,2575.5366],[-99.463,19.1506,2624.4832],[-99.4683,19.1604,2631.4407],[-99.479,19.1677,2619.0271],[-99.4802,19.1711,2616.6409],[-99.4821,19.1694,2618.3511],[-99.4866,19.17,2592.7861],[-99.4869,19.1687,2588.0251],[-99.4932,19.1699,2593.8865],[-99.494,19.1641,2575.0488],[-99.4993,19.1622,2570.1958],[-99.5158,19.167,2570.3838],[-99.5249,19.1634,2570.8718],[-99.5266,19.1614,2570.8218],[-99.5262,19.1592,2571.0635],[-99.4879,19.1496,2575.5366]]]]}}