{"type":"Feature","properties":{"featurecla":"River","scalerank":10,"rivernum":22209,"dissolve":"22209River","name":"La Sierra","name_alt":null,"note":"ID is link back to CEC data","name_full":"La Sierra","min_zoom":6.0,"strokeweig":0.2,"uident":2046201,"min_label":7.0},
"geometry":{"type": "LineString","coordinates": [[-92.922556118874567,17.957790431764863,5.8448],[-92.902048306374567,17.951483465619035,3.9009],[-92.8926082022079,17.937323309369035,6.7951],[-92.8894343740829,17.923122463014863,4.9078],[-92.876820441791224,17.901068426556535,5.3798],[-92.868519660541224,17.855088608848206,5.8123],[-92.854115363666224,17.820176499473206,9.8329],[-92.852609829812067,17.805853582806535,9.5059],[-92.848622199603724,17.797634181764863,14.5896],[-92.850046353249567,17.760728257285706,9.6547],[-92.8342585928329,17.748155015098206,11.3578],[-92.8200984365829,17.732367254681535,11.3164],[-92.8153376943954,17.716620184369035,13.1495],[-92.821644660541224,17.697699285931535,16.1054],[-92.827951626687067,17.678778387494035,11.8179],[-92.8125300772079,17.653550522910706,21.9732],[-92.803089973041224,17.640936590619035,17.6998],[-92.8014216787704,17.631618556764863,20.5321]]}}