{"type":"Feature","properties":{"GID_2":"MEX.20.215_2","GID_0":"MEX","country":"México","GID_1":"MEX.20_1","province":"Oaxaca","NL_NAME_1":"NA","county":"SanJuanOzolotepec","VARNAME_2":"NA","NL_NAME_2":"NA","TYPE_2":"Município","ENGTYPE_2":"Municipality","CC_2":"NA","HASC_2":"NA","name":"San_Juan_Ozolotepec.county"},
"geometry":{"type": "MultiPolygon","coordinates": [[[[-96.1026,16.1626,2731.8137],[-96.1206,16.1501,2300.4294],[-96.1487,16.1536,1961.2388],[-96.172,16.1625,2260.4761],[-96.1797,16.1627,1882.8431],[-96.1934,16.1699,2359.2734],[-96.2075,16.1644,3103.283],[-96.2107,16.1701,2881.3457],[-96.2176,16.1736,3264.5852],[-96.2174,16.1853,3339.1909],[-96.2546,16.1869,3649.5491],[-96.2744,16.1649,3222.658],[-96.3059,16.1001,1185.8868],[-96.3115,16.0921,1144.9751],[-96.3097,16.0885,1220.1904],[-96.2959,16.0851,1974.4229],[-96.2831,16.0854,2438.719],[-96.272,16.0805,2813.519],[-96.2592,16.079,3042.4321],[-96.2654,16.0781,2992.4292],[-96.2656,16.0762,2908.8403],[-96.2626,16.0749,2806.1448],[-96.2666,16.0709,2549.3601],[-96.2686,16.051,1642.9839],[-96.2648,16.0468,1508.4185],[-96.2608,16.0449,1602.6052],[-96.2567,16.0462,1814.1108],[-96.2408,16.038,1758.0945],[-96.2382,16.0352,1464.7671],[-96.2337,16.0361,1477.4966],[-96.2363,16.0309,1327.0344],[-96.2302,16.0287,1749.2295],[-96.2241,16.0231,1494.025],[-96.2221,16.0257,1635.8396],[-96.2148,16.0291,1999.0742],[-96.2106,16.0213,1775.1191],[-96.2101,16.0136,1611.0005],[-96.2014,16.0194,1068.3041],[-96.1931,16.0193,920.8214],[-96.1872,16.0166,792.3425],[-96.1862,16.0089,651.3539],[-96.18,16.0113,573.6934],[-96.176,16.0095,586.564],[-96.1706,16.0123,613.1571],[-96.1686,16.0195,664.8098],[-96.1716,16.0232,632.7073],[-96.1679,16.0267,695.5988],[-96.1667,16.0342,741.0287],[-96.1719,16.039,738.3158],[-96.1714,16.0432,721.7548],[-96.1635,16.0427,857.3882],[-96.1614,16.0445,979.8097],[-96.1499,16.0429,1395.8344],[-96.1423,16.0457,2051.5],[-96.1371,16.0379,2452.7266],[-96.142,16.0505,2301.3325],[-96.1382,16.058,2601.2563],[-96.1361,16.0591,2608.7649],[-96.1318,16.0756,2384.1265],[-96.1335,16.0805,2185.7949],[-96.1312,16.087,2096.7058],[-96.1339,16.0958,2195.1904],[-96.124,16.1121,2232.585],[-96.1194,16.1142,2290.6904],[-96.1135,16.1393,2525.2708],[-96.1075,16.1468,2606.0369],[-96.0872,16.1562,2726.3418],[-96.1026,16.1626,2731.8137]],
[[-96.1983,16.1198,2343.0469],[-96.1971,16.1161,2314.5981],[-96.1817,16.1134,1679.4974],[-96.1787,16.1111,1645.1637],[-96.1745,16.1125,1526.953],[-96.1622,16.1052,1331.6077],[-96.1602,16.1015,1179.6931],[-96.1647,16.1003,1150.8901],[-96.163,16.0972,1145.525],[-96.1651,16.0947,1144.1223],[-96.1649,16.091,1151.6257],[-96.1625,16.0921,1096.2179],[-96.1639,16.0891,1163.2764],[-96.1629,16.0874,1070.1342],[-96.1651,16.0863,1090.4052],[-96.1651,16.0841,1053.8313],[-96.1627,16.0825,1029.0717],[-96.1673,16.0824,1020.9951],[-96.1666,16.0805,1027.3379],[-96.1687,16.0807,1029.7307],[-96.1696,16.0778,1027.2191],[-96.173,16.0781,968.7645],[-96.1755,16.0756,965.8342],[-96.1717,16.0708,923.3279],[-96.1756,16.0707,966.4923],[-96.1794,16.0663,851.5864],[-96.1787,16.059,854.8782],[-96.1765,16.0564,794.2225],[-96.1792,16.0545,807.387],[-96.1916,16.0549,1499.8983],[-96.1976,16.0521,1712.9137],[-96.2083,16.0506,2377.4702],[-96.2165,16.0533,2665.5215],[-96.2302,16.0634,2693.8403],[-96.2222,16.075,1776.5027],[-96.2223,16.0772,1712.9015],[-96.2115,16.0838,1304.9945],[-96.2064,16.0819,1163.3542],[-96.2066,16.0831,1182.6797],[-96.2097,16.0863,1229.5725],[-96.215,16.0841,1321.7764],[-96.2181,16.087,1363.3237],[-96.2215,16.0861,1490.1593],[-96.2214,16.0887,1460.0386],[-96.2265,16.0932,1512.5574],[-96.2277,16.0961,1552.9529],[-96.2327,16.0987,1705.3779],[-96.238,16.1065,2074.3081],[-96.2403,16.1145,2547.031],[-96.2432,16.117,2669.5818],[-96.2246,16.1298,2929.8481],[-96.2081,16.1458,3143.6189],[-96.2006,16.1262,2693.1995],[-96.2019,16.1249,2628.3147],[-96.1983,16.1198,2343.0469]]]]}}