{"type":"Feature","properties":{"GID_2":"MEX.27.11_2","GID_0":"MEX","country":"México","GID_1":"MEX.27_1","province":"Tabasco","NL_NAME_1":"NA","county":"Jonuta","VARNAME_2":"NA","NL_NAME_2":"NA","TYPE_2":"Município","ENGTYPE_2":"Municipality","CC_2":"NA","HASC_2":"NA","name":"Jonuta.county"},
"geometry":{"type": "MultiPolygon","coordinates": [[[[-92.3302,18.4623,0.4689],[-92.331,18.4611,1.2857],[-92.3263,18.4606,0.5202],[-92.3226,18.4581,0.441],[-92.3201,18.452,0.4703],[-92.3269,18.4498,0.4101],[-92.3229,18.4371,0.5992],[-92.3136,18.4275,1.2383],[-92.3252,18.4209,0.6444],[-92.3528,18.3946,0.5773],[-92.3138,18.3742,1.2142],[-92.3123,18.3764,2.6843],[-92.3105,18.3742,1.6159],[-92.3123,18.3671,3.9166],[-92.3087,18.365,1.944],[-92.308,18.3619,3.9635],[-92.3058,18.3647,1.7583],[-92.3043,18.3638,2.9482],[-92.3041,18.3589,0.9644],[-92.2985,18.3581,0.7689],[-92.2989,18.3545,1.0645],[-92.2921,18.3532,1.4406],[-92.2954,18.3478,0.8886],[-92.2723,18.3277,0.6275],[-92.2963,18.3072,1.2798],[-92.2609,18.3003,1.1053],[-92.2549,18.3062,0.776],[-92.2463,18.2961,0.9557],[-92.2579,18.2932,1.3137],[-92.2438,18.2886,1.2646],[-92.2375,18.3005,1.1665],[-92.2228,18.2908,1.1762],[-92.2184,18.2823,0.7526],[-92.2231,18.2805,0.853],[-92.2146,18.2759,0.9247],[-92.2188,18.2749,1.1217],[-92.2161,18.2662,0.707],[-92.2355,18.2624,3.5047],[-92.2649,18.2667,1.2084],[-92.2704,18.2706,7.2954],[-92.2811,18.2748,3.1923],[-92.2954,18.2553,0.6951],[-92.307,18.2575,0.7007],[-92.3093,18.2612,0.7228],[-92.3164,18.2573,2.6914],[-92.3199,18.2479,1.9391],[-92.3232,18.2459,0.9311],[-92.3205,18.2404,0.7327],[-92.316,18.2445,1.8263],[-92.3133,18.2415,0.7879],[-92.3159,18.239,0.0],[-92.3123,18.2358,0.0],[-92.3175,18.2309,0.6871],[-92.321,18.2305,0.5892],[-92.321,18.2276,0.3227],[-92.3315,18.2178,0.3645],[-92.3167,18.2104,0.6752],[-92.3148,18.213,0.8446],[-92.313,18.2092,0.4103],[-92.323,18.1862,1.041],[-92.3248,18.1723,0.9368],[-92.318,18.1562,0.4221],[-92.3,18.1523,1.1285],[-92.2849,18.1385,2.1179],[-92.2917,18.1306,4.336],[-92.2898,18.1281,0.1394],[-92.2916,18.1255,0.7674],[-92.2911,18.1227,1.3428],[-92.2939,18.1189,0.9594],[-92.2913,18.1166,1.1033],[-92.2916,18.1149,1.0977],[-92.2964,18.1103,1.1433],[-92.3047,18.109,1.546],[-92.3043,18.1038,3.0023],[-92.3057,18.1009,1.5613],[-92.3044,18.0996,1.4288],[-92.3062,18.0981,0.676],[-92.3034,18.0951,1.8174],[-92.303,18.0867,1.1349],[-92.3059,18.0865,1.0649],[-92.3079,18.0906,1.4758],[-92.307,18.0931,1.2676],[-92.3102,18.0934,1.3095],[-92.3104,18.0912,1.1009],[-92.3184,18.0878,2.3605],[-92.32,18.0847,0.0],[-92.3244,18.0827,3.7226],[-92.3304,18.0771,2.9456],[-92.3363,18.0746,0.0],[-92.3376,18.0712,1.618],[-92.3411,18.0701,3.6676],[-92.3429,18.0646,2.8586],[-92.3396,18.0639,1.0423],[-92.3391,18.0619,3.9714],[-92.3228,18.061,1.1496],[-92.3223,18.0486,1.1317],[-92.3135,18.0479,1.7134],[-92.3158,18.0419,1.2488],[-92.3074,18.0459,1.1476],[-92.3076,18.0379,1.2157],[-92.3167,18.0288,1.2923],[-92.2993,18.022,0.8328],[-92.3032,18.0177,1.363],[-92.3109,18.0155,1.4661],[-92.3128,18.0133,0.5595],[-92.3127,18.0091,0.0],[-92.3075,18.0053,0.7126],[-92.3102,18.0036,1.3208],[-92.314,17.9966,0.3155],[-92.3137,17.9936,1.9573],[-92.3164,17.9929,1.9145],[-92.3182,17.9891,1.8377],[-92.3169,17.9862,2.1721],[-92.3187,17.9816,3.17],[-92.3116,17.9728,2.6045],[-92.3129,17.9695,1.4469],[-92.3105,17.969,3.8549],[-92.3105,17.9667,2.4014],[-92.3059,17.9626,0.4166],[-92.3103,17.962,0.0],[-92.3164,17.9578,3.6526],[-92.3145,17.9542,2.2721],[-92.3149,17.9487,1.9255],[-92.3127,17.9453,4.9022],[-92.3196,17.9327,3.2708],[-92.319,17.9306,2.0557],[-92.3139,17.9272,2.0873],[-92.3118,17.9282,1.663],[-92.2892,17.9239,1.9411],[-92.2958,17.9143,6.5022],[-92.2641,17.9018,4.2297],[-92.2641,17.9075,3.1231],[-92.2436,17.8927,8.8001],[-92.2191,17.8828,1.7866],[-92.2106,17.8993,6.5189],[-92.2032,17.9022,5.9448],[-92.2032,17.9039,4.539],[-92.1933,17.9069,5.2074],[-92.1704,17.9025,5.1783],[-92.1783,17.8664,3.1648],[-92.1654,17.8579,2.7932],[-92.1631,17.8537,4.702],[-92.1561,17.8495,4.1687],[-92.1539,17.8463,5.6452],[-92.1495,17.8455,9.3441],[-92.1498,17.8379,6.7144],[-92.1441,17.8309,6.7505],[-92.1454,17.8248,7.7741],[-92.1404,17.8196,7.6733],[-92.138,17.8109,8.0807],[-92.1399,17.8098,8.0849],[-92.1205,17.796,13.9066],[-92.1055,17.8129,13.0465],[-92.1046,17.8276,10.8928],[-92.0994,17.8346,8.1587],[-92.1065,17.8381,7.7108],[-92.102,17.8509,13.8667],[-92.0905,17.8507,7.3587],[-92.0905,17.8566,3.7518],[-92.0683,17.8487,3.998],[-92.0563,17.8468,5.1769],[-92.0534,17.8485,4.9547],[-92.0534,17.8527,4.3634],[-92.0494,17.8548,4.4948],[-92.0484,17.858,6.186],[-92.0525,17.8672,4.6074],[-92.0605,17.8719,6.3853],[-92.0673,17.8704,6.2529],[-92.0721,17.8745,5.2016],[-92.0718,17.8777,4.0507],[-92.0671,17.8764,3.7799],[-92.0297,17.8891,2.5],[-92.0197,17.8878,3.0702],[-92.0206,17.8918,3.924],[-92.0192,17.8955,4.5241],[-92.0155,17.8975,7.3648],[-92.0034,17.8905,6.7172],[-92.0005,17.8987,6.5044],[-91.9984,17.899,12.893],[-91.9913,17.9196,4.6016],[-91.9999,17.9433,3.7996],[-91.9957,17.9426,2.0],[-91.993,17.9397,2.0],[-91.9852,17.9204,2.0],[-91.9785,17.9137,2.0],[-91.9699,17.9104,2.0],[-91.945,17.9103,2.0],[-91.9403,17.9074,3.6775],[-91.9394,17.9011,2.0],[-91.9554,17.8823,3.3476],[-91.9574,17.874,4.285],[-91.9571,17.8706,4.1314],[-91.9526,17.8654,2.8838],[-91.9442,17.8629,2.0],[-91.934,17.866,2.0],[-91.9281,17.8708,2.0],[-91.9239,17.8824,4.8783],[-91.9255,17.8919,2.0],[-91.9234,17.8956,2.0],[-91.9181,17.8995,2.0],[-91.9125,17.8998,2.0],[-91.903,17.896,2.0],[-91.8942,17.8875,2.5],[-91.8707,17.8908,3.0],[-91.8544,17.8834,4.0],[-91.8453,17.8834,4.0],[-91.8316,17.8889,4.0],[-91.8207,17.8977,4.0],[-91.8145,17.9005,5.9763],[-91.7855,17.9234,11.9841],[-91.7712,17.9444,10.7077],[-91.8046,17.9726,9.9012],[-91.8672,17.9833,9.2103],[-91.8881,18.0063,8.5055],[-91.9004,18.0121,7.3234],[-91.9097,18.0138,7.4732],[-91.9354,18.0102,9.4571],[-91.9401,18.0126,9.6405],[-91.9662,18.0159,3.3562],[-91.9688,18.0254,2.0],[-91.9781,18.044,4.1481],[-91.9813,18.0448,4.3144],[-91.9864,18.0406,7.3845],[-91.9905,18.0399,2.7484],[-92.0075,18.0509,4.6484],[-92.0134,18.053,2.0],[-92.0237,18.0673,2.0],[-92.0264,18.0769,3.8126],[-92.0298,18.0788,4.2042],[-92.0394,18.0782,3.5165],[-92.042,18.0796,2.0],[-92.0421,18.0812,2.6788],[-92.0351,18.0873,2.9278],[-92.0354,18.0942,4.6926],[-92.0396,18.0991,5.0754],[-92.0524,18.095,2.263],[-92.0598,18.0998,4.7904],[-92.069,18.0936,1.0],[-92.0771,18.0957,5.0957],[-92.0794,18.0879,1.8758],[-92.0826,18.0864,2.1597],[-92.091,18.0928,5.5697],[-92.1098,18.0954,0.5],[-92.1176,18.1026,3.9264],[-92.1225,18.1028,3.2559],[-92.1274,18.1087,2.1206],[-92.1283,18.1201,2.5667],[-92.149,18.1367,4.81],[-92.1488,18.1493,3.7253],[-92.1609,18.1554,1.445],[-92.1606,18.1887,5.6583],[-92.1644,18.1979,0.5049],[-92.1489,18.2104,0.368],[-92.1832,18.2741,1.516],[-92.173,18.2753,0.9379],[-92.175299999999993,18.2875,0.7674],[-92.1744,18.2933,2.4825],[-92.1752,18.294,1.046],[-92.1772,18.2887,1.348],[-92.1804,18.2898,1.4712],[-92.1714,18.339,2.2022],[-92.1819,18.3759,0.2473],[-92.1774,18.3759,0.2619],[-92.1761,18.4582,0.6537],[-92.2045,18.4569,0.1528],[-92.2762,18.4578,3.5276],[-92.3082,18.4572,4.9673],[-92.3103,18.4556,5.7815],[-92.3106,18.4605,0.4111],[-92.3216,18.4675,0.6607],[-92.3225,18.4731,0.4531],[-92.3302,18.4623,0.4689]]]]}}