{"type":"Feature","properties":{"featurecla":"River","scalerank":12,"rivernum":22208,"dissolve":"22208River","name":"Sarabia","name_alt":null,"note":"ID is link back to CEC data","name_full":"Sarabia","min_zoom":7.0,"strokeweig":0.15,"uident":2048001,"min_label":8.0},
"geometry":{"type": "LineString","coordinates": [[-95.2623591787704,16.943793035931535,593.683],[-95.274484829812067,16.924994207806535,566.9333],[-95.302316861062067,16.899847723431535,556.0631],[-95.3019099600204,16.868231512494035,572.3638],[-95.306630012103724,16.839056707806535,818.3798],[-95.3023982412704,16.819199936973206,700.3123]]}}