{"type":"Feature","properties":{"featurecla":"River","scalerank":11,"rivernum":22213,"dissolve":"22213River","name":"Culebra","name_alt":null,"note":"ID is link back to CEC data","name_full":"Culebra","min_zoom":6.7,"strokeweig":0.15,"uident":2046401,"min_label":7.7},
"geometry":{"type": "LineString","coordinates": [[-95.714955207416224,17.192450262494035,646.6936],[-95.739003058978724,17.174872137494035,417.8087],[-95.7857966787704,17.103542384889863,626.4197],[-95.7982478506454,17.045518296348206,529.8654],[-95.8199763662704,17.025987046348206,710.4918]]}}