{"type":"Feature","properties":{"featurecla":"River","scalerank":12,"rivernum":22207,"dissolve":"22207River","name":"Jaltepec","name_alt":null,"note":"ID is link back to CEC data","name_full":"Jaltepec","min_zoom":7.0,"strokeweig":0.15,"uident":2048301,"min_label":8.0},
"geometry":{"type": "LineString","coordinates": [[-95.546864387103724,16.792018947389863,869.4402],[-95.562570767312067,16.816758530723206,649.4718],[-95.565012173562067,16.832098699994035,710.5901],[-95.5599666006454,16.866644598431535,656.6837],[-95.5675349600204,16.902696030723206,677.1816],[-95.561024543353724,16.920111395306535,872.4204],[-95.556955532937067,16.932155666139863,526.7077]]}}