{"type":"Feature","properties":{"featurecla":"River","scalerank":12,"rivernum":22203,"dissolve":"22203River","name":"Grande4","name_alt":null,"note":"ID is link back to CEC data","name_full":"Grande","min_zoom":7.0,"strokeweig":0.2,"uident":2049801,"min_label":8.0},
"geometry":{"type": "LineString","coordinates": [[-97.895985480853724,16.963487046348206,751.5822],[-97.891428189187067,16.948757228639863,750.3287],[-97.883778449603724,16.937201239056535,697.7296],[-97.874867316791224,16.923773504681535,787.5975],[-97.871408657937067,16.913519598431535,821.8919],[-97.8656306631454,16.896592515098206,893.6825],[-97.8563533193954,16.874294338014863,855.537],[-97.854318814187067,16.854600327598206,752.8671],[-97.8507380850204,16.847194728639863,661.2892],[-97.831410285541224,16.843125718223206,864.8381],[-97.824330207416224,16.841660874473206,858.8356],[-97.8097224600204,16.832709051556535,591.4138],[-97.794300910541224,16.806097723431535,604.9985],[-97.7696833975204,16.788763739056535,582.3333],[-97.759144660541224,16.788519598431535,552.1917],[-97.745187954812067,16.769964910931535,618.5026],[-97.733876105853724,16.763495184369035,590.5702],[-97.726551887103724,16.755397853639863,569.5454],[-97.7013240225204,16.706569728639863,664.6941],[-97.7013240225204,16.684027410931535,727.3558],[-97.692005988666224,16.657578843223206,497.7434],[-97.6803279287704,16.621934311973206,559.5663],[-97.666493293353724,16.607692775514863,421.9802],[-97.632435676166224,16.601629949994035,520.6072]]}}