{"type":"Feature","properties":{"featurecla":"River","scalerank":10,"rivernum":22204,"dissolve":"22204River","name":"Colorado2","name_alt":null,"note":"ID is link back to CEC data","name_full":"Rio Colorado","min_zoom":6.0,"strokeweig":0.2,"uident":2049701,"min_label":7.0},
"geometry":{"type": "LineString","coordinates": [[-97.279123501687067,17.284002996869035,2017.9004],[-97.265695767312067,17.266384181764863,2015.1462],[-97.261057095437067,17.243597723431535,1958.0649],[-97.240467902728724,17.191514390098206,1951.3923],[-97.243763801166224,17.188015041139863,2002.6755],[-97.259022590228724,17.174587306764863,2003.1174],[-97.271311001687067,17.165147202598206,1704.9808],[-97.268910285541224,17.131130275514863,1961.0342],[-97.289133267312067,17.097601629681535,1379.7825],[-97.303089973041224,17.088893947389863,1289.6685],[-97.332102017312067,17.090928452598206,1277.0608],[-97.341908332416224,17.082627671348206,1268.9182],[-97.361561652728724,17.066026108848206,1490.2969],[-97.3678279287704,17.049180405723206,1519.2646],[-97.381092902728724,17.000026759889863,1225.6316],[-97.4068904287704,16.971258856244035,1469.9838],[-97.427601691791224,16.959784246869035,1375.4978],[-97.442494269916224,16.952826239056535,1528.6105],[-97.446766730853724,16.948106186973206,1385.1466],[-97.463449673562067,16.936794338014863,1183.6453],[-97.467600064187067,16.926703192181535,1298.6138],[-97.469715949603724,16.878281968223206,1229.8959],[-97.4757380850204,16.866888739056535,1367.0068],[-97.515736457416224,16.823431707806535,1069.8013],[-97.522287564187067,16.797186590619035,1420.1439],[-97.535023566791224,16.772975978639863,1563.8245],[-97.538319465228724,16.764431056764863,1101.1501],[-97.5609431631454,16.737656968223206,1050.0272],[-97.570057746478724,16.681016343223206,1005.4863],[-97.5770564443954,16.672796942181535,1239.45],[-97.6080623037704,16.657782293744035,848.0182],[-97.616810676166224,16.647569077598206,616.5833],[-97.6222224600204,16.631699936973206,769.9646],[-97.632435676166224,16.601629949994035,520.6072]]}}