{"type":"Feature","properties":{"featurecla":"River","scalerank":12,"rivernum":22200,"dissolve":"22200River","name":"Verde2","name_alt":null,"note":"ID is link back to CEC data","name_full":"Rio Verde","min_zoom":7.0,"strokeweig":0.2,"uident":2050601,"min_label":8.0},
"geometry":{"type": "LineString","coordinates": [[-97.632435676166224,16.601629949994035,520.6072],[-97.5899958975204,16.583522853639863,321.7946],[-97.5799861318954,16.572211004681535,374.6002],[-97.5541072256454,16.523993231244035,427.0295],[-97.550852017312067,16.493597723431535,763.9194]]}}