{"type":"Feature","properties":{"GID_2":"MEX.6.55_2","GID_0":"MEX","country":"México","GID_1":"MEX.6_1","province":"Chihuahua","NL_NAME_1":"NA","county":"Rosales","VARNAME_2":"NA","NL_NAME_2":"NA","TYPE_2":"Município","ENGTYPE_2":"Municipality","CC_2":"NA","HASC_2":"NA","name":"Rosales.county"},
"geometry":{"type": "MultiPolygon","coordinates": [[[[-105.6944,28.557,1177.2863],[-105.7504,28.5571,1250.0052],[-105.6877,28.4952,1214.7798],[-105.7125,28.4746,1256.2173],[-105.7383,28.4693,1331.9985],[-105.7348,28.4606,1336.6586],[-105.7282,28.4529,1341.9769],[-105.7292,28.4465,1332.8567],[-105.7278,28.4444,1371.6555],[-105.7278,28.4387,1508.4071],[-105.7265,28.4364,1509.6965],[-105.7203,28.4373,1447.4543],[-105.7104,28.4121,1283.5303],[-105.7028,28.342,1513.7477],[-105.7268,28.3456,1353.4221],[-105.7342,28.3795,1306.6423],[-105.739,28.3762,1310.8035],[-105.7413,28.3484,1336.0082],[-105.7568,28.3504,1323.1205],[-105.7556,28.3449,1325.9656],[-105.7603,28.3414,1328.0962],[-105.7595,28.3386,1330.2983],[-105.7617,28.3272,1335.183],[-105.7556,28.3165,1342.0745],[-105.758,28.3094,1345.7168],[-105.754,28.3028,1353.1471],[-105.7617,28.2913,1355.5658],[-105.7674,28.2896,1362.8079],[-105.7706,28.2939,1363.7743],[-105.78,28.2977,1370.4661],[-105.786,28.2958,1375.6001],[-105.8213,28.2917,1406.8926],[-105.835,28.2874,1421.313],[-105.8273,28.2729,1405.4944],[-105.8326,28.2736,1408.2432],[-105.8361,28.2699,1415.2429],[-105.8469,28.2714,1445.9041],[-105.8619,28.2766,1447.0994],[-105.8945,28.279,1469.6298],[-105.91,28.2544,1464.9583],[-105.9193,28.2575,1476.9734],[-105.9203,28.2594,1477.9946],[-105.9252,28.2491,1484.2188],[-105.926,28.2416,1479.666],[-105.9311,28.2336,1480.2275],[-105.9289,28.2252,1471.9783],[-105.9402,28.2085,1494.675],[-105.9401,28.2067,1499.9382],[-105.942,28.2051,1502.8611],[-105.9765,28.2019,1643.6594],[-105.9736,28.1433,1542.8126],[-105.9745,28.1365,1599.9287],[-106.0282,28.1441,1980.2452],[-106.0422,28.1491,2121.6104],[-106.068,28.1454,2207.166],[-106.0954,28.1222,1765.6248],[-106.0901,28.1137,1690.5229],[-106.0892,28.1149,1693.8656],[-106.086,28.1137,1732.8512],[-106.0819,28.1162,1709.5519],[-106.0702,28.1147,1740.7631],[-106.0705,28.109,1713.038],[-106.0682,28.105,1696.1504],[-106.0701,28.1012,1686.056],[-106.0659,28.1048,1715.7329],[-106.0644,28.1028,1749.2312],[-106.0612,28.1043,1835.6138],[-106.06,28.1011,1769.6328],[-106.0578,28.1001,1793.6368],[-106.054,28.1019,1754.6106],[-106.0498,28.1018,1730.4631],[-106.0448,28.096,1725.2975],[-106.0308,28.0896,1701.8074],[-106.0272,28.0904,1704.9119],[-106.023,28.0868,1675.8655],[-106.0166,28.0925,1700.4805],[-106.0166,28.0951,1702.1707],[-106.015,28.0951,1724.5011],[-106.0135,28.0978,1726.1039],[-106.0139,28.0997,1715.8733],[-106.0078,28.1009,1739.2571],[-105.9999,28.0891,1804.4989],[-105.996,28.0866,1769.334],[-105.9893,28.0664,1820.5551],[-105.9724,28.0265,1572.4227],[-105.9625,28.0245,1534.6932],[-105.9643,28.0213,1525.1655],[-105.9724,28.0181,1530.8571],[-105.979,28.0186,1546.1974],[-105.9793,28.0148,1520.8982],[-105.9892,28.013,1569.1831],[-105.9776,28.0034,1519.5637],[-105.9737,27.9849,1502.4136],[-105.9654,27.9815,1488.4644],[-105.9549,27.9721,1467.916],[-105.9418,27.9632,1451.2838],[-105.9307,27.9428,1423.1006],[-105.9137,27.9387,1413.0142],[-105.9002,27.9448,1401.3105],[-105.8954,27.9455,1401.5718],[-105.8929,27.9435,1394.9514],[-105.8946,27.9399,1357.379],[-105.8935,27.937,1342.022],[-105.888,27.9374,1359.5752],[-105.8862,27.936,1338.0397],[-105.8839,27.9377,1339.8961],[-105.876,27.9326,1317.3424],[-105.8738,27.9295,1299.9713],[-105.8762,27.9278,1299.3118],[-105.8748,27.9257,1305.9679],[-105.8764,27.9245,1306.0499],[-105.8733,27.9209,1315.5225],[-105.8737,27.9101,1329.2947],[-105.8717,27.9075,1332.9703],[-105.8643,27.9017,1345.7068],[-105.8634,27.8992,1350.3754],[-105.8514,27.8992,1373.5415],[-105.8492,27.9015,1416.9838],[-105.8427,27.8994,1437.9087],[-105.8376,27.8936,1539.5688],[-105.8338,27.8836,1479.3481],[-105.8239,27.8794,1507.9152],[-105.818,27.8791,1555.906],[-105.7905,27.9079,1412.4712],[-105.7827,27.912,1381.1279],[-105.7737,27.9258,1372.4314],[-105.7592,27.9354,1367.3779],[-105.7393,27.968,1360.8706],[-105.7324,27.9756,1358.8486],[-105.7355,27.9768,1360.0042],[-105.73,27.9827,1358.6367],[-105.7245,27.981,1354.2849],[-105.7193,27.9869,1354.9955],[-105.6929,27.9947,1355.4547],[-105.6761,27.9966,1352.9851],[-105.6706,27.9952,1353.1577],[-105.6408,28.0126,1328.6459],[-105.6828,28.0557,1307.9918],[-105.6618,28.0605,1311.3625],[-105.6535,28.0773,1287.4771],[-105.6572,28.0852,1287.0533],[-105.6412,28.104,1262.8052],[-105.6384,28.1023,1267.8331],[-105.604,28.1277,1228.7241],[-105.6123,28.1131,1249.4646],[-105.6058,28.1159,1251.8077],[-105.6076,28.1096,1262.1014],[-105.588,28.1189,1228.6912],[-105.5869,28.1182,1226.666],[-105.5799,28.1229,1217.1479],[-105.5772,28.1212,1215.5314],[-105.5735,28.1243,1211.3129],[-105.5786,28.1281,1211.1184],[-105.5551,28.138,1193.4321],[-105.5552,28.1423,1188.8235],[-105.5409,28.1494,1185.5092],[-105.5408,28.152,1185.649],[-105.5321,28.1641,1181.7286],[-105.534,28.1734,1179.0775],[-105.5319,28.1737,1180.8694],[-105.5274,28.1798,1178.5645],[-105.5226,28.182,1181.0244],[-105.5003,28.1819,1170.8807],[-105.4941,28.1838,1167.6523],[-105.5007,28.2335,1156.8572],[-105.5153,28.2484,1155.6246],[-105.509,28.2556,1152.8208],[-105.5238,28.2706,1148.5878],[-105.5536,28.2806,1152.5029],[-105.5658,28.2817,1179.0139],[-105.5658,28.2857,1182.885],[-105.5692,28.2856,1187.3818],[-105.5702,28.2821,1197.4987],[-105.5703,28.2863,1196.4913],[-105.5791,28.2928,1188.0947],[-105.585,28.3017,1194.2256],[-105.5834,28.3064,1191.2935],[-105.584,28.3106,1193.7231],[-105.5892,28.3217,1193.0045],[-105.6293,28.3599,1218.1528],[-105.639,28.3844,1226.7856],[-105.6419,28.3873,1232.9121],[-105.6369,28.3921,1218.2495],[-105.6567,28.4088,1226.9906],[-105.6486,28.4094,1219.1722],[-105.6484,28.4141,1219.9723],[-105.6404,28.4162,1222.9513],[-105.6403,28.4176,1215.6002],[-105.6343,28.4209,1210.5935],[-105.628,28.4199,1206.6812],[-105.623,28.4264,1203.0908],[-105.6187,28.4244,1200.1287],[-105.6151,28.4274,1197.6267],[-105.6138,28.4323,1196.0078],[-105.6071,28.4322,1192.9248],[-105.6002,28.4296,1187.1819],[-105.5957,28.4309,1184.2742],[-105.593,28.4301,1183.0153],[-105.5919,28.4279,1182.5784],[-105.5889,28.4286,1181.6599],[-105.5888,28.4321,1182.6458],[-105.5859,28.4352,1181.3003],[-105.5782,28.44,1174.1196],[-105.5794,28.4441,1173.6892],[-105.5693,28.4475,1167.6121],[-105.5677,28.4502,1168.2584],[-105.5612,28.4515,1166.0508],[-105.5561,28.4609,1159.302],[-105.5543,28.4601,1157.5884],[-105.5476,28.4639,1152.8928],[-105.5449,28.4676,1152.5828],[-105.5445,28.4731,1147.7285],[-105.5402,28.4751,1146.095],[-105.5357,28.473,1145.8788],[-105.5332,28.4748,1143.2997],[-105.5125,28.4782,1134.3171],[-105.5027,28.484,1127.3191],[-105.4948,28.4923,1124.3083],[-105.4915,28.4915,1122.2734],[-105.4913,28.4896,1122.2537],[-105.4866,28.4891,1118.9214],[-105.4914,28.494,1129.0378],[-105.4951,28.4949,1129.7],[-105.4951,28.5051,1126.1388],[-105.5005,28.5068,1128.2782],[-105.4902,28.5438,1099.6301],[-105.4945,28.5442,1100.6224],[-105.4972,28.5472,1101.9896],[-105.5047,28.5485,1103.4747],[-105.5116,28.5468,1107.027],[-105.5156,28.552,1105.0865],[-105.5169,28.5565,1105.9237],[-105.5281,28.5565,1113.7183],[-105.5281,28.5593,1108.7616],[-105.5305,28.5583,1110.9294],[-105.5349,28.5601,1110.4451],[-105.538,28.5578,1111.3401],[-105.5405,28.5616,1111.5461],[-105.555,28.5677,1115.3268],[-105.5598,28.5669,1117.0634],[-105.5591,28.5632,1118.2002],[-105.5652,28.5665,1118.2693],[-105.5665,28.5688,1121.0452],[-105.5707,28.5689,1123.2614],[-105.5735,28.5757,1122.7286],[-105.5759,28.576,1127.5876],[-105.5871,28.5851,1133.0015],[-105.5893,28.5857,1134.1638],[-105.592,28.5841,1132.0559],[-105.6045,28.5931,1137.9448],[-105.61,28.5997,1140.9333],[-105.6139,28.6083,1146.2067],[-105.6137,28.5606,1141.4587],[-105.6335,28.5605,1146.5249],[-105.6335,28.5643,1143.2842],[-105.6238,28.5644,1143.9995],[-105.6238,28.5678,1139.2366],[-105.6185,28.5678,1139.9539],[-105.6185,28.5716,1138.804],[-105.6237,28.5715,1137.743],[-105.6238,28.5755,1140.6948],[-105.6283,28.5752,1142.0394],[-105.6283,28.5678,1140.0691],[-105.6335,28.5678,1141.9237],[-105.6337,28.5787,1142.2323],[-105.6485,28.5785,1145.3167],[-105.6486,28.5822,1143.9255],[-105.6588,28.5821,1147.6044],[-105.6588,28.5875,1147.6448],[-105.6792,28.5877,1154.425],[-105.6792,28.5784,1156.6111],[-105.6895,28.5784,1167.0779],[-105.6893,28.5561,1173.5477],[-105.6944,28.557,1177.2863]]]]}}