{"type": "Feature","bbox": [-105.6828,27.9682,-105.3517,28.2773],"geometry": {"type": "MultiPolygon","coordinates": [[[[-105.3517,28.2503,1191.749],[-105.3567,28.2561,1199.1936],[-105.3634,28.2546,1182.1703],[-105.3699,28.257,1173.0538],[-105.3701,28.2654,1173.4762],[-105.3716,28.2685,1175.8123],[-105.3777,28.2698,1172.457],[-105.382,28.2771,1165.7554],[-105.3937,28.2773,1158.3396],[-105.3956,28.2712,1162.699],[-105.4004,28.2685,1167.7123],[-105.4076,28.2703,1181.2798],[-105.4077,28.2634,1183.0045],[-105.4333,28.2633,1176.0189],[-105.4333,28.2598,1179.1841],[-105.4462,28.2601,1160.1854],[-105.451,28.2625,1149.0068],[-105.4635,28.2474,1156.917],[-105.4632,28.2406,1166.0267],[-105.4641,28.2425,1161.8865],[-105.4659,28.2421,1154.3612],[-105.4695,28.237,1155.6929],[-105.4781,28.2414,1153.2782],[-105.4789,28.2361,1155.9474],[-105.4998,28.2393,1151.5657],[-105.5037,28.2364,1153.8943],[-105.5007,28.2335,1156.8572],[-105.4941,28.1838,1167.6523],[-105.5003,28.1819,1170.8807],[-105.5226,28.182,1181.0244],[-105.5274,28.1798,1178.5645],[-105.5319,28.1737,1180.8694],[-105.534,28.1734,1179.0775],[-105.5321,28.1641,1181.7286],[-105.5408,28.152,1185.649],[-105.5409,28.1494,1185.5092],[-105.5552,28.1423,1188.8235],[-105.5551,28.138,1193.4321],[-105.5786,28.1281,1211.1184],[-105.5735,28.1243,1211.3129],[-105.5772,28.1212,1215.5314],[-105.5799,28.1229,1217.1479],[-105.5869,28.1182,1226.666],[-105.588,28.1189,1228.6912],[-105.6076,28.1096,1262.1014],[-105.6058,28.1159,1251.8077],[-105.6123,28.1131,1249.4646],[-105.604,28.1277,1228.7241],[-105.6384,28.1023,1267.8331],[-105.6412,28.104,1262.8052],[-105.6572,28.0852,1287.0533],[-105.6535,28.0773,1287.4771],[-105.6618,28.0605,1311.3625],[-105.6828,28.0557,1307.9918],[-105.5978,27.9682,1305.5287],[-105.5622,28.0064,1276.5212],[-105.5559,28.0072,1271.4751],[-105.5528,28.0126,1271.1788],[-105.5374,28.0112,1286.8573],[-105.5239,28.0183,1282.2446],[-105.5167,28.0194,1270.7004],[-105.5157,28.0114,1276.6279],[-105.5013,28.0195,1276.1484],[-105.4972,28.0255,1272.5807],[-105.4935,28.0275,1272.9905],[-105.4921,28.03,1273.9282],[-105.4921,28.0379,1257.6206],[-105.4875,28.0348,1258.141],[-105.4738,28.0349,1256.4022],[-105.4735,28.0558,1230.8182],[-105.4291,28.0561,1260.8282],[-105.4226,28.0472,1254.5594],[-105.4203,28.0477,1249.5977],[-105.4027,28.0665,1239.3982],[-105.3983,28.0798,1218.5623],[-105.3961,28.0814,1216.8687],[-105.3874,28.0818,1215.8517],[-105.3836,28.08,1212.9727],[-105.3809,28.0693,1214.1943],[-105.3743,28.0718,1214.9565],[-105.3688,28.0665,1215.1838],[-105.3615,28.0692,1215.016],[-105.3618,28.2364,1188.382],[-105.3521,28.2364,1193.7676],[-105.353,28.2384,1191.9486],[-105.352,28.239,1193.2159],[-105.3562,28.241,1186.9624],[-105.3578,28.2453,1185.3527],[-105.3572,28.2471,1188.3667],[-105.3517,28.2503,1191.749]]]]}
,"properties": {"GID_2": "MEX.6.20_2","GID_0": "MEX","country": "México","GID_1": "MEX.6_1","province": "Chihuahua","NL_NAME_1": "NA","county": "Delicias","VARNAME_2": "NA","NL_NAME_2": "NA","TYPE_2": "Município","ENGTYPE_2": "Municipality","CC_2": "NA","HASC_2": "NA","name": "Delicias.county","area_km2": 533.8183,"hist_schema_id": "Elevation0-9000","hist_area_km2": {"1150": 12.1607,"1175": 70.0632,"1200": 160.5952,"1225": 109.3661,"1250": 68.7339,"1275": 53.5915,"1300": 43.7369,"1325": 15.5708}}}