{"type":"Feature","properties":{"featurecla":"River","scalerank":12,"rivernum":22267,"dissolve":"22267River","name":"Actopan1","name_alt":null,"note":"ID is link back to CEC data","name_full":"Actopan","min_zoom":7.0,"strokeweig":0.2,"uident":2030801,"min_label":8.0},
"geometry":{"type": "LineString","coordinates": [[-96.891957160541224,19.630641994264863,1124.7567],[-96.8697810537704,19.620917059369035,988.6892],[-96.825062629291224,19.607936916139863,826.0059],[-96.815419074603724,19.601263739056535,769.7458],[-96.801869269916224,19.584743556764863,719.2614],[-96.7726130850204,19.573594468223206,624.5749],[-96.723988410541224,19.547796942181535,458.1311],[-96.6769099600204,19.529160874473206,360.0335],[-96.592762824603724,19.504217840619035,249.3399],[-96.5394587881454,19.481268621869035,139.3571],[-96.487782355853724,19.480292059369035,88.9604],[-96.4652400381454,19.465928452598206,63.3157],[-96.456654426166224,19.463568426556535,56.2487],[-96.377186652728724,19.420355535931535,9.8013],[-96.347238736062067,19.418646551556535,22.6935],[-96.319162564187067,19.424668686973206,0.0]]}}