{"type":"Feature","properties":{"featurecla":"River","scalerank":11,"rivernum":22265,"dissolve":"22265River","name":"La Antigua","name_alt":null,"note":"ID is link back to CEC data","name_full":"La Antigua","min_zoom":6.7,"strokeweig":0.2,"uident":2031801,"min_label":7.7},
"geometry":{"type": "LineString","coordinates": [[-96.290353970437067,19.332586981244035,0.0],[-96.323801236062067,19.326361395306535,16.1569],[-96.335072394916224,19.337225653119035,6.8209],[-96.344797329812067,19.354437567181535,8.9019],[-96.3885798818954,19.362738348431535,15.2324],[-96.417551236062067,19.361354884889863,54.2078],[-96.4400935537704,19.348985093223206,80.0795],[-96.4525447256454,19.346747137494035,102.4162],[-96.480295376687067,19.333604233848206,100.9507],[-96.491525845437067,19.333604233848206,104.7686],[-96.516835090228724,19.337917384889863,177.9113],[-96.532541470437067,19.337713934369035,152.604],[-96.566029426166224,19.345526434369035,250.913],[-96.578928189187067,19.342800197389863,263.8742],[-96.600331183978724,19.334051824994035,207.1222],[-96.621449348041224,19.339911199994035,264.6982],[-96.6681208975204,19.319199936973206,351.2989],[-96.692005988666224,19.313910223431535,346.165],[-96.7274470693954,19.324977931764863,302.5695],[-96.752430793353724,19.336778061973206,373.8057],[-96.7784724600204,19.339056707806535,500.1784],[-96.852406379291224,19.379095770306535,541.8322],[-96.903553840228724,19.349676824994035,914.1799],[-96.9339900381454,19.323268947389863,1001.988],[-96.945668098041224,19.316026108848206,1063.8264]]}}