{"type":"Feature","properties":{"featurecla":"River","scalerank":12,"rivernum":22267,"dissolve":"22267River","name":"Actopan","name_alt":null,"note":"ID is link back to CEC data","name_full":"Actopan","min_zoom":7.0,"strokeweig":0.15,"uident":2030801,"min_label":8.0},
"geometry":{"type": "LineString","coordinates": [[-97.1058650381454,19.583197332806535,2875.7678],[-97.120961066791224,19.606878973431535,2694.502],[-97.121896939187067,19.620306707806535,2569.9507],[-97.100900845437067,19.655625718223206,2489.9548],[-97.091175910541224,19.664414780723206,2477.4919],[-97.079090949603724,19.667588608848206,2299.2847],[-97.0355525381454,19.674831447389863,2029.1451],[-97.018869595437067,19.672796942181535,1841.7704],[-97.001779751687067,19.667914129681535,1758.2012],[-96.972401496478724,19.652940171348206,1622.0896],[-96.913889126687067,19.640204168744035,1306.7827],[-96.891957160541224,19.630641994264863,1124.7567]]}}