{"type": "Feature","bbox": [-109.7366,29.3155,-109.334,29.6556],"geometry": {"type": "MultiPolygon","coordinates": [[[[-109.4702,29.6556,800.1848],[-109.6402,29.559,531.3156],[-109.642,29.5706,520.7587],[-109.643,29.5674,534.4583],[-109.6467,29.5651,557.4409],[-109.6515,29.5693,600.2811],[-109.6577,29.5707,574.1407],[-109.683,29.5706,680.3139],[-109.6774,29.5558,688.8456],[-109.6949,29.5532,763.2405],[-109.6928,29.5443,682.3867],[-109.6952,29.5398,690.5122],[-109.7082,29.5426,729.0417],[-109.7366,29.5188,1188.4928],[-109.7262,29.5108,1033.8352],[-109.7348,29.508,1104.7627],[-109.7261,29.4972,1285.9785],[-109.7162,29.4922,1369.9353],[-109.7167,29.4795,1448.1626],[-109.7105,29.452,908.3776],[-109.6984,29.4391,768.6188],[-109.6936,29.4417,763.8334],[-109.6819,29.4404,715.069],[-109.6651,29.4284,563.2906],[-109.6371,29.3871,972.6983],[-109.624,29.3511,764.7011],[-109.5875,29.3597,623.5106],[-109.561,29.3681,710.8143],[-109.5417,29.3648,741.6941],[-109.5192,29.3577,1088.6318],[-109.5424,29.3282,856.0765],[-109.5043,29.3295,1454.0328],[-109.4891,29.3155,1302.8237],[-109.4788,29.3198,1102.332],[-109.4763,29.3445,836.259],[-109.4393,29.3405,1195.7161],[-109.427,29.3451,948.9367],[-109.4262,29.352,1152.2091],[-109.4321,29.3603,1246.5254],[-109.4279,29.373,1226.0319],[-109.4256,29.3871,1415.9341],[-109.4059,29.4004,1421.6838],[-109.3943,29.3934,1521.2996],[-109.3952,29.3772,1389.7618],[-109.4003,29.374,1399.1207],[-109.403,29.3689,1134.0754],[-109.3864,29.3773,1525.9846],[-109.3819,29.387,1611.807],[-109.3802,29.4063,1244.0908],[-109.3651,29.4168,977.4984],[-109.3569,29.4189,867.6387],[-109.3503,29.4227,725.1003],[-109.3508,29.4315,809.7416],[-109.3534,29.4354,905.3706],[-109.3522,29.4392,966.97],[-109.3533,29.4413,1024.4575],[-109.334,29.4553,841.3276],[-109.3426,29.5029,880.2291],[-109.3443,29.5034,912.3199],[-109.3437,29.5134,994.7284],[-109.4056,29.568,975.5018],[-109.4143,29.5617,835.5632],[-109.4522,29.5708,750.8311],[-109.5031,29.5555,627.7556],[-109.5239,29.604,802.7717],[-109.4702,29.6556,800.1848]]]]}
,"properties": {"GID_2": "MEX.26.66_2","GID_0": "MEX","country": "México","GID_1": "MEX.26_1","province": "Sonora","NL_NAME_1": "NA","county": "Tepache","VARNAME_2": "NA","NL_NAME_2": "NA","TYPE_2": "Município","ENGTYPE_2": "Municipality","CC_2": "NA","HASC_2": "NA","name": "Tepache.county","area_km2": 779.3182,"hist_schema_id": "Elevation0-9000","hist_area_km2": {"425": 0.5725,"450": 1.7541,"475": 4.0247,"500": 11.8514,"525": 32.8191,"550": 50.4799,"575": 46.7505,"600": 42.1165,"625": 56.8362,"650": 52.4675,"675": 52.4317,"700": 47.2618,"725": 40.5572,"750": 27.755,"775": 21.8154,"800": 21.3001,"825": 21.1344,"850": 21.4506,"875": 19.5311,"900": 18.2399,"925": 20.179,"950": 20.0497,"975": 20.4941,"1000": 18.4821,"1025": 15.1594,"1050": 12.0216,"1075": 10.619,"1100": 11.8016,"1125": 9.272,"1150": 7.8317,"1175": 5.9106,"1200": 4.6176,"1225": 4.2479,"1250": 3.7861,"1275": 2.6966,"1300": 3.0658,"1325": 3.2687,"1350": 2.5301,"1375": 1.9762,"1400": 1.6437,"1425": 1.6623,"1450": 1.4222,"1475": 1.2745,"1500": 1.1083,"1525": 1.1083,"1550": 0.9975,"1575": 0.2771,"1600": 0.4064,"1625": 0.2032,"1650": 0.0554}}}