{"type": "Feature","bbox": [-100.3331,18.0748,-100.0554,18.4328],"geometry": {"type": "MultiPolygon","coordinates": [[[[-100.3168,18.1967,371.5507],[-100.3068,18.1835,361.688],[-100.2816,18.1789,845.5556],[-100.2813,18.1657,359.1053],[-100.2909,18.1686,353.191],[-100.2991,18.148,321.3545],[-100.2928,18.1425,365.0793],[-100.2835,18.1414,537.5718],[-100.2765,18.13,328.4581],[-100.2769,18.1245,309.7985],[-100.2713,18.1006,314.544],[-100.2609,18.0947,314.0545],[-100.2555,18.0961,336.5075],[-100.2523,18.1024,344.3017],[-100.2482,18.1021,330.982],[-100.2466,18.097,315.2571],[-100.2327,18.0886,317.5916],[-100.2304,18.0825,350.939],[-100.228,18.0809,317.9471],[-100.2229,18.0799,333.9921],[-100.2198,18.0827,321.285],[-100.2165,18.083,321.9191],[-100.2145,18.0763,332.7617],[-100.2117,18.0748,321.9211],[-100.2066,18.0797,325.9274],[-100.2028,18.0778,356.2668],[-100.2007,18.0804,362.252],[-100.205,18.0806,335.3485],[-100.1802,18.1042,924.4822],[-100.1677,18.1048,1191.9374],[-100.1605,18.1109,1285.9427],[-100.1553,18.1254,1378.4653],[-100.1483,18.1332,1420.8503],[-100.115,18.1103,957.1355],[-100.1134,18.1134,972.788],[-100.1109,18.1134,898.2783],[-100.0933,18.1076,1225.2389],[-100.0915,18.1139,1287.4558],[-100.0931,18.1205,1222.6707],[-100.091,18.1287,1328.8721],[-100.0854,18.1312,1139.7014],[-100.0826,18.1288,1101.8322],[-100.0785,18.1292,1024.2748],[-100.0725,18.1265,905.2192],[-100.0721,18.1304,946.4779],[-100.0818,18.1434,1108.9432],[-100.0834,18.1504,1131.0898],[-100.0881,18.1488,1351.8242],[-100.0918,18.1508,1400.0281],[-100.0891,18.1563,1406.772],[-100.0916,18.1689,1615.5791],[-100.086,18.1739,1780.4956],[-100.0819,18.1815,1728.3286],[-100.0816,18.1867,1739.1531],[-100.0906,18.1882,1632.0336],[-100.0943,18.2005,944.7178],[-100.0978,18.2019,928.4123],[-100.0932,18.205,901.8798],[-100.101,18.2124,1174.2031],[-100.1005,18.2176,1191.9043],[-100.0995,18.219,1260.3073],[-100.0954,18.2159,1069.0846],[-100.0926,18.216,1017.4415],[-100.0921,18.2195,1058.7991],[-100.0894,18.222,935.9745],[-100.0911,18.2245,1158.7898],[-100.0883,18.225,1067.6387],[-100.0864,18.2224,957.9739],[-100.0824,18.2243,959.674],[-100.0836,18.233,999.3242],[-100.0856,18.234,1040.3667],[-100.0796,18.2396,1003.6526],[-100.082,18.243,1152.177],[-100.0766,18.2435,1031.833],[-100.073,18.2473,1011.9264],[-100.0736,18.2526,1086.75],[-100.0704,18.2586,1078.2865],[-100.0759,18.2666,1132.7606],[-100.0678,18.2678,1274.157],[-100.0649,18.2705,1331.7207],[-100.0604,18.2713,1402.4438],[-100.0604,18.2762,1364.1504],[-100.0633,18.2781,1224.4424],[-100.0704,18.2773,1093.6268],[-100.0704,18.2797,1091.1841],[-100.0681,18.28,1116.5256],[-100.0722,18.2835,1154.7998],[-100.0697,18.2838,1111.6041],[-100.07,18.285,1111.6041],[-100.0776,18.2839,1288.8384],[-100.0797,18.2868,1209.8075],[-100.093,18.2877,1454.7571],[-100.095,18.2903,1444.5782],[-100.0952,18.2935,1345.6648],[-100.094,18.2926,1345.6648],[-100.0928,18.2947,1254.9736],[-100.0887,18.2961,1199.4017],[-100.0904,18.2986,1234.9144],[-100.0883,18.3034,1363.1536],[-100.0905,18.3049,1436.781],[-100.0967,18.3041,1455.8569],[-100.098,18.306,1400.5894],[-100.097,18.3074,1434.7019],[-100.093,18.3082,1484.9768],[-100.0892,18.3121,1287.5736],[-100.0825,18.311,1219.7203],[-100.0798,18.3173,1247.1594],[-100.0782,18.3182,1231.7058],[-100.0747,18.3167,1197.9373],[-100.0743,18.319,1187.3129],[-100.0764,18.3275,1222.8651],[-100.0786,18.3296,1242.5641],[-100.0834,18.3252,1270.8773],[-100.0954,18.3266,941.3447],[-100.0822,18.3315,1264.0487],[-100.0792,18.3346,1309.2659],[-100.0752,18.3433,1397.6447],[-100.0698,18.3461,1363.0382],[-100.0629,18.3533,1572.0433],[-100.0563,18.3565,1565.1548],[-100.0554,18.3599,1640.5779],[-100.0593,18.3631,1549.8477],[-100.0617,18.3679,1350.0885],[-100.0755,18.3648,1163.979],[-100.0828,18.3666,1166.2036],[-100.0855,18.3689,972.4854],[-100.0891,18.3671,1102.4421],[-100.085,18.363,1111.7109],[-100.0886,18.3614,1069.0791],[-100.0871,18.3583,1158.4042],[-100.0887,18.3565,1097.8171],[-100.092,18.3567,1109.6262],[-100.0932,18.354,1122.0967],[-100.0947,18.354,1101.7495],[-100.0943,18.3506,1123.7659],[-100.0885,18.3507,1216.4933],[-100.0801,18.347,1367.5796],[-100.0827,18.3398,1324.3453],[-100.0867,18.3389,1241.3362],[-100.1046,18.343,1032.6276],[-100.1059,18.344,984.2808],[-100.1056,18.3464,956.0719],[-100.1078,18.3475,940.0005],[-100.1088,18.3462,956.5496],[-100.1084,18.3502,918.1588],[-100.1109,18.3547,933.8292],[-100.1099,18.3583,1004.5829],[-100.1119,18.3624,945.9409],[-100.1206,18.3675,926.8745],[-100.1253,18.3728,931.0325],[-100.1291,18.3729,908.8797],[-100.1301,18.385,1024.4165],[-100.138,18.3844,1025.4631],[-100.1401,18.3827,1000.0544],[-100.1404,18.3771,813.2239],[-100.1499,18.3768,772.5906],[-100.155,18.3718,793.4458],[-100.1629,18.3765,623.2631],[-100.1687,18.3777,577.9548],[-100.1686,18.3795,615.2583],[-100.1626,18.3835,679.2168],[-100.1609,18.3877,862.2949],[-100.165,18.3938,1064.8511],[-100.167,18.3919,978.6691],[-100.1676,18.3866,811.5667],[-100.1696,18.3863,832.278],[-100.1712,18.3932,992.3015],[-100.1736,18.3947,896.3761],[-100.169,18.402,969.265],[-100.1742,18.4087,1006.7515],[-100.1727,18.4094,1083.6672],[-100.175,18.4158,844.7433],[-100.1709,18.4195,817.9844],[-100.1844,18.4234,599.3112],[-100.189,18.432,515.2197],[-100.1924,18.4328,499.4769],[-100.1933,18.4317,507.1889],[-100.1981,18.4214,574.104],[-100.1962,18.4202,640.6892],[-100.2011,18.4152,668.675],[-100.1986,18.4135,658.4475],[-100.2024,18.4086,710.1469],[-100.2091,18.4061,683.6213],[-100.2167,18.4133,605.9252],[-100.2256,18.4316,424.852],[-100.2315,18.4319,423.0317],[-100.2313,18.4273,421.2301],[-100.2334,18.4282,423.9181],[-100.234,18.4237,419.0],[-100.2343,18.4262,426.795],[-100.238,18.4252,445.1028],[-100.2353,18.4224,419.0],[-100.2351,18.4186,419.0],[-100.237,18.4165,421.148],[-100.2388,18.4165,419.0],[-100.2381,18.4184,419.0],[-100.2403,18.4195,450.5292],[-100.2426,18.4167,419.0],[-100.2437,18.4191,454.8914],[-100.2456,18.4187,419.0],[-100.2458,18.4239,449.6267],[-100.2472,18.4232,423.0931],[-100.2472,18.4215,419.0],[-100.2482,18.4222,419.0],[-100.2495,18.4247,420.1303],[-100.2483,18.4268,430.8228],[-100.25,18.4253,420.1303],[-100.2505,18.4267,424.3987],[-100.2535,18.4258,425.4891],[-100.2573,18.429,432.3417],[-100.2595,18.4274,431.4797],[-100.2581,18.4255,419.0],[-100.2591,18.423,424.4509],[-100.2612,18.4218,424.6817],[-100.2607,18.4183,428.8735],[-100.259,18.4184,419.0],[-100.2603,18.418,419.0],[-100.26,18.4157,420.9202],[-100.263,18.4178,427.7512],[-100.2639,18.4145,419.0],[-100.2611,18.4129,421.324],[-100.2656,18.4122,434.2861],[-100.2638,18.4085,419.0],[-100.2663,18.4085,426.9417],[-100.2676,18.4014,435.4678],[-100.2695,18.4,443.2934],[-100.2706,18.3937,419.0],[-100.2673,18.3858,453.2584],[-100.2688,18.3831,446.3625],[-100.2679,18.3795,378.2213],[-100.2709,18.3737,370.798],[-100.2767,18.3721,369.1861],[-100.277,18.3786,366.4512],[-100.2788,18.3808,370.8337],[-100.2838,18.3779,363.3893],[-100.2858,18.3806,364.2318],[-100.2882,18.3799,361.2155],[-100.292,18.3816,364.1054],[-100.2841,18.3645,416.4928],[-100.2847,18.3631,416.3094],[-100.2871,18.3604,412.1775],[-100.3065,18.363,351.1758],[-100.3056,18.3599,352.8265],[-100.3111,18.3502,354.0348],[-100.3083,18.3496,352.2427],[-100.3072,18.3468,363.8012],[-100.3116,18.3478,358.7902],[-100.3093,18.3425,356.2809],[-100.301,18.347,361.9712],[-100.2987,18.3466,363.2206],[-100.3096,18.3332,355.4146],[-100.3129,18.3332,352.7767],[-100.3148,18.3282,364.8623],[-100.3236,18.3173,364.4339],[-100.3221,18.3144,362.5112],[-100.3196,18.3144,361.5052],[-100.3186,18.3128,362.5324],[-100.3077,18.313,376.5709],[-100.309,18.3045,371.7383],[-100.3175,18.2816,380.6413],[-100.3108,18.2787,390.0499],[-100.3088,18.2806,398.2206],[-100.3064,18.2749,393.3959],[-100.3116,18.2666,395.1241],[-100.319,18.2657,399.5688],[-100.3185,18.255,435.0788],[-100.3141,18.2549,433.6807],[-100.3182,18.2434,399.7686],[-100.3224,18.2398,380.3672],[-100.3331,18.2224,333.6271],[-100.3311,18.2105,323.2167],[-100.3285,18.2059,324.2239],[-100.3261,18.2037,326.8128],[-100.3212,18.2038,336.4302],[-100.3168,18.1967,371.5507]]]]}
,"properties": {"GID_2": "MEX.12.8_2","GID_0": "MEX","country": "México","GID_1": "MEX.12_1","province": "Guerrero","NL_NAME_1": "NA","county": "Arcelia","VARNAME_2": "NA","NL_NAME_2": "NA","TYPE_2": "Município","ENGTYPE_2": "Municipality","CC_2": "NA","HASC_2": "NA","name": "Arcelia.county","area_km2": 756.7684,"hist_schema_id": "Elevation0-9000","hist_area_km2": {"300": 0.4836,"325": 11.5649,"350": 20.9902,"375": 28.0885,"400": 30.0806,"425": 41.8289,"450": 28.3485,"475": 26.6171,"500": 23.6572,"525": 19.4082,"550": 18.9241,"575": 18.6827,"600": 18.4411,"625": 19.347,"650": 18.5618,"675": 17.777,"700": 17.9788,"725": 17.557,"750": 17.2948,"775": 17.7789,"800": 18.5841,"825": 17.4362,"850": 18.5439,"875": 19.7918,"900": 19.0469,"925": 18.3229,"950": 16.3709,"975": 15.5056,"1000": 15.0833,"1025": 14.4393,"1050": 13.0899,"1075": 14.0771,"1100": 12.2042,"1125": 12.7078,"1150": 11.8417,"1175": 11.7812,"1200": 11.9223,"1225": 10.8952,"1250": 10.1702,"1275": 9.3243,"1300": 8.2366,"1325": 7.7329,"1350": 7.0078,"1375": 5.8602,"1400": 4.9138,"1425": 3.6652,"1450": 3.4031,"1475": 2.4571,"1500": 1.7521,"1525": 1.6513,"1550": 1.2487,"1575": 1.0673,"1600": 0.9465,"1625": 0.6847,"1650": 0.6647,"1675": 0.2417,"1700": 0.2417,"1725": 0.2014,"1750": 0.2216,"1775": 0.0201}}}