{"type": "Feature","bbox": [-95.6168,15.9638,-95.1647,16.9327],"geometry": {"type": "MultiPolygon","coordinates": [[[[-95.5088,16.3254,408.6893],[-95.4846,16.2954,950.4062],[-95.4731,16.2854,1149.4485],[-95.4713,16.2741,1282.8965],[-95.4886,16.2431,1198.954],[-95.5097,16.1658,573.4906],[-95.5041,16.1611,390.6883],[-95.5133,16.1322,203.3489],[-95.5159,16.1342,209.9502],[-95.5151,16.1362,214.4531],[-95.5189,16.1381,219.4165],[-95.5186,16.14,232.6651],[-95.5221,16.1415,243.7431],[-95.521,16.1464,256.165],[-95.5221,16.1494,267.9688],[-95.5268,16.1515,287.3927],[-95.5309,16.1512,313.5345],[-95.5327,16.1554,316.9919],[-95.54,16.1581,379.594],[-95.5406,16.1571,379.594],[-95.5444,16.1596,403.0233],[-95.5441,16.1611,409.2037],[-95.5489,16.1594,448.6992],[-95.5509,16.1608,474.7461],[-95.5506,16.1625,501.1616],[-95.5531,16.162,510.9081],[-95.5547,16.1665,559.9517],[-95.556,16.1659,559.9517],[-95.5611,16.1701,760.7775],[-95.5645,16.1681,782.1693],[-95.5737,16.167,716.606],[-95.5726,16.1621,742.9723],[-95.5756,16.1602,764.8062],[-95.5832,16.1621,622.1733],[-95.5887,16.1586,606.3805],[-95.5939,16.1578,607.7114],[-95.5937,16.1551,595.0563],[-95.5963,16.1572,602.5267],[-95.5975,16.1531,588.1481],[-95.6003,16.1529,560.3564],[-95.5993,16.1479,535.7198],[-95.6078,16.1494,506.0464],[-95.6168,16.1362,456.3727],[-95.6135,16.1353,396.1805],[-95.6143,16.1325,388.4409],[-95.5987,16.142,668.787],[-95.5841,16.1427,804.7728],[-95.575,16.1107,816.6926],[-95.5792,16.0955,835.9247],[-95.5363,16.0631,809.2151],[-95.5191,16.0033,395.0815],[-95.5201,15.9876,85.1428],[-95.5137,15.9638,19.4542],[-95.496,15.9665,5.8285],[-95.4943,15.9729,0.0],[-95.4858,15.9758,2.2218],[-95.4654,15.977,0.0],[-95.4356,15.9761,0.0],[-95.4355,15.9784,17.6538],[-95.4311,15.9806,12.5832],[-95.4288,15.985,0.0],[-95.4295,15.987,4.8688],[-95.4269,15.9907,13.7765],[-95.4265,15.9969,4.8548],[-95.4241,15.9997,0.0],[-95.4184,16.0023,0.0],[-95.3989,16.0063,0.0],[-95.3996,16.0082,1.2665],[-95.3977,16.0095,0.0],[-95.3994,16.01,2.9095],[-95.3991,16.0118,2.1312],[-95.3953,16.0137,0.0],[-95.3711,16.019,15.4467],[-95.3681,16.0209,18.6171],[-95.3682,16.0233,11.3078],[-95.3738,16.0272,2.8817],[-95.3781,16.0422,0.0],[-95.378,16.0463,0.0],[-95.3626,16.0699,0.0],[-95.3535,16.0797,3.3532],[-95.3439,16.0857,0.8351],[-95.3319,16.0899,0.0],[-95.3056,16.0943,34.3869],[-95.3062,16.0969,47.3184],[-95.3031,16.099,2.0547],[-95.2866,16.1015,0.0],[-95.2845,16.1043,3.8089],[-95.2772,16.1073,36.0189],[-95.2808,16.1159,2.9973],[-95.2828,16.117,6.1388],[-95.289,16.2065,527.8411],[-95.2734,16.2057,591.0078],[-95.2569,16.2193,358.4608],[-95.1917,16.2642,18.0476],[-95.1915,16.2605,17.1891],[-95.1817,16.2499,14.6646],[-95.1807,16.2427,12.175],[-95.167,16.2428,12.2628],[-95.1647,16.2452,13.0381],[-95.1652,16.2498,13.7877],[-95.1741,16.2633,16.5218],[-95.1716,16.2638,14.5499],[-95.171,16.2693,14.7028],[-95.1755,16.271,15.0439],[-95.1835,16.2667,15.7324],[-95.1859,16.2688,13.5],[-95.1848,16.2781,16.852],[-95.1904,16.2823,20.1427],[-95.189,16.3016,23.4259],[-95.2148,16.3208,30.693],[-95.2167,16.3216,29.6076],[-95.2183,16.32,28.7176],[-95.2315,16.3264,28.7501],[-95.2304,16.326,38.7346],[-95.2281,16.3301,62.4185],[-95.2262,16.33,40.9022],[-95.2255,16.3327,88.2342],[-95.2191,16.3326,36.369],[-95.2128,16.3451,34.3889],[-95.1983,16.3401,28.0215],[-95.1885,16.3405,25.5589],[-95.1891,16.3383,26.5752],[-95.1835,16.3403,23.6069],[-95.2038,16.3715,31.7714],[-95.1833,16.3959,28.4404],[-95.1962,16.4086,34.3065],[-95.2018,16.4259,47.7357],[-95.2117,16.4065,44.6068],[-95.2173,16.3915,45.9844],[-95.2263,16.3849,43.0176],[-95.2416,16.3809,46.0392],[-95.2449,16.3741,46.0833],[-95.2396,16.3651,39.977],[-95.2527,16.3608,39.8684],[-95.2567,16.3488,33.9434],[-95.2692,16.3511,47.2728],[-95.2812,16.3585,55.213],[-95.349,16.4259,94.248],[-95.4483,16.3733,1072.5525],[-95.4603,16.3645,661.1009],[-95.4637,16.3657,658.9287],[-95.4814,16.3627,786.291],[-95.4916,16.3649,917.5314],[-95.4965,16.364,877.9087],[-95.5079,16.3539,904.0417],[-95.5232,16.346,1089.0817],[-95.5088,16.3254,408.6893]]],
[[[-95.518,16.8986,387.2481],[-95.5211,16.8991,367.6522],[-95.5182,16.8936,395.664],[-95.5205,16.8927,426.1686],[-95.5206,16.8879,479.5229],[-95.5157,16.8903,410.9631],[-95.4982,16.8827,574.5424],[-95.479,16.8903,484.7496],[-95.4772,16.8963,426.2692],[-95.4754,16.8889,405.644],[-95.4724,16.8845,420.8481],[-95.47,16.8857,411.866],[-95.4684,16.8804,571.0695],[-95.4517,16.9177,854.243],[-95.4566,16.9183,733.7938],[-95.4572,16.9225,854.2878],[-95.4623,16.9294,1273.2776],[-95.4734,16.9327,901.6903],[-95.4798,16.9318,802.6367],[-95.4862,16.9214,619.4911],[-95.4967,16.9231,539.7324],[-95.499,16.9277,509.3129],[-95.5027,16.9299,494.9869],[-95.5059,16.9248,684.5748],[-95.5009,16.925,626.7366],[-95.4951,16.9203,522.887],[-95.4941,16.9179,540.7065],[-95.4954,16.9101,382.2906],[-95.4998,16.9099,394.6288],[-95.5041,16.9065,420.0788],[-95.5086,16.9018,378.6321],[-95.5094,16.8984,371.9863],[-95.518,16.8986,387.2481]]]]}
,"properties": {"GID_2": "MEX.20.517_2","GID_0": "MEX","country": "México","GID_1": "MEX.20_1","province": "Oaxaca","NL_NAME_1": "NA","county": "SantoDomingoTehuantepec","VARNAME_2": "NA","NL_NAME_2": "NA","TYPE_2": "Município","ENGTYPE_2": "Municipality","CC_2": "NA","HASC_2": "NA","name": "Santo_Domingo_Tehuantepec.county","area_km2": 1202.8121,"hist_schema_id": "Elevation0-9000","hist_area_km2": {"0": 45.8658,"25": 113.691,"50": 106.4683,"75": 83.9615,"100": 58.7637,"125": 48.1175,"150": 46.8928,"175": 46.2192,"200": 41.0881,"225": 40.8441,"250": 41.3945,"275": 39.7645,"300": 37.2176,"325": 33.9384,"350": 30.9647,"375": 32.5974,"400": 29.79,"425": 26.518,"450": 24.2192,"475": 23.2827,"500": 21.0644,"525": 20.4135,"550": 18.0532,"575": 17.1979,"600": 16.5469,"625": 16.3233,"650": 13.9016,"675": 12.619,"700": 13.2091,"725": 10.8077,"750": 11.8259,"775": 9.5257,"800": 8.2228,"825": 7.8966,"850": 6.5942,"875": 6.2686,"900": 4.9651,"925": 4.2943,"950": 3.9886,"975": 3.7038,"1000": 3.5207,"1025": 2.5436,"1050": 2.5845,"1075": 2.1572,"1100": 1.6485,"1125": 1.8521,"1150": 1.8521,"1175": 2.0965,"1200": 1.7909,"1225": 1.0787,"1250": 1.2619,"1275": 0.5699,"1300": 0.4681,"1325": 0.2849,"1350": 0.0814}}}