{"type":"Feature","properties":{"GID_2":"MEX.20.315_2","GID_0":"MEX","country":"México","GID_1":"MEX.20_1","province":"Oaxaca","NL_NAME_1":"NA","county":"SanPedroJocotipac","VARNAME_2":"NA","NL_NAME_2":"NA","TYPE_2":"Município","ENGTYPE_2":"Municipality","CC_2":"NA","HASC_2":"NA","name":"San_Pedro_Jocotipac.county"},
"geometry":{"type": "MultiPolygon","coordinates": [[[[-97.1147,17.779,2200.9871],[-97.1119,17.7606,2456.2485],[-97.1137,17.7509,2433.6763],[-97.1085,17.7289,2258.2576],[-97.1059,17.7093,2190.3052],[-97.1011,17.6948,1907.8521],[-97.0943,17.7036,2210.8179],[-97.0911,17.7046,2451.8831],[-97.0791,17.7147,2269.1675],[-97.0763,17.7217,2473.0483],[-97.0742,17.7224,2410.7693],[-97.075,17.7275,2271.1992],[-97.0655,17.737,1996.8105],[-97.0424,17.7442,1102.0881],[-97.0334,17.754,1101.778],[-97.0185,17.7598,898.4339],[-97.0095,17.7596,938.1217],[-97.0156,17.7787,1185.3353],[-97.0277,17.8024,1130.9961],[-97.029,17.8018,1256.0377],[-97.0274,17.7984,1218.217],[-97.0277,17.7941,1225.2172],[-97.0426,17.7958,1619.6965],[-97.0484,17.7941,1691.6995],[-97.0526,17.7902,1776.0079],[-97.0595,17.7923,1905.0627],[-97.0605,17.7911,1924.8464],[-97.0705,17.7907,1976.8057],[-97.0702,17.795,1943.09],[-97.0733,17.7985,1861.3624],[-97.0777,17.7964,1782.0107],[-97.0898,17.7946,1628.3082],[-97.0923,17.7923,1661.8103],[-97.091,17.7847,1763.4111],[-97.0939,17.7824,1870.3008],[-97.0936,17.7797,1895.4475],[-97.0969,17.7834,1863.7249],[-97.1,17.7915,1705.3271],[-97.1046,17.7926,1653.4387],[-97.1059,17.7952,1682.7981],[-97.1147,17.779,2200.9871]]]]}}