{"type":"Feature","properties":{"featurecla":"River","scalerank":11,"rivernum":22339,"dissolve":"22339River","name":"El Carrizo","name_alt":null,"note":"ID is link back to CEC data","name_full":"Arroyo El Carrizo","min_zoom":6.7,"strokeweig":0.15,"uident":1989201,"min_label":7.7},
"geometry":{"type": "LineString","coordinates": [[-109.96861731679122,29.048163153119035,700.0828],[-109.98717200429122,29.0391706400982,687.0093],[-110.06004798085372,28.986273504681535,587.7905],[-110.10582434804122,28.976629949994035,545.8986],[-110.2040095693954,28.92849355676487,486.6072],[-110.21857662668705,28.92336660363987,477.8308]]}}