{"type":"Feature","properties":{"featurecla":"River","scalerank":12,"rivernum":22395,"dissolve":"22395River","name":"Fronteras","name_alt":null,"note":"ID is link back to CEC data","name_full":"Rio Fronteras","min_zoom":7.0,"strokeweig":0.2,"uident":1970301,"min_label":8.0},
"geometry":{"type": "LineString","coordinates": [[-109.43781490793705,31.10964590051487,1117.8057],[-109.45128333241622,31.07595449426487,1133.6115],[-109.46165930897872,31.066107489056535,1124.7966],[-109.46983801991622,31.05202871301487,1067.8069],[-109.4740291006454,31.034857489056535,1101.6536],[-109.4828181631454,31.01858144738987,1159.8916],[-109.5003962881454,31.0069440775982,1155.5552],[-109.52887936106205,30.99514394738987,1122.2593],[-109.53526770741622,30.981512762494035,1119.1365],[-109.55394446522872,30.93899160363987,1112.0385],[-109.56281490793705,30.915472723431535,1134.6519]]}}