{"type":"Feature","properties":{"featurecla":"River","scalerank":11,"rivernum":22402,"dissolve":"22402River","name":"Altar1","name_alt":null,"note":"ID is link back to CEC data","name_full":"Arroyo Altar","min_zoom":6.7,"strokeweig":0.2,"uident":1967201,"min_label":7.7},
"geometry":{"type": "LineString","coordinates": [[-111.39159094960372,31.115545965619035,849.3678],[-111.39195716054122,31.097357489056535,776.822],[-111.3995662100204,31.065863348431535,810.9688],[-111.41808020741622,31.0157331400982,740.2706],[-111.42096920481205,30.96291738488987,706.3779],[-111.42601477772872,30.948797918744035,715.984],[-111.4532771475204,30.918158270306535,670.54],[-111.50548255116622,30.895209051556535,648.0875],[-111.57258053293705,30.864447332806535,599.6954],[-111.59251868397872,30.858465887494035,591.2539],[-111.61241614491622,30.845648504681535,579.2468],[-111.6527400381454,30.8265241557232,560.9883],[-111.75218665272872,30.7462018900982,490.1756],[-111.76414954335372,30.739935614056535,463.6842],[-111.77635657460372,30.7376569682232,456.8399],[-111.80890865793705,30.739447332806535,437.7886],[-111.8248591787704,30.7371686869732,429.6076],[-111.83751380116622,30.730902410931535,424.4635],[-111.9083552725204,30.67312246301487,376.8154],[-111.96739661366622,30.6443952494732,339.5964]]}}