{"type":"Feature","properties":{"featurecla":"Lake Centerline","scalerank":11,"rivernum":22321,"dissolve":"22321Lake Centerline","name":"Mayo4","name_alt":null,"note":"ID is link back to CEC data","name_full":"Rio Mayo","min_zoom":6.7,"strokeweig":0.2,"uident":1995101,"min_label":7.7},
"geometry":{"type": "LineString","coordinates": [[-109.10985266835372,27.2283796244732,136.3376],[-109.08983313710372,27.228583074994035,131.5],[-109.06248938710372,27.224676824994035,131.5],[-109.03514563710372,27.218817449994035,131.5],[-108.99998938710372,27.224676824994035,131.5],[-108.99608313710372,27.240301824994035,131.5],[-108.9960017568954,27.254217840619035,131.5]]}}