{"type":"Feature","properties":{"featurecla":"River","scalerank":12,"rivernum":22370,"dissolve":"22370River","name":"Agachadito","name_alt":null,"note":"ID is link back to CEC data","name_full":"Arroyo el Agachadito","min_zoom":7.0,"strokeweig":0.15,"uident":1978601,"min_label":8.0},
"geometry":{"type": "LineString","coordinates": [[-111.63621985585372,29.551336981244035,350.5325],[-111.66563880116622,29.51614004113987,268.0854],[-111.68407141835372,29.50417715051487,243.7622],[-111.7189021475204,29.493109442181535,213.097],[-111.74876868397872,29.47756582238987,192.5159],[-111.75597083241622,29.462103582806535,186.034],[-111.75816809804122,29.39260488488987,160.5415],[-111.75011145741622,29.370428778119035,156.8022],[-111.75397701731205,29.3602155619732,148.4453],[-111.77497311106205,29.3392194682232,136.0686],[-111.80768795481205,29.291327215619035,108.2727],[-111.81236731679122,29.2733014994732,101.9549],[-111.8138728506454,29.24148183801487,88.2895],[-111.82518469960372,29.21633535363987,78.2377]]}}