{"type":"Feature","properties":{"featurecla":"River","scalerank":12,"rivernum":22404,"dissolve":"22404River","name":"el Sasabe","name_alt":null,"note":"ID is link back to CEC data","name_full":"Arroyo el Sasabe","min_zoom":7.0,"strokeweig":0.2,"uident":1966501,"min_label":8.0},
"geometry":{"type": "LineString","coordinates": [[-111.74103756418705,31.200018621869035,784.5728],[-111.7672419912704,31.145941473431535,753.5359],[-111.82249915272872,31.0787214213482,682.4075],[-111.85912024647872,30.993597723431535,609.5767],[-111.85741126210372,30.97292715051487,596.8596],[-111.86042232981205,30.945868231244035,574.7419],[-111.86937415272872,30.912176824994035,542.9636],[-111.87083899647872,30.8682722025982,512.9098],[-111.83918209543705,30.82180410363987,470.9503],[-111.8404841787704,30.80324941613987,465.7964],[-111.84748287668705,30.788641668744035,454.1136],[-111.86009680897872,30.7757429057232,444.6035],[-111.8746638662704,30.7667097025982,434.1401],[-111.9256892568954,30.7508405619732,408.126],[-111.96788489491622,30.73318105676487,368.7695],[-112.03620357981205,30.690863348431535,324.9506]]}}