{"type":"Feature","properties":{"featurecla":"River","scalerank":10,"rivernum":22425,"dissolve":"22425River","name":"Agua Prieta","name_alt":null,"note":"ID is link back to CEC data","name_full":"Rio Agua Prieta","min_zoom":6.0,"strokeweig":0.2,"uident":1966001,"min_label":7.0},
"geometry":{"type": "LineString","coordinates": [[-109.43781490793705,31.10964590051487,1117.8057],[-109.43464107981205,31.1121686869732,1155.8459],[-109.42332923085372,31.112372137494035,1114.827],[-109.37706458241622,31.098822332806535,1008.9181],[-109.2940974600204,31.097723699994035,981.2051]]}}