{"type":"Feature","properties":{"GID_2":"MEX.5.117_2","GID_0":"MEX","country":"México","GID_1":"MEX.5_1","province":"Chiapas","NL_NAME_1":"NA","county":"Yajalón","VARNAME_2":"NA","NL_NAME_2":"NA","TYPE_2":"Município","ENGTYPE_2":"Municipality","CC_2":"NA","HASC_2":"NA","name":"Yajalón.county"},
"geometry":{"type": "MultiPolygon","coordinates": [[[[-92.2035,17.2225,559.9224],[-92.2135,17.2388,462.7311],[-92.2318,17.2553,545.4321],[-92.2604,17.2282,1117.4474],[-92.2851,17.2542,689.2699],[-92.3009,17.2473,770.3995],[-92.3033,17.2519,707.5691],[-92.308,17.2508,811.9389],[-92.3227,17.2549,1038.411],[-92.3263,17.2508,995.6544],[-92.3284,17.2398,747.8801],[-92.3234,17.2292,879.212],[-92.3236,17.2263,1054.2278],[-92.3306,17.2233,799.934],[-92.3366,17.2256,670.9073],[-92.3396,17.2239,673.8958],[-92.3393,17.2178,813.2909],[-92.3428,17.2168,831.804],[-92.3422,17.2148,856.735],[-92.3445,17.2126,967.0612],[-92.349,17.2124,851.3406],[-92.3513,17.2095,718.6685],[-92.3607,17.2154,714.2581],[-92.3633,17.2191,717.4047],[-92.3733,17.2129,747.1185],[-92.3776,17.2022,888.9402],[-92.3809,17.1989,957.8941],[-92.3917,17.201,914.4014],[-92.3956,17.1951,1074.5791],[-92.4034,17.1975,1201.2511],[-92.4047,17.1963,1228.9011],[-92.4024,17.1949,1187.2747],[-92.4066,17.1951,1217.3098],[-92.4109,17.193,1181.4716],[-92.4178,17.1968,1168.0532],[-92.4306,17.1839,1047.7318],[-92.4298,17.1784,1451.0231],[-92.439,17.1826,1219.1517],[-92.4432,17.1782,1493.4341],[-92.4346,17.1701,2116.6873],[-92.4403,17.1657,1779.4951],[-92.4346,17.1625,1838.1077],[-92.4454,17.1332,1858.2574],[-92.403,17.1061,992.2277],[-92.3913,17.1031,993.7723],[-92.3878,17.1003,1032.739],[-92.3834,17.1,1066.1438],[-92.3844,17.1166,1636.9524],[-92.4023,17.1324,1504.8597],[-92.3839,17.1433,1334.2383],[-92.3705,17.155,1826.3625],[-92.3681,17.1526,1787.8127],[-92.3718,17.1435,1616.3531],[-92.3694,17.1402,1692.4241],[-92.3602,17.1541,1717.9131],[-92.339,17.1329,1625.2444],[-92.3416,17.132,1529.907],[-92.3404,17.1284,1442.0304],[-92.3378,17.1274,1483.6436],[-92.3368,17.1214,1311.3639],[-92.3334,17.1227,1448.1892],[-92.3315,17.1277,1670.1099],[-92.3279,17.127,1639.1191],[-92.3295,17.1321,1757.0027],[-92.3179,17.133,1528.5482],[-92.3044,17.1473,997.1721],[-92.3026,17.1478,977.7516],[-92.3014,17.1463,985.0329],[-92.3006,17.1493,983.9974],[-92.2977,17.1488,977.4893],[-92.2984,17.1516,985.9916],[-92.295,17.1518,1009.3493],[-92.2955,17.1535,1007.9746],[-92.2975,17.1527,1008.7268],[-92.2875,17.1631,1200.3469],[-92.2817,17.1623,1168.2617],[-92.2745,17.1568,1137.8932],[-92.2649,17.1636,1275.5499],[-92.2686,17.1648,1393.3323],[-92.2583,17.1841,1755.9453],[-92.2475,17.1867,1941.8446],[-92.2168,17.163,1731.2603],[-92.2077,17.1712,1465.8441],[-92.2222,17.1903,1325.1243],[-92.2287,17.1958,1175.9771],[-92.2035,17.2225,559.9224]]]]}}