{"type":"Feature","properties":{"GID_2":"MEX.12.43_2","GID_0":"MEX","country":"México","GID_1":"MEX.12_1","province":"Guerrero","NL_NAME_1":"NA","county":"JuanR.Escudero","VARNAME_2":"NA","NL_NAME_2":"NA","TYPE_2":"Município","ENGTYPE_2":"Municipality","CC_2":"NA","HASC_2":"NA","name":"Juan_R.Escudero.county"},
"geometry":{"type": "MultiPolygon","coordinates": [[[[-99.5583,17.0248,60.8425],[-99.5541,17.0217,84.0579],[-99.5471,17.0257,98.3933],[-99.5431,17.0216,111.7255],[-99.5375,17.0216,114.4738],[-99.531,17.0243,148.2432],[-99.5205,17.0252,175.4916],[-99.5189,17.0276,164.1858],[-99.5162,17.0281,171.4162],[-99.5176,17.0317,179.4966],[-99.4984,17.0315,197.9576],[-99.4709,17.0567,533.3382],[-99.4712,17.0593,454.6418],[-99.4615,17.0694,806.504],[-99.4553,17.0655,1186.0012],[-99.4617,17.0864,1199.1799],[-99.4619,17.0967,942.6312],[-99.4683,17.1171,587.0374],[-99.4741,17.128,183.1341],[-99.4677,17.1301,155.8293],[-99.4615,17.1295,151.342],[-99.4555,17.1372,177.8423],[-99.4536,17.135,173.7777],[-99.4558,17.1312,183.5221],[-99.4537,17.1255,184.3687],[-99.4149,17.1167,553.108],[-99.4086,17.1107,608.1234],[-99.3849,17.1067,683.9351],[-99.3809,17.1082,712.309],[-99.373,17.1062,801.9658],[-99.3565,17.0936,714.9152],[-99.3511,17.0941,720.7454],[-99.3416,17.0855,769.9661],[-99.3389,17.0848,806.997],[-99.3347,17.0779,831.5851],[-99.3375,17.0727,980.3191],[-99.3321,17.0619,1097.4495],[-99.3213,17.0576,1049.436],[-99.3077,17.0586,917.3585],[-99.314,17.0841,561.7175],[-99.3205,17.0818,687.3051],[-99.3254,17.0967,665.8013],[-99.3206,17.1226,430.7863],[-99.3179,17.13,368.5894],[-99.3157,17.1287,384.6478],[-99.3167,17.1308,379.3921],[-99.3149,17.1304,398.1818],[-99.3163,17.1331,343.5003],[-99.3121,17.1337,337.543],[-99.311,17.1409,290.9923],[-99.3126,17.1431,276.5025],[-99.3186,17.1408,260.1216],[-99.3205,17.1415,283.2803],[-99.3239,17.1547,257.5781],[-99.3213,17.1579,257.4279],[-99.3153,17.1596,263.1594],[-99.3145,17.1616,252.6471],[-99.3192,17.165,250.9892],[-99.3253,17.1641,251.2054],[-99.33,17.1671,281.2263],[-99.3356,17.1606,253.0534],[-99.3387,17.1683,256.5475],[-99.3445,17.1651,271.5353],[-99.347,17.17,287.2422],[-99.3412,17.174,243.9468],[-99.3407,17.1773,242.8802],[-99.3427,17.1802,246.6923],[-99.3484,17.1824,252.4926],[-99.3499,17.1766,253.8586],[-99.3557,17.1753,255.2847],[-99.3539,17.1671,235.1427],[-99.3608,17.1588,231.3734],[-99.3657,17.1704,319.4208],[-99.3712,17.1971,738.9847],[-99.3763,17.2012,764.7454],[-99.3881,17.1973,427.9733],[-99.4089,17.2162,972.1021],[-99.4147,17.226,1312.1921],[-99.4205,17.2311,1293.2064],[-99.4373,17.2321,1552.7092],[-99.4332,17.2452,1298.3372],[-99.4366,17.2438,1307.3895],[-99.4407,17.2492,1262.6693],[-99.4468,17.2522,1190.6353],[-99.4702,17.2501,1507.3224],[-99.4686,17.2348,870.0309],[-99.4701,17.234,870.0309],[-99.4687,17.2338,870.0309],[-99.4647,17.2123,1433.9612],[-99.4676,17.2022,1030.2069],[-99.4898,17.1993,662.2251],[-99.4965,17.1973,592.3067],[-99.4985,17.1949,569.7615],[-99.5074,17.1968,460.6508],[-99.5068,17.2,496.5433],[-99.5087,17.2016,493.5178],[-99.507,17.2058,517.3372],[-99.5094,17.209,537.9175],[-99.5126,17.2104,569.8425],[-99.519,17.2082,703.3356],[-99.5198,17.2098,797.1404],[-99.5243,17.2079,772.3232],[-99.5245,17.2056,716.9297],[-99.53,17.2042,667.1021],[-99.5286,17.2017,626.1929],[-99.5332,17.2001,519.9334],[-99.5329,17.1929,493.48],[-99.5395,17.189,444.4553],[-99.5619,17.202,371.5399],[-99.6036,17.2134,875.5125],[-99.6072,17.2209,726.6764],[-99.6115,17.223,648.3414],[-99.6271,17.2124,269.3591],[-99.6286,17.2088,246.6109],[-99.6324,17.2093,245.7234],[-99.6333,17.207,269.259],[-99.633,17.1985,200.1898],[-99.6351,17.1972,246.8168],[-99.6353,17.1943,252.3537],[-99.6304,17.1873,204.9068],[-99.6334,17.1836,233.3638],[-99.6263,17.1752,175.6885],[-99.6254,17.1693,177.9402],[-99.6306,17.1631,168.9191],[-99.6292,17.1623,168.9191],[-99.6245,17.165,164.5329],[-99.6187,17.1646,154.8032],[-99.6174,17.1687,157.41],[-99.6082,17.1711,168.6239],[-99.6063,17.1706,164.7665],[-99.6025,17.1636,185.698],[-99.5959,17.1664,139.896],[-99.5932,17.1643,132.2218],[-99.5898,17.1574,151.0258],[-99.5938,17.1529,178.729],[-99.59,17.1441,154.1265],[-99.5957,17.1353,496.6193],[-99.5872,17.1323,408.1884],[-99.5555,17.1296,133.6677],[-99.5614,17.126,133.739],[-99.5645,17.1168,101.5424],[-99.561,17.1119,100.6641],[-99.5512,17.1063,84.6968],[-99.5499,17.0983,79.3119],[-99.5531,17.0922,80.994],[-99.5514,17.0833,74.5],[-99.5442,17.0681,85.1255],[-99.5436,17.063,75.4334],[-99.5442,17.0602,97.8611],[-99.5468,17.0585,75.0229],[-99.5555,17.0605,77.1949],[-99.5577,17.0596,70.8288],[-99.5619,17.0529,71.1367],[-99.5671,17.0512,74.4243],[-99.5703,17.0481,67.6387],[-99.5704,17.0462,66.5342],[-99.5628,17.0372,98.1363],[-99.5583,17.0248,60.8425]]]]}}