{"type":"Feature","properties":{"GID_2":"MEX.20.459_2","GID_0":"MEX","country":"México","GID_1":"MEX.20_1","province":"Oaxaca","NL_NAME_1":"NA","county":"SantiagoCacaloxtepec","VARNAME_2":"NA","NL_NAME_2":"NA","TYPE_2":"Município","ENGTYPE_2":"Municipality","CC_2":"NA","HASC_2":"NA","name":"Santiago_Cacaloxtepec.county"},
"geometry":{"type": "MultiPolygon","coordinates": [[[[-97.7721,17.7181,1741.2911],[-97.7746,17.7137,1778.3955],[-97.7733,17.7035,1774.1333],[-97.7766,17.7002,1729.8214],[-97.7755,17.6981,1729.3049],[-97.7778,17.6944,1661.6782],[-97.7736,17.6957,1670.9937],[-97.7736,17.6921,1644.1882],[-97.7724,17.6918,1678.5653],[-97.7706,17.6947,1647.3397],[-97.7615,17.6968,1704.9006],[-97.7191,17.7147,1847.9149],[-97.7078,17.7314,1846.1844],[-97.6887,17.7238,1854.9209],[-97.6897,17.7423,2347.1963],[-97.6933,17.7465,2306.6387],[-97.6995,17.7489,2303.5034],[-97.7187,17.7622,2206.5598],[-97.7229,17.7685,2185.0903],[-97.7349,17.7654,2063.9556],[-97.7464,17.7536,1789.7129],[-97.7536,17.7529,1711.8534],[-97.7507,17.7392,1708.5072],[-97.7666,17.7258,1658.6899],[-97.7721,17.7181,1741.2911]]]]}}