{"type": "Feature","bbox": [-96.8252,19.2674,-96.6948,19.4032],"geometry": {"type": "MultiPolygon","coordinates": [[[[-96.7371,19.3724,617.1319],[-96.731,19.372,631.1057],[-96.7398,19.3753,606.9652],[-96.7423,19.3795,669.6707],[-96.747,19.3763,544.0365],[-96.7487,19.3801,612.605],[-96.7466,19.3841,638.0884],[-96.7478,19.3903,723.2342],[-96.7493,19.3889,708.9175],[-96.7545,19.3943,716.5504],[-96.7577,19.3954,722.9777],[-96.7662,19.3929,722.4078],[-96.7698,19.3971,755.7364],[-96.7708,19.4032,749.3546],[-96.7724,19.4004,741.3994],[-96.7718,19.3938,721.3623],[-96.7755,19.3923,727.7582],[-96.7767,19.3972,746.4583],[-96.7776,19.3942,748.5923],[-96.7817,19.3928,746.4131],[-96.7819,19.3894,739.3701],[-96.7789,19.3847,675.3786],[-96.7783,19.3725,572.9531],[-96.7794,19.3722,587.8738],[-96.7801,19.375,590.7405],[-96.7827,19.3738,596.4047],[-96.7858,19.3766,605.259],[-96.7901,19.377,619.1614],[-96.7918,19.3784,638.2523],[-96.7913,19.3805,644.7494],[-96.8024,19.3839,670.9852],[-96.8086,19.3909,724.5151],[-96.8121,19.3915,734.5016],[-96.8165,19.3953,749.2344],[-96.8179,19.3902,740.097],[-96.8142,19.3837,715.7424],[-96.8187,19.3841,735.8447],[-96.8252,19.379,778.7861],[-96.797,19.365,640.1091],[-96.8008,19.3573,545.4921],[-96.8047,19.3588,460.3105],[-96.8025,19.3501,465.2101],[-96.8045,19.3486,428.6937],[-96.8048,19.3451,409.967],[-96.8027,19.3431,413.7437],[-96.7989,19.3442,441.8566],[-96.7977,19.3397,391.0744],[-96.7994,19.3369,389.4203],[-96.798,19.3351,388.0754],[-96.7921,19.3368,379.8556],[-96.7899,19.3355,370.2126],[-96.7798,19.3368,383.9989],[-96.7772,19.3386,371.7959],[-96.7756,19.3376,372.9222],[-96.7746,19.3326,376.8188],[-96.7698,19.3276,344.425],[-96.7737,19.3252,418.1057],[-96.7731,19.3217,496.7707],[-96.7762,19.3096,642.0598],[-96.7741,19.3054,652.3654],[-96.77,19.3065,647.0952],[-96.7692,19.3043,636.6738],[-96.7692,19.3066,647.0952],[-96.7617,19.3111,632.1478],[-96.7448,19.3136,586.8604],[-96.7425,19.3166,577.2758],[-96.7416,19.3128,571.5948],[-96.7443,19.3078,590.2837],[-96.7429,19.2999,604.5829],[-96.7365,19.2897,598.0038],[-96.7328,19.2892,592.9069],[-96.7323,19.2841,379.2689],[-96.7253,19.2828,314.8423],[-96.7248,19.2683,535.7817],[-96.7187,19.268,481.7811],[-96.716,19.2694,444.9645],[-96.6982,19.2674,256.3229],[-96.6948,19.27,250.816],[-96.7006,19.2716,260.4252],[-96.7007,19.2765,321.1119],[-96.7094,19.2875,533.2997],[-96.7073,19.2886,538.2326],[-96.7043,19.2949,545.8185],[-96.7071,19.297,393.3511],[-96.703,19.304,398.9876],[-96.7015,19.3043,353.292],[-96.7026,19.3074,324.9533],[-96.7014,19.3106,298.7967],[-96.7029,19.3118,275.1878],[-96.706,19.3108,275.0839],[-96.7186,19.3154,301.4262],[-96.7221,19.3244,296.4344],[-96.7241,19.3242,296.5712],[-96.7269,19.3272,311.2169],[-96.7289,19.3344,342.7629],[-96.7307,19.3352,324.8055],[-96.7302,19.3414,345.0424],[-96.734,19.3461,354.8375],[-96.7328,19.3515,355.3502],[-96.7375,19.3618,393.838],[-96.7397,19.363,408.899],[-96.7368,19.3634,427.3031],[-96.7363,19.3679,517.7163],[-96.7385,19.3705,582.1268],[-96.7371,19.3724,617.1319]]]]}
,"properties": {"GID_2": "MEX.30.88_2","GID_0": "MEX","country": "México","GID_1": "MEX.30_1","province": "Veracruz","NL_NAME_1": "NA","county": "Jalcomulco","VARNAME_2": "NA","NL_NAME_2": "NA","TYPE_2": "Município","ENGTYPE_2": "Municipality","CC_2": "NA","HASC_2": "NA","name": "Jalcomulco.county","area_km2": 72.90113,"hist_schema_id": "Elevation0-9000","hist_area_km2": {"250": 0.4203,"275": 1.0807,"300": 1.84087,"325": 2.24092,"350": 3.08125,"375": 3.08122,"400": 3.08116,"425": 2.70092,"450": 3.02101,"475": 2.94096,"500": 3.10095,"525": 3.52113,"550": 4.42167,"575": 6.38221,"600": 8.34244,"625": 6.22135,"650": 4.801,"675": 3.38044,"700": 3.04026,"725": 2.94013,"750": 1.68007,"775": 0.82007,"800": 0.32004,"825": 0.28003,"850": 0.16002}}}