{"type":"Feature","properties":{"GID_2":"MEX.20.419_2","GID_0":"MEX","country":"México","GID_1":"MEX.20_1","province":"Oaxaca","NL_NAME_1":"NA","county":"SantaMaríaJacatepec","VARNAME_2":"NA","NL_NAME_2":"NA","TYPE_2":"Município","ENGTYPE_2":"Municipality","CC_2":"NA","HASC_2":"NA","name":"Santa_María_Jacatepec.county"},
"geometry":{"type": "MultiPolygon","coordinates": [[[[-96.0882,17.7424,82.1022],[-96.087,17.7419,112.3706],[-96.0863,17.7495,79.067],[-96.0786,17.7537,92.7726],[-96.0759,17.7637,77.173],[-96.0621,17.7606,91.9178],[-96.0539,17.7671,78.8761],[-96.0521,17.7731,78.0478],[-96.047,17.7724,69.9774],[-96.0432,17.7737,81.0193],[-96.0364,17.7798,73.691],[-96.0282,17.7802,76.7516],[-96.0214,17.7775,72.4305],[-96.0196,17.7789,72.1518],[-96.018,17.7848,67.8368],[-96.011,17.7812,86.2594],[-96.0101,17.7888,65.8346],[-96.0057,17.7884,78.5083],[-96.0022,17.7906,78.8488],[-96.0032,17.7931,63.291],[-96.0009,17.7988,65.5347],[-95.9872,17.8066,68.3303],[-95.9821,17.8048,80.7011],[-95.9802,17.8067,77.8445],[-95.9796,17.8124,81.4826],[-95.9757,17.8103,72.9174],[-95.9736,17.8149,74.987],[-95.9715,17.8138,96.0218],[-95.9697,17.8078,63.5541],[-95.9644,17.8048,81.0773],[-95.9663,17.7981,58.9855],[-95.9625,17.7837,54.8433],[-95.9603,17.784,63.5018],[-95.9611,17.7864,76.691],[-95.9581,17.7898,87.3096],[-95.9532,17.7876,56.7967],[-95.9493,17.7897,91.5963],[-95.9458,17.7879,57.6507],[-95.9455,17.7922,121.5769],[-95.9416,17.7938,119.725],[-95.9693,17.829,140.9622],[-95.9723,17.846,148.8334],[-95.9757,17.8498,235.2629],[-95.9761,17.8531,233.0212],[-95.9904,17.8627,113.4784],[-95.9911,17.8536,168.2304],[-95.9845,17.8494,205.0011],[-95.9831,17.8455,134.6518],[-95.9852,17.8431,192.1349],[-96.0305,17.8901,93.1478],[-96.0421,17.8618,134.7469],[-96.0513,17.877,129.6357],[-96.0537,17.8897,83.3283],[-96.0618,17.8832,114.6538],[-96.0771,17.8783,67.5752],[-96.0694,17.8368,112.739],[-96.0818,17.8235,620.0302],[-96.0853,17.8258,665.931],[-96.1054,17.8199,659.1006],[-96.1213,17.8234,899.1927],[-96.1423,17.8244,934.5068],[-96.1441,17.8284,1035.2555],[-96.1483,17.879,467.0621],[-96.148,17.8831,452.1073],[-96.1397,17.8846,90.0631],[-96.1395,17.8879,74.0478],[-96.1412,17.887,119.6999],[-96.1407,17.8932,69.4633],[-96.1435,17.8928,149.179],[-96.1519,17.9095,166.4459],[-96.1517,17.9125,152.1719],[-96.1482,17.9178,64.4422],[-96.16,17.9223,76.8836],[-96.1623,17.9254,33.498],[-96.161,17.9173,95.2179],[-96.1622,17.9148,29.7825],[-96.1649,17.9121,29.1725],[-96.1744,17.9121,60.2054],[-96.1751,17.9156,73.8311],[-96.173,17.9173,55.6759],[-96.174,17.9238,46.9244],[-96.1728,17.9316,41.8552],[-96.1784,17.9292,58.4654],[-96.1853,17.9214,57.928],[-96.1892,17.9232,64.4441],[-96.19,17.9217,67.5308],[-96.2055,17.9292,49.1251],[-96.2039,17.9357,44.0319],[-96.2068,17.9362,81.7056],[-96.2063,17.9373,94.0552],[-96.2037,17.9368,44.0319],[-96.2021,17.9409,43.3786],[-96.2054,17.9483,84.6003],[-96.2047,17.9587,146.2648],[-96.202,17.9588,39.6176],[-96.201,17.9657,56.3303],[-96.2022,17.9712,29.6808],[-96.1959,17.9753,24.6077],[-96.2023,17.9837,25.8344],[-96.1928,17.9921,49.1425],[-96.1963,17.9914,24.1688],[-96.2016,17.9942,27.3929],[-96.2089,17.9805,62.8898],[-96.2496,17.994,272.578],[-96.2398,17.9728,433.685],[-96.2519,17.9709,127.5658],[-96.2476,17.961,60.5],[-96.2472,17.9628,113.316],[-96.2451,17.9577,88.3754],[-96.2416,17.9547,96.4843],[-96.2383,17.9433,66.9854],[-96.2358,17.9419,66.2665],[-96.2343,17.936,85.1928],[-96.236,17.9273,96.4455],[-96.2315,17.9171,60.5],[-96.2297,17.9159,83.9061],[-96.232,17.9137,60.5],[-96.2289,17.9028,142.9146],[-96.2311,17.9015,75.1852],[-96.2307,17.8982,77.979],[-96.2466,17.8952,444.6134],[-96.2808,17.8839,359.392],[-96.26,17.8672,535.5267],[-96.2579,17.8369,608.7728],[-96.2107,17.8424,44.8234],[-96.227,17.8343,79.4267],[-96.2323,17.827,113.4288],[-96.2284,17.8139,44.2007],[-96.2302,17.8039,46.4692],[-96.2239,17.7986,61.1336],[-96.2216,17.8008,91.3218],[-96.2181,17.7995,48.2765],[-96.219,17.7973,48.7543],[-96.2172,17.7894,54.4836],[-96.1806,17.7814,429.6258],[-96.1676,17.7869,826.3423],[-96.1669,17.7946,902.5593],[-96.1144,17.8021,962.0076],[-96.0952,17.7812,557.3331],[-96.0896,17.7636,189.3333],[-96.0906,17.7568,139.7949],[-96.0963,17.7506,125.80029999999999],[-96.0882,17.7424,82.1022]]]]}}