{"type": "Feature","bbox": [-101.033,27.8214,-100.5381,28.3775],"geometry": {"type": "MultiPolygon","coordinates": [[[[-101.033,28.2003,565.4937],[-101.0296,28.0913,460.258],[-101.0159,28.0038,422.5898],[-100.959,27.9819,466.8961],[-100.9502,27.9266,425.1744],[-100.7517,27.8509,502.8168],[-100.6585,27.8214,462.9696],[-100.602,27.9782,388.9766],[-100.5803,27.9744,374.112],[-100.572,28.0051,357.8462],[-100.5466,27.9985,344.5998],[-100.5381,28.0286,328.5703],[-100.5805,28.0514,354.1569],[-100.5837,28.0557,353.7486],[-100.5874,28.0567,354.5144],[-100.5798,28.065,355.5285],[-100.5919,28.0667,361.4475],[-100.5456,28.1194,320.6225],[-100.636,28.1349,368.2848],[-100.642,28.1344,367.8743],[-100.6452,28.1385,368.9899],[-100.6407,28.1414,367.1656],[-100.6474,28.1503,365.2266],[-100.6469,28.1564,357.1976],[-100.6506,28.1564,359.4752],[-100.6696,28.227,350.1526],[-100.63,28.232,328.6434],[-100.5993,28.3319,295.7286],[-100.5969,28.3331,295.6128],[-100.612,28.3775,296.13],[-100.7318,28.3739,322.3799],[-100.7318,28.361,329.4164],[-100.747,28.3629,333.2442],[-100.7466,28.3593,334.3169],[-100.7783,28.3653,344.1694],[-100.7878,28.3621,348.8898],[-100.8021,28.3499,359.1648],[-100.8047,28.3529,361.3501],[-100.8096,28.3496,363.5577],[-100.8999,28.2678,431.1351],[-100.8738,28.261,464.5663],[-100.8747,28.2475,448.2258],[-100.8587,28.2433,441.47],[-100.8671,28.2185,500.441],[-100.8796,28.2229,488.5382],[-100.8779,28.1905,489.2884],[-101.033,28.2003,565.4937]]]]}
,"properties": {"GID_2": "MEX.7.37_2","GID_0": "MEX","country": "México","GID_1": "MEX.7_1","province": "Coahuila","NL_NAME_1": "NA","county": "VillaUnión","VARNAME_2": "NA","NL_NAME_2": "NA","TYPE_2": "Município","ENGTYPE_2": "Municipality","CC_2": "NA","HASC_2": "NA","name": "Villa_Unión.county","area_km2": 1856.352,"hist_schema_id": "Elevation0-9000","hist_area_km2": {"300": 39.579,"325": 119.127,"350": 152.941,"375": 145.774,"400": 119.976,"425": 135.743,"450": 143.827,"475": 147.155,"500": 167.886,"525": 180.286,"550": 161.486,"575": 114.836,"600": 86.968,"625": 65.232,"650": 45.575,"675": 22.552,"700": 6.513,"725": 0.879,"750": 0.019}}}