{"type":"Feature","properties":{"GID_2":"MEX.31.17_2","GID_0":"MEX","country":"México","GID_1":"MEX.31_1","province":"Yucatán","NL_NAME_1":"NA","county":"Chichimilá","VARNAME_2":"NA","NL_NAME_2":"NA","TYPE_2":"Município","ENGTYPE_2":"Municipality","CC_2":"NA","HASC_2":"NA","name":"Chichimilá.county"},
"geometry":{"type": "MultiPolygon","coordinates": [[[[-88.0649,20.3495,30.1186],[-88.0745,20.3759,28.1217],[-88.0738,20.3942,27.622],[-88.0934,20.3999,29.217],[-88.1176,20.4002,31.6199],[-88.1185,20.4103,31.9864],[-88.1206,20.4162,31.2411],[-88.131,20.4147,33.6115],[-88.1296,20.4235,33.5383],[-88.135,20.434,34.1048],[-88.1339,20.4422,31.2555],[-88.1312,20.4476,28.9186],[-88.1334,20.4477,29.8533],[-88.1368,20.4542,31.944],[-88.1332,20.4672,28.8699],[-88.1263,20.465699999999998,30.9364],[-88.1176,20.4972,28.0944],[-88.1204,20.505,32.0586],[-88.1184,20.5062,28.5369],[-88.1237,20.5086,31.6575],[-88.1315,20.5056,26.6937],[-88.1389,20.5112,27.4295],[-88.1475,20.5089,26.7608],[-88.1585,20.5088,25.7758],[-88.1613,20.5108,30.605],[-88.1723,20.5355,28.414],[-88.1728,20.5398,29.928],[-88.1669,20.5398,27.0433],[-88.1639,20.5424,28.8731],[-88.1605,20.5426,25.5254],[-88.1596,20.5468,27.099],[-88.1596,20.5533,25.2589],[-88.1622,20.5535,28.8708],[-88.1617,20.5592,25.2309],[-88.1654,20.557,28.717],[-88.1718,20.5571,26.7921],[-88.167,20.5629,23.6355],[-88.1673,20.5703,29.6887],[-88.1551,20.5686,24.4997],[-88.1552,20.5706,25.2911],[-88.1604,20.5713,27.1842],[-88.1597,20.5783,26.9125],[-88.1661,20.5795,28.9794],[-88.1675,20.5847,26.2718],[-88.1725,20.5851,31.1637],[-88.172,20.5903,29.6897],[-88.1759,20.5903,27.5155],[-88.1762,20.5944,26.2419],[-88.1711,20.595,28.3915],[-88.1688,20.5978,25.3802],[-88.168,20.6025,25.9829],[-88.1716,20.6044,26.4162],[-88.1715,20.6084,29.3674],[-88.1776,20.6094,27.6198],[-88.1765,20.6149,28.1089],[-88.1817,20.6159,30.5403],[-88.1799,20.6211,28.0245],[-88.1739,20.6198,25.1615],[-88.1769,20.6254,25.7062],[-88.17,20.6253,25.9621],[-88.1688,20.6315,22.9477],[-88.1765,20.6318,26.0851],[-88.1799,20.6356,29.881],[-88.1838,20.6448,27.9929],[-88.1823,20.6487,26.7718],[-88.1848,20.6494,27.7496],[-88.1836,20.6515,26.0824],[-88.2073,20.6501,28.5747],[-88.2069,20.6427,26.8239],[-88.2135,20.6427,25.1003],[-88.2129,20.6462,24.2103],[-88.2162,20.647,24.5737],[-88.2276,20.6467,25.267],[-88.2324,20.6482,22.9377],[-88.2349,20.64,25.2444],[-88.2396,20.6326,29.5309],[-88.2402,20.6265,24.889],[-88.2443,20.627,27.371],[-88.2448,20.6246,28.6101],[-88.2417,20.6242,27.336],[-88.2407,20.6209,27.6773],[-88.2444,20.5998,33.8628],[-88.2414,20.5995,31.9284],[-88.2421,20.5934,32.7276],[-88.2356,20.5943,30.1954],[-88.2378,20.5817,32.9163],[-88.242,20.5809,33.3171],[-88.2424,20.5774,31.4347],[-88.2496,20.5785,33.7634],[-88.2506,20.572,32.9123],[-88.2478,20.57,34.411],[-88.253,20.5613,33.0881],[-88.2484,20.5604,28.0831],[-88.2487,20.5567,31.3254],[-88.2537,20.5423,30.0881],[-88.2515,20.5428,27.1905],[-88.2504,20.5392,25.0567],[-88.2528,20.5388,27.2563],[-88.2542,20.5354,26.9923],[-88.2499,20.5345,28.6257],[-88.2498,20.5325,28.7229],[-88.2465,20.5314,32.1613],[-88.2473,20.5289,31.708],[-88.2452,20.5279,28.7459],[-88.223,20.5233,31.6953],[-88.2224,20.5219,31.6678],[-88.2234,20.5187,27.5192],[-88.2204,20.5159,29.3806],[-88.2249,20.4956,29.5577],[-88.2269,20.4671,33.3614],[-88.224,20.4565,28.0116],[-88.2165,20.4505,31.7152],[-88.2175,20.4487,33.036],[-88.238,20.455,35.0246],[-88.2343,20.4622,28.5975],[-88.2517,20.4718,31.5039],[-88.2541,20.4643,34.4002],[-88.2578,20.4602,31.1818],[-88.2633,20.4633,31.4117],[-88.2716,20.4639,29.6962],[-88.2719,20.4608,33.2323],[-88.2685,20.4468,30.7655],[-88.2604,20.4461,30.0079],[-88.2595,20.4423,31.3236],[-88.2593,20.4355,29.2305],[-88.2659,20.4192,25.96],[-88.2592,20.4067,35.6905],[-88.2574,20.398,27.7598],[-88.2595,20.3975,25.011],[-88.2589,20.3944,27.3476],[-88.2504,20.3839,29.9715],[-88.2519,20.3793,31.5343],[-88.2496,20.3739,29.9824],[-88.2498,20.3607,31.1616],[-88.2491,20.3587,32.7592],[-88.2454,20.3576,32.7277],[-88.2383,20.3602,32.4964],[-88.2341,20.3596,32.0377],[-88.2356,20.3472,29.3073],[-88.2331,20.3181,33.2576],[-88.2327,20.287,35.3339],[-88.1672,20.2854,29.1762],[-88.1365,20.2814,34.8328],[-88.0649,20.3495,30.1186]]]]}}