{"type":"Feature","properties":{"GID_2":"MEX.20.425_2","GID_0":"MEX","country":"México","GID_1":"MEX.20_1","province":"Oaxaca","NL_NAME_1":"NA","county":"SantaMaríaNativitas","VARNAME_2":"NA","NL_NAME_2":"NA","TYPE_2":"Município","ENGTYPE_2":"Municipality","CC_2":"NA","HASC_2":"NA","name":"Santa_María_Nativitas.county"},
"geometry":{"type": "MultiPolygon","coordinates": [[[[-97.2997,17.6548,2366.1133],[-97.3093,17.656,2414.7642],[-97.3095,17.6643,2367.4727],[-97.3064,17.6691,2384.4473],[-97.3214,17.6758,2204.8572],[-97.3251,17.6791,2147.033],[-97.334,17.6804,2257.7407],[-97.3426,17.6785,2315.1172],[-97.3833,17.6535,2558.854],[-97.3755,17.6465,2710.1975],[-97.3342,17.6206,2495.0903],[-97.3243,17.6084,2471.1333],[-97.3056,17.6111,2492.7134],[-97.2999,17.6167,2497.4204],[-97.2972,17.6387,2442.0015],[-97.2997,17.6548,2366.1133]]]]}}