{"type":"Feature","properties":{"GID_2":"MEX.20.461_2","GID_0":"MEX","country":"México","GID_1":"MEX.20_1","province":"Oaxaca","NL_NAME_1":"NA","county":"SantiagoChazumba","VARNAME_2":"NA","NL_NAME_2":"NA","TYPE_2":"Município","ENGTYPE_2":"Municipality","CC_2":"NA","HASC_2":"NA","name":"Santiago_Chazumba.county"},
"geometry":{"type": "MultiPolygon","coordinates": [[[[-97.7661,18.1336,1663.5474],[-97.7667,18.1277,1698.1262],[-97.7655,18.1261,1698.8068],[-97.7637,18.1266,1711.0193],[-97.7615,18.1227,1713.6036],[-97.7494,18.1259,1836.8477],[-97.7369,18.1242,1683.4155],[-97.7319,18.1202,1766.9976],[-97.725,18.1111,1771.6741],[-97.7099,18.1181,1735.7034],[-97.7074,18.1243,1824.2738],[-97.6814,18.1445,1745.6661],[-97.6832,18.1482,1729.9541],[-97.6778,18.148,1723.0028],[-97.6738,18.1446,1734.4475],[-97.6695,18.1435,1750.3533],[-97.6696,18.1375,1735.6062],[-97.6678,18.1356,1734.6165],[-97.6668,18.13,1762.4625],[-97.6697,18.1256,1791.7405],[-97.6752,18.1224,1875.7275],[-97.6777,18.1155,1940.4817],[-97.6859,18.113,1845.0337],[-97.6889,18.1103,1803.8849],[-97.6819,18.1019,1842.0955],[-97.6824,18.099,1838.2321],[-97.6876,18.0931,1870.9268],[-97.6837,18.0807,1973.7649],[-97.6721,18.084,1905.4622],[-97.67,18.0803,1933.3802],[-97.6674,18.08,1959.1409],[-97.6601,18.084,2027.1019],[-97.6594,18.0899,2001.6742],[-97.6494,18.0806,1988.9935],[-97.6422,18.0782,1948.5686],[-97.6418,18.0772,1948.5686],[-97.6526,18.0694,2217.7715],[-97.6454,18.0635,2022.3387],[-97.6399,18.0749,2038.1655],[-97.6231,18.0685,2066.3262],[-97.6228,18.0666,2065.4563],[-97.6177,18.0698,2010.3512],[-97.6187,18.0777,1965.8159],[-97.6165,18.0811,1942.1835],[-97.6184,18.0816,2004.1219],[-97.6184,18.0862,1956.6467],[-97.62,18.0881,1939.5486],[-97.615,18.0926,2026.6873],[-97.621,18.1037,2009.698],[-97.623,18.1371,1910.1959],[-97.6286,18.1443,1922.8447],[-97.6434,18.139,1971.9203],[-97.6663,18.1611,1780.8113],[-97.6663,18.1632,1780.7676],[-97.6546,18.1796,1781.0723],[-97.6516,18.1769,1750.5948],[-97.6359,18.1936,1904.012],[-97.634,18.2001,2088.8091],[-97.6367,18.2027,2024.1061],[-97.6382,18.2118,2016.3438],[-97.6375,18.232,1871.3712],[-97.644,18.2794,1848.2618],[-97.6547,18.2931,1804.7576],[-97.6695,18.2899,1780.256],[-97.6775,18.2912,1816.2097],[-97.6807,18.2897,1839.1799],[-97.6997,18.2882,1946.0723],[-97.7109,18.2853,1816.113],[-97.7141,18.2797,1986.714],[-97.7213,18.276,1914.5386],[-97.7497,18.2758,1791.4366],[-97.7619,18.281,1745.0459],[-97.7832,18.2863,1627.6517],[-97.7973,18.2832,1534.0887],[-97.8155,18.262,1517.0562],[-97.8276,18.2369,1366.7053],[-97.823,18.2234,1417.6692],[-97.8441,18.2162,1362.6016],[-97.8493,18.205,1477.1262],[-97.8592,18.1923,1456.0024],[-97.8499,18.1895,1496.4861],[-97.8505,18.1831,1414.9568],[-97.8465,18.1801,1446.9276],[-97.8442,18.1738,1428.9592],[-97.8346,18.167,1421.9437],[-97.8347,18.1689,1416.6187],[-97.8331,18.1685,1415.1125],[-97.8306,18.1713,1423.0803],[-97.8274,18.1692,1422.1604],[-97.8209,18.1717,1432.2844],[-97.7983,18.1708,1546.3054],[-97.7877,18.1731,1522.6274],[-97.7861,18.186,1639.7142],[-97.7724,18.1892,1625.678],[-97.7709,18.2162,1716.1592],[-97.7561,18.2082,1899.4077],[-97.7464,18.2078,1916.1016],[-97.7519,18.1877,1540.6307],[-97.7492,18.1859,1538.5701],[-97.7504,18.184,1591.719],[-97.7487,18.1817,1563.2493],[-97.744,18.1823,1554.1199],[-97.7426,18.1808,1550.7513],[-97.7447,18.1789,1562.4777],[-97.7408,18.1771,1577.9124],[-97.7417,18.1746,1570.7218],[-97.7371,18.1763,1573.6515],[-97.7351,18.1731,1576.6099],[-97.7301,18.17,1635.623],[-97.7284,18.1734,1586.1113],[-97.7261,18.1716,1594.1809],[-97.7279,18.1694,1608.895],[-97.7267,18.1688,1619.3518],[-97.7319,18.167,1751.7585],[-97.7396,18.1552,1674.0939],[-97.7456,18.1496,1637.7122],[-97.7681,18.1382,1654.655],[-97.7661,18.1336,1663.5474]]]]}}