{"type": "Feature","bbox": [-103.2948,22.1018,-103.0523,22.2802],"geometry": {"type": "MultiPolygon","coordinates": [[[[-103.1266,22.104,2235.9756],[-103.1017,22.1018,2234.5029],[-103.101,22.1078,2178.2173],[-103.0961,22.1114,2123.2817],[-103.0924,22.1099,2197.5215],[-103.0883,22.1129,2100.4941],[-103.0904,22.1139,2111.6594],[-103.0895,22.1152,2086.9856],[-103.0867,22.1149,2100.0918],[-103.0862,22.1122,2131.7332],[-103.0845,22.114,2152.9478],[-103.0877,22.1178,2107.7114],[-103.0817,22.1203,2062.689],[-103.0802,22.1245,2088.4468],[-103.077,22.1255,2055.0017],[-103.0765,22.1278,2047.1206],[-103.0816,22.1301,2146.5491],[-103.0759,22.1332,2040.1702],[-103.0788,22.1371,2040.0582],[-103.0842,22.1373,2057.3484],[-103.0901,22.14,2055.5225],[-103.0907,22.1435,2097.3484],[-103.0959,22.1455,2183.7629],[-103.1088,22.1443,2171.4199],[-103.1025,22.1536,2202.9258],[-103.1065,22.1518,2154.5139],[-103.1087,22.1534,2172.7996],[-103.1049,22.1575,2193.2336],[-103.1059,22.1682,2259.6802],[-103.1028,22.1711,2255.3115],[-103.1039,22.172,2255.3115],[-103.1014,22.1786,2253.824],[-103.1061,22.1914,2056.6829],[-103.0921,22.1984,1986.8885],[-103.0882,22.2044,2044.9248],[-103.076,22.2023,2266.0076],[-103.071,22.2035,2226.4331],[-103.0728,22.2104,2246.3525],[-103.0719,22.212,2244.0188],[-103.0696,22.2112,2222.311],[-103.0598,22.2172,2144.249],[-103.0548,22.2138,2114.6614],[-103.0523,22.2207,2137.8972],[-103.0597,22.2242,2149.989],[-103.0578,22.2283,2193.5637],[-103.0621,22.2283,2202.9209],[-103.0557,22.2412,2194.3647],[-103.0555,22.2473,2190.3291],[-103.0629,22.2493,2102.1807],[-103.0624,22.2522,2115.7686],[-103.0683,22.2551,2052.9165],[-103.0739,22.2549,2037.3135],[-103.0747,22.2576,2034.2826],[-103.0776,22.2569,2025.7766],[-103.0787,22.2582,2030.6139],[-103.0815,22.2507,2034.3995],[-103.085,22.2477,2008.7625],[-103.0839,22.2423,2015.8594],[-103.0925,22.2468,2055.5034],[-103.0935,22.2498,2055.1069],[-103.0965,22.248,2038.5488],[-103.0945,22.2429,2019.4695],[-103.0963,22.2416,2010.0046],[-103.0954,22.2402,2009.2007],[-103.1019,22.2416,2028.5314],[-103.0994,22.2365,2049.0024],[-103.1057,22.2289,2093.6392],[-103.109,22.2276,2114.5967],[-103.1086,22.2211,2092.502],[-103.1099,22.2211,2092.502],[-103.1069,22.2166,2056.4006],[-103.1164,22.2196,2136.8511],[-103.1254,22.2196,2208.9546],[-103.1305,22.2163,2198.9585],[-103.1309,22.2132,2174.3828],[-103.1326,22.2143,2196.501],[-103.1383,22.2108,2184.1699],[-103.1398,22.2069,2144.1023],[-103.14,22.2094,2172.8669],[-103.15,22.2102,2022.5698],[-103.1564,22.2084,1976.6265],[-103.1595,22.2051,1938.2643],[-103.1616,22.2098,1900.2517],[-103.1582,22.2135,1939.8885],[-103.1578,22.2166,1965.7437],[-103.1585,22.2183,1977.9359],[-103.1645,22.221,1942.2844],[-103.1622,22.228,1967.6267],[-103.1656,22.2314,1920.7144],[-103.1703,22.2308,1904.8851],[-103.1711,22.2336,1903.5596],[-103.1749,22.2352,1889.1284],[-103.1779,22.2434,1851.3972],[-103.1786,22.2519,1815.9952],[-103.182,22.2544,1802.2223],[-103.1827,22.2584,1792.5271],[-103.1862,22.2611,1781.0782],[-103.189,22.2609,1774.0845],[-103.1932,22.2575,1796.1995],[-103.1969,22.267,1770.0062],[-103.1987,22.2671,1797.8589],[-103.2006,22.2626,1770.4735],[-103.2023,22.2619,1786.22],[-103.2125,22.264,1791.4802],[-103.2168,22.2618,1782.0924],[-103.216,22.2639,1766.1814],[-103.2178,22.2653,1763.9331],[-103.2237,22.263,1785.1603],[-103.2245,22.2639,1771.28],[-103.2217,22.2672,1767.2151],[-103.2217,22.2695,1760.2612],[-103.2256,22.2695,1753.78],[-103.2262,22.2722,1754.2076],[-103.2431,22.2762,1801.7358],[-103.2517,22.2802,1834.4661],[-103.2611,22.2773,1891.6287],[-103.2651,22.2746,1972.2909],[-103.2692,22.2685,1981.7365],[-103.2757,22.2664,2158.8479],[-103.2779,22.2583,2262.6438],[-103.2821,22.2541,2278.261],[-103.2804,22.2531,2276.3477],[-103.2887,22.2439,2238.96],[-103.2905,22.2441,2237.8186],[-103.2942,22.2401,2215.1831],[-103.2948,22.2339,2187.418],[-103.2714,22.2211,2251.9507],[-103.2782,22.2108,2148.7744],[-103.2797,22.206,2122.5776],[-103.2797,22.2013,2053.3127],[-103.2719,22.1909,2005.6416],[-103.2749,22.1855,1985.1482],[-103.2739,22.1822,1959.4854],[-103.2762,22.1772,1928.3633],[-103.2794,22.1749,1906.0555],[-103.2826,22.1689,1879.2275],[-103.2848,22.1604,1850.6213],[-103.2835,22.1538,1906.114],[-103.2767,22.1524,1877.5321],[-103.2718,22.1544,1873.7648],[-103.2698,22.1535,1888.123],[-103.2697,22.1504,1862.7184],[-103.2644,22.1528,1974.7102],[-103.2628,22.1618,2128.7031],[-103.2595,22.1673,2164.1582],[-103.2304,22.1629,1703.189],[-103.2329,22.1526,1698.0444],[-103.2327,22.1471,1693.4905],[-103.2406,22.1407,1696.4551],[-103.2406,22.1384,1696.3364],[-103.2373,22.1361,1703.5222],[-103.2359,22.1368,1707.1501],[-103.2322,22.1331,1712.3101],[-103.231,22.1255,1729.834],[-103.2217,22.1335,1750.8258],[-103.2113,22.1368,1761.6165],[-103.1962,22.1386,1861.2092],[-103.1918,22.1406,1885.2123],[-103.1909,22.1428,1881.5526],[-103.1812,22.1424,1911.5409],[-103.1752,22.1407,1915.6365],[-103.1678,22.1342,1963.7852],[-103.1658,22.1284,2044.9517],[-103.1535,22.1239,2187.7217],[-103.1452,22.1134,2327.1216],[-103.1367,22.1119,2280.8015],[-103.1345,22.1072,2265.4636],[-103.1311,22.107,2250.0098],[-103.1266,22.104,2235.9756]]]]}
,"properties": {"GID_2": "MEX.14.82_2","GID_0": "MEX","country": "México","GID_1": "MEX.14_1","province": "Jalisco","NL_NAME_1": "NA","county": "SantaMaríadelosÁngeles","VARNAME_2": "NA","NL_NAME_2": "NA","TYPE_2": "Município","ENGTYPE_2": "Municipality","CC_2": "NA","HASC_2": "NA","name": "Santa_Maríadelos_Ángeles.county","area_km2": 261.0782,"hist_schema_id": "Elevation0-9000","hist_area_km2": {"1700": 4.3786,"1725": 8.9718,"1750": 11.4627,"1775": 15.2524,"1800": 18.0993,"1825": 20.16,"1850": 17.6466,"1875": 15.1538,"1900": 10.1293,"1925": 9.639,"1950": 9.698,"1975": 9.5801,"2000": 9.4619,"2025": 10.8357,"2050": 10.5219,"2075": 9.07,"2100": 7.3232,"2125": 5.733,"2150": 7.382,"2175": 7.1662,"2200": 9.6208,"2225": 11.6046,"2250": 9.5824,"2275": 6.2826,"2300": 3.6517,"2325": 1.0799,"2350": 0.6481,"2375": 0.6678,"2400": 0.275}}}