{"type": "Feature","bbox": [-96.9171,19.5631,-96.75,19.7145],"geometry": {"type": "MultiPolygon","coordinates": [[[[-96.8644,19.69,1787.4598],[-96.8662,19.6903,1802.3657],[-96.8651,19.6919,1784.2708],[-96.8681,19.6952,1750.3165],[-96.868,19.6973,1747.8505],[-96.8725,19.6989,1765.3242],[-96.8777,19.6981,1798.7939],[-96.881,19.7018,1838.6223],[-96.8831,19.7009,1854.9944],[-96.8843,19.6952,1795.9685],[-96.8831,19.6934,1785.0474],[-96.8862,19.6912,1778.1862],[-96.8883,19.6939,1814.5261],[-96.8883,19.6985,1854.0322],[-96.8907,19.6982,1880.4084],[-96.8966,19.7033,1884.1742],[-96.898,19.7032,1884.1742],[-96.8977,19.7007,1849.4707],[-96.9002,19.701,1876.2041],[-96.9032,19.7053,1936.0511],[-96.8991,19.7078,1881.5829],[-96.9044,19.7118,1922.5957],[-96.9072,19.7119,1963.3936],[-96.9078,19.7145,1954.7003],[-96.9104,19.7144,1990.8215],[-96.9085,19.7116,1951.7886],[-96.9095,19.7077,1950.8685],[-96.9059,19.7,1875.4196],[-96.9021,19.7007,1876.2041],[-96.9014,19.6991,1870.8706],[-96.8996,19.6827,1749.3114],[-96.8978,19.6794,1723.4447],[-96.8945,19.6777,1698.6523],[-96.8947,19.674,1665.5482],[-96.896,19.6733,1678.3087],[-96.8924,19.6684,1642.2322],[-96.8926,19.6664,1619.5459],[-96.9039,19.6665,1728.7241],[-96.915,19.663,1748.3195],[-96.9133,19.6594,1637.4579],[-96.9164,19.656,1622.2241],[-96.9167,19.6461,1403.3633],[-96.9157,19.6397,1315.9755],[-96.9143,19.6396,1306.7827],[-96.9166,19.638,1286.7578],[-96.9171,19.6351,1252.5098],[-96.9121,19.6323,1200.345],[-96.9031,19.6324,1132.4512],[-96.8969,19.6275,1082.3271],[-96.888,19.6262,1029.8003],[-96.8846,19.6224,1008.7163],[-96.8747,19.6189,951.7565],[-96.874,19.6171,943.4205],[-96.8699,19.6153,924.9315],[-96.8711,19.6119,918.2826],[-96.8623,19.6068,885.6154],[-96.858,19.6065,870.4975],[-96.8566,19.608,864.8297],[-96.8491,19.6066,849.1492],[-96.8486,19.608,847.5566],[-96.8445,19.6063,832.9536],[-96.8415,19.6035,827.63],[-96.8439,19.5916,864.4253],[-96.8429,19.5897,860.5052],[-96.843,19.592,864.4253],[-96.8408,19.5945,870.8016],[-96.8312,19.5931,854.0531],[-96.8285,19.5972,814.6205],[-96.8261,19.5967,827.1793],[-96.8173,19.5876,758.374],[-96.8103,19.5875,738.3166],[-96.8071,19.5837,720.3951],[-96.8047,19.5841,720.8095],[-96.8055,19.5832,720.3951],[-96.8031,19.5809,714.3922],[-96.8019,19.5757,695.7913],[-96.7986,19.5761,684.8731],[-96.7948,19.5729,670.018],[-96.7941,19.5703,659.0678],[-96.7791,19.5658,600.6405],[-96.772,19.5677,584.6372],[-96.7678,19.5653,574.165],[-96.7638,19.5661,576.5602],[-96.762,19.5632,559.7179],[-96.76,19.5631,558.4563],[-96.7574,19.5669,570.8676],[-96.7608,19.5692,594.3206],[-96.7625,19.5734,601.8903],[-96.7597,19.5729,591.2933],[-96.7579,19.575,615.661],[-96.7579,19.5809,660.3062],[-96.7514,19.5881,904.4528],[-96.7506,19.5934,988.6099],[-96.7514,19.5987,1004.2637],[-96.75,19.6016,1026.6409],[-96.7582,19.6081,1063.4537],[-96.7538,19.608,1078.9102],[-96.7539,19.6091,1055.1172],[-96.7607,19.6118,1047.1882],[-96.7673,19.6202,1001.1217],[-96.77,19.604,821.6812],[-96.7705,19.6051,821.6812],[-96.7744,19.6021,808.1763],[-96.7776,19.6028,786.4053],[-96.7834,19.596,745.5037],[-96.7833,19.5933,734.761],[-96.7917,19.5926,788.1494],[-96.7927,19.5942,790.0079],[-96.7928,19.5928,788.1494],[-96.7966,19.5929,839.9009],[-96.8051,19.6058,887.6179],[-96.8093,19.609,927.5679],[-96.8082,19.6107,902.6447],[-96.8093,19.6129,891.0361],[-96.7954,19.6216,851.449],[-96.7963,19.6255,862.3219],[-96.793,19.6313,878.5192],[-96.7948,19.6364,910.134],[-96.7981,19.6399,942.3234],[-96.7979,19.6449,978.4264],[-96.8016,19.649,1059.5825],[-96.805,19.6499,1089.1406],[-96.8055,19.6522,1083.928],[-96.8104,19.6566,1160.77],[-96.8142,19.6538,1397.9886],[-96.8151,19.6559,1356.9028],[-96.8163,19.6542,1420.2472],[-96.8178,19.6589,1281.6442],[-96.821,19.6621,1461.6123],[-96.8206,19.6644,1477.6274],[-96.8224,19.6665,1501.7268],[-96.824,19.6655,1501.7268],[-96.8265,19.6695,1558.8201],[-96.8294,19.6697,1569.045],[-96.831,19.6729,1612.7766],[-96.8379,19.6701,1648.9664],[-96.8402,19.6709,1668.5359],[-96.8449,19.6663,1651.077],[-96.8533,19.6626,1626.524],[-96.8544,19.6728,1716.3527],[-96.8526,19.6731,1713.9147],[-96.8523,19.6754,1749.5466],[-96.8566,19.6762,1753.416],[-96.8616,19.6802,1717.8691],[-96.8644,19.69,1787.4598]]]]}
,"properties": {"GID_2": "MEX.30.118_2","GID_0": "MEX","country": "México","GID_1": "MEX.30_1","province": "Veracruz","NL_NAME_1": "NA","county": "Naolinco","VARNAME_2": "NA","NL_NAME_2": "NA","TYPE_2": "Município","ENGTYPE_2": "Municipality","CC_2": "NA","HASC_2": "NA","name": "Naolinco.county","area_km2": 109.05372,"hist_schema_id": "Elevation0-9000","hist_area_km2": {"550": 0.03996,"575": 0.37958,"600": 1.37844,"625": 1.35844,"650": 1.25852,"675": 1.37836,"700": 2.23729,"725": 3.31589,"750": 3.01617,"775": 2.03736,"800": 3.1159,"825": 2.6964,"850": 3.11572,"875": 3.25547,"900": 2.77604,"925": 2.71611,"950": 3.13549,"975": 2.67612,"1000": 2.2967,"1025": 2.97565,"1050": 2.29666,"1075": 2.21669,"1100": 1.99701,"1125": 2.1567,"1150": 2.01689,"1175": 1.95696,"1200": 1.9969,"1225": 1.95694,"1250": 1.79719,"1275": 1.99685,"1300": 1.91696,"1325": 1.8171,"1350": 1.7372,"1375": 1.77712,"1400": 1.59739,"1425": 1.51751,"1450": 1.83699,"1475": 1.95678,"1500": 2.31618,"1525": 2.73546,"1550": 2.59565,"1575": 2.356,"1600": 2.75527,"1625": 2.1962,"1650": 1.99651,"1675": 1.67701,"1700": 1.75684,"1725": 1.57713,"1750": 1.8366,"1775": 1.93637,"1800": 1.33747,"1825": 0.63878,"1850": 0.35931,"1875": 0.39923,"1900": 0.31937,"1925": 0.23952,"1950": 0.25948,"1975": 0.05988}}}