{"type": "Feature","bbox": [-97.9488,17.9085,-97.8112,18.0259],"geometry": {"type": "MultiPolygon","coordinates": [[[[-97.8427,18.0189,1579.3417],[-97.8501,18.0163,1514.5764],[-97.8503,18.0187,1520.927],[-97.8554,18.0217,1509.3326],[-97.857,18.0255,1500.4758],[-97.8621,18.0259,1479.3278],[-97.8679,18.0161,1508.4043],[-97.878,18.0148,1551.7959],[-97.8818,18.0157,1524.7736],[-97.8835,18.0178,1517.1653],[-97.8832,18.0143,1527.8374],[-97.8906,18.0107,1568.422],[-97.8938,18.0044,1601.854],[-97.8945,18.0076,1593.2676],[-97.8973,18.0101,1566.4415],[-97.8963,18.0142,1547.0865],[-97.9011,18.0118,1567.3103],[-97.9017,18.0142,1564.1604],[-97.9069,18.0131,1621.9802],[-97.9126,18.0076,1725.6211],[-97.935,18.0,1593.5549],[-97.9363,17.9876,1609.8726],[-97.9351,17.9826,1647.567],[-97.9319,17.9807,1643.85],[-97.9304,17.9674,1635.6212],[-97.9322,17.9665,1589.8091],[-97.9322,17.9639,1582.6243],[-97.9343,17.9637,1575.4604],[-97.9346,17.961,1574.0126],[-97.936,17.962,1586.4822],[-97.9397,17.9603,1606.6956],[-97.9488,17.9482,1562.0612],[-97.9443,17.9481,1565.8115],[-97.938,17.9407,1602.1282],[-97.9397,17.9339,1580.1772],[-97.936,17.9248,1639.5288],[-97.9379,17.9207,1667.3643],[-97.9363,17.9172,1645.885],[-97.9208,17.9173,1622.1747],[-97.9182,17.9151,1627.8142],[-97.9157,17.9155,1629.965],[-97.914,17.912,1636.2739],[-97.9031,17.9092,1655.4259],[-97.8978,17.9125,1673.2859],[-97.8847,17.9137,1730.2247],[-97.8791,17.9179,1802.7861],[-97.8701,17.9172,1847.9609],[-97.854,17.9116,1873.5725],[-97.8324,17.9085,1910.9312],[-97.8308,17.9137,1911.0879],[-97.8193,17.9147,1856.7997],[-97.8112,17.9381,1755.6598],[-97.8149,17.9532,1744.5057],[-97.8278,17.9641,1604.3833],[-97.8267,17.9652,1604.3833],[-97.828,17.9658,1599.3511],[-97.827,17.9668,1599.3511],[-97.8283,17.9694,1620.7051],[-97.8263,17.9727,1640.1385],[-97.8356,17.9835,1649.4146],[-97.8426,17.9961,1615.9871],[-97.8427,18.0189,1579.3417]]]]}
,"properties": {"GID_2": "MEX.21.42_2","GID_0": "MEX","country": "México","GID_1": "MEX.21_1","province": "Puebla","NL_NAME_1": "NA","county": "Chila","VARNAME_2": "NA","NL_NAME_2": "NA","TYPE_2": "Município","ENGTYPE_2": "Municipality","CC_2": "NA","HASC_2": "NA","name": "Chila.county","area_km2": 129.32389,"hist_schema_id": "Elevation0-9000","hist_area_km2": {"1475": 0.06049,"1500": 0.5847,"1525": 3.02448,"1550": 5.28292,"1575": 5.94889,"1600": 8.49029,"1625": 11.71804,"1650": 11.15344,"1675": 10.62905,"1700": 10.97198,"1725": 10.42729,"1750": 8.89462,"1775": 8.2495,"1800": 7.58412,"1825": 8.10897,"1850": 8.2099,"1875": 4.90184,"1900": 3.57049,"1925": 0.98841,"1950": 0.30259,"1975": 0.20173,"2000": 0.02017}}}