{"type":"Feature","properties":{"GID_2":"MEX.14.65_2","GID_0":"MEX","country":"México","GID_1":"MEX.14_1","province":"Jalisco","NL_NAME_1":"NA","county":"Pihuamo","VARNAME_2":"NA","NL_NAME_2":"NA","TYPE_2":"Município","ENGTYPE_2":"Municipality","CC_2":"NA","HASC_2":"NA","name":"Pihuamo.county"},
"geometry":{"type": "MultiPolygon","coordinates": [[[[-103.4886,18.9649,154.9478],[-103.4866,18.9682,167.5699],[-103.4875,18.9716,184.2599],[-103.4819,18.9704,193.1238],[-103.4814,18.9754,170.4931],[-103.4837,18.9798,221.1247],[-103.4791,18.9793,168.9937],[-103.4778,18.9841,206.2377],[-103.4718,18.9855,179.6721],[-103.4715,18.9879,175.4091],[-103.474,18.989,173.1866],[-103.4727,18.9911,224.0258],[-103.4684,18.9869,176.099],[-103.4631,18.977,225.6195],[-103.4603,18.9771,193.7215],[-103.4578,18.9793,207.5358],[-103.4545,18.9785,215.9584],[-103.4504,18.9816,203.9919],[-103.4419,18.9835,202.2499],[-103.4195,18.9813,220.9556],[-103.4181,18.9782,221.2805],[-103.415,18.9784,215.8332],[-103.4166,18.9748,216.44],[-103.4138,18.9731,218.1008],[-103.4114,18.9677,228.4871],[-103.4072,18.9715,236.817],[-103.3997,18.9664,239.6397],[-103.3944,18.9674,293.5],[-103.3916,18.9707,293.5],[-103.3861,18.9726,293.5],[-103.3842,18.9778,293.5],[-103.3772,18.9802,293.5],[-103.3731,18.9769,293.5],[-103.3632,18.9766,293.5],[-103.3583,18.98,293.5],[-103.3553,18.9802,293.5],[-103.3523,18.9778,293.5],[-103.3445,18.9782,293.5],[-103.3325,18.9733,338.3877],[-103.3048,18.9858,356.4283],[-103.2994,18.9929,366.7985],[-103.2956,18.9942,379.1777],[-103.2918,18.993,370.6181],[-103.2896,18.9945,378.985],[-103.2878,18.9918,414.2049],[-103.2845,18.9984,392.5761],[-103.2822,18.9997,410.3527],[-103.2777,18.9969,428.7563],[-103.2734,18.9987,427.0184],[-103.2718,19.0017,424.325],[-103.2598,19.0037,486.4319],[-103.2579,19.0117,446.5162],[-103.2525,19.0107,460.8151],[-103.2484,19.0145,475.8165],[-103.2489,19.0185,569.3561],[-103.2442,19.0248,756.0292],[-103.246,19.0259,849.8989],[-103.2553,19.0254,560.1791],[-103.253,19.0284,618.4919],[-103.2548,19.0288,667.1609],[-103.254,19.0312,647.3773],[-103.2566,19.0347,729.4833],[-103.2546,19.0388,663.1185],[-103.2568,19.0397,747.2772],[-103.2554,19.0416,703.5018],[-103.2577,19.044,744.1851],[-103.2605,19.0538,809.1337],[-103.2639,19.0549,893.0648],[-103.2682,19.0522,1055.0615],[-103.2816,19.052,972.1548],[-103.2873,19.0556,994.6208],[-103.2942,19.0556,926.1596],[-103.3011,19.0493,777.076],[-103.3036,19.0514,840.3547],[-103.305,19.0498,879.0024],[-103.3122,19.0544,1225.5214],[-103.3164,19.0632,1343.1228],[-103.3259,19.0683,932.7241],[-103.3036,19.0776,1565.3081],[-103.3052,19.0815,1744.3076],[-103.3021,19.0858,1789.4147],[-103.3034,19.0916,1751.1189],[-103.3017,19.0933,1729.1981],[-103.3025,19.0943,1818.8049],[-103.3011,19.0977,1733.3818],[-103.2978,19.1016,1585.3586],[-103.2919,19.1004,1509.5669],[-103.2889,19.1033,1449.3026],[-103.2867,19.1131,1799.6547],[-103.2899,19.1105,1778.8157],[-103.2925,19.1161,1622.9349],[-103.2869,19.1215,1819.6002],[-103.2859,19.1281,1676.7543],[-103.2873,19.1309,1653.1289],[-103.2906,19.1317,1626.2627],[-103.2879,19.133,1654.0437],[-103.2749,19.132,1721.6464],[-103.2705,19.1252,1609.0796],[-103.2693,19.1256,1638.201],[-103.2705,19.1299,1537.3024],[-103.2672,19.1281,1548.4017],[-103.2655,19.1286,1547.9653],[-103.2675,19.131,1451.9386],[-103.2666,19.132,1416.7007],[-103.2615,19.1308,1348.2134],[-103.259,19.1482,1524.2161],[-103.2616,19.1504,1565.2593],[-103.2643,19.1571,1481.606],[-103.2733,19.1613,1532.4973],[-103.2733,19.1727,1058.8273],[-103.2666,19.1658,1246.8132],[-103.2589,19.1684,1408.2822],[-103.2568,19.1661,1494.1599],[-103.2492,19.1682,1801.6978],[-103.2598,19.186,1111.025],[-103.2865,19.1996,1494.7001],[-103.2807,19.2067,1511.7142],[-103.2813,19.2134,1539.2809],[-103.278,19.2165,1545.5496],[-103.2767,19.2238,1298.3506],[-103.2741,19.2269,1265.9517],[-103.2747,19.2287,1214.9434],[-103.2771,19.2283,1187.6135],[-103.2753,19.2325,1246.8381],[-103.2694,19.2371,1298.1472],[-103.2657,19.2431,1419.124],[-103.2574,19.247,1486.017],[-103.2581,19.2555,1580.5648],[-103.2602,19.2605,1617.0881],[-103.2628,19.2621,1613.7343],[-103.2664,19.2637,1668.2999],[-103.2716,19.2624,1707.2031],[-103.2723,19.2634,1707.2031],[-103.2736,19.2675,1774.3694],[-103.2724,19.2856,1955.5596],[-103.2738,19.2903,2019.5867],[-103.2791,19.2901,1892.1436],[-103.2823,19.2924,1790.1891],[-103.2877,19.293,1648.6849],[-103.2901,19.2921,1589.9882],[-103.2911,19.2943,1588.7979],[-103.2883,19.2975,1629.9673],[-103.2901,19.2986,1609.6558],[-103.2935,19.2964,1566.8477],[-103.2954,19.2998,1503.131],[-103.2988,19.298,1417.2852],[-103.302,19.2989,1348.4016],[-103.2879,19.3147,1717.8234],[-103.2768,19.3151,1868.0081],[-103.2711,19.3205,1985.9895],[-103.2686,19.3204,1991.5035],[-103.2703,19.3243,1999.498],[-103.2694,19.3252,1999.498],[-103.2733,19.33,2041.0452],[-103.2727,19.3347,2130.6519],[-103.2749,19.337,2089.5977],[-103.2722,19.3364,2138.2827],[-103.2696,19.3422,2064.9646],[-103.2662,19.3401,2205.2463],[-103.2612,19.3447,2119.2153],[-103.2625,19.345,2119.2153],[-103.2661,19.3626,1935.4883],[-103.2691,19.3615,1858.1266],[-103.272,19.3637,1853.219],[-103.273,19.369,1747.2495],[-103.2716,19.3713,1841.8123],[-103.2732,19.3734,1809.7028],[-103.2762,19.3732,1839.7266],[-103.2749,19.3689,1747.2495],[-103.2783,19.3674,1709.2529],[-103.2882,19.3693,1637.952],[-103.2897,19.3679,1598.5588],[-103.3038,19.3679,1499.4983],[-103.3058,19.3672,1490.5273],[-103.3078,19.3625,1402.6285],[-103.3109,19.3616,1293.4445],[-103.3108,19.3598,1266.0416],[-103.313,19.3578,1278.6011],[-103.3223,19.356,1211.041],[-103.3241,19.3581,1198.9067],[-103.3255,19.3535,1224.2437],[-103.3223,19.3533,1221.5415],[-103.3249,19.3482,1094.1163],[-103.3264,19.3393,989.8711],[-103.3316,19.3345,919.304],[-103.3462,19.3343,881.4668],[-103.3517,19.3295,833.8977],[-103.3564,19.3276,797.8694],[-103.363,19.3288,787.1128],[-103.3611,19.3297,792.5922],[-103.3626,19.331,821.8406],[-103.3597,19.3362,922.5768],[-103.3645,19.3344,946.0298],[-103.3653,19.3422,926.2637],[-103.3703,19.3418,849.1116],[-103.3702,19.3392,926.0913],[-103.3787,19.3389,780.2588],[-103.3789,19.3355,759.6133],[-103.382,19.3343,763.2621],[-103.3858,19.3362,778.5253],[-103.3867,19.3387,780.3309],[-103.3874,19.3324,772.3456],[-103.3929,19.3331,754.668],[-103.3937,19.3352,761.0141],[-103.3937,19.3302,746.7075],[-103.392,19.3283,753.7196],[-103.3941,19.3254,735.6161],[-103.3924,19.3133,719.3959],[-103.3935,19.3139,721.3138],[-103.3955,19.312,733.4637],[-103.3937,19.3109,727.5545],[-103.3963,19.3061,718.526],[-103.395,19.3035,702.7429],[-103.3979,19.303,702.8311],[-103.3985,19.3003,703.5183],[-103.395,19.2991,700.9312],[-103.3946,19.295,716.0562],[-103.3913,19.2956,704.1813],[-103.3883,19.2919,694.7604],[-103.3938,19.2842,687.0],[-103.3955,19.2845,699.444],[-103.398,19.2794,677.4861],[-103.4043,19.282,684.4177],[-103.4061,19.2803,703.1068],[-103.4128,19.2817,696.1566],[-103.4157,19.2807,703.3929],[-103.4153,19.2787,703.4352],[-103.4175,19.2757,704.0358],[-103.4153,19.2733,699.5103],[-103.4154,19.2703,699.1064],[-103.418,19.268,681.9596],[-103.4186,19.2596,692.9919],[-103.4216,19.2591,684.6184],[-103.4242,19.2601,685.038],[-103.4238,19.2612,668.0038],[-103.4256,19.2609,685.7395],[-103.4289,19.2585,673.1907],[-103.4303,19.2531,666.4384],[-103.4369,19.2551,656.0754],[-103.4382,19.2542,640.7323],[-103.4375,19.2528,665.7416],[-103.4404,19.2515,651.1628],[-103.4403,19.2491,636.2797],[-103.4426,19.2484,633.5082],[-103.4431,19.2461,623.03],[-103.4418,19.2466,623.03],[-103.4414,19.245,618.6246],[-103.4446,19.2428,608.087],[-103.4457,19.2439,638.8235],[-103.4529,19.2425,609.642],[-103.4539,19.2444,627.687],[-103.4574,19.244,604.0336],[-103.4576,19.2464,605.3718],[-103.459,19.2465,621.6223],[-103.4581,19.2485,607.2986],[-103.4617,19.2475,591.2002],[-103.463,19.249,599.8637],[-103.4683,19.2494,585.1032],[-103.4733,19.248,577.7026],[-103.4763,19.253,559.0088],[-103.4791,19.2523,519.9247],[-103.4844,19.2548,528.8906],[-103.4855,19.253,527.5457],[-103.4887,19.2545,503.288],[-103.492,19.2535,563.7858],[-103.49,19.2513,599.0602],[-103.495,19.2468,487.6463],[-103.499,19.247,514.6902],[-103.5048,19.2444,486.457],[-103.5059,19.2422,468.0815],[-103.5095,19.2418,446.2501],[-103.5057,19.2367,445.3693],[-103.5077,19.2304,428.6388],[-103.5065,19.2278,468.7275],[-103.5107,19.2246,483.2487],[-103.511,19.2217,430.4358],[-103.514,19.2185,448.8481],[-103.514,19.2167,463.7299],[-103.511,19.2166,413.9095],[-103.5099,19.2137,398.3689],[-103.5152,19.2111,394.9424],[-103.5114,19.2068,404.5228],[-103.5109,19.1997,416.8139],[-103.5035,19.1949,376.6575],[-103.4986,19.187,360.4153],[-103.4976,19.1746,357.733],[-103.5031,19.1702,369.8714],[-103.5021,19.1625,334.5385],[-103.5092,19.156,328.2343],[-103.5097,19.1489,369.6529],[-103.512,19.1465,392.0659],[-103.514,19.1383,362.2857],[-103.511,19.132,380.5112],[-103.5196,19.1245,319.5928],[-103.5236,19.1156,300.4383],[-103.5207,19.1117,292.5215],[-103.5211,19.102,309.6744],[-103.5174,19.0988,350.2065],[-103.5223,19.0928,300.2171],[-103.5265,19.0787,330.4263],[-103.5222,19.0767,249.9804],[-103.5226,19.0662,266.6768],[-103.517,19.061,238.8232],[-103.5094,19.0576,297.5945],[-103.5066,19.0494,234.9951],[-103.5013,19.0487,247.1624],[-103.4969,19.0417,233.7905],[-103.497,19.0352,248.3301],[-103.4909,19.0327,228.5545],[-103.491,19.0298,208.0098],[-103.4885,19.0276,232.7941],[-103.494,19.0218,217.1698],[-103.4945,19.0147,194.088],[-103.4988,19.0117,182.5637],[-103.4968,19.0113,190.9498],[-103.4939,19.0069,183.344],[-103.4908,18.9958,199.7358],[-103.4922,18.9871,183.9014],[-103.4899,18.9808,165.5],[-103.4957,18.972,184.0387],[-103.4944,18.9701,190.7204],[-103.4895,18.9687,150.5124],[-103.4886,18.9649,154.9478]]]]}}