{"type": "Feature","bbox": [-96.62,17.4638,-96.394,17.5708],"geometry": {"type": "MultiPolygon","coordinates": [[[[-96.5827,17.4638,1215.9957],[-96.5711,17.465699999999998,1516.1385],[-96.5591,17.471,2033.1287],[-96.5504,17.4704,2145.1084],[-96.5463,17.4733,2198.343],[-96.5301,17.4735,2568.7705],[-96.5228,17.4771,2751.0156],[-96.513,17.4767,2929.7383],[-96.4995,17.481,2819.0935],[-96.496,17.485,2692.7803],[-96.4857,17.486,2567.998],[-96.4833,17.4884,2567.7349],[-96.4827,17.4944,2440.2678],[-96.4784,17.5028,2384.0566],[-96.4757,17.5071,2272.7285],[-96.4708,17.5105,2242.7292],[-96.4726,17.5108,2245.2122],[-96.4714,17.5123,2206.8135],[-96.4732,17.512,2245.2122],[-96.4722,17.5134,2219.5547],[-96.4612,17.517,2129.7578],[-96.458,17.515,2177.4756],[-96.4449,17.5184,2001.5614],[-96.4372,17.5173,1969.4874],[-96.4265,17.5231,1895.9525],[-96.4257,17.529,1895.411],[-96.4181,17.5308,1838.8733],[-96.4161,17.5292,1821.1666],[-96.4121,17.5305,1816.1136],[-96.4081,17.5356,1758.161],[-96.4012,17.5369,1801.2856],[-96.3961,17.5442,1653.1167],[-96.3985,17.5491,1684.8364],[-96.3959,17.5526,1721.9573],[-96.394,17.5617,1593.6565],[-96.3958,17.57,1625.0049],[-96.4018,17.5632,1951.9001],[-96.4118,17.5577,2313.9202],[-96.4166,17.5522,2556.7095],[-96.424,17.5564,2571.0493],[-96.4285,17.5532,2494.0505],[-96.4449,17.55,2916.8391],[-96.4529,17.554,2977.3208],[-96.4874,17.5598,3023.334],[-96.5211,17.5547,2844.2983],[-96.5284,17.5525,2826.3569],[-96.5362,17.5472,2717.7815],[-96.5436,17.5539,2418.7041],[-96.547,17.5505,2389.791],[-96.553,17.5485,2449.4873],[-96.5599,17.5522,2251.1099],[-96.5649,17.5505,2126.1748],[-96.5727,17.5509,2039.043],[-96.583,17.5575,1596.0399],[-96.5811,17.5589,1598.2168],[-96.5868,17.5642,1504.1084],[-96.5854,17.5708,1767.8171],[-96.5899,17.5633,1436.6135],[-96.6046,17.5593,1482.9994],[-96.6105,17.5603,1506.6614],[-96.62,17.5582,1094.6078],[-96.6171,17.5577,1108.1672],[-96.6185,17.5547,1206.5955],[-96.6157,17.5511,1260.9147],[-96.6152,17.5473,1160.0372],[-96.6124,17.5461,1117.8413],[-96.6119,17.5433,1115.8672],[-96.6094,17.5415,1122.7098],[-96.6114,17.5387,1126.0323],[-96.6103,17.5338,1178.5385],[-96.6118,17.5331,1173.4883],[-96.6115,17.528,1150.9116],[-96.607,17.5285,1150.3359],[-96.605,17.5268,1148.9863],[-96.6034,17.5187,1163.0033],[-96.5982,17.5117,1158.3586],[-96.6019,17.5052,1290.0696],[-96.601,17.4997,1284.728],[-96.5971,17.4981,1175.2798],[-96.5923,17.49,1189.7299],[-96.5856,17.483,1220.5538],[-96.5848,17.479,1209.498],[-96.5881,17.4753,1239.4502],[-96.5851,17.4734,1218.4111],[-96.5865,17.4692,1218.5962],[-96.5823,17.465,1215.9957],[-96.5827,17.4638,1215.9957]]]]}
,"properties": {"GID_2": "MEX.20.298_2","GID_0": "MEX","country": "México","GID_1": "MEX.20_1","province": "Oaxaca","NL_NAME_1": "NA","county": "SanPabloMacuiltianguis","VARNAME_2": "NA","NL_NAME_2": "NA","TYPE_2": "Município","ENGTYPE_2": "Municipality","CC_2": "NA","HASC_2": "NA","name": "San_Pablo_Macuiltianguis.county","area_km2": 149.9605,"hist_schema_id": "Elevation0-9000","hist_area_km2": {"1100": 0.1011,"1125": 0.2426,"1150": 0.5459,"1175": 0.7077,"1200": 0.9908,"1225": 1.3143,"1250": 1.0109,"1275": 1.3344,"1300": 1.1928,"1325": 1.4557,"1350": 1.6174,"1375": 1.4759,"1400": 1.7388,"1425": 1.5164,"1450": 1.6175,"1475": 1.3748,"1500": 1.5366,"1525": 1.4153,"1550": 1.3749,"1575": 1.112,"1600": 1.6984,"1625": 1.476,"1650": 1.3142,"1675": 1.6377,"1700": 1.5568,"1725": 1.3749,"1750": 1.6984,"1775": 1.5366,"1800": 1.5164,"1825": 1.7388,"1850": 1.5569,"1875": 1.4356,"1900": 1.5973,"1925": 1.5164,"1950": 1.9814,"1975": 1.5568,"2000": 2.3252,"2025": 2.0826,"2050": 2.2848,"2075": 1.9208,"2100": 1.8602,"2125": 2.1635,"2150": 2.4668,"2175": 2.4465,"2200": 2.2443,"2225": 2.6689,"2250": 2.3857,"2275": 2.6891,"2300": 2.3656,"2325": 2.4666,"2350": 2.6891,"2375": 2.4261,"2400": 2.6486,"2425": 2.8508,"2450": 2.5879,"2475": 3.2349,"2500": 2.4059,"2525": 3.1944,"2550": 3.0529,"2575": 3.4775,"2600": 2.79,"2625": 2.8912,"2650": 3.1136,"2675": 3.2551,"2700": 2.871,"2725": 3.4977,"2750": 2.507,"2775": 2.7902,"2800": 2.406,"2825": 2.4262,"2850": 1.9005,"2875": 1.9814,"2900": 1.7388,"2925": 1.5973,"2950": 1.0918,"2975": 0.7278,"3000": 0.7076,"3025": 0.5256,"3050": 0.2224,"3075": 0.3032,"3100": 0.2021,"3125": 0.2224,"3150": 0.1415,"3175": 0.1415,"3200": 0.1011}}}