{"type":"Feature","properties":{"ISO3166-1-Alpha-3":"MEX","country":"Mexico","fill":"#FF0","id":"2735","name":"Chiapas"},
"geometry":{"type": "MultiPolygon","coordinates": [[[[-93.97061,16.00979,0.0],[-93.98534,16.01797,0.0],[-94.01915,16.03107,0.0],[-94.03038,16.03974,0.0],[-94.05667,16.07575,0.0],[-94.08218,16.09475,0.0],[-94.09403,16.09897,0.0],[-94.11486,16.0572,4.6983],[-93.9639,15.9975,0.0],[-93.97061,16.00979,0.0]]],
[[[-93.08757,17.9003,9.0928],[-93.12043,17.92211,10.3857],[-93.14209,17.94955,11.7125],[-93.16617,17.96082,12.7226],[-93.18648,17.97441,14.4856],[-93.19588,17.97895,14.4489],[-93.23149,17.98433,12.6786],[-93.2565,17.99229,18.0251],[-93.27102,17.99368,18.2518],[-93.28239,17.98805,13.625],[-93.29484,17.97208,20.2301],[-93.30166,17.96743,17.9261],[-93.31345,17.96387,19.3652],[-93.31572,17.94221,21.2013],[-93.33866,17.88454,25.8484],[-93.35809,17.82553,28.5692],[-93.37577,17.76579,38.9464],[-93.39344,17.70631,32.74],[-93.39768,17.68982,36.8075],[-93.40114,17.67117,35.313],[-93.409,17.65195,34.9335],[-93.41442,17.63768,37.0084],[-93.42755,17.6274,36.2064],[-93.44346,17.61825,37.1929],[-93.45742,17.60756,41.1468],[-93.46749,17.59598,42.4622],[-93.47054,17.59009,61.1624],[-93.47261,17.57283,52.8492],[-93.47514,17.57066,53.3939],[-93.47922,17.57076,57.737],[-93.4847,17.56725,60.6369],[-93.48873,17.56394,72.0535],[-93.50584,17.55299,69.4406],[-93.51142,17.54637,64.7811],[-93.51746,17.53454,59.0118],[-93.52227,17.52875,72.1371],[-93.52682,17.51542,87.4111],[-93.53524,17.49025,61.7843],[-93.54878,17.46157,127.1535],[-93.56242,17.43289,148.7927],[-93.57596,17.40416,425.3476],[-93.5895,17.37553,239.9897],[-93.59374,17.36561,258.2859],[-93.59798,17.35579,335.7084],[-93.60221,17.34587,252.1225],[-93.60645,17.33605,348.278],[-93.61854,17.3161,732.3848],[-93.63663,17.29998,439.188],[-93.6574,17.28623,397.0603],[-93.67766,17.27383,191.7578],[-93.71435,17.24996,543.6427],[-93.75104,17.22608,149.4579],[-93.78773,17.20221,287.0307],[-93.82437,17.17838,621.9993],[-93.83605,17.17012,538.8051],[-93.84804,17.16159,552.5264],[-93.86044,17.15446,398.6223],[-93.87341,17.15022,498.5457],[-93.86597,17.12485,641.4816],[-93.86483,17.09632,324.4226],[-93.86659,17.06738,306.5269],[-93.86809,17.04056,601.3326],[-93.86742,17.03374,617.3902],[-93.86747,17.02645,669.3765],[-93.86783,17.01917,682.5186],[-93.86809,17.01219,665.2554],[-93.89429,17.0172,772.3114],[-93.9053,17.00051,920.2957],[-93.90752,16.97338,1076.2001],[-93.90726,16.94744,883.1985],[-93.90679,16.93354,791.1924],[-93.90607,16.9123,530.0515],[-93.90695,16.89194,646.5287],[-93.91129,16.88068,451.0005],[-93.92571,16.87189,395.2749],[-93.94013,16.86311,399.0741],[-93.95454,16.85432,597.9172],[-93.96891,16.84554,495.7918],[-93.98607,16.83654,646.2296],[-94.00829,16.82543,619.7899],[-94.02901,16.81319,783.5371],[-94.04146,16.80053,884.1586],[-94.04467,16.78032,853.428],[-94.04229,16.75329,1057.8151],[-94.03774,16.72575,1311.0042],[-94.03469,16.70405,1184.0493],[-94.03397,16.68291,1116.7509],[-94.03537,16.6626,1313.2126],[-94.03981,16.64286,1462.5713],[-94.04813,16.62353,1125.3409],[-94.0734,16.58989,1283.4944],[-94.10492,16.55036,1000.6379],[-94.12508,16.50881,882.3966],[-94.11588,16.46902,1049.4969],[-94.10554,16.45166,1029.8752],[-94.09665,16.43316,534.9345],[-94.08854,16.41424,435.8347],[-94.08048,16.39554,490.652],[-94.06751,16.36918,515.1134],[-94.05201,16.33632,213.8428],[-94.03986,16.30257,458.6979],[-94.03686,16.27327,229.7587],[-94.03929,16.25477,571.383],[-94.04229,16.23513,183.1683],[-94.04642,16.21591,21.8974],[-94.05242,16.1987,17.9952],[-94.06012,16.18501,13.4055],[-94.06916,16.17219,9.7641],[-94.07805,16.15938,5.5809],[-94.08361,16.14887,2.99],[-94.08361,16.14887,2.99],[-94.07376,16.14094,2.2218],[-94.04263,16.12531,0.541],[-93.92296,16.09992,3.8334],[-93.8981,16.08893,0.604],[-93.88524,16.07083,0.5],[-93.87393,16.04853,0.0],[-93.85403,16.02485,1.6222],[-93.86539,16.01215,0.0],[-93.87804,16.0054,0.0],[-93.88907,16.00642,0.0],[-93.89562,16.0174,0.0],[-93.90709,16.01443,0.0],[-93.93118,16.01606,0.0],[-93.94339,16.01057,0.0],[-93.75919,15.90615,4.3766],[-93.65604,15.83926,2.5842],[-93.48815,15.70893,0.0],[-93.47081,15.70071,0.7085],[-93.22863,15.50186,0.0],[-93.19962,15.49099,12.179],[-93.1881,15.47757,2.5946],[-93.17003,15.44888,0.0],[-93.07811,15.34866,0.0],[-92.9982,15.29397,1.6188],[-92.98314,15.26557,0.0],[-92.96378,15.25381,0.0],[-92.923,15.23721,17.3968],[-92.86351,15.19111,20.2779],[-92.84667,15.18879,0.0],[-92.85973,15.20132,0.0],[-92.85403,15.20852,7.4344],[-92.84317,15.20588,12.2965],[-92.84044,15.18879,13.2764],[-92.82433,15.19269,17.6504],[-92.80297,15.1883,17.7069],[-92.78226,15.17988,16.9931],[-92.76842,15.17145,0.0],[-92.75634,15.15412,14.4177],[-92.74816,15.11298,19.7309],[-92.73742,15.0926,0.0],[-92.75316,15.09842,6.9046],[-92.76403,15.11294,20.0909],[-92.77017,15.13174,14.5528],[-92.77212,15.15034,21.7592],[-92.78087,15.15884,15.9583],[-92.824,15.1728,15.3024],[-92.84044,15.18195,6.7691],[-92.84061,15.16116,12.2266],[-92.82486,15.13565,11.3066],[-92.69986,14.99909,8.0286],[-92.50784,14.80707,3.2175],[-92.38207,14.68464,9.539],[-92.30594,14.61506,10.1974],[-92.25076,14.55073,0.0],[-92.24625,14.54629,0.0],[-92.24623,14.54628,0.0],[-92.2261,14.54935,4.4144],[-92.20806,14.57051,7.6036],[-92.18607,14.62957,15.74],[-92.16473,14.66815,30.301],[-92.1608,14.6835,27.7876],[-92.16173,14.70233,28.9185],[-92.17938,14.75158,46.4011],[-92.18011,14.75879,59.6147],[-92.17881,14.77339,62.9251],[-92.17938,14.78124,66.7329],[-92.18866,14.80589,81.2764],[-92.19083,14.81424,84.6999],[-92.19165,14.8353,106.7952],[-92.1868,14.84726,123.7766],[-92.16602,14.87082,167.7995],[-92.15468,14.9008,225.4281],[-92.15757,14.96304,399.0044],[-92.15422,14.99593,522.2219],[-92.14236,15.00748,527.0202],[-92.12988,15.01095,587.7795],[-92.11698,15.01239,617.8286],[-92.10383,15.01787,781.9989],[-92.0936,15.02942,918.7852],[-92.07381,15.07371,1275.4258],[-92.20336,15.23716,2060.1411],[-92.21093,15.25336,2578.3115],[-92.21129,15.27207,2480.7324],[-92.20465,15.28951,2031.2089],[-92.18618,15.32038,1685.5598],[-92.13745,15.40183,1648.7614],[-92.10593,15.45447,896.2643],[-92.06854,15.51694,1871.8501],[-91.9896,15.64897,933.6301],[-91.91056,15.78095,650.1542],[-91.84168,15.89609,671.3491],[-91.79297,15.97758,1081.1937],[-91.77447,16.00843,1107.8949],[-91.75189,16.04631,1322.5061],[-91.73985,16.06098,1552.5161],[-91.72378,16.06879,1622.6132],[-91.6784,16.06889,1523.2202],[-91.54048,16.06915,1074.621],[-91.40261,16.0693,726.9376],[-91.26479,16.06951,334.215],[-91.12691,16.06977,217.007],[-90.9948,16.06987,194.9662],[-90.98899,16.06987,202.2387],[-90.85112,16.07013,178.6646],[-90.7133,16.07034,229.7205],[-90.57547,16.0706,167.3141],[-90.48574,16.0707,153.0399],[-90.46615,16.07292,147.4545],[-90.4482,16.07926,130.3085],[-90.44814,16.07928,130.3085],[-90.44784,16.07969,130.3085],[-90.44416,16.08465,131.9764],[-90.43742,16.09886,129.1169],[-90.43448,16.10718,128.3212],[-90.44021,16.10486,129.1884],[-90.44274,16.10419,130.8725],[-90.44453,16.10326,129.8461],[-90.44814,16.09974,129.3636],[-90.45559,16.09974,125.5],[-90.45949,16.1168,153.2964],[-90.4353,16.13628,127.2706],[-90.44814,16.14821,149.8273],[-90.44814,16.15442,125.4852],[-90.42613,16.16315,122.0],[-90.43272,16.17323,125.4299],[-90.46181,16.18914,140.8687],[-90.46558,16.20811,125.0014],[-90.4585,16.22175,125.5374],[-90.44623,16.23085,125.7963],[-90.43448,16.23632,130.0833],[-90.44799,16.24149,122.6665],[-90.45783,16.24914,125.5043],[-90.45943,16.25906,127.2088],[-90.44814,16.2711,124.6679],[-90.44373,16.26686,122.1272],[-90.44062,16.26531,122.4675],[-90.42768,16.26361,121.7515],[-90.43143,16.26893,122.6182],[-90.43752,16.28004,120.969],[-90.4413,16.28536,120.0579],[-90.43675,16.28485,121.3347],[-90.43551,16.28624,130.0531],[-90.43551,16.28877,119.5083],[-90.43448,16.29156,121.3004],[-90.42856,16.28764,121.3328],[-90.42024,16.28536,121.4877],[-90.41406,16.28784,120.8085],[-90.41401,16.29839,120.8818],[-90.42019,16.29601,121.1189],[-90.43473,16.30123,121.0412],[-90.44489,16.30836,125.93],[-90.43789,16.31208,136.4317],[-90.41946,16.31782,138.8672],[-90.40468,16.33151,118.6009],[-90.39879,16.34758,116.9814],[-90.40719,16.36045,115.5],[-90.41401,16.36045,116.6591],[-90.41401,16.35301,117.571],[-90.42081,16.35301,156.2796],[-90.41822,16.36717,133.7991],[-90.40874,16.37234,119.3645],[-90.39512,16.3714,118.19],[-90.37985,16.36727,117.8892],[-90.39138,16.38598,121.8988],[-90.39269,16.39171,123.0477],[-90.3929,16.40484,117.4325],[-90.39492,16.41921,117.3397],[-90.4006,16.42055,126.1567],[-90.40946,16.41667,118.3936],[-90.42081,16.41512,131.9917],[-90.4267,16.41771,120.027],[-90.43411,16.42241,115.4058],[-90.44437,16.4268,117.5354],[-90.47584,16.43073,120.9685],[-90.47843,16.43641,114.1519],[-90.47708,16.44499,113.0105],[-90.4823,16.45605,115.2831],[-90.48822,16.46158,111.6439],[-90.49775,16.46804,113.0241],[-90.50892,16.47109,113.2434],[-90.53289,16.45993,109.503],[-90.53907,16.46887,114.0282],[-90.54372,16.49021,114.8156],[-90.55341,16.49026,123.1522],[-90.57935,16.48277,116.8225],[-90.58472,16.48024,111.4655],[-90.59062,16.48339,111.9669],[-90.60467,16.48618,112.1822],[-90.62074,16.48675,112.9401],[-90.63309,16.48334,112.2185],[-90.62787,16.4929,112.4789],[-90.61899,16.50008,112.0399],[-90.61206,16.50762,112.6257],[-90.61263,16.51811,104.0],[-90.62415,16.52494,123.4496],[-90.6395,16.52587,113.3557],[-90.64818,16.52959,113.8772],[-90.63997,16.54483,120.7459],[-90.64353,16.56101,111.3062],[-90.63702,16.5779,116.8504],[-90.63377,16.59217,121.7993],[-90.64736,16.60007,128.4553],[-90.65025,16.59341,116.9274],[-90.65361,16.5901,114.9676],[-90.65883,16.58845,114.3027],[-90.6672,16.587,114.7994],[-90.6672,16.5932,102.5],[-90.65402,16.61661,117.1657],[-90.66772,16.65258,104.871],[-90.73531,16.74658,153.5237],[-90.74978,16.75769,156.5249],[-90.78559,16.775,111.2054],[-90.80037,16.78683,105.7818],[-90.79696,16.79867,105.0148],[-90.79696,16.80544,108.5055],[-90.8106,16.81293,111.4425],[-90.81996,16.80533,109.7914],[-90.83174,16.80544,173.6576],[-90.90062,16.826,101.6592],[-90.91907,16.83634,101.9279],[-90.94816,16.86471,95.0],[-90.96889,16.87437,97.6608],[-90.95276,16.89091,109.8581],[-90.95519,16.89876,102.9135],[-90.96884,16.90104,123.4943],[-90.98625,16.90109,175.9278],[-90.98796,16.8969,141.4873],[-90.98429,16.88776,124.4993],[-90.98325,16.87861,171.4002],[-90.99307,16.87437,115.1025],[-90.99834,16.87716,283.1044],[-91.0109,16.89029,189.4667],[-91.01669,16.89484,208.4666],[-91.05493,16.90801,179.519],[-91.06687,16.91819,108.8969],[-91.07131,16.93892,247.3082],[-91.07694,16.94951,288.1378],[-91.11224,16.99049,278.0029],[-91.11611,16.99927,252.2238],[-91.12123,17.01839,185.1955],[-91.12655,17.0246,234.9289],[-91.13715,17.02651,230.1972],[-91.16123,17.02397,223.222],[-91.1712,17.02801,236.4305],[-91.20675,17.06537,106.1588],[-91.21595,17.07922,105.8737],[-91.22024,17.08929,135.5919],[-91.22536,17.10702,159.2946],[-91.22959,17.114,194.5026],[-91.23879,17.11921,181.9079],[-91.25921,17.12433,293.8242],[-91.26313,17.13074,288.2521],[-91.26515,17.14624,243.5609],[-91.27083,17.16428,224.6794],[-91.27951,17.18009,68.5],[-91.29042,17.18908,129.9543],[-91.31775,17.19048,279.1312],[-91.34452,17.18634,299.9202],[-91.36488,17.18975,264.3773],[-91.37295,17.21358,232.9742],[-91.38834,17.22159,268.5687],[-91.41925,17.22774,259.7151],[-91.4425,17.23797,132.3141],[-91.43826,17.25368,148.372],[-91.43327,17.25454,225.1386],[-91.43583,17.25812,63.1455],[-91.43976,17.27109,358.6039],[-91.43883,17.28763,430.4596],[-91.43475,17.30303,255.2367],[-91.42901,17.31274,116.6638],[-91.41609,17.31703,62.2788],[-91.40193,17.31631,124.3214],[-91.39098,17.31889,58.3792],[-91.38741,17.33326,283.2282],[-91.39108,17.33656,278.1144],[-91.41475,17.37481,318.5019],[-91.42374,17.38566,282.7067],[-91.43144,17.38938,308.1165],[-91.45258,17.38845,387.6154],[-91.46565,17.38979,366.9708],[-91.48033,17.39403,322.5724],[-91.49232,17.40147,310.2049],[-91.49728,17.41237,53.832],[-91.49237,17.44198,21.5332],[-91.49273,17.45707,17.1603],[-91.50069,17.46359,26.773],[-91.50984,17.46782,25.0576],[-91.51655,17.47371,28.5612],[-91.53671,17.48147,17.5649],[-91.558,17.48829,36.789],[-91.57624,17.49454,73.1442],[-91.57955,17.49583,66.8325],[-91.58285,17.49723,51.2632],[-91.58621,17.49857,40.2995],[-91.58952,17.49986,39.8763],[-91.6074,17.50591,30.3621],[-91.62786,17.51356,24.4304],[-91.64471,17.52493,13.1742],[-91.65174,17.54193,18.7032],[-91.65112,17.55206,22.2072],[-91.65009,17.56131,18.3097],[-91.64962,17.57092,12.1133],[-91.65086,17.58218,15.1761],[-91.65758,17.61526,9.2321],[-91.66672,17.65102,7.9941],[-91.67975,17.68528,4.5],[-91.69814,17.7136,7.0039],[-91.71881,17.7199,4.5],[-91.73928,17.72161,9.0011],[-91.76016,17.72109,42.617],[-91.78155,17.72088,17.6028],[-91.79426,17.72884,18.5929],[-91.79127,17.74595,7.4196],[-91.78145,17.76455,11.8629],[-91.77556,17.77432,7.6692],[-91.77938,17.80496,8.1511],[-91.78139,17.81013,5.3268],[-91.78372,17.81442,6.8814],[-91.78527,17.82046,6.8762],[-91.78403,17.8402,7.2214],[-91.78527,17.84656,11.6421],[-91.79922,17.86935,9.2839],[-91.81876,17.88542,9.1443],[-91.84036,17.88909,8.9284],[-91.86041,17.87446,14.0848],[-91.88619,17.88609,6.9732],[-91.89994,17.8893,7.3023],[-91.91498,17.88816,7.0811],[-91.92624,17.88227,8.1813],[-91.93182,17.87348,4.8516],[-91.93596,17.86346,6.3235],[-91.94294,17.854,4.7564],[-91.95394,17.8678,2.0],[-91.95353,17.90232,9.3552],[-91.96686,17.90924,2.0],[-91.97348,17.90873,6.7494],[-91.99559,17.90475,8.0569],[-92.02536,17.8863,3.8155],[-92.05249,17.85891,4.7952],[-92.07781,17.83276,11.3036],[-92.06081,17.80263,15.8397],[-92.08076,17.78729,18.517],[-92.11683,17.78336,24.719],[-92.14814,17.7878,12.5279],[-92.16845,17.77354,17.5266],[-92.19165,17.76016,22.6796],[-92.21646,17.74843,17.1367],[-92.24168,17.73928,14.3532],[-92.27248,17.73199,14.2843],[-92.30901,17.72393,7.301],[-92.34348,17.71298,3.0],[-92.36808,17.69685,6.7117],[-92.37624,17.66523,14.8656],[-92.37521,17.64073,11.5568],[-92.38301,17.62332,13.0346],[-92.41779,17.61303,249.7754],[-92.43949,17.60735,185.4579],[-92.45929,17.59298,181.3679],[-92.47711,17.57484,259.8209],[-92.49319,17.55826,131.1966],[-92.51474,17.54022,30.4784],[-92.53623,17.52219,25.778],[-92.55783,17.50415,94.1921],[-92.57933,17.48612,523.9802],[-92.58925,17.47723,332.6258],[-92.59912,17.46829,522.8441],[-92.60899,17.45935,835.3232],[-92.61886,17.45036,1020.2173],[-92.63421,17.43697,620.3903],[-92.64951,17.42354,443.3918],[-92.66475,17.41015,367.0618],[-92.68005,17.39672,87.6148],[-92.68387,17.39341,203.7689],[-92.68775,17.39015,111.1865],[-92.69157,17.38685,125.2951],[-92.69545,17.38354,193.1333],[-92.7232,17.36561,237.2019],[-92.75524,17.36426,210.2181],[-92.78728,17.37413,555.7062],[-92.81529,17.38979,803.9377],[-92.82934,17.40183,826.2138],[-92.84216,17.41661,975.1002],[-92.85378,17.43258,714.5762],[-92.86427,17.44808,611.9072],[-92.88226,17.47826,232.7695],[-92.89373,17.50606,304.8717],[-92.91021,17.5258,346.0363],[-92.94318,17.53159,258.0032],[-92.96871,17.53149,72.1192],[-92.98313,17.54213,140.0217],[-92.98974,17.56125,94.2624],[-92.99186,17.58621,20.9877],[-92.99197,17.62781,18.0741],[-93.00132,17.66817,11.9346],[-93.01073,17.70827,12.4326],[-93.01114,17.74884,7.497],[-93.00664,17.76532,6.0],[-93.0006,17.77985,6.5],[-92.99476,17.79411,18.2002],[-92.99088,17.80971,20.5397],[-92.98985,17.82739,13.2401],[-92.99078,17.84558,6.3605],[-92.99233,17.86377,3.0],[-92.99341,17.88165,4.9107],[-92.99367,17.8834,7.1401],[-92.99388,17.88527,9.3144],[-92.99414,17.88713,5.2193],[-92.9944,17.88899,4.8415],[-92.9946,17.90945,6.0902],[-92.99553,17.91555,6.6014],[-92.99791,17.93291,8.1467],[-93.01078,17.91245,9.1649],[-93.03222,17.91544,7.5765],[-93.05455,17.89467,9.8594],[-93.08757,17.9003,9.0928]]]]}}