{"type":"Feature","properties":{"featurecla":"River","scalerank":12,"rivernum":22202,"dissolve":"22202River","name":"Negro","name_alt":null,"note":"ID is link back to CEC data","name_full":"Ro Negro","min_zoom":7.0,"strokeweig":0.2,"uident":2049201,"min_label":8.0},
"geometry":{"type": "LineString","coordinates": [[-93.775135871478724,16.992743231244035,580.6506],[-93.798573371478724,16.969102280723206,589.8293],[-93.799387173562067,16.968329168744035,614.8306],[-93.8075251943954,16.952337957806535,794.5563],[-93.835560676166224,16.929999090619035,342.7537],[-93.852365689187067,16.923122463014863,397.3489],[-93.8619685537704,16.915716864056535,606.7591],[-93.873768683978724,16.901190496869035,475.2628],[-93.888783332416224,16.900824285931535,381.3858],[-93.906971808978724,16.891913153119035,646.5287],[-93.9112849600204,16.880682684369035,451.0005],[-93.9256892568954,16.871893621869035,395.2749],[-93.9400935537704,16.863104559369035,399.0741],[-93.9544978506454,16.854315496869035,597.9172],[-93.9689021475204,16.845526434369035,495.7918],[-93.986073371478724,16.836533921348206,646.2296]]}}