{"type":"Feature","properties":{"GID_2":"MEX.26.28_2","GID_0":"MEX","country":"México","GID_1":"MEX.26_1","province":"Sonora","NL_NAME_1":"NA","county":"GeneralPlutarcoElíasCalles","VARNAME_2":"NA","NL_NAME_2":"NA","TYPE_2":"Município","ENGTYPE_2":"Municipality","CC_2":"NA","HASC_2":"NA","name":"General_Plutarco_Elías_Calles.county"},
"geometry":{"type": "MultiPolygon","coordinates": [[[[-112.3457,31.7335,518.845],[-113.4372,32.0709,211.7711],[-113.5107,31.9242,348.3637],[-113.4461,31.9003,382.6063],[-113.4294,31.9349,277.3835],[-113.3702,31.818,216.6324],[-113.2857,31.8214,185.1803],[-113.2927,31.7766,168.3596],[-113.2281,31.7694,175.6377],[-113.2309,31.7454,185.7099],[-113.1298,31.7492,233.3096],[-113.1297,31.7447,235.6313],[-113.1218,31.7422,239.2483],[-113.1156,31.7412,245.4829],[-113.108,31.7443,255.5201],[-113.1159,31.7132,231.5375],[-113.1099,31.716,236.6007],[-113.0985,31.6913,241.0896],[-113.0794,31.6987,254.7737],[-113.0335,31.6268,266.7067],[-113.0764,31.6068,258.1443],[-113.0528,31.5699,340.2645],[-113.0707,31.5171,208.19],[-113.0748,31.4992,214.6726],[-113.0045,31.4973,213.5131],[-113.0036,31.459,225.0081],[-113.0058,31.4418,204.9809],[-112.9807,31.4074,198.7726],[-112.915,31.4441,247.0199],[-112.9409,31.3825,208.9905],[-112.9364,31.38,212.2224],[-112.8618,31.4348,306.3198],[-112.8634,31.3648,237.6395],[-112.8296,31.3589,251.9185],[-112.8318,31.3248,262.8831],[-112.7903,31.3198,258.3676],[-112.785,31.3521,276.6102],[-112.7076,31.3521,341.0122],[-112.7082,31.3807,352.58],[-112.6981,31.3851,363.2589],[-112.6978,31.3878,367.1952],[-112.6663,31.3882,395.6935],[-112.6667,31.4209,425.2116],[-112.6692,31.4202,433.8344],[-112.6757,31.4242,430.0464],[-112.6752,31.4281,435.4575],[-112.6975,31.4688,464.6489],[-112.6995,31.482,464.0613],[-112.6575,31.5103,512.1719],[-112.6571,31.5599,560.2179],[-112.5906,31.5599,589.9488],[-112.5792,31.5646,582.9047],[-112.5794,31.5803,570.9584],[-112.5372,31.5804,566.482],[-112.5372,31.5985,552.0286],[-112.5067,31.5985,552.6309],[-112.5057,31.5857,561.7494],[-112.495,31.5855,563.012],[-112.4944,31.5985,553.2521],[-112.4826,31.5985,554.8423],[-112.4829,31.6165,551.2594],[-112.4877,31.6167,538.7373],[-112.4878,31.6257,531.8252],[-112.495,31.626,534.031],[-112.4949,31.63,531.6166],[-112.4848,31.6297,530.2059],[-112.4843,31.6255,532.7526],[-112.4738,31.6255,535.9078],[-112.4738,31.6204,540.9286],[-112.447,31.6234,540.6966],[-112.4377,31.621,542.9462],[-112.4205,31.6299,535.1354],[-112.3485,31.6155,558.7035],[-112.3462,31.6243,555.7699],[-112.3155,31.6183,567.3873],[-112.3102,31.6356,560.1779],[-112.3413,31.6419,550.4545],[-112.3376,31.6512,546.3479],[-112.348,31.6544,542.8299],[-112.3462,31.6616,540.4813],[-112.3524,31.6643,537.6005],[-112.3501,31.6796,531.045],[-112.3468,31.683,530.9977],[-112.3457,31.7335,518.845]]]]}}