{"type":"Feature","properties":{"GID_2":"MEX.20.53_2","GID_0":"MEX","country":"México","GID_1":"MEX.20_1","province":"Oaxaca","NL_NAME_1":"NA","county":"MagdalenaMixtepec","VARNAME_2":"NA","NL_NAME_2":"NA","TYPE_2":"Município","ENGTYPE_2":"Municipality","CC_2":"NA","HASC_2":"NA","name":"Magdalena_Mixtepec.county"},
"geometry":{"type": "MultiPolygon","coordinates": [[[[-96.848,16.8795,1688.2793],[-96.8506,16.88,1693.5984],[-96.8565,16.8859,1747.7096],[-96.8621,16.8868,1784.7175],[-96.8624,16.8856,1784.7175],[-96.8675,16.8851,1830.6296],[-96.875,16.887,1873.382],[-96.8794,16.8961,2013.9463],[-96.8834,16.8996,2067.959],[-96.8837,16.911,2318.0825],[-96.8818,16.9153,2469.8066],[-96.8848,16.9232,2306.4514],[-96.888,16.9449,2809.6226],[-96.8968,16.936,2803.1082],[-96.9016,16.9336,2811.7339],[-96.9034,16.9274,2801.4067],[-96.9064,16.9277,2731.7896],[-96.9093,16.9239,2696.6079],[-96.91,16.9249,2696.6079],[-96.9207,16.917,2553.9004],[-96.9218,16.911,2567.6272],[-96.9256,16.9039,2482.1855],[-96.9213,16.8928,2297.9661],[-96.9179,16.89,2201.0669],[-96.9192,16.8805,1864.8517],[-96.9295,16.8886,1934.4247],[-96.9353,16.8966,1990.7142],[-96.9427,16.8976,2198.7051],[-96.9489,16.9016,2369.9155],[-96.9551,16.9006,2566.3074],[-96.9639,16.9104,2799.1155],[-96.9698,16.906,2807.5081],[-96.9715,16.9013,2739.2773],[-96.9694,16.8917,2804.8911],[-96.9558,16.8854,2378.4927],[-96.9516,16.8861,2381.9778],[-96.9438,16.8842,2341.9451],[-96.936,16.8767,2198.5337],[-96.9292,16.8747,2151.062],[-96.9241,16.8642,1980.9865],[-96.9053,16.8724,2303.0891],[-96.8929,16.8747,2333.3889],[-96.8873,16.8712,2239.8745],[-96.8794,16.8747,2251.3806],[-96.8728,16.8739,2170.2122],[-96.8678,16.8785,2127.3174],[-96.865,16.8784,2141.3545],[-96.859,16.8723,1999.7571],[-96.848,16.8795,1688.2793]]]]}}