{"type":"Feature","properties":{"GID_2":"MEX.24.46_2","GID_0":"MEX","country":"México","GID_1":"MEX.24_1","province":"SanLuisPotosí","NL_NAME_1":"NA","county":"TierraNueva","VARNAME_2":"NA","NL_NAME_2":"NA","TYPE_2":"Município","ENGTYPE_2":"Municipality","CC_2":"NA","HASC_2":"NA","name":"Tierra_Nueva.county"},
"geometry":{"type": "MultiPolygon","coordinates": [[[[-100.2771,21.6865,1926.2291],[-100.2746,21.6951,2124.8398],[-100.277,21.6989,2067.2786],[-100.2762,21.7012,2055.1851],[-100.2788,21.7035,2069.1604],[-100.2789,21.7073,1987.7375],[-100.2858,21.7117,2019.3657],[-100.2872,21.7141,2069.7295],[-100.289,21.7139,2069.7295],[-100.299,21.7309,2315.4199],[-100.3042,21.7321,2157.2627],[-100.3051,21.7361,2267.9585],[-100.3074,21.738,2254.3247],[-100.3151,21.7384,2196.5999],[-100.3169,21.7413,2293.7842],[-100.3322,21.7251,1856.5981],[-100.3325,21.747,1923.2078],[-100.3543,21.7473,1930.7598],[-100.3577,21.7425,1891.4622],[-100.3657,21.738,1870.7119],[-100.3732,21.738,1995.7555],[-100.3796,21.7522,2093.0388],[-100.3998,21.7617,2446.4607],[-100.4021,21.7584,2418.9912],[-100.4006,21.7575,2418.9912],[-100.408,21.7544,2423.7439],[-100.4138,21.7456,2150.4377],[-100.4005,21.7311,1922.5627],[-100.4071,21.7281,1862.1702],[-100.4115,21.7346,2020.9539],[-100.4247,21.74,2198.2551],[-100.4368,21.738,1814.2378],[-100.4465,21.7398,1973.4421],[-100.4521,21.7311,2036.0538],[-100.4575,21.7284,2003.2224],[-100.4601,21.7324,1787.8218],[-100.4692,21.7323,1677.2472],[-100.469,21.7351,1708.0776],[-100.461,21.7401,2143.2852],[-100.4659,21.7431,1984.8796],[-100.4697,21.7419,1832.5872],[-100.4729,21.7383,1737.6801],[-100.48,21.738,1635.9827],[-100.4786,21.745,1777.647],[-100.4834,21.7426,1714.7417],[-100.4857,21.7487,1908.3568],[-100.4975,21.7531,1790.3357],[-100.505,21.7434,1556.094],[-100.5087,21.7438,1597.4395],[-100.5116,21.7457,1574.2931],[-100.5128,21.749,1580.3789],[-100.5165,21.7485,1576.3932],[-100.5269,21.7549,1579.4829],[-100.5267,21.7584,1586.7434],[-100.5289,21.761,1584.3735],[-100.5322,21.7607,1601.0536],[-100.533,21.7659,1604.0896],[-100.5352,21.7653,1591.9309],[-100.5352,21.7615,1616.4871],[-100.5368,21.7615,1590.6593],[-100.5509,21.7681,1612.8721],[-100.5512,21.7487,1673.5513],[-100.5539,21.7455,1708.0427],[-100.5528,21.7431,1754.8477],[-100.5545,21.7428,1754.8477],[-100.5559,21.7371,1837.0197],[-100.567,21.7357,1915.8086],[-100.5706,21.737,1862.7178],[-100.5761,21.7356,1830.7369],[-100.577,21.7338,1824.2285],[-100.58,21.7347,1881.093],[-100.5819,21.7325,1880.6847],[-100.585,21.7171,1766.1379],[-100.5997,21.7218,1755.7302],[-100.5949,21.7433,1786.0092],[-100.592,21.7448,1839.9664],[-100.5949,21.7467,1813.772],[-100.6032,21.7471,1826.817],[-100.6036,21.749,1882.3491],[-100.641,21.7506,1761.8091],[-100.634,21.7146,1768.8418],[-100.629,21.7092,1776.1497],[-100.6294,21.7024,1752.9731],[-100.6268,21.7015,1751.1361],[-100.6269,21.7,1748.4106],[-100.6339,21.6987,1764.8684],[-100.6342,21.6945,1758.9543],[-100.6382,21.6961,1772.3125],[-100.6397,21.6894,1783.1091],[-100.6345,21.685,1795.4175],[-100.6304,21.688,1767.2725],[-100.598,21.6461,1901.6899],[-100.6058,21.6375,1874.3025],[-100.607,21.6179,1898.1168],[-100.5951,21.6166,1909.4487],[-100.5932,21.622,1890.1625],[-100.5813,21.621,1847.491],[-100.5893,21.6169,1858.4656],[-100.5888,21.6126,1869.3488],[-100.594,21.6075,1875.7079],[-100.5941,21.5974,1890.6951],[-100.5899,21.595,1900.9812],[-100.5897,21.5917,1909.7288],[-100.5925,21.5891,1911.2275],[-100.5913,21.5834,1923.0331],[-100.5955,21.579,1929.1113],[-100.5956,21.571,1959.2332],[-100.6001,21.56,1993.6383],[-100.6023,21.5375,2144.127],[-100.5844,21.5223,2056.5857],[-100.582,21.5261,2050.1011],[-100.5773,21.5255,2037.7865],[-100.571,21.5301,2018.1532],[-100.5673,21.5291,2014.189],[-100.5646,21.5308,2019.9786],[-100.5594,21.5285,2000.3461],[-100.5562,21.5307,2012.5723],[-100.5469,21.5322,1970.5417],[-100.5392,21.5385,1951.9851],[-100.5355,21.539,1948.6589],[-100.534,21.5423,1941.877],[-100.466,21.5429,2291.4824],[-100.4611,21.5453,2353.8164],[-100.4599,21.5498,2399.5486],[-100.4648,21.5536,2360.4243],[-100.4554,21.5563,2337.5039],[-100.4607,21.5712,2173.1719],[-100.4715,21.5876,2134.9919],[-100.4808,21.5909,2069.4487],[-100.4857,21.5953,1986.8441],[-100.4776,21.6028,1799.5181],[-100.4705,21.6065,1739.9073],[-100.469,21.6129,1686.1155],[-100.4626,21.6208,1644.9086],[-100.4623,21.6233,1639.5179],[-100.4604,21.624,1633.9037],[-100.4592,21.6286,1615.4297],[-100.4616,21.6376,1584.355],[-100.4584,21.6391,1582.6929],[-100.4564,21.6423,1561.9913],[-100.4583,21.644,1595.6395],[-100.4556,21.6483,1550.4867],[-100.4571,21.6501,1540.7406],[-100.4528,21.6552,1527.853],[-100.4538,21.656,1522.2456],[-100.4523,21.6612,1521.5244],[-100.4488,21.6624,1527.8967],[-100.4513,21.6666,1492.3597],[-100.4452,21.672,1477.7383],[-100.4473,21.6749,1470.4268],[-100.443,21.6785,1450.6531],[-100.4393,21.6766,1495.0825],[-100.4346,21.6828,1431.5657],[-100.4333,21.6784,1448.15],[-100.4302,21.6787,1572.9784],[-100.4231,21.6751,1833.2583],[-100.409,21.6773,1612.0288],[-100.3986,21.6747,1602.34],[-100.3947,21.6782,1354.0619],[-100.3907,21.6788,1366.3934],[-100.3897,21.6813,1334.4521],[-100.3851,21.6792,1345.0621],[-100.3831,21.6793,1350.4434],[-100.3827,21.681,1364.9872],[-100.3755,21.6798,1647.2493],[-100.3514,21.6917,1663.3052],[-100.3221,21.6821,1854.8818],[-100.2771,21.6865,1926.2291]]]]}}