{"type":"Feature","properties":{"GID_2":"MEX.14.112_2","GID_0":"MEX","country":"México","GID_1":"MEX.14_1","province":"Jalisco","NL_NAME_1":"NA","county":"ValledeGuadalupe","VARNAME_2":"NA","NL_NAME_2":"NA","TYPE_2":"Município","ENGTYPE_2":"Municipality","CC_2":"NA","HASC_2":"NA","name":"Vallede_Guadalupe.county"},
"geometry":{"type": "MultiPolygon","coordinates": [[[[-102.8166,21.0695,1610.2129],[-102.8147,21.0645,1525.491],[-102.8248,21.06,1620.717],[-102.817,21.052,1570.0803],[-102.8138,21.0434,1505.6047],[-102.8146,21.0405,1506.5771],[-102.8196,21.0371,1516.9485],[-102.8194,21.0346,1515.2791],[-102.8158,21.0349,1503.5571],[-102.8102,21.0302,1542.981],[-102.8042,21.0303,1506.6963],[-102.7975,21.0272,1484.6381],[-102.7911,21.0332,1487.8193],[-102.7898,21.0311,1498.0786],[-102.7867,21.0306,1505.2339],[-102.7866,21.0276,1505.1215],[-102.7815,21.028,1536.1504],[-102.7803,21.0259,1522.9451],[-102.7733,21.0302,1558.3348],[-102.7712,21.0361,1574.259],[-102.7669,21.0355,1562.5725],[-102.7675,21.0379,1630.1981],[-102.7644,21.0425,1663.1943],[-102.7608,21.0403,1655.4631],[-102.7628,21.036,1654.5441],[-102.7576,21.0315,1667.6406],[-102.7434,21.0362,1686.6405],[-102.7378,21.0315,1734.4709],[-102.7344,21.0376,1738.3724],[-102.7309,21.0394,1726.6565],[-102.729,21.0359,1735.0485],[-102.725,21.0337,1750.5039],[-102.7305,21.0242,1802.2402],[-102.7299,21.0193,1837.1149],[-102.7279,21.019,1817.1165],[-102.727,21.0147,1829.475],[-102.7228,21.0086,1861.3501],[-102.7262,21.0029,2008.1486],[-102.6957,21.006,1888.5925],[-102.6858,21.0035,1868.8887],[-102.6863,21.0002,1910.3239],[-102.6887,20.9989,1918.5779],[-102.6875,20.9919,1980.0607],[-102.6886,20.9913,1946.4946],[-102.6865,20.9885,2025.2723],[-102.6901,20.986,2043.6929],[-102.6902,20.9819,2014.8929],[-102.6868,20.9815,2011.4534],[-102.6871,20.9801,2004.4381],[-102.6766,20.9703,1944.0649],[-102.6745,20.9659,1901.3381],[-102.6691,20.962,1882.7961],[-102.6669,20.9635,1889.454],[-102.666,20.9671,1882.9821],[-102.6639,20.9665,1881.7365],[-102.6609,20.9698,1872.317],[-102.6583,20.9736,1877.8749],[-102.659,20.9767,1855.3073],[-102.6524,20.9769,1863.7782],[-102.6523,20.9816,1855.3717],[-102.6489,20.982,1870.0247],[-102.6463,20.975,1884.99],[-102.6437,20.9733,1886.5763],[-102.6568,20.9602,1900.0724],[-102.6496,20.9584,1901.1703],[-102.6487,20.9547,1911.1718],[-102.6436,20.9525,1935.8054],[-102.6443,20.9476,1988.0114],[-102.6377,20.9476,2002.6621],[-102.6333,20.9447,2002.2261],[-102.624,20.9429,1997.795],[-102.616,20.9424,1990.229],[-102.6116,20.9451,1983.913],[-102.606,20.9447,1973.658],[-102.6022,20.9493,1979.2465],[-102.5969,20.9509,1979.2734],[-102.591,20.949,1973.0104],[-102.5831,20.951,1971.6805],[-102.583,20.9535,1974.4548],[-102.5795,20.9542,1969.386],[-102.5802,20.9586,1975.7546],[-102.5819,20.9587,1976.1487],[-102.5797,20.9592,1975.9497],[-102.576,20.9662,1965.3627],[-102.5687,20.9722,1911.6993],[-102.5647,20.9712,1845.8065],[-102.5614,20.9769,1842.8069],[-102.5617,20.9828,1849.001],[-102.563,20.9827,1849.001],[-102.5678,20.9894,1835.9838],[-102.5716,20.9909,1836.2769],[-102.5733,20.9967,1857.9137],[-102.5727,21.0017,1890.8546],[-102.5653,21.0092,1940.9976],[-102.5614,21.0106,1951.256],[-102.5499,21.0199,1978.1818],[-102.5457,21.014,1973.4666],[-102.5389,21.0156,1980.1862],[-102.5344,21.0195,1984.5767],[-102.5326,21.0243,1996.3002],[-102.5274,21.028,2035.2799],[-102.5252,21.033,2076.1919],[-102.5447,21.0383,1921.1779],[-102.553,21.0627,1839.7324],[-102.5581,21.0662,1832.1357],[-102.5551,21.0674,1832.2144],[-102.5535,21.0662,1833.244],[-102.551,21.0701,1834.5293],[-102.5529,21.0728,1844.3376],[-102.5495,21.076,1837.9807],[-102.5506,21.0769,1837.9807],[-102.5497,21.0862,1871.5049],[-102.5481,21.0878,1864.8528],[-102.5494,21.0903,1859.2991],[-102.5479,21.0986,1830.5963],[-102.5501,21.101,1812.6689],[-102.55,21.1049,1806.7521],[-102.5468,21.1124,1791.6082],[-102.5569,21.1159,1800.5778],[-102.5614,21.1128,1800.6448],[-102.5723,21.1139,1756.884],[-102.574,21.1161,1764.1577],[-102.5787,21.1156,1789.783],[-102.5852,21.1187,1824.9639],[-102.5922,21.1166,1818.8921],[-102.5925,21.122,1802.5497],[-102.5888,21.1272,1788.1405],[-102.5822,21.1261,1755.8977],[-102.5733,21.1291,1738.5686],[-102.5739,21.1348,1735.1497],[-102.5718,21.1382,1730.474],[-102.5741,21.1408,1711.4681],[-102.5828,21.1348,1759.1543],[-102.5894,21.1351,1775.0618],[-102.5947,21.1325,1785.3127],[-102.5982,21.1326,1755.2131],[-102.6037,21.1365,1742.2407],[-102.6085,21.1354,1756.281],[-102.6081,21.1366,1727.6113],[-102.6097,21.1364,1727.5757],[-102.6121,21.139,1702.5533],[-102.6099,21.1402,1699.5049],[-102.6128,21.1423,1722.3527],[-102.6297,21.1419,1808.094],[-102.634,21.1397,1825.0387],[-102.6382,21.1412,1831.3005],[-102.6381,21.1394,1826.7637],[-102.6366,21.1397,1828.254],[-102.6314,21.1334,1779.3317],[-102.6287,21.1328,1765.9502],[-102.6304,21.1231,1828.9691],[-102.6372,21.1262,1821.0959],[-102.6351,21.1227,1838.1041],[-102.6356,21.1171,1844.8788],[-102.6387,21.1172,1834.6611],[-102.6412,21.1202,1823.0197],[-102.6398,21.1216,1818.6807],[-102.6417,21.1263,1826.0807],[-102.6404,21.1282,1810.3051],[-102.6443,21.1294,1826.3145],[-102.6435,21.1281,1829.9584],[-102.6456,21.1283,1831.5339],[-102.6457,21.1333,1817.8096],[-102.6481,21.1337,1811.1621],[-102.6479,21.1354,1808.0127],[-102.6498,21.1362,1807.9768],[-102.65,21.1323,1810.7842],[-102.6561,21.1295,1821.6145],[-102.6575,21.1252,1846.5896],[-102.6634,21.1215,1850.4471],[-102.6672,21.1159,1868.2668],[-102.6736,21.1144,1881.3083],[-102.6789,21.1198,1924.8574],[-102.6819,21.1185,1921.8511],[-102.6821,21.1156,1917.9691],[-102.685,21.1125,1920.6252],[-102.6861,21.0981,1902.7999],[-102.6893,21.0923,1901.2842],[-102.692,21.0946,1904.5588],[-102.6973,21.0918,1909.9943],[-102.7026,21.0926,1917.3684],[-102.7066,21.1014,1976.6887],[-102.7022,21.103,1970.5162],[-102.7068,21.1043,1988.0938],[-102.7064,21.1025,1986.4585],[-102.7228,21.0833,1991.1466],[-102.7294,21.0817,2008.3501],[-102.7314,21.0823,1998.4852],[-102.7333,21.0859,1989.4496],[-102.7393,21.0855,1981.9097],[-102.7396,21.0891,1979.7539],[-102.7444,21.0898,1987.1304],[-102.7457,21.0921,1988.4669],[-102.741,21.0952,1969.631],[-102.7376,21.1007,1924.4724],[-102.7387,21.1012,1930.1113],[-102.7362,21.1021,1927.7491],[-102.7386,21.1022,1934.9948],[-102.7404,21.0998,1938.739],[-102.7454,21.0982,1960.2054],[-102.7508,21.1009,2004.428],[-102.7537,21.0997,2029.9738],[-102.7548,21.1041,2066.0117],[-102.756,21.1039,2066.0117],[-102.7593,21.1003,2035.7407],[-102.7634,21.1,1985.5876],[-102.7634,21.0959,1976.3635],[-102.7667,21.0926,1959.0718],[-102.7675,21.088,1945.2715],[-102.7723,21.0849,1913.3937],[-102.7718,21.0798,1901.397],[-102.7773,21.0701,1776.949],[-102.7801,21.0703,1771.6909],[-102.7816,21.0794,1933.8569],[-102.7846,21.0742,1931.2603],[-102.7919,21.07,1885.5081],[-102.7943,21.0706,1861.1207],[-102.7941,21.0724,1841.2766],[-102.7967,21.07,1836.2295],[-102.796,21.0725,1787.171],[-102.8007,21.0727,1739.3365],[-102.8008,21.0711,1724.0309],[-102.8087,21.0716,1661.5299],[-102.8138,21.0692,1650.0444],[-102.8166,21.0695,1610.2129]]]]}}