{"type":"Feature","properties":{"featurecla":"River","scalerank":10,"rivernum":22978,"dissolve":"22978River","name":"Las Bramonas","name_alt":null,"note":"ID is link back to CEC data","name_full":"Arroyo Las Bramonas","min_zoom":6.0,"strokeweig":0.15,"uident":2004601,"min_label":7.0},
"geometry":{"type": "LineString","coordinates": [[-111.23180091054122,25.089789129681535,222.0604],[-111.21800696522872,25.083604233848206,211.0629],[-111.2049861318954,25.080023504681535,236.6609],[-111.1752009756454,25.079535223431535,244.5923],[-111.1556697256454,25.070420640098206,269.0041],[-111.14513098866622,25.070379949994035,275.6834],[-111.13414466054122,25.074245509889863,286.4695],[-111.1112361318954,25.094346421348206,404.9301],[-111.0768123037704,25.114569403119035,358.2473],[-111.06257076731205,25.128485418744035,513.2665],[-111.04718990793705,25.152411199994035,571.5726],[-111.03221594960372,25.164740301556535,557.6501],[-111.0157771475204,25.173041082806535,528.0082]]}}