{"type":"Feature","properties":{"GID_2":"MEX.20.506_2","GID_0":"MEX","country":"México","GID_1":"MEX.20_1","province":"Oaxaca","NL_NAME_1":"NA","county":"SantiagoZoochila","VARNAME_2":"NA","NL_NAME_2":"NA","TYPE_2":"Município","ENGTYPE_2":"Municipality","CC_2":"NA","HASC_2":"NA","name":"Santiago_Zoochila.county"},
"geometry":{"type": "MultiPolygon","coordinates": [[[[-96.249,17.2323,1930.0947],[-96.2534,17.2366,1968.7048],[-96.2576,17.2363,1967.7399],[-96.2683,17.2234,1477.2603],[-96.2647,17.2165,1393.6008],[-96.2568,17.2095,1265.7462],[-96.2547,17.2001,1037.8718],[-96.252,17.1982,1021.032],[-96.2481,17.2024,1016.1664],[-96.2459,17.1949,1170.8076],[-96.2393,17.1966,1217.9047],[-96.2412,17.2,1155.0452],[-96.238,17.2252,1627.0498],[-96.2508,17.2261,1703.0103],[-96.249,17.2323,1930.0947]]]]}}