{"type":"Feature","properties":{"GID_2":"MEX.5.102_2","GID_0":"MEX","country":"México","GID_1":"MEX.5_1","province":"Chiapas","NL_NAME_1":"NA","county":"Tenejapa","VARNAME_2":"NA","NL_NAME_2":"NA","TYPE_2":"Município","ENGTYPE_2":"Municipality","CC_2":"NA","HASC_2":"NA","name":"Tenejapa.county"},
"geometry":{"type": "MultiPolygon","coordinates": [[[[-92.5367,16.7765,2392.063],[-92.5166,16.7733,2351.2019],[-92.5132,16.7743,2350.9932],[-92.512,16.7686,2458.8728],[-92.5007,16.7722,2448.5725],[-92.5002,16.771,2521.4443],[-92.4912,16.7729,2555.4333],[-92.4925,16.7748,2526.4014],[-92.4865,16.7789,2412.8496],[-92.4814,16.774,2493.6763],[-92.4722,16.7795,2536.02],[-92.4611,16.777,2442.3462],[-92.4564,16.7717,2357.4258],[-92.4562,16.7649,2357.6831],[-92.4496,16.7612,2363.0801],[-92.413,16.7675,2181.3574],[-92.378,16.7795,2199.0403],[-92.3676,16.8103,2058.8027],[-92.4261,16.8196,1948.2874],[-92.4386,16.82,1858.0966],[-92.4401,16.8177,1671.9365],[-92.4457,16.8234,1604.9468],[-92.4462,16.8327,1492.8524],[-92.444,16.8365,1532.8425],[-92.4527,16.8405,1474.4695],[-92.4539,16.8441,1437.4917],[-92.4524,16.8457,1419.887],[-92.4553,16.8491,1404.6279],[-92.4565,16.8566,1390.7761],[-92.453,16.8604,1388.3092],[-92.4527,16.8627,1390.2417],[-92.4509,16.8632,1469.0801],[-92.4509,16.8678,1444.2773],[-92.4456,16.8691,1477.1117],[-92.4354,16.8772,1570.6436],[-92.4325,16.8851,1404.855],[-92.4436,16.8985,1117.5676],[-92.4433,16.9063,961.8001],[-92.4446,16.9099,891.627],[-92.4393,16.9214,881.2066],[-92.4387,16.9286,839.0774],[-92.447,16.9289,874.6078],[-92.465,16.9342,997.8562],[-92.4804,16.9285,1076.4587],[-92.483,16.931,1023.0138],[-92.4852,16.9309,1039.0402],[-92.486,16.9271,1085.3862],[-92.4916,16.9221,1066.5295],[-92.4933,16.9101,1194.5852],[-92.4986,16.9032,1285.7892],[-92.5115,16.8987,1759.8545],[-92.5164,16.8987,1803.8392],[-92.5176,16.8933,1866.8247],[-92.516,16.8871,1963.0422],[-92.5173,16.8825,2041.4974],[-92.5196,16.8769,2080.4026],[-92.5252,16.8713,2122.8828],[-92.523,16.8614,2123.9399],[-92.5305,16.86,2113.6206],[-92.5343,16.8573,2147.7615],[-92.5435,16.8374,2323.6572],[-92.543,16.8184,2296.3884],[-92.541,16.8088,2313.1177],[-92.5458,16.8011,2390.762],[-92.5467,16.7933,2420.5764],[-92.5453,16.7885,2381.9219],[-92.54,16.7838,2460.3745],[-92.5367,16.7765,2392.063]]]]}}