{"type":"Feature","properties":{"featurecla":"River","scalerank":11,"rivernum":22274,"dissolve":"22274River","name":"Cazones1","name_alt":null,"note":"ID is link back to CEC data","name_full":"Cazones","min_zoom":6.7,"strokeweig":0.2,"uident":2028901,"min_label":7.7},
"geometry":{"type": "LineString","coordinates": [[-97.966379361062067,20.358262436973206,943.9829],[-97.934803840228724,20.392767645306535,553.1979],[-97.902414517312067,20.408474025514863,408.1772],[-97.8927302725204,20.408311265098206,268.4368],[-97.8751521475204,20.398464259889863,263.167],[-97.859934048562067,20.403998114056535,267.835],[-97.830148892312067,20.422715561973206,441.3047],[-97.787912564187067,20.440619207806535,206.5915],[-97.779286262103724,20.439154364056535,314.2914],[-97.7696833975204,20.438747463014863,341.0524],[-97.756214973041224,20.439764715619035,185.2917],[-97.7408748037704,20.438421942181535,149.9228],[-97.7269587881454,20.440252996869035,247.4809],[-97.7120662100204,20.451727606244035,178.5305],[-97.7032771475204,20.462958074994035,356.2753],[-97.693470832416224,20.465765692181535,335.5603],[-97.675363736062067,20.451849676556535,315.5345],[-97.664540168353724,20.438015041139863,273.2435],[-97.653309699603724,20.423610744264863,153.4193],[-97.6398005850204,20.415798244264863,99.8603],[-97.6219783193954,20.421332098431535,284.0049],[-97.6090388662704,20.434393621869035,260.7967],[-97.596058723041224,20.452663478639863,94.2678],[-97.583729621478724,20.471787827598206,103.6716],[-97.572987433978724,20.487901108848206,77.1074],[-97.568226691791224,20.490790106244035,68.8562],[-97.564320441791224,20.494330145306535,131.0442],[-97.561024543353724,20.498806056764863,214.9852],[-97.538319465228724,20.498480535931535,174.0715],[-97.524891730853724,20.505397853639863,66.8709],[-97.498850064187067,20.514024155723206,56.9762],[-97.491444465228724,20.524522202598206,54.2093],[-97.483713345437067,20.546983140098206,139.9859],[-97.4598689443954,20.575791733848206,45.5084],[-97.458566861062067,20.591498114056535,68.8559],[-97.420765754291224,20.625189520306535,29.967],[-97.407215949603724,20.644802150514863,27.8902],[-97.385609504291224,20.670030015098206,19.5751],[-97.385324673562067,20.681952215619035,21.575],[-97.380970832416224,20.695176499473206,86.3442],[-97.371571418353724,20.699042059369035,83.3933],[-97.3451228506454,20.696966864056535,20.5194],[-97.3114314443954,20.721380926556535,8.9002],[-97.296701626687067,20.711778061973206,8.4398],[-97.2911677725204,20.722845770306535,11.0442],[-97.280100064187067,20.721747137494035,6.3009],[-97.257639126687067,20.706244207806535,8.8342],[-97.2528376943954,20.711940822389863,5.3517],[-97.2652888662704,20.730169989056535,10.4292],[-97.2652888662704,20.740301824994035,21.3344],[-97.255726691791224,20.745184637494035,40.8997],[-97.229562954812067,20.749619858848206,32.5962],[-97.2201228506454,20.748317775514863,3.2254],[-97.198312954812067,20.738959051556535,5.0792]]}}