{"type":"Feature","properties":{"featurecla":"River","scalerank":10,"rivernum":22269,"dissolve":"22269River","name":"Tecolutla1","name_alt":null,"note":"ID is link back to CEC data","name_full":"Tecolutla","min_zoom":6.0,"strokeweig":0.2,"uident":2030201,"min_label":7.0},
"geometry":{"type": "LineString","coordinates": [[-97.013295051166224,20.496690171348206,0.0],[-97.042103644916224,20.480821030723206,0.5746],[-97.074208137103724,20.483425197389863,4.2323],[-97.086252407937067,20.476182358848206,3.5285],[-97.094349738666224,20.446071681764863,38.88],[-97.1014705068954,20.432399806764863,53.9243],[-97.113758918353724,20.429307358848206,10.3365],[-97.125965949603724,20.430283921348206,6.6447],[-97.1398005850204,20.449733791139863,7.374],[-97.152170376687067,20.450791733848206,111.9707],[-97.1771541006454,20.443711655723206,10.4725],[-97.195057746478724,20.456895249473206,10.1039],[-97.2101130850204,20.457383530723206,20.8056],[-97.2230525381454,20.450506903119035,32.9196],[-97.229318814187067,20.443386134889863,62.0478],[-97.244007941791224,20.419216213014863,109.266],[-97.259592251687067,20.398993231244035,62.9393],[-97.259836392312067,20.374579168744035,21.8593],[-97.279652473041224,20.347723699994035,25.1463],[-97.284738736062067,20.331081447389863,30.0914],[-97.292551236062067,20.325018621869035,28.4581],[-97.310047980853724,20.295518296348206,43.9195],[-97.319203254291224,20.286810614056535,48.6849],[-97.348947720437067,20.268988348431535,88.0044],[-97.3661189443954,20.262030340619035,46.6863],[-97.381214973041224,20.257025457806535,101.7208],[-97.4034724600204,20.259588934369035,94.8025],[-97.431752082416224,20.251817124473206,55.3854],[-97.435617642312067,20.251166082806535,54.7832],[-97.439442512103724,20.250555731244035,55.85],[-97.449045376687067,20.250555731244035,56.6982],[-97.4613337881454,20.264593817181535,64.575],[-97.470773892312067,20.266424871869035,65.9123],[-97.499623176166224,20.284938869264863,79.6122],[-97.518381314187067,20.275173244264863,77.3736],[-97.519764777728724,20.272569077598206,75.5259],[-97.565907355853724,20.257025457806535,101.8561],[-97.608143683978724,20.232123114056535,185.563],[-97.617665168353724,20.221136785931535,180.9687],[-97.611683723041224,20.202337957806535,177.8311],[-97.619862433978724,20.190212306764863,333.355],[-97.623036262103724,20.189398504681535,374.9919],[-97.650949673562067,20.182806707806535,223.8289],[-97.6612849600204,20.172471421348206,291.1375],[-97.669504361062067,20.150742905723206,377.7593],[-97.675607876687067,20.143581447389863,549.2187],[-97.7059626943954,20.133612371869035,536.0131],[-97.7076716787704,20.148749090619035,396.2012],[-97.7081599600204,20.153021551556535,381.5537],[-97.724191861062067,20.175156968223206,437.8749],[-97.730824348041224,20.171413478639863,385.2906],[-97.7372126943954,20.167751369264863,455.7483],[-97.791981574603724,20.116563218223206,816.9098],[-97.818348762103724,20.101670640098206,797.1223],[-97.833078579812067,20.097276108848206,1157.1558],[-97.873117642312067,20.094509181764863,1118.9717],[-97.9015193350204,20.099147853639863,1072.3685],[-97.913400845437067,20.087713934369035,1259.6869],[-97.909291144916224,20.070990301556535,991.2615],[-97.894398566791224,20.048692124473206,1446.3754],[-97.899769660541224,20.035223699994035,1644.528],[-97.924305793353724,19.995876369264863,1845.7581],[-97.926503058978724,19.954657293744035,1884.312],[-97.933949348041224,19.942002671348206,2042.3833],[-97.953846808978724,19.921169338014863,1794.7075],[-97.9681697256454,19.896063543744035,2137.6479],[-97.981760220437067,19.882350978639863,2192.0264],[-97.988840298562067,19.869248765098206,2223.626]]}}