{"type":"Feature","properties":{"GID_2":"MEX.15.30_2","GID_0":"MEX","country":"México","GID_1":"MEX.15_1","province":"México","NL_NAME_1":"NA","county":"Coyotepec","VARNAME_2":"NA","NL_NAME_2":"NA","TYPE_2":"Município","ENGTYPE_2":"Municipality","CC_2":"NA","HASC_2":"NA","name":"Coyotepec.county"},
"geometry":{"type": "MultiPolygon","coordinates": [[[[-99.1936,19.812,2252.1521],[-99.2033,19.8194,2250.646],[-99.2035,19.817,2250.2859],[-99.2045,19.8183,2250.3394],[-99.2054,19.8169,2250.373],[-99.2047,19.8086,2248.6052],[-99.218,19.8165,2252.0652],[-99.223,19.8158,2253.1926],[-99.2344,19.8231,2268.8364],[-99.2419,19.8183,2283.7834],[-99.2386,19.8061,2285.5339],[-99.2739,19.7986,2376.0354],[-99.2821,19.7985,2441.3757],[-99.2713,19.7852,2418.2551],[-99.2754,19.7736,2533.8691],[-99.2752,19.7698,2547.218],[-99.2576,19.775,2543.8118],[-99.2282,19.7922,2293.8145],[-99.2249,19.7873,2270.7463],[-99.2214,19.7855,2275.5447],[-99.2179,19.7774,2309.0879],[-99.2156,19.7645,2284.9028],[-99.2141,19.7648,2274.5464],[-99.2082,19.7518,2262.2512],[-99.2002,19.7498,2258.5034],[-99.196,19.7619,2256.0068],[-99.1984,19.763,2266.2046],[-99.198,19.7679,2279.1445],[-99.1845,19.7651,2250.543],[-99.1796,19.7678,2248.9458],[-99.1803,19.7945,2246.5537],[-99.1904,19.7999,2246.9041],[-99.1936,19.812,2252.1521]]]]}}