{"type": "Feature","bbox": [-97.8594,22.231,-97.784,22.3264],"geometry": {"type": "MultiPolygon","coordinates": [[[[-97.8557,22.3219,5.7863],[-97.8524,22.3173,25.0476],[-97.8487,22.3063,4.8075],[-97.853,22.2923,13.8895],[-97.8539,22.2813,17.3594],[-97.8579,22.2821,21.7889],[-97.852,22.2739,16.8559],[-97.8531,22.2732,23.2132],[-97.8563,22.2754,22.9922],[-97.8594,22.2668,32.3223],[-97.8574,22.2662,32.3368],[-97.8577,22.2622,33.1067],[-97.8556,22.2617,33.1537],[-97.858,22.2552,23.1531],[-97.8575,22.2465,7.0915],[-97.8455,22.2402,23.9028],[-97.8467,22.2376,20.8709],[-97.843,22.2365,8.1277],[-97.844,22.234,7.3772],[-97.8386,22.231,3.3623],[-97.8368,22.2362,6.5385],[-97.8333,22.2399,0.7511],[-97.8209,22.2492,2.0514],[-97.8002,22.2591,0.6701],[-97.7975,22.2622,4.3106],[-97.7961,22.2613,0.2149],[-97.784,22.2639,0.352],[-97.8082,22.2979,0.883],[-97.8203,22.3258,6.37],[-97.8353,22.3261,1.7817],[-97.8352,22.3231,2.4455],[-97.8448,22.3225,7.0046],[-97.8464,22.3264,5.528],[-97.8557,22.3219,5.7863]]]]}
,"properties": {"GID_2": "MEX.28.9_2","GID_0": "MEX","country": "México","GID_1": "MEX.28_1","province": "Tamaulipas","NL_NAME_1": "NA","county": "CiudadMadero","VARNAME_2": "NA","NL_NAME_2": "NA","TYPE_2": "Município","ENGTYPE_2": "Municipality","CC_2": "NA","HASC_2": "NA","name": "Ciudad_Madero.county","area_km2": 46.36026,"hist_schema_id": "Elevation0-9000","hist_area_km2": {"0": 37.05966,"25": 9.3006}}}