{"type":"Feature","properties":{"GID_2":"MEX.31.93_2","GID_0":"MEX","country":"México","GID_1":"MEX.31_1","province":"Yucatán","NL_NAME_1":"NA","county":"Tixkokob","VARNAME_2":"NA","NL_NAME_2":"NA","TYPE_2":"Município","ENGTYPE_2":"Municipality","CC_2":"NA","HASC_2":"NA","name":"Tixkokob.county"},
"geometry":{"type": "MultiPolygon","coordinates": [[[[-89.3997,21.034,10.3734],[-89.3992,21.0304,10.5761],[-89.4123,21.0342,10.7811],[-89.4109,21.0357,10.4846],[-89.4113,21.0397,9.5731],[-89.4151,21.0402,10.3183],[-89.4156,21.036,10.516],[-89.418,21.0362,9.6009],[-89.4189,21.0333,9.0172],[-89.4239,21.0335,9.5691],[-89.4238,21.0366,10.1462],[-89.4298,21.0364,10.366],[-89.4296,21.0384,9.123],[-89.4389,21.0398,10.5002],[-89.4388,21.0416,10.5469],[-89.4426,21.0403,10.254],[-89.439,21.039,10.5002],[-89.4393,21.0369,11.0208],[-89.4417,21.0369,10.8766],[-89.4447,21.0397,10.7499],[-89.4522,21.0372,10.4714],[-89.4524,21.0332,8.4253],[-89.4549,21.033,9.1759],[-89.4562,21.0298,8.7791],[-89.4583,21.0299,8.1917],[-89.4603,21.0233,10.112],[-89.4703,21.0224,10.09],[-89.4695,21.0201,9.0221],[-89.4754,21.0203,11.4256],[-89.4769,21.0166,11.0922],[-89.4792,21.0197,10.8059],[-89.4892,21.0199,8.8586],[-89.4893,21.0149,9.7451],[-89.4912,21.0117,9.7557],[-89.4849,21.011,10.2904],[-89.4851,21.0049,11.0372],[-89.4741,21.0037,10.095],[-89.4742,20.9999,8.4173],[-89.4648,21.0001,9.0803],[-89.4643,21.0059,10.1903],[-89.4568,21.0064,11.6589],[-89.4559,21.001,10.8193],[-89.4531,20.9978,10.0609],[-89.4502,20.9986,10.3861],[-89.4506,21.0008,11.7151],[-89.4454,21.0001,10.5622],[-89.4451,21.0024,10.779],[-89.4402,21.0032,11.101],[-89.44,21.0017,10.6268],[-89.4327,21.0012,10.1935],[-89.432,20.9986,9.1321],[-89.4243,20.9987,10.1948],[-89.4254,20.9953,10.5743],[-89.4236,20.9881,9.5471],[-89.4271,20.986,10.2563],[-89.4246,20.9806,10.4679],[-89.425299999999993,20.9629,11.7901],[-89.4312,20.9567,11.5359],[-89.4314,20.9545,11.8529],[-89.4194,20.9438,12.8968],[-89.4155,20.9472,9.788],[-89.414,20.9458,10.4512],[-89.4123,20.9483,10.7022],[-89.4008,20.9412,12.8069],[-89.4009,20.9394,13.7975],[-89.3952,20.9382,14.7112],[-89.396,20.9329,15.2429],[-89.4016,20.9338,15.0745],[-89.4026,20.924,15.0194],[-89.4135,20.925,16.2271],[-89.4104,20.9324,15.1166],[-89.4236,20.9355,16.0053],[-89.4287,20.9362,13.948],[-89.429,20.9348,15.5513],[-89.4345,20.9345,14.6151],[-89.4343,20.9293,14.2518],[-89.4045,20.9196,17.4281],[-89.3755,20.8986,17.4977],[-89.3736,20.9006,18.2165],[-89.3641,20.8931,14.9115],[-89.3641,20.891,17.8671],[-89.3612,20.891,18.2568],[-89.3612,20.8946,15.2027],[-89.3641,20.8942,16.6664],[-89.3738,20.9048,14.0508],[-89.3759,20.905,13.051],[-89.3755,20.9103,16.7669],[-89.3774,20.915,14.3656],[-89.3818,20.9153,14.428],[-89.3825,20.9427,14.3052],[-89.3783,20.9418,13.6915],[-89.3753,20.9405,14.1175],[-89.3745,20.936,15.4351],[-89.3705,20.936,16.0167],[-89.3702,20.9339,15.3965],[-89.3742,20.9343,15.6268],[-89.3734,20.9296,13.9909],[-89.369,20.9292,16.6078],[-89.3713,20.9242,15.7371],[-89.3646,20.9231,16.3551],[-89.3651,20.9186,17.8091],[-89.3567,20.9175,15.8598],[-89.3573,20.9136,13.8977],[-89.3642,20.9142,14.7967],[-89.3641,20.9002,17.0453],[-89.327,20.8948,19.0082],[-89.3243,20.9185,14.7946],[-89.3282,20.9192,13.1857],[-89.3258,20.9281,15.8107],[-89.3284,20.9281,16.126],[-89.3292,20.9329,17.0771],[-89.3261,20.9326,15.247],[-89.3249,20.9414,14.2354],[-89.3293,20.9462,13.8168],[-89.3284,20.9631,11.623],[-89.3234,20.9626,11.8771],[-89.3239,20.9574,13.2612],[-89.3212,20.9564,14.0796],[-89.3211,20.9516,14.8537],[-89.3062,20.9459,15.325],[-89.3075,20.9431,16.2883],[-89.2997,20.9424,16.3459],[-89.2975,20.952,11.8137],[-89.3112,20.9555,13.4122],[-89.3121,20.9532,13.4184],[-89.3183,20.9554,13.8361],[-89.3176,20.9666,11.2065],[-89.3199,20.968,10.6465],[-89.2896,20.9655,10.4723],[-89.2899,20.964,10.7646],[-89.2855,20.9632,10.918],[-89.2846,20.9685,10.6447],[-89.2798,20.967,11.1819],[-89.2747,20.9727,10.1899],[-89.2722,20.9768,9.0348],[-89.2729,20.9814,8.6322],[-89.2878,20.9903,8.2051],[-89.3021,20.9918,10.564],[-89.3017,20.9982,10.2968],[-89.3127,20.996,11.307],[-89.3136,20.9931,10.4679],[-89.3183,20.9937,11.2416],[-89.3164,20.9994,12.0509],[-89.3257,21.0016,12.9746],[-89.3249,21.008,14.5774],[-89.33,21.0098,12.5671],[-89.3315,21.0021,12.6426],[-89.3403,21.0034,12.7362],[-89.341,21.0004,11.5236],[-89.3436,21.0012,15.1888],[-89.3447,20.9974,11.324],[-89.3521,20.9981,12.326599999999999],[-89.3521,21.0092,12.2607],[-89.3428,21.0095,14.9335],[-89.3431,21.0138,13.7619],[-89.3374,21.0135,14.9109],[-89.3332,21.028199999999998,11.9652],[-89.3364,21.0288,12.4052],[-89.3372,21.0198,14.1864],[-89.3433,21.0213,14.7992],[-89.3437,21.0227,15.1901],[-89.3523,21.0191,11.1288],[-89.3527,21.0367,10.8979],[-89.3687,21.0364,11.5111],[-89.3675,21.039,10.6826],[-89.3601,21.0415,10.4333],[-89.3591,21.0487,10.558],[-89.3559,21.0483,10.4872],[-89.354,21.0562,9.1939],[-89.3564,21.0576,8.9942],[-89.3645,21.0591,9.6736],[-89.3654,21.0542,11.6206],[-89.3679,21.0533,11.7371],[-89.3685,21.0503,10.6481],[-89.3715,21.0476,12.0765],[-89.38,21.0492,10.4111],[-89.3824,21.0446,9.7715],[-89.385,21.0458,10.8889],[-89.3857,21.0428,9.2299],[-89.3997,21.034,10.3734]]]]}}