{"type": "Feature","bbox": [-96.8819,16.0221,-96.6954,16.2862],"geometry": {"type": "MultiPolygon","coordinates": [[[[-96.834,16.2862,1316.8242],[-96.8368,16.2664,1613.702],[-96.8504,16.2461,1805.682],[-96.815,16.2167,1812.3113],[-96.8078,16.2132,1560.6704],[-96.8162,16.1859,2081.9026],[-96.8113,16.1783,1930.8796],[-96.8117,16.176,1852.8792],[-96.8172,16.1706,1720.2621],[-96.8338,16.0896,642.67],[-96.8369,16.0886,645.9563],[-96.8462,16.0898,761.8733],[-96.8521,16.0924,914.7729],[-96.8568,16.1018,1116.5579],[-96.8608,16.0966,950.3564],[-96.8605,16.0945,927.5181],[-96.8661,16.0887,1041.016],[-96.8767,16.087,1182.2196],[-96.8819,16.0829,1429.27],[-96.8816,16.0815,1368.4917],[-96.8699,16.0788,1183.0718],[-96.8675,16.0758,1067.0479],[-96.8602,16.0756,856.1584],[-96.8638,16.0703,918.3009],[-96.862799999999993,16.068,890.9205],[-96.8649,16.0618,810.5632],[-96.8607,16.0547,737.4437],[-96.8609,16.0488,752.5675],[-96.8574,16.0453,672.0359],[-96.8586,16.0395,549.804],[-96.8611,16.0382,558.6058],[-96.8664,16.04,552.5903],[-96.8694,16.0391,563.3458],[-96.8749,16.0305,611.9299],[-96.8541,16.0319,549.9775],[-96.8501,16.0296,449.3444],[-96.8502,16.0251,446.7818],[-96.8469,16.0244,439.191],[-96.8453,16.0221,427.9993],[-96.8421,16.0267,455.2995],[-96.8352,16.0263,495.9468],[-96.8321,16.0305,528.4172],[-96.8333,16.0324,471.4758],[-96.8318,16.0341,504.2719],[-96.8321,16.0375,486.3907],[-96.8264,16.0397,493.9797],[-96.8219,16.051,512.3748],[-96.8187,16.052,523.7477],[-96.8155,16.0555,565.2036],[-96.8209,16.0564,544.6508],[-96.82,16.0587,547.5389],[-96.8253,16.0576,548.579],[-96.8268,16.0605,586.4907],[-96.8288,16.0593,575.1385],[-96.8301,16.0632,583.7764],[-96.829,16.0657,582.6855],[-96.8317,16.0666,592.9402],[-96.834,16.0727,658.3045],[-96.8368,16.0755,626.8093],[-96.8352,16.0802,628.572],[-96.8304,16.0851,623.1832],[-96.8324,16.0873,639.5886],[-96.8323,16.0944,673.7319],[-96.8284,16.0965,677.6823],[-96.825,16.0943,700.1226],[-96.821,16.1012,713.5225],[-96.8191,16.0977,745.0499],[-96.8162,16.0986,786.3286],[-96.8158,16.1039,776.8428],[-96.811,16.0997,799.0987],[-96.8067,16.1003,871.8804],[-96.8064,16.1029,816.2605],[-96.8024,16.102,851.5668],[-96.8027,16.1001,924.2875],[-96.8005,16.0987,902.9039],[-96.7964,16.1029,839.4191],[-96.7922,16.1023,845.7773],[-96.7892,16.1068,879.5792],[-96.7916,16.1087,946.4641],[-96.7895,16.11,919.9716],[-96.7902,16.1119,925.5967],[-96.788,16.1123,928.722],[-96.7858,16.1186,981.6654],[-96.7833,16.1192,989.1852],[-96.7816,16.1221,1024.98],[-96.762,16.1275,1562.4724],[-96.7336,16.1405,1940.4974],[-96.7284,16.167,2132.1572],[-96.7277,16.1908,2286.866],[-96.7143,16.2111,1849.699],[-96.6954,16.2526,2157.1367],[-96.7137,16.2415,2029.4722],[-96.7246,16.2407,2062.1797],[-96.732,16.2427,2036.2283],[-96.7387,16.2356,1771.3007],[-96.7609,16.2283,1489.553],[-96.7616,16.2369,1559.4214],[-96.7652,16.2391,1615.3875],[-96.7693,16.2473,1747.465],[-96.7761,16.2517,1605.3174],[-96.7819,16.2514,1545.9847],[-96.7865,16.253,1492.269],[-96.7919,16.2526,1477.3992],[-96.797,16.248,1396.5365],[-96.8001,16.2503,1399.5018],[-96.798,16.2552,1382.7427],[-96.8023,16.2556,1380.386],[-96.8075,16.2597,1371.2833],[-96.8054,16.2626,1414.6167],[-96.8079,16.2609,1365.6737],[-96.8106,16.2614,1402.1167],[-96.8095,16.2671,1372.0751],[-96.8134,16.267,1400.931],[-96.8144,16.2695,1359.0654],[-96.8189,16.2678,1386.0532],[-96.8179,16.2708,1356.3225],[-96.8218,16.27,1355.6229],[-96.8192,16.2756,1355.6559],[-96.8241,16.2751,1385.1438],[-96.8256,16.2767,1341.918],[-96.8239,16.2796,1384.1389],[-96.828,16.2796,1339.0769],[-96.8286,16.2827,1337.6549],[-96.834,16.2862,1316.8242]]]]}
,"properties": {"GID_2": "MEX.20.293_2","GID_0": "MEX","country": "México","GID_1": "MEX.20_1","province": "Oaxaca","NL_NAME_1": "NA","county": "SanPabloCoatlán","VARNAME_2": "NA","NL_NAME_2": "NA","TYPE_2": "Município","ENGTYPE_2": "Municipality","CC_2": "NA","HASC_2": "NA","name": "San_Pablo_Coatlán.county","area_km2": 188.4837,"hist_schema_id": "Elevation0-9000","hist_area_km2": {"425": 0.1834,"450": 0.4076,"475": 0.6928,"500": 0.7743,"525": 1.0188,"550": 1.3041,"575": 1.7728,"600": 1.5078,"625": 1.8949,"650": 1.7318,"675": 1.4058,"700": 1.2632,"725": 1.4669,"750": 1.3039,"775": 1.6095,"800": 1.4669,"825": 1.5483,"850": 1.5687,"875": 1.6705,"900": 1.4057,"925": 1.752,"950": 1.4668,"975": 1.4871,"1000": 1.2222,"1025": 1.1815,"1050": 1.6296,"1075": 1.0592,"1100": 1.3851,"1125": 1.3851,"1150": 1.2221,"1175": 1.1814,"1200": 1.161,"1225": 1.2221,"1250": 0.9777,"1275": 0.8962,"1300": 1.2221,"1325": 1.2626,"1350": 1.5273,"1375": 1.3032,"1400": 1.8529,"1425": 2.2802,"1450": 3.0335,"1475": 3.2778,"1500": 4.1123,"1525": 5.0489,"1550": 5.2118,"1575": 5.5782,"1600": 6.5555,"1625": 6.0874,"1650": 7.3498,"1675": 7.4111,"1700": 8.1441,"1725": 7.8389,"1750": 7.2893,"1775": 6.7396,"1800": 6.6989,"1825": 6.2715,"1850": 5.8439,"1875": 5.1721,"1900": 4.2557,"1925": 3.6245,"1950": 3.543,"1975": 2.8507,"2000": 2.4638,"2025": 1.629,"2050": 1.3031,"2075": 1.1606,"2100": 0.733,"2125": 0.6922,"2150": 0.7329,"2175": 0.509,"2200": 0.6311,"2225": 0.6107,"2250": 0.4886,"2275": 0.2239,"2300": 0.3054,"2325": 0.1629,"2350": 0.1425,"2375": 0.0611,"2400": 0.0204}}}