{"type": "Feature","bbox": [-109.4329,29.6282,-109.1949,29.8741],"geometry": {"type": "MultiPolygon","coordinates": [[[[-109.2325,29.8147,1416.3567],[-109.2622,29.8634,1210.9677],[-109.2658,29.8649,1202.1671],[-109.2803,29.8707,833.0651],[-109.3014,29.8708,534.9492],[-109.3023,29.872,530.1164],[-109.3102,29.8718,527.9605],[-109.3085,29.8686,527.1757],[-109.3063,29.8682,528.0637],[-109.3098,29.8653,533.0507],[-109.3146,29.8642,543.2517],[-109.3166,29.8645,549.8102],[-109.3133,29.8656,537.3063],[-109.3167,29.8724,542.4139],[-109.3766,29.8741,1119.0862],[-109.3811,29.8588,1319.3699],[-109.375,29.8464,1359.2577],[-109.3769,29.8391,1227.4568],[-109.3868,29.8258,1468.1355],[-109.393,29.826,1443.1155],[-109.3941,29.8156,1592.0242],[-109.4039,29.8088,1256.8109],[-109.4021,29.8013,1443.4205],[-109.4028,29.7967,1584.8884],[-109.3989,29.7933,1731.4141],[-109.3992,29.7908,1756.5658],[-109.4134,29.7767,1334.2971],[-109.4104,29.7703,1238.0315],[-109.4248,29.7554,1180.4717],[-109.4311,29.7529,1203.1646],[-109.4329,29.7476,1311.7833],[-109.3973,29.7384,1328.2798],[-109.4053,29.709,1110.4592],[-109.3943,29.7053,866.5833],[-109.3838,29.6992,1011.5333],[-109.372,29.7023,889.9091],[-109.3653,29.7015,1004.6749],[-109.3461,29.6643,972.1077],[-109.3157,29.6604,938.475],[-109.2699,29.6282,806.1176],[-109.2313,29.6422,583.8436],[-109.2329,29.6807,681.5112],[-109.2581,29.7502,1056.4935],[-109.1949,29.7671,1018.6449],[-109.1959,29.7737,1134.7048],[-109.2326,29.7993,1135.8514],[-109.2325,29.8147,1416.3567]]]]}
,"properties": {"GID_2": "MEX.26.29_2","GID_0": "MEX","country": "México","GID_1": "MEX.26_1","province": "Sonora","NL_NAME_1": "NA","county": "Granados","VARNAME_2": "NA","NL_NAME_2": "NA","TYPE_2": "Município","ENGTYPE_2": "Municipality","CC_2": "NA","HASC_2": "NA","name": "Granados.county","area_km2": 363.7697,"hist_schema_id": "Elevation0-9000","hist_area_km2": {"450": 0.0369,"475": 2.008,"500": 4.8246,"525": 17.2414,"550": 16.5631,"575": 20.7776,"600": 22.7685,"625": 22.9525,"650": 17.984,"675": 15.4452,"700": 13.4938,"725": 13.9164,"750": 12.5534,"775": 12.2036,"800": 12.1662,"825": 11.5032,"850": 11.2274,"875": 11.9642,"900": 11.1552,"925": 10.6949,"950": 11.4314,"975": 11.2467,"1000": 9.4973,"1025": 9.534,"1050": 7.8587,"1075": 6.846,"1100": 4.9872,"1125": 5.5025,"1150": 4.7294,"1175": 4.2145,"1200": 4.0857,"1225": 2.6685,"1250": 2.4842,"1275": 2.1713,"1300": 1.9137,"1325": 1.3616,"1350": 1.104,"1375": 0.9936,"1400": 1.0856,"1425": 0.7912,"1450": 0.6807,"1475": 0.6807,"1500": 0.9015,"1525": 0.6807,"1550": 0.8463,"1575": 0.7359,"1600": 0.6807,"1625": 0.5703,"1650": 0.5704,"1675": 0.2576,"1700": 0.2944,"1725": 0.3496,"1750": 0.2024,"1775": 0.1656,"1800": 0.092,"1825": 0.0736}}}