{"type":"Feature","properties":{"GID_2":"MEX.11.11_2","GID_0":"MEX","country":"México","GID_1":"MEX.11_1","province":"Guanajuato","NL_NAME_1":"NA","county":"DoctorMora","VARNAME_2":"NA","NL_NAME_2":"NA","TYPE_2":"Município","ENGTYPE_2":"Municipality","CC_2":"NA","HASC_2":"NA","name":"Doctor_Mora.county"},
"geometry":{"type": "MultiPolygon","coordinates": [[[[-100.2401,21.1205,2185.7881],[-100.2435,21.1268,2200.4604],[-100.2454,21.127,2179.8911],[-100.2502,21.1328,2289.6028],[-100.2566,21.136,2415.8174],[-100.2557,21.1418,2454.6138],[-100.2699,21.152,2273.1787],[-100.2738,21.1602,2346.3621],[-100.2772,21.1636,2290.1245],[-100.2911,21.1683,2243.5537],[-100.3035,21.1842,2161.8652],[-100.2971,21.1902,2112.2295],[-100.3077,21.19,2159.8792],[-100.308,21.1983,2202.738],[-100.314,21.2007,2193.2236],[-100.3147,21.2053,2226.7544],[-100.325,21.2095,2188.6196],[-100.3328,21.2102,2121.7964],[-100.337,21.2195,2003.5863],[-100.3397,21.2184,2008.3695],[-100.3374,21.211,2079.8652],[-100.3386,21.2095,2139.5688],[-100.3434,21.2119,2169.8792],[-100.3435,21.2166,2037.952],[-100.3478,21.2147,2054.3535],[-100.3539,21.2088,2137.4795],[-100.3551,21.2044,2135.3193],[-100.3572,21.204,2146.1453],[-100.3559,21.2002,2140.835],[-100.3566,21.1949,2100.8169],[-100.3603,21.1911,2087.6951],[-100.3916,21.1913,2214.3931],[-100.4053,21.1696,2118.3516],[-100.4081,21.1773,2146.188],[-100.4198,21.185,2216.2324],[-100.4292,21.1853,2230.6289],[-100.4257,21.1834,2211.2373],[-100.4227,21.1788,2197.5088],[-100.4325,21.1754,2357.147],[-100.4373,21.1798,2414.8213],[-100.4445,21.1832,2441.3311],[-100.4423,21.187,2335.7048],[-100.4435,21.1921,2253.4014],[-100.4857,21.1788,2220.7334],[-100.4842,21.1722,2193.4482],[-100.4746,21.1552,2118.9548],[-100.4766,21.1539,2119.751],[-100.4599,21.1193,2040.7476],[-100.4559,21.1055,2031.0245],[-100.3592,21.0944,2074.6956],[-100.3599,21.0897,2075.0586],[-100.3541,21.0885,2079.8528],[-100.3504,21.0853,2084.001],[-100.3457,21.0929,2082.604],[-100.3299,21.0912,2092.5159],[-100.3255,21.0925,2096.9575],[-100.3279,21.0813,2099.2822],[-100.3171,21.0769,2107.1846],[-100.3142,21.079,2110.5891],[-100.303,21.0752,2122.8994],[-100.2995,21.0852,2148.7534],[-100.2945,21.0903,2207.9895],[-100.2935,21.0934,2205.458],[-100.2921,21.0934,2182.4932],[-100.2922,21.0979,2152.519],[-100.2537,21.0873,2216.4128],[-100.2409,21.1121,1983.7317],[-100.2437,21.1138,1998.2594],[-100.2401,21.1205,2185.7881]]]]}}