{"type": "Feature","bbox": [-99.0145,19.4904,-98.8928,19.5965],"geometry": {"type": "MultiPolygon","coordinates": [[[[-98.9972,19.5864,2232.8926],[-98.9986,19.5843,2233.2336],[-98.9897,19.5793,2233.5066],[-98.9855,19.5695,2230.9922],[-98.9912,19.5589,2229.9736],[-98.9945,19.5564,2230.418],[-99.0047,19.5548,2229.5747],[-99.0134,19.5578,2228.3967],[-99.0145,19.4904,2226.356],[-99.0005,19.4948,2228.592],[-98.974,19.5081,2229.9241],[-98.9155,19.5226,2237.8171],[-98.9146,19.5398,2243.9106],[-98.9131,19.5428,2244.1094],[-98.9097,19.5322,2244.0027],[-98.8984,19.5333,2247.0806],[-98.8928,19.5369,2250.0674],[-98.8953,19.5403,2248.4355],[-98.9003,19.5412,2246.4783],[-98.9004,19.5511,2248.7266],[-98.9024,19.5514,2246.8567],[-98.9059,19.5478,2245.8596],[-98.9104,19.5545,2245.8064],[-98.9109,19.5769,2244.6729],[-98.9258,19.5806,2245.8203],[-98.9252,19.5839,2245.2632],[-98.9289,19.5851,2244.6418],[-98.9283,19.5875,2245.2571],[-98.931,19.585,2244.6704],[-98.9369,19.5936,2240.9341],[-98.9389,19.5937,2240.3499],[-98.9423,19.5888,2239.1396],[-98.9489,19.59,2238.4478],[-98.9488,19.594,2238.1309],[-98.9673,19.5945,2234.5767],[-98.9727,19.5965,2234.5483],[-98.9725,19.5926,2234.2732],[-98.9766,19.5933,2232.4062],[-98.9769,19.5868,2233.7063],[-98.9802,19.5833,2232.9546],[-98.9972,19.5864,2232.8926]]]]}
,"properties": {"GID_2": "MEX.15.11_2","GID_0": "MEX","country": "México","GID_1": "MEX.15_1","province": "México","NL_NAME_1": "NA","county": "Atenco","VARNAME_2": "NA","NL_NAME_2": "NA","TYPE_2": "Município","ENGTYPE_2": "Municipality","CC_2": "NA","HASC_2": "NA","name": "Atenco.county","area_km2": 87.5941,"hist_schema_id": "Elevation0-9000","hist_area_km2": {"2225": 68.77424,"2250": 18.81986}}}