{"type":"Feature","properties":{"GID_2":"MEX.15.17_2","GID_0":"MEX","country":"México","GID_1":"MEX.15_1","province":"México","NL_NAME_1":"NA","county":"Ayapango","VARNAME_2":"NA","NL_NAME_2":"NA","TYPE_2":"Município","ENGTYPE_2":"Municipality","CC_2":"NA","HASC_2":"NA","name":"Ayapango.county"},
"geometry":{"type": "MultiPolygon","coordinates": [[[[-98.8181,19.1692,2866.2827],[-98.8256,19.1679,2748.3569],[-98.827,19.1645,2632.2495],[-98.8308,19.1625,2575.7522],[-98.8385,19.1663,2505.5063],[-98.8489,19.1677,2400.9521],[-98.8522,19.1636,2378.6013],[-98.8457,19.1648,2434.5239],[-98.8452,19.1588,2443.1226],[-98.8386,19.1577,2511.0327],[-98.8322,19.1525,2561.8901],[-98.8425,19.1424,2411.3823],[-98.8363,19.139,2404.7808],[-98.8391,19.1378,2404.0259],[-98.8398,19.1347,2432.832],[-98.8425,19.1347,2429.0586],[-98.8454,19.1276,2410.6338],[-98.8492,19.1255,2424.4465],[-98.8468,19.1235,2422.563],[-98.8527,19.1088,2462.7698],[-98.8404,19.1085,2427.2935],[-98.8412,19.1062,2436.4561],[-98.8398,19.1032,2450.0083],[-98.8434,19.1035,2467.2109],[-98.8454,19.098,2510.0808],[-98.8407,19.0974,2483.0586],[-98.8392,19.0995,2466.248],[-98.8405,19.0954,2555.9883],[-98.8369,19.0909,2502.7246],[-98.8407,19.0857,2471.3823],[-98.8464,19.0818,2482.4128],[-98.8324,19.0786,2479.7109],[-98.8352,19.0725,2474.7214],[-98.8253,19.0719,2458.5217],[-98.8278,19.0791,2484.2205],[-98.8209,19.0821,2528.8411],[-98.8149,19.0818,2553.8643],[-98.8107,19.0914,2645.667],[-98.8034,19.0886,2583.5361],[-98.8032,19.0901,2591.7961],[-98.8019,19.0899,2591.7961],[-98.7995,19.0968,2541.1619],[-98.7947,19.1029,2509.7502],[-98.7962,19.1065,2510.6487],[-98.7922,19.1116,2484.2822],[-98.7876,19.1129,2460.332],[-98.7895,19.1167,2460.6106],[-98.7859,19.1229,2450.9534],[-98.778,19.1219,2459.8325],[-98.7729,19.1291,2496.6147],[-98.7741,19.1316,2473.5728],[-98.7768,19.1312,2467.2334],[-98.7777,19.1352,2457.0911],[-98.7746,19.1441,2464.1602],[-98.7834,19.1445,2452.5491],[-98.7887,19.1476,2452.7312],[-98.7907,19.1461,2451.0325],[-98.791,19.153,2474.3611],[-98.7895,19.1557,2469.2114],[-98.794,19.1602,2495.2544],[-98.8115,19.1578,2606.8557],[-98.8181,19.1692,2866.2827]]]]}}