{"type": "Feature","bbox": [-97.1868,18.6412,-97.0533,18.7303],"geometry": {"type": "MultiPolygon","coordinates": [[[[-97.0696,18.7032,1914.913],[-97.0762,18.7027,2020.1282],[-97.0742,18.7127,2004.6414],[-97.0803,18.7131,1820.7996],[-97.0855,18.716,1926.2684],[-97.0873,18.7108,1821.646],[-97.0864,18.7083,1765.6844],[-97.0918,18.7064,2050.2949],[-97.1019,18.7062,2326.8721],[-97.0989,18.7108,2197.7407],[-97.1002,18.7125,2336.1089],[-97.1077,18.7109,2390.4966],[-97.1129,18.7019,2373.8018],[-97.1145,18.7029,2385.3713],[-97.1212,18.7015,2390.5146],[-97.1242,18.7039,2363.0071],[-97.1283,18.7041,2391.8955],[-97.1233,18.7093,2273.2285],[-97.1211,18.7084,2301.3831],[-97.1258,18.7166,2236.5591],[-97.1269,18.7164,2256.9612],[-97.1268,18.7243,2260.063],[-97.128,18.7241,2260.063],[-97.1322,18.7303,2167.7402],[-97.1376,18.7156,2603.5969],[-97.1378,18.6992,2527.8916],[-97.1347,18.6887,2161.1228],[-97.1389,18.6795,1965.019],[-97.1408,18.6792,1965.019],[-97.146,18.6734,2060.644],[-97.1518,18.6723,2210.2612],[-97.155,18.6753,2252.2998],[-97.1566,18.6825,2316.0576],[-97.1624,18.6868,2304.5564],[-97.1663,18.6868,2331.7126],[-97.1792,18.6757,2603.0828],[-97.1868,18.6724,2637.4639],[-97.1836,18.6694,2567.085],[-97.1854,18.6678,2594.8098],[-97.1807,18.6654,2562.5581],[-97.1812,18.663,2569.644],[-97.1781,18.6616,2570.3606],[-97.1779,18.6587,2546.499],[-97.176,18.6622,2475.231],[-97.1739,18.6618,2440.2939],[-97.1713,18.6643,2330.2913],[-97.151,18.6648,2169.5366],[-97.149,18.6675,2113.9709],[-97.146,18.6678,2103.9453],[-97.1429,18.6661,2439.3252],[-97.1423,18.6619,2576.1152],[-97.1402,18.6595,2513.1851],[-97.1331,18.6601,2148.3503],[-97.1339,18.6568,2174.3633],[-97.1374,18.655,2328.3933],[-97.1345,18.6546,2143.0791],[-97.1325,18.6552,2116.0239],[-97.1318,18.6537,2131.3223],[-97.1342,18.6481,2188.7542],[-97.1217,18.6486,2665.5347],[-97.1132,18.6517,2375.5596],[-97.1094,18.6554,2338.7812],[-97.0951,18.648,2434.2734],[-97.0894,18.6493,2572.4568],[-97.0847,18.6412,2741.9919],[-97.0787,18.6413,2634.7271],[-97.064,18.6639,2290.4351],[-97.0551,18.6653,2292.3831],[-97.0563,18.6686,2230.1572],[-97.0556,18.6795,1969.7551],[-97.0533,18.6811,1853.9332],[-97.056,18.6822,1901.2312],[-97.0563,18.684,1912.5657],[-97.0537,18.6856,1831.9894],[-97.0572,18.6869,1934.8895],[-97.0584,18.6895,1818.6299],[-97.0601,18.6892,1853.7266],[-97.0594,18.692,1853.9984],[-97.0628,18.692,1895.98],[-97.0602,18.6965,1795.3925],[-97.0635,18.6951,1909.8916],[-97.0621,18.698,1802.2358],[-97.0654,18.6971,1906.7925],[-97.0645,18.6992,1776.9558],[-97.0668,18.6995,1873.8796],[-97.0629,18.7035,1856.2607],[-97.0696,18.7032,1914.913]]]]}
,"properties": {"GID_2": "MEX.30.19_2","GID_0": "MEX","country": "México","GID_1": "MEX.30_1","province": "Veracruz","NL_NAME_1": "NA","county": "Atlahuilco","VARNAME_2": "NA","NL_NAME_2": "NA","TYPE_2": "Município","ENGTYPE_2": "Municipality","CC_2": "NA","HASC_2": "NA","name": "Atlahuilco.county","area_km2": 61.92336,"hist_schema_id": "Elevation0-9000","hist_area_km2": {"1750": 0.78324,"1775": 1.12466,"1800": 0.90377,"1825": 0.92387,"1850": 0.92389,"1875": 1.32556,"1900": 1.54649,"1925": 1.58669,"1950": 1.90803,"1975": 1.68712,"2000": 1.64695,"2025": 1.66707,"2050": 1.82776,"2075": 1.74745,"2100": 2.43037,"2125": 2.57094,"2150": 2.16926,"2175": 2.4304,"2200": 2.08892,"2225": 2.43035,"2250": 2.39015,"2275": 2.53077,"2300": 2.67135,"2325": 2.51069,"2350": 2.02862,"2375": 2.49064,"2400": 2.37016,"2425": 2.10903,"2450": 1.44621,"2475": 1.40601,"2500": 1.22528,"2525": 0.98423,"2550": 1.1851,"2575": 1.08462,"2600": 0.7231,"2625": 0.44193,"2650": 0.3415,"2675": 0.18079,"2700": 0.06027,"2725": 0.02009}}}