{"type": "Feature","bbox": [-98.1366,17.6436,-98.0478,17.7285],"geometry": {"type": "MultiPolygon","coordinates": [[[[-98.1237,17.7285,1145.8143],[-98.1346,17.7252,1148.0819],[-98.1325,17.7242,1214.4055],[-98.1319,17.722,1204.5657],[-98.1356,17.7217,1155.9377],[-98.1366,17.7191,1142.5662],[-98.1323,17.7139,1255.7185],[-98.1312,17.7077,1163.0792],[-98.1252,17.7065,1184.8888],[-98.1211,17.7029,1155.7211],[-98.1255,17.7018,1180.2994],[-98.1331,17.7061,1188.5393],[-98.1351,17.7035,1214.5487],[-98.1322,17.7006,1258.3821],[-98.1296,17.6902,1172.468],[-98.1235,17.6854,1157.8459],[-98.1235,17.6835,1160.4108],[-98.1159,17.6839,1195.7144],[-98.1199,17.6733,1173.656],[-98.1182,17.6733,1166.9589],[-98.116,17.6649,1167.9091],[-98.1138,17.6621,1214.864],[-98.1131,17.6547,1171.3553],[-98.1084,17.6513,1175.4103],[-98.0978,17.6544,1206.7664],[-98.0984,17.6507,1183.2385],[-98.1042,17.6477,1182.1204],[-98.1023,17.6436,1193.0461],[-98.0965,17.6479,1188.9967],[-98.0853,17.6445,1191.0543],[-98.0794,17.6461,1201.4546],[-98.0742,17.6444,1197.392],[-98.0699,17.646,1214.3987],[-98.0656,17.6627,1533.1744],[-98.061,17.6735,1671.7612],[-98.0601,17.6949,1892.4106],[-98.0558,17.6962,1810.8119],[-98.0478,17.6943,1739.5325],[-98.0515,17.7016,1684.2698],[-98.0498,17.7206,1580.7712],[-98.0532,17.7215,1576.4718],[-98.0541,17.7203,1588.0302],[-98.055,17.7218,1577.1385],[-98.057,17.7201,1607.8785],[-98.0581,17.7225,1567.161],[-98.0608,17.7192,1551.7225],[-98.0623,17.7209,1559.4658],[-98.0645,17.7187,1555.6099],[-98.0702,17.7218,1530.1364],[-98.0715,17.7179,1532.2184],[-98.0718,17.7222,1553.8303],[-98.0782,17.7175,1493.3947],[-98.0792,17.7196,1509.1086],[-98.0875,17.7192,1475.5696],[-98.0882,17.7211,1495.0056],[-98.0908,17.7202,1509.4172],[-98.0956,17.7229,1448.5925],[-98.0959,17.7204,1447.121],[-98.0979,17.72,1393.8678],[-98.0983,17.7217,1454.9877],[-98.0992,17.7205,1454.9877],[-98.0987,17.718,1408.8634],[-98.1006,17.7198,1419.6844],[-98.1026,17.7151,1361.8704],[-98.1065,17.7162,1326.652],[-98.1075,17.7147,1348.196],[-98.1086,17.7163,1278.5986],[-98.1106,17.7152,1378.374],[-98.1074,17.7211,1311.114],[-98.1116,17.7225,1213.2048],[-98.1122,17.7242,1215.2006],[-98.1099,17.7245,1222.171],[-98.1111,17.7257,1212.6124],[-98.1133,17.7265,1196.2626],[-98.1141,17.7245,1215.2006],[-98.1154,17.7256,1220.1211],[-98.1153,17.7234,1217.3851],[-98.1206,17.7229,1177.7633],[-98.1237,17.7285,1145.8143]]]]}
,"properties": {"GID_2": "MEX.20.167_2","GID_0": "MEX","country": "México","GID_1": "MEX.20_1","province": "Oaxaca","NL_NAME_1": "NA","county": "SanJorgeNuchita","VARNAME_2": "NA","NL_NAME_2": "NA","TYPE_2": "Município","ENGTYPE_2": "Municipality","CC_2": "NA","HASC_2": "NA","name": "San_Jorge_Nuchita.county","area_km2": 56.15527,"hist_schema_id": "Elevation0-9000","hist_area_km2": {"1125": 0.18176,"1150": 0.84834,"1175": 3.09087,"1200": 3.53538,"1225": 3.51516,"1250": 3.15151,"1275": 2.56554,"1300": 2.02007,"1325": 2.10083,"1350": 1.51501,"1375": 1.6362,"1400": 1.59576,"1425": 1.73714,"1450": 1.57551,"1475": 1.61589,"1500": 1.99966,"1525": 2.26219,"1550": 2.88832,"1575": 3.11051,"1600": 2.54503,"1625": 2.96915,"1650": 2.26224,"1675": 1.63611,"1700": 1.41391,"1725": 1.17153,"1750": 1.27254,"1775": 0.90895,"1800": 0.54538,"1825": 0.28278,"1850": 0.1414,"1875": 0.0606}}}