{"type": "Feature","bbox": [-95.2046,17.1847,-94.6455,17.5909],"geometry": {"type": "MultiPolygon","coordinates": [[[[-94.8236,17.1888,118.9775],[-94.7436,17.1847,54.0308],[-94.743,17.188,64.5881],[-94.7379,17.1901,52.3303],[-94.7372,17.1922,63.3697],[-94.7389,17.1939,68.8194],[-94.7492,17.1958,51.623],[-94.7516,17.1992,59.8104],[-94.7541,17.2,77.6153],[-94.752,17.2061,50.7589],[-94.7557,17.2094,43.9934],[-94.7567,17.2127,43.5448],[-94.7533,17.2164,49.9162],[-94.7589,17.2196,83.4787],[-94.7533,17.2252,41.474],[-94.7533,17.2265,39.6241],[-94.7564,17.2274,61.9239],[-94.7552,17.2331,38.9065],[-94.7512,17.2404,44.6565],[-94.7517,17.2433,47.0897],[-94.7481,17.25,58.8013],[-94.7462,17.2509,57.3738],[-94.7481,17.2547,121.4376],[-94.7436,17.2557,107.6796],[-94.7454,17.2585,51.4681],[-94.7443,17.2596,70.4361],[-94.7419,17.2574,62.2672],[-94.7412,17.2584,83.8123],[-94.7413,17.2628,74.2464],[-94.7443,17.261,63.6095],[-94.747,17.2617,57.0253],[-94.7487,17.2686,32.3691],[-94.7542,17.2708,35.7944],[-94.7553,17.2752,34.1497],[-94.7541,17.2791,39.8172],[-94.749,17.2856,39.68],[-94.7418,17.2857,29.459],[-94.7347,17.288,31.4409],[-94.7283,17.2915,28.6177],[-94.7259,17.2952,28.8395],[-94.7153,17.2939,65.9612],[-94.6997,17.2949,131.0522],[-94.6995,17.3007,138.087],[-94.7063,17.3013,94.4334],[-94.7065,17.3027,86.5285],[-94.7054,17.3058,76.4613],[-94.6994,17.3059,140.3631],[-94.6964,17.3361,109.3861],[-94.693,17.3339,92.5018],[-94.6775,17.3332,87.9689],[-94.667,17.3296,97.1421],[-94.6575,17.3295,82.8527],[-94.6553,17.3309,50.6712],[-94.6565,17.3325,48.0356],[-94.6552,17.3361,50.4315],[-94.6601,17.3403,41.4998],[-94.6582,17.3424,38.8936],[-94.6609,17.3447,37.6849],[-94.662,17.3499,54.7268],[-94.6598,17.3514,39.3347],[-94.661,17.3566,42.5914],[-94.6644,17.3633,36.0788],[-94.6689,17.3646,40.8177],[-94.6692,17.3659,55.3305],[-94.6591,17.3634,73.1243],[-94.6582,17.365,45.27],[-94.6556,17.3648,55.0607],[-94.652,17.3608,63.3099],[-94.6495,17.3614,104.807],[-94.6481,17.357,101.8509],[-94.6455,17.3603,57.5703],[-94.6502,17.371,92.402],[-94.6577,17.3752,73.1841],[-94.652,17.3798,45.8588],[-94.6641,17.383,44.9425],[-94.6713,17.3796,40.5511],[-94.6741,17.3838,84.2031],[-94.6768,17.3781,33.3759],[-94.6806,17.3813,42.1298],[-94.6829,17.3781,39.3194],[-94.6853,17.3812,37.5524],[-94.6897,17.3822,32.1469],[-94.6866,17.3892,34.1484],[-94.6877,17.3911,67.7218],[-94.6927,17.3931,32.4254],[-94.6932,17.3913,23.44],[-94.6894,17.3858,26.7578],[-94.6946,17.3834,36.3078],[-94.6964,17.3859,51.52],[-94.7004,17.3838,31.6481],[-94.7026,17.3852,28.4314],[-94.7028,17.3793,28.7636],[-94.7002,17.379,36.3427],[-94.6985,17.3761,32.1483],[-94.7005,17.3743,38.5528],[-94.7061,17.3742,44.8006],[-94.7088,17.3717,40.3942],[-94.7103,17.3765,29.131],[-94.712,17.3768,26.2941],[-94.7127,17.3705,38.7751],[-94.7168,17.365,27.8674],[-94.7234,17.3679,58.6622],[-94.7227,17.3697,35.6002],[-94.7176,17.3705,33.6484],[-94.72,17.3751,22.3776],[-94.7243,17.3738,23.8531],[-94.7259,17.3765,29.8962],[-94.7328,17.3745,33.4287],[-94.7353,17.378,24.257],[-94.7304,17.3848,32.5808],[-94.7316,17.3865,55.2819],[-94.7304,17.392,44.9501],[-94.7181,17.3943,40.1375],[-94.7171,17.3984,46.8416],[-94.7174,17.4001,47.3633],[-94.7189,17.4002,47.3633],[-94.7186,17.4045,41.6504],[-94.7149,17.4079,58.2705],[-94.7188,17.4101,58.1556],[-94.7133,17.4139,55.2432],[-94.7167,17.4167,59.384],[-94.7187,17.4246,50.5572],[-94.7285,17.4281,63.2105],[-94.7401,17.4241,37.118],[-94.7419,17.43,73.0588],[-94.7477,17.4337,44.4521],[-94.7498,17.4391,33.6495],[-94.7549,17.4398,59.6899],[-94.7557,17.4425,33.0063],[-94.7505,17.4417,29.6038],[-94.7508,17.4466,36.708],[-94.7477,17.4468,24.2349],[-94.7467,17.4506,24.8041],[-94.744,17.452,29.6218],[-94.7458,17.4547,23.2287],[-94.7437,17.4557,25.1938],[-94.7497,17.4623,21.126],[-94.7534,17.4633,19.6754],[-94.7565,17.4614,21.3421],[-94.7613,17.4664,19.5751],[-94.7618,17.4619,69.174],[-94.763,17.462,51.3867],[-94.7628,17.465699999999998,18.6218],[-94.7646,17.466,16.8051],[-94.7642,17.4676,23.3658],[-94.7696,17.468,19.431],[-94.7681,17.4619,32.7216],[-94.7708,17.459,18.9277],[-94.7721,17.4602,18.9277],[-94.7765,17.4586,23.62],[-94.7793,17.4598,28.4931],[-94.7864,17.4471,37.3301],[-94.7936,17.4417,26.767],[-94.8036,17.4399,28.3939],[-94.8056,17.4312,32.765],[-94.8099,17.4299,41.762],[-94.8204,17.4391,31.769],[-94.8263,17.4386,32.8724],[-94.8277,17.4346,39.2771],[-94.8289,17.4356,36.4773],[-94.8331,17.4393,13.2327],[-94.8307,17.4438,13.3214],[-94.8334,17.4501,14.8358],[-94.845,17.4582,11.5],[-94.8461,17.4575,11.5],[-94.8437,17.4548,12.4126],[-94.8469,17.4573,13.092],[-94.8522,17.4664,12.0108],[-94.8482,17.4923,11.0],[-94.8445,17.4963,11.0],[-94.83,17.5025,11.0],[-94.8238,17.5002,11.0],[-94.8127,17.4846,12.1002],[-94.8004,17.4783,13.377],[-94.7868,17.4785,12.5356],[-94.7776,17.4815,15.1736],[-94.7643,17.4979,9.6238],[-94.7599,17.496,8.5],[-94.7567,17.483,23.9294],[-94.7521,17.483,25.7987],[-94.7418,17.4875,10.1219],[-94.723,17.5042,12.6196],[-94.7165,17.5209,8.0],[-94.7091,17.5299,8.4734],[-94.709,17.5367,8.0],[-94.7166,17.5493,12.6172],[-94.7271,17.5571,13.6959],[-94.7532,17.5715,7.0],[-94.7591,17.5791,7.0],[-94.7605,17.5862,7.0],[-94.7636,17.5878,12.3059],[-94.7711,17.5846,12.1676],[-94.7698,17.5801,11.2653],[-94.7736,17.5817,11.8641],[-94.7772,17.5801,11.5929],[-94.7777,17.5749,12.2886],[-94.7798,17.5766,11.9254],[-94.7885,17.5779,12.0188],[-94.7905,17.5835,12.451599999999999],[-94.7948,17.5818,13.0788],[-94.7959,17.5777,12.7729],[-94.7993,17.58,12.5533],[-94.7981,17.5829,13.1664],[-94.8001,17.583,14.5156],[-94.8029,17.5805,13.3538],[-94.8058,17.5859,12.1882],[-94.8096,17.585,11.822],[-94.8085,17.5868,11.8584],[-94.811,17.5885,15.0067],[-94.8169,17.5858,12.3919],[-94.8186,17.5893,16.1105],[-94.8209,17.589,14.2638],[-94.8229,17.5909,12.4296],[-94.8241,17.5878,16.5785],[-94.8279,17.5867,13.1207],[-94.8333,17.5908,13.2779],[-94.8346,17.5886,19.789],[-94.839,17.5897,13.3681],[-94.84,17.5881,13.769],[-94.8417,17.5905,13.2956],[-94.8477,17.5876,16.1498],[-94.8492,17.5884,17.3209],[-94.8513,17.584,18.4463],[-94.8542,17.5847,19.2504],[-94.8558,17.5822,16.5627],[-94.8586,17.5845,18.8329],[-94.8591,17.5834,15.7409],[-94.861,17.5842,16.1746],[-94.8639,17.5829,16.8699],[-94.8653,17.5795,16.1662],[-94.8713,17.5837,15.5967],[-94.8849,17.5803,18.7552],[-94.8878,17.5834,21.7809],[-94.8909,17.5816,19.7357],[-94.8928,17.5774,21.318],[-94.9004,17.5793,18.4564],[-94.9059,17.5771,19.9445],[-94.9078,17.5784,19.793],[-94.9103,17.5756,21.3729],[-94.9135,17.5749,23.1509],[-94.9138,17.5712,23.6942],[-94.9155,17.5719,24.8449],[-94.9236,17.5686,26.1905],[-94.9266,17.571,24.4462],[-94.9312,17.5699,22.4964],[-94.9341,17.5723,24.2656],[-94.9353,17.5761,27.3069],[-94.9385,17.5782,30.261],[-94.9489,17.5793,23.2324],[-94.9545,17.5773,25.7077],[-94.9595,17.5779,25.6487],[-94.9639,17.5745,25.5753],[-94.9751,17.5773,27.13],[-94.9763,17.5759,30.5335],[-94.981,17.5772,26.7682],[-94.9926,17.5731,29.6463],[-95.0002,17.5794,30.2855],[-95.0053,17.5764,33.7066],[-95.0078,17.573,33.9254],[-95.0131,17.5723,33.4727],[-95.024,17.5637,32.6792],[-95.0278,17.5632,38.742],[-95.0427,17.5685,36.3257],[-95.0454,17.5703,37.2097],[-95.0463,17.5731,38.5666],[-95.0501,17.575,38.696],[-95.0604,17.5717,42.4352],[-95.0638,17.5683,39.0657],[-95.0801,17.5716,42.3863],[-95.0828,17.5734,45.0427],[-95.0886,17.569,46.5839],[-95.0954,17.5696,48.2922],[-95.0953,17.5679,47.9807],[-95.1046,17.5656,55.2117],[-95.1058,17.5634,51.4282],[-95.1124,17.5609,54.0749],[-95.1178,17.5627,54.1792],[-95.1245,17.5595,57.9224],[-95.1288,17.5612,57.8047],[-95.1301,17.5597,62.0679],[-95.1314,17.562,56.552],[-95.1518,17.5627,77.4758],[-95.1635,17.5566,80.0022],[-95.1681,17.5586,74.9479],[-95.1722,17.5569,77.9225],[-95.1763,17.546,78.7859],[-95.181,17.5445,80.0224],[-95.1838,17.546,89.1396],[-95.1921,17.5448,94.9513],[-95.1978,17.5459,101.4757],[-95.2022,17.5414,130.9686],[-95.2016,17.5389,127.9612],[-95.2046,17.5387,122.0734],[-95.0766,17.3729,36.4213],[-94.9712,17.331,20.8876],[-94.9698,17.3336,25.1773],[-94.9665,17.3344,20.1504],[-94.9635,17.3316,20.0],[-94.9606,17.3231,25.1192],[-94.951,17.3156,22.294],[-94.9458,17.3141,23.998],[-94.9331,17.319,31.5515],[-94.9272,17.3251,33.0504],[-94.9251,17.3221,64.5631],[-94.9115,17.3143,22.0],[-94.9083,17.3138,26.4125],[-94.9042,17.3168,27.5555],[-94.901,17.3171,32.1287],[-94.8908,17.3111,28.1841],[-94.888,17.3027,26.5837],[-94.889,17.3001,35.5438],[-94.8978,17.2989,45.2554],[-94.9018,17.2964,27.9579],[-94.9091,17.2972,53.7765],[-94.9148,17.2926,71.7476],[-94.9155,17.2882,45.6564],[-94.9131,17.2862,30.478],[-94.9042,17.2896,27.1898],[-94.9013,17.2875,30.5956],[-94.9068,17.2795,45.2213],[-94.9097,17.268,37.2728],[-94.8954,17.2564,36.8823],[-94.898,17.2518,41.0733],[-94.9064,17.2467,57.054],[-94.9096,17.2428,39.2731],[-94.9094,17.2406,33.8],[-94.9053,17.2369,39.3934],[-94.9105,17.2279,47.6944],[-94.9112,17.2137,33.8238],[-94.9154,17.2062,35.3476],[-94.923,17.2041,42.2819],[-94.9228,17.1938,34.301],[-94.8236,17.1888,118.9775]]]]}
,"properties": {"GID_2": "MEX.30.91_2","GID_0": "MEX","country": "México","GID_1": "MEX.30_1","province": "Veracruz","NL_NAME_1": "NA","county": "JesúsCarranza","VARNAME_2": "NA","NL_NAME_2": "NA","TYPE_2": "Município","ENGTYPE_2": "Municipality","CC_2": "NA","HASC_2": "NA","name": "Jesús_Carranza.county","area_km2": 1422.222,"hist_schema_id": "Elevation0-9000","hist_area_km2": {"0": 33.542,"25": 445.763,"50": 462.283,"75": 193.729,"100": 129.675,"125": 102.784,"150": 45.72,"175": 7.836,"200": 0.547,"225": 0.162,"250": 0.142,"275": 0.04}}}