{"type": "Feature","bbox": [-97.924,16.3782,-97.8255,16.4571],"geometry": {"type": "MultiPolygon","coordinates": [[[[-97.9177,16.3862,165.3318],[-97.8689,16.3782,173.2974],[-97.862799999999993,16.3796,183.4621],[-97.8523,16.3787,199.2166],[-97.8525,16.3812,191.3047],[-97.8506,16.3832,189.0466],[-97.8444,16.3835,199.2167],[-97.8345,16.3887,196.0803],[-97.8313,16.387,198.5025],[-97.8305,16.3838,206.015],[-97.8265,16.3832,212.4138],[-97.8255,16.3887,215.505],[-97.832,16.4001,232.0738],[-97.8551,16.4257,252.7148],[-97.8469,16.434,262.9511],[-97.8417,16.4353,253.3361],[-97.8383,16.4392,283.2855],[-97.8452,16.4436,280.7658],[-97.8465,16.4452,265.4021],[-97.8451,16.448,259.6924],[-97.8478,16.4505,264.2814],[-97.8555,16.4535,279.3208],[-97.8593,16.4571,292.3954],[-97.8792,16.4407,417.168],[-97.8937,16.4375,561.9911],[-97.9012,16.4402,632.3656],[-97.908,16.4328,605.9889],[-97.9131,16.4347,700.8629],[-97.9176,16.4276,722.0145],[-97.923,16.4257,739.577],[-97.924,16.3951,254.1863],[-97.9219,16.3894,182.9156],[-97.9195,16.389,204.2208],[-97.9177,16.3862,165.3318]]]]}
,"properties": {"GID_2": "MEX.20.229_2","GID_0": "MEX","country": "México","GID_1": "MEX.20_1","province": "Oaxaca","NL_NAME_1": "NA","county": "SanLorenzo","VARNAME_2": "NA","NL_NAME_2": "NA","TYPE_2": "Município","ENGTYPE_2": "Municipality","CC_2": "NA","HASC_2": "NA","name": "San_Lorenzo.county","area_km2": 58.6559,"hist_schema_id": "Elevation0-9000","hist_area_km2": {"150": 0.02034,"175": 0.44751,"200": 1.83071,"225": 7.79046,"250": 15.53891,"275": 12.42604,"300": 4.1489,"325": 3.51848,"350": 2.5829,"375": 2.19649,"400": 1.44398,"425": 1.26093,"450": 1.09822,"475": 0.91516,"500": 0.93548,"525": 0.6101,"550": 0.34572,"575": 0.32538,"600": 0.46774,"625": 0.24404,"650": 0.18303,"675": 0.06101,"700": 0.16269,"725": 0.06101,"750": 0.04067}}}