{"type": "Feature","bbox": [-99.2058,19.2968,-99.0991,19.3596],"geometry": {"type": "MultiPolygon","coordinates": [[[[-99.2058,19.3057,2369.4971],[-99.1951,19.3021,2340.0093],[-99.1793,19.3034,2289.843],[-99.1623,19.3013,2260.6157],[-99.1567,19.2968,2249.4558],[-99.1516,19.298,2250.446],[-99.1474,19.3013,2246.4297],[-99.1426,19.2996,2243.113],[-99.1347,19.3083,2242.001],[-99.1168,19.3014,2235.1538],[-99.1092,19.2996,2232.7874],[-99.1009,19.3,2232.9702],[-99.0991,19.3204,2236.3662],[-99.1129,19.3354,2238.4683],[-99.1156,19.3433,2237.0093],[-99.1208,19.3518,2237.7163],[-99.122,19.3577,2236.3386],[-99.1312,19.3587,2237.8208],[-99.1343,19.3565,2241.7246],[-99.1717,19.3596,2256.6631],[-99.1806,19.3472,2263.3484],[-99.1829,19.3466,2267.7961],[-99.184,19.3436,2268.3123],[-99.1912,19.3369,2289.772],[-99.1981,19.3355,2309.7893],[-99.1998,19.3335,2318.6406],[-99.1963,19.3336,2305.6738],[-99.1947,19.3302,2317.6577],[-99.1949,19.322,2325.3843],[-99.2012,19.312,2359.2261],[-99.2002,19.3112,2346.6555],[-99.2058,19.3057,2369.4971]]]]}
,"properties": {"GID_2": "MEX.9.4_2","GID_0": "MEX","country": "México","GID_1": "MEX.9_1","province": "DistritoFederal","NL_NAME_1": "NA","county": "Coyoacán","VARNAME_2": "NA","NL_NAME_2": "NA","TYPE_2": "Município","ENGTYPE_2": "Municipality","CC_2": "NA","HASC_2": "NA","name": "Coyoacán.county","area_km2": 54.3801,"hist_schema_id": "Elevation0-9000","hist_area_km2": {"2225": 7.10298,"2250": 30.11001,"2275": 9.30362,"2300": 4.78207,"2325": 2.30105,"2350": 0.36017,"2375": 0.22011,"2400": 0.16008,"2425": 0.04002}}}