{"type":"Feature","properties":{"GID_2":"MEX.32.1_2","GID_0":"MEX","country":"México","GID_1":"MEX.32_1","province":"Zacatecas","NL_NAME_1":"NA","county":"Apozol","VARNAME_2":"NA","NL_NAME_2":"NA","TYPE_2":"Município","ENGTYPE_2":"Municipality","CC_2":"NA","HASC_2":"NA","name":"Apozol.county"},
"geometry":{"type": "MultiPolygon","coordinates": [[[[-102.9463,21.4839,2237.8936],[-102.9561,21.4833,1799.9385],[-102.961,21.4863,1722.8534],[-102.9647,21.4872,1707.0574],[-102.9668,21.4858,1688.3779],[-102.9712,21.4875,1663.27],[-102.9653,21.4987,1722.1555],[-102.9781,21.4966,1595.5773],[-102.9924,21.4973,1801.3252],[-102.9928,21.4983,1801.3252],[-102.9896,21.4997,1788.6061],[-102.9898,21.5013,1772.9109],[-102.9985,21.5078,1681.252],[-102.9993,21.5116,1688.0342],[-103.0024,21.513,1591.2112],[-103.0069,21.5131,1561.4651],[-103.0073,21.509,1605.515],[-103.0152,21.5037,1637.1318],[-103.0272,21.5025,1518.1725],[-103.0318,21.507,1476.4835],[-103.0332,21.5182,1447.8032],[-103.0397,21.523,1431.7697],[-103.041,21.5256,1418.6676],[-103.0484,21.5232,1463.4485],[-103.0527,21.518,1467.0371],[-103.0577,21.5168,1419.1162],[-103.061,21.5186,1368.4148],[-103.0634,21.5228,1331.7711],[-103.0658,21.5237,1338.3242],[-103.0653,21.5223,1338.3242],[-103.0689,21.5209,1354.0464],[-103.0717,21.5241,1365.7229],[-103.0755,21.5249,1359.134],[-103.0771,21.5309,1354.8009],[-103.0821,21.5353,1381.6882],[-103.0843,21.5341,1400.4995],[-103.0894,21.5225,1357.3934],[-103.0959,21.525,1419.7036],[-103.0931,21.5306,1477.2184],[-103.0929,21.5359,1450.9518],[-103.0936,21.5381,1430.2284],[-103.1003,21.5402,1424.2924],[-103.1038,21.5395,1440.5244],[-103.1109,21.5414,1473.2944],[-103.1122,21.5309,1437.9076],[-103.1288,21.5345,1511.0684],[-103.1369,21.5402,1600.8409],[-103.1445,21.541,1645.5243],[-103.1543,21.5456,1754.0616],[-103.1572,21.5491,1774.6479],[-103.1564,21.5583,1677.8892],[-103.1603,21.5609,1714.5189],[-103.1642,21.5616,1738.4258],[-103.1662,21.5603,1810.2234],[-103.1681,21.562,1834.0482],[-103.1748,21.5615,1897.5204],[-103.1772,21.5632,1936.8755],[-103.2197,21.4543,2545.1318],[-103.2173,21.4484,2528.0105],[-103.2028,21.4466,2439.7725],[-103.1973,21.4423,2423.8047],[-103.1967,21.4386,2270.1226],[-103.1933,21.4377,2234.8967],[-103.1842,21.4451,2003.0322],[-103.1808,21.4607,1957.0554],[-103.1765,21.46,2031.0193],[-103.1754,21.4556,2000.6495],[-103.1707,21.4493,2052.7549],[-103.1663,21.4475,2099.0063],[-103.1623,21.4503,2186.6516],[-103.15,21.4483,2152.8169],[-103.1446,21.449,1808.5699],[-103.1342,21.4559,1637.3394],[-103.1287,21.4548,1533.1471],[-103.1248,21.4519,1349.3666],[-103.1188,21.4422,1292.1348],[-103.1062,21.4426,1254.8931],[-103.1048,21.4376,1253.7573],[-103.1087,21.4362,1250.6156],[-103.1126,21.4288,1247.5254],[-103.1107,21.4301,1248.9784],[-103.1079,21.4291,1255.151],[-103.1054,21.4346,1260.2428],[-103.102,21.4339,1264.8087],[-103.0987,21.4355,1268.4526],[-103.0958,21.4348,1277.6624],[-103.0965,21.4338,1275.6494],[-103.0934,21.4312,1302.7766],[-103.0904,21.431,1289.7122],[-103.0901,21.4296,1293.8386],[-103.0838,21.4272,1336.6292],[-103.0857,21.4262,1319.0913],[-103.0853,21.4243,1357.8787],[-103.0828,21.4241,1374.2324],[-103.082,21.4265,1336.3596],[-103.0771,21.4251,1369.6255],[-103.0757,21.4264,1370.2302],[-103.0702,21.4264,1438.6783],[-103.0707,21.429,1428.5446],[-103.0678,21.429,1429.67],[-103.06,21.4251,1464.2507],[-103.0532,21.4268,1488.9814],[-103.0473,21.4237,1540.173],[-103.0458,21.427,1526.131],[-103.039,21.4261,1561.6027],[-103.0313,21.4171,1611.8127],[-103.0292,21.4168,1615.0802],[-103.0261,21.4128,1628.4224],[-103.024,21.4133,1638.4366],[-103.021,21.4098,1655.7151],[-103.0084,21.4068,1729.7965],[-102.9992,21.4086,1733.4308],[-102.998,21.4038,1749.3762],[-102.9918,21.3955,1854.3275],[-102.9941,21.388,1891.9987],[-102.993,21.3799,1967.4591],[-102.9952,21.3738,2032.1956],[-102.9849,21.3633,2416.177],[-102.9804,21.3618,2591.0825],[-102.9712,21.3746,2510.835],[-102.9705,21.384,2485.7529],[-102.9655,21.3922,2495.708],[-102.9623,21.4014,2525.2761],[-102.9604,21.4024,2558.4189],[-102.9583,21.3998,2539.3977],[-102.9544,21.3992,2490.7336],[-102.9519,21.4006,2485.7988],[-102.9454,21.399,2407.4626],[-102.9414,21.401,2372.7983],[-102.939,21.4062,2312.967],[-102.9368,21.4043,2354.6365],[-102.9356,21.4058,2324.8469],[-102.9384,21.4083,2287.9365],[-102.9386,21.4126,2249.9663],[-102.942,21.4138,2280.3503],[-102.9511,21.4122,2447.4934],[-102.9536,21.419,2486.2581],[-102.9527,21.4319,2522.2888],[-102.949,21.4464,2415.3767],[-102.9456,21.4526,2296.168],[-102.935,21.4596,1979.5692],[-102.9413,21.4649,1977.793],[-102.9413,21.4672,1988.2136],[-102.9519,21.4694,1871.0836],[-102.9463,21.4839,2237.8936]]]]}}