{"type":"Feature","properties":{"featurecla":"River","scalerank":11,"rivernum":22340,"dissolve":"22340River","name":"Sabinas","name_alt":null,"note":"ID is link back to CEC data","name_full":"Rio Sabinas","min_zoom":6.7,"strokeweig":0.15,"uident":1991801,"min_label":7.7},
"geometry":{"type": "LineString","coordinates": [[-102.08796139231207,28.022772528119035,976.9257],[-102.0746150381454,28.063910223431535,1270.5923],[-102.06501217356207,28.074652410931535,1015.7017],[-102.0528865225204,28.0855573588482,959.1555],[-102.04035397043707,28.0909284525982,928.5482],[-102.00072180897872,28.10476308801487,885.026],[-101.97630774647872,28.094305731244035,740.7474],[-101.9205623037704,28.0975202494732,702.2264],[-101.8492732412704,28.1114362650982,615.3854],[-101.79723059804122,28.1104597025982,577.0172],[-101.7860408193954,28.100897528119035,567.4832],[-101.7760310537704,28.069037176556535,542.7807],[-101.76813717356207,28.059027410931535,533.7678],[-101.74836178293707,28.039984442181535,513.7957]]}}