{"type":"Feature","properties":{"featurecla":"River","scalerank":11,"rivernum":22363,"dissolve":"22363River","name":"San Rodrigo","name_alt":null,"note":"ID is link back to CEC data","name_full":"San Rodrigo","min_zoom":6.7,"strokeweig":0.15,"uident":1987201,"min_label":7.7},
"geometry":{"type": "LineString","coordinates": [[-101.70075436106207,28.9568952494732,1257.895],[-101.68028723866622,28.9505475932232,1287.8254],[-101.6441951162704,28.95437246301487,1017.9515],[-101.62751217356207,28.95241933801487,886.0539],[-101.59825598866622,28.9385847025982,956.5461],[-101.57396399647872,28.9339460307232,867.8312],[-101.54832923085372,28.914007879681535,711.1863],[-101.54600989491622,28.913153387494035,707.9996],[-101.53685462147872,28.90969472863987,701.4789],[-101.5289607412704,28.87307363488987,715.624],[-101.52867591054122,28.8714460307232,798.3463],[-101.51598059804122,28.851752020306535,631.2147],[-101.49689693918707,28.84499746301487,673.4146],[-101.4710994131454,28.844671942181535,622.4474],[-101.46434485585372,28.84011465051487,656.6233],[-101.43748938710372,28.80788808801487,543.4368],[-101.4325251943954,28.812933660931535,624.9269],[-101.42979895741622,28.82278066613987,628.3674],[-101.4220271475204,28.829535223431535,619.1362],[-101.40965735585372,28.83083730676487,595.8176],[-101.40119381418707,28.826361395306535,577.5999],[-101.39411373606207,28.80471425988987,532.2608],[-101.3824763662704,28.798285223431535,637.2009],[-101.37169348866622,28.79861074426487,641.0354],[-101.36644446522872,28.80544668176487,576.813],[-101.35777747304122,28.809149481244035,551.9401],[-101.33726966054122,28.79812246301487,455.9591],[-101.32420813710372,28.79543691613987,490.8514],[-101.31517493397872,28.795721746869035,477.8732]]}}