{"type":"Feature","properties":{"featurecla":"River","scalerank":11,"rivernum":22336,"dissolve":"22336River","name":"Sabinas3","name_alt":null,"note":"ID is link back to CEC data","name_full":"Rio Sabinas","min_zoom":6.7,"strokeweig":0.2,"uident":1993601,"min_label":7.7},
"geometry":{"type": "LineString","coordinates": [[-101.1983943350204,27.896918035931535,350.5187],[-101.1700740225204,27.881781317181535,346.3665],[-101.12482662668707,27.83962636926487,342.3378],[-101.10521399647872,27.839178778119035,338.7947],[-101.09162350168707,27.823919989056535,332.221],[-101.06843014231207,27.81106191613987,332.6292],[-101.0646052725204,27.79250722863987,333.5672],[-101.0585017568954,27.783514715619035,321.0206],[-101.03050696522872,27.77224355676487,323.3028],[-101.02232825429122,27.762152410931535,322.9062],[-101.0162654287704,27.7474225932232,314.0639],[-101.00450598866622,27.7405866557232,318.0101],[-100.9505916006454,27.69826894738987,309.6],[-100.9364314443954,27.687201239056535,298.8077],[-100.9049373037704,27.679266668744035,314.6422],[-100.87555904856207,27.6634382182232,298.2234],[-100.81505286366622,27.6526960307232,291.0784],[-100.79393469960372,27.6404889994732,280.2012],[-100.77574622304122,27.645575262494035,283.3266],[-100.7379451162704,27.65041738488987,283.3109],[-100.72581946522872,27.6107038432232,275.4386],[-100.72105872304122,27.57595449426487,266.4713]]}}