{"type":"Feature","properties":{"featurecla":"River","scalerank":10,"rivernum":22324,"dissolve":"22324River","name":"Salado de los Nadadores","name_alt":null,"note":"ID is link back to CEC data","name_full":"Rio Salado de los Nadadores","min_zoom":6.0,"strokeweig":0.2,"uident":1997401,"min_label":7.0},
"geometry":{"type": "LineString","coordinates": [[-100.75267493397872,27.468573309369035,262.0],[-100.78331458241622,27.4664167338482,276.9545],[-100.80614173085372,27.46364980676487,273.4361],[-100.8326716787704,27.4720319682232,278.9167],[-100.8583064443954,27.46804433801487,285.1937],[-100.90623938710372,27.436346746869035,294.5644],[-100.9945369131454,27.432684637494035,308.2537],[-101.0553279287704,27.40237050988987,322.6404],[-101.08165442616622,27.391546942181535,324.5951],[-101.12531490793707,27.3638776713482,335.4992],[-101.13719641835372,27.3621686869732,338.0663],[-101.18854732981207,27.374579168744035,350.2108],[-101.20685787668707,27.36745840051487,352.3543],[-101.21760006418707,27.354193426556535,359.7834],[-101.2301326162704,27.3226179057232,358.9194],[-101.2154841787704,27.281683660931535,367.303],[-101.20783443918707,27.2317975932232,380.5073],[-101.21910559804122,27.215277410931535,391.8423],[-101.23493404856207,27.206610418744035,389.3278],[-101.24571692616622,27.205633856244035,390.0992],[-101.2779841787704,27.1551374369732,408.0836],[-101.28844153554122,27.1331647807232,421.6725],[-101.32160397043707,27.0882429057232,450.2708],[-101.3297419912704,27.0794538432232,455.8031],[-101.36668860585372,27.05520254113987,482.9548],[-101.39557857981207,27.01491933801487,507.9315],[-101.4046931631454,26.975653387494035,535.6351],[-101.4208064443954,26.93581777551487,571.4606],[-101.42931067616622,26.8968366557232,640.7735],[-101.43366451731207,26.85158925988987,682.315],[-101.42821204335372,26.821112371869035,725.353],[-101.43122311106207,26.7964948588482,757.3676],[-101.4315486318954,26.79397207238987,761.2977],[-101.44249426991622,26.781317449994035,777.48],[-101.4542537100204,26.777044989056535,792.501],[-101.46898352772872,26.772772528119035,801.5435]]}}