{"type":"Feature","properties":{"GID_2":"MEX.30.137_2","GID_0":"MEX","country":"México","GID_1":"MEX.30_1","province":"Veracruz","NL_NAME_1":"NA","county":"PozaRicadeHidalgo","VARNAME_2":"NA","NL_NAME_2":"NA","TYPE_2":"Município","ENGTYPE_2":"Municipality","CC_2":"NA","HASC_2":"NA","name":"Poza_Ricade_Hidalgo.county"},
"geometry":{"type": "MultiPolygon","coordinates": [[[[-97.404,20.4877,221.5512],[-97.3999,20.5043,146.8273],[-97.4043,20.5268,121.5152],[-97.4089,20.5407,106.7774],[-97.4085,20.5457,121.6922],[-97.4116,20.5461,109.1804],[-97.4107,20.5537,138.9857],[-97.4094,20.5535,149.677],[-97.4134,20.5671,257.4077],[-97.4202,20.5796,145.2037],[-97.4256,20.585,36.5303],[-97.4305,20.5852,33.8111],[-97.4303,20.5895,33.2326],[-97.4332,20.5867,33.6644],[-97.4388,20.5901,32.0574],[-97.4468,20.5861,31.9854],[-97.4496,20.5831,39.8278],[-97.4497,20.581,40.6642],[-97.4473,20.5785,35.2827],[-97.442,20.5806,32.6847],[-97.4409,20.5775,32.6466],[-97.4469,20.5676,35.1865],[-97.4488,20.5602,41.854],[-97.4541,20.5598,38.361],[-97.4535,20.5553,39.7305],[-97.4548,20.5532,39.3576],[-97.4656,20.5496,38.0715],[-97.4822,20.5379,41.9621],[-97.4831,20.5336,46.5512],[-97.4782,20.5257,43.767],[-97.4822,20.5212,43.8571],[-97.4834,20.5166,46.9155],[-97.4867,20.5146,51.2289],[-97.4877,20.5057,50.3392],[-97.483,20.5081,51.3155],[-97.4743,20.5058,60.0984],[-97.4752,20.5036,60.9634],[-97.4649,20.5003,92.4979],[-97.4654,20.4976,98.1701],[-97.4574,20.4968,148.4911],[-97.4545,20.4938,148.1923],[-97.455,20.4916,94.265],[-97.4505,20.4946,131.5754],[-97.4483,20.4941,133.8874],[-97.4484,20.4912,118.1633],[-97.4184,20.4871,146.3438],[-97.4067,20.4886,163.5184],[-97.404,20.4877,221.5512]]]]}}