{"type": "Feature","bbox": [-96.8796,16.5929,-96.8312,16.6319],"geometry": {"type": "MultiPolygon","coordinates": [[[[-96.8796,16.6233,2243.4614],[-96.8643,16.6094,1472.556],[-96.8502,16.6044,1477.1641],[-96.8394,16.5929,1841.9692],[-96.8312,16.6167,1587.2794],[-96.8484,16.621,1442.1707],[-96.8494,16.6266,1420.1782],[-96.8459,16.6298,1421.8726],[-96.8524,16.6319,1432.1963],[-96.8717,16.6317,1810.833],[-96.8796,16.6233,2243.4614]]]]}
,"properties": {"GID_2": "MEX.20.245_2","GID_0": "MEX","country": "México","GID_1": "MEX.20_1","province": "Oaxaca","NL_NAME_1": "NA","county": "SanMartínLachilá","VARNAME_2": "NA","NL_NAME_2": "NA","TYPE_2": "Município","ENGTYPE_2": "Municipality","CC_2": "NA","HASC_2": "NA","name": "San_Martín_Lachilá.county","area_km2": 10.889807,"hist_schema_id": "Elevation0-9000","hist_area_km2": {"1425": 2.620854,"1450": 1.686294,"1475": 1.279966,"1500": 1.036173,"1525": 0.934576,"1550": 0.832981,"1575": 0.365699,"1600": 0.325068,"1625": 0.243807,"1650": 0.284437,"1675": 0.18285,"1700": 0.14222,"1725": 0.08127,"1750": 0.08127,"1775": 0.142217,"1800": 0.16253,"1825": 0.081267,"1850": 0.020316,"1875": 0.08127,"1900": 0.081263,"1925": 0.020316,"1975": 0.040633,"2000": 0.020316,"2025": 0.020316,"2050": 0.020316,"2075": 0.040632,"2125": 0.020316,"2175": 0.020316,"2200": 0.020316}}}