{"type":"Feature","properties":{"GID_2":"MEX.20.492_2","GID_0":"MEX","country":"México","GID_1":"MEX.20_1","province":"Oaxaca","NL_NAME_1":"NA","county":"SantiagoTetepec","VARNAME_2":"NA","NL_NAME_2":"NA","TYPE_2":"Município","ENGTYPE_2":"Municipality","CC_2":"NA","HASC_2":"NA","name":"Santiago_Tetepec.county"},
"geometry":{"type": "MultiPolygon","coordinates": [[[[-97.6981,16.443,1330.0266],[-97.6968,16.4412,1278.5613],[-97.7075,16.4057,1195.8],[-97.7018,16.3894,1356.6063],[-97.7023,16.3741,1343.9408],[-97.696,16.3627,1376.8917],[-97.6832,16.3527,915.1898],[-97.6864,16.3436,813.6103],[-97.7054,16.3079,394.2409],[-97.7169,16.3188,408.0917],[-97.7483,16.3376,271.0761],[-97.754,16.3366,266.5825],[-97.7587,16.3422,270.7623],[-97.761,16.3413,259.1924],[-97.7615,16.3395,262.0637],[-97.7713,16.3389,254.2891],[-97.7806,16.3423,245.3028],[-97.7777,16.335,246.3484],[-97.7874,16.3182,304.0321],[-97.7745,16.2846,453.3959],[-97.7749,16.2791,438.456],[-97.765,16.2699,125.7319],[-97.7672,16.2536,67.474],[-97.7384,16.2418,314.9101],[-97.6598,16.2522,523.0389],[-97.6496,16.2552,607.1635],[-97.6384,16.2652,766.4045],[-97.6103,16.2577,387.2761],[-97.5987,16.2592,64.4815],[-97.6057,16.2686,45.2723],[-97.6087,16.2813,77.601],[-97.6053,16.2884,45.7633],[-97.6054,16.2933,46.1805],[-97.615,16.2984,55.8322],[-97.5999,16.3154,67.3594],[-97.6042,16.3189,74.9634],[-97.609,16.3177,81.4317],[-97.6119,16.319,72.403],[-97.6279,16.3316,118.6189],[-97.6294,16.3364,90.6182],[-97.6285,16.3388,99.4149],[-97.626,16.3395,95.4274],[-97.6147,16.3394,117.4277],[-97.6111,16.348,119.7571],[-97.6181,16.3575,129.2201],[-97.6153,16.3619,131.5071],[-97.6106,16.3634,133.1089],[-97.6107,16.3707,188.7575],[-97.6061,16.3797,162.45],[-97.6059,16.3879,187.2898],[-97.61,16.3914,171.295],[-97.6125,16.3978,207.8932],[-97.611,16.4089,259.5192],[-97.6081,16.4119,214.4251],[-97.6104,16.413,400.4544],[-97.5934,16.4189,292.7204],[-97.6043,16.4265,253.4406],[-97.6121,16.4233,217.7888],[-97.617,16.4278,235.3882],[-97.6191,16.433,211.1271],[-97.6183,16.4378,211.5009],[-97.62,16.4524,467.5734],[-97.6304,16.4651,641.4353],[-97.6638,16.4761,1361.3137],[-97.6669,16.4711,1624.9053],[-97.6749,16.4643,1425.0337],[-97.6841,16.4693,1595.3207],[-97.6981,16.443,1330.0266]]]]}}