{"type":"Feature","properties":{"GID_2":"MEX.24.44_2","GID_0":"MEX","country":"México","GID_1":"MEX.24_1","province":"SanLuisPotosí","NL_NAME_1":"NA","county":"Tanlajás","VARNAME_2":"NA","NL_NAME_2":"NA","TYPE_2":"Município","ENGTYPE_2":"Municipality","CC_2":"NA","HASC_2":"NA","name":"Tanlajás.county"},
"geometry":{"type": "MultiPolygon","coordinates": [[[[-98.9818,21.7285,37.2264],[-98.9815,21.7266,57.2115],[-98.9677,21.7122,81.6998],[-98.9624,21.7094,48.957],[-98.9635,21.7029,43.3865],[-98.9519,21.7021,45.5864],[-98.9492,21.6928,49.0228],[-98.9478,21.6929,49.0228],[-98.9418,21.6854,58.5896],[-98.9416,21.6841,58.5896],[-98.9455,21.6833,54.4431],[-98.9401,21.6681,83.6141],[-98.9339,21.6702,228.0301],[-98.9287,21.6613,322.3453],[-98.9309,21.6551,331.469],[-98.9295,21.6486,323.1552],[-98.9234,21.6419,302.9963],[-98.9188,21.6402,372.8108],[-98.9042,21.6439,240.021],[-98.8997,21.6466,213.9209],[-98.8907,21.6452,180.8847],[-98.8653,21.6571,132.7594],[-98.8514,21.6581,191.4114],[-98.8498,21.6601,142.5281],[-98.8429,21.6619,137.5689],[-98.8398,21.6609,111.0178],[-98.8454,21.6591,159.1852],[-98.8332,21.6487,230.6285],[-98.823,21.6548,96.978],[-98.8288,21.6639,105.506],[-98.8233,21.6652,85.6352],[-98.7364,21.6624,64.6331],[-98.7295,21.6437,88.9689],[-98.7318,21.6394,95.9395],[-98.7027,21.6639,52.5041],[-98.6771,21.6729,55.6274],[-98.6661,21.6995,69.8528],[-98.676,21.7036,96.5509],[-98.6755,21.7118,106.8609],[-98.6923,21.7136,158.3679],[-98.6906,21.7221,149.9385],[-98.7288,21.729,197.3955],[-98.7291,21.7423,158.4098],[-98.7302,21.7424,195.6403],[-98.7287,21.7493,112.4888],[-98.7307,21.7496,106.9954],[-98.729,21.7564,86.707],[-98.755,21.7586,96.7942],[-98.7698,21.7855,64.6787],[-98.7809,21.7789,59.7794],[-98.8029,21.801,37.487],[-98.7895,21.8214,29.3072],[-98.7938,21.8293,26.5817],[-98.7869,21.8274,29.1641],[-98.7822,21.8296,30.6308],[-98.7842,21.8346,30.909],[-98.7907,21.8418,26.6343],[-98.7923,21.8404,26.8472],[-98.8029,21.8504,40.26],[-98.8215,21.8442,29.3919],[-98.8226,21.8393,30.4719],[-98.8275,21.8359,30.5887],[-98.8333,21.8344,30.667],[-98.8338,21.8325,33.76],[-98.8321,21.8306,34.1208],[-98.8337,21.8285,32.5893],[-98.8328,21.8217,35.404],[-98.8375,21.8205,31.223],[-98.8403,21.8232,31.84],[-98.8506,21.8181,33.1827],[-98.8506,21.8148,33.989],[-98.8531,21.8145,33.8104],[-98.8527,21.8116,34.7176],[-98.8491,21.8105,34.3386],[-98.8482,21.8086,32.5965],[-98.846,21.8102,32.5418],[-98.8446,21.8089,32.9592],[-98.8457,21.8064,33.0892],[-98.8536,21.8059,32.1319],[-98.8501,21.8042,33.0376],[-98.8522,21.803,33.3654],[-98.8497,21.7996,30.7016],[-98.8535,21.7988,31.6609],[-98.8552,21.8013,35.4277],[-98.8563,21.7979,32.8229],[-98.8578,21.8004,34.6588],[-98.8593,21.7971,31.346],[-98.8583,21.7947,33.8633],[-98.8604,21.7926,30.9036],[-98.861,21.7942,32.4574],[-98.8645,21.7945,31.8028],[-98.8644,21.7918,31.3319],[-98.8679,21.7908,31.3817],[-98.8676,21.7931,32.2636],[-98.8715,21.7932,29.3047],[-98.8717,21.7902,33.4491],[-98.8752,21.7898,32.0292],[-98.8764,21.7858,30.1957],[-98.8785,21.7866,33.9489],[-98.8784,21.7845,33.2716],[-98.8802,21.7857,29.2787],[-98.8804,21.7828,30.9118],[-98.8788,21.7824,31.1913],[-98.88,21.7811,29.8513],[-98.8789,21.781,35.7424],[-98.8794,21.7785,36.8398],[-98.8827,21.7777,32.0379],[-98.8825,21.7792,30.7785],[-98.8851,21.7797,32.6797],[-98.884,21.7825,31.6939],[-98.8874,21.7832,31.6861],[-98.8909,21.7868,31.9716],[-98.8898,21.7849,31.8752],[-98.8915,21.7831,30.1758],[-98.888,21.7809,30.7894],[-98.8894,21.7795,30.1452],[-98.8886,21.7774,30.3476],[-98.8908,21.7766,30.945],[-98.8918,21.774,33.0587],[-98.8906,21.7717,31.7327],[-98.8933,21.7726,31.721],[-98.8915,21.7702,29.8762],[-98.8935,21.7703,29.9917],[-98.8937,21.7681,29.7858],[-98.897,21.765,30.802],[-98.8986,21.7658,28.8173],[-98.8995,21.771,32.8242],[-98.9033,21.775,30.0631],[-98.9074,21.7727,30.6126],[-98.9071,21.7709,30.0258],[-98.9041,21.771,29.4339],[-98.9066,21.7688,29.3537],[-98.904,21.7656,29.5589],[-98.9066,21.7616,30.2115],[-98.9029,21.7599,31.2793],[-98.9023,21.7566,29.6087],[-98.9028,21.7554,30.2207],[-98.9043,21.7566,32.1787],[-98.906,21.7545,31.4863],[-98.9062,21.7527,35.7215],[-98.9034,21.7528,31.1245],[-98.9045,21.7506,31.5257],[-98.9073,21.7503,34.2081],[-98.9082,21.7484,34.9278],[-98.9117,21.7499,34.8362],[-98.9108,21.7483,33.8769],[-98.9131,21.7462,34.309],[-98.9152,21.749,35.193],[-98.9172,21.746,33.8255],[-98.9255,21.7466,34.3156],[-98.9277,21.7452,33.1832],[-98.9275,21.7472,34.8329],[-98.9303,21.7485,35.1164],[-98.9305,21.7446,34.9875],[-98.9293,21.7441,34.9875],[-98.9305,21.743,33.4012],[-98.9413,21.7422,37.3232],[-98.9423,21.7434,40.6494],[-98.9372,21.749,40.5294],[-98.9426,21.7474,34.0233],[-98.9478,21.7488,34.6021],[-98.9476,21.7506,33.1729],[-98.9493,21.751,33.1756],[-98.9504,21.7499,33.2436],[-98.9479,21.7447,34.0036],[-98.9539,21.7437,35.8297],[-98.9545,21.7417,33.9398],[-98.9564,21.7436,35.59],[-98.9564,21.7484,34.4928],[-98.9587,21.7514,34.1329],[-98.9683,21.7441,36.585],[-98.9736,21.7466,38.0672],[-98.97,21.7424,38.1001],[-98.9705,21.7399,36.6495],[-98.9745,21.7414,36.4838],[-98.9741,21.7379,35.354],[-98.9767,21.7351,35.7677],[-98.9744,21.7341,36.4357],[-98.9777,21.7332,37.681399999999996],[-98.9794,21.7297,37.7326],[-98.9804,21.7306,37.1111],[-98.9818,21.7285,37.2264]]]]}}