{"type": "Feature","bbox": [-104.2595,20.8133,-103.8778,21.0079],"geometry": {"type": "MultiPolygon","coordinates": [[[[-104.0922,20.8859,1381.9758],[-104.0916,20.888,1380.1711],[-104.0877,20.8888,1376.8296],[-104.0866,20.891,1375.85],[-104.0822,20.8915,1375.2229],[-104.0814,20.8934,1373.1552],[-104.0796,20.8928,1372.6257],[-104.0768,20.899,1368.0527],[-104.0795,20.9007,1367.7788],[-104.0798,20.9031,1416.7574],[-104.0752,20.9033,1366.4722],[-104.0718,20.9058,1366.5],[-104.0661,20.9057,1366.5],[-104.0588,20.9116,1365.0211],[-104.0368,20.9115,1361.6831],[-104.0311,20.9082,1360.5648],[-104.0311,20.8922,1360.0242],[-104.0205,20.8922,1358.968],[-104.0212,20.8442,1357.6357],[-103.9852,20.8458,1359.396],[-103.9831,20.8414,1370.7744],[-103.9783,20.8389,1367.6154],[-103.9735,20.8314,1380.8691],[-103.9666,20.8301,1420.5203],[-103.9676,20.8253,1424.0344],[-103.9668,20.8242,1424.0344],[-103.9642,20.8253,1460.9694],[-103.9662,20.8233,1447.8286],[-103.9653,20.8213,1445.9534],[-103.9582,20.8259,1500.1633],[-103.9438,20.8308,1581.5374],[-103.9447,20.8321,1585.0863],[-103.9388,20.8374,1641.2927],[-103.94,20.84,1623.2509],[-103.9359,20.8406,1618.6284],[-103.9343,20.843,1610.8995],[-103.9238,20.839,1600.5435],[-103.9217,20.8318,1655.6083],[-103.9261,20.8278,1693.785],[-103.9262,20.8249,1732.3232],[-103.915,20.8146,1858.9668],[-103.9095,20.8133,1840.959],[-103.902,20.8157,1880.3545],[-103.9011,20.8194,1801.9443],[-103.8955,20.8198,1847.9658],[-103.8934,20.8224,1910.3796],[-103.8914,20.8224,1977.4777],[-103.8912,20.8245,1960.5756],[-103.8968,20.8332,1920.1111],[-103.8987,20.8415,1920.5242],[-103.8911,20.8434,1867.3091],[-103.8894,20.8566,1592.7288],[-103.8857,20.86,1501.5588],[-103.8832,20.8662,1405.4619],[-103.8779,20.8698,1330.8519],[-103.8778,20.8729,1340.3904],[-103.885,20.8738,1379.0107],[-103.887,20.8788,1404.7844],[-103.8907,20.8801,1414.9119],[-103.8878,20.8896,1374.4227],[-103.8861,20.8905,1364.3417],[-103.888,20.8921,1357.5466],[-103.89,20.8899,1379.6334],[-103.8922,20.8937,1365.1012],[-103.8931,20.8917,1376.235],[-103.8972,20.8947,1344.1643],[-103.9124,20.9,1342.9781],[-103.9194,20.9048,1376.0253],[-103.9083,20.9104,1313.4094],[-103.908,20.9132,1298.0045],[-103.9122,20.9148,1285.5835],[-103.9127,20.9188,1245.6624],[-103.9179,20.92,1323.9034],[-103.9206,20.9175,1311.5555],[-103.9191,20.9169,1276.7426],[-103.9198,20.9147,1281.3037],[-103.9284,20.913,1323.1279],[-103.93,20.9088,1334.98],[-103.9351,20.9075,1362.0836],[-103.9351,20.9098,1356.8204],[-103.9396,20.9062,1368.4126],[-103.9397,20.911,1412.7465],[-103.9416,20.9112,1412.7465],[-103.9434,20.9067,1387.4075],[-103.9462,20.9073,1401.2052],[-103.9453,20.911,1418.2357],[-103.9703,20.946,1338.3362],[-103.9665,20.9556,1279.7693],[-103.9733,20.9576,1424.6704],[-103.9766,20.9563,1404.5479],[-103.979,20.9575,1415.2477],[-103.9772,20.9596,1391.9376],[-103.9809,20.9595,1421.5299],[-103.9803,20.9616,1406.7006],[-103.9845,20.9684,1412.9919],[-103.9908,20.9717,1387.2173],[-103.987,20.9771,1348.3896],[-103.9904,20.9782,1351.2141],[-103.9901,20.9802,1354.4388],[-103.9956,20.983,1363.5106],[-103.9982,20.9875,1375.783],[-104.0022,20.9901,1383.4829],[-104.0005,20.9917,1413.1871],[-104.0117,21.0079,1451.8792],[-104.021,21.0043,1486.931],[-104.0229,21.0061,1498.3323],[-104.0204,21.0027,1485.8098],[-104.0235,20.9941,1488.5295],[-104.0273,20.9952,1513.749],[-104.032,20.9855,1510.6124],[-104.0318,20.9804,1494.066],[-104.041,20.9815,1507.9558],[-104.0505,20.9752,1401.988],[-104.0519,20.976,1403.2008],[-104.0618,20.9588,1418.2466],[-104.0745,20.956,1420.1102],[-104.0793,20.9525,1428.6438],[-104.088,20.9554,1475.1301],[-104.0897,20.9574,1445.4071],[-104.0966,20.9575,1486.4498],[-104.1,20.9542,1469.5609],[-104.0976,20.955,1463.7832],[-104.0925,20.9494,1490.493],[-104.0916,20.9442,1436.9385],[-104.0984,20.9429,1454.491],[-104.1002,20.9412,1459.3083],[-104.106,20.943,1467.9906],[-104.1094,20.9472,1493.8788],[-104.1159,20.9448,1503.6342],[-104.1179,20.942,1511.7183],[-104.1266,20.9423,1552.6077],[-104.1274,20.9408,1545.4186],[-104.1311,20.9413,1589.6708],[-104.1336,20.9394,1578.4302],[-104.1386,20.9438,1645.8264],[-104.1378,20.946,1665.1134],[-104.1397,20.9457,1656.651],[-104.1417,20.9485,1723.7806],[-104.1448,20.9492,1726.7174],[-104.1469,20.9466,1760.1705],[-104.1493,20.9476,1787.5736],[-104.1494,20.9449,1805.4316],[-104.1517,20.944,1874.0538],[-104.1541,20.9399,1949.5649],[-104.1574,20.9392,1972.1309],[-104.1568,20.9366,1997.0934],[-104.1598,20.9361,2029.03],[-104.1654,20.9386,2046.5315],[-104.1668,20.9374,2023.5155],[-104.1797,20.9406,2065.1621],[-104.1776,20.9424,2103.3672],[-104.1786,20.9457,2066.2583],[-104.1757,20.9451,2174.5742],[-104.1729,20.9473,2098.9526],[-104.1697,20.9532,2030.938],[-104.1717,20.9559,1903.9351],[-104.176,20.9577,1849.2659],[-104.1783,20.9553,1875.6066],[-104.1848,20.9577,1929.8549],[-104.1862,20.9666,1632.6348],[-104.1887,20.9628,1785.0934],[-104.19,20.9518,2052.031],[-104.192,20.9497,2102.3115],[-104.1957,20.9574,2108.5754],[-104.2015,20.9601,1990.1855],[-104.2048,20.9599,1977.7507],[-104.2013,20.9592,1990.1855],[-104.2011,20.9573,1956.2928],[-104.2045,20.9549,1995.6378],[-104.2046,20.952,2099.8303],[-104.208,20.9511,2040.9346],[-104.2066,20.9364,2141.2012],[-104.2211,20.9415,1960.4866],[-104.2288,20.9356,1882.4634],[-104.2301,20.932,1909.7969],[-104.2365,20.9262,1922.4641],[-104.2465,20.9212,1878.2302],[-104.2482,20.9069,1816.8981],[-104.2595,20.894,1437.7737],[-104.2537,20.8927,1452.9468],[-104.2517,20.8956,1483.0977],[-104.2504,20.8945,1464.6591],[-104.2496,20.8961,1468.1145],[-104.2437,20.8977,1488.3574],[-104.2419,20.9009,1493.2074],[-104.2392,20.9,1486.3928],[-104.2385,20.903199999999998,1538.0323],[-104.2333,20.9072,1530.5883],[-104.2326,20.9098,1530.7411],[-104.2281,20.9119,1542.2081],[-104.2238,20.9179,1594.788],[-104.2176,20.9189,1603.4116],[-104.2183,20.9208,1618.5822],[-104.2159,20.9233,1623.7751],[-104.2018,20.922,1709.4619],[-104.2022,20.9204,1741.5146],[-104.1977,20.9191,1756.2937],[-104.196,20.9152,1807.0106],[-104.1937,20.9142,1793.251],[-104.1907,20.9155,1898.7325],[-104.1819,20.9103,1978.3646],[-104.1792,20.9122,1998.4082],[-104.172,20.9116,1994.4634],[-104.1662,20.9029,1912.0984],[-104.1552,20.8977,1876.9156],[-104.1532,20.8931,1827.1691],[-104.1472,20.8912,1707.4684],[-104.1425,20.8839,1604.1881],[-104.1409,20.8863,1571.39],[-104.1386,20.8866,1561.026],[-104.1314,20.8822,1537.3741],[-104.1288,20.8842,1516.3359],[-104.122,20.8847,1465.3103],[-104.1182,20.8833,1427.3508],[-104.1084,20.8847,1405.1355],[-104.1057,20.883,1401.4551],[-104.0981,20.8855,1387.8442],[-104.0977,20.8871,1390.7513],[-104.0922,20.8859,1381.9758]]]]}
,"properties": {"GID_2": "MEX.14.57_2","GID_0": "MEX","country": "México","GID_1": "MEX.14_1","province": "Jalisco","NL_NAME_1": "NA","county": "Magdalena","VARNAME_2": "NA","NL_NAME_2": "NA","TYPE_2": "Município","ENGTYPE_2": "Municipality","CC_2": "NA","HASC_2": "NA","name": "Magdalena.county","area_km2": 293.9819,"hist_schema_id": "Elevation0-9000","hist_area_km2": {"1225": 0.0198,"1250": 0.1188,"1275": 0.3763,"1300": 0.4753,"1325": 0.9705,"1350": 32.4259,"1375": 52.1435,"1400": 25.7057,"1425": 20.8743,"1450": 18.3992,"1475": 20.2813,"1500": 14.8945,"1525": 13.1918,"1550": 12.1819,"1575": 9.2109,"1600": 7.9835,"1625": 6.1806,"1650": 3.8231,"1675": 3.7438,"1700": 3.6844,"1725": 3.4071,"1750": 2.8921,"1775": 2.9118,"1800": 2.9713,"1825": 3.3081,"1850": 3.2288,"1875": 3.0306,"1900": 3.0702,"1925": 2.0203,"1950": 2.0795,"1975": 1.8219,"2000": 2.119,"2025": 2.1982,"2050": 2.6932,"2075": 2.515,"2100": 2.099,"2125": 1.5049,"2150": 1.4059,"2175": 0.7129,"2200": 0.8119,"2225": 0.4158,"2250": 0.0792}}}