{"type": "Feature","bbox": [-89.4443,21.034,-89.3401,21.2346],"geometry": {"type": "MultiPolygon","coordinates": [[[[-89.3401,21.114,8.9055],[-89.344,21.1171,8.0153],[-89.35,21.115,10.3712],[-89.3562,21.117,9.3846],[-89.3563,21.1216,9.4355],[-89.3612,21.1201,9.2616],[-89.3587,21.1293,9.0646],[-89.3685,21.1318,9.2512],[-89.3684,21.1367,9.5561],[-89.361,21.1376,9.0868],[-89.3619,21.1462,10.0295],[-89.3575,21.1461,9.2306],[-89.3589,21.1568,8.7481],[-89.3622,21.1614,9.6621],[-89.37,21.1655,9.2167],[-89.3688,21.1682,9.0804],[-89.3775,21.1692,8.6948],[-89.3764,21.1723,8.7294],[-89.409,21.1815,7.3644],[-89.4056,21.2109,6.152],[-89.4092,21.2113,6.1778],[-89.4084,21.2256,5.851],[-89.4158,21.2263,6.5055],[-89.4155,21.2303,6.9322],[-89.4373,21.2346,6.3854],[-89.4443,21.1913,5.7037],[-89.4437,21.1857,5.6221],[-89.43,21.1832,7.3299],[-89.4306,21.177,7.5165],[-89.4236,21.176,6.2818],[-89.4224,21.1721,6.6672],[-89.4223,21.1709,7.5574],[-89.4312,21.1715,7.0219],[-89.4337,21.1445,7.6496],[-89.4153,21.1418,6.4575],[-89.42,21.1357,8.4203],[-89.436,21.137,8.696],[-89.4334,21.1307,8.6895],[-89.4352,21.1273,7.6097],[-89.437,21.1276,7.746],[-89.4375,21.1245,7.4101],[-89.4359,21.1219,8.0839],[-89.4327,21.121,8.4222],[-89.4325,21.1166,8.8033],[-89.4259,21.116,8.0966],[-89.4269,21.1077,8.0602],[-89.4346,21.107,8.6822],[-89.434,21.0956,9.2911],[-89.429,21.0957,7.8221],[-89.4315,21.0897,9.3178],[-89.4181,21.0876,10.7362],[-89.4175,21.0807,10.6333],[-89.414,21.0801,10.9346],[-89.415,21.072,8.0005],[-89.4064,21.0705,10.2027],[-89.4017,21.0666,10.0795],[-89.3977,21.0664,7.9575],[-89.3982,21.072,10.2299],[-89.3999,21.0717,8.2035],[-89.4001,21.0734,7.4186],[-89.3998,21.0756,8.9534],[-89.3974,21.0762,9.2149],[-89.3975,21.0732,9.2862],[-89.394,21.0734,10.0391],[-89.3939,21.0694,8.968],[-89.3871,21.068,9.337],[-89.3859,21.0624,9.4688],[-89.3891,21.0489,10.7514],[-89.3965,21.0536,10.5912],[-89.4009,21.0389,8.0416],[-89.3997,21.034,10.3734],[-89.3857,21.0428,9.2299],[-89.385,21.0458,10.8889],[-89.3824,21.0446,9.7715],[-89.38,21.0492,10.4111],[-89.3715,21.0476,12.0765],[-89.3685,21.0503,10.6481],[-89.3679,21.0533,11.7371],[-89.3654,21.0542,11.6206],[-89.3646,21.0587,10.4738],[-89.3692,21.0602,10.337],[-89.3734,21.0721,10.2779],[-89.3757,21.0729,9.9509],[-89.375,21.0775,8.7579],[-89.3719,21.0781,10.2008],[-89.3713,21.0818,9.7486],[-89.3671,21.0825,10.2613],[-89.3672,21.0842,10.0555],[-89.3653,21.0844,10.2114],[-89.3658,21.0899,9.8363],[-89.3515,21.0899,10.8957],[-89.3562,21.1006,10.3895],[-89.3587,21.1008,8.0299],[-89.3584,21.104,9.1281],[-89.346,21.1024,9.5182],[-89.3449,21.1138,8.9901],[-89.3401,21.114,8.9055]]]]}
,"properties": {"GID_2": "MEX.31.4_2","GID_0": "MEX","country": "México","GID_1": "MEX.31_1","province": "Yucatán","NL_NAME_1": "NA","county": "Baca","VARNAME_2": "NA","NL_NAME_2": "NA","TYPE_2": "Município","ENGTYPE_2": "Municipality","CC_2": "NA","HASC_2": "NA","name": "Baca.county","area_km2": 108.76831,"hist_schema_id": "Elevation0-9000","hist_area_km2": {"0": 108.68918,"25": 0.07912}}}