{"type":"Feature","properties":{"GID_2":"MEX.31.37_2","GID_0":"MEX","country":"México","GID_1":"MEX.31_1","province":"Yucatán","NL_NAME_1":"NA","county":"Huhí","VARNAME_2":"NA","NL_NAME_2":"NA","TYPE_2":"Município","ENGTYPE_2":"Municipality","CC_2":"NA","HASC_2":"NA","name":"Huhí.county"},
"geometry":{"type": "MultiPolygon","coordinates": [[[[-89.1666,20.7651,19.6051],[-89.1742,20.7616,18.7175],[-89.1796,20.7571,20.2681],[-89.1777,20.7438,19.8456],[-89.1811,20.744,18.8096],[-89.1902,20.7508,18.8013],[-89.1905,20.7436,17.2246],[-89.1917,20.744,18.2635],[-89.1928,20.7413,17.2344],[-89.1958,20.7418,17.3402],[-89.1961,20.7347,17.3622],[-89.2012,20.7355,19.0244],[-89.2013,20.7274,16.7564],[-89.2083,20.7268,16.7248],[-89.2076,20.7316,17.9903],[-89.2158,20.7322,16.6353],[-89.2164,20.7263,16.7009],[-89.2248,20.7268,17.2512],[-89.2335,20.7206,16.1935],[-89.2336,20.7172,17.7062],[-89.229,20.7173,19.3581],[-89.2281,20.7209,19.2252],[-89.2242,20.7211,18.5942],[-89.2239,20.7152,20.7627],[-89.222,20.7153,19.8061],[-89.2223,20.7216,16.6074],[-89.2186,20.7222,18.3875],[-89.2112,20.7203,18.4607],[-89.2102,20.7106,20.5783],[-89.2013,20.7071,18.3905],[-89.2013,20.6936,22.3753],[-89.1985,20.6934,22.3108],[-89.1991,20.6902,19.3169],[-89.208,20.6901,19.965699999999998],[-89.2083,20.6789,20.9116],[-89.1884,20.677,20.2199],[-89.187,20.6863,24.1133],[-89.1812,20.6815,22.3313],[-89.1777,20.6741,20.3269],[-89.1729,20.6727,19.9993],[-89.1733,20.6714,17.3544],[-89.169,20.6673,14.1416],[-89.1636,20.6651,16.7519],[-89.1704,20.6618,19.7823],[-89.1717,20.6507,19.6706],[-89.1742,20.6462,17.234],[-89.1801,20.6478,13.5911],[-89.1823,20.6419,17.059],[-89.1764,20.6404,20.9758],[-89.1692,20.6488,17.0666],[-89.1557,20.6458,20.5276],[-89.1562,20.6331,18.4434],[-89.1594,20.626,21.7568],[-89.1478,20.6116,22.0698],[-89.1474,20.6045,22.3832],[-89.1362,20.5982,18.9455],[-89.1312,20.6042,21.5195],[-89.1217,20.6094,25.5932],[-89.1207,20.617,22.2477],[-89.1,20.6147,17.8254],[-89.0912,20.6245,21.3799],[-89.0886,20.6383,19.8132],[-89.0794,20.6373,19.833],[-89.0693,20.6521,23.4128],[-89.0622,20.6574,23.9685],[-89.0587,20.669,25.6483],[-89.0702,20.6745,22.2416],[-89.0742,20.6824,22.9612],[-89.067,20.6841,21.6456],[-89.0604,20.704,23.7909],[-89.0759,20.7054,19.4975],[-89.072,20.7423,21.3086],[-89.0748,20.7436,23.2341],[-89.0782,20.7503,19.4698],[-89.0776,20.7582,22.3419],[-89.0934,20.7622,20.8673],[-89.0935,20.7634,20.8673],[-89.106,20.7644,22.0582],[-89.1054,20.7679,21.3927],[-89.1121,20.7685,19.8249],[-89.1148,20.7703,20.1235],[-89.1159,20.7674,17.4579],[-89.1179,20.7692,20.6941],[-89.1263,20.7698,20.289],[-89.1273,20.7718,20.1849],[-89.1322,20.7741,18.8216],[-89.1326,20.7771,21.417],[-89.1393,20.7785,22.0117],[-89.1377,20.7694,21.5782],[-89.1437,20.7697,20.609],[-89.147,20.771,18.2494],[-89.1472,20.7733,18.3579],[-89.1518,20.7741,17.4186],[-89.1517,20.7709,19.3259],[-89.163,20.7712,17.4811],[-89.1591,20.7596,19.6959],[-89.1671,20.7605,17.6742],[-89.1653,20.763,18.5334],[-89.1653,20.765,19.6051],[-89.1666,20.7651,19.6051]]]]}}