{"type": "Feature","bbox": [-102.4371,21.3815,-101.9715,21.7545],"geometry": {"type": "MultiPolygon","coordinates": [[[[-102.3844,21.6519,1805.52],[-102.3891,21.6426,1799.1498],[-102.3875,21.6313,1824.1962],[-102.3859,21.6295,1826.6296],[-102.3862,21.6239,1814.8276],[-102.3887,21.6208,1800.5837],[-102.3975,21.619,1788.5831],[-102.3984,21.6158,1799.4923],[-102.4003,21.6148,1798.7969],[-102.4012,21.6048,1779.4308],[-102.4045,21.5969,1776.9131],[-102.4032,21.5957,1776.9131],[-102.4052,21.5919,1793.2158],[-102.4025,21.5875,1769.6165],[-102.3992,21.5864,1767.3419],[-102.3999,21.5829,1765.4016],[-102.3978,21.581,1764.4427],[-102.4002,21.5796,1761.8867],[-102.3989,21.5685,1758.3071],[-102.403,21.5661,1754.4686],[-102.4018,21.5625,1753.8926],[-102.4032,21.5607,1754.7148],[-102.3995,21.5601,1755.5388],[-102.3986,21.5635,1759.3857],[-102.3965,21.5621,1753.5488],[-102.395,21.5646,1753.4861],[-102.3927,21.5645,1758.3224],[-102.3935,21.5689,1756.8394],[-102.3921,21.5707,1761.1213],[-102.3903,21.5705,1761.1213],[-102.3897,21.5681,1762.8236],[-102.3879,21.5696,1759.2532],[-102.3872,21.5711,1757.9818],[-102.3895,21.574,1763.7181],[-102.3869,21.5743,1757.877],[-102.3862,21.5783,1766.5944],[-102.3878,21.5795,1769.9451],[-102.3854,21.5845,1760.8337],[-102.3822,21.5843,1764.5702],[-102.3816,21.5801,1774.8329],[-102.3753,21.5819,1781.0851],[-102.3737,21.581,1781.0837],[-102.3706,21.5781,1786.2812],[-102.3687,21.5734,1800.8906],[-102.3696,21.5706,1802.507],[-102.3675,21.567,1813.9231],[-102.3677,21.5513,1785.4592],[-102.3694,21.5421,1778.5403],[-102.3649,21.5278,1753.7838],[-102.3683,21.5216,1748.0883],[-102.3682,21.5173,1747.0635],[-102.3704,21.5171,1763.976],[-102.3706,21.5155,1742.6561],[-102.3732,21.5169,1743.2292],[-102.379,21.5076,1734.8618],[-102.3817,21.5088,1753.121],[-102.3916,21.5023,1746.9791],[-102.3922,21.5,1733.3424],[-102.3954,21.5008,1743.2341],[-102.3998,21.4975,1737.1094],[-102.4038,21.4889,1730.6946],[-102.404,21.485,1745.0743],[-102.4083,21.478,1721.2266],[-102.4072,21.4709,1739.0425],[-102.4034,21.4663,1746.2267],[-102.4085,21.4631,1796.4877],[-102.4069,21.4573,1798.8558],[-102.4049,21.456,1832.5813],[-102.4053,21.454,1829.6637],[-102.4263,21.4444,1754.2523],[-102.434,21.4351,1727.9849],[-102.4371,21.435,1727.1995],[-102.4305,21.4334,1739.5085],[-102.424,21.4281,1762.4233],[-102.4208,21.4171,1794.5166],[-102.4234,21.4166,1813.4843],[-102.4236,21.4152,1804.3163],[-102.4284,21.4153,1804.8878],[-102.415,21.4117,1824.9675],[-102.4123,21.4097,1827.6121],[-102.4117,21.4064,1825.2122],[-102.4032,21.4051,1794.9778],[-102.4004,21.3895,1776.3689],[-102.393,21.3888,1779.3864],[-102.3907,21.3854,1765.5264],[-102.3874,21.387,1769.5546],[-102.3816,21.3861,1775.0902],[-102.3801,21.3921,1774.1285],[-102.3784,21.3921,1775.7832],[-102.3767,21.3951,1775.8636],[-102.3713,21.3989,1782.5854],[-102.3516,21.4066,1803.9592],[-102.349,21.41,1808.5778],[-102.3408,21.4127,1850.62],[-102.3293,21.4082,1843.4796],[-102.3316,21.4045,1835.6216],[-102.3297,21.4036,1844.2905],[-102.33,21.401,1834.5994],[-102.3254,21.397,1812.251],[-102.3261,21.3957,1812.251],[-102.3228,21.388,1830.1532],[-102.3168,21.3871,1826.7135],[-102.3135,21.3845,1797.9016],[-102.3103,21.384,1811.9784],[-102.3098,21.3862,1819.3834],[-102.298,21.3821,1827.4464],[-102.2889,21.3852,1805.2416],[-102.2865,21.3835,1796.9712],[-102.2827,21.3834,1799.2656],[-102.2812,21.3854,1800.1038],[-102.2785,21.3838,1802.3369],[-102.2747,21.3856,1803.3977],[-102.2747,21.3885,1802.7439],[-102.2672,21.389,1810.1515],[-102.2656,21.3918,1813.3707],[-102.2588,21.3965,1818.6011],[-102.2505,21.389,1833.9331],[-102.2417,21.3863,1854.871],[-102.2436,21.3819,1863.4396],[-102.23,21.3817,1840.0424],[-102.229,21.3853,1844.9651],[-102.2273,21.3854,1851.4377],[-102.2272,21.3883,1850.4402],[-102.2292,21.3887,1843.2849],[-102.2274,21.3965,1856.6726],[-102.2185,21.399,1879.2806],[-102.2187,21.402,1882.9296],[-102.2111,21.4028,1872.4507],[-102.2152,21.394,1853.3499],[-102.214,21.3881,1845.0271],[-102.2165,21.3838,1838.321],[-102.2144,21.3827,1836.4419],[-102.2056,21.3839,1842.5853],[-102.2007,21.3877,1843.9797],[-102.197,21.3872,1846.6008],[-102.1908,21.3913,1851.7867],[-102.1805,21.3925,1889.4731],[-102.1795,21.3966,1865.8958],[-102.1773,21.3926,1871.2306],[-102.1689,21.3871,1897.3162],[-102.1662,21.3833,1909.9587],[-102.1593,21.3815,1933.1499],[-102.1571,21.3853,1944.2526],[-102.1521,21.3852,1971.1594],[-102.1485,21.3895,1978.4602],[-102.1453,21.39,1995.7454],[-102.1489,21.3927,1985.4613],[-102.1424,21.3974,2031.2354],[-102.1369,21.3964,2006.2957],[-102.137,21.3987,1997.1265],[-102.1313,21.4008,1978.0917],[-102.121,21.4131,1969.6281],[-102.1215,21.4213,1967.583],[-102.1166,21.4266,1987.9821],[-102.1208,21.4298,1985.0754],[-102.1292,21.4304,1952.9045],[-102.1373,21.4349,1951.5574],[-102.1365,21.4399,1923.1649],[-102.1314,21.4409,1911.9382],[-102.1333,21.4432,1909.2029],[-102.1262,21.4415,1920.9211],[-102.1194,21.445,1926.7048],[-102.1149,21.4504,1938.798],[-102.1066,21.4531,1952.2795],[-102.0964,21.4515,1955.782],[-102.0912,21.4536,1959.1241],[-102.0879,21.4573,2025.3728],[-102.0696,21.4603,1986.0963],[-102.0641,21.464,2016.7523],[-102.058,21.4609,2010.5612],[-102.0522,21.4617,2015.0519],[-102.0524,21.4686,2025.2815],[-102.0476,21.4721,2051.0386],[-102.0466,21.4745,2058.8293],[-102.0485,21.4794,2089.6182],[-102.0479,21.4846,2079.5781],[-102.064,21.4946,2047.8859],[-102.0604,21.4941,2071.1289],[-102.0544,21.4959,2085.6697],[-102.0497,21.5009,2066.3228],[-102.0479,21.5074,2024.5435],[-102.0499,21.5113,2010.4165],[-102.036,21.5095,2027.7925],[-102.0314,21.5063,2037.0999],[-102.023,21.5082,2039.4316],[-102.0241,21.5129,2040.4808],[-102.027,21.5147,2030.7418],[-102.0268,21.5281,2052.7219],[-102.0249,21.5311,2059.0859],[-102.017,21.5265,2121.416],[-102.0121,21.5278,2126.1951],[-102.0021,21.5511,2145.8596],[-102.0036,21.5568,2068.2],[-101.9984,21.5611,2100.9978],[-101.9976,21.5693,2090.7012],[-101.999,21.5728,2090.2324],[-101.9936,21.5784,2101.4426],[-101.984,21.5827,2131.408],[-101.9812,21.5859,2128.5344],[-101.9803,21.5915,2159.384],[-101.978,21.5945,2179.1865],[-101.9842,21.6017,2182.4358],[-101.9925,21.608,2271.4819],[-101.9907,21.6163,2123.0332],[-101.987,21.6224,2081.5415],[-101.9715,21.6334,2037.8573],[-101.9965,21.6615,2007.8184],[-101.9955,21.6673,1986.4509],[-101.9926,21.6709,1985.3892],[-101.9904,21.6669,1987.6449],[-101.9876,21.6654,1990.9247],[-101.9847,21.6661,1993.165],[-101.9844,21.6645,1991.7377],[-101.9817,21.6646,1995.3956],[-101.9814,21.6621,1996.8381],[-101.9785,21.6614,2004.0929],[-101.9796,21.6729,2002.6245],[-101.9739,21.6873,1985.7396],[-101.9722,21.7034,1996.3114],[-101.9771,21.7084,2003.3756],[-101.9824,21.7044,1995.6871],[-101.9803,21.7113,1986.6875],[-101.9828,21.7131,1977.0793],[-101.9818,21.7155,1978.6099],[-101.9844,21.7191,1980.9924],[-101.9827,21.7231,1983.6869],[-101.9867,21.7218,1985.2427],[-101.9874,21.727,1994.828],[-101.9995,21.7138,1989.6345],[-102.0078,21.7165,1993.5222],[-102.0098,21.7196,1991.7428],[-102.0094,21.7266,1997.1348],[-102.0222,21.7304,1989.6049],[-102.0251,21.7278,1988.9742],[-102.0239,21.731,1989.6257],[-102.0248,21.7384,1989.5881],[-102.019,21.748,1990.2218],[-102.0212,21.7524,1991.5944],[-102.0228,21.7505,1989.8274],[-102.0393,21.7509,1990.7346],[-102.0403,21.7522,1991.1094],[-102.0554,21.7513,1991.3658],[-102.0621,21.7491,1991.3724],[-102.0651,21.7493,1990.4391],[-102.0661,21.753,1990.6698],[-102.0765,21.7529,1986.7661],[-102.0782,21.7545,1986.2588],[-102.0777,21.7505,1986.7444],[-102.0837,21.7491,1985.0085],[-102.1047,21.7519,1971.3342],[-102.1093,21.7494,1969.9178],[-102.1117,21.7455,1969.2189],[-102.1159,21.7447,1969.7649],[-102.1164,21.7431,1969.0431],[-102.1139,21.7408,1973.199],[-102.1156,21.736,1979.7517],[-102.1209,21.7364,1979.0576],[-102.1256,21.7257,1992.4004],[-102.1283,21.7267,1992.4861],[-102.1303,21.7232,1992.3796],[-102.1363,21.7205,1987.8174],[-102.1421,21.7054,2000.2173],[-102.1436,21.7062,2000.2228],[-102.1456,21.7044,2001.9825],[-102.1473,21.7058,2000.9801],[-102.1549,21.7,2010.191],[-102.1666,21.7025,2025.4969],[-102.1664,21.706,2022.0139],[-102.1714,21.707,2029.6307],[-102.1779,21.6882,2038.3618],[-102.2143,21.6948,2089.4673],[-102.2142,21.6866,2131.0874],[-102.2185,21.6834,2159.5437],[-102.218,21.6777,2109.7864],[-102.2217,21.6725,2114.2466],[-102.2205,21.6716,2180.7815],[-102.2264,21.6578,2288.0068],[-102.2336,21.653199999999998,2231.4912],[-102.236,21.6538,2197.7439],[-102.2376,21.652,2180.2522],[-102.2509,21.6551,1969.1528],[-102.2752,21.654,1893.9238],[-102.2796,21.6606,1896.031],[-102.2794,21.6644,1877.6301],[-102.304,21.6667,1823.7158],[-102.3019,21.6613,1840.2502],[-102.3026,21.6546,1843.5061],[-102.2954,21.6531,1878.2704],[-102.3102,21.6266,1840.8],[-102.3211,21.6301,1824.1133],[-102.3257,21.6223,1828.5627],[-102.3669,21.6428,1841.2107],[-102.3695,21.6506,1836.6813],[-102.3844,21.6519,1805.52]]]]}
,"properties": {"GID_2": "MEX.14.36_2","GID_0": "MEX","country": "México","GID_1": "MEX.14_1","province": "Jalisco","NL_NAME_1": "NA","county": "EncarnacióndeDíaz","VARNAME_2": "NA","NL_NAME_2": "NA","TYPE_2": "Município","ENGTYPE_2": "Municipality","CC_2": "NA","HASC_2": "NA","name": "Encarnaciónde_Díaz.county","area_km2": 1257.2249,"hist_schema_id": "Elevation0-9000","hist_area_km2": {"1725": 3.1565,"1750": 12.4472,"1775": 38.1475,"1800": 87.8919,"1825": 144.0402,"1850": 138.614,"1875": 117.1745,"1900": 78.265,"1925": 69.477,"1950": 74.9825,"1975": 140.2878,"2000": 138.2303,"2025": 67.7961,"2050": 45.9926,"2075": 28.98,"2100": 19.6558,"2125": 16.3246,"2150": 10.3507,"2175": 7.7084,"2200": 6.1507,"2225": 5.0466,"2250": 2.9766,"2275": 1.9515,"2300": 0.9659,"2325": 0.4928,"2350": 0.1183}}}