{"type":"Feature","properties":{"featurecla":"River","scalerank":11,"rivernum":22287,"dissolve":"22287River","name":"Valles","name_alt":null,"note":"ID is link back to CEC data","name_full":"Valles","min_zoom":6.7,"strokeweig":0.15,"uident":2024001,"min_label":7.7},
"geometry":{"type": "LineString","coordinates": [[-99.630970832416224,22.600287176556535,1331.1776],[-99.620676236062067,22.597357489056535,1349.9017],[-99.606922980853724,22.588649806764863,1348.3035],[-99.545277473041224,22.513698634889863,1197.1743],[-99.535145637103724,22.504828192181535,1174.7664],[-99.522043423562067,22.499457098431535,1238.03],[-99.509348111062067,22.502020574994035,1097.0144],[-99.4881892568954,22.517849025514863,1364.3151],[-99.474924282937067,22.522975978639863,1036.9851],[-99.469227668353724,22.530381577598206,788.858],[-99.4979548818954,22.580511785931535,827.3513],[-99.494211392312067,22.588975327598206,831.3419],[-99.4852595693954,22.596258856244035,889.3685],[-99.4759822256454,22.600938218223206,694.5201],[-99.464344855853724,22.599880275514863,587.4025],[-99.453236457416224,22.594916082806535,589.5971],[-99.441477017312067,22.580430405723206,594.2629],[-99.403187629291224,22.594590561973206,519.0597],[-99.387766079812067,22.593817449994035,469.5348],[-99.377919074603724,22.588080145306535,407.9954],[-99.371652798562067,22.579453843223206,397.2881],[-99.3563533193954,22.570827541139863,419.2131],[-99.347645637103724,22.541774806764863,290.0503],[-99.334543423562067,22.525254624473206,282.3779]]}}