{"type":"Feature","properties":{"featurecla":"River","scalerank":11,"rivernum":22287,"dissolve":"22287River","name":"Valles1","name_alt":null,"note":"ID is link back to CEC data","name_full":"Valles","min_zoom":6.7,"strokeweig":0.2,"uident":2024001,"min_label":7.7},
"geometry":{"type": "LineString","coordinates": [[-99.334543423562067,22.525254624473206,282.3779],[-99.318470832416224,22.505153713014863,276.273],[-99.313303189187067,22.491563218223206,268.9562],[-99.312611457416224,22.476507879681535,265.7116],[-99.319813605853724,22.444932358848206,256.067],[-99.317860480853724,22.430039780723206,255.658],[-99.316639777728724,22.428249416139863,255.3519],[-99.293527798562067,22.403102931764863,253.3816],[-99.290353970437067,22.394110418744035,252.4642],[-99.283070441791224,22.373399155723206,251.639],[-99.274891730853724,22.356268621869035,244.9107],[-99.247181769916224,22.346950588014863,265.6467],[-99.2425837881454,22.341131903119035,276.5204],[-99.240793423562067,22.327500718223206,253.5579],[-99.237131314187067,22.324530340619035,243.6007],[-99.233713345437067,22.321804103639863,239.5193],[-99.224598762103724,22.269313869264863,260.1544],[-99.2225642568954,22.216905015098206,227.1125],[-99.225087043353724,22.198675848431535,227.049],[-99.2237849600204,22.151800848431535,254.4847],[-99.215687629291224,22.140163478639863,222.0037],[-99.188099738666224,22.130397853639863,219.9608],[-99.154123501687067,22.108994858848206,440.6129],[-99.125721808978724,22.100938218223206,108.3377],[-99.1068416006454,22.086696681764863,99.7724],[-99.103993293353724,22.077663478639863,113.6845],[-99.1078181631454,22.067572332806535,96.3026],[-99.105091926166224,22.060003973431535,92.4339],[-99.076730923562067,22.049627996869035,88.0871],[-99.0589900381454,22.030381577598206,88.502],[-99.0621638662704,22.011989650514863,92.959],[-99.056223111062067,22.003444728639863,78.1764],[-99.034494595437067,21.990912176556535,76.9385],[-99.003041144916224,21.953314520306535,67.5953],[-98.9791560537704,21.937933660931535,61.5213],[-98.968332486062067,21.928656317181535,58.808],[-98.982736782937067,21.898952541139863,45.0433],[-98.9845271475204,21.879665431764863,38.7131],[-98.9796443350204,21.865912176556535,40.3671],[-98.960438605853724,21.862412827598206,36.4864]]}}