{"type":"Feature","properties":{"GID_2":"MEX.29.5_2","GID_0":"MEX","country":"México","GID_1":"MEX.29_1","province":"Tlaxcala","NL_NAME_1":"NA","county":"Atlangatepec","VARNAME_2":"NA","NL_NAME_2":"NA","TYPE_2":"Município","ENGTYPE_2":"Municipality","CC_2":"NA","HASC_2":"NA","name":"Atlangatepec.county"},
"geometry":{"type": "MultiPolygon","coordinates": [[[[-98.1013,19.52,2604.8748],[-98.1066,19.5262,2693.5366],[-98.1045,19.5307,2755.209],[-98.1162,19.5357,2589.7188],[-98.1229,19.5402,2554.7212],[-98.1266,19.5452,2538.9199],[-98.1281,19.545,2538.9199],[-98.1288,19.5483,2550.0022],[-98.1256,19.5502,2552.3149],[-98.1333,19.5652,2529.9802],[-98.1375,19.5651,2517.4595],[-98.144,19.5495,2506.314],[-98.147,19.5505,2502.9895],[-98.1483,19.553,2496.948],[-98.1474,19.5573,2491.6699],[-98.1541,19.5623,2488.5081],[-98.1519,19.5632,2488.7505],[-98.1523,19.5658,2488.3328],[-98.1538,19.5667,2487.8743],[-98.1569,19.5638,2487.8875],[-98.158,19.5682,2487.9839],[-98.1613,19.5717,2487.3384],[-98.1629,19.5721,2488.2319],[-98.162,19.5703,2486.7734],[-98.1646,19.571,2488.2605],[-98.1575,19.5871,2502.5461],[-98.1636,19.5941,2527.8096],[-98.172,19.5914,2523.2888],[-98.1769,19.5862,2513.4502],[-98.1783,19.5869,2510.9231],[-98.1745,19.595,2510.9355],[-98.1757,19.5989,2525.2957],[-98.1842,19.6043,2527.3557],[-98.1898,19.6025,2530.1426],[-98.1879,19.5985,2528.4448],[-98.1887,19.5905,2528.4985],[-98.1907,19.5891,2547.9329],[-98.194,19.5882,2546.1602],[-98.1944,19.59,2584.9746],[-98.199,19.593,2610.283],[-98.2,19.5914,2607.0581],[-98.2038,19.5932,2578.6433],[-98.2056,19.5889,2546.8093],[-98.2026,19.5863,2544.8948],[-98.2038,19.585,2518.353],[-98.2091,19.5896,2561.8945],[-98.2142,19.5893,2602.4043],[-98.2233,19.593,2652.1082],[-98.2328,19.5908,2695.2678],[-98.2335,19.5866,2721.3545],[-98.2425,19.5861,2710.8716],[-98.2422,19.5894,2691.9165],[-98.2464,19.5901,2668.9526],[-98.2523,19.5799,2674.5208],[-98.2479,19.5813,2712.7056],[-98.2391,19.5619,2693.0405],[-98.2443,19.5531,2588.7983],[-98.2454,19.5439,2540.644],[-98.237,19.5314,2512.458],[-98.2228,19.5186,2485.0574],[-98.2187,19.5129,2470.4968],[-98.2142,19.5116,2468.6768],[-98.2104,19.5137,2477.5591],[-98.2066,19.5075,2479.3743],[-98.2026,19.5057,2481.3564],[-98.2087,19.502,2479.1548],[-98.2088,19.4992,2478.4714],[-98.204,19.4988,2476.9106],[-98.2003,19.5018,2476.7917],[-98.1944,19.5033,2483.4868],[-98.1914,19.5015,2484.8237],[-98.1824,19.5061,2489.8601],[-98.1832,19.4996,2497.9712],[-98.1814,19.4894,2511.6377],[-98.1708,19.4969,2523.1926],[-98.1637,19.4938,2551.6104],[-98.1606,19.4943,2567.1238],[-98.1567,19.4971,2592.0842],[-98.1538,19.5039,2564.5503],[-98.1571,19.5107,2531.1541],[-98.1526,19.5105,2534.9641],[-98.1472,19.5137,2538.0283],[-98.1399,19.5121,2548.7129],[-98.1346,19.5194,2589.2065],[-98.13,19.5164,2567.6157],[-98.1368,19.5064,2567.5574],[-98.135,19.5047,2573.011],[-98.1205,19.5019,2563.9717],[-98.1127,19.5068,2555.0312],[-98.1147,19.5092,2570.3787],[-98.1131,19.5168,2605.1445],[-98.1013,19.52,2604.8748]]]]}}