{"type":"Feature","properties":{"featurecla":"Lake Centerline","scalerank":6,"rivernum":232,"dissolve":"232Lake Centerline","name":"Ro5","name_alt":null,"note":null,"min_zoom":5.0,"strokeweig":0.25,"name_en":"Ro Grande de Santiago","min_label":6.0},
"geometry":{"type": "LineString","coordinates": [[-105.1083984375,21.821795965619117,20.5645],[-105.09775390624999,21.82037994999412,23.0013],[-105.08056640625,21.81708405155662,23.5986],[-105.06005859375,21.81012604374412,29.099],[-105.04331054687499,21.802264715619117,22.3811],[-105.038818359375,21.79401276249412,25.8648],[-105.03378906249999,21.77875397343162,31.3795]]}}