{"type":"Feature","properties":{"GID_2":"MEX.16.94_2","GID_0":"MEX","country":"México","GID_1":"MEX.16_1","province":"Michoacán","NL_NAME_1":"NA","county":"Tlalpujahua","VARNAME_2":"NA","NL_NAME_2":"NA","TYPE_2":"Município","ENGTYPE_2":"Municipality","CC_2":"NA","HASC_2":"NA","name":"Tlalpujahua.county"},
"geometry":{"type": "MultiPolygon","coordinates": [[[[-100.1342,19.8455,2635.7168],[-100.1361,19.8416,2620.8894],[-100.1377,19.8426,2616.8203],[-100.1492,19.8388,2645.8022],[-100.1539,19.8431,2548.5913],[-100.1553,19.848,2464.1519],[-100.1589,19.8504,2438.2375],[-100.1736,19.8496,2561.5459],[-100.1786,19.8528,2361.1052],[-100.1852,19.8596,2272.9629],[-100.1873,19.865,2258.8579],[-100.1906,19.8681,2253.6929],[-100.1963,19.8672,2248.3232],[-100.1976,19.8689,2246.856],[-100.2003,19.8673,2243.2617],[-100.2046,19.8705,2236.2856],[-100.209,19.8687,2239.6802],[-100.2111,19.8699,2219.96],[-100.2236,19.8672,2187.9683],[-100.2184,19.8623,2260.9619],[-100.2137,19.8613,2279.2798],[-100.2152,19.8592,2304.0854],[-100.2104,19.8596,2308.3359],[-100.207,19.8542,2398.4883],[-100.2069,19.8522,2460.6145],[-100.2097,19.8492,2484.2742],[-100.2093,19.8434,2505.6274],[-100.2079,19.842,2503.4668],[-100.2115,19.8356,2540.7183],[-100.2157,19.8378,2510.6541],[-100.2173,19.8424,2480.4592],[-100.222,19.8353,2557.3799],[-100.2274,19.8348,2584.4849],[-100.229,19.8309,2592.9897],[-100.2313,19.8306,2539.0862],[-100.2413,19.8379,2599.3535],[-100.2446,19.8386,2643.4448],[-100.2478,19.8301,2713.5974],[-100.2525,19.8275,2784.2944],[-100.2584,19.8276,2902.2195],[-100.2585,19.8257,2965.3345],[-100.2642,19.8239,3063.4595],[-100.2703,19.8287,3022.2632],[-100.2779,19.8231,2808.1689],[-100.2707,19.8223,2957.0237],[-100.2694,19.8197,2948.8843],[-100.2673,19.8196,2954.1128],[-100.2688,19.8148,2993.8127],[-100.2665,19.8066,2973.3103],[-100.2742,19.8054,2683.8752],[-100.2805,19.799,2586.9253],[-100.2772,19.7952,2775.7393],[-100.285,19.7883,2561.7441],[-100.2907,19.7789,2486.6963],[-100.2867,19.7758,2456.363],[-100.2836,19.7693,2432.7756],[-100.2658,19.7603,2447.7349],[-100.2674,19.7582,2442.9517],[-100.2664,19.7565,2455.9475],[-100.2635,19.7558,2451.9678],[-100.2612,19.7515,2486.9309],[-100.2579,19.7529,2476.6621],[-100.2557,19.7487,2641.3359],[-100.2561,19.7444,2807.1743],[-100.2596,19.7368,2807.6582],[-100.2592,19.709,2944.0225],[-100.2627,19.7089,3070.9478],[-100.2621,19.7022,3062.749],[-100.2572,19.7001,3047.2227],[-100.2526,19.7039,3073.6567],[-100.244,19.7046,3018.0125],[-100.2407,19.7086,3014.4434],[-100.243,19.7085,3045.3428],[-100.2403,19.7129,3020.1177],[-100.2387,19.7114,3009.2224],[-100.2371,19.7125,2974.7461],[-100.2361,19.7161,3028.9006],[-100.2371,19.7186,3001.2207],[-100.2322,19.7205,2993.9197],[-100.2316,19.7177,2993.896],[-100.2297,19.7201,2991.1482],[-100.2258,19.7172,2866.96],[-100.2288,19.7151,2906.7222],[-100.2261,19.7149,2874.1187],[-100.2273,19.7133,2884.8813],[-100.2295,19.7141,2906.7222],[-100.2318,19.7106,2958.4966],[-100.2312,19.7086,2962.5698],[-100.2296,19.7085,2962.5698],[-100.2308,19.7073,2962.5698],[-100.2295,19.7022,2900.6348],[-100.221,19.7028,2946.8457],[-100.2176,19.7052,2920.9316],[-100.2159,19.7034,2936.0337],[-100.2041,19.7046,2853.9814],[-100.1971,19.7007,2889.292],[-100.1968,19.7023,2882.4233],[-100.1922,19.7016,3061.9868],[-100.1921,19.6971,3051.9187],[-100.1903,19.6982,3045.1062],[-100.186,19.713,2951.4758],[-100.1701,19.7129,2958.3738],[-100.1708,19.7112,2934.6294],[-100.1693,19.7077,2891.0066],[-100.1556,19.722,2953.8281],[-100.1594,19.724,2925.301],[-100.1598,19.7261,2843.8999],[-100.1575,19.7273,2838.0203],[-100.1558,19.7252,2947.2002],[-100.1482,19.7282,2926.9924],[-100.1464,19.7324,2980.6064],[-100.1471,19.7418,3052.9463],[-100.1434,19.7495,3126.1421],[-100.1453,19.7572,2956.6038],[-100.1448,19.7643,2902.4619],[-100.1493,19.7668,2900.438],[-100.1451,19.7711,2888.897],[-100.1461,19.7786,2894.9436],[-100.1419,19.7874,2822.0371],[-100.1469,19.798,2978.3896],[-100.1429,19.8035,3003.1614],[-100.1467,19.8128,2974.7036],[-100.1433,19.8189,2806.0999],[-100.1443,19.8238,2800.5935],[-100.1426,19.8288,2926.1682],[-100.1361,19.8402,2624.5918],[-100.1342,19.8455,2635.7168]]]]}}