{"type": "Feature","bbox": [-99.4869,23.6768,-98.7347,24.0969],"geometry": {"type": "MultiPolygon","coordinates": [[[[-99.4674,23.8695,2281.7666],[-99.4674,23.8605,2330.2847],[-99.464,23.8533,2385.7969],[-99.4565,23.8461,2569.0425],[-99.4545,23.8413,2563.2886],[-99.45,23.8164,2427.2864],[-99.4148,23.8201,1798.8507],[-99.4134,23.8176,1699.0112],[-99.4065,23.8148,1603.6401],[-99.3764,23.8153,1510.2059],[-99.3792,23.8312,1669.4041],[-99.3675,23.8324,1672.0132],[-99.3668,23.8253,1587.5902],[-99.3527,23.8261,1683.3312],[-99.3586,23.8592,1671.2749],[-99.373,23.8816,1506.1896],[-99.379,23.8835,1692.0896],[-99.3688,23.8937,889.0854],[-99.3546,23.8923,860.7393],[-99.3155,23.898,888.6726],[-99.2923,23.9086,342.0453],[-99.3022,23.9128,340.3609],[-99.3028,23.9108,354.401],[-99.3042,23.9109,357.6231],[-99.3049,23.9136,341.5584],[-99.3067,23.9128,345.2919],[-99.3092,23.916,320.7904],[-99.3047,23.9203,317.5064],[-99.2968,23.9223,304.9055],[-99.2852,23.9301,290.4668],[-99.2783,23.942,275.447],[-99.2732,23.9459,269.0543],[-99.2701,23.9509,267.5526],[-99.2694,23.9576,261.697],[-99.2606,23.9607,257.8362],[-99.252,23.9575,250.2424],[-99.2473,23.9615,249.0528],[-99.2445,23.9666,246.7207],[-99.2394,23.9692,236.5246],[-99.2373,23.9744,239.7115],[-99.2282,23.9778,232.5088],[-99.2255,23.9775,229.1107],[-99.219,23.983,231.0182],[-99.2164,23.9831,231.7451],[-99.2049,23.9777,226.2725],[-99.1997,23.98,224.8522],[-99.1937,23.978,215.9827],[-99.1675,23.9415,219.2499],[-99.1709,23.94,221.5867],[-99.1717,23.9414,221.4387],[-99.1773,23.9385,224.3366],[-99.1712,23.9284,225.1035],[-99.1695,23.9294,222.3174],[-99.161,23.9154,221.2591],[-99.1742,23.9086,229.4897],[-99.1715,23.9042,229.4795],[-99.1546,23.9128,217.0182],[-99.156,23.9152,217.4919],[-99.1447,23.9115,212.6325],[-99.1517,23.908,217.8328],[-99.1479,23.9017,218.9169],[-99.1387,23.9026,215.5186],[-99.1359,23.8999,213.8748],[-99.0973,23.8488,212.8124],[-98.9699,23.7172,234.8234],[-98.9701,23.702,232.3696],[-98.9578,23.7017,226.0999],[-98.9503,23.6858,221.015],[-98.9458,23.6876,220.907],[-98.947,23.6901,222.5537],[-98.945,23.6914,221.1975],[-98.9408,23.6867,216.3854],[-98.9355,23.6866,214.3224],[-98.9332,23.684,216.1232],[-98.9277,23.6877,213.7522],[-98.9241,23.6809,211.4402],[-98.9118,23.6774,206.7781],[-98.9069,23.6791,207.3658],[-98.9005,23.6768,203.3222],[-98.8977,23.6797,200.2453],[-98.8906,23.6789,196.8149],[-98.8893,23.6821,196.0994],[-98.8823,23.6837,196.905],[-98.878,23.6919,194.2245],[-98.875,23.6922,190.7353],[-98.8727,23.6905,191.0536],[-98.8671,23.6929,188.1263],[-98.8637,23.6983,185.7113],[-98.8602,23.6951,187.7729],[-98.8541,23.6954,183.8591],[-98.853,23.6974,183.7809],[-98.8494,23.6965,181.6729],[-98.8468,23.7015,180.0118],[-98.8441,23.7011,178.1081],[-98.8392,23.7043,178.1707],[-98.8391,23.7113,175.6326],[-98.8354,23.7114,176.3204],[-98.8333,23.7079,172.2359],[-98.8296,23.7069,172.9545],[-98.8304,23.7135,170.1582],[-98.8284,23.7138,171.2937],[-98.8262,23.7114,169.4308],[-98.8206,23.7125,167.6414],[-98.8144,23.7223,164.5388],[-98.8069,23.7208,162.8783],[-98.8048,23.7231,160.4906],[-98.8068,23.7257,161.8429],[-98.8062,23.7276,160.4208],[-98.8016,23.7299,159.0824],[-98.7984,23.7352,157.7193],[-98.7946,23.7334,155.7676],[-98.7894,23.7344,155.1998],[-98.7881,23.7379,154.4915],[-98.7847,23.7407,154.281],[-98.7826,23.7415,154.0883],[-98.783,23.7403,152.7317],[-98.7803,23.7399,150.9127],[-98.7787,23.7411,150.9497],[-98.7815,23.7428,150.9322],[-98.7777,23.7473,147.8827],[-98.7763,23.7437,148.3278],[-98.7721,23.7433,147.6304],[-98.7717,23.7457,146.3449],[-98.7687,23.7437,146.4578],[-98.7666,23.7465,145.1471],[-98.7643,23.7451,143.733],[-98.761,23.7468,144.3271],[-98.7598,23.7513,146.3485],[-98.7465,23.7509,143.9395],[-98.7347,23.7558,141.1006],[-98.7347,23.7619,149.385],[-98.7405,23.7721,148.6541],[-98.7389,23.7784,139.4236],[-98.7831,23.7897,137.3032],[-98.7954,23.7799,140.7052],[-98.800299999999993,23.7849,149.1794],[-98.8014,23.7844,149.1794],[-98.8386,23.8242,140.9886],[-98.838,23.8288,138.8582],[-98.8301,23.828,135.5827],[-98.9193,23.937,148.8348],[-98.9186,23.9488,160.1223],[-98.9321,23.9467,157.2802],[-98.9288,23.953,158.2586],[-98.9467,23.9432,157.3221],[-98.9453,23.9508,154.9091],[-98.9855,23.9571,163.7292],[-98.9822,23.9752,168.8711],[-99.0077,23.9794,174.5982],[-99.0089,23.9841,178.0712],[-99.0652,24.0135,190.1168],[-99.0628,24.0539,181.9221],[-99.0745,24.0582,184.0383],[-99.0759,24.0193,185.407],[-99.0887,24.0257,185.5495],[-99.0863,24.0715,181.2007],[-99.092,24.0715,182.8716],[-99.0928,24.0691,183.3659],[-99.0942,24.0691,183.005],[-99.0939,24.0745,182.7563],[-99.1012,24.0759,185.0747],[-99.1041,24.0804,186.6265],[-99.1092,24.0825,189.7327],[-99.1145,24.0777,189.6602],[-99.1189,24.0802,188.6028],[-99.1285,24.081,196.8545],[-99.1302,24.0793,192.54],[-99.1337,24.083,195.7445],[-99.1376,24.0839,197.0881],[-99.1408,24.0828,197.8548],[-99.1407,24.0852,198.224],[-99.1472,24.0867,204.5867],[-99.1525,24.0904,203.0742],[-99.1656,24.0894,208.6272],[-99.1692,24.0938,212.6105],[-99.1738,24.0933,206.3318],[-99.1795,24.0969,211.2187],[-99.183,24.0786,227.9834],[-99.1954,24.0777,216.6185],[-99.1975,24.0498,216.1487],[-99.1794,24.0473,217.1993],[-99.1819,24.0123,209.3079],[-99.2025,24.0112,215.0352],[-99.2057,24.0135,218.5735],[-99.2096,24.0129,217.119],[-99.213,24.0153,216.6403],[-99.2136,24.0206,219.7192],[-99.2175,24.0212,220.266],[-99.2241,24.0207,225.767],[-99.2309,24.0222,227.1448],[-99.2415,24.0178,233.9382],[-99.2533,24.0212,235.1084],[-99.2596,24.0191,238.2407],[-99.2649,24.021,242.2914],[-99.272,24.0205,248.2198],[-99.2799,24.0167,250.7289],[-99.2809,24.0149,250.2532],[-99.2797,24.0121,252.5804],[-99.2826,24.009,253.5489],[-99.2859,24.0103,254.5083],[-99.2898,24.0083,259.3103],[-99.2959,24.0084,263.1252],[-99.3008,24.0055,263.755],[-99.3068,24.005,271.0038],[-99.3134,24.0088,273.6627],[-99.3188,24.0073,279.496],[-99.3246,24.0083,283.3575],[-99.3351,24.0062,293.2968],[-99.3428,24.0064,307.5885],[-99.3443,24.0046,305.962],[-99.3436,24.0006,348.818],[-99.3448,23.9987,365.5309],[-99.3607,23.9988,336.1506],[-99.3606,23.996,436.9481],[-99.3654,23.9938,364.9285],[-99.3665,23.9875,364.8675],[-99.3761,23.9861,383.7448],[-99.3772,23.9839,401.8792],[-99.3831,23.982,394.924],[-99.3865,23.9781,413.3381],[-99.3898,23.9772,398.6165],[-99.3877,23.9747,500.6816],[-99.3908,23.9716,431.0298],[-99.3927,23.973,424.7326],[-99.396,23.9707,437.9113],[-99.3964,23.9731,451.8903],[-99.3999,23.9725,468.6226],[-99.4035,23.965699999999998,487.9868],[-99.4075,23.9664,503.6419],[-99.4096,23.9642,507.5363],[-99.4118,23.966,531.3848],[-99.4136,23.9649,537.1581],[-99.4207,23.9668,547.579],[-99.4181,23.9643,590.8395],[-99.4205,23.9629,574.5699],[-99.418,23.959,611.6336],[-99.4225,23.9582,628.0202],[-99.4266,23.9515,633.5658],[-99.4241,23.9489,670.0322],[-99.4303,23.9241,981.6771],[-99.4281,23.9196,1374.85],[-99.4371,23.9266,1447.7632],[-99.4458,23.9443,1483.5322],[-99.4485,23.9457,1449.3157],[-99.4502,23.9455,1545.0876],[-99.4496,23.9442,1480.4014],[-99.4635,23.9515,2058.4141],[-99.4869,23.9605,2092.3857],[-99.4569,23.8661,2651.8054],[-99.4674,23.8695,2281.7666]]]]}
,"properties": {"GID_2": "MEX.28.14_2","GID_0": "MEX","country": "México","GID_1": "MEX.28_1","province": "Tamaulipas","NL_NAME_1": "NA","county": "Güémez","VARNAME_2": "NA","NL_NAME_2": "NA","TYPE_2": "Município","ENGTYPE_2": "Municipality","CC_2": "NA","HASC_2": "NA","name": "Güémez.county","area_km2": 1211.0657,"hist_schema_id": "Elevation0-9000","hist_area_km2": {"125": 0.4461,"150": 157.5963,"175": 290.5296,"200": 333.7593,"225": 111.7091,"250": 29.2798,"275": 24.2997,"300": 21.0118,"325": 13.3364,"350": 13.0868,"375": 4.4956,"400": 3.2747,"425": 2.2283,"450": 2.4609,"475": 2.7129,"500": 2.1314,"525": 2.5191,"550": 2.9454,"575": 2.6354,"600": 2.616,"625": 2.4029,"650": 2.4997,"675": 2.8874,"700": 2.6935,"725": 2.5385,"750": 2.7323,"775": 2.461,"800": 2.8291,"825": 2.5773,"850": 2.5191,"875": 2.7129,"900": 2.3448,"925": 2.4029,"950": 2.1316,"975": 2.5192,"1000": 2.1123,"1025": 2.0929,"1050": 2.0154,"1075": 2.3255,"1100": 1.9573,"1125": 2.0736,"1150": 2.2092,"1175": 1.9574,"1200": 1.8798,"1225": 1.7248,"1250": 1.7636,"1275": 1.7249,"1300": 1.9187,"1325": 1.5312,"1350": 1.6476,"1375": 1.8028,"1400": 2.1908,"1425": 2.5203,"1450": 3.4123,"1475": 4.1685,"1500": 5.3125,"1525": 4.4206,"1550": 4.3237,"1575": 4.3432,"1600": 3.5483,"1625": 3.7227,"1650": 3.994,"1675": 3.1603,"1700": 3.0049,"1725": 2.9469,"1750": 2.7336,"1775": 2.7917,"1800": 2.5978,"1825": 2.2876,"1850": 2.3264,"1875": 2.1325,"1900": 1.7835,"1925": 1.6477,"1950": 1.5702,"1975": 1.5896,"2000": 1.3763,"2025": 1.1437,"2050": 1.163,"2075": 1.0661,"2100": 1.1436,"2125": 0.9499,"2150": 1.2987,"2175": 1.0467,"2200": 0.8335,"2225": 1.1243,"2250": 1.0274,"2275": 1.1632,"2300": 1.3957,"2325": 1.2406,"2350": 1.6865,"2375": 1.5703,"2400": 1.4346,"2425": 1.4734,"2450": 1.3183,"2475": 1.9194,"2500": 1.6093,"2525": 1.9001,"2550": 2.0359,"2575": 2.3267,"2600": 2.5982,"2625": 2.8892,"2650": 2.0748,"2675": 2.0943,"2700": 1.4544,"2725": 1.2411,"2750": 0.3878,"2775": 0.4266,"2800": 0.0582}}}