{"type": "Feature","bbox": [-106.2225,27.2255,-105.3992,27.7351],"geometry": {"type": "MultiPolygon","coordinates": [[[[-105.4217,27.3855,1365.0798],[-105.4229,27.39,1361.7596],[-105.4174,27.3951,1358.2266],[-105.4162,27.3986,1359.3604],[-105.4201,27.4033,1357.226],[-105.4213,27.4122,1357.0173],[-105.4097,27.4121,1358.8149],[-105.4132,27.4182,1355.6178],[-105.4139,27.4229,1343.9478],[-105.412,27.4248,1351.4082],[-105.4108,27.4336,1338.4836],[-105.4038,27.4345,1334.1375],[-105.404,27.442,1330.6461],[-105.408,27.4482,1328.9119],[-105.4056,27.4491,1327.9612],[-105.4015,27.448,1327.1648],[-105.3992,27.4501,1326.0393],[-105.4023,27.4516,1325.3678],[-105.3999,27.4552,1324.8413],[-105.4053,27.4636,1321.5793],[-105.403,27.4638,1320.4587],[-105.4021,27.4669,1320.3644],[-105.4099,27.473,1316.6755],[-105.4093,27.4756,1312.4285],[-105.4138,27.4757,1314.646],[-105.4154,27.4739,1324.1051],[-105.415,27.4759,1314.646],[-105.4184,27.4742,1322.5197],[-105.42,27.4773,1319.5051],[-105.4223,27.4764,1323.8177],[-105.4245,27.4787,1324.047],[-105.419,27.4814,1310.5],[-105.4201,27.4829,1322.6244],[-105.4186,27.4834,1312.7583],[-105.4195,27.4881,1322.3896],[-105.4162,27.4942,1320.9996],[-105.4195,27.4984,1324.5177],[-105.4209,27.4964,1332.4664],[-105.4199,27.4935,1324.303],[-105.4222,27.488,1321.9688],[-105.4238,27.4879,1316.7264],[-105.4234,27.486,1320.0347],[-105.4271,27.4828,1322.9919],[-105.428,27.4842,1319.9036],[-105.4313,27.4844,1322.9489],[-105.4301,27.4858,1322.4673],[-105.4315,27.4874,1322.5466],[-105.4295,27.4896,1324.8206],[-105.4334,27.4949,1322.8485],[-105.4328,27.4975,1321.3297],[-105.4355,27.5002,1321.4944],[-105.4276,27.5028,1315.7921],[-105.4249,27.5055,1328.9816],[-105.4319,27.5083,1331.922],[-105.4308,27.5156,1358.673],[-105.4361,27.5216,1422.5505],[-105.4353,27.5226,1397.5725],[-105.44,27.5216,1422.8884],[-105.4354,27.5263,1385.3927],[-105.4371,27.5294,1350.0361],[-105.4357,27.5316,1342.8151],[-105.4394,27.5335,1325.4551],[-105.4401,27.5325,1322.0192],[-105.4442,27.5337,1315.5264],[-105.4453,27.5322,1315.5264],[-105.4506,27.5342,1310.5],[-105.453,27.5329,1312.0848],[-105.4563,27.5338,1313.2456],[-105.4637,27.5402,1329.3428],[-105.4613,27.5433,1332.3337],[-105.4617,27.5456,1346.6177],[-105.4641,27.545,1317.845],[-105.4608,27.549,1318.7997],[-105.4608,27.5531,1321.8656],[-105.4646,27.5479,1310.5],[-105.466,27.549,1312.4038],[-105.4631,27.5524,1317.708],[-105.4629,27.5551,1324.6588],[-105.4661,27.5519,1310.5],[-105.4655,27.5567,1328.478],[-105.4671,27.5553,1319.0863],[-105.4683,27.5568,1328.3678],[-105.4675,27.5458,1329.9163],[-105.4688,27.545,1312.5171],[-105.4709,27.5487,1314.9023],[-105.4727,27.549,1345.218],[-105.4728,27.5516,1323.4578],[-105.4754,27.5516,1310.5],[-105.4722,27.5583,1340.4504],[-105.4766,27.5546,1318.774],[-105.4789,27.5551,1310.5],[-105.4795,27.5578,1313.7365],[-105.4774,27.5608,1328.1479],[-105.4807,27.5601,1313.2039],[-105.4812,27.5614,1322.1936],[-105.4539,27.5591,1533.6941],[-105.4759,27.5826,1596.6372],[-105.4699,27.5883,1410.6735],[-105.4618,27.5916,1315.2106],[-105.4835,27.6296,1364.3914],[-105.5618,27.6698,1462.7815],[-105.616,27.6879,1494.0521],[-105.64,27.6905,1478.1232],[-105.6427,27.6934,1478.5388],[-105.6559,27.6993,1498.4336],[-105.6644,27.7052,1503.7196],[-105.6734,27.7069,1493.9165],[-105.6766,27.7108,1481.2651],[-105.6875,27.713,1470.8738],[-105.6945,27.7194,1459.587],[-105.7011,27.72,1453.7031],[-105.7038,27.7319,1441.3822],[-105.7066,27.7351,1437.3802],[-105.7099,27.7216,1453.9058],[-105.7087,27.7143,1472.6519],[-105.714,27.7104,1495.776],[-105.7208,27.6998,1550.3602],[-105.7693,27.7062,1576.9292],[-105.7875,27.6674,1599.4404],[-105.794,27.6744,1565.6787],[-105.8177,27.6558,1621.1262],[-105.8315,27.6685,1551.6156],[-105.8634,27.671,1529.4238],[-105.8792,27.6694,1544.3075],[-105.8915,27.6783,1625.1853],[-105.8998,27.6737,1581.8542],[-105.909,27.68,1599.0853],[-105.9079,27.6881,1602.2538],[-105.9109,27.6917,1606.785],[-105.9112,27.6959,1609.8335],[-105.9159,27.7001,1621.7264],[-105.9169,27.7035,1624.6753],[-105.935,27.6934,1758.4081],[-105.9362,27.6764,1606.9637],[-105.932,27.6762,1604.0979],[-105.9136,27.6598,1580.2542],[-105.9165,27.6548,1560.8767],[-105.9123,27.6501,1591.861],[-105.92,27.6511,1603.5787],[-105.9243,27.6417,1623.5674],[-105.9323,27.6495,1564.4218],[-105.935,27.649,1565.0709],[-105.937,27.6536,1576.2911],[-105.9456,27.6618,1614.3572],[-105.9546,27.6637,1647.127],[-105.9599,27.6614,1783.0729],[-106.0166,27.6689,1904.425],[-106.0402,27.7215,1639.5295],[-106.133,27.6856,1553.915],[-106.1175,27.6416,1608.7638],[-106.1664,27.6291,1679.8765],[-106.1919,27.626,1988.1169],[-106.2028,27.608,1890.71],[-106.1921,27.5979,1902.0601],[-106.1964,27.5954,1919.5708],[-106.1748,27.5766,1836.1323],[-106.1702,27.5799,1848.6497],[-106.1512,27.5792,1750.8173],[-106.1348,27.5887,1688.1191],[-106.1315,27.5829,1684.4343],[-106.1319,27.5808,1678.5815],[-106.1245,27.5795,1676.2147],[-106.1166,27.5692,1658.0599],[-106.1124,27.5578,1656.1786],[-106.1153,27.5449,1675.7632],[-106.1265,27.5366,1706.0596],[-106.1336,27.5363,1713.0574],[-106.1372,27.5343,1723.7427],[-106.1396,27.5357,1710.911],[-106.1467,27.5326,1724.7041],[-106.1578,27.5327,1738.7292],[-106.1659,27.5298,1772.7068],[-106.1811,27.5346,1751.3688],[-106.186,27.5302,1755.634],[-106.1907,27.5303,1750.1163],[-106.1941,27.5284,1713.1501],[-106.1964,27.5303,1704.0591],[-106.1988,27.5265,1686.942],[-106.2018,27.526,1677.2616],[-106.2014,27.5239,1665.2349],[-106.2051,27.5213,1637.5045],[-106.2066,27.5164,1629.2491],[-106.2107,27.5154,1632.0247],[-106.2124,27.5165,1612.2568],[-106.2126,27.5147,1595.3278],[-106.2141,27.5147,1608.6835],[-106.2128,27.5122,1593.5974],[-106.2155,27.5101,1583.1366],[-106.2149,27.5086,1587.0129],[-106.2168,27.5061,1572.6888],[-106.2185,27.506,1567.198],[-106.217,27.5051,1564.929],[-106.2157,27.4947,1533.8043],[-106.2214,27.4888,1517.2235],[-106.2225,27.4852,1508.2729],[-106.2017,27.4713,1492.6023],[-106.1316,27.4332,1455.6047],[-106.1434,27.4059,1402.5448],[-106.131,27.4067,1401.4442],[-106.1158,27.4179,1394.6902],[-106.1066,27.4181,1390.6549],[-106.0987,27.4147,1389.4963],[-106.0992,27.4098,1387.7253],[-106.1033,27.4044,1389.0649],[-106.1041,27.397,1389.0979],[-106.102,27.3933,1387.0243],[-106.0976,27.3903,1390.4608],[-106.0947,27.3909,1391.8015],[-106.087,27.4005,1386.9309],[-106.078,27.4035,1386.113],[-106.0638,27.3967,1382.9169],[-106.0622,27.3818,1416.3599],[-106.0542,27.3786,1380.9565],[-106.0506,27.3743,1386.604],[-106.0495,27.3622,1388.6782],[-106.0461,27.3562,1386.1936],[-106.0436,27.3546,1388.0519],[-106.0512,27.3515,1405.4734],[-106.0534,27.3472,1410.6035],[-106.0573,27.3474,1417.1516],[-106.0605,27.3428,1418.1682],[-106.0713,27.3437,1463.7281],[-106.08,27.3397,1486.4243],[-106.083,27.3415,1492.686],[-106.0873,27.3412,1498.0391],[-106.0915,27.3451,1517.7823],[-106.094,27.3448,1520.7841],[-106.1039,27.3357,1535.3706],[-106.1098,27.3366,1498.9521],[-106.1158,27.3317,1507.5371],[-106.1191,27.3337,1504.98],[-106.12,27.3301,1512.6436],[-106.1268,27.3269,1513.6669],[-106.1259,27.3239,1516.6681],[-106.1271,27.3193,1526.1165],[-106.1286,27.3187,1527.4471],[-106.1265,27.3166,1536.4055],[-106.1287,27.3155,1534.4268],[-106.1219,27.3109,1550.6467],[-106.1255,27.3049,1579.3284],[-106.1204,27.2975,1588.9402],[-106.1223,27.2959,1577.5177],[-106.1205,27.2913,1588.7118],[-106.1175,27.2889,1595.3156],[-106.1202,27.2867,1596.4855],[-106.1189,27.2851,1604.3555],[-106.1212,27.2842,1604.2126],[-106.1087,27.2799,1655.8105],[-106.1087,27.2689,1691.9041],[-106.1075,27.2665,1709.4598],[-106.1012,27.2625,1739.479],[-106.0895,27.2615,1688.8594],[-106.09,27.2725,1686.0219],[-106.082,27.2691,1651.9639],[-106.0697,27.2696,1589.6536],[-106.0659,27.2655,1577.0657],[-106.0588,27.2631,1566.7977],[-106.0554,27.2593,1585.2042],[-106.055,27.2549,1578.8976],[-106.0482,27.2493,1558.7073],[-106.0385,27.2484,1542.5165],[-106.0362,27.2431,1569.0708],[-106.0188,27.2316,1652.4177],[-106.0131,27.2384,1632.5942],[-106.0074,27.2407,1591.5039],[-106.0035,27.2381,1564.9078],[-106.0006,27.2404,1555.5769],[-105.997,27.2389,1551.5178],[-105.9795,27.2409,1528.6711],[-105.9668,27.2344,1520.9253],[-105.9574,27.2331,1528.4351],[-105.9485,27.2389,1499.0059],[-105.9384,27.2398,1482.0791],[-105.9287,27.2475,1460.249],[-105.9351,27.2499,1469.3621],[-105.9455,27.2482,1494.6357],[-105.9515,27.2568,1493.6243],[-105.9523,27.2663,1481.0583],[-105.9562,27.2797,1450.8612],[-105.9562,27.2822,1447.3258],[-105.953,27.2855,1442.4922],[-105.9548,27.2927,1436.2385],[-105.952,27.2979,1432.8792],[-105.9534,27.2981,1438.2673],[-105.9517,27.3096,1430.0756],[-105.9522,27.319,1438.2954],[-105.9535,27.3205,1443.9473],[-105.9516,27.3248,1444.809],[-105.9529,27.3288,1443.6639],[-105.9561,27.3314,1434.2526],[-105.9564,27.3344,1412.5129],[-105.9539,27.3369,1440.9749],[-105.9431,27.3387,1417.8279],[-105.9401,27.3367,1407.2202],[-105.9319,27.335,1373.0259],[-105.9308,27.3361,1369.2643],[-105.9282,27.3336,1411.5017],[-105.9239,27.3331,1435.1714],[-105.9152,27.3265,1458.6858],[-105.9145,27.3182,1444.1283],[-105.9117,27.3188,1440.7535],[-105.9089,27.3147,1441.991],[-105.9039,27.3152,1447.1658],[-105.9027,27.3122,1455.1099],[-105.8993,27.312,1456.687],[-105.8995,27.3104,1474.6399],[-105.8901,27.3043,1477.0952],[-105.89,27.3004,1487.6499],[-105.8863,27.2981,1502.0044],[-105.8854,27.2948,1491.3506],[-105.8828,27.295,1494.2438],[-105.8817,27.2933,1497.5557],[-105.8613,27.3061,1564.2335],[-105.8611,27.299,1588.2627],[-105.8572,27.2962,1567.2744],[-105.8553,27.2862,1573.5913],[-105.8531,27.2828,1591.6093],[-105.8402,27.2755,1637.6433],[-105.8372,27.2807,1652.4574],[-105.8267,27.2843,1712.882],[-105.8213,27.2841,1715.4576],[-105.8217,27.2861,1703.2897],[-105.8187,27.2885,1694.7197],[-105.816,27.2884,1692.4769],[-105.8107,27.2915,1687.3469],[-105.8043,27.292,1650.2051],[-105.8001,27.2862,1659.3711],[-105.7859,27.2804,1682.9207],[-105.7778,27.2739,1710.5071],[-105.7863,27.2584,1732.2643],[-105.783,27.254,1721.9908],[-105.7772,27.251,1714.5571],[-105.7743,27.2407,1709.3053],[-105.7702,27.2363,1697.6329],[-105.764,27.2324,1705.1801],[-105.7575,27.2313,1693.8082],[-105.7521,27.2255,1670.6187],[-105.746,27.2297,1675.7803],[-105.7371,27.2328,1684.5552],[-105.7305,27.2407,1651.0205],[-105.7314,27.2422,1652.0784],[-105.7275,27.2561,1701.1501],[-105.7191,27.2603,1704.8646],[-105.7201,27.2738,1705.8604],[-105.7068,27.2789,1689.3003],[-105.7162,27.3158,1755.3901],[-105.72,27.3222,1751.3213],[-105.63,27.3682,1591.2192],[-105.6101,27.3419,1656.9823],[-105.6221,27.311,1666.3511],[-105.5738,27.2943,1616.0969],[-105.5541,27.2892,1617.0952],[-105.5533,27.2949,1607.2313],[-105.5497,27.2957,1575.5345],[-105.5467,27.3021,1554.6888],[-105.5299,27.3106,1521.2208],[-105.517,27.3133,1499.2181],[-105.5097,27.3096,1489.6406],[-105.4953,27.308,1479.3967],[-105.4923,27.3091,1475.5],[-105.5188,27.357,1508.1772],[-105.4306,27.3435,1393.0828],[-105.4271,27.347,1386.6611],[-105.4313,27.3488,1384.7687],[-105.431,27.3529,1382.9045],[-105.4281,27.3585,1383.832],[-105.44,27.3615,1383.0009],[-105.4324,27.3662,1373.6288],[-105.4319,27.3713,1373.6179],[-105.4261,27.373,1369.4299],[-105.4272,27.3809,1364.5228],[-105.4217,27.3855,1365.0798]]]]}
,"properties": {"GID_2": "MEX.6.67_2","GID_0": "MEX","country": "México","GID_1": "MEX.6_1","province": "Chihuahua","NL_NAME_1": "NA","county": "ValledeZaragoza","VARNAME_2": "NA","NL_NAME_2": "NA","TYPE_2": "Município","ENGTYPE_2": "Municipality","CC_2": "NA","HASC_2": "NA","name": "Vallede_Zaragoza.county","area_km2": 2959.391,"hist_schema_id": "Elevation0-9000","hist_area_km2": {"1300": 112.493,"1325": 161.642,"1350": 178.207,"1375": 193.006,"1400": 208.541,"1425": 200.475,"1450": 177.266,"1475": 173.718,"1500": 168.622,"1525": 152.161,"1550": 153.943,"1575": 169.054,"1600": 175.623,"1625": 191.701,"1650": 170.814,"1675": 130.496,"1700": 96.562,"1725": 73.411,"1750": 33.681,"1775": 15.418,"1800": 9.268,"1825": 5.32,"1850": 3.101,"1875": 2.086,"1900": 1.24,"1925": 0.507,"1950": 0.376,"1975": 0.263,"2000": 0.169,"2025": 0.113,"2050": 0.038,"2175": 0.056}}}