{"type":"Feature","properties":{"GID_2":"MEX.14.87_2","GID_0":"MEX","country":"México","GID_1":"MEX.14_1","province":"Jalisco","NL_NAME_1":"NA","county":"TamazuladeGordiano","VARNAME_2":"NA","NL_NAME_2":"NA","TYPE_2":"Município","ENGTYPE_2":"Municipality","CC_2":"NA","HASC_2":"NA","name":"Tamazulade_Gordiano.county"},
"geometry":{"type": "MultiPolygon","coordinates": [[[[-103.2694,19.8845,2021.7384],[-103.2793,19.8822,1992.3737],[-103.2809,19.8858,2000.816],[-103.2914,19.8842,1970.4092],[-103.2996,19.8877,1958.3713],[-103.301,19.886,1954.3154],[-103.3076,19.886,1942.9888],[-103.31,19.8828,1934.1349],[-103.314,19.8813,1927.8506],[-103.314,19.8792,1947.6533],[-103.3197,19.8794,1921.2603],[-103.322,19.8778,1925.1497],[-103.3217,19.8726,1931.1936],[-103.3169,19.8706,1989.4264],[-103.318,19.8694,2002.6393],[-103.3098,19.8647,2032.0997],[-103.3076,19.8595,1955.916],[-103.3028,19.8545,1923.4769],[-103.3012,19.8469,1883.8308],[-103.2978,19.8454,1878.0029],[-103.2978,19.8429,1869.4363],[-103.2996,19.8396,1849.6163],[-103.3086,19.8371,1907.9308],[-103.3118,19.8379,1905.3386],[-103.3141,19.840699999999998,1935.0167],[-103.3112,19.8359,1899.3271],[-103.3126,19.8325,1878.4449],[-103.3154,19.8324,1862.1471],[-103.3165,19.829,1879.3928],[-103.3209,19.8268,1815.4629],[-103.3209,19.8244,1800.4639],[-103.3235,19.8222,1794.8223],[-103.3214,19.8202,1802.0585],[-103.3248,19.8194,1785.9266],[-103.3259,19.8157,1778.1444],[-103.33,19.8145,1762.4592],[-103.3275,19.8112,1739.1084],[-103.3293,19.8051,1734.5811],[-103.3282,19.8021,1719.8004],[-103.3345,19.7963,1661.5043],[-103.3366,19.8021,1669.0],[-103.339,19.8003,1669.0],[-103.3406,19.7935,1632.7197],[-103.3471,19.7983,1666.6631],[-103.3494,19.7982,1679.6862],[-103.3526,19.8035,1702.516],[-103.3593,19.8061,1748.2717],[-103.3597,19.8084,1780.9688],[-103.3639,19.8108,1802.071],[-103.3678,19.81,1825.1038],[-103.3735,19.8136,1866.1782],[-103.3791,19.8107,1910.1902],[-103.3866,19.8114,2009.7693],[-103.3895,19.8135,2013.7268],[-103.3972,19.8119,2158.8862],[-103.403,19.8144,2209.8499],[-103.4055,19.8124,2262.1211],[-103.4044,19.8111,2202.7246],[-103.4091,19.8103,2250.3896],[-103.4086,19.8128,2293.5278],[-103.4136,19.8161,2232.8755],[-103.4133,19.809,2148.6516],[-103.4162,19.8072,2133.0156],[-103.4182,19.8019,2121.1887],[-103.4208,19.8018,2132.5073],[-103.4225,19.7982,2096.9978],[-103.4267,19.8009,2114.3884],[-103.4268,19.7957,2144.458],[-103.4246,19.7916,2120.1592],[-103.4274,19.7926,2104.625],[-103.4287,19.7908,2093.4812],[-103.426,19.7848,2021.251],[-103.4291,19.7786,1998.3835],[-103.4294,19.773,1955.4241],[-103.428,19.7703,1919.0374],[-103.4248,19.769,1894.7701],[-103.4224,19.7718,1907.7086],[-103.4121,19.7727,2073.1707],[-103.4118,19.7663,2116.9158],[-103.4156,19.7576,2045.606],[-103.4144,19.7467,2140.4087],[-103.406,19.7405,2043.9177],[-103.405,19.7346,1985.0054],[-103.3989,19.7325,1862.4014],[-103.3953,19.7386,1894.2266],[-103.3957,19.7415,1915.4513],[-103.3893,19.7393,1875.8086],[-103.383,19.7337,1616.257],[-103.3783,19.7338,1553.4834],[-103.3736,19.7319,1507.3474],[-103.37,19.7328,1468.1514],[-103.3659,19.7365,1463.8646],[-103.3612,19.7365,1374.0912],[-103.3593,19.7459,1648.8816],[-103.3554,19.7483,1715.1174],[-103.3561,19.75,1750.275],[-103.3541,19.749,1735.6252],[-103.3463,19.7547,1734.1418],[-103.3345,19.7538,1536.4906],[-103.3333,19.7517,1501.6624],[-103.3332,19.7537,1530.2654],[-103.3285,19.752,1481.5963],[-103.3248,19.753,1468.2156],[-103.321,19.7519,1499.5005],[-103.3185,19.7485,1432.551],[-103.3273,19.7439,1411.2941],[-103.329,19.745,1409.2708],[-103.3352,19.7407,1396.2885],[-103.3374,19.7416,1399.9465],[-103.3391,19.7397,1394.1055],[-103.34,19.7408,1405.6973],[-103.3472,19.7392,1389.8267],[-103.3494,19.7378,1375.9108],[-103.3489,19.7359,1378.0608],[-103.3517,19.7338,1438.3011],[-103.352,19.7312,1371.9987],[-103.3547,19.7308,1355.9604],[-103.3566,19.7252,1301.6667],[-103.3544,19.7237,1291.6306],[-103.3562,19.7219,1286.8699],[-103.354,19.7205,1286.7347],[-103.3555,19.7148,1283.4728],[-103.3475,19.7068,1197.8589],[-103.3525,19.7055,1199.2161],[-103.3536,19.7022,1181.3728],[-103.3525,19.7006,1157.079],[-103.355,19.6998,1150.6069],[-103.3553,19.6964,1148.3665],[-103.3515,19.6971,1151.6577],[-103.3532,19.6936,1135.1497],[-103.3498,19.6885,1139.4717],[-103.3478,19.6904,1128.8143],[-103.3429,19.6869,1127.8127],[-103.3409,19.687,1127.8127],[-103.3369,19.6744,1147.9603],[-103.3271,19.6776,1136.7982],[-103.3204,19.6726,1108.9634],[-103.3221,19.6705,1113.46],[-103.32,19.6684,1101.1284],[-103.3228,19.6643,1111.9595],[-103.3291,19.6635,1115.2766],[-103.3283,19.66,1118.8711],[-103.3302,19.6539,1099.5686],[-103.3266,19.6522,1102.6938],[-103.3293,19.6472,1108.1594],[-103.3287,19.6457,1101.4105],[-103.3303,19.6432,1114.7321],[-103.3332,19.6459,1122.9119],[-103.3346,19.6437,1097.7299],[-103.3295,19.641,1098.0286],[-103.33,19.6398,1118.7749],[-103.3266,19.6412,1094.7629],[-103.327,19.6435,1101.0388],[-103.323,19.645,1098.1465],[-103.3199,19.6413,1095.182],[-103.3154,19.6408,1104.546],[-103.3106,19.6378,1089.5415],[-103.3108,19.6333,1102.0682],[-103.307,19.6313,1099.5541],[-103.3082,19.6223,1101.8198],[-103.307,19.6191,1087.4644],[-103.3119,19.6166,1085.8223],[-103.3074,19.612,1136.6012],[-103.313,19.6091,1087.8527],[-103.313,19.6049,1080.9131],[-103.3056,19.6039,1139.6356],[-103.3002,19.6007,1219.4985],[-103.2963,19.602,1222.913],[-103.294,19.6061,1305.4529],[-103.2881,19.6071,1376.2081],[-103.2814,19.6018,1345.6777],[-103.2782,19.601,1411.5964],[-103.2762,19.5962,1491.1586],[-103.2707,19.5944,1461.1158],[-103.27,19.588,1378.7328],[-103.272,19.5854,1434.7383],[-103.2706,19.5824,1438.6895],[-103.2615,19.5815,1410.9404],[-103.2541,19.576,1575.3223],[-103.247,19.5773,1499.6929],[-103.2457,19.5712,1345.3335],[-103.2506,19.5577,1231.1985],[-103.2479,19.557,1274.8237],[-103.2478,19.5555,1274.8237],[-103.2499,19.5525,1229.2114],[-103.2547,19.5493,1197.2205],[-103.2562,19.5504,1197.2205],[-103.2597,19.5463,1163.5312],[-103.2561,19.5448,1165.3906],[-103.2566,19.5434,1170.4744],[-103.2498,19.5445,1168.53],[-103.2386,19.5347,1199.0557],[-103.2286,19.5309,1382.7783],[-103.2246,19.5308,1429.0096],[-103.2241,19.5287,1538.509],[-103.2224,19.5317,1422.9216],[-103.2205,19.5314,1447.1431],[-103.2166,19.5283,1497.587],[-103.2196,19.5233,1596.6361],[-103.2151,19.5235,1511.525],[-103.216,19.5198,1570.6082],[-103.2143,19.5209,1521.4967],[-103.2133,19.5188,1562.5112],[-103.2096,19.5191,1554.7915],[-103.2105,19.5178,1559.821],[-103.2076,19.5161,1577.5414],[-103.2093,19.5154,1602.7935],[-103.2076,19.5125,1569.0935],[-103.2086,19.5117,1570.1522],[-103.2033,19.5082,1579.6462],[-103.2014,19.5092,1549.9468],[-103.1996,19.5029,1556.8673],[-103.2013,19.4992,1530.2225],[-103.2071,19.4959,1501.3518],[-103.2059,19.4908,1440.1798],[-103.208,19.4888,1472.3889],[-103.207,19.4868,1536.8589],[-103.2099,19.4861,1541.8486],[-103.2081,19.4834,1563.6842],[-103.2088,19.4818,1591.269],[-103.212,19.4839,1538.3398],[-103.219,19.483,1490.4231],[-103.2152,19.4876,1440.6099],[-103.2168,19.4892,1468.502],[-103.2201,19.4893,1500.2065],[-103.2227,19.4828,1448.7469],[-103.2204,19.482,1463.7346],[-103.2205,19.4798,1470.7311],[-103.2241,19.4785,1485.8313],[-103.2235,19.4758,1519.2131],[-103.2257,19.4747,1494.639],[-103.2283,19.4692,1505.6729],[-103.2253,19.4656,1548.5129],[-103.2264,19.4641,1567.7236],[-103.2222,19.4551,1641.1315],[-103.2207,19.4546,1669.9878],[-103.2214,19.4526,1695.7898],[-103.2197,19.45,1646.0997],[-103.2154,19.4486,1660.8156],[-103.212,19.4504,1616.757],[-103.2092,19.45,1612.2749],[-103.2039,19.454,1432.4939],[-103.1988,19.4485,1403.9814],[-103.1975,19.4498,1392.2214],[-103.1953,19.4487,1382.6045],[-103.1956,19.4506,1406.3268],[-103.1917,19.4487,1396.2534],[-103.1903,19.4528,1399.9856],[-103.1908,19.4593,1440.8562],[-103.1793,19.4613,1440.7168],[-103.1727,19.4518,1430.0973],[-103.1709,19.453,1438.9099],[-103.1665,19.4505,1438.5673],[-103.1655,19.4476,1447.2625],[-103.1575,19.4529,1354.3893],[-103.1546,19.4524,1345.381],[-103.1498,19.4548,1339.6388],[-103.1472,19.4566,1268.0249],[-103.1472,19.4585,1270.114],[-103.1427,19.4587,1241.7765],[-103.1404,19.454,1218.7708],[-103.138,19.4551,1184.6746],[-103.1355,19.4528,1124.4677],[-103.132,19.4528,1108.5244],[-103.1275,19.4477,1067.046],[-103.1233,19.4478,1042.0638],[-103.1229,19.4428,1033.7384],[-103.1169,19.4422,998.2984],[-103.1142,19.4398,1010.785],[-103.1124,19.4423,1045.9771],[-103.116,19.445,979.8849],[-103.1094,19.4457,967.6466],[-103.1077,19.445,1000.8364],[-103.1078,19.4427,1046.2867],[-103.1049,19.4424,1073.1437],[-103.1031,19.438,1098.1931],[-103.0991,19.4405,1182.1311],[-103.1004,19.4436,1144.9915],[-103.0967,19.4513,943.9501],[-103.0954,19.4488,938.109],[-103.0935,19.4493,967.8904],[-103.0881,19.4465,987.7207],[-103.0848,19.4499,915.821],[-103.0825,19.4477,929.5223],[-103.0783,19.4499,911.1462],[-103.0762,19.4495,917.926],[-103.0758,19.4464,935.498],[-103.0732,19.4472,913.0125],[-103.0662,19.4452,886.4286],[-103.065,19.4488,866.7452],[-103.0701,19.4492,882.734],[-103.0707,19.4537,923.4142],[-103.0766,19.4542,913.9805],[-103.0778,19.46,931.4944],[-103.0744,19.4626,959.6293],[-103.0758,19.4654,948.9238],[-103.0809,19.465,975.3743],[-103.0787,19.4721,1033.5641],[-103.0835,19.4704,1001.3077],[-103.0851,19.4722,1012.5188],[-103.0872,19.4717,979.8646],[-103.0872,19.474,982.9781],[-103.0917,19.4745,975.2485],[-103.0857,19.4743,1012.4515],[-103.0797,19.4779,1049.3889],[-103.0763,19.4762,1175.8713],[-103.0766,19.4748,1182.8374],[-103.0743,19.4749,1230.3896],[-103.0721,19.4797,1236.3066],[-103.0613,19.4846,1331.5325],[-103.0645,19.4875,1298.1611],[-103.0654,19.4896,1275.4155],[-103.0643,19.4902,1307.0892],[-103.0675,19.4918,1285.7192],[-103.0719,19.4909,1175.3025],[-103.0816,19.4925,1100.6443],[-103.083,19.4895,1068.9685],[-103.0881,19.4909,1063.7185],[-103.0915,19.4945,1052.4919],[-103.0888,19.4968,1052.8018],[-103.0896,19.5015,1063.412],[-103.0884,19.4994,1067.0659],[-103.0867,19.5009,1076.7725],[-103.0885,19.5021,1101.686],[-103.0867,19.5049,1070.7122],[-103.0834,19.5034,1106.5292],[-103.0854,19.5048,1074.0955],[-103.0829,19.51,1103.0662],[-103.0751,19.51,1335.8018],[-103.0714,19.5143,1431.5674],[-103.0626,19.511,1432.5813],[-103.0634,19.5095,1327.4781],[-103.059,19.5079,1398.6301],[-103.0596,19.5067,1424.313],[-103.0554,19.5077,1441.5272],[-103.0486,19.5031,1741.1187],[-103.0391,19.5111,1449.7803],[-103.0336,19.5137,1404.7429],[-103.0286,19.5192,1363.6351],[-103.0252,19.5191,1279.5404],[-103.0237,19.5217,1257.4343],[-103.0188,19.5219,1238.4022],[-103.0183,19.5302,1264.3853],[-103.0113,19.5404,1303.7341],[-103.0105,19.545,1246.4957],[-103.0078,19.5454,1237.396],[-103.0057,19.553,1225.9684],[-103.0035,19.554,1188.7139],[-103.0071,19.5594,1264.8966],[-103.0162,19.5623,1308.6694],[-103.0215,19.5613,1379.6575],[-103.029,19.5865,1747.8582],[-103.0255,19.5879,1727.4856],[-103.0218,19.5933,1823.172],[-103.0181,19.5956,1845.9073],[-103.019,19.6013,1890.5702],[-103.0168,19.6034,1851.5498],[-103.0157,19.6096,1828.1698],[-103.0096,19.6103,1797.4998],[-103.0092,19.6142,1728.1665],[-103.0071,19.6111,1728.9617],[-103.0058,19.6207,1650.0015],[-103.0079,19.6216,1666.5475],[-103.0055,19.6398,1548.8468],[-103.0086,19.6455,1609.6002],[-103.0086,19.65,1595.8389],[-103.0065,19.6558,1644.4664],[-103.0098,19.657,1746.7291],[-103.0147,19.6629,1854.4286],[-103.011,19.6651,1851.4281],[-103.0092,19.6692,1858.1331],[-103.0021,19.6728,1874.7474],[-103.0052,19.6753,1850.6971],[-103.0019,19.6762,1878.5812],[-103.0015,19.6812,1856.6696],[-103.0032,19.682,1856.6696],[-102.9992,19.6858,1740.4503],[-103.0075,19.6884,1694.8191],[-103.013,19.6962,1674.8325],[-103.0133,19.699,1618.4648],[-103.0154,19.6997,1580.1328],[-103.0184,19.7077,1446.8796],[-103.0229,19.7093,1396.6586],[-103.0234,19.7122,1359.2386],[-103.0177,19.7132,1454.8231],[-103.0194,19.7164,1394.6034],[-103.0158,19.7155,1399.5265],[-103.013,19.7225,1429.2642],[-103.0057,19.7304,1436.912],[-103.0067,19.7332,1432.4519],[-103.005,19.7346,1457.3828],[-103.0063,19.7363,1453.6554],[-103.0035,19.747,1485.0282],[-103.0072,19.7471,1533.1425],[-103.0103,19.7493,1639.0864],[-103.0224,19.7635,1938.0424],[-103.0189,19.7696,2057.9321],[-103.0161,19.7878,1992.2833],[-103.0201,19.7939,1999.3098],[-103.0205,19.8,1839.8833],[-103.0368,19.8092,1533.0582],[-103.0467,19.8051,1501.4352],[-103.0464,19.8094,1465.1602],[-103.0506,19.8151,1475.0267],[-103.056,19.8129,1496.5161],[-103.0586,19.8145,1497.0361],[-103.0606,19.8199,1517.9368],[-103.0648,19.8238,1575.7],[-103.069,19.8248,1623.7717],[-103.0738,19.8306,1690.7542],[-103.0786,19.8281,1677.8943],[-103.0802,19.831,1703.4985],[-103.0823,19.8298,1746.6205],[-103.0877,19.8302,1761.438],[-103.0892,19.833,1609.73],[-103.0919,19.8331,1586.0051],[-103.0916,19.8342,1580.7085],[-103.0933,19.8333,1566.3295],[-103.0929,19.8356,1607.8102],[-103.0973,19.8442,1808.2366],[-103.0937,19.848,1708.9819],[-103.0976,19.8506,1710.2094],[-103.1011,19.8563,1728.1097],[-103.1128,19.8587,1782.8137],[-103.1143,19.8606,1771.4222],[-103.1233,19.8564,1840.2208],[-103.1264,19.8567,1856.0808],[-103.1308,19.8469,1902.2111],[-103.1455,19.8432,1677.6038],[-103.1458,19.8446,1677.6783],[-103.148,19.8438,1640.7615],[-103.1567,19.8472,1482.1078],[-103.1553,19.8531,1497.8892],[-103.1763,19.8545,2009.5275],[-103.1848,19.8595,1613.8191],[-103.1931,19.8692,1749.8035],[-103.1921,19.871,1756.2808],[-103.1949,19.876,1754.5858],[-103.1866,19.8801,1853.7727],[-103.1814,19.8847,1927.3793],[-103.1874,19.9128,2022.7928],[-103.1859,19.9144,2027.6541],[-103.1905,19.915,2040.3385],[-103.1913,19.9164,2078.144],[-103.1934,19.9156,2125.5669],[-103.1972,19.9189,2076.9563],[-103.2037,19.918,2057.5779],[-103.2056,19.9212,2103.9294],[-103.2062,19.9202,2089.8193],[-103.2088,19.9213,2134.103],[-103.2099,19.9266,2144.9348],[-103.2159,19.9277,2248.2571],[-103.2254,19.9331,2251.3198],[-103.2307,19.9303,2285.8164],[-103.2385,19.9291,2324.3093],[-103.2334,19.9228,2297.1504],[-103.2334,19.9191,2348.5173],[-103.2309,19.9171,2326.353],[-103.2363,19.9068,2188.9355],[-103.2354,19.9022,2183.8794],[-103.2383,19.9005,2152.4873],[-103.246,19.9003,2104.1401],[-103.2494,19.8956,2056.8159],[-103.2554,19.8957,2039.6394],[-103.2562,19.8908,2016.0027],[-103.2583,19.8898,2007.0791],[-103.2572,19.8884,2002.4985],[-103.2579,19.8844,2005.3516],[-103.2558,19.8838,2012.3153],[-103.2591,19.8778,2104.782],[-103.2645,19.8803,2112.2471],[-103.2602,19.8841,2025.905],[-103.2694,19.8845,2021.7384]]]]}}