{"type": "Feature","bbox": [-109.5239,29.5232,-109.2258,29.7262],"geometry": {"type": "MultiPolygon","coordinates": [[[[-109.2316,29.642,634.0226],[-109.2699,29.6282,806.1176],[-109.3157,29.6604,938.475],[-109.3461,29.6643,972.1077],[-109.3653,29.7015,1004.6749],[-109.372,29.7023,889.9091],[-109.3838,29.6992,1011.5333],[-109.3943,29.7053,866.5833],[-109.4431,29.722,994.5828],[-109.4983,29.7262,822.1121],[-109.4702,29.6556,800.1848],[-109.5239,29.604,802.7717],[-109.5031,29.5555,627.7556],[-109.4522,29.5708,750.8311],[-109.4143,29.5617,835.5632],[-109.4056,29.568,975.5018],[-109.3559,29.5244,1075.3831],[-109.3238,29.5454,1189.8475],[-109.2879,29.5232,1101.5559],[-109.2665,29.5265,707.4442],[-109.2499,29.5321,456.6016],[-109.2385,29.5303,419.2452],[-109.2309,29.5395,435.5267],[-109.2331,29.548,437.3346],[-109.2258,29.5524,443.1897],[-109.2259,29.5594,479.7296],[-109.2292,29.5638,454.8108],[-109.2361,29.566,435.592],[-109.2396,29.5703,447.2678],[-109.2383,29.5722,454.5811],[-109.2286,29.5741,511.3924],[-109.228,29.5788,529.9845],[-109.2342,29.5824,462.4409],[-109.2386,29.5815,452.5763],[-109.24,29.5792,444.5273],[-109.2415,29.5819,447.0613],[-109.2411,29.5859,479.0511],[-109.2364,29.5885,469.3234],[-109.2357,29.5926,480.2631],[-109.2384,29.5945,475.424],[-109.238,29.6004,453.332],[-109.2405,29.6059,470.3867],[-109.2385,29.611,468.9797],[-109.2339,29.614,489.6511],[-109.2373,29.6188,464.415],[-109.2365,29.6287,470.8077],[-109.241,29.6309,465.6758],[-109.2416,29.6334,462.7261],[-109.2383,29.6378,465.5447],[-109.2316,29.642,634.0226]]]]}
,"properties": {"GID_2": "MEX.26.24_2","GID_0": "MEX","country": "México","GID_1": "MEX.26_1","province": "Sonora","NL_NAME_1": "NA","county": "Divisaderos","VARNAME_2": "NA","NL_NAME_2": "NA","TYPE_2": "Município","ENGTYPE_2": "Municipality","CC_2": "NA","HASC_2": "NA","name": "Divisaderos.county","area_km2": 386.2506,"hist_schema_id": "Elevation0-9000","hist_area_km2": {"425": 0.3135,"450": 1.2908,"475": 1.6225,"500": 1.7332,"525": 2.1573,"550": 1.9729,"575": 1.844,"600": 1.844,"625": 3.1718,"650": 10.1966,"675": 14.6567,"700": 17.0329,"725": 22.892,"750": 26.7418,"775": 24.6385,"800": 19.901,"825": 18.4278,"850": 15.3314,"875": 13.1576,"900": 11.131,"925": 11.7401,"950": 10.5797,"975": 11.5202,"1000": 10.3587,"1025": 10.3769,"1050": 10.3221,"1075": 10.7093,"1100": 11.1705,"1125": 11.5023,"1150": 8.83,"1175": 8.5539,"1200": 8.1485,"1225": 7.2822,"1250": 6.7108,"1275": 6.2318,"1300": 5.2732,"1325": 4.72,"1350": 3.9642,"1375": 3.2635,"1400": 3.3004,"1425": 2.7289,"1450": 2.7104,"1475": 1.807,"1500": 1.2907,"1525": 1.1616,"1550": 0.7007,"1575": 0.5163,"1600": 0.2951,"1625": 0.1844,"1650": 0.1107,"1675": 0.0738,"1700": 0.0184,"1725": 0.0369}}}