{"type": "Feature","bbox": [-96.9153,18.6319,-96.5669,18.7861],"geometry": {"type": "MultiPolygon","coordinates": [[[[-96.6282,18.6319,178.8625],[-96.6202,18.6451,192.9009],[-96.619,18.6447,192.9009],[-96.6147,18.6505,190.9914],[-96.6115,18.6497,189.954],[-96.6124,18.6558,194.1523],[-96.6162,18.6567,198.0954],[-96.6146,18.6591,197.2918],[-96.6165,18.6599,203.6077],[-96.6157,18.661,201.7518],[-96.6179,18.6611,207.1922],[-96.6153,18.6775,204.6275],[-96.6082,18.6756,197.0575],[-96.6028,18.6783,185.4219],[-96.6015,18.6809,184.2155],[-96.5965,18.6787,184.1725],[-96.5918,18.6801,178.8072],[-96.5904,18.6898,184.2726],[-96.5956,18.6904,186.7577],[-96.5986,18.6929,190.5436],[-96.5961,18.697,181.2857],[-96.5985,18.7018,191.0325],[-96.5914,18.7053,174.1926],[-96.5888,18.7005,166.7029],[-96.5864,18.7017,163.6772],[-96.585,18.7047,163.6333],[-96.5767,18.7036,166.6878],[-96.5769,18.7078,174.7021],[-96.5669,18.7077,148.1016],[-96.5678,18.7194,157.5536],[-96.57,18.7211,154.2365],[-96.5724,18.7207,158.3476],[-96.5742,18.7235,154.6007],[-96.58,18.7246,160.698],[-96.5789,18.7307,181.0142],[-96.5874,18.7319,192.0799],[-96.5867,18.7371,180.1563],[-96.5843,18.7373,180.7222],[-96.5842,18.7388,170.2621],[-96.5784,18.7352,167.4913],[-96.5768,18.738,151.3097],[-96.5783,18.7397,166.7257],[-96.58,18.738,160.303],[-96.5823,18.7406,173.7503],[-96.5887,18.7418,162.7727],[-96.5936,18.7383,178.7194],[-96.5964,18.7418,167.6776],[-96.5974,18.7378,187.5562],[-96.6001,18.7403,173.5098],[-96.6032,18.738,182.169],[-96.606,18.7402,176.8358],[-96.618,18.7412,190.5685],[-96.619,18.7431,185.7098],[-96.6218,18.7411,193.1296],[-96.6275,18.742,223.5593],[-96.6333,18.747,202.7023],[-96.6373,18.7451,206.6455],[-96.6407,18.7464,215.3768],[-96.6419,18.7448,211.8157],[-96.6459,18.7485,213.9145],[-96.6482,18.7459,216.0735],[-96.6499,18.7482,224.3794],[-96.6525,18.7483,228.199],[-96.6548,18.7515,228.2427],[-96.6602,18.7482,239.4742],[-96.6616,18.7452,236.6376],[-96.6658,18.7471,239.3388],[-96.6658,18.7499,234.3919],[-96.672,18.7501,250.5126],[-96.6755,18.7472,252.4384],[-96.6838,18.7471,274.7132],[-96.6855,18.7445,268.5692],[-96.6895,18.7445,266.349],[-96.6917,18.7472,282.3959],[-96.6967,18.7444,281.2292],[-96.7084,18.746,289.3933],[-96.7203,18.7436,313.3981],[-96.7254,18.7445,314.6548],[-96.7334,18.7395,340.2492],[-96.7442,18.7435,352.7814],[-96.7465,18.7419,366.3406],[-96.7483,18.7434,355.7254],[-96.7499,18.7423,355.7254],[-96.753,18.7462,357.4091],[-96.7659,18.7469,385.8977],[-96.7791,18.7508,395.3921],[-96.7853,18.7495,389.2316],[-96.7893,18.7503,406.7717],[-96.7923,18.7485,417.7746],[-96.7955,18.7511,405.6782],[-96.7994,18.7506,412.9983],[-96.8026,18.7532,423.4763],[-96.8116,18.755,446.8497],[-96.8136,18.7592,450.3453],[-96.8213,18.7624,453.3122],[-96.8365,18.7639,472.3387],[-96.8417,18.7664,490.0752],[-96.846,18.7661,487.5252],[-96.8498,18.7606,494.0701],[-96.8572,18.7581,505.4852],[-96.87,18.7626,523.0874],[-96.871,18.7662,552.2932],[-96.8762,18.7707,546.642],[-96.8771,18.7734,560.2565],[-96.8821,18.7752,569.4474],[-96.883,18.7777,564.423],[-96.8864,18.7799,562.6908],[-96.8939,18.7805,566.1508],[-96.9043,18.7861,583.0148],[-96.9086,18.781,622.3804],[-96.9061,18.7755,948.5778],[-96.9063,18.7725,1058.1987],[-96.9153,18.761,1570.6648],[-96.9108,18.7593,1399.6655],[-96.902,18.7514,959.6629],[-96.9013,18.7525,956.0026],[-96.8977,18.7513,776.2074],[-96.8989,18.7507,924.5046],[-96.8975,18.7497,683.1324],[-96.8957,18.7506,764.473],[-96.894,18.7442,858.9573],[-96.8958,18.7436,921.3548],[-96.893,18.7421,982.3358],[-96.8862,18.7458,575.3724],[-96.8848,18.745,537.8794],[-96.8822,18.7486,552.6387],[-96.8771,18.7489,548.6952],[-96.8768,18.7509,542.3157],[-96.8726,18.7524,537.9565],[-96.8714,18.7509,610.7327],[-96.8673,18.7515,608.5114],[-96.8673,18.75,672.4496],[-96.8617,18.7469,809.2233],[-96.8523,18.7462,1086.7369],[-96.8472,18.7439,1142.1848],[-96.8422,18.7524,883.9485],[-96.8372,18.7493,893.5562],[-96.8347,18.7456,791.9387],[-96.8288,18.7448,762.8134],[-96.8262,18.7427,733.0864],[-96.8244,18.7445,815.8136],[-96.8205,18.7365,816.2968],[-96.8115,18.7394,433.4718],[-96.8124,18.7388,485.1134],[-96.8091,18.7373,422.7723],[-96.8101,18.735,469.9723],[-96.8055,18.7279,415.0187],[-96.8056,18.7256,434.1139],[-96.8011,18.7245,400.372],[-96.8011,18.7218,400.4037],[-96.7984,18.7208,392.8069],[-96.7927,18.7134,376.8459],[-96.791,18.7144,384.1328],[-96.7926,18.7163,385.6348],[-96.7918,18.7174,389.0283],[-96.7878,18.7136,381.3319],[-96.7851,18.7102,373.6455],[-96.7843,18.7032,366.4045],[-96.7794,18.7037,363.73],[-96.7723,18.6939,337.0365],[-96.7646,18.6972,341.3433],[-96.7621,18.6967,356.7989],[-96.7605,18.6933,329.2408],[-96.7544,18.6957,322.19],[-96.7508,18.6917,361.9395],[-96.7495,18.694,321.2689],[-96.7469,18.6947,322.3329],[-96.7441,18.6925,314.9382],[-96.7444,18.6909,362.7282],[-96.742,18.6918,322.7523],[-96.7332,18.6877,293.1537],[-96.7249,18.6811,286.2746],[-96.7204,18.6752,271.8376],[-96.7217,18.6727,355.8451],[-96.7201,18.6705,270.6428],[-96.704,18.6549,244.7582],[-96.7023,18.6561,252.0973],[-96.6841,18.6443,235.334],[-96.681,18.6484,239.5107],[-96.684,18.6568,242.8634],[-96.683,18.6697,251.0545],[-96.6744,18.6659,233.7401],[-96.6737,18.663,228.7187],[-96.6697,18.6613,224.1445],[-96.6701,18.659,225.3545],[-96.6682,18.656,213.9209],[-96.6656,18.6563,212.0556],[-96.6592,18.6505,204.9829],[-96.655,18.6513,204.0862],[-96.6486,18.6458,198.5015],[-96.6458,18.6404,207.0984],[-96.6438,18.6409,192.4038],[-96.6353,18.636,182.1133],[-96.6336,18.6367,174.8443],[-96.6282,18.6319,178.8625]]]]}
,"properties": {"GID_2": "MEX.30.124_2","GID_0": "MEX","country": "México","GID_1": "MEX.30_1","province": "Veracruz","NL_NAME_1": "NA","county": "Omealca","VARNAME_2": "NA","NL_NAME_2": "NA","TYPE_2": "Município","ENGTYPE_2": "Municipality","CC_2": "NA","HASC_2": "NA","name": "Omealca.county","area_km2": 213.9283,"hist_schema_id": "Elevation0-9000","hist_area_km2": {"150": 1.3856,"175": 11.3865,"200": 30.2669,"225": 29.8036,"250": 29.8839,"275": 20.9661,"300": 17.0292,"325": 15.3819,"350": 12.751,"375": 9.6784,"400": 6.7465,"425": 3.4534,"450": 1.4656,"475": 1.0038,"500": 0.7227,"525": 0.9837,"550": 2.4693,"575": 2.1882,"600": 1.2246,"625": 0.7227,"650": 0.9034,"675": 1.0841,"700": 0.8834,"725": 0.6625,"750": 0.6424,"775": 0.5019,"800": 0.6424,"825": 0.6424,"850": 0.5621,"875": 0.5621,"900": 0.6023,"925": 0.6224,"950": 0.5621,"975": 0.2409,"1000": 0.3614,"1025": 0.4617,"1050": 0.2409,"1075": 0.2811,"1100": 0.2811,"1125": 0.4216,"1150": 0.2811,"1175": 0.2409,"1200": 0.2811,"1225": 0.2008,"1250": 0.3011,"1275": 0.3413,"1300": 0.3212,"1325": 0.2409,"1350": 0.2208,"1375": 0.0602,"1400": 0.2208,"1425": 0.1606,"1450": 0.1004,"1475": 0.1807,"1500": 0.1004}}}