{"type":"Feature","properties":{"GID_2":"MEX.13.30_2","GID_0":"MEX","country":"México","GID_1":"MEX.13_1","province":"Hidalgo","NL_NAME_1":"NA","county":"Ixmiquilpan","VARNAME_2":"NA","NL_NAME_2":"NA","TYPE_2":"Município","ENGTYPE_2":"Municipality","CC_2":"NA","HASC_2":"NA","name":"Ixmiquilpan.county"},
"geometry":{"type": "MultiPolygon","coordinates": [[[[-99.2897,20.4065,2076.7854],[-99.2826,20.4086,2118.6191],[-99.2794,20.4126,1996.4622],[-99.2678,20.4168,1926.5219],[-99.266,20.41,2105.6406],[-99.2614,20.41,1963.5719],[-99.2572,20.4076,1881.5287],[-99.2544,20.4086,1889.5691],[-99.2534,20.4121,1846.1963],[-99.2505,20.4129,1836.5071],[-99.2498,20.4147,1834.3284],[-99.2423,20.412,1830.6742],[-99.2272,20.4118,1774.6504],[-99.2238,20.413,1790.6687],[-99.2181,20.4105,1766.3735],[-99.2105,20.4109,1778.962],[-99.2006,20.4062,1833.8312],[-99.1942,20.4089,1892.2006],[-99.1634,20.4107,1857.1857],[-99.1397,20.4066,1875.4896],[-99.1327,20.4059,1987.0947],[-99.1298,20.4072,1985.1208],[-99.1134,20.3945,1964.5178],[-99.1141,20.3897,1970.9536],[-99.1206,20.3828,2033.3781],[-99.113,20.3804,1964.5515],[-99.1155,20.3794,1966.7195],[-99.1157,20.3761,1979.3037],[-99.1098,20.3708,2012.3169],[-99.106,20.3709,2053.7871],[-99.106,20.3693,2043.9023],[-99.1031,20.3686,2052.6567],[-99.0961,20.377,2063.0234],[-99.0962,20.3789,2019.1118],[-99.0865,20.3825,1975.3003],[-99.0855,20.3914,1913.9642],[-99.0904,20.3948,1913.6676],[-99.0911,20.3997,1910.1697],[-99.0872,20.4001,1901.7034],[-99.0792,20.4073,1893.5037],[-99.0854,20.4143,1886.9299],[-99.0902,20.4147,1888.8235],[-99.0935,20.417,1888.4727],[-99.0951,20.421,1884.8175],[-99.0915,20.425,1880.7881],[-99.0935,20.4256,1890.9788],[-99.0916,20.434,1872.2275],[-99.0976,20.4383,1880.8611],[-99.1014,20.4463,1880.7607],[-99.1003,20.4483,1886.0198],[-99.0931,20.4493,1905.7522],[-99.0928,20.4519,1909.165],[-99.1252,20.4596,1905.5106],[-99.1319,20.4725,1856.4146],[-99.1299,20.4756,1852.875],[-99.1281,20.4753,1872.8535],[-99.1232,20.4784,1817.3079],[-99.121,20.4834,1818.0603],[-99.122,20.4852,1808.8331],[-99.1164,20.4919,1810.233],[-99.1149,20.4925,1784.5093],[-99.1111,20.4901,1799.2202],[-99.108,20.4921,1790.2891],[-99.1075,20.4968,1784.8137],[-99.1119,20.4992,1773.1604],[-99.113,20.5028,1769.4843],[-99.1082,20.5029,1773.2391],[-99.1056,20.508,1910.0574],[-99.108,20.5115,1889.6719],[-99.101,20.5142,1860.3373],[-99.0986,20.5221,1865.3873],[-99.103,20.5234,1847.953],[-99.104,20.5259,1866.1497],[-99.107,20.5257,1862.3489],[-99.1063,20.527,1862.3489],[-99.1082,20.5306,1860.5771],[-99.1095,20.5303,1840.1844],[-99.1117,20.536,1864.8738],[-99.1133,20.5334,1821.7352],[-99.1186,20.5309,1783.3407],[-99.1249,20.5301,1770.4968],[-99.1293,20.5362,1779.1943],[-99.1365,20.5369,1778.1748],[-99.1366,20.5435,1786.8859],[-99.1378,20.5433,1789.2086],[-99.1393,20.5486,1801.6346],[-99.1421,20.5497,1811.5442],[-99.1498,20.5463,1788.9792],[-99.1497,20.5543,1823.5079],[-99.1527,20.5552,1817.2517],[-99.1539,20.5519,1828.6521],[-99.1583,20.5565,1818.4088],[-99.1516,20.5626,1847.5754],[-99.1448,20.5631,1858.4474],[-99.1481,20.5682,1906.2117],[-99.1476,20.5906,1966.0183],[-99.1486,20.592,1966.0183],[-99.1494,20.5903,1945.7231],[-99.1503,20.5925,1954.9265],[-99.1515,20.5906,1925.1553],[-99.1513,20.5969,1965.2352],[-99.1533,20.6006,1976.8115],[-99.1507,20.6095,2032.8823],[-99.151,20.6168,2057.0767],[-99.1557,20.6178,2083.8665],[-99.1572,20.6247,2197.5176],[-99.1651,20.6261,2065.552],[-99.1585,20.6324,2125.9355],[-99.1642,20.6417,2193.2261],[-99.1699,20.6476,2283.7612],[-99.1702,20.6502,2285.3855],[-99.1796,20.6594,2495.3594],[-99.1775,20.6607,2427.3569],[-99.1784,20.6628,2490.2578],[-99.177,20.6638,2451.7046],[-99.1716,20.6621,2348.2529],[-99.1705,20.6634,2348.2529],[-99.1732,20.6685,2385.384],[-99.1699,20.6749,2564.8452],[-99.1718,20.6994,2032.4894],[-99.1754,20.7031,1917.0121],[-99.1767,20.7088,1799.5752],[-99.2003,20.7032,2460.8027],[-99.2054,20.6966,2696.022],[-99.2174,20.6982,2283.5356],[-99.2197,20.6954,2464.1472],[-99.2197,20.6926,2529.98],[-99.2246,20.6903,2736.665],[-99.2278,20.6977,2350.9302],[-99.2323,20.701,2095.3328],[-99.2373,20.7077,1961.1298],[-99.2431,20.7034,2036.2731],[-99.2509,20.7041,1931.6233],[-99.2631,20.6998,2177.4121],[-99.2752,20.6994,2520.4146],[-99.2778,20.6941,2497.1104],[-99.2756,20.6849,2688.4912],[-99.2869,20.6824,2250.3896],[-99.2806,20.6807,2407.9197],[-99.2732,20.6753,2722.7339],[-99.277,20.6665,2752.1501],[-99.2769,20.6619,2512.4819],[-99.2812,20.6597,2414.9465],[-99.2825,20.6555,2368.5083],[-99.2844,20.6548,2305.4836],[-99.2803,20.6531,2444.6138],[-99.2805,20.6509,2482.9526],[-99.2746,20.6522,2538.2544],[-99.2774,20.6496,2538.4897],[-99.2756,20.6422,2512.3848],[-99.2787,20.6414,2486.8774],[-99.2744,20.6363,2652.2568],[-99.2696,20.6351,2624.834],[-99.2706,20.6297,2563.1597],[-99.2663,20.6231,2360.2625],[-99.267,20.6212,2368.4419],[-99.2628,20.6206,2288.3496],[-99.2572,20.6167,2160.2249],[-99.2553,20.6103,2090.0625],[-99.2566,20.6054,2015.4546],[-99.2616,20.6005,1995.9304],[-99.2619,20.5967,2002.0178],[-99.2661,20.5932,1933.2964],[-99.2681,20.5937,1913.5332],[-99.2718,20.5892,1886.7491],[-99.274,20.5792,1844.6904],[-99.2692,20.5727,1812.5195],[-99.2704,20.5678,1821.1218],[-99.2744,20.5646,1735.9666],[-99.2772,20.5564,1704.4763],[-99.2822,20.5543,1674.5215],[-99.2852,20.5504,1663.0502],[-99.2823,20.548,1641.8041],[-99.2815,20.5402,1669.9513],[-99.277,20.5411,1671.9669],[-99.2724,20.5387,1749.8446],[-99.2662,20.54,1693.8262],[-99.2638,20.5318,1875.5635],[-99.2479,20.5269,1690.4084],[-99.2491,20.5234,1701.7308],[-99.248,20.5205,1693.6071],[-99.2484,20.5176,1694.4642],[-99.2501,20.5192,1705.562],[-99.2552,20.5178,1729.8962],[-99.2563,20.5161,1761.4371],[-99.26,20.5178,1794.4958],[-99.2649,20.5168,1970.0719],[-99.2686,20.5146,1890.4545],[-99.2722,20.5092,1759.3157],[-99.2811,20.512,1865.1677],[-99.2846,20.5093,1999.9919],[-99.2867,20.4989,1898.3926],[-99.282,20.4925,1736.7495],[-99.281,20.4931,1736.7495],[-99.2812,20.4901,1735.1405],[-99.2791,20.4901,1733.1199],[-99.2792,20.4858,1733.9521],[-99.2927,20.4825,1761.6462],[-99.2883,20.4791,1774.085],[-99.2851,20.4736,1788.7117],[-99.2854,20.4591,1795.9846],[-99.2882,20.4521,1832.1257],[-99.2898,20.4524,1842.3777],[-99.2906,20.4507,1848.0483],[-99.2988,20.4471,2019.5341],[-99.2897,20.4065,2076.7854]]]]}}