{"type":"Feature","properties":{"GID_2":"MEX.12.32_2","GID_0":"MEX","country":"México","GID_1":"MEX.12_1","province":"Guerrero","NL_NAME_1":"NA","county":"EduardoNeri","VARNAME_2":"NA","NL_NAME_2":"NA","TYPE_2":"Município","ENGTYPE_2":"Municipality","CC_2":"NA","HASC_2":"NA","name":"Eduardo_Neri.county"},
"geometry":{"type": "MultiPolygon","coordinates": [[[[-99.4668,17.592,1684.6793],[-99.4589,17.6315,1227.3373],[-99.4481,17.6551,1652.4534],[-99.4435,17.7058,1840.9458],[-99.4291,17.7335,1645.9017],[-99.4037,17.7392,1984.8126],[-99.3892,17.7444,1905.5144],[-99.39,17.7487,1874.6885],[-99.3919,17.7491,1873.4481],[-99.3934,17.7606,1818.4812],[-99.3968,17.7657,1685.5215],[-99.4024,17.783,1573.3938],[-99.402,17.8098,1815.2312],[-99.4032,17.8137,1870.3378],[-99.4148,17.8327,1726.4385],[-99.4319,17.8557,1476.2438],[-99.4455,17.8532,1319.9895],[-99.4721,17.8593,1603.1812],[-99.4838,17.8659,1557.3269],[-99.4847,17.871,1620.9937],[-99.5,17.8666,1290.1895],[-99.5148,17.858,1511.0347],[-99.5415,17.8526,1263.1519],[-99.5618,17.8594,1065.3026],[-99.5637,17.8672,693.0901],[-99.5599,17.8764,811.6224],[-99.5602,17.8986,818.9689],[-99.5584,17.9123,470.5],[-99.5475,17.9128,473.5897],[-99.5352,17.9171,474.7088],[-99.5331,17.9255,482.1344],[-99.525,17.9289,476.7175],[-99.5183,17.9349,498.156],[-99.5151,17.946,552.6166],[-99.5172,17.9526,619.1216],[-99.5125,17.9569,647.9763],[-99.4941,17.9597,734.8203],[-99.4854,17.9555,682.5627],[-99.477,17.9588,574.5347],[-99.475,17.9611,563.0331],[-99.4768,17.9607,569.2355],[-99.4779,17.9636,561.4243],[-99.4813,17.9629,584.1644],[-99.4877,17.969,623.0405],[-99.4816,17.9787,707.4577],[-99.4792,17.9804,735.7714],[-99.4743,17.9803,822.1385],[-99.4715,17.982,826.156],[-99.4714,17.9844,844.8043],[-99.4648,17.9857,769.7527],[-99.4585,17.9903,661.7817],[-99.4499,17.9895,585.9636],[-99.4498,17.997,671.9216],[-99.4535,18.0021,736.1129],[-99.4515,18.0022,749.4638],[-99.4517,18.0096,858.7043],[-99.4495,18.0147,921.5427],[-99.4523,18.0181,949.0193],[-99.4533,18.0258,913.3422],[-99.4624,18.0277,852.0532],[-99.4637,18.0331,947.8157],[-99.468,18.0336,944.5388],[-99.4705,18.0358,785.7757],[-99.4757,18.0354,750.3228],[-99.4811,18.0184,833.9827],[-99.488,18.0188,877.9254],[-99.4936,18.0118,847.2486],[-99.4905,18.0094,839.2397],[-99.4891,17.9942,737.8573],[-99.4995,17.993,807.9962],[-99.4953,17.9862,832.1482],[-99.5132,17.9784,975.2327],[-99.5172,17.9784,925.5566],[-99.5247,17.9692,993.3289],[-99.5252,17.9634,932.3147],[-99.5274,17.9616,850.2145],[-99.5351,17.9609,735.9137],[-99.5331,17.9649,738.8955],[-99.5356,17.9647,725.4772],[-99.5347,17.9681,765.1675],[-99.5376,17.9674,728.3916],[-99.5377,17.9693,752.2602],[-99.5398,17.9658,707.8191],[-99.541,17.9677,711.9558],[-99.543,17.9669,631.7806],[-99.5438,17.9683,699.0256],[-99.5605,17.96,757.2882],[-99.5697,17.9678,600.2985],[-99.5738,17.9563,678.3018],[-99.5708,17.9454,684.173],[-99.5762,17.9315,633.413],[-99.5771,17.9227,470.9559],[-99.5803,17.9258,474.0845],[-99.5848,17.9367,468.5],[-99.5941,17.9399,469.7237],[-99.6038,17.9356,468.5225],[-99.6133,17.9381,467.8432],[-99.6186,17.9296,467.5774],[-99.6207,17.9292,477.2193],[-99.6263,17.9463,471.2015],[-99.6359,17.9546,751.5729],[-99.6673,17.9608,478.2984],[-99.6771,17.9576,467.6726],[-99.6845,17.9595,475.2812],[-99.6942,17.9636,494.2347],[-99.7019,17.9715,482.3422],[-99.7163,17.9757,527.0159],[-99.7214,17.9801,471.3106],[-99.7251,17.9812,466.0],[-99.7317,17.9813,480.2361],[-99.7435,17.9764,470.0452],[-99.7499,17.9845,473.173],[-99.7612,17.9938,466.3185],[-99.7654,18.0041,464.625],[-99.7673,18.0054,464.9468],[-99.7759,18.0035,464.0],[-99.784,17.9954,464.0],[-99.7919,17.998,464.0],[-99.8001,17.9984,464.0],[-99.8014,17.9902,464.0],[-99.795,17.982,464.0],[-99.7985,17.9785,464.0],[-99.7941,17.9778,464.0],[-99.7939,17.9741,464.0],[-99.7892,17.9658,492.8433],[-99.7897,17.9571,467.7073],[-99.793,17.9574,480.2824],[-99.7941,17.954,518.434],[-99.7912,17.9522,592.9937],[-99.7943,17.9506,528.8134],[-99.793,17.9488,513.8008],[-99.795,17.9395,522.4056],[-99.7938,17.9352,581.4088],[-99.7946,17.9266,606.4174],[-99.7928,17.925,580.5326],[-99.7948,17.9211,605.1124],[-99.7927,17.9171,629.5723],[-99.7945,17.9163,653.1228],[-99.7936,17.9145,666.7794],[-99.7951,17.9137,658.069],[-99.7955,17.9105,738.6259],[-99.7936,17.9102,688.2747],[-99.7947,17.9085,719.1024],[-99.7934,17.9065,722.295],[-99.7968,17.9017,880.3536],[-99.808,17.8956,1175.4663],[-99.8224,17.8972,769.6971],[-99.8147,17.8923,852.7922],[-99.8088,17.891,856.5994],[-99.8087,17.8844,878.8309],[-99.8106,17.881,911.0895],[-99.8087,17.8806,871.8535],[-99.808,17.876,919.1307],[-99.8112,17.8641,920.0852],[-99.8139,17.8651,917.976],[-99.8151,17.8617,929.136],[-99.8162,17.8546,971.5422],[-99.813,17.8542,962.8102],[-99.8144,17.8523,962.7476],[-99.8163,17.8526,993.5049],[-99.814,17.8468,996.4709],[-99.8164,17.8419,1002.6815],[-99.8128,17.8403,1007.874],[-99.8131,17.8374,1010.7306],[-99.8061,17.8343,1037.3461],[-99.8072,17.8315,1032.2087],[-99.8047,17.8295,1049.8386],[-99.8043,17.8251,1070.7228],[-99.8095,17.8202,1139.9883],[-99.8128,17.8204,1114.627],[-99.8138,17.817,1122.7207],[-99.8127,17.8152,1137.5649],[-99.8146,17.8149,1126.0037],[-99.8144,17.812,1157.981],[-99.8177,17.8122,1171.0608],[-99.8177,17.8061,1214.062],[-99.821,17.802,1203.1245],[-99.8171,17.8,1226.3298],[-99.8143,17.7949,1298.6411],[-99.8022,17.7924,1485.8374],[-99.8004,17.7854,1762.1075],[-99.7962,17.7819,2014.7103],[-99.7944,17.7737,1995.3157],[-99.7926,17.7728,2082.0459],[-99.7925,17.7692,2091.051],[-99.7964,17.7648,2025.2953],[-99.7981,17.7559,2075.5066],[-99.8028,17.7543,2036.6212],[-99.8048,17.7524,2058.8364],[-99.8038,17.7511,2071.2432],[-99.7772,17.7444,1826.7961],[-99.7874,17.7292,1906.239],[-99.7824,17.714,2150.1997],[-99.7745,17.7175,2155.957],[-99.7734,17.716,2120.2043],[-99.7667,17.7143,1893.252],[-99.7649,17.7107,1740.9905],[-99.7554,17.7096,1515.2192],[-99.7445,17.7111,1382.4479],[-99.7362,17.7151,1285.3204],[-99.726,17.7158,1163.5273],[-99.7243,17.7164,1137.8125],[-99.7246,17.7198,1130.2202],[-99.7207,17.7195,1161.2471],[-99.7198,17.7164,1221.9969],[-99.717,17.7181,1115.8784],[-99.7167,17.7163,1126.5692],[-99.7142,17.7193,1119.2567],[-99.7105,17.7191,1172.1421],[-99.7094,17.7167,1136.6272],[-99.7071,17.7202,1109.2832],[-99.7052,17.7204,1075.5828],[-99.705,17.7233,1085.9222],[-99.6998,17.7235,1027.0388],[-99.7005,17.7219,1053.2013],[-99.6985,17.7218,1095.7971],[-99.6973,17.7239,1001.7258],[-99.6984,17.7253,1001.7258],[-99.6944,17.7236,989.9469],[-99.6944,17.722,1041.4486],[-99.6921,17.7232,994.1575],[-99.6875,17.722,982.3099],[-99.6825,17.7252,975.496],[-99.6788,17.7249,980.4666],[-99.6785,17.7267,995.6412],[-99.6755,17.727,988.3818],[-99.6752,17.7252,1018.9155],[-99.6686,17.7277,937.8029],[-99.6673,17.726,929.6688],[-99.6604,17.727,912.4513],[-99.6508,17.7211,1064.2686],[-99.6452,17.7222,1003.2729],[-99.6428,17.7246,920.6786],[-99.6437,17.7197,990.6398],[-99.6523,17.7077,1170.324],[-99.6512,17.7028,1369.2581],[-99.6548,17.6712,1035.0164],[-99.6517,17.6711,1032.5698],[-99.6505,17.673,1021.6365],[-99.6423,17.6729,1036.1395],[-99.6417,17.6759,1101.811],[-99.6395,17.6769,1008.4596],[-99.638,17.6756,1005.2545],[-99.6363,17.6784,1004.7766],[-99.6341,17.6774,1000.1531],[-99.633,17.6802,1025.0361],[-99.6303,17.6772,994.0353],[-99.6284,17.6802,1012.2767],[-99.6237,17.6814,989.6945],[-99.6228,17.6858,973.8568],[-99.6186,17.6884,970.7462],[-99.6166,17.6872,999.372],[-99.6162,17.6768,1450.7584],[-99.6331,17.5988,2652.9868],[-99.625,17.6007,2623.0632],[-99.6184,17.5975,2459.8511],[-99.6042,17.5986,2488.4849],[-99.5963,17.5957,2355.8892],[-99.5931,17.5972,2322.5212],[-99.5966,17.6015,2331.7209],[-99.5956,17.6036,2298.5051],[-99.5927,17.6043,2202.5171],[-99.5881,17.6016,2184.3257],[-99.577,17.6043,1753.7288],[-99.5727,17.5992,1959.3279],[-99.5686,17.5979,1876.1614],[-99.5684,17.6012,1758.063],[-99.5763,17.6044,1753.7288],[-99.5521,17.6017,1353.4973],[-99.5103,17.6101,1388.1809],[-99.5016,17.6074,1328.1362],[-99.4975,17.6006,1380.9298],[-99.4668,17.592,1684.6793]]]]}}