{"type": "Feature","bbox": [-97.9977,20.087,-97.8284,20.24],"geometry": {"type": "MultiPolygon","coordinates": [[[[-97.8799,20.0898,841.5145],[-97.8789,20.0913,879.923],[-97.8814,20.0958,948.7316],[-97.8851,20.0957,1021.2967],[-97.8905,20.0997,1166.5903],[-97.8927,20.1078,1301.3899],[-97.8904,20.1139,1414.9413],[-97.8909,20.1174,1464.0643],[-97.8867,20.121,1668.8009],[-97.8893,20.1259,1734.791],[-97.8836,20.1241,1477.8164],[-97.8772,20.128,1228.7324],[-97.8797,20.1311,1351.6726],[-97.8773,20.1321,1309.1216],[-97.8763,20.1308,1267.8629],[-97.8712,20.1305,1134.8431],[-97.8656,20.1332,944.9746],[-97.8609,20.132,841.3999],[-97.8594,20.1332,784.3504],[-97.858,20.1371,805.8881],[-97.86,20.1387,803.7288],[-97.859,20.148,1274.199],[-97.8448,20.1528,1331.9216],[-97.8454,20.1554,1320.5646],[-97.8432,20.159,1177.048],[-97.8335,20.1628,1118.366],[-97.8318,20.1652,997.7809],[-97.8337,20.1692,902.8973],[-97.8305,20.1705,803.8001],[-97.8284,20.1745,757.241],[-97.8312,20.1758,765.6282],[-97.8302,20.1795,773.106],[-97.8338,20.184,797.6038],[-97.8337,20.187,859.766],[-97.8483,20.1919,726.2788],[-97.8625,20.1878,1299.8986],[-97.8624,20.1918,1278.6265],[-97.8598,20.1932,1223.4246],[-97.8586,20.1984,1254.8679],[-97.8624,20.1997,1154.5405],[-97.8669,20.2046,715.2392],[-97.8666,20.2115,554.3062],[-97.8692,20.2161,543.3741],[-97.8664,20.22,496.7213],[-97.8685,20.2244,492.7915],[-97.8662,20.2282,479.6137],[-97.8672,20.2312,458.063],[-97.8652,20.2334,430.7875],[-97.8776,20.24,734.2533],[-97.8853,20.2376,593.5337],[-97.8897,20.2341,704.7944],[-97.8922,20.2348,492.7149],[-97.8933,20.2314,518.8812],[-97.8978,20.2317,500.4102],[-97.9018,20.2292,484.4144],[-97.9013,20.2227,492.0823],[-97.9029,20.22,510.3173],[-97.9016,20.2123,515.7188],[-97.9099,20.2054,559.3922],[-97.9203,20.2054,562.0378],[-97.9223,20.2067,555.7112],[-97.925299999999993,20.2012,826.2103],[-97.9359,20.2136,646.9073],[-97.9463,20.2103,640.2829],[-97.9547,20.2147,709.435],[-97.9589,20.2108,1131.899],[-97.9646,20.2111,1216.6189],[-97.9662,20.2074,1266.4949],[-97.9646,20.2061,1232.4194],[-97.9683,20.2023,1266.9769],[-97.9677,20.2007,1256.8766],[-97.9714,20.1991,1263.3059],[-97.966,20.1938,1259.7371],[-97.9691,20.1927,1241.4163],[-97.9685,20.1906,1255.0159],[-97.9711,20.1846,1257.7878],[-97.9739,20.1841,1270.985],[-97.9803,20.179,1274.2793],[-97.9825,20.176,1279.3168],[-97.9807,20.1734,1278.1136],[-97.982,20.1725,1278.1136],[-97.9875,20.1711,1317.3606],[-97.9891,20.1722,1314.3241],[-97.9937,20.1716,1309.5],[-97.9964,20.1738,1339.1949],[-97.9955,20.1719,1319.2704],[-97.9968,20.1718,1319.2704],[-97.9945,20.1709,1309.5],[-97.9977,20.1702,1319.5752],[-97.9972,20.1646,1328.0289],[-97.9948,20.1652,1311.8445],[-97.9943,20.1618,1337.8225],[-97.9889,20.163,1310.6697],[-97.9885,20.1607,1319.6323],[-97.9871,20.1623,1309.5],[-97.986,20.161,1319.4017],[-97.986,20.1631,1311.2072],[-97.9844,20.1632,1309.5],[-97.9841,20.1607,1318.012],[-97.9832,20.1631,1309.5],[-97.9823,20.1525,1439.2128],[-97.9853,20.1446,1411.0842],[-97.9828,20.1429,1464.7644],[-97.9807,20.1451,1528.4132],[-97.9765,20.1355,1558.2139],[-97.9744,20.1339,1651.8342],[-97.9666,20.1356,1605.7738],[-97.9639,20.1323,1534.6562],[-97.9571,20.1331,1559.1127],[-97.955,20.1311,1526.9629],[-97.9458,20.1346,1277.7025],[-97.9434,20.1394,1202.0216],[-97.9422,20.133,1351.9349],[-97.9394,20.1293,1551.5476],[-97.9361,20.1345,1397.2583],[-97.93,20.1361,1192.0957],[-97.9283,20.126,1510.467],[-97.9306,20.1166,1199.5522],[-97.9298,20.1106,1033.4725],[-97.9218,20.11,990.8989],[-97.921,20.107,984.577],[-97.9165,20.1035,960.4731],[-97.9168,20.1008,992.6848],[-97.9125,20.0989,1006.787],[-97.9113,20.0963,946.5457],[-97.9064,20.0972,979.0217],[-97.9046,20.0954,981.7977],[-97.9016,20.096,908.7431],[-97.8984,20.0926,899.2276],[-97.8928,20.0919,842.2211],[-97.8895,20.0875,836.8777],[-97.887,20.0892,852.7348],[-97.8853,20.087,890.3893],[-97.8799,20.0898,841.5145]]]]}
,"properties": {"GID_2": "MEX.21.183_2","GID_0": "MEX","country": "México","GID_1": "MEX.21_1","province": "Puebla","NL_NAME_1": "NA","county": "Tlaola","VARNAME_2": "NA","NL_NAME_2": "NA","TYPE_2": "Município","ENGTYPE_2": "Municipality","CC_2": "NA","HASC_2": "NA","name": "Tlaola.county","area_km2": 143.376,"hist_schema_id": "Elevation0-9000","hist_area_km2": {"450": 0.1194,"475": 0.1592,"500": 0.4178,"525": 0.6168,"550": 0.6168,"575": 0.776,"600": 0.9153,"625": 0.9352,"650": 0.9352,"675": 1.3929,"700": 1.5322,"725": 1.9302,"750": 2.0297,"775": 2.189,"800": 2.2884,"825": 2.7063,"850": 2.7462,"875": 2.8258,"900": 3.1045,"925": 3.4628,"950": 3.7016,"975": 3.1246,"1000": 3.7812,"1025": 3.9008,"1050": 4.856,"1075": 4.5973,"1100": 4.6172,"1125": 4.5973,"1150": 4.6971,"1175": 5.8116,"1200": 5.8317,"1225": 5.5529,"1250": 5.6923,"1275": 7.6028,"1300": 9.6132,"1325": 6.7274,"1350": 5.1951,"1375": 4.5382999999999996,"1400": 3.742,"1425": 2.6275,"1450": 2.0303,"1475": 1.9706,"1500": 1.8711,"1525": 1.2939,"1550": 1.1147,"1575": 0.7763,"1600": 0.8958,"1625": 0.4379,"1650": 0.219,"1675": 0.1194,"1700": 0.0597,"1725": 0.0398,"1750": 0.0398}}}