{"type": "Feature","bbox": [-109.7955,30.2234,-109.1203,30.7373],"geometry": {"type": "MultiPolygon","coordinates": [[[[-109.3274,30.7088,847.3188],[-109.3502,30.7064,827.8094],[-109.3802,30.7135,1210.9358],[-109.407,30.7373,1280.7747],[-109.4205,30.7333,995.3433],[-109.424,30.7268,1029.1477],[-109.4336,30.69,1383.4236],[-109.4352,30.6778,1536.7874],[-109.4417,30.6781,1465.2861],[-109.4457,30.6618,998.4701],[-109.5191,30.6704,1755.3701],[-109.5197,30.6655,1645.3257],[-109.5272,30.6581,1417.9875],[-109.5457,30.6263,1366.7292],[-109.5549,30.6201,1386.7961],[-109.5608,30.5933,1332.4535],[-109.5685,30.5942,1372.2839],[-109.6068,30.5356,1452.8446],[-109.6401,30.5231,1380.9565],[-109.6377,30.5378,1395.714],[-109.6445,30.5379,1347.4602],[-109.6446,30.5396,1330.468],[-109.7452,30.5459,2270.2358],[-109.7563,30.5401,2067.293],[-109.7459,30.5,1707.873],[-109.737,30.4501,1540.6702],[-109.736,30.433,1692.1799],[-109.7955,30.424,1160.4919],[-109.7951,30.3155,1055.4348],[-109.7297,30.3201,1434.3977],[-109.728,30.2659,999.3127],[-109.6982,30.261,934.4799],[-109.691,30.2648,958.7776],[-109.6809,30.2739,1096.0848],[-109.671,30.2868,1160.1882],[-109.6683,30.3014,1066.7791],[-109.6712,30.3122,1054.1406],[-109.6566,30.3143,1082.1089],[-109.6545,30.3105,1096.0565],[-109.6585,30.3105,1071.4504],[-109.6458,30.2861,1150.6748],[-109.6325,30.2888,1228.9637],[-109.6331,30.2549,1391.3068],[-109.6379,30.2235,1099.0221],[-109.5333,30.2234,1554.6567],[-109.5331,30.3056,1483.8219],[-109.5758,30.3032,1544.8887],[-109.5775,30.3195,1502.5615],[-109.5315,30.3219,1284.8086],[-109.5326,30.3462,1193.5084],[-109.4901,30.3472,994.9641],[-109.4705,30.3591,1130.6519],[-109.4648,30.4199,1089.5135],[-109.4106,30.479,1058.6835],[-109.3841,30.4531,792.859],[-109.3859,30.4531,785.2114],[-109.3828,30.4402,841.1794],[-109.3792,30.437,818.9094],[-109.3753,30.4412,885.4637],[-109.3672,30.4299,841.8884],[-109.3721,30.4079,963.0874],[-109.3376,30.4052,875.4625],[-109.2853,30.4293,1347.7292],[-109.2675,30.4337,1367.548],[-109.2214,30.4349,1320.6638],[-109.2218,30.4209,1129.1616],[-109.2093,30.4163,1141.0024],[-109.173,30.395,1275.2546],[-109.1706,30.4413,1177.3251],[-109.1843,30.4368,1080.4961],[-109.1985,30.4554,1212.8776],[-109.2018,30.4796,1193.0294],[-109.1994,30.4941,1228.7311],[-109.181,30.4964,1262.3838],[-109.1678,30.5079,1823.5803],[-109.1728,30.5192,1882.5189],[-109.1837,30.5299,1548.6511],[-109.1225,30.5292,2062.9214],[-109.1203,30.5924,1356.2092],[-109.2166,30.5931,1997.0647],[-109.238,30.6179,1730.3196],[-109.2626,30.62,1278.1553],[-109.2495,30.6355,1514.1606],[-109.2505,30.6384,1525.5703],[-109.2639,30.6437,1071.8979],[-109.2657,30.6555,1331.9502],[-109.2648,30.663,1258.9565],[-109.2699,30.6703,1228.7292],[-109.2817,30.6783,1278.5784],[-109.2689,30.6958,1198.6571],[-109.2992,30.7111,1242.8781],[-109.3274,30.7088,847.3188]]]]}
,"properties": {"GID_2": "MEX.26.43_2","GID_0": "MEX","country": "México","GID_1": "MEX.26_1","province": "Sonora","NL_NAME_1": "NA","county": "NacozarideGarcía","VARNAME_2": "NA","NL_NAME_2": "NA","TYPE_2": "Município","ENGTYPE_2": "Municipality","CC_2": "NA","HASC_2": "NA","name": "Nacozaride_García.county","area_km2": 1738.513,"hist_schema_id": "Elevation0-9000","hist_area_km2": {"700": 0.055,"725": 0.146,"750": 0.219,"775": 54.746,"800": 32.599,"825": 34.985,"850": 37.521,"875": 35.79,"900": 34.642,"925": 32.072,"950": 29.975,"975": 28.738,"1000": 30.23,"1025": 34.349,"1050": 37.974,"1075": 40.683,"1100": 42.256,"1125": 44.489,"1150": 44.962,"1175": 48.965,"1200": 49.329,"1225": 51.044,"1250": 53.127,"1275": 51.302,"1300": 55.818,"1325": 57.941,"1350": 62.598,"1375": 64.004,"1400": 60.749,"1425": 61.002,"1450": 61.417,"1475": 59.278,"1500": 51.549,"1525": 44.789,"1550": 40.02,"1575": 36.093,"1600": 29.276,"1625": 25.385,"1650": 21.802,"1675": 18.514,"1700": 16.65,"1725": 14.876,"1750": 14.127,"1775": 11.952,"1800": 8.808,"1825": 7.491,"1850": 6.359,"1875": 5.298,"1900": 4.914,"1925": 4.694,"1950": 4.201,"1975": 4.182,"2000": 3.251,"2025": 3.305,"2050": 3.159,"2075": 3.323,"2100": 2.666,"2125": 2.447,"2150": 2.392,"2175": 2.063,"2200": 1.954,"2225": 1.808,"2250": 1.68,"2275": 1.497,"2300": 1.607,"2325": 1.242,"2350": 1.022,"2375": 0.639,"2400": 0.292,"2425": 0.164,"2450": 0.018}}}