{"type":"Feature","properties":{"GID_2":"MEX.28.5_2","GID_0":"MEX","country":"México","GID_1":"MEX.28_1","province":"Tamaulipas","NL_NAME_1":"NA","county":"Burgos","VARNAME_2":"NA","NL_NAME_2":"NA","TYPE_2":"Município","ENGTYPE_2":"Municipality","CC_2":"NA","HASC_2":"NA","name":"Burgos.county"},
"geometry":{"type": "MultiPolygon","coordinates": [[[[-99.036,25.1203,134.94],[-99.04,25.1197,139.0641],[-99.042,25.123,139.2724],[-99.0479,25.1203,139.5591],[-99.0525,25.1271,144.9072],[-99.0542,25.1238,139.6497],[-99.0593,25.1213,144.5961],[-99.06,25.1177,140.991],[-99.0677,25.1161,144.6261],[-99.0683,25.1144,141.7487],[-99.0662,25.1138,141.5826],[-99.0673,25.1107,142.5239],[-99.073,25.1082,144.1045],[-99.07,25.1048,145.4424],[-99.0702,25.1027,146.6548],[-99.0782,25.1007,148.8804],[-99.0771,25.0985,147.2019],[-99.0714,25.0967,147.3105],[-99.0731,25.0934,149.9584],[-99.0788,25.0921,149.2526],[-99.075,25.0885,150.4702],[-99.0756,25.0853,151.0181],[-99.0803,25.0834,150.2307],[-99.0787,25.0792,152.6499],[-99.0813,25.0777,154.5026],[-99.0822,25.0736,156.9506],[-99.0855,25.0772,153.1349],[-99.089,25.0757,153.7838],[-99.0899,25.0783,154.1239],[-99.0975,25.0782,155.0711],[-99.0942,25.0745,154.697],[-99.0977,25.0737,157.2032],[-99.1015,25.0694,156.2208],[-99.0958,25.067,159.2731],[-99.0955,25.065,159.0621],[-99.0976,25.0631,160.5216],[-99.1,25.0648,161.0397],[-99.1014,25.062,167.9628],[-99.104,25.0619,158.728],[-99.1063,25.0595,161.3944],[-99.1116,25.0591,159.9848],[-99.1138,25.0561,163.1613],[-99.1202,25.0573,166.9316],[-99.1249,25.0543,165.2138],[-99.1274,25.0559,165.7112],[-99.1309,25.0519,167.0626],[-99.1339,25.0535,165.2662],[-99.1335,25.0516,164.8094],[-99.1351,25.0504,167.4464],[-99.1426,25.0542,176.3422],[-99.1455,25.0527,167.2925],[-99.149,25.0551,165.9813],[-99.1577,25.0565,170.0776],[-99.1609,25.0548,168.899],[-99.16,25.051,173.4229],[-99.1621,25.0472,170.2546],[-99.167,25.0465,174.2868],[-99.1629,25.0436,173.1947],[-99.1636,25.0349,173.1258],[-99.1565,25.0278,177.1938],[-99.1599,25.0258,176.1528],[-99.1649,25.0295,176.5872],[-99.1711,25.0248,179.2833],[-99.1717,25.0197,181.6515],[-99.1783,25.0177,182.1759],[-99.1809,25.0115,182.6693],[-99.1589,24.916,239.7619],[-99.2049,24.8642,371.204],[-99.16,24.8522,476.6432],[-99.1582,24.8453,461.4119],[-99.1136,24.8404,487.2852],[-99.081,24.8516,477.0938],[-99.0719,24.849,511.6606],[-99.0762,24.8591,390.0359],[-99.0719,24.8592,363.3183],[-99.0295,24.8538,371.6862],[-99.0241,24.8519,374.4613],[-99.0208,24.8418,428.9924],[-98.9991,24.8465,390.73],[-99.0001,24.8796,336.9019],[-98.9553,24.8534,419.9551],[-98.9549,24.7771,574.3011],[-98.9247,24.7696,614.3093],[-98.9247,24.7804,553.7017],[-98.9019,24.7747,484.2927],[-98.8385,24.7681,501.8057],[-98.8425,24.7405,683.0407],[-98.8027,24.7434,707.8328],[-98.7873,24.7475,697.6623],[-98.7678,24.7451,485.6396],[-98.7578,24.7397,636.7124],[-98.7565,24.7373,685.0057],[-98.752,24.7358,650.2111],[-98.7496,24.737,688.7966],[-98.7443,24.7338,655.28],[-98.7074,24.7244,509.6142],[-98.7114,24.7318,624.5494],[-98.7028,24.7435,596.4745],[-98.685,24.7618,507.203],[-98.6261,24.8066,276.8669],[-98.6049,24.811,265.5961],[-98.5952,24.8174,251.4868],[-98.5946,24.8196,250.5629],[-98.5922,24.8206,250.5614],[-98.5966,24.8281,254.1525],[-98.5952,24.8394,249.8336],[-98.5784,24.8436,230.1646],[-98.5739,24.8357,237.4434],[-98.5616,24.8416,230.2561],[-98.5672,24.8516,231.1299],[-98.5609,24.8559,218.2884],[-98.5329,24.8628,216.6422],[-98.5295,24.8495,217.9517],[-98.483,24.8429,144.4231],[-98.4821,24.8599,133.7594],[-98.4837,24.8632,131.9078],[-98.4857,24.8645,132.4879],[-98.4904,24.8588,143.1256],[-98.4929,24.8589,140.0462],[-98.4931,24.8606,149.5213],[-98.489,24.8657,141.7695],[-98.4865,24.8658,132.2877],[-98.4853,24.8719,138.5986],[-98.4815,24.8759,125.1921],[-98.4773,24.8754,124.7113],[-98.4746,24.8783,122.1943],[-98.4689,24.8794,119.428],[-98.4668,24.8767,124.7276],[-98.464,24.8761,121.429],[-98.4621,24.8827,116.8512],[-98.4563,24.8789,113.3645],[-98.4522,24.8832,109.7672],[-98.4485,24.8841,107.3258],[-98.4464,24.8813,113.51],[-98.4405,24.8862,108.2816],[-98.4405,24.8892,101.6163],[-98.4385,24.8913,100.9801],[-98.44,24.8943,101.8004],[-98.4385,24.8957,99.3134],[-98.4331,24.8944,102.801],[-98.4269,24.8983,98.488],[-98.4304,24.9045,97.7961],[-98.4188,24.9154,87.0311],[-98.4133,24.914,113.7366],[-98.413,24.9189,117.4174],[-98.4198,24.9241,82.8567],[-98.4203,24.9284,80.3036],[-98.4273,24.9381,77.4313],[-98.429,24.9365,77.8696],[-98.428,24.9322,82.342],[-98.4292,24.9281,85.7116],[-98.4315,24.9308,83.722],[-98.4379,24.932,84.2848],[-98.4438,24.93,89.6729],[-98.4468,24.927,97.1156],[-98.4496,24.927,94.3616],[-98.4509,24.9338,98.851],[-98.4539,24.9349,95.9758],[-98.4555,24.9315,92.366],[-98.4621,24.9326,97.1425],[-98.4707,24.9299,100.906],[-98.4715,24.9258,101.1147],[-98.4692,24.9232,101.3628],[-98.4704,24.9207,103.1706],[-98.4723,24.921,104.3034],[-98.4776,24.9278,112.7634],[-98.4836,24.9265,110.4044],[-98.4874,24.9277,119.175],[-98.4964,24.9234,116.1147],[-98.4959,24.9187,120.841],[-98.4997,24.9172,119.324],[-98.5127,24.9191,130.1277],[-98.516,24.9182,126.726],[-98.52,24.9259,131.0512],[-98.5318,24.929,137.0037],[-98.535,24.9348,141.9719],[-98.5401,24.9355,142.7992],[-98.5415,24.9316,142.1058],[-98.5391,24.9263,144.6257],[-98.5441,24.9247,147.7201],[-98.5475,24.9217,150.757],[-98.5478,24.9197,151.0892],[-98.5443,24.9164,150.281],[-98.5451,24.9148,160.2611],[-98.5528,24.9157,156.642],[-98.5574,24.9128,158.5868],[-98.5505,24.9576,173.1587],[-98.5603,24.9593,141.8746],[-98.5616,24.9513,138.997],[-98.6067,24.9591,109.9702],[-98.6045,24.973,102.8515],[-98.597,24.9718,103.6865],[-98.5907,25.0318,87.0336],[-98.6725,25.0439,87.6515],[-98.675299999999993,25.0469,94.1385],[-98.6814,25.0467,91.8721],[-98.6824,25.0389,92.2154],[-98.6846,25.0366,90.8435],[-98.6884,25.0373,92.3971],[-98.6881,25.0358,91.865],[-98.6925,25.0305,94.7298],[-98.7013,25.0324,96.9423],[-98.7027,25.0297,94.4481],[-98.7005,25.0258,96.0667],[-98.7014,25.0225,96.2645],[-98.7064,25.0193,96.3932],[-98.711,25.0203,98.5629],[-98.7179,25.0146,99.417],[-98.7613,25.0274,129.1919],[-98.7531,25.057,117.0937],[-98.7406,25.0504,120.9991],[-98.7387,25.0795,103.206],[-98.7923,25.0876,97.2415],[-98.7907,25.0973,96.3792],[-98.8007,25.0902,98.5532],[-98.8142,25.0861,100.1199],[-98.8177,25.0811,100.1693],[-98.8231,25.0812,101.6816],[-98.8231,25.0986,104.974],[-98.8329,25.0962,136.2475],[-98.833,25.0885,110.0091],[-98.8408,25.0855,110.589],[-98.8433,25.0886,112.798],[-98.843,25.0989,142.5695],[-98.8634,25.0996,112.2214],[-98.8638,25.1271,140.6109],[-98.9238,25.0819,113.0757],[-98.925299999999993,25.0823,118.129],[-98.929,25.0773,113.7969],[-98.9337,25.0761,114.7284],[-98.9323,25.0788,115.1307],[-98.9343,25.0802,115.9073],[-98.9342,25.0728,114.8127],[-98.9377,25.0729,115.2496],[-98.9412,25.0709,115.8346],[-98.946,25.0765,117.0753],[-98.9475,25.0739,116.1595],[-98.9552,25.0761,118.1168],[-98.9566,25.0733,118.257],[-98.9588,25.0761,118.5666],[-98.9611,25.0732,119.3511],[-98.9683,25.0704,125.7934],[-98.9681,25.0733,118.3469],[-98.9716,25.0738,122.9691],[-98.9699,25.0719,119.7215],[-98.9768,25.0688,121.4595],[-98.9777,25.0718,120.9805],[-98.982,25.0707,121.546],[-98.982,25.073,120.0863],[-98.9842,25.0746,123.9001],[-98.9861,25.0733,121.2499],[-98.9856,25.0702,122.8302],[-98.9894,25.0674,122.5218],[-98.9911,25.0702,122.5951],[-98.9977,25.0713,126.9493],[-99.0002,25.0706,128.579],[-98.9998,25.0674,122.1982],[-99.0049,25.0671,124.8535],[-99.0186,25.0698,127.6277],[-99.0219,25.0719,131.5479],[-99.0222,25.0736,130.9151],[-99.0175,25.0756,131.853],[-99.0198,25.079,130.0766],[-99.0142,25.0803,129.2213],[-99.0167,25.0827,127.9458],[-99.0155,25.0859,130.744],[-99.0204,25.0883,132.0997],[-99.022,25.0939,130.575],[-99.026,25.0926,130.3134],[-99.0295,25.0964,133.9128],[-99.0302,25.101,132.1221],[-99.0337,25.1071,133.7855],[-99.0292,25.1078,132.7608],[-99.0287,25.1101,133.8318],[-99.0335,25.1133,133.7861],[-99.0343,25.1193,134.94],[-99.036,25.1203,134.94]]]]}}