{"type": "Feature","bbox": [-99.6229,16.6343,-99.1946,17.0694],"geometry": {"type": "MultiPolygon","coordinates": [[[[-99.607,16.6843,0.0],[-99.606,16.6842,0.0],[-99.6044,16.6851,0.0],[-99.6066,16.6846,0.0],[-99.607,16.6843,0.0]]],
[[[-99.6087,16.6852,0.5583],[-99.6089,16.6841,0.5583],[-99.6075,16.6846,0.0],[-99.6077,16.6856,0.0],[-99.6087,16.6852,0.5583]]],
[[[-99.6069,16.6974,0.25],[-99.608,16.6924,1.3638],[-99.6063,16.6898,1.7098],[-99.6058,16.693,0.3185],[-99.6069,16.6974,0.25]]],
[[[-99.6057,16.7067,2.6485],[-99.6024,16.7106,4.1498],[-99.6045,16.715,1.2662],[-99.6057,16.7133,1.4998],[-99.6057,16.7067,2.6485]]],
[[[-99.6055,16.7032,6.9509],[-99.6039,16.6852,0.8533],[-99.6027,16.6839,0.8533],[-99.5626,16.6894,1.5979],[-99.5126,16.6869,0.0],[-99.4566,16.6818,0.0],[-99.3673,16.6657,2.4487],[-99.2862,16.648,0.0],[-99.2319,16.6343,0.8927],[-99.2316,16.6357,2.9133],[-99.226,16.6364,4.5649],[-99.2227,16.6397,7.3124],[-99.2196,16.6365,6.9726],[-99.2175,16.6366,6.5602],[-99.2158,16.6396,5.9834],[-99.2184,16.644,6.6146],[-99.2129,16.645,7.6431],[-99.212,16.6516,9.9832],[-99.2083,16.6546,10.6314],[-99.2084,16.6574,8.5754],[-99.2115,16.6602,7.3319],[-99.208,16.6632,7.483],[-99.2079,16.6747,12.3367],[-99.2032,16.6787,11.9442],[-99.2055,16.6839,14.0082],[-99.2042,16.6913,13.5693],[-99.2086,16.6975,16.3445],[-99.2067,16.7034,16.0536],[-99.2007,16.7058,16.3957],[-99.2054,16.7085,17.8313],[-99.2058,16.712,17.3071],[-99.1996,16.7172,17.5107],[-99.1987,16.7197,21.1317],[-99.2034,16.7368,22.1973],[-99.2024,16.7399,20.3693],[-99.1968,16.745,23.0726],[-99.1994,16.7513,20.7427],[-99.1988,16.758,21.6439],[-99.2048,16.7708,21.268],[-99.2016,16.776,23.3139],[-99.1946,16.7808,30.5346],[-99.2003,16.8008,110.3035],[-99.2209,16.7972,149.9859],[-99.219,16.8019,102.6386],[-99.22,16.8029,114.7739],[-99.211,16.8128,146.2034],[-99.2247,16.8197,169.4854],[-99.2306,16.8197,186.3465],[-99.2335,16.824,192.7698],[-99.243,16.8225,176.8309],[-99.2536,16.8301,210.6067],[-99.2647,16.8672,386.9409],[-99.288,16.8834,342.1465],[-99.2915,16.8778,374.518],[-99.2984,16.8757,377.871],[-99.3069,16.8634,679.0839],[-99.3103,16.8614,639.0592],[-99.3098,16.8654,536.6153],[-99.3294,16.9009,865.8174],[-99.3302,16.8917,556.6034],[-99.3391,16.9031,960.9861],[-99.3475,16.905,1205.5881],[-99.359,16.9116,1073.4673],[-99.3647,16.9112,960.34],[-99.3762,16.9188,859.0509],[-99.3832,16.9205,575.1162],[-99.3803,16.8946,490.395],[-99.4059,16.899,402.402],[-99.413,16.9114,443.7672],[-99.4233,16.9168,326.9339],[-99.4175,16.9345,342.8871],[-99.4188,16.9413,356.6637],[-99.414,16.9441,352.2543],[-99.3872,16.9396,513.532],[-99.3841,16.9493,557.333],[-99.3763,16.9616,850.5646],[-99.4012,16.9687,854.3065],[-99.4148,16.9848,491.648],[-99.4065,17.0056,649.3266],[-99.4247,17.0034,676.9109],[-99.4444,17.0172,445.6059],[-99.431,17.0524,632.5541],[-99.4552,17.0585,952.7177],[-99.4553,17.0655,1186.0012],[-99.4615,17.0694,806.504],[-99.4712,17.0593,454.6418],[-99.4709,17.0567,533.3382],[-99.4984,17.0315,197.9576],[-99.5176,17.0317,179.4966],[-99.5162,17.0281,171.4162],[-99.5189,17.0276,164.1858],[-99.5205,17.0252,175.4916],[-99.531,17.0243,148.2432],[-99.5375,17.0216,114.4738],[-99.5431,17.0216,111.7255],[-99.5476,17.0257,98.3933],[-99.5541,17.0217,84.0579],[-99.5574,17.0248,60.8425],[-99.5592,17.0223,71.0562],[-99.5664,17.0203,71.4116],[-99.5757,17.0222,69.4859],[-99.5809,17.0182,67.6803],[-99.5907,17.0234,55.7946],[-99.6072,17.0221,64.9834],[-99.6104,17.0193,77.8429],[-99.6099,17.0083,49.864],[-99.6125,17.0012,66.3328],[-99.6092,16.9925,46.0776],[-99.6111,16.9886,54.7089],[-99.6041,16.9863,90.646],[-99.5936,16.9762,163.0393],[-99.5894,16.9743,176.8538],[-99.5884,16.9712,213.0939],[-99.5827,16.9679,299.9469],[-99.5784,16.9705,367.163],[-99.559,16.9685,456.7545],[-99.5319,16.9757,445.5209],[-99.5159,16.9782,388.7659],[-99.5172,16.9829,413.7147],[-99.513,16.989,313.698],[-99.5023,16.9955,218.1378],[-99.4903,16.9938,214.649],[-99.4896,16.9876,259.9705],[-99.4803,16.9799,380.6625],[-99.4757,16.9825,465.5322],[-99.4736,16.972,498.1564],[-99.4769,16.9632,420.9726],[-99.4876,16.9544,319.0326],[-99.4934,16.9582,302.4431],[-99.4976,16.9348,267.023],[-99.4998,16.935,271.3068],[-99.5026,16.9303,280.6719],[-99.5233,16.9306,264.6943],[-99.5248,16.9278,256.9772],[-99.5241,16.9256,256.1681],[-99.527,16.9252,251.1656],[-99.5269,16.923,240.03],[-99.5337,16.9247,298.7739],[-99.5195,16.894,167.0025],[-99.5168,16.8693,182.6261],[-99.5198,16.8543,125.6548],[-99.5295,16.8358,140.8553],[-99.541,16.8242,160.0497],[-99.5426,16.8205,150.3254],[-99.5402,16.8197,162.4886],[-99.5447,16.8069,115.0159],[-99.5432,16.8043,111.5763],[-99.5474,16.8067,118.4847],[-99.5534,16.8139,118.2135],[-99.5567,16.815,121.113],[-99.5576,16.8108,98.0136],[-99.5612,16.8105,109.4706],[-99.5611,16.8066,84.2643],[-99.5633,16.8039,74.2269],[-99.5658,16.8045,79.2519],[-99.5674,16.8013,69.6988],[-99.5694,16.8012,67.7926],[-99.5693,16.7984,68.7781],[-99.5737,16.7985,70.7962],[-99.5751,16.8028,53.5931],[-99.5803,16.8017,53.2979],[-99.5811,16.7998,59.0451],[-99.5844,16.7991,56.7511],[-99.5883,16.7951,51.782],[-99.5893,16.7963,43.8285],[-99.5915,16.7925,23.9942],[-99.5945,16.7941,9.1957],[-99.6013,16.7849,11.064],[-99.5935,16.7795,86.1972],[-99.5945,16.7747,26.8987],[-99.5993,16.7727,51.9367],[-99.6027,16.775,11.8922],[-99.6029,16.7708,13.2287],[-99.6076,16.7611,5.125],[-99.6142,16.7532,19.3834],[-99.6229,16.7477,3.375],[-99.6211,16.7387,6.0418],[-99.6218,16.7311,4.3124],[-99.6051,16.721,9.508],[-99.6046,16.7174,10.4757],[-99.6008,16.7117,3.18],[-99.6055,16.7032,6.9509]]]]}
,"properties": {"GID_2": "MEX.12.60_2","GID_0": "MEX","country": "México","GID_1": "MEX.12_1","province": "Guerrero","NL_NAME_1": "NA","county": "SanMarcos","VARNAME_2": "NA","NL_NAME_2": "NA","TYPE_2": "Município","ENGTYPE_2": "Municipality","CC_2": "NA","HASC_2": "NA","name": "San_Marcos.county","area_km2": 1159.4875,"hist_schema_id": "Elevation0-9000","hist_area_km2": {"0": 175.7384,"25": 118.461,"50": 108.2549,"75": 124.5848,"100": 97.7319,"125": 60.9672,"150": 47.3258,"175": 41.3539,"200": 36.5399,"225": 37.7529,"250": 39.4146,"275": 34.8907,"300": 31.8474,"325": 34.1999,"350": 31.3591,"375": 28.2554,"400": 24.5632,"425": 16.8352,"450": 10.8927,"475": 9.1484,"500": 8.2963,"525": 7.0791,"550": 5.6589,"575": 5.0709,"600": 3.6309,"625": 3.4888,"650": 2.7585,"675": 1.8862,"700": 2.008,"725": 1.2779,"750": 1.1155,"775": 0.8316,"800": 0.9532,"825": 0.9126,"850": 0.4868,"875": 0.5477,"900": 0.3042,"925": 0.4665,"950": 0.4868,"975": 0.4462,"1000": 0.1623,"1025": 0.2434,"1050": 0.1623,"1075": 0.2028,"1100": 0.3043,"1125": 0.2231,"1150": 0.2434,"1175": 0.0203,"1200": 0.0811,"1225": 0.0203}}}