{"type":"Feature","properties":{"GID_2":"MEX.17.7_2","GID_0":"MEX","country":"México","GID_1":"MEX.17_1","province":"Morelos","NL_NAME_1":"NA","county":"Cuernavaca","VARNAME_2":"NA","NL_NAME_2":"NA","TYPE_2":"Município","ENGTYPE_2":"Municipality","CC_2":"NA","HASC_2":"NA","name":"Cuernavaca.county"},
"geometry":{"type": "MultiPolygon","coordinates": [[[[-99.342,18.9225,1687.0061],[-99.3399,18.9221,1757.2537],[-99.341,18.9116,1648.7258],[-99.3382,18.8957,1623.0754],[-99.3303,18.8754,1534.6754],[-99.3301,18.8691,1500.0132],[-99.3258,18.8667,1490.9109],[-99.3215,18.8676,1491.2651],[-99.3194,18.8666,1480.985],[-99.315,18.8586,1444.6194],[-99.3087,18.8518,1388.9426],[-99.3082,18.8526,1392.3009],[-99.2952,18.8429,1288.6871],[-99.2902,18.8419,1242.1051],[-99.2867,18.8442,1195.6865],[-99.276,18.8421,1193.5135],[-99.2734,18.8438,1204.8085],[-99.2708,18.8498,1215.9489],[-99.2727,18.8514,1235.3384],[-99.2716,18.8534,1228.7964],[-99.2774,18.8577,1305.7183],[-99.2766,18.8608,1316.2424],[-99.2769,18.862,1303.1748],[-99.2788,18.8616,1303.1748],[-99.2789,18.867,1384.15],[-99.2816,18.8669,1353.4497],[-99.2888,18.8791,1442.78],[-99.2808,18.8831,1484.8264],[-99.2846,18.8914,1493.6479],[-99.2837,18.8946,1483.5126],[-99.2941,18.8932,1524.8678],[-99.3014,18.901,1600.2211],[-99.2858,18.9011,1505.4696],[-99.286,18.9035,1511.826],[-99.2882,18.9043,1526.0117],[-99.2889,18.9097,1565.5132],[-99.2886,18.914,1572.9895],[-99.2871,18.9147,1627.1567],[-99.2911,18.9219,1645.6401],[-99.2818,18.9153,1624.004],[-99.2709,18.9026,1530.3104],[-99.261,18.9039,1503.5829],[-99.2619,18.9006,1486.3037],[-99.2585,18.8974,1481.5203],[-99.2566,18.8907,1464.4531],[-99.2391,18.898,1436.5432],[-99.2363,18.8976,1385.1641],[-99.2355,18.8935,1372.5514],[-99.2332,18.8926,1387.9429],[-99.2352,18.8913,1348.3987],[-99.2329,18.8894,1357.7705],[-99.2317,18.8807,1367.0977],[-99.2272,18.8723,1322.6515],[-99.2269,18.8672,1285.4944],[-99.2233,18.8647,1270.1177],[-99.2239,18.8631,1279.2837],[-99.2209,18.8623,1286.1482],[-99.2207,18.872,1328.052],[-99.2227,18.877,1343.2991],[-99.2184,18.8726,1357.2806],[-99.2061,18.8758,1404.8123],[-99.2172,18.8792,1352.3149],[-99.2162,18.8876,1367.4453],[-99.2117,18.8905,1379.252],[-99.2116,18.8952,1375.205],[-99.2099,18.8961,1386.0734],[-99.2095,18.8988,1392.0889],[-99.213,18.9046,1436.1707],[-99.2113,18.9078,1420.7946],[-99.2019,18.9035,1412.2903],[-99.2018,18.9013,1411.2195],[-99.1982,18.901,1409.6952],[-99.1982,18.8986,1408.0046],[-99.1958,18.8978,1408.0569],[-99.1965,18.8943,1405.645],[-99.1919,18.8933,1394.7133],[-99.1925,18.9008,1398.189],[-99.1959,18.9007,1410.7462],[-99.199,18.903,1411.806],[-99.2006,18.9087,1421.5848],[-99.1965,18.9098,1417.5186],[-99.1969,18.9116,1428.4561],[-99.194,18.9122,1429.6849],[-99.1935,18.9198,1456.043],[-99.1884,18.9183,1452.1555],[-99.1808,18.9115,1432.8329],[-99.1819,18.9199,1454.8724],[-99.1841,18.9195,1454.9609],[-99.182,18.9217,1460.407],[-99.1849,18.931,1491.3752],[-99.1812,18.9724,1688.3386],[-99.183,18.9821,1791.7715],[-99.1933,19.0007,2074.8865],[-99.2027,18.9913,1991.2544],[-99.2149,18.983,1928.8125],[-99.2287,18.9817,1864.5859],[-99.2253,18.9953,2118.3242],[-99.2193,19.0094,2342.9324],[-99.2218,19.0076,2311.6667],[-99.2555,19.0042,2195.2412],[-99.254,18.9986,2097.0745],[-99.2599,19.0019,2160.8855],[-99.2639,19.0003,2150.2876],[-99.2691,19.0028,2290.4214],[-99.2931,19.024,2707.1729],[-99.3118,19.0247,2655.0896],[-99.3186,19.0203,2965.6304],[-99.3197,19.0113,2674.1069],[-99.3141,19.0006,2471.8425],[-99.3085,18.994,2374.8018],[-99.3111,18.9917,2448.2798],[-99.31,18.9624,2128.0305],[-99.3087,18.9588,2082.0132],[-99.3106,18.9569,2054.8862],[-99.313,18.9481,1967.4832],[-99.317,18.9431,1904.9501],[-99.3172,18.94,1883.9431],[-99.321,18.9432,1914.0479],[-99.3216,18.9403,1887.9451],[-99.3246,18.9374,1869.6691],[-99.3301,18.9367,1839.11],[-99.3379,18.9324,1780.5796],[-99.3391,18.9265,1761.2278],[-99.342,18.9225,1687.0061]]]]}}