{"type":"Feature","properties":{"GID_1":"MEX.23_1","GID_0":"MEX","country":"México","province":"QuintanaRoo","VARNAME_1":"NA","NL_NAME_1":"NA","TYPE_1":"Estado","ENGTYPE_1":"State","CC_1":"NA","HASC_1":"MX.QR","ISO_1":"MX-ROO","name":"Quintana_Roo.province"},
"geometry":{"type": "MultiPolygon","coordinates": [[[[-87.4831,19.7065,0.8653],[-87.4975,19.7103,1.6525],[-87.506,19.7106,0.0],[-87.4865,19.7042,0.704],[-87.4797,19.7046,1.1442],[-87.4831,19.7065,0.8653]]],
[[[-87.474,19.7042,0.0],[-87.4782,19.7043,1.1442],[-87.4712,19.6994,3.5584],[-87.4683,19.6992,0.5929],[-87.4703,19.7013,3.3936],[-87.4688,19.7008,0.0],[-87.4689,19.702,0.0],[-87.474,19.7042,0.0]]],
[[[-87.4796,19.7049,1.1442],[-87.4795,19.704,1.1442],[-87.4784,19.704,1.1442],[-87.4786,19.7049,1.1442],[-87.4796,19.7049,1.1442]]],
[[[-87.4917,20.0309,-1.1712],[-87.487799999999993,20.0304,-1.5],[-87.4819,20.0379,0.1745],[-87.4848,20.0395,-0.6014],[-87.4869,20.0323,-0.7674],[-87.4917,20.0309,-1.1712]]],
[[[-86.7356,21.2327,0.5992],[-86.7301,21.2214,3.574],[-86.7403,21.2342,0.8946],[-86.7389,21.2357,2.0775],[-86.7403,21.2394,0.8882],[-86.7426,21.2387,0.3538],[-86.7433,21.2373,0.0],[-86.7319,21.2209,2.1674],[-86.7181,21.2054,0.0],[-86.7107,21.2018,0.7874],[-86.7151,21.2065,5.4737],[-86.7224,21.2227,0.0],[-86.7389,21.2455,0.0],[-86.7473,21.2617,3.5866],[-86.75,21.2621,0.0],[-86.7531,21.2579,0.8917],[-86.7454,21.2544,0.5092],[-86.7356,21.2327,0.5992]]],
[[[-86.7309,20.5691,6.088],[-86.7241,20.5859,0.0],[-86.724,20.5904,0.3025],[-86.7272,20.5921,0.0],[-86.7316,20.591,0.6395],[-86.7368,20.5849,0.3834],[-86.7477,20.5787,0.5654],[-86.7592,20.5754,2.3233],[-86.7601,20.5727,0.0],[-86.7585,20.5733,0.0309],[-86.7612,20.5719,0.4368],[-86.7623,20.5683,0.0502],[-86.764,20.5695,0.2619],[-86.7616,20.5711,0.4368],[-86.7674,20.5683,0.2785],[-86.763,20.5675,0.0502],[-86.7669,20.5649,0.1797],[-86.7687,20.5606,0.0],[-86.7734,20.5618,0.0],[-86.7738,20.5635,0.0],[-86.7719,20.5656,0.0],[-86.7794,20.5622,0.0],[-86.7874,20.5561,0.3647],[-86.801,20.5564,0.0],[-86.8146,20.553,0.7386],[-86.8221,20.5543,0.9636],[-86.8237,20.5523,1.3627],[-86.8213,20.5533,1.6948],[-86.8191,20.5497,0.0],[-86.8148,20.5506,0.4868],[-86.813,20.5489,0.2356],[-86.8145,20.5458,0.0],[-86.8127,20.5431,0.0],[-86.814,20.5416,0.2286],[-86.8154,20.5428,0.1461],[-86.8158,20.5496,0.09],[-86.8177,20.5483,0.0],[-86.8176,20.5454,0.1416],[-86.8213,20.544,0.1487],[-86.8215,20.5425,0.0612],[-86.8314,20.5434,0.2027],[-86.8355,20.5395,0.3997],[-86.839,20.5393,0.1836],[-86.8412,20.5412,0.1144],[-86.8442,20.5409,0.2837],[-86.8453,20.5432,0.0],[-86.8422,20.544,0.3658],[-86.8412,20.5469,0.0],[-86.8321,20.5505,0.0],[-86.8507,20.5499,1.3023],[-86.8451,20.547,0.4706],[-86.8476,20.5418,0.3599],[-86.8499,20.5417,0.4523],[-86.8565,20.5475,0.607],[-86.8572,20.5425,0.1699],[-86.8671,20.5361,4.8475],[-86.8806,20.5448,0.1611],[-86.8837,20.5535,3.7772],[-86.8819,20.5574,0.0],[-86.8834,20.559,1.0209],[-86.8884,20.5628,0.69],[-86.8968,20.5654,1.3947],[-86.8988,20.562,0.878],[-86.9075,20.5576,2.2936],[-86.9269,20.551,0.0],[-86.9324,20.5416,4.6643],[-86.9371,20.537,2.9029],[-86.9402,20.5278,2.3506],[-86.939,20.5289,6.4569],[-86.9389,20.5272,2.3506],[-86.9407,20.527,4.3271],[-86.946,20.5147,6.397],[-86.9575,20.5049,3.4207],[-86.973,20.4795,4.415],[-86.9752,20.4794,0.4993],[-86.9745,20.4755,2.8505],[-86.9805,20.4688,0.3143],[-86.9798,20.4653,5.7571],[-86.9823,20.4664,1.9077],[-86.9845,20.4627,2.0484],[-86.9899,20.4483,2.8473],[-87.0019,20.435,3.753],[-87.0054,20.433,0.278],[-87.0112,20.419,2.1703],[-87.016,20.4126,4.3139],[-87.0169,20.4029,0.5124],[-87.0213,20.3915,2.2694],[-87.0245,20.3669,2.4292],[-87.0219,20.3653,4.8029],[-87.0239,20.3641,1.8571],[-87.0239,20.3558,1.3244],[-87.0193,20.3442,2.1316],[-87.0165,20.3422,2.5111],[-87.0209,20.3403,2.6984],[-87.0196,20.3388,2.6984],[-87.0163,20.3388,2.7799],[-87.0179,20.3365,2.3005],[-87.0136,20.3297,3.0992],[-87.0095,20.3181,1.7941],[-87.01,20.31,0.4037],[-87.0165,20.2994,0.3771],[-87.0106,20.3,1.3053],[-87.0019,20.2967,1.5042],[-87.0008,20.292,0.0],[-86.9962,20.286,0.201],[-86.9938,20.2748,4.137],[-86.987799999999993,20.272,0.0],[-86.9797,20.2789,0.0],[-86.9742,20.2804,0.0],[-86.9646,20.2905,1.2772],[-86.9575,20.2924,1.4586],[-86.9473,20.3043,0.6954],[-86.9419,20.3059,0.5232],[-86.9356,20.3113,1.783],[-86.9323,20.3122,0.0],[-86.9081,20.3433,2.0248],[-86.9032,20.3465,0.0],[-86.8982,20.3446,0.0],[-86.8789,20.3784,0.0],[-86.8742,20.3825,0.6063],[-86.8614,20.3999,0.0],[-86.8572,20.4022,0.6775],[-86.854,20.4086,0.0],[-86.8306,20.4381,2.0037],[-86.8214,20.4393,2.9215],[-86.8181,20.4383,0.0],[-86.8151,20.4409,0.0],[-86.8155,20.4433,2.2975],[-86.8069,20.4559,0.0],[-86.800299999999993,20.4582,0.0],[-86.7985,20.4619,0.0],[-86.7936,20.4648,0.0],[-86.7905,20.4721,4.0931],[-86.7715,20.4948,0.0],[-86.7634,20.5071,0.0],[-86.7578,20.5255,2.4595],[-86.7495,20.5345,1.8108],[-86.7384,20.5528,0.566],[-86.7309,20.5691,6.088]]],
[[[-86.8513,20.5493,1.3023],[-86.8514,20.5499,1.3023],[-86.8541,20.5497,0.6186],[-86.8512,20.549,1.3023],[-86.8513,20.5493,1.3023]]],
[[[-87.5191,19.6104,0.0317],[-87.519,19.6127,0.3475],[-87.5231,19.6131,0.0],[-87.5215,19.61,0.2938],[-87.5235,19.605,0.0],[-87.5219,19.6059,0.0956],[-87.5191,19.6104,0.0317]]],
[[[-87.466,19.6133,0.0624],[-87.4664,19.607,0.0],[-87.4639,19.6052,0.0],[-87.4651,19.6133,0.0],[-87.466,19.6133,0.0624]]],
[[[-87.4948,19.6098,0.2454],[-87.4959,19.6089,0.2454],[-87.4951,19.607,0.0],[-87.4923,19.611,0.0],[-87.4948,19.6098,0.2454]]],
[[[-87.517,19.628,2.7185],[-87.5159,19.6274,1.4977],[-87.515,19.6289,1.1633],[-87.5189,19.6287,2.7185],[-87.5207,19.6233,0.0],[-87.5199,19.6235,0.0],[-87.517,19.628,2.7185]]],
[[[-87.7055,19.6489,0.0],[-87.7096,19.6501,0.0718],[-87.7135,19.6488,0.0],[-87.7105,19.6464,0.0],[-87.7055,19.6455,0.0],[-87.7039,19.6466,0.0],[-87.7055,19.6489,0.0]]],
[[[-87.4582,19.6908,0.3346],[-87.4579,19.6928,0.3482],[-87.4598,19.6946,0.139],[-87.4643,19.6947,1.9292],[-87.4618,19.6924,0.0],[-87.4582,19.6908,0.3346]]],
[[[-87.4649,19.6952,1.9292],[-87.4658,19.6982,3.7866],[-87.4681,19.699,0.5929],[-87.4669,19.6977,3.7866],[-87.4683,19.6949,1.3895],[-87.4643,19.6938,1.9292],[-87.4649,19.6952,1.9292]]],
[[[-86.8274,21.2963,0.0],[-86.8274,21.2957,0.0],[-86.8272,21.2966,0.0],[-86.8274,21.2963,0.0]]],
[[[-86.8575,21.4326,1.1484],[-86.854,21.4335,0.0],[-86.8526,21.4361,0.5806],[-86.8689,21.4313,0.1921],[-86.8663,21.4302,0.6398],[-86.8575,21.4326,1.1484]]],
[[[-86.8827,21.4254,0.4794],[-86.8816,21.4246,0.4794],[-86.8791,21.425,0.2047],[-86.8791,21.4257,0.0],[-86.8827,21.4254,0.4794]]],
[[[-86.8688,21.4299,0.7063],[-86.8735,21.4304,0.308],[-86.881,21.4348,0.2885],[-86.8866,21.4322,0.4002],[-86.8878,21.4307,0.3712],[-86.8835,21.4282,0.714],[-86.8841,21.4265,0.2243],[-86.879,21.4284,1.1617],[-86.8774,21.4266,1.1969],[-86.8784,21.4249,0.7004],[-86.8748,21.4263,0.8341],[-86.8773,21.4225,0.146],[-86.8855,21.421,0.0],[-86.8883,21.4168,0.2617],[-86.8784,21.4209,0.3992],[-86.8749,21.4257,0.5204],[-86.8688,21.4299,0.7063]]],
[[[-86.7945,21.4848,1.9372],[-86.7948,21.4845,0.0],[-86.794,21.4842,1.9372],[-86.7945,21.4848,1.9372]]],
[[[-86.7943,21.4998,0.2772],[-86.8,21.5228,0.9216],[-86.8038,21.5317,0.0],[-86.7996,21.5187,2.2298],[-86.7998,21.5124,0.9082],[-86.7988,21.5135,0.9082],[-86.7981,21.5121,2.0303],[-86.7987,21.5096,1.9301],[-86.8015,21.509,1.1832],[-86.799,21.4941,0.245],[-86.7975,21.4918,0.0],[-86.7998,21.5028,0.4346],[-86.7988,21.5037,0.4346],[-86.797,21.5033,0.0],[-86.7938,21.496,2.0157],[-86.7951,21.4936,0.0],[-86.7909,21.4839,1.5215],[-86.7934,21.4834,0.4633],[-86.7887,21.4756,1.6253],[-86.7897,21.4651,0.0],[-86.7876,21.461,0.592],[-86.7856,21.4605,0.0],[-86.7854,21.4637,0.0],[-86.7943,21.4998,0.2772]]],
[[[-87.0246,21.5829,0.1659],[-87.0353,21.5851,0.2016],[-87.0421,21.5847,0.0],[-87.0413,21.5834,0.2719],[-87.0359,21.5844,0.2315],[-87.0339,21.5783,0.3843],[-87.031,21.5789,0.1316],[-87.0315,21.5761,0.0],[-87.0295,21.5783,0.3979],[-87.0231,21.5802,-0.0225],[-87.021,21.5763,0.0072],[-87.0144,21.5747,-0.0723],[-87.0173,21.5735,0.0],[-87.0145,21.5698,0.1716],[-87.01,21.5693,0.2377],[-87.0095,21.5713,1.189],[-87.0072,21.5684,0.4279],[-87.0014,21.5704,0.0066],[-86.999,21.5692,0.5953],[-86.9967,21.5651,0.0],[-86.9925,21.564,0.4027],[-86.9988,21.57,0.5953],[-87.0246,21.5829,0.1659]]],
[[[-87.0297,21.5754,0.8346],[-87.0306,21.5757,0.3396],[-87.0303,21.5746,0.8346],[-87.0297,21.5745,0.8346],[-87.0297,21.5754,0.8346]]],
[[[-87.2244,21.5171,0.8333],[-87.2253,21.5165,0.0],[-87.2176,21.5183,0.0],[-87.2242,21.5177,0.8333],[-87.2244,21.5171,0.8333]]],
[[[-86.9822,21.5477,3.0458],[-86.9804,21.5486,0.6447],[-86.9829,21.5512,0.4523],[-86.9841,21.5538,0.3618],[-86.9918,21.5632,0.501],[-86.9931,21.5605,1.3724],[-86.9883,21.5576,0.0],[-86.987799999999993,21.5549,0.0134],[-86.9858,21.5556,0.0],[-86.9848,21.551,1.239],[-86.9868,21.5511,1.9055],[-86.9886,21.5485,1.9361],[-86.9887,21.5519,0.987],[-86.99,21.5523,1.1339],[-86.9922,21.5482,3.1208],[-86.9973,21.5486,0.0],[-86.9975,21.5425,0.0],[-86.9953,21.5456,1.2832],[-86.9931,21.5439,1.9307],[-86.988,21.5466,3.4502],[-86.9851,21.5449,2.4509],[-86.985,21.5498,2.3636],[-86.9822,21.5477,3.0458]]],
[[[-87.1184,21.5893,0.0834],[-87.1162,21.5903,0.0],[-87.1115,21.5986,0.3202],[-87.1086,21.5984,0.0],[-87.108,21.6003,0.4076],[-87.1068,21.5969,0.0],[-87.1055,21.5994,0.5504],[-87.1067,21.5989,0.5504],[-87.1067,21.6009,0.3093],[-87.1048,21.6014,0.9425],[-87.1024,21.5992,-0.0888],[-87.0999,21.6027,1.1444],[-87.0985,21.6,0.3413],[-87.1016,21.5966,0.0],[-87.1001,21.5955,0.6074],[-87.0949,21.5977,0.0474],[-87.0949,21.5942,0.2836],[-87.0932,21.5939,0.2836],[-87.0933,21.5959,0.0861],[-87.0911,21.5966,0.1099],[-87.0913,21.5933,0.9801],[-87.0872,21.5902,0.1938],[-87.085,21.591,0.2345],[-87.0845,21.5939,-0.0607],[-87.0818,21.5935,-0.504],[-87.0798,21.5949,0.2378],[-87.0779,21.5945,0.1007],[-87.0764,21.5913,0.0252],[-87.0752,21.5928,0.0074],[-87.0765,21.5945,0.1007],[-87.0743,21.594,0.1669],[-87.0728,21.5906,0.0303],[-87.0718,21.5914,0.0437],[-87.0731,21.5941,0.1669],[-87.0699,21.5947,0.0321],[-87.0622,21.5913,0.088],[-87.0592,21.5917,0.499],[-87.0573,21.5892,-0.1529],[-87.058,21.5882,0.0],[-87.0555,21.5868,0.0],[-87.0492,21.585,0.8387],[-87.0461,21.5863,0.742],[-87.0506,21.59,0.7104],[-87.0664,21.595,0.6658],[-87.0838,21.5967,0.5279],[-87.0975,21.6046,0.4879],[-87.1062,21.6046,0.8037],[-87.1225,21.5924,0.0],[-87.1294,21.5829,0.0],[-87.148,21.5706,0.0],[-87.2078,21.5462,0.6496],[-87.2433,21.5397,0.8021],[-87.2725,21.5395,0.0],[-87.2957,21.5432,1.4719],[-87.3127,21.5498,0.2518],[-87.3344,21.5643,0.0],[-87.3438,21.5596,0.0355],[-87.3443,21.5565,0.0627],[-87.3544,21.5427,0.0],[-87.3709,21.53,1.1218],[-87.3921,21.5167,0.0836],[-87.3946,21.5147,0.5058],[-87.3954,21.5117,-0.1657],[-87.3901,21.5033,0.0],[-87.3855,21.505,0.9615],[-87.3805,21.5146,0.5399],[-87.3792,21.5144,0.5399],[-87.3781,21.5108,0.3563],[-87.3753,21.5147,0.7159],[-87.3734,21.5141,0.092],[-87.3763,21.52,0.7211],[-87.3719,21.5213,1.0771],[-87.3646,21.5188,0.4501],[-87.3655,21.5213,0.8954],[-87.3608,21.5224,0.2724],[-87.3619,21.5269,0.0],[-87.3645,21.5297,0.3935],[-87.3641,21.5307,0.1968],[-87.3598,21.5287,0.0],[-87.3574,21.5335,0.3849],[-87.3587,21.5352,0.1152],[-87.3559,21.5348,0.6222],[-87.3547,21.5367,0.5251],[-87.353,21.5359,0.5905],[-87.3466,21.5384,0.0507],[-87.3437,21.5418,0.7147],[-87.341,21.5406,0.6601],[-87.3367,21.5434,0.247],[-87.3354,21.5466,0.1199],[-87.3278,21.5494,-0.3573],[-87.3257,21.5484,-0.8314],[-87.3261,21.5411,-0.1348],[-87.3192,21.5403,0.1567],[-87.3188,21.5362,1.7087],[-87.3152,21.534,0.786],[-87.3168,21.5307,-0.2783],[-87.31,21.5263,-0.0622],[-87.307,21.5292,0.1451],[-87.2907,21.528,0.9361],[-87.2874,21.5259,2.2652],[-87.2872,21.5224,-0.0833],[-87.2902,21.5195,-0.3575],[-87.2895,21.5182,-0.2291],[-87.28,21.5177,-0.0053],[-87.2733,21.5254,0.0],[-87.2738,21.5279,0.3257],[-87.2703,21.5281,0.8704],[-87.2692,21.526,0.8103],[-87.2655,21.5254,0.0],[-87.262,21.5304,0.7932],[-87.2611,21.5296,0.6534],[-87.2634,21.5254,0.1043],[-87.2571,21.525,0.5483],[-87.2435,21.5254,0.0765],[-87.2189,21.5294,2.4922],[-87.2206,21.5255,0.3261],[-87.2164,21.5262,-0.6135],[-87.2189,21.5236,0.0],[-87.2172,21.5232,-0.1152],[-87.2182,21.5221,-0.1152],[-87.2149,21.5231,-0.0447],[-87.2125,21.5269,-0.2634],[-87.2078,21.5279,-0.1769],[-87.2099,21.526,0.0862],[-87.2068,21.5261,-0.0292],[-87.209,21.5212,0.2734],[-87.2132,21.5193,0.4285],[-87.2099,21.5196,0.2836],[-87.2024,21.5306,1.6453],[-87.1955,21.5335,0.0],[-87.183,21.5423,0.3651],[-87.1835,21.5443,2.496],[-87.1811,21.5464,0.4307],[-87.1735,21.5504,0.0],[-87.1704,21.5503,0.1744],[-87.1665,21.5563,1.1822],[-87.1557,21.5584,0.6208],[-87.1513,21.5571,0.0],[-87.153,21.5594,0.4312],[-87.1623,21.5585,0.9076],[-87.1576,21.5624,3.2264],[-87.1509,21.5611,0.0],[-87.1508,21.5637,1.1208],[-87.1478,21.5631,0.0],[-87.1481,21.5669,3.1124],[-87.1461,21.5651,0.3397],[-87.1469,21.5638,0.6593],[-87.1451,21.5638,0.3397],[-87.1442,21.5659,0.312],[-87.1437,21.5633,0.0836],[-87.1403,21.5626,0.2651],[-87.1295,21.5684,0.0],[-87.1248,21.5735,0.0],[-87.1205,21.5892,0.2575],[-87.1173,21.5931,0.0324],[-87.1184,21.5893,0.0834]]],
[[[-87.0076,21.561,1.0257],[-87.0049,21.5663,2.283],[-87.0057,21.5677,1.1227],[-87.0101,21.5643,1.1606],[-87.0076,21.561,1.0257]]],
[[[-86.9115,21.4667,0.2148],[-86.9108,21.4683,1.0314],[-86.9166,21.4744,0.308],[-86.9174,21.4703,0.395],[-86.9115,21.4667,0.2148]]],
[[[-86.9278,21.4687,0.0968],[-86.9325,21.4717,-0.0039],[-86.932,21.4689,-0.2588],[-86.934,21.4668,0.0],[-86.9315,21.4686,0.1721],[-86.9278,21.4687,0.0968]]],
[[[-86.9353,21.471,0.0],[-86.9324,21.4726,0.0],[-86.9326,21.4742,0.5081],[-86.9368,21.4749,0.0],[-86.9358,21.4734,0.3091],[-86.9368,21.4733,0.0],[-86.9353,21.471,0.0]]],
[[[-86.9205,21.475,0.0],[-86.9191,21.472,0.0],[-86.9175,21.4758,0.0],[-86.9222,21.4779,0.5865],[-86.9235,21.4771,0.5865],[-86.9208,21.4758,0.9283],[-86.9205,21.475,0.0]]],
[[[-87.5653,19.397,1.5976],[-87.5735,19.3972,1.1112],[-87.5717,19.3945,0.4714],[-87.5694,19.3949,0.84],[-87.567,19.3932,0.0],[-87.5655,19.3937,0.0],[-87.5653,19.397,1.5976]]],
[[[-87.5494,19.4101,0.0],[-87.5494,19.4123,0.0],[-87.553,19.4138,0.0],[-87.5555,19.4116,1.313],[-87.5519,19.4084,0.0],[-87.5495,19.4084,0.0],[-87.5494,19.4101,0.0]]],
[[[-87.6606,19.5062,0.2269],[-87.6618,19.5047,0.0],[-87.6596,19.504,0.2108],[-87.6588,19.507,0.0],[-87.6596,19.5078,0.0],[-87.6606,19.5062,0.2269]]],
[[[-87.6616,19.5093,0.0],[-87.6578,19.5113,0.129],[-87.6565,19.5167,0.0],[-87.6573,19.5171,0.0],[-87.6616,19.5093,0.0]]],
[[[-87.4593,19.5618,-1.0],[-87.4611,19.5579,-1.0],[-87.4589,19.5596,-1.0],[-87.4569,19.5582,-1.0],[-87.4582,19.5645,-0.576],[-87.4561,19.5674,-0.564],[-87.4564,19.57,-1.0],[-87.4594,19.5661,-1.0],[-87.4593,19.5618,-1.0]]],
[[[-87.4846,19.562,0.0685],[-87.4826,19.563,0.009],[-87.4815,19.5609,0.0276],[-87.4798,19.5626,0.0],[-87.481,19.5646,0.0],[-87.4841,19.5639,0.0373],[-87.485,19.565,0.0373],[-87.4858,19.5628,0.0169],[-87.4846,19.562,0.0685]]],
[[[-87.576,19.5657,0.8846],[-87.5768,19.5661,0.0],[-87.5772,19.565,0.0],[-87.577,19.5647,0.0],[-87.576,19.5657,0.8846]]],
[[[-87.5666,19.5769,0.0],[-87.5666,19.5775,0.0],[-87.5672,19.5773,0.0],[-87.567,19.5767,0.0],[-87.5666,19.5769,0.0]]],
[[[-87.5614,19.5809,0.0],[-87.5619,19.5808,0.0],[-87.5617,19.5803,0.0],[-87.5614,19.5809,0.0]]],
[[[-87.6972,19.5902,0.0],[-87.7021,19.5925,0.0],[-87.7048,19.5906,0.0749],[-87.713,19.5897,0.0],[-87.6995,19.5898,0.0],[-87.6945,19.5872,0.0],[-87.6755,19.5874,0.0],[-87.6906,19.5879,0.0],[-87.6972,19.5902,0.0]]],
[[[-87.4974,19.5899,0.0],[-87.4977,19.5926,0.0391],[-87.499,19.5926,0.0],[-87.4992,19.5912,0.0],[-87.4974,19.5899,0.0]]],
[[[-87.4918,19.5949,0.0],[-87.4903,19.5976,0.0242],[-87.4908,19.5989,0.0],[-87.4939,19.5951,0.0],[-87.4918,19.5949,0.0]]],
[[[-87.4566,19.596,-0.2718],[-87.4547,19.5965,-0.0084],[-87.4554,19.5982,0.0184],[-87.4587,19.5978,0.0728],[-87.4582,19.5961,-0.0116],[-87.4566,19.596,-0.2718]]],
[[[-87.4654,19.6001,0.0],[-87.4622,19.5992,0.0169],[-87.4648,19.6033,0.0473],[-87.4668,19.6009,0.0],[-87.4715,19.602,0.1806],[-87.4726,19.6007,0.0],[-87.468,19.5994,0.1757],[-87.4654,19.6001,0.0]]],
[[[-87.4621,19.5944,0.3148],[-87.4623,19.5967,0.0372],[-87.4635,19.5984,0.1476],[-87.4646,19.5977,0.1476],[-87.4621,19.5944,0.3148]]],
[[[-87.4847,19.6032,0.0737],[-87.4932,19.6058,0.0],[-87.4944,19.6036,0.0],[-87.4877,19.6027,0.0092],[-87.4851,19.6008,0.0504],[-87.4839,19.6027,0.0675],[-87.4832,19.6009,0.0127],[-87.4846,19.5985,0.0],[-87.4815,19.5974,0.1264],[-87.4789,19.5998,0.2112],[-87.4784,19.6023,0.0187],[-87.4813,19.602,0.4552],[-87.4832,19.6044,0.0],[-87.4847,19.6032,0.0737]]],
[[[-87.8752,18.2089,0.434],[-87.8738,18.2127,0.0],[-87.875,18.2132,0.059],[-87.876,18.2111,0.0],[-87.8794,18.215699999999998,0.0287],[-87.8829,18.2168,0.082],[-87.8799,18.2132,0.0701],[-87.8867,18.2121,0.0],[-87.8932,18.206,0.0842],[-87.8925,18.189,0.0],[-87.8957,18.182,0.0],[-87.8968,18.1717,0.0],[-87.8877,18.1757,0.4987],[-87.8853,18.1824,0.2062],[-87.8789,18.1882,0.0],[-87.8773,18.2038,1.3264],[-87.8752,18.2089,0.434]]],
[[[-87.8947,18.2596,0.1492],[-87.8932,18.2588,0.4637],[-87.8915,18.2601,0.4637],[-87.8873,18.2669,0.5532],[-87.892,18.2655,0.2282],[-87.8948,18.2667,0.206],[-87.8927,18.2628,0.1319],[-87.8947,18.2596,0.1492]]],
[[[-87.8936,18.3076,0.0],[-87.8958,18.3037,0.0],[-87.8953,18.3033,0.1446],[-87.8925,18.3072,0.0],[-87.8936,18.3076,0.0]]],
[[[-87.898,18.3206,0.0],[-87.8981,18.3178,0.2311],[-87.897,18.317,0.0],[-87.8973,18.3203,0.0],[-87.898,18.3206,0.0]]],
[[[-87.8979,18.3255,0.0],[-87.8986,18.3226,0.0],[-87.8979,18.3217,0.0],[-87.897,18.3245,0.0],[-87.8979,18.3255,0.0]]],
[[[-87.8889,18.336,0.1307],[-87.8865,18.3347,0.0],[-87.8862,18.3381,0.0],[-87.8883,18.3376,0.0],[-87.8889,18.336,0.1307]]],
[[[-87.916,18.3565,0.0],[-87.916,18.3543,0.0],[-87.9138,18.3525,0.0],[-87.9154,18.3543,0.0],[-87.916,18.3565,0.0]]],
[[[-87.9061,18.3659,0.4587],[-87.9069,18.3661,0.4587],[-87.9068,18.3639,0.1803],[-87.9055,18.364,0.0],[-87.9061,18.3659,0.4587]]],
[[[-87.9075,18.3836,0.0],[-87.9083,18.3831,0.0],[-87.9074,18.381,0.0],[-87.9068,18.3817,0.0],[-87.9075,18.3836,0.0]]],
[[[-87.365,18.3901,0.0],[-87.3572,18.3967,0.0],[-87.3565,18.4004,0.0],[-87.3466,18.4105,0.0],[-87.3416,18.4188,0.0],[-87.3545,18.4044,0.0],[-87.3624,18.3998,0.0],[-87.3644,18.3934,0.0],[-87.3676,18.3917,0.0],[-87.3709,18.3861,0.0],[-87.3773,18.3828,0.0],[-87.3741,18.3836,0.0],[-87.365,18.3901,0.0]]],
[[[-87.4196,18.4002,0.0],[-87.4214,18.3991,0.0],[-87.4188,18.3964,0.0],[-87.4179,18.3977,0.0],[-87.4196,18.4002,0.0]]],
[[[-87.9009,18.3534,0.0],[-87.9013,18.3552,0.0],[-87.902,18.3554,0.0],[-87.9014,18.3536,0.0],[-87.9009,18.3534,0.0]]],
[[[-87.9068,18.3534,0.0],[-87.906,18.3548,0.3913],[-87.9044,18.3539,0.0796],[-87.9034,18.3567,0.0],[-87.9065,18.3592,0.2277],[-87.9091,18.3523,0.0],[-87.9068,18.3534,0.0]]],
[[[-87.4462,18.4835,0.0],[-87.4472,18.4762,0.0],[-87.4454,18.475,0.0],[-87.4417,18.488,0.0],[-87.4435,18.5054,0.0],[-87.445,18.5007,0.0],[-87.4448,18.4882,0.0],[-87.4462,18.4835,0.0]]],
[[[-87.442258536585371,18.511926829268283,0.0],[-87.4428,18.5094,0.0],[-87.4424,18.5103,0.0],[-87.442258536585371,18.511926829268283,0.0]]],
[[[-87.442258536585371,18.511926829268283,0.0],[-87.4422,18.5122,0.0],[-87.4422,18.5126,0.0],[-87.442258536585371,18.511926829268283,0.0]]],
[[[-87.3295,18.5291,0.0],[-87.3307,18.5267,0.0],[-87.3278,18.5309,0.0],[-87.3295,18.5291,0.0]]],
[[[-87.3224,18.5444,0.0],[-87.3257,18.539,0.0],[-87.3272,18.5318,0.0],[-87.3232,18.5404,0.0],[-87.312,18.5505,0.0],[-87.3139,18.5549,0.0],[-87.3224,18.5444,0.0]]],
[[[-87.4346,18.559,0.0],[-87.4348,18.5597,0.0],[-87.4353,18.5589,0.0],[-87.4346,18.559,0.0]]],
[[[-87.3269,18.4534,0.0],[-87.3342,18.4325,0.0],[-87.3296,18.4389,0.0],[-87.3229,18.4566,0.0],[-87.32,18.4926,0.0],[-87.331,18.5262,0.0],[-87.3329,18.5198,0.0],[-87.3308,18.5171,0.0],[-87.3301,18.5094,0.0],[-87.3247,18.4978,0.0],[-87.3252,18.4616,0.0],[-87.3269,18.4534,0.0]]],
[[[-87.4416,18.5184,0.0],[-87.4421,18.5174,0.0],[-87.442,18.5136,0.0],[-87.439,18.5177,0.0],[-87.4416,18.5184,0.0]]],
[[[-87.3336,18.5724,3.1306],[-87.3274,18.5823,0.8226],[-87.3355,18.5794,1.7972],[-87.3412,18.5748,0.7094],[-87.341,18.5735,0.0],[-87.3395,18.5726,0.5544],[-87.3407,18.5736,0.0],[-87.3403,18.5738,0.7094],[-87.3395,18.5733,0.5544],[-87.3398,18.5755,0.5042],[-87.3389,18.5735,0.5544],[-87.3336,18.5724,3.1306]]],
[[[-87.3236,18.5887,0.0],[-87.3223,18.5904,3.7959],[-87.32,18.5992,0.8344],[-87.324,18.5921,0.0],[-87.3236,18.5887,0.0]]],
[[[-88.229,18.5657,0.0],[-88.223,18.5623,1.0619],[-88.2205,18.5657,0.0],[-88.2117,18.5857,2.7306],[-88.1962,18.608,1.549],[-88.1865,18.6394,0.0],[-88.1918,18.6364,0.0],[-88.1955,18.6223,0.0],[-88.2057,18.605,4.482],[-88.2079,18.5929,0.6579],[-88.2161,18.5873,0.8715],[-88.2164,18.5816,3.261],[-88.2191,18.5798,0.0],[-88.2218,18.5681,3.2649],[-88.2245,18.5651,3.3821],[-88.229,18.5657,0.0]]],
[[[-87.4371,18.6084,0.0],[-87.4366,18.6095,0.0],[-87.4369,18.6104,0.0],[-87.4372,18.6094,0.0],[-87.4371,18.6084,0.0]]],
[[[-87.4214,18.6543,0.0],[-87.4285,18.6413,0.0],[-87.4276,18.6397,0.0],[-87.4256,18.6407,0.0],[-87.421,18.6548,0.0],[-87.4209,18.656,0.0],[-87.4214,18.6543,0.0]]],
[[[-87.3997,18.6911,0.0],[-87.4,18.6898,0.0],[-87.3999,18.6897,0.0],[-87.3995,18.6914,0.0],[-87.3997,18.6911,0.0]]],
[[[-87.3766,18.74,0.0],[-87.3758,18.7409,0.0],[-87.3778,18.7394,0.0],[-87.3766,18.74,0.0]]],
[[[-87.3744,18.7418,0.0],[-87.3748,18.7415,0.0],[-87.3745,18.7416,0.0],[-87.3744,18.7418,0.0]]],
[[[-87.3038,18.7469,0.0],[-87.3024,18.7471,2.5769],[-87.3026,18.7486,2.5769],[-87.3034,18.7486,0.0],[-87.3038,18.7469,0.0]]],
[[[-88.1145,18.7537,0.9334],[-88.1152,18.7555,0.0],[-88.1173,18.7539,2.4607],[-88.1161,18.7522,2.9264],[-88.1145,18.7537,0.9334]]],
[[[-87.3534,18.769,0.0],[-87.3537,18.7687,0.0],[-87.3539,18.7681,0.0],[-87.3534,18.769,0.0]]],
[[[-87.3204,18.7558,0.0],[-87.3204,18.7557,0.0],[-87.3195,18.7548,0.0],[-87.3196,18.7553,0.0],[-87.3204,18.7558,0.0]]],
[[[-88.0965,18.7765,0.8696],[-88.0981,18.7751,0.6725],[-88.096,18.7696,0.3224],[-88.0953,18.7719,1.3503],[-88.0965,18.7765,0.8696]]],
[[[-88.1153,18.7855,0.0],[-88.1181,18.7844,0.103],[-88.1174,18.7821,0.0],[-88.1166,18.7829,0.0],[-88.1153,18.7855,0.0]]],
[[[-88.0827,18.8117,0.0],[-88.0838,18.8159,2.8584],[-88.081,18.8228,0.3904],[-88.082,18.8278,0.0],[-88.0852,18.8292,0.3933],[-88.087,18.8255,0.0],[-88.0835,18.8273,1.0813],[-88.0823,18.822,0.0],[-88.0874,18.8145,0.3012],[-88.0929,18.8102,4.1144],[-88.0925,18.8043,7.368],[-88.0905,18.8027,9.3583],[-88.0918,18.799,4.0931],[-88.0899,18.7968,0.0],[-88.0874,18.7981,2.6957],[-88.086,18.8054,1.337],[-88.0827,18.8117,0.0]]],
[[[-88.1123,18.7675,0.0],[-88.1115,18.7596,0.0],[-88.1073,18.7621,0.0],[-88.1025,18.7729,0.0],[-88.101,18.7785,0.0],[-88.1014,18.7873,0.7527],[-88.0977,18.7975,0.0906],[-88.0992,18.801,0.1825],[-88.1034,18.7995,0.0],[-88.1076,18.7924,0.0],[-88.1059,18.7909,0.1209],[-88.1066,18.7874,0.986],[-88.1052,18.7843,-0.596],[-88.1108,18.7762,0.3007],[-88.1106,18.771,0.0],[-88.1123,18.7675,0.0]]],
[[[-87.6441,19.1855,0.1137],[-87.6403,19.1845,0.0],[-87.6396,19.187,0.0187],[-87.6426,19.1884,0.1269],[-87.6471,19.1864,0.0],[-87.643,19.1869,0.1137],[-87.6441,19.1855,0.1137]]],
[[[-87.634,19.193,0.1091],[-87.6287,19.191,0.0231],[-87.6297,19.1928,0.0563],[-87.6275,19.1966,0.0],[-87.6328,19.1948,0.0966],[-87.634,19.193,0.1091]]],
[[[-87.6286,19.2044,0.0647],[-87.6301,19.2043,0.0],[-87.631,19.2027,0.0],[-87.6282,19.2027,0.0604],[-87.6286,19.2044,0.0647]]],
[[[-87.6413,19.2176,0.0],[-87.6512,19.2155,0.0],[-87.6409,19.2171,0.0],[-87.6323,19.2209,0.0],[-87.6195,19.2302,0.0],[-87.6146,19.2359,0.0],[-87.6246,19.2269,0.0],[-87.6413,19.2176,0.0]]],
[[[-87.603,19.2358,0.0],[-87.6019,19.2358,0.0],[-87.6032,19.2369,0.0],[-87.6059,19.2347,0.0],[-87.6053,19.2341,0.069],[-87.603,19.2358,0.0]]],
[[[-87.4725,19.3232,0.1132],[-87.4781,19.3261,0.0],[-87.4798,19.3237,0.0605],[-87.4824,19.3245,0.0],[-87.4832,19.3234,0.5913],[-87.4808,19.3193,0.2601],[-87.4812,19.3216,1.0436],[-87.4775,19.3239,0.0699],[-87.4732,19.3225,0.1132],[-87.4751,19.3195,0.1854],[-87.4705,19.3182,0.0882],[-87.4726,19.3167,0.0],[-87.4701,19.3159,0.3041],[-87.4725,19.312,0.0721],[-87.4762,19.3191,0.0],[-87.4781,19.3178,0.0],[-87.4797,19.3122,0.0],[-87.4759,19.3116,0.0219],[-87.4769,19.308,0.0],[-87.4746,19.3086,0.0947],[-87.4751,19.3049,0.0],[-87.4722,19.311,0.0721],[-87.4689,19.3133,0.0],[-87.4684,19.3167,0.0],[-87.4694,19.3244,0.0],[-87.4704,19.3257,0.0],[-87.4725,19.3232,0.1132]]],
[[[-87.4648,19.3302,0.2034],[-87.4667,19.3333,0.1035],[-87.4708,19.3349,0.0],[-87.4672,19.3329,0.1035],[-87.4655,19.3266,0.0],[-87.4648,19.3302,0.2034]]],
[[[-87.5074,19.3653,3.3712],[-87.5184,19.3708,0.0],[-87.517,19.3662,0.0],[-87.518,19.3639,0.3337],[-87.5148,19.3593,0.0],[-87.515,19.3573,0.0],[-87.509,19.3559,1.2989],[-87.51,19.3584,1.8898],[-87.5063,19.3585,2.3018],[-87.5072,19.3561,1.6117],[-87.5055,19.351,0.0],[-87.5017,19.3525,1.1198],[-87.4948,19.3507,0.5117],[-87.4934,19.3483,1.2054],[-87.4946,19.3468,0.6942],[-87.4892,19.3444,0.0925],[-87.4855,19.3408,0.5875],[-87.486,19.3393,0.7475],[-87.4793,19.3354,0.0],[-87.4784,19.3379,2.0378],[-87.4837,19.3447,0.4468],[-87.5074,19.3653,3.3712]]],
[[[-87.4374,18.4388,0.0],[-87.4385,18.4422,0.0],[-87.4372,18.4348,0.0],[-87.4373,18.4363,0.0],[-87.4374,18.4388,0.0]]],
[[[-87.4392,18.4473,0.0],[-87.4407,18.4454,0.0],[-87.4386,18.4432,0.0],[-87.4386,18.4485,0.0],[-87.4392,18.4473,0.0]]],
[[[-87.4443,18.4626,0.0],[-87.4441,18.4599,0.0],[-87.4388,18.4504,0.0],[-87.44,18.4565,0.0],[-87.4443,18.4626,0.0]]],
[[[-87.6479,19.3427,0.6104],[-87.6453,19.3479,0.0],[-87.6373,19.3711,0.2738],[-87.632,19.376,0.0],[-87.6421,19.372,0.0],[-87.6395,19.3694,0.0959],[-87.6427,19.3653,0.0],[-87.6411,19.3632,0.1836],[-87.6463,19.3627,0.0],[-87.6429,19.3602,0.2408],[-87.6541,19.3538,0.0894],[-87.6544,19.352,0.0],[-87.6506,19.3503,0.0],[-87.6458,19.3505,0.1356],[-87.646,19.3473,0.0],[-87.6486,19.3443,0.2142],[-87.6509,19.3442,0.0],[-87.6492,19.3417,0.2207],[-87.6479,19.3427,0.6104]]],
[[[-87.8574,18.1974,0.0],[-87.8609,18.1937,0.0],[-87.857,18.1891,0.4968],[-87.8441,18.1935,6.1737],[-87.842,18.2094,3.7902],[-87.8418,18.2291,1.424],[-87.837,18.2478,0.0],[-87.8331,18.2923,2.0641],[-87.8237,18.3225,5.2346],[-87.8196,18.3318,2.1687],[-87.8021,18.3523,0.0],[-87.7986,18.3642,0.4919],[-87.7936,18.3718,0.0],[-87.7885,18.3837,4.3559],[-87.785,18.3858,1.1306],[-87.7771,18.3973,1.9202],[-87.7702,18.4014,0.5397],[-87.7709,18.4044,1.7856],[-87.7641,18.4178,2.6868],[-87.765,18.4306,1.7864],[-87.7617,18.4413,1.643],[-87.7618,18.4516,2.5731],[-87.7644,18.461,0.9571],[-87.7617,18.4785,0.0],[-87.7623,18.496,5.0714],[-87.7578,18.5142,2.7796],[-87.7448,18.529,1.1804],[-87.7437,18.5379,3.7909],[-87.74,18.5455,0.8282],[-87.7395,18.5815,1.2072],[-87.7328,18.612,0.0],[-87.7319,18.6227,0.0],[-87.7296,18.627,0.5079],[-87.7263,18.6642,1.487],[-87.7216,18.68,0.0],[-87.7177,18.6857,0.5822],[-87.7121,18.7096,0.0],[-87.6994,18.7281,1.0269],[-87.6949,18.7294,1.1849],[-87.6884,18.7366,0.2867],[-87.6851,18.7379,0.405],[-87.6839,18.7415,1.9882],[-87.6808,18.7424,2.1921],[-87.6723,18.756,1.7858],[-87.6683,18.7706,0.1841],[-87.6714,18.7759,2.1452],[-87.6682,18.7879,0.1914],[-87.6691,18.8006,0.0],[-87.6669,18.8099,0.0],[-87.6625,18.817,0.0],[-87.6631,18.8265,0.6271],[-87.6578,18.8322,0.9364],[-87.6573,18.8376,2.0537],[-87.6539,18.8394,0.0],[-87.6539,18.8463,0.0],[-87.6473,18.8548,1.3344],[-87.6436,18.8569,0.0],[-87.6417,18.8616,0.0],[-87.642,18.8845,0.0],[-87.6394,18.8928,1.2963],[-87.6336,18.8984,0.0],[-87.6315,18.903,0.4342],[-87.6323,18.9225,4.4249],[-87.6274,18.9397,0.0],[-87.6244,18.9447,2.0212],[-87.6172,18.9504,0.0],[-87.6053,18.9877,0.5121],[-87.6006,18.9916,0.0],[-87.59,19.0074,0.9249],[-87.5795,19.0359,1.4372],[-87.5735,19.043,0.0],[-87.5712,19.053,0.5733],[-87.5668,19.0626,2.7006],[-87.5623,19.0688,2.8637],[-87.5563,19.0691,1.5669],[-87.5535,19.0743,0.0],[-87.5519,19.0825,2.3701],[-87.5499,19.0847,3.1161],[-87.5522,19.0937,2.8179],[-87.5498,19.1037,3.1955],[-87.5501,19.1233,3.3097],[-87.5474,19.137,0.0],[-87.5486,19.1444,0.0],[-87.5408,19.1551,1.2758],[-87.5423,19.1667,2.0925],[-87.5397,19.1732,3.5895],[-87.5398,19.1831,3.7971],[-87.538,19.1847,0.3273],[-87.54,19.1949,4.3666],[-87.5372,19.208,0.0],[-87.5321,19.2188,3.0194],[-87.5285,19.2227,0.0],[-87.5261,19.2303,0.641],[-87.521,19.2331,0.0],[-87.52,19.2357,2.2112],[-87.5174,19.2367,0.5638],[-87.5148,19.2353,0.0],[-87.5104,19.2418,0.0],[-87.5065,19.2441,0.0],[-87.5046,19.2481,4.1593],[-87.489,19.2616,0.7891],[-87.4879,19.2652,0.0],[-87.4855,19.2661,0.0],[-87.4754,19.281,0.8449],[-87.4712,19.2828,0.9673],[-87.4456,19.3117,0.7543],[-87.4458,19.3131,0.6298],[-87.4539,19.3132,0.6268],[-87.4612,19.3197,0.0],[-87.4633,19.3251,0.6432],[-87.4668,19.3249,0.7924],[-87.4636,19.3228,0.0],[-87.4662,19.3208,0.0],[-87.4647,19.3179,1.1559],[-87.4656,19.316,0.0],[-87.4577,19.315,-0.5795],[-87.4583,19.3102,-0.4148],[-87.4619,19.3098,0.0],[-87.4623,19.3065,0.1399],[-87.4672,19.3041,0.2288],[-87.4766,19.3024,0.0462],[-87.4772,19.3054,0.0373],[-87.4785,19.3024,0.1009],[-87.4788,19.3095,0.0805],[-87.4834,19.3081,-0.0307],[-87.4842,19.3056,0.0],[-87.4923,19.3032,0.3048],[-87.4921,19.3016,0.0],[-87.4889,19.303,0.2267],[-87.4827,19.3021,0.1031],[-87.4874,19.3003,0.5184],[-87.4866,19.2994,0.5184],[-87.4903,19.2961,0.0],[-87.4942,19.2886,3.3978],[-87.4966,19.2757,0.0],[-87.5012,19.2675,-0.049],[-87.5026,19.2594,-1.0],[-87.5012,19.2591,-0.5637],[-87.4988,19.2633,-1.0],[-87.4996,19.2655,-0.6385],[-87.4951,19.2702,-1.0],[-87.4966,19.2653,-1.0],[-87.4945,19.2638,0.4328],[-87.5003,19.2585,5.2998],[-87.5045,19.2568,0.5727],[-87.5036,19.2617,-0.9643],[-87.5061,19.261,0.0],[-87.5081,19.2572,0.1661],[-87.5117,19.2557,0.2556],[-87.5145,19.2582,0.6682],[-87.5119,19.2671,0.3337],[-87.5095,19.2702,0.8171],[-87.5112,19.2723,0.2275],[-87.5105,19.2758,0.0],[-87.5079,19.2803,0.0],[-87.5008,19.2826,1.0513],[-87.4975,19.2945,0.2435],[-87.4943,19.2982,1.0022],[-87.4957,19.3025,0.0],[-87.4907,19.3084,0.1342],[-87.4911,19.3105,0.0],[-87.493,19.3099,0.3233],[-87.4937,19.3125,0.0],[-87.4865,19.3167,0.0],[-87.4886,19.3172,0.7025],[-87.489,19.3202,0.7728],[-87.4906,19.3205,0.4029],[-87.4891,19.3261,0.3759],[-87.4924,19.3233,0.1641],[-87.4983,19.3215,0.1666],[-87.5013,19.3241,0.0],[-87.5062,19.3219,0.072],[-87.5126,19.3157,-0.0968],[-87.5156,19.3084,0.1875],[-87.5242,19.3055,0.0],[-87.5387,19.3068,-0.2738],[-87.5521,19.2973,0.0],[-87.5561,19.296,0.8958],[-87.5666,19.2847,0.0],[-87.5692,19.2779,0.128],[-87.5873,19.2647,0.0],[-87.5965,19.2518,0.1048],[-87.6051,19.2477,0.0306],[-87.6121,19.2399,0.0],[-87.6124,19.2387,0.0],[-87.6052,19.2465,0.0],[-87.5936,19.2508,0.0],[-87.5927,19.255,0.0],[-87.5896,19.2546,0.0],[-87.5897,19.2594,-0.0159],[-87.5821,19.2675,0.2408],[-87.5778,19.2698,-0.0091],[-87.5743,19.2695,0.0],[-87.5739,19.2726,0.0064],[-87.5686,19.2778,0.128],[-87.5657,19.2754,3.638],[-87.569,19.2676,0.0],[-87.5679,19.267,0.7908],[-87.5706,19.2643,0.0],[-87.5743,19.2634,0.5966],[-87.5758,19.2653,0.2168],[-87.5751,19.2674,0.0],[-87.5788,19.267,0.3465],[-87.5831,19.2615,0.0589],[-87.5832,19.256,0.0374],[-87.578,19.2564,1.6794],[-87.5803,19.253,0.3449],[-87.5839,19.2542,0.0],[-87.5859,19.2511,0.0],[-87.5867,19.2453,0.1198],[-87.5891,19.2467,0.0372],[-87.5921,19.2419,0.084],[-87.5927,19.2386,0.1101],[-87.5911,19.2405,0.084],[-87.5886,19.2382,3.781],[-87.5899,19.2353,2.7383],[-87.5916,19.2357,0.1714],[-87.5912,19.2374,0.1101],[-87.5987,19.2372,0.0],[-87.6016,19.2353,0.0],[-87.6016,19.2329,0.0768],[-87.607,19.2299,0.5415],[-87.6084,19.2221,0.3723],[-87.6133,19.2164,0.3159],[-87.6144,19.2104,2.3152],[-87.6171,19.2091,0.4904],[-87.6199,19.2009,0.0],[-87.6237,19.1953,0.0672],[-87.6244,19.1917,0.0],[-87.6205,19.1969,0.1078],[-87.6215,19.1947,0.0498],[-87.6194,19.1933,1.1927],[-87.6194,19.1917,0.39],[-87.6219,19.1916,0.0],[-87.6224,19.1902,0.0],[-87.6204,19.1866,0.0405],[-87.6172,19.1854,1.0016],[-87.62,19.1849,0.1829],[-87.6231,19.1863,0.0643],[-87.6223,19.1835,4.33],[-87.6253,19.1804,0.164],[-87.6274,19.1817,0.7615],[-87.6262,19.1848,0.0],[-87.6275,19.1881,0.0],[-87.6307,19.1891,0.0],[-87.6316,19.1877,0.1242],[-87.6285,19.1824,0.0],[-87.6306,19.1789,0.0],[-87.6325,19.1793,0.1117],[-87.6327,19.1821,0.0],[-87.6336,19.1791,0.1117],[-87.6378,19.1772,0.0689],[-87.6405,19.1792,0.1213],[-87.6383,19.1817,0.1859],[-87.6394,19.1821,0.0],[-87.6546,19.1806,0.0],[-87.6587,19.1857,0.0],[-87.6575,19.1897,0.0638],[-87.6598,19.1906,0.0],[-87.6649,19.1877,0.1655],[-87.6661,19.1909,0.0],[-87.6691,19.1895,0.4236],[-87.6717,19.1856,0.202],[-87.6704,19.1918,0.0],[-87.6736,19.1935,-0.2628],[-87.674,19.1964,0.1491],[-87.6726,19.1975,0.1134],[-87.6717,19.1956,-0.116],[-87.6693,19.1989,0.0],[-87.6767,19.1986,0.0888],[-87.6785,19.1999,0.2371],[-87.6741,19.2061,0.0953],[-87.6779,19.2045,0.1534],[-87.6789,19.2069,0.0],[-87.6831,19.2055,-0.0243],[-87.6819,19.2074,0.0539],[-87.6823,19.2136,0.147],[-87.6773,19.2164,0.0],[-87.6769,19.2188,0.0],[-87.6784,19.2176,0.1124],[-87.6838,19.2201,0.1554],[-87.6827,19.2187,0.1128],[-87.6838,19.2183,0.1147],[-87.6861,19.2205,0.1129],[-87.6833,19.2233,0.0],[-87.6738,19.2235,0.0],[-87.6736,19.2277,0.0804],[-87.6806,19.2295,-0.2024],[-87.6858,19.2256,0.0446],[-87.6911,19.228,0.2498],[-87.6947,19.2267,0.128],[-87.6981,19.227,0.1309],[-87.6967,19.2279,0.0],[-87.7052,19.2271,0.0146],[-87.6865,19.2308,0.0228],[-87.6859,19.2326,0.0744],[-87.6899,19.2371,0.2993],[-87.6872,19.2383,0.1674],[-87.6864,19.2405,0.0838],[-87.6879,19.2457,0.0],[-87.6911,19.2456,0.0018],[-87.6928,19.2485,0.0368],[-87.6905,19.2542,0.0947],[-87.6877,19.2547,0.0],[-87.686,19.2533,0.0],[-87.6848,19.2546,0.0687],[-87.6744,19.2524,0.1267],[-87.6768,19.2508,0.0408],[-87.679,19.244,0.3535],[-87.6834,19.243,0.1791],[-87.6849,19.2409,0.1248],[-87.6867,19.2349,0.0],[-87.6834,19.2394,0.1103],[-87.6782,19.2428,0.076],[-87.6664,19.2575,0.8342],[-87.6612,19.2607,0.485],[-87.6579,19.282,0.0],[-87.6615,19.2845,-0.0683],[-87.6631,19.2829,0.0457],[-87.6721,19.282,-0.217],[-87.6726,19.285,0.0924],[-87.6706,19.289,0.0516],[-87.6651,19.2893,0.1051],[-87.6611,19.2874,0.0],[-87.6649,19.2907,0.0],[-87.6683,19.2913,0.1684],[-87.6698,19.2974,0.0767],[-87.6718,19.2987,0.0],[-87.6764,19.2944,0.0],[-87.6746,19.2925,0.0705],[-87.6824,19.2943,0.0395],[-87.6784,19.2987,0.0],[-87.6794,19.3018,0.0],[-87.6769,19.3022,-0.0238],[-87.674,19.2977,0.0],[-87.6739,19.3009,0.0457],[-87.6711,19.3029,0.0],[-87.6739,19.3041,0.0639],[-87.6751,19.3077,0.0],[-87.6777,19.3058,0.3179],[-87.679,19.3111,0.0216],[-87.6833,19.3149,0.0646],[-87.678,19.3107,0.0216],[-87.6734,19.3098,0.0],[-87.6749,19.3139,0.1536],[-87.6718,19.3105,0.055],[-87.6687,19.3124,0.0652],[-87.6681,19.3104,0.127],[-87.67,19.309,0.0965],[-87.6688,19.3083,0.0],[-87.6618,19.308,0.0287],[-87.6595,19.3046,0.0564],[-87.6604,19.3015,0.0963],[-87.6654,19.3006,0.131],[-87.6685,19.3018,0.2796],[-87.6695,19.3006,0.0],[-87.6677,19.2972,0.3245],[-87.6563,19.3028,0.5198],[-87.655,19.3198,0.3057],[-87.6492,19.3405,0.2207],[-87.65,19.3417,0.2207],[-87.6517,19.3432,0.0],[-87.6539,19.3426,0.3774],[-87.6539,19.3402,0.0],[-87.652,19.3386,0.0537],[-87.6573,19.3349,0.0],[-87.6546,19.3329,0.9059],[-87.662,19.3289,0.1113],[-87.6623,19.3276,0.0418],[-87.6591,19.3251,0.1119],[-87.6651,19.3195,0.0482],[-87.6698,19.3221,0.0458],[-87.6724,19.3251,0.1411],[-87.672,19.3277,0.1293],[-87.6739,19.3288,0.0235],[-87.67,19.3367,0.0433],[-87.6665,19.3338,0.0289],[-87.6673,19.3314,0.0],[-87.6639,19.3324,0.0764],[-87.6615,19.3368,0.0],[-87.6631,19.3405,0.0],[-87.6658,19.3401,0.0455],[-87.6671,19.3415,0.0936],[-87.6655,19.3436,0.0449],[-87.6663,19.346,0.061],[-87.6624,19.344,0.0397],[-87.6571,19.3477,0.0962],[-87.6558,19.353,0.0447],[-87.6508,19.3579,0.0055],[-87.6518,19.3597,0.0215],[-87.6487,19.3662,0.0811],[-87.6459,19.3666,0.0],[-87.6455,19.3706,0.0621],[-87.6415,19.3749,0.0],[-87.638,19.3754,0.0],[-87.6333,19.3846,0.1258],[-87.6291,19.3881,0.1729],[-87.6219,19.3923,0.09],[-87.6182,19.3903,0.0],[-87.613,19.3924,0.2482],[-87.6155,19.3867,0.0],[-87.6289,19.3803,0.0955],[-87.6311,19.3763,0.0],[-87.6255,19.3803,0.0],[-87.6189,19.3818,0.0],[-87.6073,19.3949,0.0],[-87.602,19.3989,0.2546],[-87.6003,19.3984,0.0],[-87.5957,19.4034,0.243],[-87.5887,19.4037,0.0],[-87.5763,19.414,0.9859],[-87.5656,19.4172,0.1182],[-87.5546,19.4268,0.0471],[-87.552,19.425,0.0],[-87.5444,19.4287,0.0128],[-87.5433,19.4276,0.0775],[-87.5354,19.429,0.3151],[-87.5355,19.4282,0.3839],[-87.5394,19.4251,1.417],[-87.5419,19.4199,0.0976],[-87.5438,19.4206,0.0097],[-87.5478,19.4184,0.086],[-87.5456,19.4171,0.0],[-87.5455,19.4189,0.2643],[-87.5403,19.419,1.7947],[-87.5392,19.4141,1.8586],[-87.5378,19.4142,1.8586],[-87.5422,19.3982,-0.263],[-87.5446,19.3975,0.1545],[-87.5459,19.3993,0.0],[-87.5471,19.3966,0.2578],[-87.5488,19.3979,0.0446],[-87.5488,19.396,0.2032],[-87.5523,19.3952,0.0],[-87.5507,19.3945,0.0889],[-87.5544,19.3924,0.1166],[-87.5575,19.3927,0.1111],[-87.5589,19.3955,0.0],[-87.561,19.3942,0.0945],[-87.5649,19.3969,1.5976],[-87.5648,19.3942,0.6518],[-87.5551,19.3914,0.0779],[-87.5498,19.3936,0.0643],[-87.5454,19.3916,0.7402],[-87.5279,19.3943,2.1136],[-87.5206,19.3999,0.0],[-87.5035,19.4247,1.1796],[-87.4913,19.437,0.6293],[-87.4711,19.4449,0.0],[-87.4645,19.4529,2.1763],[-87.4592,19.4554,0.0],[-87.4456,19.4683,2.1194],[-87.4401,19.4692,0.2884],[-87.4377,19.4796,2.2973],[-87.4327,19.4861,0.8638],[-87.4325,19.4903,1.5784],[-87.4287,19.4986,2.1717],[-87.4313,19.5072,1.4551],[-87.4316,19.515,0.0],[-87.4304,19.5197,0.6655],[-87.4267,19.5235,3.595],[-87.4278,19.5309,2.9395],[-87.4228,19.5385,1.3069],[-87.4242,19.5506,0.0],[-87.4199,19.558,1.96],[-87.4166,19.5577,1.4003],[-87.4162,19.562,2.0175],[-87.4143,19.5641,1.8745],[-87.413,19.5827,2.392],[-87.4106,19.592,3.2211],[-87.4104,19.5984,5.012],[-87.4127,19.6013,2.09],[-87.4164,19.6009,0.0],[-87.4196,19.6036,1.5379],[-87.4212,19.6075,0.4862],[-87.425,19.6107,2.1555],[-87.4238,19.6121,0.0],[-87.4264,19.6172,1.4313],[-87.4312,19.621,0.4388],[-87.4353,19.6219,-0.0616],[-87.4487,19.6321,0.0],[-87.4539,19.648,1.2046],[-87.4545,19.6436,2.2691],[-87.4567,19.6432,1.5366],[-87.4553,19.6348,0.0],[-87.4538,19.6347,0.5025],[-87.4545,19.6376,0.7575],[-87.4533,19.6378,0.7575],[-87.449,19.6304,0.1135],[-87.4496,19.6279,0.0977],[-87.4457,19.6255,0.4848],[-87.4457,19.62,-0.1273],[-87.4503,19.6164,0.088],[-87.4547,19.6169,-0.0282],[-87.4623,19.6073,0.0],[-87.4603,19.6063,0.0],[-87.4583,19.6083,0.0375],[-87.4562,19.6028,0.0525],[-87.4572,19.6008,0.0],[-87.4532,19.6021,-0.4211],[-87.4516,19.5994,0.0699],[-87.4524,19.5982,-0.0025],[-87.4477,19.5955,-0.2035],[-87.4423,19.5952,-1.0167],[-87.4423,19.5934,-0.8219],[-87.4452,19.5931,0.0212],[-87.4454,19.5917,-0.1139],[-87.4467,19.5946,0.0],[-87.4534,19.596,-0.0084],[-87.4539,19.5946,-0.0452],[-87.4586,19.5948,-0.0136],[-87.4705,19.5902,0.1303],[-87.4743,19.5918,-0.3019],[-87.4762,19.5889,-0.0116],[-87.4818,19.5878,0.1942],[-87.4902,19.5903,0.0],[-87.4966,19.5857,0.1406],[-87.5002,19.5877,0.0],[-87.5001,19.59,0.0],[-87.5028,19.5901,0.0202],[-87.5072,19.5867,0.0],[-87.5032,19.5874,0.1353],[-87.502,19.5851,0.0196],[-87.5048,19.5847,0.0],[-87.499,19.5811,0.0069],[-87.4981,19.5748,0.0],[-87.5008,19.5758,0.0911],[-87.502,19.5806,0.0],[-87.5086,19.5817,0.0215],[-87.5099,19.5764,0.0856],[-87.4967,19.5736,0.0],[-87.491,19.576,0.0],[-87.4908,19.5784,-0.0063],[-87.489,19.5776,0.0121],[-87.4881,19.5762,0.0],[-87.4901,19.5737,0.0143],[-87.4939,19.5729,0.1086],[-87.4924,19.5706,0.0757],[-87.4999,19.5693,0.0246],[-87.5025,19.5704,-0.3024],[-87.5068,19.5683,0.0],[-87.5072,19.5647,0.0],[-87.4905,19.5594,0.0361],[-87.4893,19.5595,-0.2519],[-87.4898,19.561,-0.0336],[-87.4917,19.5614,-0.0058],[-87.4854,19.5657,0.0245],[-87.4844,19.5682,-0.0658],[-87.483,19.5689,0.0388],[-87.4803,19.5669,0.0],[-87.4773,19.5693,0.0603],[-87.4744,19.5692,-0.1306],[-87.4745,19.5753,-0.4307],[-87.4706,19.5797,-1.0],[-87.4641,19.5831,-0.3749],[-87.4632,19.5859,-0.372],[-87.4595,19.5865,-1.0],[-87.4557,19.5837,-1.0],[-87.4544,19.579,-0.3454],[-87.4634,19.5757,0.1867],[-87.462,19.5808,-0.6712],[-87.4673,19.5798,-0.3269],[-87.4692,19.5737,-0.4226],[-87.4681,19.5727,-0.4226],[-87.4698,19.5726,-1.0],[-87.4679,19.5673,-0.559],[-87.4651,19.5658,-0.3694],[-87.4639,19.5671,-0.467],[-87.4644,19.5718,-0.5757],[-87.4627,19.5739,-0.609],[-87.4599,19.5741,-0.5331],[-87.4589,19.5722,-0.6414],[-87.4578,19.5742,-0.7812],[-87.459,19.5753,-0.7812],[-87.4574,19.5757,-0.442],[-87.4564,19.5723,-1.0],[-87.4553,19.5762,0.2123],[-87.4535,19.5763,-0.8178],[-87.4535,19.5731,-1.0],[-87.4521,19.5735,-1.0],[-87.4521,19.5775,-0.7547],[-87.4495,19.583,0.4707],[-87.4501,19.5757,-1.0],[-87.4484,19.5766,-0.828],[-87.4447,19.5752,-0.7256],[-87.4498,19.5663,-0.5901],[-87.449,19.5575,-1.0],[-87.4458,19.5559,-0.3915],[-87.4461,19.5538,-1.0],[-87.444,19.5528,-0.391],[-87.4481,19.5486,0.0322],[-87.4552,19.5479,-0.4476],[-87.4546,19.5528,-1.0],[-87.4517,19.5531,-0.1436],[-87.4539,19.5509,-1.0],[-87.4497,19.5511,-0.1284],[-87.4491,19.5535,-0.0935],[-87.454,19.5541,-1.0],[-87.46,19.55,-0.4937],[-87.4635,19.5451,-0.765],[-87.4656,19.5455,-0.5077],[-87.4653,19.5508,-0.7684],[-87.4625,19.5516,-1.0],[-87.4603,19.5546,-1.0],[-87.4632,19.5543,-1.0],[-87.4626,19.5625,-1.0],[-87.465,19.5625,-1.0],[-87.4658,19.5656,-0.2097],[-87.4681,19.5655,-0.784],[-87.4695,19.5679,-0.559],[-87.4745,19.5664,-0.7838],[-87.4742,19.5685,-0.3683],[-87.4849,19.5546,-0.4844],[-87.4932,19.5543,-0.0098],[-87.4979,19.551,0.09],[-87.5029,19.5519,0.1527],[-87.4993,19.5564,-0.0257],[-87.4955,19.5555,0.0],[-87.498,19.5606,0.0],[-87.5066,19.5598,-0.4951],[-87.5079,19.5641,0.0],[-87.5115,19.5647,0.0024],[-87.515,19.5631,0.0],[-87.5237,19.5489,0.0],[-87.5197,19.5456,0.1227],[-87.5149,19.5486,0.0523],[-87.5074,19.5478,0.0],[-87.5053,19.5501,0.0],[-87.5001,19.55,0.1076],[-87.495,19.5458,0.0419],[-87.4911,19.5453,-0.5192],[-87.4926,19.5399,-1.0],[-87.4899,19.5401,-1.0],[-87.489,19.5433,-0.512],[-87.4862,19.544,-0.4993],[-87.4856,19.5403,0.4625],[-87.4881,19.5365,-0.526],[-87.4998,19.5374,-0.4186],[-87.4991,19.5408,-0.439],[-87.5026,19.5403,-0.6706],[-87.5061,19.5429,-0.8613],[-87.4998,19.5446,0.0323],[-87.5019,19.546,0.2008],[-87.505,19.5449,0.048],[-87.5116,19.546,0.0],[-87.5123,19.543,0.0839],[-87.5207,19.5415,0.0991],[-87.5245,19.5472,0.0],[-87.5257,19.5405,0.0],[-87.5279,19.5431,0.0112],[-87.5344,19.5457,0.0],[-87.5356,19.5438,0.5964],[-87.5335,19.5419,0.0],[-87.5332,19.5386,0.0992],[-87.5348,19.5373,0.0486],[-87.54,19.5424,0.0104],[-87.5417,19.5403,0.1067],[-87.5421,19.5433,0.0588],[-87.5347,19.5478,0.3742],[-87.5363,19.5504,0.1786],[-87.5334,19.5529,0.0116],[-87.5336,19.5572,0.0432],[-87.5315,19.5577,0.3016],[-87.5316,19.5616,0.0347],[-87.5344,19.56,0.0989],[-87.5353,19.5574,0.0432],[-87.5381,19.5577,0.058],[-87.5385,19.56,0.0],[-87.5409,19.5579,0.0799],[-87.5467,19.5572,0.0],[-87.5518,19.5545,0.1743],[-87.5508,19.5563,0.0691],[-87.5438,19.5603,0.0247],[-87.5397,19.5605,0.0773],[-87.5452,19.5611,0.1775],[-87.5505,19.5661,0.0],[-87.5598,19.5623,0.1889],[-87.5555,19.5609,0.0122],[-87.5498,19.5641,0.1288],[-87.5488,19.5616,0.0139],[-87.5514,19.561,0.0137],[-87.5516,19.5581,0.0896],[-87.5561,19.5588,0.0],[-87.5617,19.5556,0.0],[-87.5681,19.5566,0.1139],[-87.582,19.5545,0.2585],[-87.5761,19.5563,-0.0018],[-87.5753,19.559,0.0],[-87.572,19.5595,0.3171],[-87.5718,19.5581,0.0],[-87.5708,19.5598,0.3171],[-87.5692,19.5591,0.3443],[-87.5653,19.5612,0.0474],[-87.562,19.5592,0.0193],[-87.5653,19.5573,0.0],[-87.5612,19.5578,0.0266],[-87.5604,19.5623,-0.0066],[-87.5623,19.5625,0.0049],[-87.5747,19.5598,0.0],[-87.5828,19.5562,0.2845],[-87.6093,19.5539,0.0],[-87.6238,19.5477,0.3431],[-87.6328,19.5384,0.334],[-87.6377,19.524,0.0844],[-87.645,19.5164,0.0],[-87.6436,19.5156,0.6009],[-87.6472,19.5132,0.0],[-87.6506,19.5048,0.3751],[-87.6559,19.5037,0.353],[-87.6586,19.5001,0.4724],[-87.6631,19.5007,0.2061],[-87.6636,19.5031,0.1231],[-87.6656,19.5035,0.133],[-87.6685,19.5012,0.1466],[-87.6668,19.4968,0.3877],[-87.6722,19.4947,0.2786],[-87.6712,19.4978,0.0],[-87.6697,19.4981,0.6729],[-87.6693,19.5065,0.0],[-87.6731,19.5024,0.0553],[-87.6727,19.4966,0.3212],[-87.6751,19.4976,0.0733],[-87.6745,19.495,0.3796],[-87.6789,19.4957,0.0],[-87.6825,19.4916,0.095],[-87.6836,19.4919,0.282],[-87.6758,19.5003,0.1044],[-87.6714,19.5091,0.1831],[-87.6638,19.513,0.1208],[-87.6732,19.5119,0.1436],[-87.6769,19.514,0.1308],[-87.6695,19.5137,0.0],[-87.6701,19.5169,0.3147],[-87.6756,19.5182,0.0539],[-87.6641,19.5211,0.164],[-87.6635,19.5287,-0.3032],[-87.6717,19.5288,0.0805],[-87.6761,19.5255,0.115],[-87.6723,19.533,0.1599],[-87.676,19.5345,0.1258],[-87.6875,19.5302,0.2399],[-87.6875,19.5317,0.0975],[-87.6775,19.538,0.1912],[-87.6696,19.5377,0.0],[-87.6737,19.5403,0.2288],[-87.6739,19.5437,0.2143],[-87.6719,19.5467,-0.3293],[-87.6671,19.5492,0.1055],[-87.6698,19.5507,0.0567],[-87.6776,19.5697,0.8747],[-87.6892,19.5669,0.1921],[-87.693,19.5617,0.0],[-87.6925,19.5618,0.0],[-87.6897,19.5648,0.0],[-87.6827,19.5653,0.0],[-87.6835,19.566,0.0103],[-87.6821,19.5667,0.0103],[-87.6812,19.5651,0.0],[-87.6754,19.564,0.2418],[-87.6756,19.5583,0.0],[-87.6741,19.5574,0.0944],[-87.6767,19.5557,0.0392],[-87.6765,19.5509,0.1261],[-87.6807,19.5526,0.0859],[-87.6797,19.5601,0.0],[-87.6826,19.5577,0.1255],[-87.686,19.5576,0.0],[-87.6897,19.5531,0.0696],[-87.6956,19.5528,0.1061],[-87.6991,19.55,0.0528],[-87.7021,19.5502,0.1955],[-87.7065,19.5558,0.144],[-87.7127,19.5578,0.1784],[-87.7143,19.5616,0.0],[-87.7131,19.5685,0.0508],[-87.7081,19.5712,0.0417],[-87.7078,19.5732,0.0884],[-87.7199,19.5777,0.0487],[-87.7221,19.5776,0.3875],[-87.7236,19.575,0.5775],[-87.7252,19.5769,0.6642],[-87.7274,19.5758,0.5874],[-87.7302,19.5811,0.0],[-87.7349,19.5834,0.3516],[-87.7326,19.5849,0.1335],[-87.7269,19.5828,0.1122],[-87.7269,19.5852,0.4665],[-87.7237,19.5877,0.0],[-87.7363,19.5855,0.0],[-87.7438,19.5898,0.8604],[-87.7457,19.598,1.6876],[-87.7484,19.5991,0.9304],[-87.7486,19.6029,0.7779],[-87.7444,19.6085,0.1193],[-87.7459,19.61,0.3102],[-87.7432,19.6124,0.1461],[-87.7432,19.6167,0.1023],[-87.7407,19.6179,0.0],[-87.7424,19.6191,0.2418],[-87.7405,19.6216,0.0],[-87.7422,19.6246,0.1749],[-87.7387,19.6416,0.0],[-87.7427,19.6472,0.0541],[-87.7416,19.6529,0.0919],[-87.7434,19.6567,0.2003],[-87.7423,19.6637,0.2242],[-87.7395,19.6662,0.0],[-87.74,19.6718,0.0],[-87.7383,19.6739,0.2199],[-87.7373,19.6731,0.0],[-87.7362,19.6663,0.0],[-87.7343,19.6644,0.0621],[-87.7317,19.6647,0.1944],[-87.7322,19.6691,0.0602],[-87.7273,19.6704,0.0697],[-87.7253,19.6689,0.3144],[-87.7162,19.6733,0.0991],[-87.7079,19.6745,0.0483],[-87.6979,19.68,0.0],[-87.6801,19.6822,0.1638],[-87.6567,19.6814,0.0264],[-87.6511,19.6886,0.115],[-87.6491,19.6881,0.2315],[-87.6526,19.68,0.0496],[-87.6508,19.6756,0.0072],[-87.6566,19.6604,0.1591],[-87.656,19.656,0.0],[-87.6605,19.6513,0.0],[-87.6576,19.6497,0.0],[-87.657,19.6469,0.0378],[-87.6634,19.6471,0.0],[-87.6629,19.6443,0.0],[-87.6586,19.6417,0.2894],[-87.6614,19.6409,0.0],[-87.6611,19.6403,0.0],[-87.6587,19.6402,1.8383],[-87.6595,19.6372,0.053],[-87.6672,19.6381,0.0],[-87.6625,19.6365,0.1061],[-87.6607,19.6343,0.5446],[-87.6629,19.6335,0.2208],[-87.6623,19.6325,0.2208],[-87.6654,19.6329,0.0],[-87.6634,19.6318,0.0531],[-87.6667,19.631,0.0515],[-87.6676,19.6286,0.2446],[-87.6779,19.6297,0.0736],[-87.6798,19.6281,0.0],[-87.6776,19.6291,0.0736],[-87.669,19.6275,0.2446],[-87.6724,19.6257,0.0],[-87.6819,19.6249,0.1906],[-87.6875,19.628,0.0046],[-87.689,19.6265,0.0289],[-87.6764,19.6213,0.0],[-87.6802,19.6213,0.0],[-87.6799,19.6201,0.2871],[-87.6837,19.6212,0.0],[-87.6782,19.6151,0.1572],[-87.674,19.6143,0.2249],[-87.6668,19.6165,0.0],[-87.6534,19.6486,0.0],[-87.643,19.6878,0.2254],[-87.6347,19.6984,0.1378],[-87.6293,19.7096,-0.2762],[-87.622,19.7185,0.0766],[-87.619,19.72,0.0],[-87.6087,19.7378,0.1486],[-87.6064,19.7392,0.3697],[-87.599,19.7572,0.0764],[-87.5943,19.7645,0.1175],[-87.5863,19.7721,0.9336],[-87.5873,19.7741,0.9547],[-87.5787,19.7906,0.2622],[-87.5686,19.796,0.2054],[-87.5626,19.8045,0.4965],[-87.5554,19.8086,0.0],[-87.5516,19.805,1.9348],[-87.553,19.8025,0.0],[-87.5521,19.8,0.0],[-87.5461,19.7959,0.1426],[-87.5437,19.7964,0.0479],[-87.5436,19.7984,0.1439],[-87.5469,19.8028,0.0],[-87.5455,19.806,0.0],[-87.5463,19.8089,0.0552],[-87.5418,19.8139,0.1695],[-87.5419,19.8112,0.0],[-87.5397,19.8089,0.0],[-87.5383,19.8103,-0.0084],[-87.5399,19.8077,0.0],[-87.5419,19.8089,0.0],[-87.5407,19.8069,0.0],[-87.5368,19.8069,0.0],[-87.5328,19.8093,0.0134],[-87.5338,19.8059,0.0],[-87.5361,19.8042,0.0],[-87.5353,19.8031,0.0735],[-87.534,19.8025,0.0735],[-87.53,19.8069,0.0],[-87.5262,19.8059,0.2754],[-87.5296,19.8039,0.0],[-87.5328,19.7979,0.0],[-87.5402,19.8007,0.0],[-87.5377,19.797,0.0],[-87.5345,19.7956,0.5323],[-87.5292,19.7962,0.0],[-87.5258,19.8041,0.098],[-87.5206,19.8097,0.1048],[-87.518,19.8088,-0.0489],[-87.5109,19.8108,0.0138],[-87.5029,19.8109,0.2269],[-87.5085,19.8066,0.2044],[-87.516,19.805,0.0188],[-87.5179,19.8064,0.0],[-87.5173,19.804,0.0279],[-87.514,19.8027,0.0],[-87.5175,19.8012,0.043],[-87.5242,19.8024,0.0],[-87.5255,19.798,0.0],[-87.5207,19.801,0.0],[-87.515,19.799,0.3611],[-87.5022,19.8073,0.1795],[-87.4975,19.8072,0.2716],[-87.4923,19.816,-0.0495],[-87.4908,19.8244,0.2545],[-87.4874,19.8248,0.0],[-87.4863,19.8269,0.1682],[-87.4886,19.8291,0.1677],[-87.4876,19.8331,0.0],[-87.4845,19.8373,0.8538],[-87.4798,19.84,0.0882],[-87.4778,19.8491,0.0689],[-87.4739,19.8561,0.3602],[-87.4647,19.8612,0.1775],[-87.4619,19.8611,0.1019],[-87.4595,19.8585,0.0],[-87.4596,19.8677,0.273],[-87.4553,19.8744,-0.1993],[-87.4567,19.8811,0.143],[-87.454,19.8854,0.1486],[-87.4507,19.8856,0.032],[-87.4475,19.8902,0.0],[-87.45,19.8907,0.0],[-87.4574,19.8872,-0.0457],[-87.4608,19.8807,0.079],[-87.4581,19.8736,0.0379],[-87.4611,19.871,0.0656],[-87.461,19.866,0.1437],[-87.4634,19.8651,-0.5446],[-87.4643,19.8663,0.3629],[-87.462,19.8732,-0.7535],[-87.4651,19.8716,-0.2062],[-87.4678,19.873,0.0427],[-87.4597,19.8882,0.0179],[-87.4599,19.8913,0.05],[-87.4622,19.8918,-0.071],[-87.4642,19.8947,-0.5926],[-87.4649,19.9022,0.1037],[-87.4632,19.9089,0.355],[-87.4578,19.9171,0.2276],[-87.4594,19.9177,0.0],[-87.4598,19.9155,0.0],[-87.4623,19.9158,0.1985],[-87.4658,19.923,0.0558],[-87.465,19.9283,0.0457],[-87.4735,19.9381,1.4875],[-87.472,19.9436,0.9823],[-87.4671,19.9455,1.2373],[-87.4572,19.9372,0.7024],[-87.4559,19.9299,0.216],[-87.4601,19.9269,0.1573],[-87.4577,19.9241,0.1006],[-87.4502,19.9216,0.5673],[-87.4397,19.911,0.5537],[-87.4374,19.9104,0.0],[-87.4383,19.9141,1.0767],[-87.4362,19.9121,0.1533],[-87.4365,19.9149,0.1883],[-87.4353,19.9152,0.1883],[-87.433,19.9093,0.0],[-87.4311,19.889,0.9901],[-87.4323,19.8866,1.6982],[-87.4385,19.8874,0.0],[-87.438,19.8855,0.0686],[-87.4375,19.8866,0.0686],[-87.4334,19.8861,0.2534],[-87.4419,19.8754,1.2267],[-87.4385,19.8664,5.1242],[-87.4492,19.8496,0.0],[-87.4487,19.8466,5.7458],[-87.4513,19.8381,2.2249],[-87.4546,19.8362,0.4863],[-87.4662,19.8378,0.0],[-87.4726,19.8306,0.5175],[-87.4726,19.8326,0.7325],[-87.4695,19.8353,1.4006],[-87.471,19.8366,0.3237],[-87.4738,19.8343,0.0],[-87.4765,19.8279,0.2206],[-87.4742,19.827,0.6468],[-87.4746,19.8259,0.6468],[-87.4725,19.8261,1.3795],[-87.475,19.8245,0.3771],[-87.4742,19.8215,1.008],[-87.476,19.82,0.2854],[-87.4782,19.8123,0.0],[-87.4827,19.8106,0.3869],[-87.4809,19.8089,0.4945],[-87.481,19.8034,0.73],[-87.4873,19.8009,0.7315],[-87.4853,19.7955,0.5046],[-87.4859,19.7868,0.3593],[-87.4756,19.784,1.7601],[-87.4757,19.7815,0.9196],[-87.4807,19.7812,0.0],[-87.4795,19.7791,1.0865],[-87.4747,19.7776,2.049],[-87.4696,19.7807,3.7402],[-87.4689,19.7842,0.0],[-87.4768,19.8028,0.0],[-87.4771,19.8087,0.0],[-87.4739,19.8188,3.4796],[-87.4673,19.8287,0.0],[-87.4599,19.8331,1.5823],[-87.4542,19.8336,0.3908],[-87.451,19.8358,3.0588],[-87.4465,19.8442,2.6823],[-87.4437,19.8554,6.5199],[-87.4382,19.8636,0.7865],[-87.4357,19.865,0.9438],[-87.4369,19.8707,6.5509],[-87.4301,19.886,0.0],[-87.4328,19.9108,1.0741],[-87.4375,19.9298,1.7172],[-87.4407,19.9307,0.0],[-87.449,19.9293,2.1854],[-87.4556,19.9386,3.3181],[-87.4579,19.9478,0.7294],[-87.4637,19.9544,5.0911],[-87.4684,19.9801,1.76],[-87.4677,19.9827,3.1055],[-87.4641,19.9858,2.6033],[-87.4649,19.994,0.1389],[-87.4694,19.992,1.3487],[-87.4727,19.9932,0.4267],[-87.4763,19.999,2.0587],[-87.4774,20.0049,0.0],[-87.4806,20.0073,0.8698],[-87.4837,20.0015,-0.377],[-87.4822,19.9993,-1.5],[-87.4835,19.9958,-0.9576],[-87.4778,19.9982,-0.5263],[-87.4731,19.9927,0.4267],[-87.468,19.9898,-0.1646],[-87.4721,19.9845,-1.5],[-87.468,19.9663,1.2323],[-87.469,19.957,3.7496],[-87.4731,19.9572,-1.5],[-87.476,19.955,0.4858],[-87.4852,19.9566,-0.5512],[-87.4894,19.9599,0.0258],[-87.4897,19.9732,-0.44],[-87.4866,19.9757,-0.1946],[-87.4844,19.9754,-1.5],[-87.4838,19.9818,-1.5],[-87.4798,19.9848,-0.6376],[-87.4719,19.9856,1.577],[-87.4732,19.9881,-0.8976],[-87.4788,19.9888,-0.8561],[-87.4804,19.9914,0.2759],[-87.4833,19.9915,0.973],[-87.4841,19.994,-1.0448],[-87.4887,19.996,0.24],[-87.4882,19.9988,0.1565],[-87.4907,20.0033,0.6502],[-87.4916,20.0101,-1.5],[-87.4959,20.011,-1.5],[-87.4965,20.0217,-0.0181],[-87.4912,20.0293,-1.2081],[-87.4979,20.0266,-0.4989],[-87.5017,20.0316,-0.5913],[-87.5001,20.0354,0.0619],[-87.4968,20.036,-0.9841],[-87.4921,20.0322,-0.939],[-87.4912,20.033,-0.939],[-87.4948,20.0372,0.1701],[-87.4938,20.0384,-1.5],[-87.505,20.0449,-0.1055],[-87.5083,20.0511,-0.5475],[-87.5088,20.0559,-0.0933],[-87.5139,20.0657,-0.117],[-87.5111,20.0678,0.0441],[-87.5144,20.0755,-0.022],[-87.5137,20.0808,-0.0849],[-87.5229,20.0942,-0.3636],[-87.5228,20.1008,-0.2],[-87.5189,20.1025,-0.1886],[-87.5178,20.1015,-1.1449],[-87.5171,20.0909,-0.0881],[-87.5138,20.0903,-0.0684],[-87.5112,20.0934,-0.7495],[-87.5154,20.0953,-0.1815],[-87.5154,20.1009,0.0354],[-87.5138,20.102,-1.1864],[-87.5156,20.104,-0.1145],[-87.5124,20.1046,-1.5],[-87.5155,20.1063,-1.1322],[-87.515,20.108,-1.713],[-87.5125,20.1077,-1.5],[-87.5121,20.1095,-1.2181],[-87.5072,20.1113,-1.202],[-87.4964,20.1207,-0.0493],[-87.4915,20.1196,-0.9013],[-87.4895,20.1215,-0.8051],[-87.49,20.1172,-0.614],[-87.4871,20.1158,-0.628],[-87.4819,20.1198,-0.8198],[-87.4791,20.1168,-1.3157],[-87.481,20.1098,-1.1229],[-87.4855,20.1092,-1.5],[-87.4844,20.1079,-1.0021],[-87.4862,20.1053,-1.5],[-87.4814,20.1046,-1.2555],[-87.4807,20.1063,-0.2842],[-87.4777,20.1069,-0.9033],[-87.4753,20.104,0.6839],[-87.4761,20.0924,-0.1049],[-87.4808,20.0749,-1.5],[-87.4797,20.0704,0.721],[-87.4835,20.0595,1.4029],[-87.4842,20.0434,-1.5],[-87.4814,20.0386,-0.0312],[-87.4819,20.0362,-0.9678],[-87.4789,20.0304,-1.5],[-87.4777,20.0198,2.3214],[-87.4819,20.015,-1.5],[-87.4794,20.0127,-0.8969],[-87.4798,20.0111,0.5204],[-87.4854,20.0086,1.4691],[-87.4852,20.0059,0.7269],[-87.4821,20.0078,2.2622],[-87.478,20.0065,1.7106],[-87.476,20.0203,2.3214],[-87.4778,20.0366,3.5004],[-87.4797,20.0417,2.9331],[-87.4773,20.0579,0.0],[-87.4782,20.0787,-1.5],[-87.4736,20.1008,1.0755],[-87.4529,20.1641,0.0],[-87.4494,20.169,3.1695],[-87.4396,20.1926,1.0187],[-87.4317,20.2039,2.0502],[-87.4307,20.2097,8.6648],[-87.4235,20.2262,2.0868],[-87.3899,20.2673,1.9551],[-87.3863,20.2695,2.5623],[-87.3835,20.2677,0.8109],[-87.382,20.2684,0.2949],[-87.3787,20.2746,0.1168],[-87.3814,20.2779,1.3936],[-87.3794,20.2832,2.4423],[-87.376,20.2861,2.4418],[-87.3712,20.2846,0.7285],[-87.3696,20.2861,1.5141],[-87.3726,20.2862,1.0192],[-87.3747,20.2886,1.1137],[-87.3712,20.2956,3.773],[-87.3684,20.2962,3.1019],[-87.3647,20.2943,0.8931],[-87.3623,20.298,0.2243],[-87.356,20.3122,0.0],[-87.356,20.3141,0.2978],[-87.3602,20.3175,3.4875],[-87.3595,20.3196,4.3835],[-87.3546,20.3152,0.2978],[-87.3519,20.3215,0.2296],[-87.3542,20.3256,0.0],[-87.354,20.3298,0.0],[-87.3486,20.3339,4.4516],[-87.3474,20.3393,1.5018],[-87.3412,20.3435,1.6074],[-87.339,20.3479,3.4901],[-87.3399,20.352,1.7403],[-87.3364,20.3534,0.4937],[-87.3381,20.3568,3.8448],[-87.3336,20.3572,1.3075],[-87.3315,20.3614,1.0761],[-87.3316,20.3668,0.4981],[-87.3281,20.3726,4.0193],[-87.3228,20.3767,1.1589],[-87.3242,20.3837,2.0732],[-87.3227,20.387,1.7668],[-87.3147,20.3954,0.0],[-87.3117,20.3952,0.0],[-87.31,20.3967,0.3441],[-87.308,20.4004,1.1428],[-87.3088,20.4054,0.0],[-87.3031,20.4079,4.0265],[-87.3032,20.411,1.1788],[-87.3052,20.411,2.3918],[-87.305,20.4121,3.8061],[-87.3041,20.4133,0.5417],[-87.3017,20.4112,0.1939],[-87.3019,20.4141,0.1714],[-87.2981,20.416,0.8405],[-87.2923,20.4251,0.0],[-87.2918,20.4303,1.2037],[-87.2884,20.431,0.0],[-87.2891,20.4334,4.5103],[-87.2854,20.4352,0.0],[-87.2839,20.4382,0.0],[-87.2854,20.4398,0.7631],[-87.2846,20.4431,0.8796],[-87.2777,20.4505,2.1229],[-87.2657,20.459,0.4923],[-87.2529,20.4775,1.3967],[-87.2502,20.4793,2.1816],[-87.2488,20.4781,0.842],[-87.245,20.4797,0.0],[-87.247,20.4831,0.4908],[-87.2463,20.4849,0.7742],[-87.2389,20.4892,2.259],[-87.2357,20.4894,5.92],[-87.2344,20.4945,1.1335],[-87.2329,20.4929,1.0878],[-87.2313,20.4974,3.1928],[-87.2277,20.499,3.7113],[-87.2246,20.4985,2.0341],[-87.2263,20.5008,3.9108],[-87.2237,20.5018,4.1608],[-87.2237,20.4997,4.7146],[-87.2222,20.5008,5.2497],[-87.2248,20.4976,0.0],[-87.2236,20.497,0.0],[-87.2192,20.5036,1.6747],[-87.2174,20.5031,0.6943],[-87.1936,20.5189,0.0595],[-87.1929,20.5219,0.0],[-87.1889,20.5227,0.0],[-87.1877,20.5278,1.3239],[-87.1838,20.5313,1.0084],[-87.1762,20.5319,0.0],[-87.1691,20.5359,3.1019],[-87.1464,20.556,0.5254],[-87.1428,20.5624,1.06],[-87.1379,20.5649,0.0],[-87.1322,20.5653,0.0],[-87.1276,20.5695,0.0],[-87.1266,20.5712,0.2801],[-87.1295,20.5729,3.4644],[-87.1284,20.5744,8.2249],[-87.1252,20.5744,1.2002],[-87.1243,20.573,0.3488],[-87.1216,20.5766,0.6874],[-87.101,20.5909,0.0],[-87.0791,20.6142,3.5416],[-87.0717,20.6252,0.0],[-87.0671,20.6276,3.8926],[-87.0593,20.6362,2.1692],[-87.0533,20.647,0.0],[-87.0474,20.6479,0.0],[-87.0452,20.6523,1.5933],[-87.0333,20.661,3.9466],[-87.0218,20.6745,0.0],[-87.0184,20.6907,0.463],[-87.0102,20.7024,0.7999],[-87.0058,20.7052,0.2053],[-87.0027,20.7052,0.0],[-86.9977,20.7107,0.6648],[-86.9627,20.7301,0.0],[-86.9652,20.7369,0.0],[-86.9642,20.7478,1.9822],[-86.9614,20.7495,2.0819],[-86.9571,20.759,0.9164],[-86.9536,20.7607,2.2447],[-86.9464,20.7683,0.0],[-86.9405,20.7823,2.0604],[-86.9349,20.7874,3.4139],[-86.9202,20.808,1.5556],[-86.9101,20.8125,2.6127],[-86.9047,20.8124,0.5337],[-86.8934,20.8286,2.0148],[-86.8743,20.8474,1.3254],[-86.8655,20.8719,2.1822],[-86.8641,20.8819,0.0],[-86.8605,20.8912,3.0853],[-86.8469,20.904,0.0],[-86.8442,20.9202,0.8368],[-86.8381,20.9287,1.5001],[-86.8368,20.9456,0.0],[-86.8342,20.9572,0.7943],[-86.8299,20.9669,2.0644],[-86.8287,20.9796,0.0],[-86.8218,21.0018,3.1549],[-86.813,21.0231,0.0],[-86.8091,21.0301,1.8765],[-86.7995,21.0359,2.6627],[-86.793,21.0351,0.3839],[-86.7868,21.03,0.0],[-86.7788,21.0323,2.7011],[-86.7774,21.0367,1.2092],[-86.7793,21.0362,0.6014],[-86.7814,21.0391,1.0968],[-86.7819,21.0501,0.0],[-86.7707,21.0851,11.2867],[-86.7611,21.1085,4.1744],[-86.7525,21.1245,1.1817],[-86.7459,21.1332,3.9191],[-86.7406,21.1353,0.0],[-86.7407,21.1379,0.0],[-86.7435,21.1363,6.1139],[-86.7462,21.1368,3.6317],[-86.7499,21.1397,3.0361],[-86.756,21.1367,2.0682],[-86.7621,21.1366,3.4391],[-86.7799,21.146,0.0],[-86.7881,21.1435,1.4781],[-86.7888,21.1472,0.4848],[-86.7973,21.1542,1.8025],[-86.8013,21.1603,0.4735],[-86.8006,21.1575,0.0],[-86.8023,21.1588,0.4735],[-86.804,21.1642,1.4149],[-86.8032,21.1669,2.6334],[-86.8071,21.1836,3.7857],[-86.804,21.2078,3.3034],[-86.8008,21.2139,1.1826],[-86.8015,21.2389,0.0],[-86.8122,21.2645,0.0],[-86.8156,21.275,2.5722],[-86.8166,21.2849,0.5022],[-86.8136,21.3,3.7778],[-86.8073,21.3134,1.7901],[-86.7965,21.3299,0.0],[-86.7914,21.3422,0.0],[-86.7902,21.348,0.0],[-86.7914,21.3764,0.6757],[-86.7902,21.3842,0.0],[-86.7965,21.4063,0.843],[-86.7977,21.4072,0.249],[-86.7999,21.4023,0.5693],[-86.7963,21.396,1.043],[-86.7969,21.3931,0.0],[-86.7944,21.3882,1.6214],[-86.7968,21.3876,0.0272],[-86.7951,21.3859,2.0898],[-86.7999,21.3894,0.2933],[-86.8019,21.3929,0.0],[-86.8054,21.4075,1.5913],[-86.8091,21.4122,0.0],[-86.815,21.4138,0.0],[-86.8226,21.4199,0.6117],[-86.8243,21.4178,0.486],[-86.8208,21.414,1.0619],[-86.8267,21.4147,1.3015],[-86.8137,21.4097,0.0],[-86.815,21.4082,0.0],[-86.8121,21.4075,2.0882],[-86.8131,21.4065,0.0],[-86.8099,21.4024,0.9525],[-86.8132,21.4035,1.4614],[-86.8212,21.4109,0.4184],[-86.8253,21.4109,0.4833],[-86.8202,21.4091,0.4823],[-86.8226,21.4056,1.315],[-86.8217,21.4048,0.2006],[-86.811,21.4006,0.5153],[-86.8075,21.395,1.794],[-86.8107,21.3967,1.2936],[-86.813,21.3934,1.0576],[-86.8082,21.3907,2.093],[-86.8023,21.3766,0.3761],[-86.7973,21.3751,0.0],[-86.797,21.3762,0.8498],[-86.795,21.3742,0.0],[-86.7937,21.3694,2.3045],[-86.7952,21.3643,0.0],[-86.7944,21.3489,1.962],[-86.7922,21.3421,0.0],[-86.7968,21.3307,0.6552],[-86.8,21.3274,1.3887],[-86.8088,21.3214,4.1168],[-86.8136,21.3209,0.0],[-86.8202,21.3169,3.0836],[-86.8218,21.3144,0.0],[-86.8223,21.3053,1.3835],[-86.8273,21.2974,1.3983],[-86.8255,21.2977,1.3983],[-86.8247,21.2898,0.4676],[-86.823,21.29,2.3106],[-86.8195,21.2829,2.8271],[-86.8307,21.2769,2.1917],[-86.8304,21.2688,0.0],[-86.8279,21.267,3.2339],[-86.8313,21.2618,1.0284],[-86.8301,21.2574,0.0],[-86.8311,21.2549,0.0],[-86.83,21.2558,0.4874],[-86.824,21.2528,1.3636],[-86.8202,21.2458,1.7835],[-86.8227,21.2456,0.0],[-86.8235,21.244,0.5592],[-86.8312,21.248,1.9772],[-86.8341,21.2466,1.784],[-86.8375,21.2473,0.0],[-86.8432,21.2517,1.532],[-86.8447,21.2504,1.5361],[-86.8496,21.2517,2.0108],[-86.8509,21.2539,0.6144],[-86.8567,21.2722,0.5539],[-86.8545,21.2757,1.0915],[-86.8625,21.287,0.0187],[-86.8616,21.2922,1.3914],[-86.8598,21.2942,1.053],[-86.8638,21.299,0.0],[-86.865,21.3042,0.2092],[-86.865,21.3147,-0.1928],[-86.8622,21.3183,0.0],[-86.8627,21.322,0.2788],[-86.868,21.3067,0.125],[-86.8666,21.2993,0.4879],[-86.8641,21.2985,0.4423],[-86.8632,21.2964,0.0505],[-86.866,21.294,0.4076],[-86.866,21.292,-0.135],[-86.864,21.2862,0.0187],[-86.8592,21.2817,-0.1293],[-86.8579,21.277,0.0807],[-86.8597,21.2753,0.4437],[-86.8573,21.2707,0.1007],[-86.857,21.264,-0.0156],[-86.8578,21.2607,0.0264],[-86.86,21.2607,0.6069],[-86.8604,21.2662,0.0574],[-86.8643,21.2762,-0.1544],[-86.8639,21.2831,-0.0213],[-86.8676,21.2885,4.8134],[-86.8701,21.3072,-0.1159],[-86.8676,21.3166,0.5445],[-86.8694,21.3165,0.4901],[-86.8695,21.3182,0.0527],[-86.8656,21.3279,0.7834],[-86.8755,21.3454,1.2024],[-86.8782,21.3576,0.0],[-86.8799,21.3594,0.3941],[-86.8806,21.3681,0.0],[-86.8862,21.3859,0.5781],[-86.8851,21.3916,0.0],[-86.8877,21.3959,0.2636],[-86.8865,21.3993,0.0],[-86.8875,21.4047,0.3436],[-86.8931,21.4111,0.6393],[-86.898,21.4108,1.1411],[-86.9003,21.4182,0.9506],[-86.9039,21.4202,0.5825],[-86.908,21.4266,-0.0675],[-86.909,21.4328,1.1821],[-86.9125,21.4367,1.0888],[-86.9141,21.4357,0.912],[-86.9185,21.4385,0.3794],[-86.9224,21.4472,0.0],[-86.926,21.4495,0.0],[-86.9275,21.4557,0.8514],[-86.932,21.4576,0.2295],[-86.9362,21.4694,0.3668],[-86.9433,21.4759,-0.2695],[-86.9451,21.4805,0.4817],[-86.9475,21.481,0.1205],[-86.9494,21.4848,0.6492],[-86.9547,21.4891,1.095],[-86.954,21.4909,0.1731],[-86.9525,21.4898,0.3968],[-86.9492,21.4915,0.0577],[-86.9483,21.4977,0.5313],[-86.951,21.5021,1.0571],[-86.9539,21.5153,0.3455],[-86.956,21.5155,0.6495],[-86.9599,21.5237,0.1785],[-86.9628,21.5246,2.0292],[-86.9658,21.5224,2.8863],[-86.9634,21.528,0.4712],[-86.974,21.5399,-0.213],[-86.9765,21.5478,0.3353],[-86.9776,21.5486,0.3353],[-86.9817,21.5433,2.8275],[-86.9783,21.541,0.1534],[-86.9769,21.5423,-0.0398],[-86.9782,21.5438,0.0921],[-86.9775,21.5469,0.4597],[-86.9726,21.5358,-0.1815],[-86.9658,21.5295,0.4508],[-86.9701,21.5309,0.0],[-86.9696,21.5291,0.0],[-86.9736,21.525,0.7409],[-86.9718,21.5235,2.3647],[-86.9687,21.5245,2.9521],[-86.9687,21.5225,3.6181],[-86.974,21.5219,1.7999],[-86.9764,21.5201,0.354],[-86.9719,21.5158,0.3076],[-86.9758,21.5149,0.0],[-86.9748,21.5103,6.2566],[-86.9827,21.5189,0.4726],[-86.9826,21.5249,0.2635],[-86.9857,21.5251,0.0748],[-86.987799999999993,21.5234,0.3848],[-87.0028,21.5385,7.1866],[-87.0008,21.5386,0.4624],[-87.0027,21.5413,0.1786],[-87.0016,21.5454,0.0116],[-87.0033,21.5434,0.1484],[-87.0045,21.5447,0.0299],[-87.0062,21.5438,0.0299],[-87.0091,21.5474,-0.1362],[-87.0085,21.5502,-0.483],[-87.0068,21.5503,-0.483],[-87.0043,21.5465,0.0],[-87.0058,21.5516,0.2185],[-87.0119,21.5502,-0.1493],[-87.0148,21.5533,-0.2781],[-87.0157,21.5508,0.3133],[-87.0222,21.5542,0.0742],[-87.0187,21.5581,-0.3547],[-87.0243,21.557,0.3059],[-87.0245,21.5554,7.1694],[-87.0335,21.56,2.3818],[-87.0433,21.5615,-0.2481],[-87.0392,21.5626,0.0],[-87.0418,21.565,0.3487],[-87.0455,21.5626,0.285],[-87.0441,21.5604,0.7441],[-87.0472,21.5596,0.0583],[-87.0486,21.563,-0.0909],[-87.0533,21.5672,0.0],[-87.055,21.566,0.1497],[-87.0624,21.5671,-0.4114],[-87.065,21.5702,0.1049],[-87.0787,21.5784,3.3184],[-87.0772,21.5832,2.1214],[-87.0825,21.5846,0.5986],[-87.0855,21.5893,0.3088],[-87.094,21.5883,0.0474],[-87.0938,21.584,0.0794],[-87.0951,21.5832,0.385],[-87.102,21.584,0.0],[-87.1065,21.5734,1.2113],[-87.1105,21.5704,2.7854],[-87.1122,21.5719,0.0],[-87.1118,21.569,0.0],[-87.1286,21.5541,0.0],[-87.1251,21.5512,0.3323],[-87.1152,21.551,3.1305],[-87.1036,21.5462,0.0528],[-87.1022,21.5391,0.2575],[-87.1007,21.5379,0.2094],[-87.1014,21.5356,0.0],[-87.0988,21.5323,0.4253],[-87.0995,21.5276,0.3543],[-87.1016,21.526,0.0],[-87.1052,21.5246,0.8764],[-87.1081,21.5255,0.0],[-87.1076,21.5195,0.2363],[-87.11,21.519,0.0],[-87.1093,21.5103,3.5406],[-87.1064,21.5053,0.7989],[-87.109,21.5059,0.0],[-87.1074,21.5035,0.1514],[-87.1082,21.4986,0.2344],[-87.1102,21.4982,0.0],[-87.1085,21.4955,0.1304],[-87.1105,21.4919,0.0],[-87.1092,21.4905,0.8318],[-87.1095,21.4856,0.0],[-87.111,21.4836,1.3295],[-87.1135,21.4835,0.6913],[-87.1107,21.4784,0.0352],[-87.1113,21.4711,0.7902],[-87.1145,21.4699,1.1514],[-87.1155,21.4671,0.5934],[-87.119,21.4682,0.4929],[-87.1189,21.4704,0.0],[-87.1217,21.4695,0.4558],[-87.1237,21.4644,0.3284],[-87.1323,21.4596,0.3084],[-87.1419,21.4604,1.0452],[-87.1493,21.4648,0.764],[-87.1574,21.4634,-0.0236],[-87.165,21.4533,0.0],[-87.1657,21.45,0.6706],[-87.1766,21.4441,0.1694],[-87.1857,21.4428,0.0],[-87.1858,21.4395,0.2097],[-87.1784,21.4368,0.0],[-87.1725,21.438,0.9523],[-87.1733,21.436,0.1562],[-87.1704,21.4334,3.5071],[-87.1685,21.4211,1.5541],[-87.1728,21.426,0.234],[-87.1714,21.43,0.3396],[-87.1741,21.4322,1.2751],[-87.1745,21.4359,0.1562],[-87.1829,21.4377,0.1993],[-87.1848,21.4368,0.5552],[-87.1853,21.4334,1.2012],[-87.1885,21.4397,0.0],[-87.2041,21.4446,1.0495],[-87.2141,21.4439,0.0],[-87.2213,21.4382,0.272],[-87.2225,21.4254,1.0494],[-87.2196,21.4228,4.0589],[-87.2176,21.4238,1.4714],[-87.2171,21.4219,0.6007],[-87.2191,21.4174,2.2456],[-87.2218,21.4159,2.421],[-87.2251,21.4194,0.0873],[-87.2241,21.4221,0.0],[-87.2263,21.4271,0.6862],[-87.2254,21.4284,0.6862],[-87.2274,21.4301,0.1883],[-87.2287,21.4304,0.1883],[-87.2294,21.4225,0.4262],[-87.2314,21.4188,0.3924],[-87.2345,21.419,0.3691],[-87.2381,21.4218,0.4307],[-87.2385,21.4248,0.0508],[-87.2404,21.4229,0.2569],[-87.2417,21.4257,0.0],[-87.2443,21.4255,0.057],[-87.2499,21.4338,0.0],[-87.2563,21.4336,-0.3705],[-87.2563,21.4367,0.0],[-87.2578,21.4345,0.1151],[-87.2579,21.4372,0.0],[-87.2604,21.4377,0.1037],[-87.2611,21.4337,0.2404],[-87.2579,21.4333,-0.7382],[-87.2511,21.4263,-0.3451],[-87.2628,21.433,1.5697],[-87.2621,21.4356,0.0],[-87.2646,21.4355,0.0428],[-87.264,21.4385,0.7979],[-87.2657,21.4391,0.0],[-87.2655,21.4359,0.0428],[-87.2695,21.4344,0.5075],[-87.2715,21.437,-0.1314],[-87.2699,21.4403,0.0],[-87.2732,21.4409,-0.0378],[-87.2735,21.4431,0.0],[-87.2738,21.4411,-0.0378],[-87.2713,21.4319,1.7482],[-87.2777,21.4347,0.5311],[-87.2822,21.4344,0.6474],[-87.2923,21.4393,0.2259],[-87.2934,21.4374,-0.0529],[-87.2922,21.4376,0.3166],[-87.2921,21.4353,-0.3806],[-87.2943,21.4342,0.3889],[-87.3007,21.4349,0.7979],[-87.3153,21.441,0.9815],[-87.3213,21.4349,-0.0687],[-87.3277,21.4323,0.1107],[-87.3334,21.4332,0.305],[-87.3403,21.4315,0.2535],[-87.3471,21.4351,0.4354],[-87.3554,21.4468,1.1862],[-87.3694,21.4488,0.0],[-87.3793,21.4547,0.9492],[-87.4025,21.4569,3.3105],[-87.4303,21.468,0.82],[-87.4359,21.4684,7.1652],[-87.4429,21.4649,3.8454],[-87.453,21.4633,2.9743],[-87.4638,21.4564,2.0685],[-87.4709,21.4562,1.3567],[-87.4771,21.4579,2.2609],[-87.4839,21.4618,1.8272],[-87.4866,21.4653,1.3625],[-87.4857,21.4812,0.0],[-87.488,21.4843,0.0],[-87.5187,21.4888,0.0],[-87.5349,21.4894,0.3771],[-87.5331,20.9996,19.1518],[-87.7443,20.6538,29.6721],[-87.9627,20.4467,25.6716],[-87.9951,20.4473,27.3845],[-87.993,20.418,24.6157],[-88.034,20.3789,26.6006],[-88.0475,20.3788,27.6996],[-88.0473,20.3663,30.1125],[-88.1365,20.2814,34.8328],[-88.1672,20.2854,29.1762],[-88.2327,20.287,35.3339],[-88.2327,20.2902,31.0203],[-88.2646,20.2903,30.3063],[-88.2668,20.2691,32.0357],[-88.273,20.2699,36.3183],[-88.3088,20.2535,31.696],[-88.3519,20.259,35.0475],[-88.3764,20.257,32.5233],[-88.401,20.2518,36.8349],[-88.4091,20.2521,28.1081],[-88.4029,20.2395,31.887],[-88.4091,20.2397,31.0552],[-88.4151,20.233,34.3083],[-88.4434,20.2381,39.8424],[-88.5199,20.1923,35.6104],[-88.5023,20.1901,33.7856],[-88.5076,20.1434,37.6474],[-88.5767,20.1481,30.3977],[-88.5782,20.1392,34.3627],[-88.5877,20.1405,32.512],[-88.588,20.1315,32.4416],[-88.6164,20.1345,32.3073],[-88.6208,20.1318,32.2119],[-88.6186,20.1278,31.2421],[-88.6192,20.1172,35.1339],[-88.6399,20.1204,33.8881],[-88.6906,20.0899,38.4],[-88.6908,20.077,37.8604],[-88.6849,20.0774,32.8285],[-88.6918,20.0292,31.6136],[-88.6948,20.03,32.7035],[-88.7002,20.0104,34.775],[-88.7125,20.0123,34.4628],[-88.713,20.0092,35.1144],[-88.7184,20.0103,31.217],[-88.7221,20.0051,32.7247],[-88.7238,20.0055,34.5889],[-88.7228,20.0132,32.4859],[-88.736,20.0176,37.8742],[-88.7358,20.016,38.1554],[-88.7323,20.0141,31.3643],[-88.7362,20.0097,38.817],[-88.7426,20.0086,46.7941],[-88.7425,20.0151,40.4602],[-88.7578,20.0139,40.8006],[-88.7577,20.0122,41.0689],[-88.7715,20.0135,46.7397],[-88.7712,20.0077,40.0675],[-88.7835,20.0082,42.2342],[-88.7844,19.9952,33.3251],[-88.7892,19.9956,36.6498],[-88.7905,19.9921,35.3967],[-88.7908,19.972,34.7393],[-88.798,19.9749,33.9534],[-88.7984,19.9525,25.7561],[-88.8056,19.9538,29.1531],[-88.806,19.9446,24.8235],[-88.8102,19.9449,26.826],[-88.8114,19.9352,38.2099],[-88.8089,19.9341,36.7308],[-88.8097,19.926,38.291],[-88.8126,19.9256,38.4789],[-88.8133,19.9183,36.4712],[-88.8161,19.9155,34.4383],[-88.8165,19.9045,34.736],[-88.8244,19.9048,33.9202],[-88.8232,19.9081,30.7169],[-88.8273,19.9109,25.2413],[-88.8294,19.906,33.2423],[-88.8274,19.9045,33.3125],[-88.8298,19.8986,26.757],[-88.8204,19.8905,31.7864],[-88.8259,19.8799,32.8761],[-88.8321,19.8816,27.0208],[-88.833,19.8782,29.8044],[-88.8802,19.8781,32.2367],[-88.8791,19.8624,34.5648],[-88.8906,19.861,34.0983],[-88.8904,19.8585,32.4575],[-88.9005,19.8611,31.9469],[-88.8976,19.8369,30.4613],[-88.8997,19.8333,31.9203],[-88.9035,19.831,29.9728],[-88.9082,19.8207,43.2761],[-88.9111,19.8009,35.7691],[-88.9203,19.804,58.7195],[-88.9295,19.7909,59.5142],[-88.9454,19.7919,48.1288],[-88.9439,19.8134,53.5592],[-88.9581,19.8105,57.3693],[-88.9564,19.8168,48.2106],[-88.9745,19.8181,61.9186],[-88.9761,19.8108,57.9853],[-88.9844,19.8052,60.5651],[-88.9844,19.7982,54.2566],[-88.9995,19.798,52.1501],[-89.0041,19.772,69.2992],[-89.0252,19.7767,62.5247],[-89.0488,19.7215,59.9457],[-89.017,19.7264,82.9393],[-89.0154,19.723,77.2821],[-88.9947,19.7274,73.7806],[-88.9975,19.7049,52.9019],[-89.0305,19.7088,61.934],[-89.0362,19.678,83.6047],[-89.076,19.6854,81.8075],[-89.0742,19.6942,80.6376],[-89.1234,19.7034,83.1554],[-89.1336,19.6146,92.622],[-89.1084,19.6123,87.8384],[-89.109,19.5823,87.3991],[-89.1495,19.5812,104.9311],[-89.1449,19.6374,99.4563],[-89.1892,19.644,111.4066],[-89.1902,19.6333,114.5935],[-89.2229,19.6367,117.3928],[-89.2196,19.608,117.5699],[-89.2966,19.5512,132.9881],[-89.1467,19.4239,121.9539],[-89.147,19.1332,97.7076],[-89.1358,19.1324,99.0896],[-89.1471,18.995,83.8693],[-89.1486,18.8773,106.5029],[-89.1444,18.7559,138.3148],[-89.1557,18.7531,142.2982],[-89.1513,18.724,183.5213],[-89.1496,18.5496,191.5356],[-89.1502,18.4511,148.2294],[-89.1255,18.4506,154.5418],[-89.1212,18.3858,164.4241],[-89.1382,18.3855,167.306],[-89.1324,18.2934,152.5482],[-89.1517,18.2936,160.2365],[-89.1581,18.2213,207.5051],[-89.1429,18.2242,159.3139],[-89.1431,18.1458,155.453],[-89.2002,18.1446,176.407],[-89.2025,18.0833,159.298],[-89.1444,18.0824,188.4967],[-89.1448,18.0577,79.6233],[-89.1634,18.0579,154.7532],[-89.163,18.0185,63.6179],[-89.2067,18.0211,174.7384],[-89.2074,17.9926,96.7152],[-89.2059,17.9541,72.9199],[-89.1522,17.9536,60.5993],[-89.152,17.9404,62.226],[-89.1463,17.9458,61.9007],[-89.145,17.9511,62.2554],[-89.1362,17.9554,66.2096],[-89.133,17.9664,56.2273],[-89.1341,17.9708,54.2976],[-89.1327,17.972,54.2976],[-89.1242,17.9753,54.6184],[-89.1224,17.9722,55.3592],[-89.1199,17.972,52.6226],[-89.1167,17.9689,57.649],[-89.1144,17.9704,56.557],[-89.1116,17.9698,57.1199],[-89.102,17.981,54.6286],[-89.0961,17.9819,50.3166],[-89.0948,17.9844,52.3893],[-89.0851,17.9904,54.5958],[-89.0764,17.9938,54.9452],[-89.0586,17.9903,51.7992],[-89.0555,17.9926,46.7621],[-89.0523,18.0002,47.0074],[-89.0492,17.9992,48.3071],[-89.0436,18.0036,47.0629],[-89.0375,18.0051,50.123],[-89.0359,18.0023,48.7054],[-89.0285,18.0026,49.605],[-89.0286,17.9973,50.4661],[-89.0216,17.9927,49.1307],[-89.0096,17.988,45.5063],[-89.007,17.9895,43.606],[-89.0006,17.9844,41.2843],[-88.9989,17.9799,40.7561],[-89.0034,17.9755,43.74],[-89.0034,17.9733,38.5775],[-88.9982,17.9717,42.2062],[-88.9993,17.9676,43.03],[-88.993,17.9597,54.7325],[-88.9936,17.9559,43.5201],[-88.9883,17.9484,36.7501],[-88.9863,17.9478,36.952],[-88.9856,17.9557,40.8578],[-88.9833,17.958,43.5802],[-88.9798,17.9563,41.4894],[-88.9739,17.9562,38.7896],[-88.973,17.9534,37.3643],[-88.9704,17.9525,39.2318],[-88.9661,17.9543,48.5388],[-88.9599,17.9518,55.0132],[-88.9569,17.9567,43.8053],[-88.955,17.9568,47.3742],[-88.9538,17.9546,61.7133],[-88.9476,17.9589,58.0928],[-88.9448,17.9591,82.0346],[-88.9437,17.9574,53.8098],[-88.9451,17.9537,104.2229],[-88.9443,17.9507,46.3597],[-88.9365,17.9497,88.6958],[-88.9358,17.9474,61.5297],[-88.9385,17.9424,53.4458],[-88.938,17.9406,45.6778],[-88.936,17.9399,58.1936],[-88.9329,17.9433,46.5115],[-88.9297,17.9406,69.0041],[-88.9286,17.9372,40.5754],[-88.9297,17.9343,65.7588],[-88.9333,17.9332,38.4893],[-88.9336,17.9312,40.3696],[-88.9269,17.9297,49.3287],[-88.9206,17.9186,38.4673],[-88.9207,17.9162,58.9696],[-88.9137,17.9158,109.9591],[-88.9123,17.9135,52.6511],[-88.9137,17.9106,37.8266],[-88.9099,17.912,71.1552],[-88.9093,17.9143,61.5429],[-88.9066,17.9159,67.9612],[-88.9018,17.9095,60.6477],[-88.8963,17.9061,27.569],[-88.8854,17.9076,8.514],[-88.8868,17.904,8.8575],[-88.8852,17.9007,6.3697],[-88.8823,17.9002,6.9781],[-88.883,17.8966,7.0406],[-88.8776,17.8944,5.1367],[-88.8751,17.8961,8.378],[-88.8722,17.8945,6.3131],[-88.8666,17.8962,7.2753],[-88.8635,17.8943,7.5316],[-88.8598,17.8945,7.6348],[-88.8581,17.8993,7.0158],[-88.8604,17.9008,7.669],[-88.8555,17.9037,5.5467],[-88.8543,17.9076,8.179],[-88.8565,17.9185,49.6195],[-88.855,17.9199,6.5768],[-88.8594,17.9252,9.0422],[-88.8556,17.9262,7.8866],[-88.8522,17.9335,5.5015],[-88.8474,17.937,3.9233],[-88.8439,17.9375,6.1807],[-88.8443,17.9403,3.9686],[-88.8339,17.9418,6.7442],[-88.8338,17.9452,10.5091],[-88.8301,17.9464,6.5435],[-88.8305,17.9488,29.0227],[-88.8259,17.9467,5.7101],[-88.8213,17.9494,12.6052],[-88.8152,17.9503,7.1313],[-88.8051,17.9611,5.4656],[-88.8066,17.9629,1.0],[-88.8042,17.9663,6.8835],[-88.8004,17.968,4.7762],[-88.7986,17.971,7.3525],[-88.7962,17.9714,7.4868],[-88.796,17.9743,8.5486],[-88.793,17.974,8.1941],[-88.7925,17.9716,6.8291],[-88.7906,17.9744,4.7321],[-88.7917,17.977,6.0854],[-88.789,17.9809,8.537],[-88.7872,17.9814,6.6186],[-88.7864,17.979,3.5912],[-88.7846,17.9797,3.5912],[-88.7847,17.9829,8.3584],[-88.7816,17.9848,6.7591],[-88.7851,17.9852,8.9559],[-88.7833,17.9882,6.0441],[-88.7859,17.9876,7.5419],[-88.7859,17.9899,5.0156],[-88.7877,17.9896,8.0928],[-88.7885,17.993,6.3224],[-88.7844,17.9959,7.5335],[-88.7831,18.0002,6.4275],[-88.7773,18.0028,5.6933],[-88.7777,18.0046,13.2523],[-88.7698,18.0068,2.7736],[-88.773,18.0075,6.8916],[-88.7731,18.0099,4.2979],[-88.7728,18.0121,22.8595],[-88.7684,18.0138,12.4071],[-88.7669,18.016,4.357],[-88.7691,18.0173,13.1835],[-88.7679,18.0192,5.1155],[-88.7683,18.0248,22.7694],[-88.7708,18.0292,33.3459],[-88.7667,18.0343,9.9481],[-88.758,18.0356,6.0275],[-88.7569,18.0379,6.2322],[-88.7496,18.041,11.1947],[-88.7474,18.0402,2.4737],[-88.7438,18.0439,7.7461],[-88.7408,18.0437,1.7075],[-88.7396,18.0482,4.825],[-88.7315,18.0496,4.6966],[-88.7203,18.0595,4.2191],[-88.7168,18.0605,7.8362],[-88.7193,18.0718,5.9483],[-88.7163,18.0719,6.8711],[-88.714,18.0749,6.7903],[-88.7161,18.0809,5.8178],[-88.7186,18.0805,10.6688],[-88.7197,18.0834,9.967],[-88.7177,18.0859,7.1075],[-88.7188,18.0876,11.3782],[-88.716,18.0939,8.4036],[-88.7107,18.0969,6.1468],[-88.7121,18.1036,6.3192],[-88.7186,18.1088,26.6693],[-88.7102,18.1171,7.7436],[-88.7097,18.1236,6.8661],[-88.7036,18.1348,7.0617],[-88.6995,18.138,4.2603],[-88.6954,18.148,5.7065],[-88.6929,18.1495,3.6743],[-88.6892,18.1558,3.2952],[-88.6863,18.1559,2.781],[-88.6802,18.16,4.6854],[-88.68,18.162,3.6259],[-88.6833,18.1668,3.4764],[-88.6849,18.1778,5.8371],[-88.6945,18.1784,4.469],[-88.6976,18.1804,4.9631],[-88.6943,18.1869,8.1878],[-88.6867,18.1947,8.7106],[-88.6735,18.1942,5.9872],[-88.6666,18.2027,9.5827],[-88.6582,18.2037,5.5916],[-88.6484,18.2096,4.5718],[-88.641,18.2167,7.1703],[-88.6324,18.2129,5.0715],[-88.6321,18.2165,7.849],[-88.629,18.219,9.6963],[-88.6258,18.2187,2.7183],[-88.6241,18.2214,6.747],[-88.6189,18.2237,6.7141],[-88.616,18.2231,6.9487],[-88.6119,18.23,7.9834],[-88.6123,18.2324,8.8904],[-88.6095,18.234,4.5661],[-88.6084,18.2383,6.2439],[-88.6047,18.241,5.2326],[-88.6041,18.245,5.2104],[-88.6066,18.2456,6.6161],[-88.6033,18.2511,4.9025],[-88.6057,18.2526,3.1329],[-88.6042,18.258,4.8762],[-88.6066,18.2641,3.8436],[-88.6026,18.2678,4.2298],[-88.6,18.2755,3.325],[-88.6008,18.2802,0.4581],[-88.5974,18.2886,3.139],[-88.5986,18.291,6.3657],[-88.6054,18.2906,2.3584],[-88.6058,18.2917,2.3584],[-88.6021,18.2958,1.5885],[-88.5984,18.297,0.4662],[-88.5788,18.3204,3.7313],[-88.5753,18.3202,0.5582],[-88.5707,18.3287,0.3674],[-88.5645,18.3341,0.5751],[-88.5445,18.3599,2.9194],[-88.5459,18.3681,1.7048],[-88.5507,18.3723,1.2103],[-88.5516,18.3761,0.6646],[-88.5475,18.3823,0.6283],[-88.5452,18.3912,1.3156],[-88.5414,18.3939,1.4186],[-88.532,18.4082,0.3253],[-88.5293,18.4197,0.9282],[-88.5283,18.4341,0.2397],[-88.5238,18.4456,3.2356],[-88.5212,18.458,2.8152],[-88.5186,18.4622,2.0698],[-88.4964,18.4771,12.2273],[-88.4918,18.4838,6.363],[-88.4872,18.4849,5.1007],[-88.4764,18.4947,5.5534],[-88.4743,18.4945,5.2978],[-88.4727,18.4899,5.287],[-88.4677,18.4902,5.0295],[-88.4651,18.487,5.7078],[-88.4584,18.4896,1.9419],[-88.4542,18.4885,2.8086],[-88.4524,18.4822,4.0387],[-88.4471,18.4756,3.5988],[-88.4425,18.4814,5.9563],[-88.428,18.4852,4.3305],[-88.4175,18.4925,4.6989],[-88.4107,18.493,3.5765],[-88.4024,18.4967,3.1125],[-88.3899,18.4863,0.5694],[-88.387,18.4816,1.9466],[-88.3801,18.4789,5.4333],[-88.3768,18.4792,4.0813],[-88.3658,18.4864,2.8346],[-88.3511,18.4845,1.0742],[-88.3266,18.4906,4.5201],[-88.3147,18.4884,0.0],[-88.3163,18.4956,6.7212],[-88.2971,18.4918,0.0],[-88.2857,18.4937,0.0],[-88.2831,18.5018,0.7978],[-88.2816,18.5021,0.5526],[-88.275,18.514,3.005],[-88.272,18.5142,0.0],[-88.2607,18.5352,1.0341],[-88.2618,18.5369,7.7968],[-88.2585,18.5418,0.0],[-88.2588,18.5456,0.9998],[-88.2546,18.5493,1.0813],[-88.2507,18.5585,3.2186],[-88.2483,18.5583,0.0],[-88.2496,18.5605,10.1791],[-88.2471,18.5626,0.0],[-88.2394,18.5781,3.0718],[-88.231,18.5868,1.1317],[-88.2291,18.5965,5.4183],[-88.2256,18.6023,2.6726],[-88.2267,18.6032,2.6726],[-88.2258,18.611,3.3223],[-88.2152,18.622,0.0],[-88.2099,18.6334,0.0],[-88.2053,18.6378,0.0],[-88.2009,18.655,2.3377],[-88.1946,18.6637,0.0],[-88.1956,18.6684,0.0],[-88.1916,18.6803,0.0],[-88.185,18.6876,0.3305],[-88.1812,18.6896,0.7409],[-88.1783,18.6895,0.9438],[-88.1755,18.6859,0.0],[-88.1698,18.6927,1.0211],[-88.1669,18.6925,0.0],[-88.1604,18.7046,0.0],[-88.1554,18.7045,0.5128],[-88.153,18.7073,0.0],[-88.1601,18.7106,0.0],[-88.1632,18.7179,0.6007],[-88.1704,18.7157,0.5263],[-88.1702,18.7129,1.4263],[-88.1748,18.7091,0.8749],[-88.1937,18.7056,0.2612],[-88.1978,18.7005,0.9786],[-88.1999,18.6865,0.0477],[-88.2023,18.6811,1.1004],[-88.2052,18.6898,0.1276],[-88.2017,18.7,0.0],[-88.205,18.7018,1.2982],[-88.2016,18.7082,0.0],[-88.2029,18.7108,0.8419],[-88.1976,18.7151,0.0],[-88.1911,18.7152,0.0],[-88.1884,18.7184,0.1245],[-88.1867,18.718,0.0],[-88.1827,18.7213,0.3815],[-88.1824,18.7237,0.584],[-88.1805,18.7244,0.5534],[-88.1772,18.7209,0.3381],[-88.1714,18.7225,1.15],[-88.1714,18.7288,1.456],[-88.1691,18.7355,0.0],[-88.1603,18.7454,0.0],[-88.1612,18.7479,0.2511],[-88.1595,18.7536,0.3684],[-88.1545,18.7611,0.0],[-88.1483,18.7777,0.2245],[-88.1525,18.7506,3.0885],[-88.1568,18.7469,-0.0068],[-88.1583,18.7357,1.0596],[-88.1605,18.7337,1.8346],[-88.1582,18.728,0.7906],[-88.1603,18.727,0.4114],[-88.1559,18.7257,0.347],[-88.1516,18.7271,0.5001],[-88.1412,18.7249,0.0],[-88.1463,18.7311,0.5099],[-88.145,18.7444,1.0967],[-88.1356,18.759,0.1707],[-88.1293,18.7646,0.2883],[-88.1257,18.7838,0.0],[-88.1088,18.8022,0.0],[-88.106,18.8086,0.8022],[-88.1076,18.814,1.2926],[-88.1065,18.8194,1.5987],[-88.1053,18.8205,0.9959],[-88.1014,18.8199,0.5564],[-88.0905,18.8282,0.0394],[-88.0885,18.8275,0.2121],[-88.0849,18.8338,0.376],[-88.0784,18.835,0.0],[-88.0821,18.8382,0.1029],[-88.0821,18.8428,0.0],[-88.0717,18.8535,0.0],[-88.0714,18.8588,0.472],[-88.0679,18.8616,0.1457],[-88.0611,18.8609,0.4615],[-88.0581,18.8576,0.0],[-88.0537,18.8585,0.0],[-88.0517,18.8633,0.0],[-88.0527,18.8695,1.5711],[-88.0509,18.8711,0.9584],[-88.0463,18.867,1.8901],[-88.0452,18.8614,1.1842],[-88.0458,18.8585,0.7371],[-88.0475,18.8579,0.7371],[-88.0458,18.855,0.0],[-88.0423,18.8536,0.0],[-88.0412,18.851,0.1332],[-88.0379,18.8521,0.347],[-88.0368,18.8502,0.2941],[-88.0397,18.8332,0.0],[-88.0471,18.8114,0.7245],[-88.0373,18.8118,0.3765],[-88.0364,18.8055,1.2145],[-88.0277,18.8029,0.0669],[-88.0176,18.7914,0.0534],[-88.0196,18.7859,0.0],[-88.0171,18.7852,0.2164],[-88.0223,18.7779,0.0694],[-88.0161,18.7783,0.083],[-88.0115,18.7743,0.1331],[-88.0086,18.7759,0.1757],[-88.0098,18.7736,0.0132],[-88.0153,18.7716,0.0],[-88.0144,18.7686,0.0],[-88.0069,18.7715,0.0],[-88.0056,18.7734,0.1565],[-88.0005,18.7712,0.1166],[-88.0077,18.7643,0.0],[-88.0074,18.7565,0.0],[-88.0085,18.7558,0.0],[-88.0108,18.7577,0.0],[-88.0126,18.7566,0.3903],[-88.0138,18.7522,0.0],[-88.0136,18.748,0.0],[-88.0093,18.7485,0.0],[-88.0022,18.7409,1.5846],[-88.002,18.738,0.1964],[-88.0034,18.7356,0.058],[-88.0028,18.7331,0.117],[-88.0045,18.7336,0.117],[-88.0052,18.7317,0.53],[-88.0081,18.7338,0.0],[-88.0092,18.7329,0.0],[-88.0052,18.728,0.0],[-88.0084,18.727,0.2151],[-88.0066,18.7243,0.0],[-88.0075,18.7182,0.0],[-88.0115,18.7169,0.2469],[-88.0095,18.7125,0.0],[-88.0105,18.7071,0.8063],[-88.0122,18.7051,0.5559],[-88.0166,18.706,0.0],[-88.0141,18.7028,0.0],[-88.0146,18.6974,0.188],[-88.0173,18.6966,0.2189],[-88.019,18.6983,0.0],[-88.019,18.6971,0.0],[-88.0161,18.6932,0.653],[-88.0135,18.684,0.0],[-88.008,18.6818,0.4406],[-88.0067,18.6787,0.0],[-88.0043,18.6787,2.0728],[-88.0012,18.6725,1.0861],[-87.9975,18.6701,0.0],[-87.9975,18.6667,2.4478],[-87.9996,18.6661,1.8939],[-88.0033,18.6686,0.954],[-88.0052,18.6642,0.0],[-88.0034,18.6541,2.1206],[-88.0093,18.6474,0.0],[-88.0089,18.6438,0.0],[-88.013,18.6325,0.0],[-88.0181,18.6265,2.0308],[-88.0177,18.618,1.2188],[-88.0255,18.6087,0.5262],[-88.0344,18.605,0.2588],[-88.0337,18.6011,0.0],[-88.0292,18.6036,1.684],[-88.0314,18.5999,0.4623],[-88.0359,18.6001,0.0],[-88.0358,18.5959,0.0],[-88.0342,18.5987,0.0],[-88.033,18.5982,0.2098],[-88.0331,18.5899,0.0519],[-88.0347,18.5903,0.0796],[-88.0352,18.5943,0.0467],[-88.0378,18.5948,0.0261],[-88.0397,18.5852,0.0],[-88.0444,18.5817,0.0],[-88.0415,18.5788,0.0625],[-88.0408,18.5802,0.0625],[-88.0396,18.5793,0.0625],[-88.0398,18.5778,0.0511],[-88.0445,18.5777,0.0],[-88.0436,18.5755,0.0217],[-88.0459,18.5736,0.0],[-88.0429,18.5702,0.0],[-88.039,18.5704,0.0],[-88.0362,18.5686,0.0],[-88.0326,18.5701,0.1441],[-88.0338,18.5631,0.6385],[-88.0376,18.5631,0.0],[-88.0352,18.559,2.3838],[-88.0377,18.5593,0.7083],[-88.0372,18.5548,2.0089],[-88.0401,18.5529,0.0457],[-88.042,18.5538,0.0],[-88.042,18.5467,0.0],[-88.0403,18.5438,0.1108],[-88.0432,18.5355,0.9926],[-88.0493,18.5264,0.9512],[-88.0555,18.5303,0.3556],[-88.055,18.5277,1.0015],[-88.0564,18.5263,1.1261],[-88.0574,18.5271,0.0],[-88.0605,18.5221,0.0],[-88.0596,18.521,0.2192],[-88.061,18.5172,0.1935],[-88.0688,18.5136,0.7129],[-88.0758,18.5132,0.2399],[-88.0783,18.5105,0.1652],[-88.0759,18.5053,0.0],[-88.0761,18.4971,0.6062],[-88.0748,18.4962,0.0],[-88.0737,18.4992,0.0507],[-88.0711,18.4988,0.0],[-88.0734,18.4933,0.0],[-88.0719,18.4904,0.0],[-88.0674,18.498,1.6854],[-88.066,18.498,0.9518],[-88.0655,18.4944,0.4833],[-88.0728,18.4842,0.0],[-88.0672,18.4907,0.239],[-88.0641,18.4914,0.3278],[-88.0668,18.4888,0.2159],[-88.0639,18.4871,1.578],[-88.0649,18.486,2.1354],[-88.0705,18.4843,0.4943],[-88.0712,18.4799,0.6401],[-88.0728,18.4831,0.0895],[-88.0749,18.4787,0.0],[-88.054,18.4769,0.0],[-88.0483,18.4738,0.118],[-88.0481,18.4701,0.0],[-88.0391,18.4691,0.8996],[-88.0382,18.4649,0.0],[-88.036,18.4629,0.0],[-88.0257,18.4622,0.0485],[-88.0232,18.4578,0.0],[-88.0178,18.4574,0.0337],[-88.014,18.4599,0.0516],[-88.009,18.4599,0.0],[-87.9806,18.4472,0.3612],[-87.9598,18.4416,0.2251],[-87.9559,18.4388,0.1725],[-87.9467,18.4401,0.0],[-87.9434,18.4381,0.0],[-87.9423,18.4396,0.1163],[-87.9341,18.4382,0.4734],[-87.9347,18.4354,0.0],[-87.9309,18.4326,0.1257],[-87.9312,18.4287,0.3348],[-87.9333,18.4261,0.2778],[-87.933,18.4238,0.2027],[-87.9352,18.4237,0.0],[-87.9363,18.419,0.211],[-87.9334,18.4194,0.3644],[-87.9321,18.416,0.4274],[-87.9348,18.4143,0.3785],[-87.9364,18.4157,0.0993],[-87.9363,18.4098,0.1913],[-87.935,18.4078,0.0],[-87.9335,18.4098,0.4792],[-87.931,18.4088,0.8168],[-87.9365,18.4048,0.2111],[-87.9358,18.3995,0.1408],[-87.9392,18.3937,0.0],[-87.938,18.3919,0.0],[-87.9337,18.3926,0.4732],[-87.9304,18.3908,0.4751],[-87.9303,18.3847,0.3371],[-87.9227,18.3855,1.6464],[-87.9147,18.3896,0.492],[-87.9109,18.3884,0.3391],[-87.9124,18.3863,0.2924],[-87.9141,18.3866,0.0],[-87.9116,18.384,0.1016],[-87.9093,18.3857,0.2428],[-87.9023,18.3843,0.554],[-87.9039,18.3801,0.08],[-87.9015,18.3772,0.2996],[-87.8992,18.3781,0.462],[-87.8996,18.3764,0.0],[-87.8953,18.3729,0.6969],[-87.9008,18.361,0.3956],[-87.904,18.3591,0.0],[-87.8989,18.359,0.7959],[-87.8983,18.3568,0.0],[-87.8968,18.3579,0.2398],[-87.8953,18.3558,0.2776],[-87.897,18.3537,0.0],[-87.8946,18.355,0.1275],[-87.8893,18.3515,0.0511],[-87.8822,18.3555,1.5019],[-87.8818,18.3532,0.0],[-87.8847,18.3505,0.0],[-87.879,18.3506,2.865],[-87.881,18.3448,0.0768],[-87.8787,18.3439,0.65],[-87.8833,18.3417,0.0],[-87.8833,18.3346,0.1839],[-87.8866,18.3329,0.258],[-87.888,18.3342,0.0],[-87.8882,18.3304,0.0],[-87.8809,18.3335,0.285],[-87.8799,18.328,0.3056],[-87.8819,18.3257,0.0],[-87.8863,18.3259,0.0771],[-87.8877,18.3278,0.0668],[-87.89,18.3262,0.0814],[-87.8899,18.3246,0.0563],[-87.887,18.3241,0.2731],[-87.8871,18.3218,0.0612],[-87.8785,18.3205,0.2966],[-87.8871,18.3148,0.2212],[-87.8886,18.3153,0.2005],[-87.8877,18.3181,0.1922],[-87.8893,18.3182,0.0584],[-87.8888,18.3079,0.274],[-87.8967,18.2995,0.1224],[-87.8966,18.3082,0.0],[-87.8953,18.3096,0.0],[-87.8968,18.3103,0.0],[-87.8964,18.3149,0.0],[-87.8976,18.3144,0.0],[-87.8991,18.2988,1.0916],[-87.8966,18.2935,0.1431],[-87.8948,18.2778,0.1406],[-87.8929,18.2782,0.0],[-87.8895,18.2941,0.5182],[-87.886,18.2943,0.2075],[-87.8846,18.2966,0.0799],[-87.8823,18.2959,0.2464],[-87.8827,18.2989,0.1891],[-87.8792,18.2977,0.2039],[-87.8795,18.2943,0.0636],[-87.8823,18.2945,0.0],[-87.878,18.2917,0.0941],[-87.8775,18.2905,0.0941],[-87.88,18.2895,0.0483],[-87.8778,18.2874,0.1951],[-87.8817,18.2833,0.0979],[-87.8869,18.2834,0.1795],[-87.8837,18.2798,0.0],[-87.8815,18.2806,0.2815],[-87.8787,18.2859,0.2402],[-87.8764,18.285,0.0943],[-87.8773,18.2722,0.0],[-87.8736,18.265,0.0],[-87.8751,18.2636,0.0],[-87.8745,18.2607,0.4282],[-87.8841,18.2478,0.1309],[-87.8851,18.2426,0.4318],[-87.8928,18.2447,1.0238],[-87.8941,18.2498,0.0],[-87.8948,18.2449,0.9513],[-87.8968,18.2458,0.0],[-87.8981,18.244,0.1747],[-87.8985,18.2195,0.4155],[-87.8946,18.2187,0.0],[-87.8953,18.228,0.1484],[-87.8927,18.2292,0.1716],[-87.8921,18.228,0.0825],[-87.8938,18.2269,0.0],[-87.8911,18.2256,0.0845],[-87.8922,18.2228,0.0],[-87.8907,18.2186,0.1009],[-87.8896,18.2268,0.0845],[-87.8856,18.224,0.0392],[-87.8851,18.2197,0.2457],[-87.8925,18.2181,0.0],[-87.8932,18.215,0.0],[-87.8812,18.2206,0.2987],[-87.8715,18.2229,0.0],[-87.8654,18.2285,0.0],[-87.8704,18.2321,0.0],[-87.8728,18.2313,0.111],[-87.8705,18.2303,0.0],[-87.8755,18.2281,0.1487],[-87.8811,18.2276,0.1014],[-87.8831,18.2319,0.0838],[-87.8803,18.2308,0.0],[-87.8738,18.2334,0.0],[-87.8774,18.238,-0.0203],[-87.8762,18.2404,0.0],[-87.8743,18.2402,0.0825],[-87.8728,18.233,0.7228],[-87.868,18.2355,4.1508],[-87.8696,18.2333,0.0],[-87.8687,18.2323,0.0],[-87.8611,18.2346,0.0],[-87.8614,18.232,0.5806],[-87.8649,18.231,0.0],[-87.8629,18.2266,0.3619],[-87.8684,18.2189,0.0974],[-87.8718,18.2203,0.1745],[-87.8813,18.2174,0.0],[-87.8706,18.2132,0.0],[-87.8726,18.2119,0.0],[-87.8724,18.2105,0.0],[-87.8671,18.2168,0.0621],[-87.8626,18.2196,0.2984],[-87.8622,18.2163,0.0],[-87.86,18.2166,0.6683],[-87.8608,18.2131,0.0],[-87.8655,18.2085,0.0],[-87.8604,18.2095,0.0],[-87.8585,18.2117,0.4937],[-87.8531,18.2089,0.6474],[-87.8533,18.2069,1.3267],[-87.8563,18.2059,0.647],[-87.8574,18.1974,0.0]]]]}}