{"type":"Feature","properties":{"GID_2":"MEX.20.137_2","GID_0":"MEX","country":"México","GID_1":"MEX.20_1","province":"Oaxaca","NL_NAME_1":"NA","county":"SanFelipeTejalápam","VARNAME_2":"NA","NL_NAME_2":"NA","TYPE_2":"Município","ENGTYPE_2":"Municipality","CC_2":"NA","HASC_2":"NA","name":"San_Felipe_Tejalápam.county"},
"geometry":{"type": "MultiPolygon","coordinates": [[[[-96.8326,17.0961,1794.7518],[-96.8221,17.1249,1606.5983],[-96.8245,17.128,1602.1918],[-96.8226,17.1324,1609.7515],[-96.8265,17.1469,1628.4927],[-96.8316,17.1435,1633.5693],[-96.8356,17.1548,1675.3016],[-96.8538,17.156,1680.8662],[-96.8712,17.143,1862.2242],[-96.8711,17.1387,1860.6902],[-96.9216,17.1194,2115.8523],[-96.934,17.0996,2275.1453],[-96.9329,17.0979,2143.9602],[-96.9248,17.0964,1998.0863],[-96.9271,17.0931,2150.8091],[-96.9259,17.0816,2255.624],[-96.9468,17.0618,2711.5874],[-96.9453,17.0598,2707.5942],[-96.936,17.0593,2632.8567],[-96.9381,17.0569,2694.8765],[-96.9359,17.0442,2666.6614],[-96.9374,17.0414,2611.3525],[-96.9355,17.0385,2684.1436],[-96.9364,17.0345,2712.2292],[-96.9297,17.0264,2678.6804],[-96.9323,17.0192,2736.5815],[-96.9241,17.0068,2793.665],[-96.9101,17.0181,2424.9502],[-96.9033,17.0214,2167.96],[-96.9076,17.0222,2263.3672],[-96.9089,17.0498,2039.79],[-96.8767,17.0557,1799.6431],[-96.8731,17.0674,1751.1331],[-96.8737,17.078,1708.6619],[-96.8704,17.0917,1698.6064],[-96.8651,17.0886,1689.9567],[-96.8627,17.0777,1805.8687],[-96.8567,17.0717,1761.9255],[-96.8504,17.0736,1710.1694],[-96.8489,17.0789,1703.4752],[-96.8429,17.0847,1718.3043],[-96.8459,17.0835,1674.983],[-96.8507,17.0881,1780.1803],[-96.8395,17.0901,1712.7158],[-96.8326,17.0961,1794.7518]]]]}}