{"type": "Feature","bbox": [-97.9908,16.4257,-97.8545,16.5771],"geometry": {"type": "MultiPolygon","coordinates": [[[[-97.9347,16.5646,786.9997],[-97.9446,16.564,813.2418],[-97.9209,16.5471,623.2166],[-97.9132,16.5184,648.3729],[-97.955,16.4858,265.3669],[-97.9673,16.4795,283.1688],[-97.9669,16.4781,252.3206],[-97.9724,16.4721,242.7193],[-97.9899,16.4615,275.3087],[-97.9908,16.4506,334.3949],[-97.9591,16.4427,453.0782],[-97.923,16.4257,739.577],[-97.9176,16.4276,722.0145],[-97.9131,16.4347,700.8629],[-97.908,16.4328,605.9889],[-97.9012,16.4402,632.3656],[-97.8937,16.4375,561.9911],[-97.8792,16.4407,417.168],[-97.8593,16.4571,292.3954],[-97.8765,16.4754,283.1171],[-97.8825,16.4793,314.9093],[-97.8689,16.5037,323.2391],[-97.8754,16.5153,657.3127],[-97.8545,16.5542,1365.3541],[-97.8594,16.5657,1494.1721],[-97.8693,16.5771,1499.6248],[-97.9347,16.5646,786.9997]]]]}
,"properties": {"GID_2": "MEX.20.194_2","GID_0": "MEX","country": "México","GID_1": "MEX.20_1","province": "Oaxaca","NL_NAME_1": "NA","county": "SanJuanColorado","VARNAME_2": "NA","NL_NAME_2": "NA","TYPE_2": "Município","ENGTYPE_2": "Municipality","CC_2": "NA","HASC_2": "NA","name": "San_Juan_Colorado.county","area_km2": 124.11216,"hist_schema_id": "Elevation0-9000","hist_area_km2": {"225": 0.02033,"250": 1.46392,"275": 9.90173,"300": 12.03629,"325": 6.91264,"350": 5.89606,"375": 6.30276,"400": 6.52655,"425": 5.42874,"450": 5.85574,"475": 5.08304,"500": 5.02193,"525": 4.16798,"550": 4.43214,"575": 3.6799,"600": 2.96823,"625": 3.13069,"650": 2.3379,"675": 1.9719,"700": 1.64655,"725": 1.70749,"750": 1.62612,"775": 1.54473,"800": 1.19914,"825": 1.50399,"850": 1.56495,"875": 1.40234,"900": 1.56492,"925": 1.38201,"950": 1.13814,"975": 1.34134,"1000": 1.34133,"1025": 0.99584,"1050": 1.321,"1075": 1.13808,"1100": 0.91452,"1125": 0.91452,"1150": 0.75194,"1175": 0.67064,"1200": 0.73161,"1225": 0.62999,"1250": 0.67063,"1275": 0.48773,"1300": 0.62999,"1325": 0.48773,"1350": 0.20322,"1375": 0.34548,"1400": 0.20322,"1425": 0.42676,"1450": 0.1829,"1475": 0.16257,"1500": 0.12193,"1525": 0.02032}}}