{"type": "Feature","bbox": [-103.5109,24.7934,-102.9568,25.6914],"geometry": {"type": "MultiPolygon","coordinates": [[[[-102.9887,24.7962,1436.2886],[-102.993,24.8143,1458.1174],[-102.9568,24.8317,1459.9237],[-102.957,24.8647,1505.3721],[-103.0536,24.925,1785.7303],[-103.0444,24.9406,1637.2798],[-103.0383,24.9619,1585.847],[-103.0691,24.9738,1691.6025],[-103.0191,24.9716,1543.0817],[-103.0449,24.9858,1531.8882],[-103.0632,25.0094,1479.6163],[-103.0977,25.024,1452.2498],[-103.0975,25.0418,1447.2917],[-103.1038,25.1118,1528.1401],[-103.1215,25.1166,1558.6182],[-103.1904,25.1603,2420.3118],[-103.1959,25.1945,1688.5796],[-103.3462,25.223,2356.1938],[-103.3456,25.2591,1419.6785],[-103.3758,25.2734,1373.3281],[-103.3861,25.2743,1448.1459],[-103.428,25.3011,1676.9165],[-103.4413,25.3212,1316.7573],[-103.4701,25.301,1321.5735],[-103.4442,25.2791,1437.9325],[-103.4664,25.2768,1251.7385],[-103.4936,25.3117,1198.9259],[-103.4955,25.3114,1200.7192],[-103.4977,25.2951,1196.5071],[-103.5022,25.292,1203.2498],[-103.5062,25.2933,1198.4038],[-103.5094,25.2915,1201.0907],[-103.5074,25.284,1205.0685],[-103.5109,25.2798,1200.2361],[-103.5038,25.2747,1204.7223],[-103.4985,25.2633,1206.5574],[-103.4967,25.2557,1208.7209],[-103.4913,25.2525,1210.963],[-103.4866,25.2539,1212.4219],[-103.4768,25.25,1214.4309],[-103.473,25.25,1214.9684],[-103.4684,25.242,1217.8795],[-103.4656,25.241,1220.3456],[-103.4662,25.2387,1219.2239],[-103.4617,25.2371,1221.9355],[-103.4605,25.2337,1222.0332],[-103.4497,25.228,1222.3606],[-103.4488,25.2237,1224.4628],[-103.4501,25.2191,1237.2288],[-103.4457,25.2104,1227.8431],[-103.4387,25.202,1228.8739],[-103.4366,25.2027,1230.755],[-103.4322,25.1995,1231.4604],[-103.4258,25.2015,1232.2771],[-103.4232,25.198,1235.9119],[-103.4184,25.1964,1234.1084],[-103.4183,25.192,1235.5699],[-103.4094,25.185,1236.8503],[-103.4092,25.1824,1236.9705],[-103.4029,25.1823,1239.6044],[-103.3982,25.1755,1241.6384],[-103.3989,25.1708,1244.1445],[-103.3965,25.1658,1246.6309],[-103.3974,25.1639,1244.5981],[-103.3927,25.1595,1242.2095],[-103.3943,25.1577,1243.3429],[-103.3887,25.1546,1246.6937],[-103.3832,25.1492,1248.7937],[-103.3825,25.1449,1248.5027],[-103.3771,25.142,1245.7595],[-103.3704,25.124,1249.165],[-103.3595,25.11,1256.9047],[-103.3514,25.1072,1255.7213],[-103.3461,25.1107,1264.9877],[-103.3427,25.1103,1263.0894],[-103.3393,25.1071,1263.2582],[-103.34,25.1023,1261.802],[-103.3372,25.0991,1261.6797],[-103.3267,25.0944,1264.4653],[-103.3223,25.0943,1268.3657],[-103.3182,25.0889,1267.9131],[-103.3124,25.0851,1275.9122],[-103.302,25.0833,1274.3525],[-103.295,25.08,1275.2399],[-103.2928,25.0779,1276.2268],[-103.2912,25.0705,1279.9709],[-103.2843,25.0677,1281.7543],[-103.2782,25.063,1284.8402],[-103.2741,25.0646,1285.03],[-103.2711,25.0604,1289.8364],[-103.2618,25.0581,1289.9944],[-103.2615,25.0542,1288.6193],[-103.2652,25.0537,1297.8961],[-103.2679,25.0558,1320.8031],[-103.2696,25.0549,1296.3451],[-103.2688,25.0491,1312.0836],[-103.2745,25.0459,1305.1411],[-103.2695,25.0402,1296.0066],[-103.2745,25.0383,1295.9017],[-103.278,25.0346,1297.4114],[-103.2703,25.032,1299.4929],[-103.2675,25.028,1298.9825],[-103.2741,25.0234,1302.1031],[-103.274,25.0209,1302.6189],[-103.2705,25.0157,1306.0536],[-103.2546,25.004,1309.8805],[-103.2466,24.996,1338.9011],[-103.2487,24.9925,1376.8776],[-103.2457,24.9898,1385.5594],[-103.2454,24.9825,1347.7898],[-103.25,24.9788,1332.5854],[-103.2526,24.9702,1331.6499],[-103.2582,24.9689,1340.4545],[-103.2591,24.9647,1332.3638],[-103.0928,24.8227,1405.5745],[-103.0869,24.8205,1408.0138],[-103.0688,24.8186,1411.8059],[-103.0537,24.8099,1417.1759],[-103.0496,24.8098,1419.3364],[-103.0481,24.8113,1421.1643],[-103.0431,24.8095,1422.7218],[-103.0379,24.8114,1422.9485],[-103.0334,24.8108,1429.2153],[-103.0311,24.8072,1422.5889],[-103.0218,24.7999,1426.0328],[-103.0151,24.801,1433.4357],[-103.0112,24.7965,1430.2406],[-103.0059,24.7934,1453.2244],[-103.0023,24.794,1433.3724],[-103.0013,24.7984,1431.7815],[-102.9962,24.7949,1437.9889],[-102.9908,24.794,1435.4967],[-102.9887,24.7962,1436.2886]]],
[[[-103.3554,25.6791,1114.4602],[-103.3554,25.6914,1112.1506],[-103.3596,25.6887,1113.2841],[-103.3632,25.6748,1111.2285],[-103.3656,25.6708,1113.1703],[-103.3706,25.6649,1111.8929],[-103.3831,25.6552,1109.7883],[-103.3814,25.6403,1113.8822],[-103.3859,25.6404,1112.3359],[-103.3987,25.6459,1117.4006],[-103.406,25.645,1116.4193],[-103.4087,25.6397,1115.1533],[-103.4032,25.6319,1115.88],[-103.4033,25.6281,1115.4243],[-103.4129,25.6245,1114.7825],[-103.4205,25.6257,1118.5911],[-103.4248,25.6237,1114.5566],[-103.425,25.62,1114.9846],[-103.4175,25.6172,1119.3479],[-103.416,25.6144,1124.677],[-103.4269,25.6121,1119.7697],[-103.4296,25.5989,1116.828],[-103.4384,25.5966,1115.4622],[-103.4384,25.5943,1116.2633],[-103.4333,25.5881,1113.1056],[-103.4354,25.5828,1116.14],[-103.438,25.5815,1110.3561],[-103.4468,25.5817,1112.5909],[-103.451,25.5789,1116.9337],[-103.4526,25.5753,1117.3982],[-103.4514,25.5655,1120.5005],[-103.4554,25.5571,1122.7206],[-103.4696,25.5464,1126.095],[-103.4944,25.5377,1125.0774],[-103.4847,25.5294,1165.1581],[-103.4751,25.5183,1213.6339],[-103.4758,25.5175,1213.6339],[-103.4357,25.4791,1505.5483],[-103.428,25.4753,1487.0718],[-103.3987,25.4506,1605.3463],[-103.3907,25.4346,1583.9799],[-103.3691,25.4165,1545.0695],[-103.351,25.4103,1492.6465],[-103.3414,25.4101,1387.1599],[-103.3421,25.4159,1194.7781],[-103.3435,25.4161,1224.011],[-103.3422,25.4221,1146.924],[-103.3027,25.5795,1113.9138],[-103.2925,25.5764,1113.4801],[-103.2906,25.5851,1112.1968],[-103.2596,25.5795,1111.0259],[-103.2747,25.6129,1110.7993],[-103.2882,25.6155,1110.303],[-103.2889,25.6183,1110.0686],[-103.2956,25.6161,1110.8456],[-103.3018,25.6167,1111.2991],[-103.3662,25.6261,1120.795],[-103.3469,25.6416,1117.4678],[-103.3455,25.6456,1115.7316],[-103.3475,25.6507,1115.6595],[-103.3462,25.6553,1116.0593],[-103.3485,25.6721,1116.2427],[-103.3604,25.6768,1114.7877],[-103.3554,25.6791,1114.4602]]]]}
,"properties": {"GID_2": "MEX.7.35_2","GID_0": "MEX","country": "México","GID_1": "MEX.7_1","province": "Coahuila","NL_NAME_1": "NA","county": "Torreón","VARNAME_2": "NA","NL_NAME_2": "NA","TYPE_2": "Município","ENGTYPE_2": "Municipality","CC_2": "NA","HASC_2": "NA","name": "Torreón.county","area_km2": 1285.8093,"hist_schema_id": "Elevation0-9000","hist_area_km2": {"1075": 0.0191,"1100": 14.6085,"1125": 239.2104,"1150": 14.7396,"1175": 3.7511,"1200": 8.9283,"1225": 13.5129,"1250": 19.6392,"1275": 25.2647,"1300": 28.8821,"1325": 30.1915,"1350": 29.0231,"1375": 27.9082,"1400": 29.4861,"1425": 48.4063,"1450": 52.7788,"1475": 59.038,"1500": 53.9646,"1525": 47.791,"1550": 44.2727,"1575": 39.0609,"1600": 32.1023,"1625": 29.2573,"1650": 23.4725,"1675": 23.1284,"1700": 22.4583,"1725": 22.2699,"1750": 20.6185,"1775": 20.0993,"1800": 20.5216,"1825": 18.3884,"1850": 18.1003,"1875": 16.2358,"1900": 15.677,"1925": 15.2724,"1950": 11.8318,"1975": 11.7909,"2000": 10.1369,"2025": 10.038,"2050": 9.8638,"2075": 10.9948,"2100": 9.3449,"2125": 8.9611,"2150": 6.4474,"2175": 6.601,"2200": 5.2962,"2225": 5.066,"2250": 4.2218,"2275": 3.8189,"2300": 3.5887,"2325": 3.2242,"2350": 3.1282,"2375": 2.7636,"2400": 2.6293,"2425": 2.303,"2450": 2.1112,"2475": 2.3415,"2500": 1.6506,"2525": 1.7273,"2550": 1.5546,"2575": 1.4778,"2600": 1.6314,"2625": 1.4778,"2650": 1.5162,"2675": 1.0364,"2700": 1.3051,"2725": 1.1707,"2750": 0.9596,"2775": 0.9596,"2800": 0.902,"2825": 0.6525,"2850": 0.7869,"2875": 0.499,"2900": 0.499,"2925": 0.5182,"2950": 0.2495,"2975": 0.1919,"3000": 0.1152,"3025": 0.0768,"3050": 0.096,"3075": 0.0768,"3100": 0.0576,"3125": 0.0384}}}