{"type":"Feature","properties":{"GID_2":"MEX.12.40_2","GID_0":"MEX","country":"México","GID_1":"MEX.12_1","province":"Guerrero","NL_NAME_1":"NA","county":"Iliatenco","VARNAME_2":"NA","NL_NAME_2":"NA","TYPE_2":"Município","ENGTYPE_2":"Municipality","CC_2":"NA","HASC_2":"NA","name":"Iliatenco.county"},
"geometry":{"type": "MultiPolygon","coordinates": [[[[-98.5751,17.0899,1126.7415],[-98.5778,17.0922,1167.6226],[-98.5803,17.0902,1145.1958],[-98.5803,17.0921,1182.9429],[-98.5829,17.0935,1161.0623],[-98.5817,17.0961,1149.96],[-98.5894,17.1008,1169.783],[-98.5913,17.1055,1190.9393],[-98.5943,17.1067,1197.3848],[-98.594,17.1104,1187.4987],[-98.5983,17.1126,1253.058],[-98.5979,17.1156,1216.6716],[-98.6037,17.1144,1215.8107],[-98.6053,17.1158,1223.5571],[-98.6068,17.1211,1249.0527],[-98.6055,17.1229,1282.3149],[-98.6078,17.1242,1282.5219],[-98.6067,17.1259,1275.7429],[-98.6138,17.1284,1274.0861],[-98.6165,17.1274,1333.1243],[-98.6189,17.1315,1321.6296],[-98.6342,17.1185,2002.0762],[-98.6351,17.1064,2227.3057],[-98.6401,17.1019,2348.7563],[-98.6641,17.1072,2468.5576],[-98.6668,17.1109,2573.1494],[-98.6768,17.1103,2601.3542],[-98.698,17.1153,2587.2954],[-98.7037,17.1069,2525.3174],[-98.7098,17.1074,2396.9526],[-98.7223,17.1007,2290.3818],[-98.7278,17.1,2297.0112],[-98.7268,17.0968,2113.6687],[-98.7366,17.0863,1837.4097],[-98.737,17.0823,1823.1754],[-98.7617,17.0671,1421.8765],[-98.7588,17.0615,1222.7034],[-98.7289,17.0709,1567.8728],[-98.7251,17.0668,1540.0649],[-98.7243,17.0625,1541.631],[-98.7196,17.0604,1492.8083],[-98.7192,17.0578,1495.131],[-98.7144,17.0544,1604.6383],[-98.7123,17.0429,1490.7766],[-98.7268,17.0388,1047.774],[-98.7267,17.0339,898.6195],[-98.7095,17.0375,1543.4291],[-98.7039,17.0283,1697.1842],[-98.7058,17.0266,1637.5768],[-98.6969,17.0029,1410.5742],[-98.6991,16.9929,1275.4333],[-98.7038,16.9857,1356.1462],[-98.6964,16.985,1365.8549],[-98.685,16.9789,1101.9276],[-98.6704,16.9762,1012.5961],[-98.6567,16.984,819.1521],[-98.6539,16.9829,823.1064],[-98.6506,16.984,811.19],[-98.6497,16.981,812.8201],[-98.6437,16.9756,791.6816],[-98.6428,16.9714,770.9166],[-98.5611,17.0061,870.0008],[-98.5589,17.0027,844.9037],[-98.5477,17.0,1068.6306],[-98.5362,16.979,974.2728],[-98.519,17.0017,1051.6989],[-98.5417,17.0346,1208.8485],[-98.5551,17.049,1183.8059],[-98.5663,17.0502,998.8386],[-98.5679,17.0511,987.8929],[-98.5664,17.0539,992.0767],[-98.5719,17.0537,1016.5935],[-98.572,17.0569,1022.8306],[-98.5755,17.0557,1017.6618],[-98.5778,17.0587,1047.9287],[-98.5783,17.0625,1030.4698],[-98.5768,17.0656,1055.8929],[-98.5747,17.0667,1043.9694],[-98.5727,17.0651,1110.5447],[-98.5721,17.0703,1088.7026],[-98.5697,17.0723,1070.5717],[-98.5722,17.0745,1080.2955],[-98.5715,17.0774,1078.7196],[-98.5738,17.0777,1106.5869],[-98.5741,17.081,1094.6892],[-98.5769,17.083,1095.7791],[-98.5746,17.0873,1146.7278],[-98.5722,17.0882,1139.9766],[-98.5723,17.0898,1137.4187],[-98.5751,17.0899,1126.7415]]]]}}