{"type": "Feature","bbox": [-103.7383,17.915,-100.063,20.3945],"geometry": {"type": "MultiPolygon","coordinates": [[[[-103.3966,18.2834,0.0],[-103.3965,18.2834,0.0],[-103.3965,18.2835,0.0],[-103.3966,18.2834,0.0]]],
[[[-103.5016,18.3389,0.0],[-103.5018,18.3386,0.0],[-103.5016,18.3385,0.0],[-103.5016,18.3388,0.0],[-103.5016,18.3389,0.0]]],
[[[-103.5041,18.34,0.0],[-103.5042,18.3398,0.0],[-103.5041,18.3399,0.0],[-103.5041,18.34,0.0]]],
[[[-103.5143,18.3525,2.0949],[-103.5143,18.3524,2.0949],[-103.5142,18.3524,2.0949],[-103.5143,18.3525,2.0949]]],
[[[-102.1721,17.9203,1.5263],[-102.178,17.9253,11.6208],[-102.1814,17.9243,6.1867],[-102.1829,17.915,1.3376999999999999],[-102.1781,17.9167,0.5398],[-102.1721,17.9203,1.5263]]],
[[[-102.1634,17.924,0.0],[-102.1633,17.926,0.0],[-102.1651,17.9233,0.0],[-102.164,17.9222,0.0],[-102.1634,17.924,0.0]]],
[[[-102.7853,18.0828,0.0],[-102.7867,18.0827,0.0],[-102.7829,18.082,0.0],[-102.782,18.0849,4.0326],[-102.7861,18.0893,1.4142],[-102.7854,18.0875,1.1444],[-102.7874,18.0833,0.0],[-102.7853,18.0828,0.0]]],
[[[-103.2271,18.2327,0.0],[-103.2271,18.2325,0.0],[-103.227,18.2325,0.0],[-103.2271,18.2327,0.0]]],
[[[-103.2455,18.2344,0.0],[-103.2471,18.2344,0.0],[-103.2443,18.2338,0.0],[-103.2455,18.2344,0.0]]],
[[[-102.7895,18.0912,9.7869],[-102.7924,18.0969,30.4054],[-102.7809,18.0852,4.336],[-102.7799,18.0831,4.6273],[-102.7811,18.0818,0.0],[-102.7633,18.0778,14.7661],[-102.7608,18.073,0.0],[-102.7596,18.0736,17.153],[-102.7595,18.0709,2.8771],[-102.7557,18.0729,21.759],[-102.7529,18.0709,0.4359],[-102.751,18.0746,3.5764],[-102.7467,18.0747,0.0],[-102.7437,18.0727,33.5556],[-102.7446,18.0706,12.4692],[-102.743,18.0703,16.8997],[-102.7425,18.0691,16.8997],[-102.7443,18.0679,3.0657],[-102.7431,18.0673,10.8929],[-102.7412,18.0682,3.9001],[-102.7399,18.0722,36.5166],[-102.7296,18.0718,14.0355],[-102.72,18.0681,0.0],[-102.7186,18.0666,18.4203],[-102.7186,18.0615,6.9491],[-102.7159,18.0622,30.5165],[-102.7128,18.0595,9.3134],[-102.707,18.0594,19.5857],[-102.7042,18.0574,5.7699],[-102.7029,18.0589,39.7353],[-102.6975,18.0552,1.1497],[-102.6957,18.0567,9.8292],[-102.6916,18.0554,0.0],[-102.6882,18.0598,0.0],[-102.6832,18.0597,18.7534],[-102.6787,18.0573,12.9476],[-102.6741,18.0596,6.493],[-102.6572,18.0548,6.0971],[-102.6534,18.0504,0.0],[-102.6505,18.0516,19.9009],[-102.65,18.0499,0.0],[-102.6479,18.0504,0.0],[-102.6452,18.0529,13.4938],[-102.644,18.0517,0.0],[-102.6392,18.0523,18.6834],[-102.6362,18.0496,3.4617],[-102.6349,18.0509,15.3564],[-102.6335,18.0495,2.4241],[-102.6303,18.0518,13.8613],[-102.6281,18.0504,0.0],[-102.6271,18.0515,16.4109],[-102.6214,18.0504,2.5416],[-102.6169,18.0474,8.0059],[-102.6119,18.0477,0.0],[-102.6112,18.049,5.7156],[-102.6073,18.0484,0.0],[-102.5589,18.0332,0.0],[-102.5584,18.0357,0.0],[-102.5571,18.0354,0.0],[-102.5566,18.0329,0.8979],[-102.5241,18.0259,11.2245],[-102.5196,18.0218,0.0],[-102.5166,18.023,1.5971],[-102.5022,18.0202,0.0],[-102.4978,18.0216,0.0],[-102.4879,18.0198,0.8058],[-102.3842,17.9888,2.8013],[-102.3101,17.9698,0.0],[-102.2609,17.9509,2.7284],[-102.2182,17.9275,1.7993],[-102.1917,17.9155,3.0395],[-102.1879,17.915,0.0],[-102.1853,17.915,1.1829],[-102.1864,17.9151,1.1829],[-102.1837,17.9256,3.5333],[-102.1847,17.9309,4.4554],[-102.1823,17.936,0.0],[-102.1771,17.9368,0.0],[-102.1796,17.9312,0.0],[-102.1791,17.9299,1.3326],[-102.1762,17.9349,5.604],[-102.1784,17.9282,4.9116],[-102.1766,17.927,5.215],[-102.1642,17.9273,1.3793],[-102.1408,17.9356,1.7813],[-102.137,17.9389,0.0],[-102.1386,17.9437,0.0],[-102.1378,17.9454,0.0],[-102.129,17.9523,1.487],[-102.1319,17.954,6.1955],[-102.1344,17.9533,0.0],[-102.1358,17.9646,0.0],[-102.1291,17.9668,11.9509],[-102.1363,17.9662,0.0],[-102.1359,17.9701,0.0],[-102.1384,17.9719,0.0],[-102.1392,17.9773,0.7208],[-102.1396,17.9721,0.0],[-102.1474,17.9774,1.7165],[-102.1525,17.9776,0.5],[-102.1564,17.9846,1.6064],[-102.1593,17.986,6.5322],[-102.1562,17.9838,1.6064],[-102.1575,17.9831,0.0],[-102.1622,17.9854,1.1899],[-102.1554,17.9812,1.8475],[-102.1532,17.9771,0.5],[-102.1696,17.9872,0.5],[-102.166,17.9884,3.371],[-102.1636,17.9858,1.5356],[-102.1652,17.9882,0.5],[-102.1644,17.9895,5.1006],[-102.1711,17.9888,1.1872],[-102.18,18.0007,4.8183],[-102.183,18.0241,4.0],[-102.1812,18.034,4.0],[-102.1776,18.0372,8.5766],[-102.1843,18.0595,51.0],[-102.1784,18.0737,51.0],[-102.1798,18.0888,51.0],[-102.1745,18.1144,51.0],[-102.178,18.1174,51.0],[-102.1787,18.1203,51.0],[-102.1763,18.1274,51.0],[-102.1672,18.1357,51.0],[-102.1632,18.1448,51.0],[-102.1618,18.1641,51.0],[-102.1506,18.1699,51.0],[-102.1456,18.1831,61.0157],[-102.1403,18.1883,51.0],[-102.1308,18.1888,63.2972],[-102.1257,18.1867,57.9747],[-102.1197,18.1864,51.0],[-102.1104,18.1906,69.8519],[-102.0941,18.1949,51.0],[-102.0724,18.1935,51.0],[-102.0574,18.1952,53.1228],[-102.0477,18.2001,51.0],[-102.0423,18.2065,57.8599],[-102.0387,18.2082,51.0],[-102.0308,18.2085,51.0],[-102.0191,18.2021,51.0],[-102.0105,18.2048,51.0],[-101.9999,18.2025,51.0],[-101.9765,18.208,53.4804],[-101.9737,18.2128,76.6372],[-101.9778,18.2272,60.6074],[-101.9734,18.2323,59.4972],[-101.9697,18.2331,51.0],[-101.9506,18.2278,51.0],[-101.9369,18.2326,51.0],[-101.928,18.2316,58.4479],[-101.9201,18.2407,52.3506],[-101.9109,18.2421,70.3005],[-101.9066,18.2448,52.3364],[-101.9046,18.2479,79.8716],[-101.9071,18.2612,58.6101],[-101.8968,18.2771,62.0494],[-101.883,18.2624,156.5],[-101.8705,18.2597,155.5],[-101.8632,18.2617,155.0],[-101.8634,18.2662,155.0],[-101.8761,18.2708,155.0],[-101.8829,18.2774,155.0],[-101.8813,18.2802,155.0],[-101.8731,18.2822,155.0],[-101.8627,18.2872,155.0],[-101.8623,18.2902,155.0],[-101.8671,18.2956,155.0],[-101.8702,18.3083,155.0],[-101.8679,18.3112,155.0],[-101.8573,18.3123,155.0],[-101.8557,18.3143,155.0],[-101.8611,18.3225,155.0],[-101.8673,18.3261,155.0],[-101.8708,18.3318,155.0],[-101.8624,18.341,155.0],[-101.8616,18.3565,155.0],[-101.8741,18.3683,155.0],[-101.8748,18.3711,155.0],[-101.8713,18.3771,155.0],[-101.873,18.3843,155.0],[-101.8849,18.3939,155.0],[-101.8893,18.4005,155.0],[-101.887,18.4121,155.0],[-101.8782,18.4246,155.0],[-101.8738,18.4375,155.0],[-101.8604,18.4462,155.0],[-101.8849,18.475,155.0],[-101.8879,18.4815,155.0],[-101.889,18.499,155.0],[-101.8816,18.5362,155.0],[-101.8774,18.5408,155.0],[-101.8593,18.5529,155.0],[-101.8491,18.5694,155.0],[-101.8379,18.5779,155.0],[-101.8084,18.5876,155.0],[-101.7936,18.5934,155.0],[-101.7827,18.6002,155.0],[-101.7718,18.6037,155.0],[-101.7248,18.6125,155.0],[-101.7135,18.6102,155.0],[-101.7078,18.6014,155.0],[-101.7057,18.5908,155.0],[-101.7012,18.5879,155.0],[-101.6901,18.5894,155.0],[-101.6673,18.5981,155.0],[-101.6523,18.5972,155.0],[-101.639,18.6025,155.0],[-101.6245,18.5992,155.0],[-101.6202,18.5864,155.5],[-101.6075,18.5779,156.5],[-101.6051,18.5746,156.5],[-101.603,18.5621,156.5],[-101.598,18.5489,158.8854],[-101.5895,18.5416,156.5],[-101.5883,18.5281,156.5],[-101.5836,18.521,156.5],[-101.5735,18.5175,156.5],[-101.5642,18.5099,156.5],[-101.5504,18.5097,156.5],[-101.547,18.5074,157.2919],[-101.544,18.5006,158.4911],[-101.5384,18.4978,156.5],[-101.5181,18.496,156.5],[-101.5074,18.4868,156.5],[-101.4799,18.4906,158.6851],[-101.468,18.4869,157.7236],[-101.4643,18.4889,156.5],[-101.4606,18.4954,156.5],[-101.4574,18.4974,169.8141],[-101.4547,18.4968,160.6232],[-101.4464,18.4893,156.5],[-101.4419,18.489,160.7043],[-101.4386,18.4908,156.5],[-101.4322,18.5017,156.5],[-101.4276,18.5012,156.5],[-101.423,18.4968,156.5],[-101.4176,18.4975,158.1269],[-101.4129,18.5019,160.8639],[-101.4107,18.511,158.3434],[-101.4069,18.5125,162.2539],[-101.3988,18.507,166.8845],[-101.3949,18.5061,156.5],[-101.3901,18.5066,161.1779],[-101.385,18.5107,160.1943],[-101.3786,18.5098,161.6638],[-101.3748,18.5076,157.0],[-101.3709,18.5005,160.0869],[-101.3656,18.4999,157.5],[-101.3624,18.5032,158.0],[-101.3641,18.5181,161.8064],[-101.3619,18.5202,158.625],[-101.3576,18.5224,164.046],[-101.35,18.5223,161.264],[-101.3345,18.5284,168.4334],[-101.3269,18.5294,163.0],[-101.319,18.5283,165.0763],[-101.3132,18.5329,164.0],[-101.299,18.5331,164.0],[-101.2876,18.5394,164.9093],[-101.2821,18.5447,166.9624],[-101.2765,18.5422,174.0528],[-101.2743,18.5404,166.0],[-101.2734,18.536,169.0039],[-101.27,18.5352,167.0],[-101.2593,18.5395,168.5],[-101.2494,18.5382,169.5],[-101.2381,18.5342,171.0],[-101.2252,18.5342,173.9872],[-101.2202,18.5361,171.5],[-101.2119,18.5364,171.5],[-101.1963,18.5264,174.28],[-101.1937,18.5189,182.9073],[-101.1916,18.5178,173.5],[-101.1682,18.521,178.7455],[-101.1573,18.5181,176.0],[-101.1473,18.5111,179.3224],[-101.1428,18.5105,178.7908],[-101.1396,18.5117,180.2129],[-101.1346,18.517,179.611],[-101.1315,18.5175,178.0],[-101.1203,18.5093,180.375],[-101.102,18.5093,182.5],[-101.0887,18.5059,182.5],[-101.0837,18.5072,188.1808],[-101.0755,18.515,183.0],[-101.0545,18.5184,196.3243],[-101.038,18.5262,185.5],[-101.0324,18.5267,190.2322],[-101.0209,18.5229,189.7661],[-101.012,18.5275,187.5],[-101.0094,18.5248,197.2374],[-101.006,18.4937,193.5063],[-101.0033,18.4913,192.0],[-100.9898,18.4913,193.456],[-100.9737,18.482,193.5],[-100.9639,18.4718,197.7222],[-100.9608,18.465,195.0],[-100.9666,18.4537,202.6693],[-100.9664,18.4485,207.7268],[-100.9631,18.4457,196.5],[-100.9574,18.4444,197.0],[-100.9525,18.4457,197.0],[-100.9456,18.4539,198.0],[-100.9428,18.4551,199.7559],[-100.9338,18.4513,198.5],[-100.9267,18.444,202.4087],[-100.9223,18.4446,204.8382],[-100.9169,18.4517,208.8821],[-100.9149,18.4593,220.7825],[-100.9173,18.4667,207.1539],[-100.9145,18.4718,203.5352],[-100.9082,18.4714,202.0],[-100.9002,18.464,218.5604],[-100.8944,18.4631,203.125],[-100.8876,18.4681,213.1331],[-100.8805,18.4875,207.7507],[-100.874,18.492,212.0912],[-100.8693,18.4903,206.0],[-100.8633,18.4813,206.875],[-100.8592,18.4784,207.7639],[-100.8385,18.4731,210.2306],[-100.8091,18.4765,210.5],[-100.7982,18.4805,215.1082],[-100.7931,18.4771,213.7575],[-100.7857,18.4635,214.6407],[-100.7798,18.4509,213.5],[-100.7776,18.4395,218.4914],[-100.7601,18.4352,215.5],[-100.7556,18.4286,218.4753],[-100.7514,18.4258,217.0302],[-100.741,18.4282,219.289],[-100.7374,18.4273,229.3992],[-100.7277,18.4062,221.5],[-100.7227,18.4004,229.9531],[-100.7188,18.3992,222.5],[-100.7163,18.4009,222.5],[-100.7141,18.4043,223.0],[-100.7122,18.4139,226.4744],[-100.707,18.419,225.8625],[-100.6983,18.4189,226.2601],[-100.6911,18.4142,226.0029],[-100.6878,18.4086,226.2156],[-100.6899,18.4,228.2024],[-100.6893,18.3939,227.25],[-100.6847,18.3901,227.75],[-100.6837,18.3869,230.2958],[-100.6787,18.3863,230.0518],[-100.675,18.3836,231.8836],[-100.677,18.3769,238.2733],[-100.6767,18.3726,237.7996],[-100.6636,18.3614,234.4578],[-100.6571,18.3605,242.7211],[-100.6475,18.3501,235.0101],[-100.6459,18.3461,241.2863],[-100.643,18.3462,237.9501],[-100.6408,18.3515,240.8829],[-100.6415,18.3585,242.962],[-100.6397,18.3639,243.3161],[-100.6311,18.3685,247.1762],[-100.6269,18.3757,250.1654],[-100.6106,18.3771,244.3508],[-100.6081,18.3812,247.0085],[-100.6097,18.3872,250.3449],[-100.6018,18.391,246.3439],[-100.6015,18.3943,247.7357],[-100.5961,18.3995,246.8727],[-100.5996,18.4058,251.1381],[-100.5959,18.4083,248.3185],[-100.5895,18.4081,262.5721],[-100.5882,18.4121,252.4389],[-100.5907,18.4155,259.7262],[-100.5944,18.4161,276.9874],[-100.6077,18.4254,295.2023],[-100.6315,18.4385,299.7034],[-100.6319,18.441,300.8872],[-100.6353,18.443,317.3631],[-100.6372,18.4577,312.7036],[-100.648,18.4574,340.4297],[-100.6495,18.4621,434.3939],[-100.6525,18.4648,384.3625],[-100.676,18.4784,509.7334],[-100.6878,18.4832,530.582],[-100.6978,18.4906,353.5876],[-100.7012,18.4851,319.1075],[-100.7046,18.4833,332.9754],[-100.715,18.4864,386.9122],[-100.7084,18.4875,339.6654],[-100.707,18.4899,343.1488],[-100.7095,18.496,340.1144],[-100.7227,18.5138,385.0792],[-100.732,18.521,363.3525],[-100.7442,18.5181,562.1454],[-100.7649,18.5612,477.4897],[-100.7635,18.5633,545.4576],[-100.7642,18.5817,607.2318],[-100.7607,18.5924,437.0323],[-100.7616,18.5944,456.4228],[-100.7584,18.6096,733.8246],[-100.7522,18.6302,510.4735],[-100.7512,18.6417,478.619],[-100.7579,18.6392,399.4262],[-100.7601,18.6416,393.9054],[-100.7588,18.6429,423.2742],[-100.7594,18.6557,423.5125],[-100.7655,18.6642,498.269],[-100.7612,18.6717,473.5651],[-100.7613,18.676,486.817],[-100.7637,18.6829,512.5603],[-100.7702,18.6905,528.1321],[-100.7703,18.6927,529.2532],[-100.7728,18.6906,517.0885],[-100.7803,18.6901,424.4647],[-100.7798,18.6884,418.1281],[-100.7835,18.687,392.8671],[-100.7854,18.6915,411.348],[-100.7809,18.7035,440.1075],[-100.78,18.713,448.7399],[-100.7739,18.7275,532.3782],[-100.7754,18.7298,529.9924],[-100.7729,18.7326,567.7822],[-100.7802,18.7398,588.7222],[-100.7789,18.7426,587.2087],[-100.7818,18.7451,550.9769],[-100.7841,18.7452,542.0748],[-100.7885,18.7412,533.2043],[-100.7969,18.7463,562.4014],[-100.7954,18.7548,580.118],[-100.7931,18.7557,605.7819],[-100.7937,18.7579,635.1569],[-100.7918,18.7578,606.9865],[-100.7902,18.7614,661.9349],[-100.7927,18.7625,665.1953],[-100.792,18.7646,698.5211],[-100.7942,18.7648,735.2544],[-100.7945,18.7715,866.9493],[-100.799,18.7845,1121.6252],[-100.7955,18.7889,1041.5791],[-100.7851,18.7965,1269.4358],[-100.7825,18.8017,1252.3821],[-100.7916,18.8293,1076.3273],[-100.7918,18.8342,1007.9702],[-100.788,18.837,945.7668],[-100.7881,18.8388,910.2112],[-100.7804,18.8484,644.8809],[-100.7794,18.8514,587.4018],[-100.7821,18.8543,562.8649],[-100.7769,18.8598,420.6943],[-100.7733,18.8588,425.124],[-100.7691,18.8602,413.5918],[-100.7679,18.864,379.6708],[-100.7664,18.8656,385.5279],[-100.7652,18.8644,382.5411],[-100.7639,18.8669,372.6061],[-100.7601,18.8658,360.9254],[-100.7557,18.8677,375.7131],[-100.7484,18.8679,363.5162],[-100.7483,18.8613,418.917],[-100.7462,18.858,387.0134],[-100.7411,18.8604,360.7101],[-100.7368,18.8605,358.7504],[-100.7364,18.8513,359.3731],[-100.724,18.8492,358.3801],[-100.7096,18.8358,358.0],[-100.7122,18.83,358.0],[-100.712,18.8259,360.1532],[-100.7028,18.8238,358.0],[-100.7055,18.8137,358.0],[-100.7058,18.7964,358.0],[-100.6961,18.7941,358.0],[-100.692,18.8056,372.3272],[-100.6899,18.8025,358.0],[-100.6877,18.8045,358.0],[-100.6847,18.8032,358.0],[-100.6833,18.8086,359.1065],[-100.6799,18.8096,358.0],[-100.68,18.8172,359.1736],[-100.6762,18.8168,376.2853],[-100.6669,18.8194,391.6374],[-100.668,18.8215,360.8818],[-100.6714,18.8207,361.1008],[-100.6729,18.8248,360.8179],[-100.6716,18.8282,363.6519],[-100.6684,18.829,370.8048],[-100.6661,18.8343,373.1598],[-100.6593,18.834,387.6774],[-100.6564,18.8384,371.8399],[-100.6507,18.8399,418.0649],[-100.6535,18.8439,393.527],[-100.6517,18.8479,393.404],[-100.6434,18.8489,382.3523],[-100.6428,18.8521,383.9228],[-100.6452,18.8603,394.2076],[-100.6404,18.8622,422.9171],[-100.6408,18.8659,389.7117],[-100.6375,18.8676,417.7714],[-100.6346,18.8666,430.0161],[-100.6294,18.8679,404.5375],[-100.6254,18.8659,405.0729],[-100.6222,18.8668,422.5852],[-100.6234,18.8713,398.9904],[-100.6196,18.8745,412.5592],[-100.6204,18.8785,405.574],[-100.6157,18.88,500.7321],[-100.6134,18.8833,464.8466],[-100.6135,18.8864,413.6138],[-100.6108,18.8892,410.0957],[-100.6109,18.892,410.3614],[-100.6129,18.8935,425.353],[-100.6087,18.8948,419.0664],[-100.606,18.8929,423.3282],[-100.6005,18.8929,421.3885],[-100.6012,18.897,422.3843],[-100.6041,18.8994,456.8317],[-100.5994,18.9003,428.1636],[-100.594,18.9059,484.7574],[-100.5894,18.9081,517.302],[-100.5932,18.9153,434.8196],[-100.5904,18.9156,425.7499],[-100.5854,18.9113,432.6884],[-100.5804,18.9157,503.8495],[-100.5782,18.9141,434.8233],[-100.5742,18.9145,438.6775],[-100.574,18.917,436.38],[-100.578,18.9211,448.2849],[-100.5759,18.9229,448.7717],[-100.5652,18.9177,449.1105],[-100.5688,18.9217,444.5716],[-100.5639,18.9238,447.1474],[-100.565,18.9286,466.2749],[-100.5622,18.9286,472.5586],[-100.5632,18.9313,457.7832],[-100.562,18.9328,455.4017],[-100.5582,18.9351,457.5483],[-100.5468,18.9327,469.0286],[-100.5438,18.9347,483.6948],[-100.5436,18.9404,486.3945],[-100.5469,18.9414,530.3298],[-100.5497,18.9464,491.3103],[-100.5461,18.9501,482.2063],[-100.5476,18.9521,481.9297],[-100.5467,18.9642,522.6036],[-100.5448,18.9659,501.343],[-100.5401,18.9627,488.7985],[-100.5334,18.9644,500.2293],[-100.5332,18.9664,495.3561],[-100.5373,18.9723,526.1434],[-100.5338,18.9786,515.1004],[-100.5377,18.9842,519.0397],[-100.5352,18.9877,514.7336],[-100.5324,18.9857,509.3193],[-100.5302,18.987,503.8633],[-100.5324,18.9912,529.11],[-100.5302,18.9942,540.5224],[-100.5248,18.9927,517.0421],[-100.5232,18.9936,533.8378],[-100.5247,19.0001,531.0156],[-100.5308,19.0069,582.6563],[-100.5299,19.0093,535.5183],[-100.5194,19.0121,609.243],[-100.5142,19.0084,554.2435],[-100.5128,19.0124,557.7751],[-100.5089,19.0103,616.16],[-100.5064,19.0133,545.5085],[-100.5027,19.0133,550.8955],[-100.5017,19.0166,612.852],[-100.496,19.0182,564.3749],[-100.4953,19.022,584.8972],[-100.4921,19.0201,570.1095],[-100.4888,19.0232,558.3624],[-100.4843,19.021,565.3438],[-100.4833,19.0241,573.8228],[-100.4851,19.0277,579.5958],[-100.4791,19.0262,557.3511],[-100.4794,19.0311,555.7036],[-100.4771,19.0341,575.1646],[-100.4687,19.0291,580.0755],[-100.4656,19.0317,569.3357],[-100.4613,19.0315,590.1805],[-100.459,19.033,602.6042],[-100.4579,19.041,601.7402],[-100.4536,19.0424,608.4938],[-100.4512,19.0478,620.0833],[-100.4456,19.0454,637.2017],[-100.4484,19.049,623.7226],[-100.4471,19.052,653.0765],[-100.4396,19.0543,633.1545],[-100.4362,19.0579,633.0259],[-100.4314,19.0549,661.4253],[-100.4317,19.0607,720.9036],[-100.4205,19.061,646.325],[-100.4198,19.0659,662.2537],[-100.4108,19.0636,670.6243],[-100.4105,19.0652,693.5197],[-100.4126,19.0667,661.0497],[-100.4116,19.0728,656.7781],[-100.4075,19.0756,685.423],[-100.4089,19.0789,738.6034],[-100.4068,19.0805,719.3462],[-100.4107,19.084,718.3167],[-100.4048,19.0933,730.2911],[-100.4066,19.0961,786.413],[-100.4039,19.0979,731.7549],[-100.4029,19.1038,745.6454],[-100.4055,19.1041,737.8243],[-100.4067,19.1059,753.0948],[-100.4039,19.1077,753.467],[-100.4044,19.1095,732.6627],[-100.3991,19.1105,737.2536],[-100.3976,19.1162,762.3732],[-100.3952,19.1179,768.5726],[-100.3946,19.1217,752.6467],[-100.3963,19.1234,799.1974],[-100.3921,19.1246,811.2909],[-100.3939,19.1276,752.8546],[-100.3915,19.1284,772.7029],[-100.3882,19.1368,784.9251],[-100.3895,19.1429,797.4103],[-100.3865,19.1451,801.8721],[-100.3861,19.1475,832.1409],[-100.3829,19.1476,804.1788],[-100.3797,19.1515,808.8983],[-100.376,19.1515,823.2185],[-100.3731,19.1486,842.6915],[-100.3692,19.1505,867.1747],[-100.3667,19.1497,850.2714],[-100.3664,19.1534,845.1116],[-100.3637,19.1521,859.8247],[-100.3616,19.1547,905.7162],[-100.3782,19.1711,1381.2101],[-100.3711,19.1775,1541.8643],[-100.3731,19.1942,1468.3713],[-100.3701,19.1944,1469.6145],[-100.3626,19.2029,1715.5334],[-100.3592,19.203,1768.3368],[-100.3603,19.2051,1772.1827],[-100.3336,19.2309,1897.4832],[-100.3313,19.2305,1875.1036],[-100.3225,19.2507,1917.2174],[-100.3199,19.253,1949.3923],[-100.3217,19.2563,1982.1377],[-100.3197,19.2618,2091.9766],[-100.3211,19.2671,2115.0703],[-100.3205,19.2803,2340.7742],[-100.3153,19.2874,2773.7017],[-100.3201,19.2889,2738.6641],[-100.3201,19.2909,2700.5364],[-100.3131,19.2973,2637.9907],[-100.3207,19.3068,2484.967],[-100.3233,19.3068,2419.0632],[-100.32,19.3162,2538.9185],[-100.3163,19.3194,2522.1807],[-100.3068,19.3228,2336.8533],[-100.3069,19.3382,2472.1433],[-100.3007,19.3427,2318.8494],[-100.3111,19.3532,2313.7358],[-100.3124,19.3624,2261.1719],[-100.3021,19.37,2333.9968],[-100.2996,19.3766,2450.1423],[-100.2944,19.3809,2506.9326],[-100.2931,19.3951,2739.0872],[-100.273,19.3989,2758.2781],[-100.2677,19.4026,2848.6826],[-100.2374,19.4035,3382.2085],[-100.2159,19.4134,3376.6621],[-100.2021,19.432,3170.1284],[-100.1973,19.4335,3063.9546],[-100.1899,19.4397,2894.0508],[-100.1989,19.4524,2728.1687],[-100.2025,19.4549,2712.2456],[-100.2061,19.4545,2679.8677],[-100.2057,19.4582,2675.1689],[-100.2067,19.4579,2675.1689],[-100.2075,19.4611,2692.1475],[-100.2064,19.4704,2747.0625],[-100.2019,19.4755,3042.8359],[-100.2041,19.4797,2975.6152],[-100.2009,19.4826,3101.4814],[-100.201,19.4928,3178.6821],[-100.1798,19.4883,2875.1101],[-100.1767,19.4897,2934.8794],[-100.1786,19.4907,2960.7002],[-100.1777,19.4926,2959.2451],[-100.1849,19.4988,3064.6094],[-100.1933,19.4992,3154.3745],[-100.1934,19.4974,3124.2966],[-100.1958,19.4992,3049.7734],[-100.1965,19.4982,3017.062],[-100.2019,19.4995,3173.5837],[-100.2006,19.5187,3280.4858],[-100.2019,19.5229,3274.3662],[-100.1964,19.5317,3442.5527],[-100.2105,19.5421,3310.5063],[-100.2147,19.5528,3360.3533],[-100.2251,19.5579,3443.1184],[-100.2375,19.5572,3243.1416],[-100.238,19.5667,3359.7568],[-100.2423,19.5697,3257.8992],[-100.2443,19.5737,3308.9373],[-100.2436,19.5856,3529.6685],[-100.2521,19.6175,3307.4812],[-100.2523,19.6235,3390.6401],[-100.2496,19.6273,3431.9531],[-100.2517,19.6273,3405.6887],[-100.2475,19.6345,3426.7],[-100.2617,19.658,3252.0283],[-100.274,19.6723,3259.9285],[-100.2675,19.6772,3240.7571],[-100.2639,19.6958,3211.3381],[-100.2581,19.6949,3030.9565],[-100.2585,19.7002,3118.6626],[-100.2526,19.7039,3073.6567],[-100.2437,19.7048,2990.1689],[-100.2407,19.7086,3014.4434],[-100.243,19.7085,3045.3428],[-100.2403,19.7129,3020.1177],[-100.2387,19.7114,3009.2224],[-100.2371,19.7125,2974.7461],[-100.2361,19.7161,3028.9006],[-100.2371,19.7186,3001.2207],[-100.2341,19.72,2960.0007],[-100.2322,19.7205,2993.9197],[-100.2314,19.7176,2993.896],[-100.2297,19.7201,2991.1482],[-100.2258,19.7172,2866.96],[-100.2288,19.7151,2906.7222],[-100.2261,19.7149,2874.1187],[-100.2273,19.7133,2884.8813],[-100.2295,19.7141,2906.7222],[-100.2318,19.7106,2958.4966],[-100.2312,19.7086,2962.5698],[-100.2296,19.7085,2962.5698],[-100.2308,19.7073,2962.5698],[-100.2295,19.7022,2900.6348],[-100.221,19.7028,2946.8457],[-100.2176,19.7052,2920.9316],[-100.2159,19.7034,2936.0337],[-100.2041,19.7046,2853.9814],[-100.1971,19.7007,2889.292],[-100.1968,19.7023,2882.4233],[-100.1922,19.7016,3061.9868],[-100.1921,19.6971,3051.9187],[-100.1903,19.6982,3045.1062],[-100.186,19.713,2951.4758],[-100.1701,19.7129,2958.3738],[-100.1708,19.7112,2934.6294],[-100.1693,19.7077,2891.0066],[-100.1556,19.722,2953.8281],[-100.1594,19.724,2925.301],[-100.1598,19.7261,2843.8999],[-100.1575,19.7273,2838.0203],[-100.1558,19.7252,2947.2002],[-100.1482,19.7282,2926.9924],[-100.1464,19.7324,2980.6064],[-100.1471,19.7418,3052.9463],[-100.1434,19.7495,3126.1421],[-100.1453,19.7572,2956.6038],[-100.1448,19.7643,2902.4619],[-100.1493,19.7668,2900.438],[-100.1451,19.7711,2888.897],[-100.1461,19.7786,2894.9436],[-100.1419,19.7874,2822.0371],[-100.1469,19.798,2978.3896],[-100.1429,19.8035,3003.1614],[-100.1467,19.8128,2974.7036],[-100.1433,19.8189,2806.0999],[-100.1443,19.8238,2800.5935],[-100.1426,19.8288,2926.1682],[-100.1315,19.852,2637.2405],[-100.1271,19.854,2614.4683],[-100.126,19.8563,2577.9004],[-100.1229,19.8569,2591.7327],[-100.102,19.854,2516.1963],[-100.0949,19.8604,2539.8242],[-100.0875,19.8604,2558.8513],[-100.0671,19.8551,2625.5461],[-100.0634,19.8546,2623.2756],[-100.063,19.8558,2640.5547],[-100.0643,19.8562,2640.5547],[-100.0632,19.86,2668.4382],[-100.0647,19.8628,2698.2683],[-100.067,19.8633,2699.248],[-100.0672,19.8617,2693.124],[-100.071,19.8631,2702.3071],[-100.1024,19.8797,2446.981],[-100.1142,19.9014,2475.4631],[-100.1175,19.904,2391.6411],[-100.1192,19.9121,2366.2158],[-100.1301,19.9162,2436.3665],[-100.1314,19.982,2993.0249],[-100.1244,19.9968,2719.7751],[-100.116,20.0061,2524.4995],[-100.1232,20.0077,2558.8184],[-100.1252,20.0122,2489.4668],[-100.1306,20.0097,2505.1284],[-100.1377,20.0108,2498.8022],[-100.1445,20.0052,2589.824],[-100.1538,20.0064,2782.4131],[-100.1551,20.0074,2773.2988],[-100.1551,20.0135,2743.8142],[-100.1577,20.0179,2722.8289],[-100.1559,20.0245,2586.9958],[-100.1587,20.0358,2415.9631],[-100.1545,20.0351,2397.7021],[-100.1533,20.0537,2377.2905],[-100.1469,20.0552,2360.0967],[-100.1464,20.0522,2359.9753],[-100.1418,20.0479,2364.4038],[-100.1394,20.043,2364.8774],[-100.1379,20.0443,2360.2986],[-100.1381,20.0476,2358.8816],[-100.1433,20.0508,2359.0132],[-100.1471,20.0577,2359.4827],[-100.1522,20.0573,2358.3884],[-100.1626,20.063,2357.6523],[-100.1588,20.0657,2357.2026],[-100.1621,20.0675,2364.1006],[-100.1572,20.0707,2360.9678],[-100.1581,20.0747,2359.1353],[-100.1635,20.0763,2357.646],[-100.1645,20.0783,2356.9905],[-100.1668,20.0748,2356.8159],[-100.1717,20.0782,2357.7581],[-100.1728,20.0733,2358.6802],[-100.1767,20.0709,2363.915],[-100.1831,20.0739,2362.4521],[-100.1789,20.0813,2356.7332],[-100.1798,20.083,2357.4929],[-100.1835,20.0827,2355.8989],[-100.185,20.0803,2355.6304],[-100.1879,20.0799,2354.863],[-100.1893,20.0764,2358.4958],[-100.1932,20.0748,2355.2402],[-100.1975,20.0771,2357.4646],[-100.2029,20.0766,2361.9099],[-100.2015,20.0777,2358.3655],[-100.1974,20.1299,2418.7563],[-100.2356,20.1435,2531.5215],[-100.2294,20.1469,2564.2778],[-100.2275,20.15,2561.5229],[-100.2219,20.1506,2569.5532],[-100.2133,20.1568,2601.0735],[-100.2094,20.1613,2634.2319],[-100.2096,20.1635,2649.0312],[-100.2038,20.167,2690.1519],[-100.2033,20.1718,2693.3643],[-100.1919,20.176,2658.6284],[-100.1884,20.1942,2596.3213],[-100.1853,20.1943,2609.1365],[-100.1842,20.1894,2620.9802],[-100.1811,20.2088,2580.9961],[-100.1839,20.209,2583.1143],[-100.1845,20.2116,2583.7737],[-100.1965,20.2223,2613.4478],[-100.2072,20.2294,2608.7026],[-100.2216,20.2346,2625.6985],[-100.2243,20.2379,2640.1741],[-100.2451,20.2504,2898.2075],[-100.2605,20.2675,2739.4241],[-100.3093,20.2824,2500.6082],[-100.3075,20.2856,2555.5642],[-100.3458,20.298,2482.7388],[-100.3507,20.2884,2453.0068],[-100.3459,20.2844,2458.8452],[-100.3474,20.2805,2459.6589],[-100.3441,20.2729,2447.8132],[-100.3419,20.2736,2439.8149],[-100.3391,20.2718,2430.6367],[-100.3342,20.2654,2459.6821],[-100.3311,20.2668,2457.9045],[-100.3294,20.263,2458.364],[-100.3258,20.261,2477.7581],[-100.3273,20.2577,2427.0393],[-100.3236,20.2519,2413.8789],[-100.3328,20.2426,2392.7112],[-100.3415,20.2391,2391.1296],[-100.3418,20.2321,2422.2383],[-100.3435,20.229,2376.1965],[-100.3461,20.2277,2354.7024],[-100.3475,20.2247,2358.3],[-100.35,20.2242,2347.2739],[-100.3502,20.2214,2350.98],[-100.3552,20.219,2346.9014],[-100.3539,20.2132,2340.8987],[-100.3553,20.2111,2328.8635],[-100.3526,20.2063,2353.5769],[-100.3523,20.2005,2323.7166],[-100.3502,20.1991,2314.5796],[-100.346,20.201,2323.0332],[-100.3454,20.1965,2372.1924],[-100.3423,20.1955,2425.3306],[-100.3403,20.1897,2351.4177],[-100.3558,20.1824,2271.5239],[-100.3539,20.1795,2268.999],[-100.3611,20.1726,2300.748],[-100.3612,20.1695,2311.9358],[-100.3589,20.1672,2315.9355],[-100.3699,20.1467,2390.46],[-100.3709,20.1362,2405.729],[-100.3836,20.1291,2525.3599],[-100.3915,20.121,2799.908],[-100.3853,20.1045,2807.7344],[-100.3973,20.097,2739.1865],[-100.3898,20.0808,2916.0203],[-100.3673,20.0675,2856.5967],[-100.3583,20.0649,2698.0657],[-100.3606,20.0543,2598.8035],[-100.362,20.0534,2582.4731],[-100.3587,20.0477,2542.1968],[-100.3544,20.0278,2597.3926],[-100.355,20.0101,2629.4143],[-100.3593,20.0097,2625.8079],[-100.3605,20.024,2607.8494],[-100.3647,20.0197,2602.4224],[-100.3704,20.0213,2632.6765],[-100.3629,19.9899,2809.45],[-100.3868,19.9889,2560.4307],[-100.405,19.9838,2357.4014],[-100.4098,19.9875,2235.1318],[-100.414,19.9857,2259.6433],[-100.4248,19.9841,2097.4624],[-100.4312,19.9852,2059.9473],[-100.4436,19.9823,1962.1826],[-100.4497,19.9827,1942.8071],[-100.4627,19.9885,1995.6208],[-100.4658,19.9874,2000.5692],[-100.462,19.9835,2005.8657],[-100.4625,19.9793,2007.853],[-100.4702,19.98,2004.5964],[-100.47,19.9756,2005.6899],[-100.4736,19.9723,2007.5702],[-100.489,19.9662,2035.6033],[-100.4982,19.958,2052.9143],[-100.5056,19.9579,2037.9424],[-100.509,19.9594,2030.3075],[-100.5117,19.9582,1995.9515],[-100.5103,19.9534,2014.3328],[-100.5118,19.9422,2083.7615],[-100.5157,19.9405,2064.2712],[-100.516,19.9366,2090.7808],[-100.5175,19.9366,2090.7808],[-100.5217,19.9277,2123.4971],[-100.5199,19.9188,2176.3093],[-100.5293,19.9202,2180.3479],[-100.536,19.923,2210.7749],[-100.5341,19.9324,2155.4431],[-100.5347,19.9363,2140.0752],[-100.5293,19.941,2124.6392],[-100.5293,19.9517,2047.4214],[-100.5268,19.9658,2003.0338],[-100.5282,19.9743,1966.7861],[-100.5318,19.9764,1955.8088],[-100.5357,19.9744,1961.5991],[-100.5406,19.9749,1984.3351],[-100.5424,19.9728,1987.8391],[-100.535,19.972,1986.2235],[-100.5339,19.9692,1969.3506],[-100.5412,19.9646,1984.3934],[-100.5435,19.9613,1983.3685],[-100.5507,19.958,2001.0428],[-100.5601,19.9591,2029.6963],[-100.5637,19.965,2085.0574],[-100.566,19.9661,2074.6167],[-100.5716,19.9647,2103.686],[-100.5795,19.9576,2142.0417],[-100.5841,19.959,2169.0549],[-100.5907,19.9568,2210.241],[-100.5931,19.9583,2303.1335],[-100.5939,19.9639,2302.2314],[-100.5876,19.9714,2266.0605],[-100.5806,19.975,2099.5684],[-100.5657,19.9745,2086.7881],[-100.5623,19.9803,2014.6677],[-100.5586,19.9829,1973.9082],[-100.559,19.9846,1972.5576],[-100.5568,19.9853,1967.047],[-100.5567,19.9873,1982.5991],[-100.5579,19.9917,2115.8079],[-100.5767,19.9931,2114.4692],[-100.5956,19.9917,2051.3223],[-100.5943,19.9898,2044.7156],[-100.5985,19.9883,2036.8643],[-100.6061,19.9822,2084.5947],[-100.6176,19.9577,2233.6091],[-100.6489,19.958,2450.1213],[-100.6604,19.9645,2293.3997],[-100.6718,19.9585,2392.8013],[-100.6806,19.9505,2488.8821],[-100.695,19.9477,2312.0627],[-100.7043,19.9428,2290.354],[-100.7188,19.9405,2210.8391],[-100.7328,19.9306,2145.603],[-100.7437,19.9167,2396.4688],[-100.7488,19.9128,2258.8879],[-100.7535,19.9171,2185.6973],[-100.7652,19.9158,2095.8452],[-100.772,19.9179,2038.6401],[-100.7742,19.9154,2005.2795],[-100.7788,19.9151,1985.1788],[-100.7811,19.9189,2085.6174],[-100.7809,19.924,2018.9042],[-100.7837,19.9361,2091.1997],[-100.7907,19.9454,2045.9235],[-100.7921,19.9556,1973.0154],[-100.8022,19.9583,1931.9323],[-100.8124,19.9714,1917.218],[-100.8243,19.9783,1906.5886],[-100.8329,19.9724,1976.7887],[-100.83,19.9597,2090.645],[-100.8302,19.9541,2011.5989],[-100.834,19.9472,2174.0303],[-100.8358,19.9346,1841.9922],[-100.8545,19.9349,1832.9169],[-100.8547,19.9393,1833.9431],[-100.853,19.9417,1838.0907],[-100.8562,19.9423,1834.5057],[-100.8572,19.9466,1833.8867],[-100.8603,19.9489,1835.9395],[-100.8639,19.9487,1835.1899],[-100.8642,19.9465,1833.4824],[-100.8727,19.944,1834.5823],[-100.8826,19.9439,1834.4683],[-100.9016,19.9595,1834.2788],[-100.906,19.9616,1833.063],[-100.9111,19.9617,1833.6605],[-100.9159,19.9579,1836.0474],[-100.9237,19.9582,1835.2405],[-100.9298,19.9564,1833.9918],[-100.9326,19.9535,1832.5],[-100.9356,19.9572,1834.6226],[-100.9475,19.9625,1836.8801],[-100.9479,19.9336,1832.5],[-100.9644,19.9283,1835.0464],[-100.9718,19.93,1836.2816],[-100.9774,19.9369,1834.6646],[-100.9794,19.9529,1841.8594],[-100.982,19.9532,1838.8348],[-100.9808,19.9552,1840.9126],[-100.9838,19.9567,1835.5254],[-100.9888,19.9561,1835.4438],[-100.9981,19.9546,1839.9418],[-101.0023,19.9524,1840.583],[-101.0039,19.9569,1832.5],[-101.0025,19.965,1832.821],[-101.0047,19.9662,1834.9207],[-100.9878,19.979,1994.6086],[-100.9767,19.9827,2050.0281],[-100.9774,19.9853,2030.7594],[-100.9805,19.9872,1963.8276],[-100.9793,19.9938,1957.0608],[-100.9834,19.9965,1911.3086],[-100.9827,20.0026,1944.6927],[-100.9728,20.0021,2132.4536],[-100.9681,20.007,2161.3127],[-100.9676,20.0113,2043.5402],[-100.975,20.0142,1969.2271],[-100.9791,20.0178,1955.2341],[-100.9806,20.0232,1928.943],[-100.9879,20.0269,1914.9054],[-100.9934,20.0273,1897.4697],[-100.9976,20.0256,1893.5],[-101.0028,20.0284,1893.3652],[-101.0081,20.0281,1866.1453],[-101.0044,20.0303,1886.2585],[-101.0051,20.0349,1887.5217],[-101.0036,20.038,1897.3395],[-101.0127,20.0378,1863.6793],[-101.0123,20.0396,1867.7845],[-101.0142,20.0403,1862.5663],[-101.014,20.0457,1862.6594],[-101.0002,20.0602,1967.3635],[-100.9928,20.0649,2031.0896],[-101.0173,20.0857,2157.8647],[-101.0281,20.0879,2047.5035],[-101.0353,20.0873,2037.7701],[-101.0401,20.089,2033.1223],[-101.0429,20.092,2030.5803],[-101.0488,20.0896,2047.2533],[-101.051,20.0911,2020.9581],[-101.0749,20.0884,1995.0254],[-101.08,20.0828,1943.8608],[-101.0943,20.082,1938.1075],[-101.1105,20.076,1843.3929],[-101.1139,20.0772,1844.5116],[-101.115,20.075,1839.272],[-101.1176,20.0749,1838.834],[-101.1175,20.0733,1842.4691],[-101.1197,20.0735,1841.7577],[-101.1195,20.071,1843.4176],[-101.1261,20.0644,1834.7888],[-101.1331,20.06,1834.5502],[-101.1544,20.085,1836.1787],[-101.1566,20.0838,1847.1337],[-101.1585,20.0869,1849.1743],[-101.1652,20.0872,1874.8428],[-101.1664,20.0912,1870.2183],[-101.1711,20.094,1872.1471],[-101.1736,20.0978,1867.6237],[-101.1752,20.0971,1866.162],[-101.1726,20.0849,1884.0538],[-101.1705,20.0846,1867.91],[-101.1697,20.0823,1856.1418],[-101.1736,20.0762,1851.7419],[-101.1709,20.0757,1849.6965],[-101.1716,20.0735,1854.2469],[-101.174,20.0721,1855.1603],[-101.1767,20.0645,1929.3124],[-101.1791,20.0624,1988.0552],[-101.1963,20.0572,2082.4629],[-101.1814,20.0534,1983.0388],[-101.1717,20.0475,1930.9359],[-101.1666,20.0425,1894.0193],[-101.1671,20.0454,1889.4409],[-101.1639,20.0459,1875.9766],[-101.16,20.0419,1884.4333],[-101.1604,20.0402,1880.1581],[-101.1823,20.0269,1974.104],[-101.1913,20.0273,2003.3904],[-101.1963,20.0249,2139.0823],[-101.2015,20.0257,2114.1074],[-101.2031,20.0072,2410.3494],[-101.2135,20.0108,2337.7576],[-101.2207,20.0114,2157.4863],[-101.23,20.0229,2101.7065],[-101.2304,20.0273,2111.9133],[-101.2383,20.0321,2270.2578],[-101.2472,20.0277,2140.728],[-101.2473,20.0258,2123.0698],[-101.2508,20.0233,2065.5391],[-101.25,20.0284,2119.9158],[-101.253,20.0355,2138.1863],[-101.281,20.0275,2266.7012],[-101.2832,20.0307,2282.6619],[-101.2965,20.0386,2373.0806],[-101.3068,20.0377,2364.2014],[-101.3088,20.0362,2367.1541],[-101.3165,20.0374,2378.5386],[-101.3214,20.0332,2351.439],[-101.334,20.0315,2406.481],[-101.3373,20.0328,2434.7817],[-101.3482,20.0321,2395.1936],[-101.3541,20.0384,2517.2163],[-101.3699,20.0364,2428.7092],[-101.3749,20.0404,2438.8054],[-101.3817,20.0335,2475.043],[-101.3881,20.0304,2509.7502],[-101.392,20.0338,2576.3198],[-101.3976,20.0341,2660.8374],[-101.3997,20.0363,2696.6382],[-101.4017,20.035,2698.7163],[-101.4026,20.047,2706.1189],[-101.3943,20.0529,2515.1001],[-101.3962,20.0649,2342.2104],[-101.3954,20.07,2231.1367],[-101.3939,20.075,2154.2715],[-101.3889,20.0785,2072.77],[-101.3875,20.083,2021.9303],[-101.3923,20.0833,2050.2258],[-101.4047,20.0802,2194.1597],[-101.4055,20.0976,1904.027],[-101.4032,20.1002,1902.8423],[-101.4083,20.1026,1936.2283],[-101.4074,20.1057,1962.1941],[-101.4043,20.1068,1936.1587],[-101.4087,20.1231,2086.1296],[-101.4028,20.1273,1992.5393],[-101.3956,20.1284,1898.8052],[-101.391,20.1271,1867.6158],[-101.3892,20.1303,1852.6383],[-101.3894,20.1349,1845.0564],[-101.3923,20.1394,1855.8495],[-101.3912,20.1397,1844.5471],[-101.3924,20.144,1847.9491],[-101.4003,20.1414,1882.9254],[-101.4036,20.1421,1901.6786],[-101.4063,20.1443,1905.0325],[-101.4091,20.1523,1929.8448],[-101.4144,20.1561,1972.2595],[-101.4165,20.1617,2022.6879],[-101.4225,20.1632,2109.8608],[-101.4237,20.1699,2025.1383],[-101.4199,20.2016,2093.5718],[-101.4056,20.2033,2204.1602],[-101.388,20.2013,2203.2036],[-101.3632,20.1958,2434.6089],[-101.3526,20.2349,2146.7783],[-101.3611,20.2463,2079.293],[-101.3605,20.2491,2051.2327],[-101.3953,20.2485,2363.9805],[-101.4065,20.2636,2189.6118],[-101.4156,20.2648,2047.4008],[-101.4206,20.2752,1947.5754],[-101.4355,20.2774,1852.4584],[-101.4369,20.2638,1964.7554],[-101.4461,20.2639,1926.9156],[-101.4559,20.2672,1895.3192],[-101.459,20.2702,1802.1611],[-101.4566,20.2712,1828.6259],[-101.4563,20.2739,1808.3567],[-101.4538,20.274,1820.6749],[-101.4584,20.276,1780.589],[-101.4572,20.2851,1761.3507],[-101.4493,20.2875,1799.4141],[-101.4483,20.2896,1833.1102],[-101.445,20.2897,1768.7545],[-101.4446,20.2951,1752.5886],[-101.4497,20.2982,1737.9319],[-101.4404,20.3035,1727.1975],[-101.4402,20.3052,1721.8877],[-101.4567,20.3044,1721.5219],[-101.4549,20.3179,1695.9198],[-101.4515,20.3178,1699.7366],[-101.4509,20.3195,1710.3804],[-101.4568,20.3193,1694.561],[-101.4631,20.3279,1691.4998],[-101.4721,20.3312,1691.2268],[-101.4811,20.3297,1690.0247],[-101.4914,20.3182,1689.6721],[-101.4932,20.314,1691.295],[-101.5011,20.3117,1691.1615],[-101.5045,20.319,1690.1118],[-101.5014,20.3209,1690.629],[-101.5029,20.3249,1688.9336],[-101.507,20.3245,1689.4043],[-101.5099,20.3193,1690.651],[-101.5142,20.3179,1688.8577],[-101.5242,20.3212,1689.3455],[-101.5218,20.3281,1688.2788],[-101.5229,20.3323,1688.5315],[-101.5294,20.3326,1689.1093],[-101.5378,20.3244,1687.6833],[-101.542,20.3295,1687.8744],[-101.5533,20.3325,1687.7382],[-101.5633,20.3214,1688.7408],[-101.5614,20.3166,1686.8341],[-101.5658,20.3157,1686.8044],[-101.5708,20.3159,1687.2408],[-101.5721,20.3212,1687.2996],[-101.5757,20.3213,1686.7274],[-101.5778,20.3264,1686.0139],[-101.5831,20.3274,1687.5112],[-101.5844,20.3167,1687.9543],[-101.5888,20.3133,1687.1632],[-101.5892,20.3096,1691.2904],[-101.596,20.3118,1686.6929],[-101.6009,20.3101,1686.907],[-101.5991,20.3066,1685.3915],[-101.6011,20.298,1687.0853],[-101.604,20.298,1686.1279],[-101.6057,20.2998,1687.1606],[-101.6047,20.3094,1686.3121],[-101.6085,20.3097,1687.108],[-101.6113,20.3127,1686.0692],[-101.6178,20.3124,1685.0466],[-101.6199,20.3155,1687.2736],[-101.6247,20.3146,1685.5679],[-101.6275,20.3096,1685.364],[-101.6258,20.3056,1684.8994],[-101.6292,20.2987,1685.3762],[-101.6284,20.2959,1684.9578],[-101.6349,20.289,1683.684],[-101.6323,20.284,1685.9158],[-101.624,20.2761,1686.8466],[-101.6255,20.267,1683.7284],[-101.6284,20.2648,1685.1572],[-101.632,20.2648,1684.333],[-101.6324,20.2695,1685.519],[-101.6344,20.2712,1684.0105],[-101.637,20.2698,1684.0193],[-101.6388,20.2658,1683.7609],[-101.6425,20.2676,1683.6265],[-101.6436,20.2619,1683.4189],[-101.6468,20.2601,1683.7953],[-101.6509,20.2535,1682.3289],[-101.644,20.2472,1683.0421],[-101.6463,20.2387,1686.0363],[-101.6524,20.2396,1684.5022],[-101.6546,20.2435,1682.4919],[-101.6633,20.2376,1681.7327],[-101.6636,20.2317,1684.4509],[-101.6677,20.2272,1683.8064],[-101.6673,20.2219,1684.1147],[-101.6693,20.2194,1682.0867],[-101.6656,20.2159,1684.8289],[-101.6685,20.2131,1682.8784],[-101.6731,20.2126,1681.5961],[-101.6751,20.2174,1682.9509],[-101.6781,20.2189,1681.7402],[-101.6869,20.2172,1694.2233],[-101.6895,20.2135,1680.6008],[-101.6887,20.2106,1680.3965],[-101.6927,20.2073,1681.5463],[-101.6898,20.2009,1681.8818],[-101.6904,20.1968,1683.6816],[-101.6938,20.192,1683.4169],[-101.6979,20.1897,1682.0371],[-101.7039,20.1904,1684.6412],[-101.706,20.2006,1680.965],[-101.7106,20.2053,1680.7238],[-101.7159,20.2044,1681.1073],[-101.7259,20.2056,1681.9258],[-101.7272,20.2115,1681.4237],[-101.7312,20.2148,1680.2228],[-101.7322,20.2111,1680.6763],[-101.7428,20.2068,1680.6393],[-101.7435,20.2039,1679.3628],[-101.7572,20.2047,1681.1151],[-101.7594,20.2017,1681.298],[-101.7644,20.2045,1679.7424],[-101.7679,20.2046,1679.489],[-101.7768,20.2115,1678.9301],[-101.7823,20.2108,1679.3207],[-101.7846,20.2145,1680.0154],[-101.784,20.2179,1678.5774],[-101.7866,20.2193,1681.3608],[-101.7941,20.2159,1679.339],[-101.7993,20.2109,1681.2819],[-101.8038,20.2143,1681.7842],[-101.8091,20.2044,1680.1953],[-101.8168,20.2018,1680.095],[-101.8249,20.2018,1679.2203],[-101.8247,20.2039,1681.6929],[-101.8202,20.2056,1678.8562],[-101.8196,20.2087,1678.6288],[-101.8284,20.2149,1678.6442],[-101.8299,20.2196,1678.8806],[-101.8289,20.2216,1678.4453],[-101.8339,20.2248,1679.3466],[-101.8495,20.2177,1677.9597],[-101.8561,20.2119,1702.5499],[-101.8716,20.211,1677.6249],[-101.872,20.2044,1678.934],[-101.8748,20.202,1679.4312],[-101.8797,20.2018,1678.0234],[-101.8814,20.2,1678.0808],[-101.8783,20.1914,1679.3573],[-101.8809,20.1881,1678.0576],[-101.8837,20.1902,1677.5208],[-101.8889,20.1889,1679.2513],[-101.8858,20.194,1679.7476],[-101.8872,20.1984,1678.2483],[-101.8907,20.2027,1677.1741],[-101.8942,20.204,1678.1035],[-101.8985,20.204,1678.7139],[-101.9014,20.2018,1678.0341],[-101.9047,20.203,1677.9846],[-101.908,20.2,1676.7927],[-101.91,20.1938,1676.1421],[-101.9173,20.1948,1677.3605],[-101.9194,20.1976,1677.0364],[-101.9181,20.203,1676.9656],[-101.9155,20.204,1677.1025],[-101.9157,20.2067,1676.9615],[-101.9093,20.2034,1677.4258],[-101.9073,20.2141,1676.1506],[-101.9096,20.2165,1676.6874],[-101.9178,20.2193,1677.2152],[-101.9264,20.2123,1676.7161],[-101.9287,20.2084,1676.5963],[-101.9313,20.2085,1676.1793],[-101.9294,20.2128,1676.082],[-101.9306,20.2164,1675.7025],[-101.9284,20.2177,1676.7316],[-101.9325,20.2263,1675.7751],[-101.9372,20.2255,1676.7482],[-101.9399,20.2271,1710.0015],[-101.939,20.2327,1676.421],[-101.9362,20.2373,1675.6111],[-101.9384,20.2407,1675.1211],[-101.937,20.2427,1676.4126],[-101.9325,20.2431,1675.8831],[-101.9325,20.2448,1675.2195],[-101.9344,20.2493,1675.7501],[-101.94,20.2513,1675.924],[-101.9463,20.2573,1675.7118],[-101.9439,20.2683,1676.3035],[-101.9477,20.2708,1676.5529],[-101.9511,20.2709,1675.1084],[-101.9458,20.2767,1675.2498],[-101.9369,20.2815,1675.6315],[-101.9377,20.2851,1674.7981],[-101.9453,20.284,1675.2419],[-101.9471,20.2864,1675.2593],[-101.9402,20.294,1676.8657],[-101.9353,20.2948,1674.9769],[-101.9345,20.2977,1674.8853],[-101.9436,20.3008,1675.2544],[-101.9495,20.2984,1675.0831],[-101.9523,20.3014,1674.483],[-101.9599,20.3051,1673.653],[-101.9591,20.3075,1675.1602],[-101.9557,20.3088,1674.7738],[-101.9563,20.3129,1674.255],[-101.95,20.3115,1674.4015],[-101.949,20.3151,1674.2491],[-101.9595,20.3198,1674.2772],[-101.9635,20.3186,1673.1458],[-101.9557,20.3266,1674.3452],[-101.9473,20.331,1673.7576],[-101.944,20.338,1672.0748],[-101.9447,20.3421,1675.717],[-101.9514,20.3443,1674.6492],[-101.9623,20.3447,1677.5316],[-101.969,20.3603,1673.3481],[-101.9762,20.358,1672.8074],[-101.9871,20.3604,1673.4694],[-101.9897,20.3596,1673.0601],[-101.9899,20.3608,1676.0525],[-101.9964,20.3596,1676.7802],[-101.9969,20.3574,1674.0753],[-101.9989,20.3568,1673.8556],[-102.0,20.3581,1675.4324],[-101.9994,20.3547,1673.4672],[-102.0099,20.3533,1672.496],[-102.0137,20.3506,1678.1196],[-102.0095,20.3382,1673.048],[-102.0049,20.3324,1672.4059],[-102.0073,20.3267,1672.6309],[-102.0155,20.3289,1673.105],[-102.0149,20.3322,1670.5889],[-102.0172,20.3361,1672.5431],[-102.0173,20.3418,1672.6962],[-102.0233,20.3439,1673.9978],[-102.0252,20.348,1675.239],[-102.0218,20.363,1671.2388],[-102.0101,20.3819,1671.744],[-102.0102,20.3853,1671.8704],[-102.0137,20.3888,1671.9531],[-102.0134,20.3937,1670.302],[-102.0149,20.3945,1669.9625],[-102.0182,20.3935,1675.7056],[-102.0189,20.386,1670.1373],[-102.0227,20.3809,1670.2982],[-102.0367,20.3786,1669.7123],[-102.0519,20.3787,1670.6279],[-102.065,20.3749,1662.8594],[-102.0693,20.3754,1662.1968],[-102.0739,20.3793,1658.0156],[-102.0811,20.3802,1661.856],[-102.0873,20.3849,1651.5859],[-102.0977,20.3839,1643.5306],[-102.1089,20.378,1652.0181],[-102.1151,20.3811,1628.9093],[-102.1231,20.3781,1618.2773],[-102.1316,20.3811,1613.2843],[-102.1337,20.3797,1612.8568],[-102.1349,20.3757,1602.7363],[-102.1416,20.3754,1631.7413],[-102.1541,20.3789,1595.4828],[-102.1682,20.3787,1582.6869],[-102.1675,20.3762,1572.8535],[-102.16,20.3749,1576.4392],[-102.1582,20.367,1589.1284],[-102.1657,20.367,1583.6672],[-102.1733,20.3692,1562.135],[-102.177,20.3682,1557.5814],[-102.1774,20.3632,1567.1637],[-102.1746,20.3617,1555.0267],[-102.1734,20.3578,1553.6979],[-102.1754,20.356,1551.9131],[-102.1893,20.3537,1552.5951],[-102.1966,20.3505,1555.7078],[-102.2081,20.3567,1542.199],[-102.2118,20.3521,1569.1857],[-102.2196,20.3509,1554.0259],[-102.2218,20.3441,1546.512],[-102.2262,20.3445,1541.9415],[-102.2318,20.3415,1542.734],[-102.238,20.3418,1540.5565],[-102.2414,20.3393,1536.0709],[-102.2471,20.339,1551.7518],[-102.2542,20.3353,1546.5601],[-102.2591,20.3394,1532.3213],[-102.261,20.3358,1532.5673],[-102.2676,20.3356,1530.2993],[-102.2742,20.3387,1540.3896],[-102.2771,20.3432,1530.6045],[-102.2841,20.3456,1538.9283],[-102.2861,20.3452,1532.3748],[-102.2899,20.3408,1530.306],[-102.2936,20.3459,1538.1002],[-102.2921,20.353,1529.0029],[-102.2964,20.3531,1529.6769],[-102.3005,20.3565,1530.6401],[-102.3066,20.3582,1530.4073],[-102.309,20.3571,1534.7227],[-102.3161,20.3446,1531.8796],[-102.3195,20.3448,1532.8124],[-102.3272,20.3495,1530.9883],[-102.3359,20.3415,1531.4863],[-102.3424,20.34,1531.6553],[-102.346,20.3351,1528.6322],[-102.3584,20.337,1530.6454],[-102.3624,20.33,1529.2346],[-102.3667,20.3278,1530.1653],[-102.3724,20.33,1530.2834],[-102.3826,20.3301,1530.9532],[-102.3912,20.334,1530.7042],[-102.3998,20.3277,1529.7329],[-102.41,20.3335,1529.3933],[-102.4212,20.3327,1530.9139],[-102.4279,20.3394,1529.1246],[-102.4324,20.341,1529.5643],[-102.4425,20.3383,1529.0435],[-102.4474,20.3385,1529.0527],[-102.4545,20.3341,1531.233],[-102.4549,20.329,1528.5233],[-102.4678,20.3306,1530.653],[-102.481,20.3249,1528.1196],[-102.4861,20.3201,1527.3906],[-102.4886,20.3109,1527.6216],[-102.4906,20.3086,1531.6428],[-102.4962,20.3079,1528.0914],[-102.4996,20.3131,1526.0056],[-102.5054,20.3159,1528.4098],[-102.5074,20.3116,1529.9397],[-102.5073,20.3035,1530.1082],[-102.509,20.3014,1529.6416],[-102.5119,20.3001,1529.1218],[-102.5208,20.3008,1527.5427],[-102.53,20.2962,1526.4869],[-102.5301,20.2908,1527.3732],[-102.5222,20.2874,1526.573],[-102.5201,20.2804,1528.9115],[-102.5205,20.2773,1528.097],[-102.5293,20.2706,1527.6736],[-102.5352,20.2722,1526.7231],[-102.5343,20.2764,1528.293],[-102.5359,20.279,1528.5513],[-102.5441,20.2806,1528.7179],[-102.5471,20.2779,1532.8783],[-102.5521,20.2619,1530.1932],[-102.555,20.2607,1527.7982],[-102.5578,20.2636,1526.5034],[-102.5558,20.2714,1526.5886],[-102.5646,20.278199999999998,1526.7563],[-102.5687,20.2745,1526.7537],[-102.5654,20.2702,1526.791],[-102.5667,20.2656,1526.1926],[-102.5801,20.2644,1527.1346],[-102.5905,20.2585,1527.0076],[-102.5935,20.2625,1525.8495],[-102.5975,20.2617,1526.5388],[-102.5989,20.2671,1525.5542],[-102.6101,20.2691,1525.0964],[-102.6148,20.2633,1527.3243],[-102.6124,20.2592,1525.5995],[-102.6133,20.2551,1525.5137],[-102.6172,20.255,1525.4933],[-102.621,20.2525,1525.4001],[-102.6169,20.2479,1525.3203],[-102.6201,20.2452,1523.75],[-102.6273,20.2294,1524.374],[-102.6412,20.2235,1524.8265],[-102.6477,20.2248,1524.3329],[-102.6513,20.2287,1524.0144],[-102.6569,20.2286,1524.1061],[-102.6609,20.2315,1524.8088],[-102.6697,20.2308,1524.0375],[-102.6735,20.2263,1524.1344],[-102.679,20.2269,1524.9342],[-102.6854,20.218,1523.3745],[-102.6829,20.2067,1523.5546],[-102.6821,20.1909,1523.0785],[-102.6789,20.1851,1523.0189],[-102.6797,20.1715,1522.5439],[-102.6897,20.166,1522.9717],[-102.7089,20.1683,1522.8722],[-102.7253,20.1653,1522.2502],[-102.7302,20.1666,1522.6371],[-102.7433,20.1549,1523.0936],[-102.7488,20.153,1523.4615],[-102.7525,20.1486,1524.1428],[-102.7572,20.1534,1522.041],[-102.7671,20.1487,1521.2534],[-102.7762,20.1419,1520.2605],[-102.7744,20.1397,1524.2161],[-102.7761,20.1384,1541.8491],[-102.7889,20.1383,1524.3118],[-102.7935,20.1417,1528.6365],[-102.8152,20.1393,1521.3684],[-102.8193,20.1368,1519.0],[-102.8074,20.1332,1538.2791],[-102.8019,20.123,1519.0],[-102.8073,20.1127,1523.6802],[-102.8163,20.106,1519.9675],[-102.8243,20.108,1519.3628],[-102.8352,20.1166,1520.2554],[-102.8375,20.1135,1525.7209],[-102.8407,20.1161,1524.1729],[-102.8454,20.1233,1526.3014],[-102.8461,20.1308,1522.1392],[-102.8501,20.1319,1523.9862],[-102.855,20.1367,1524.1312],[-102.857,20.1443,1523.5164],[-102.8557,20.1478,1525.4336],[-102.8529,20.1478,1522.2292],[-102.8523,20.1492,1523.896],[-102.8625,20.1544,1519.9436],[-102.866,20.1624,1519.9497],[-102.8675,20.1627,1519.9497],[-102.8711,20.1589,1519.751],[-102.8755,20.1576,1520.9337],[-102.8815,20.1601,1522.5752],[-102.8869,20.1588,1519.8215],[-102.8946,20.1642,1519.4753],[-102.9018,20.1644,1519.5122],[-102.9078,20.1621,1519.2627],[-102.9303,20.167,1522.2241],[-102.9384,20.1714,1525.1071],[-102.9541,20.1709,1524.7568],[-102.954,20.1666,1762.0659],[-102.9432,20.1498,1857.6345],[-102.9245,20.1363,2145.4546],[-102.9264,20.1296,2074.0122],[-102.942,20.1288,1863.1549],[-102.9473,20.1324,1826.0994],[-102.9512,20.1382,1740.1122],[-102.9578,20.1412,1686.1696],[-102.9616,20.1402,1674.9474],[-102.9645,20.1271,2129.7131],[-102.9706,20.1254,2076.5579],[-102.9855,20.1274,1960.1898],[-102.9984,20.126,1704.2042],[-103.0017,20.1351,1657.7051],[-103.0048,20.1382,1618.2703],[-103.0335,20.1357,1562.7263],[-103.0352,20.1335,1591.3877],[-103.0313,20.1268,1866.3157],[-103.0444,20.1236,1601.1362],[-103.0421,20.121,1612.4146],[-103.0426,20.1152,1660.1135],[-103.0354,20.1167,1641.9733],[-103.0328,20.1114,1648.3912],[-103.0361,20.0994,1697.8262],[-103.0391,20.0968,1670.0405],[-103.0417,20.0906,1669.726],[-103.0357,20.0839,1687.4965],[-103.0354,20.0814,1675.2716],[-103.0307,20.0785,1678.2161],[-103.0338,20.0757,1680.6606],[-103.0305,20.0727,1685.6196],[-103.0324,20.0687,1706.5295],[-103.0291,20.0647,1696.4872],[-103.0308,20.0622,1709.2783],[-103.0288,20.0583,1739.2086],[-103.0247,20.0578,1720.4048],[-103.0261,20.056,1726.3181],[-103.0244,20.0551,1704.0544],[-103.0244,20.0524,1716.5984],[-103.0216,20.0533,1709.3992],[-103.0207,20.0473,1703.432],[-103.0251,20.0499,1714.2134],[-103.0265,20.0493,1716.4801],[-103.0258,20.0465,1714.2717],[-103.0282,20.0446,1773.8711],[-103.0264,20.0393,1718.9424],[-103.0285,20.0367,1728.7659],[-103.0244,20.0333,1728.4408],[-103.0302,20.0295,1746.0574],[-103.0331,20.0293,1746.5784],[-103.0338,20.0306,1745.657],[-103.0357,20.0294,1747.9927],[-103.0365,20.027,1786.7783],[-103.0344,20.0252,1751.0885],[-103.0328,20.0262,1753.9656],[-103.0326,20.0247,1752.1106],[-103.0369,20.0218,1754.6365],[-103.0374,20.017,1756.8156],[-103.0456,20.0113,1801.4817],[-103.045,20.0081,1795.0278],[-103.0482,20.0073,1808.6038],[-103.0474,20.0049,1809.2864],[-103.0441,20.0046,1801.6396],[-103.046,20.0026,1805.8434],[-103.0438,20.002,1806.0044],[-103.0444,20.0,1808.952],[-103.0502,19.9967,1820.9829],[-103.0515,19.9916,1842.0337],[-103.0494,19.9907,1843.3347],[-103.0455,19.9836,1884.9066],[-103.0406,19.9789,1896.422],[-103.0348,19.9679,1965.1687],[-103.0294,19.9674,1992.4227],[-103.0261,19.9642,2029.1299],[-103.0252,19.9605,2079.4927],[-103.0217,19.9622,2097.5679],[-103.0208,19.9605,2111.843],[-103.0162,19.9593,2097.5325],[-103.0108,19.967,2038.7267],[-103.0122,19.9702,2027.5481],[-103.0045,19.9717,2106.7615],[-102.9999,19.9751,2170.2095],[-102.9938,19.9839,2387.4973],[-102.9779,19.9872,2105.0068],[-102.9685,19.9911,2015.5123],[-102.9633,19.9898,1969.4636],[-102.9626,19.9927,1966.4438],[-102.9584,19.992,1944.4099],[-102.9585,19.9954,1942.7142],[-102.9549,19.9957,1936.0856],[-102.9549,19.9947,1937.0111],[-102.9512,19.9966,1935.1647],[-102.9458,19.9911,1936.5087],[-102.9436,19.9841,1934.1278],[-102.9364,19.9829,1965.1196],[-102.9336,19.9861,1983.3723],[-102.9263,19.9842,2060.3325],[-102.9026,19.9669,2395.8145],[-102.8856,19.9702,2225.4988],[-102.8821,19.9696,2214.4468],[-102.882,19.9758,2189.4993],[-102.8638,19.9706,2493.5764],[-102.8598,19.9714,2554.7461],[-102.8614,19.9698,2479.6104],[-102.8565,19.968,2428.0879],[-102.8467,19.9683,2315.0933],[-102.8247,19.963,2134.5557],[-102.822,19.9646,2085.1155],[-102.8191,19.9612,2063.6606],[-102.8185,19.9625,2065.1953],[-102.8093,19.9591,1993.7246],[-102.8077,19.9562,1980.4143],[-102.8057,19.9572,1979.9967],[-102.803,19.9526,1965.6809],[-102.794,19.9503,1899.6436],[-102.7903,19.9511,1867.8245],[-102.7799,19.96,1764.5154],[-102.7769,19.9602,1748.4702],[-102.7753,19.9586,1779.8666],[-102.784,19.9512,1894.0693],[-102.7706,19.9299,2313.6243],[-102.7448,19.9079,2333.8252],[-102.7312,19.8995,2160.7649],[-102.7325,19.8904,1737.832],[-102.7398,19.8858,1636.9797],[-102.7425,19.8788,1618.6056],[-102.7348,19.8745,1632.5411],[-102.7354,19.8722,1634.6559],[-102.7337,19.8698,1661.7328],[-102.7356,19.8674,1674.3882],[-102.7349,19.8604,1711.89],[-102.7304,19.8532,1759.4423],[-102.7343,19.8504,1775.7793],[-102.7351,19.8473,1784.7477],[-102.7431,19.8446,1914.3536],[-102.7493,19.8345,1815.4521],[-102.7533,19.8341,1799.3323],[-102.7496,19.8321,1781.4717],[-102.7485,19.829,1771.2599],[-102.7452,19.828,1751.8943],[-102.745,19.8248,1743.7477],[-102.7392,19.8177,1720.0537],[-102.7394,19.8158,1711.8823],[-102.7446,19.8142,1727.9],[-102.7452,19.812,1737.1755],[-102.75,19.8127,1735.6974],[-102.7506,19.8143,1736.9695],[-102.7552,19.814,1749.2195],[-102.7591,19.808,1752.3384],[-102.7627,19.8101,1760.2473],[-102.7698,19.8095,1795.7957],[-102.7747,19.8127,1843.5504],[-102.7818,19.813,1956.9065],[-102.785,19.8154,1981.6606],[-102.7872,19.8136,2063.9065],[-102.7923,19.8141,2087.106],[-102.8195,19.7779,2141.0791],[-102.8128,19.776,2028.6003],[-102.8118,19.774,2042.5159],[-102.8132,19.7664,1902.8853],[-102.8086,19.7596,1850.2106],[-102.8166,19.7519,1716.9443],[-102.8163,19.7499,1701.6667],[-102.8052,19.7529,1903.1653],[-102.8039,19.7522,1903.1653],[-102.8026,19.7466,1863.1338],[-102.8094,19.7434,1801.5464],[-102.8108,19.741,1777.4084],[-102.8069,19.74,1776.0897],[-102.8049,19.7383,1745.3431],[-102.8049,19.7347,1728.6715],[-102.7983,19.7288,1623.2896],[-102.7958,19.7284,1590.7606],[-102.7922,19.7177,1467.3455],[-102.7856,19.7125,1399.9027],[-102.7855,19.7082,1380.5782],[-102.7822,19.7072,1330.282],[-102.7805,19.7043,1351.6107],[-102.7831,19.6982,1271.5513],[-102.7822,19.6952,1308.2449],[-102.7853,19.6948,1489.9955],[-102.7922,19.6884,1695.7578],[-102.7906,19.6869,1635.8971],[-102.7955,19.6847,1610.0811],[-102.7976,19.6781,1661.7126],[-102.8057,19.6748,1479.7767],[-102.8004,19.6749,1426.4974],[-102.7997,19.6731,1371.4249],[-102.7924,19.6746,1518.969],[-102.7912,19.6732,1514.7911],[-102.7927,19.6707,1509.0255],[-102.7912,19.6681,1521.9921],[-102.7931,19.6614,1658.1234],[-102.7926,19.6546,1662.5092],[-102.7872,19.6517,1651.39],[-102.7842,19.6521,1617.4192],[-102.7875,19.6482,1657.4927],[-102.7821,19.6466,1593.4709],[-102.7833,19.6435,1565.1965],[-102.7823,19.6426,1529.8558],[-102.7796,19.6443,1513.6641],[-102.7768,19.6341,1330.3969],[-102.7772,19.629,1175.8403],[-102.7758,19.6277,1122.0366],[-102.7743,19.6266,1096.5802],[-102.7609,19.6275,961.7772],[-102.759,19.6249,959.7751],[-102.7537,19.6229,929.2668],[-102.7554,19.6198,934.5269],[-102.7537,19.6202,899.0129],[-102.7532,19.6174,883.9639],[-102.7476,19.6128,873.6938],[-102.7372,19.6151,835.9063],[-102.7305,19.6138,838.6712],[-102.7285,19.6119,866.3055],[-102.7261,19.6131,832.6448],[-102.7259,19.6099,824.1392],[-102.7207,19.6107,813.3539],[-102.7188,19.6094,835.8767],[-102.721,19.6077,811.4351],[-102.7203,19.6059,804.3908],[-102.7175,19.6057,800.0858],[-102.7182,19.6041,785.5406],[-102.7159,19.6029,783.5273],[-102.7161,19.6002,806.1591],[-102.7181,19.5996,801.7078],[-102.7185,19.5929,794.4153],[-102.7211,19.5916,754.0068],[-102.7245,19.5854,768.8225],[-102.7266,19.5861,749.4454],[-102.7224,19.5824,739.115],[-102.7247,19.5819,746.9965],[-102.726,19.579,751.0098],[-102.725,19.5779,723.1519],[-102.7204,19.5796,735.6381],[-102.7206,19.5743,726.3495],[-102.7168,19.5706,734.2275],[-102.7196,19.5683,782.0035],[-102.7135,19.5633,729.3158],[-102.7163,19.5612,708.7948],[-102.7184,19.5503,691.4747],[-102.7158,19.5463,699.1706],[-102.7116,19.5456,683.91],[-102.7107,19.5411,689.7814],[-102.7167,19.5335,655.2783],[-102.7146,19.5308,662.3278],[-102.7184,19.5259,643.0084],[-102.7175,19.5195,643.934],[-102.7223,19.5181,663.6344],[-102.7246,19.5091,625.4749],[-102.7258,19.5088,631.6172],[-102.7255,19.5114,636.6732],[-102.7272,19.5122,657.8443],[-102.731,19.5105,647.5856],[-102.7302,19.5068,618.6624],[-102.7389,19.4987,647.5115],[-102.7381,19.4934,672.0013],[-102.736,19.4932,598.4491],[-102.732,19.496,600.7036],[-102.7237,19.4932,575.8527],[-102.7193,19.4974,602.8658],[-102.7137,19.4991,611.018],[-102.714,19.5009,631.2689],[-102.7122,19.4997,627.4692],[-102.7044,19.5072,662.8387],[-102.6926,19.5102,728.56],[-102.6895,19.5134,734.3297],[-102.6774,19.5103,914.5834],[-102.673,19.512,983.5179],[-102.6726,19.5045,826.5468],[-102.6704,19.4988,800.2333],[-102.672,19.4946,791.385],[-102.6688,19.4914,778.5895],[-102.6709,19.4906,765.3932],[-102.6575,19.4872,1002.8824],[-102.6346,19.496,788.9232],[-102.6289,19.5005,813.5201],[-102.623,19.4975,845.2594],[-102.6205,19.4988,863.2828],[-102.6095,19.5101,900.0625],[-102.5985,19.5186,1280.0682],[-102.5929,19.5218,1066.5061],[-102.5911,19.5201,1091.806],[-102.5865,19.523,1026.8845],[-102.584,19.5227,1027.0312],[-102.5819,19.5283,1000.2547],[-102.5783,19.5245,962.4499],[-102.5762,19.5249,994.7659],[-102.5769,19.5226,926.9773],[-102.5752,19.5219,961.2437],[-102.5763,19.5159,895.9977],[-102.5719,19.5112,927.8958],[-102.5753,19.5037,864.775],[-102.5738,19.5001,828.3877],[-102.5759,19.4981,835.4858],[-102.5491,19.4924,1494.7977],[-102.5427,19.478,1181.0507],[-102.5432,19.4754,1160.6229],[-102.5468,19.4742,1140.2522],[-102.5483,19.4714,1101.9795],[-102.5548,19.4709,1082.7869],[-102.5558,19.4651,992.753],[-102.5633,19.4649,984.3951],[-102.5686,19.4455,856.4059],[-102.5667,19.4426,856.318],[-102.5587,19.447,1030.8218],[-102.5477,19.4395,1110.0474],[-102.558,19.4396,973.1647],[-102.5592,19.4369,946.3368],[-102.5525,19.4335,1050.9731],[-102.5466,19.4351,1054.8661],[-102.5439,19.4323,1091.797],[-102.5437,19.4296,1171.8553],[-102.5484,19.4287,1175.4379],[-102.551,19.4254,1149.5587],[-102.5556,19.4315,1011.3806],[-102.5651,19.4352,932.688],[-102.5707,19.4267,852.4268],[-102.5768,19.4239,823.1303],[-102.5767,19.422,821.9186],[-102.5731,19.4201,839.9081],[-102.572,19.4153,879.1379],[-102.5688,19.4126,951.4049],[-102.5826,19.3897,919.0526],[-102.588,19.3887,878.4229],[-102.5946,19.3756,843.5494],[-102.5947,19.3712,836.0769],[-102.6011,19.3645,791.5541],[-102.6015,19.3569,779.2642],[-102.6055,19.3493,742.7737],[-102.6051,19.3385,692.9441],[-102.6101,19.3309,649.9607],[-102.6086,19.3291,641.1452],[-102.6112,19.3228,609.1461],[-102.62,19.3152,599.0345],[-102.6261,19.3149,570.9002],[-102.6299,19.3071,548.5134],[-102.6327,19.307,538.2101],[-102.6312,19.3045,534.4647],[-102.6345,19.3018,534.6617],[-102.6358,19.2973,541.1364],[-102.6382,19.2951,510.8934],[-102.6379,19.2913,507.2341],[-102.6396,19.2905,507.9094],[-102.6408,19.2809,512.2334],[-102.6431,19.2783,482.4537],[-102.6395,19.2769,479.087],[-102.6411,19.2742,486.0193],[-102.6389,19.273,486.51],[-102.639,19.2699,479.3845],[-102.641,19.2681,461.7067],[-102.6403,19.2666,468.0508],[-102.6431,19.2662,454.6518],[-102.6382,19.2627,454.4183],[-102.6456,19.2595,452.1083],[-102.6455,19.2553,431.5841],[-102.6488,19.2532,427.4846],[-102.6483,19.2499,433.3913],[-102.6512,19.2492,428.545],[-102.6497,19.246,417.43],[-102.6515,19.2431,417.4686],[-102.6569,19.2405,408.8471],[-102.6518,19.2355,402.321],[-102.6568,19.2325,398.507],[-102.6552,19.2299,410.7686],[-102.6562,19.2287,399.3809],[-102.66,19.2299,402.3357],[-102.6613,19.2286,392.3233],[-102.6621,19.2188,383.7924],[-102.6683,19.221,396.5082],[-102.6699,19.2124,374.6993],[-102.6766,19.218,395.5674],[-102.6939,19.2263,402.7086],[-102.7007,19.2245,369.9416],[-102.7015,19.2262,368.7425],[-102.6992,19.2315,376.7516],[-102.697,19.2317,382.1722],[-102.6983,19.2329,381.459],[-102.6962,19.2359,388.9713],[-102.6973,19.238,396.6352],[-102.6956,19.2389,404.5635],[-102.6944,19.2374,415.086],[-102.6949,19.2478,441.0368],[-102.6966,19.2488,441.2802],[-102.6988,19.2499,432.3359],[-102.7023,19.247,428.8102],[-102.7053,19.2471,426.9297],[-102.7065,19.2436,404.2832],[-102.7055,19.2419,405.0856],[-102.7084,19.2412,400.2494],[-102.7071,19.2383,410.4359],[-102.7127,19.2358,401.919],[-102.7279,19.2424,397.152],[-102.7377,19.2422,367.9563],[-102.7406,19.2483,415.6187],[-102.7453,19.2495,412.865],[-102.7467,19.2522,414.2006],[-102.7538,19.2558,425.6549],[-102.7651,19.2486,381.7769],[-102.7769,19.2436,357.9449],[-102.7849,19.2439,368.4304],[-102.7857,19.2421,362.4815],[-102.7902,19.2425,374.959],[-102.7896,19.2396,371.5628],[-102.7944,19.2324,345.3979],[-102.7922,19.2287,350.5259],[-102.7938,19.2254,352.4818],[-102.8,19.2235,349.7331],[-102.8084,19.2233,369.9096],[-102.814,19.2183,394.4794],[-102.8177,19.2091,379.4442],[-102.8244,19.2057,379.998],[-102.8302,19.21,387.5504],[-102.8278,19.2113,390.1971],[-102.8314,19.2146,403.3721],[-102.8438,19.2026,375.1265],[-102.8456,19.199,369.1292],[-102.8599,19.2039,400.3873],[-102.8626,19.2032,394.1839],[-102.8654,19.2059,412.2556],[-102.8654,19.2113,393.9027],[-102.8864,19.2044,565.6478],[-102.9151,19.1794,419.9409],[-102.9274,19.1773,438.7526],[-102.9351,19.182,456.7086],[-102.9362,19.1736,436.8387],[-102.942,19.1771,464.3141],[-102.9475,19.1749,487.2632],[-102.951,19.175,505.4753],[-102.9523,19.1766,512.8484],[-102.9555,19.1696,511.4582],[-102.9578,19.1736,538.2743],[-102.9601,19.1741,611.45],[-102.9623,19.172,552.7592],[-102.9629,19.1696,534.1948],[-102.9612,19.1675,483.7312],[-102.9627,19.1658,481.0648],[-102.966,19.164,511.3435],[-102.9743,19.1537,541.9974],[-102.9794,19.1524,653.4675],[-102.9767,19.1264,809.2076],[-102.9776,19.1201,845.3743],[-102.9834,19.1214,742.9322],[-102.9997,19.1353,603.5558],[-103.0045,19.1376,561.8127],[-103.0083,19.1378,578.4633],[-103.0197,19.1324,613.4087],[-103.0205,19.125,692.8042],[-103.0161,19.1171,754.494],[-103.0163,19.1131,776.2903],[-103.0144,19.113,760.5371],[-103.012,19.1092,781.5724],[-103.0127,19.1068,800.9081],[-103.0184,19.1058,892.1475],[-103.0195,19.1038,876.751],[-103.016,19.0792,1476.0491],[-102.9988,19.0615,887.6271],[-102.9924,19.0578,891.338],[-102.9908,19.0534,685.0565],[-103.0053,19.052,1173.6371],[-103.0156,19.0489,784.3445],[-103.0189,19.052,830.674],[-103.0252,19.0531,926.1337],[-103.0304,19.0361,1029.6497],[-103.0331,19.0342,1112.8269],[-103.0332,19.0291,1025.4985],[-103.0479,19.0322,1322.4978],[-103.0506,19.0356,1246.0208],[-103.0549,19.0339,1098.4872],[-103.0601,19.0281,938.4514],[-103.0632,19.0279,887.1681],[-103.0667,19.0223,858.4207],[-103.0638,19.0057,759.6039],[-103.0621,19.0022,732.7048],[-103.0551,19.0007,687.0248],[-103.0525,18.9981,668.5579],[-103.0616,18.997,670.4261],[-103.0622,18.9954,681.249],[-103.0662,18.9963,677.332],[-103.0881,18.9841,799.5463],[-103.098,18.9647,989.048],[-103.1052,18.9613,965.9867],[-103.1077,18.9567,987.616],[-103.1082,18.9517,1025.4901],[-103.1236,18.9376,1184.184],[-103.125,18.9301,1246.5308],[-103.1345,18.9311,1388.6448],[-103.1496,18.9259,1598.2402],[-103.1734,18.9363,2032.0175],[-103.1886,18.9549,1877.3478],[-103.2004,18.9627,1894.5297],[-103.2045,18.9676,1498.9231],[-103.2032,18.9785,1158.9636],[-103.2069,18.9817,1066.3093],[-103.2084,18.9899,944.6184],[-103.2114,18.993,858.2873],[-103.2093,18.9947,915.2234],[-103.2106,18.9971,1052.0002],[-103.2089,19.0,1088.0149],[-103.2095,19.003,1164.9238],[-103.2174,19.0035,1148.2725],[-103.2179,19.007,996.9117],[-103.2217,19.0095,830.8494],[-103.2247,19.0193,610.6396],[-103.2239,19.0241,534.495],[-103.2295,19.0227,537.1047],[-103.2311,19.0183,542.9824],[-103.2347,19.0201,498.3303],[-103.236,19.017,518.3165],[-103.2394,19.016,502.2094],[-103.2405,19.014,508.3268],[-103.2464,19.0121,526.6788],[-103.2484,19.0145,475.8165],[-103.2525,19.0107,460.8151],[-103.2579,19.0117,446.5162],[-103.2598,19.0037,486.4319],[-103.2718,19.0017,424.325],[-103.2734,18.9987,427.0184],[-103.2777,18.9969,428.7563],[-103.2822,18.9997,410.3527],[-103.2845,18.9984,392.5761],[-103.2878,18.9918,414.2049],[-103.2896,18.9945,378.985],[-103.2918,18.993,370.6181],[-103.2956,18.9942,379.1777],[-103.2994,18.9929,366.7985],[-103.3048,18.9858,356.4283],[-103.3325,18.9733,338.3877],[-103.3445,18.9782,293.5],[-103.3523,18.9778,293.5],[-103.3553,18.9802,293.5],[-103.3583,18.98,293.5],[-103.3632,18.9766,293.5],[-103.3731,18.9769,293.5],[-103.3772,18.9802,293.5],[-103.3842,18.9778,293.5],[-103.3861,18.9726,293.5],[-103.3916,18.9707,293.5],[-103.3944,18.9674,293.5],[-103.3997,18.9664,239.6397],[-103.4072,18.9715,236.817],[-103.4114,18.9677,228.4871],[-103.4138,18.9731,218.1008],[-103.4166,18.9748,216.44],[-103.415,18.9784,215.8332],[-103.4181,18.9782,221.2805],[-103.4195,18.9813,220.9556],[-103.4419,18.9835,202.2499],[-103.4504,18.9816,203.9919],[-103.4545,18.9785,215.9584],[-103.4578,18.9793,207.5358],[-103.4603,18.9771,193.7215],[-103.4631,18.977,225.6195],[-103.4684,18.9869,176.099],[-103.4731,18.9911,224.0258],[-103.474,18.989,173.1866],[-103.4715,18.9879,175.4091],[-103.4721,18.9851,206.5111],[-103.4778,18.9841,206.2377],[-103.4791,18.9793,168.9937],[-103.4837,18.9798,221.1247],[-103.4814,18.9754,170.4931],[-103.4819,18.9704,193.1238],[-103.4875,18.9716,184.2599],[-103.4866,18.9682,167.5699],[-103.4912,18.9584,195.2245],[-103.4942,18.9581,201.109],[-103.4977,18.9607,148.3739],[-103.5086,18.9637,133.1518],[-103.5077,18.96,157.7337],[-103.5029,18.9578,129.0653],[-103.5064,18.9482,129.1336],[-103.5102,18.9463,158.7587],[-103.513,18.9496,124.0733],[-103.5195,18.9502,121.6274],[-103.5223,18.9485,145.8176],[-103.5201,18.9431,121.1271],[-103.5146,18.9386,116.3424],[-103.5141,18.9349,116.4728],[-103.5192,18.9329,111.4118],[-103.5235,18.9272,108.8992],[-103.5336,18.927,107.9467],[-103.5337,18.9208,103.4471],[-103.5284,18.9123,97.3368],[-103.532,18.9054,250.6685],[-103.5415,18.9097,93.0],[-103.5524,18.9062,89.3157],[-103.5581,18.9066,79.1253],[-103.5596,18.896,76.1222],[-103.5689,18.8925,72.4268],[-103.5687,18.8844,94.2998],[-103.5722,18.8802,100.751],[-103.5732,18.8713,68.4046],[-103.5781,18.8753,63.1515],[-103.5823,18.8756,123.4108],[-103.5844,18.8662,61.0815],[-103.5876,18.8658,59.9778],[-103.5899,18.8708,77.1637],[-103.5882,18.8758,56.1567],[-103.5963,18.8839,57.5972],[-103.6025,18.8816,75.1006],[-103.6056,18.8832,48.1036],[-103.6087,18.8884,50.4824],[-103.6156,18.8924,45.821],[-103.6203,18.893,44.4698],[-103.6232,18.8894,42.2589],[-103.6268,18.8888,46.5836],[-103.6303,18.8853,40.4527],[-103.6323,18.8793,53.1059],[-103.6403,18.8695,35.6616],[-103.6406,18.8672,36.6292],[-103.6343,18.8592,34.5308],[-103.6244,18.8527,32.4004],[-103.6172,18.8429,31.0116],[-103.6174,18.8397,30.5],[-103.6262,18.831,42.3109],[-103.6207,18.8204,24.0011],[-103.6216,18.8101,19.5],[-103.62,18.8014,18.5],[-103.6286,18.7918,21.8638],[-103.6345,18.7886,17.7751],[-103.638,18.7832,19.5602],[-103.6451,18.7823,17.2459],[-103.6537,18.7765,14.0],[-103.6585,18.7792,19.9626],[-103.6618,18.779,17.6864],[-103.6694,18.7745,12.5],[-103.679,18.7732,12.644],[-103.683,18.7669,12.1942],[-103.6854,18.7573,11.6254],[-103.6895,18.7545,10.9085],[-103.6976,18.7559,9.7982],[-103.7003,18.7544,9.5056],[-103.7032,18.7485,13.1001],[-103.7036,18.739,10.4675],[-103.7086,18.7299,6.7855],[-103.7127,18.7264,5.2436],[-103.7189,18.7104,5.0686],[-103.7257,18.7077,3.6322],[-103.7273,18.7032,3.2386],[-103.7237,18.7069,2.7825],[-103.7227,18.7058,5.3659],[-103.7284,18.7016,3.472],[-103.7372,18.6995,4.4772],[-103.7347,18.6891,0.855],[-103.7383,18.6848,0.0],[-103.7227,18.6757,1.4347],[-103.704,18.6562,0.0],[-103.7031,18.6619,5.7103],[-103.7063,18.6632,4.9631],[-103.7069,18.6677,5.7043],[-103.7049,18.6634,3.7903],[-103.7023,18.662,3.7028],[-103.7022,18.6604,3.4523],[-103.7002,18.6645,5.5237],[-103.6996,18.6634,3.3386],[-103.7021,18.6588,3.4523],[-103.6991,18.6572,3.7811],[-103.7024,18.6582,3.3832],[-103.7032,18.6554,0.0],[-103.6935,18.6432,0.0],[-103.6869,18.631,0.0],[-103.6856,18.6248,5.2653],[-103.6868,18.6219,50.3486],[-103.6901,18.6208,13.4566],[-103.6887,18.6184,0.0],[-103.689,18.613,1.3109],[-103.6958,18.6105,0.0],[-103.6995,18.6014,3.8125],[-103.7049,18.6023,0.0],[-103.7059,18.5984,50.0557],[-103.7096,18.5972,4.9765],[-103.7087,18.5935,3.4577],[-103.706,18.5906,9.8566],[-103.7034,18.5905,62.3273],[-103.7009,18.5933,0.0],[-103.6885,18.59,0.8012],[-103.6699,18.5793,6.877],[-103.6578,18.5684,0.0],[-103.6569,18.5635,3.9914],[-103.6534,18.5642,43.1391],[-103.6456,18.5605,57.0446],[-103.6258,18.5469,0.0],[-103.5941,18.5177,0.6578],[-103.5812,18.5037,0.0],[-103.5761,18.4956,1.0647],[-103.5759,18.489,0.0],[-103.5728,18.4866,38.6234],[-103.5737,18.4847,0.0],[-103.5612,18.4666,0.0],[-103.5599,18.4609,8.3378],[-103.5611,18.4554,0.0],[-103.5564,18.4525,5.3913],[-103.5436,18.4356,14.3606],[-103.5408,18.4308,2.1417],[-103.538,18.4193,5.5146],[-103.5356,18.4175,7.3135],[-103.5298,18.4059,4.3155],[-103.5276,18.3931,0.0],[-103.5294,18.3832,0.706],[-103.514,18.3635,0.0],[-103.5127,18.3568,2.411],[-103.5141,18.3528,2.0949],[-103.5094,18.349,7.1012],[-103.5113,18.3462,0.4011],[-103.5071,18.3438,59.7973],[-103.5074,18.3417,8.3064],[-103.5055,18.34,0.0],[-103.5023,18.3404,0.0],[-103.5015,18.3387,0.0],[-103.4991,18.3395,10.6937],[-103.4945,18.3363,0.0],[-103.4923,18.3337,0.0],[-103.4916,18.3293,2.1943],[-103.4851,18.3282,0.0],[-103.477,18.3228,0.0],[-103.4147,18.2969,0.0],[-103.4099,18.2937,1.0918],[-103.409,18.2907,0.0],[-103.4075,18.292,2.5579],[-103.4041,18.2906,6.3759],[-103.4028,18.2879,5.9592],[-103.4038,18.2864,0.0],[-103.4015,18.2889,31.2594],[-103.3971,18.2895,23.6369],[-103.3959,18.2884,9.1676],[-103.3971,18.2863,0.0],[-103.3963,18.2836,0.0],[-103.3957,18.2835,0.0],[-103.3946,18.2852,6.9342],[-103.3929,18.2842,16.1335],[-103.3895,18.2855,35.8299],[-103.3876,18.2818,48.9049],[-103.3885,18.2797,0.0],[-103.3832,18.2814,47.2537],[-103.3798,18.2794,0.0],[-103.3776,18.2819,38.3213],[-103.3714,18.2771,10.1189],[-103.3733,18.2733,17.4324],[-103.3724,18.2715,0.1895],[-103.3711,18.2734,13.6757],[-103.3681,18.2723,40.3116],[-103.3677,18.269,0.0],[-103.364,18.2692,33.3886],[-103.3616,18.2649,0.0],[-103.3576,18.265,0.0],[-103.3557,18.2676,71.4473],[-103.353,18.2682,2.6436],[-103.3486,18.2676,5.8034],[-103.3437,18.2713,2.49],[-103.3384,18.2707,11.9249],[-103.3202,18.2621,60.655],[-103.308,18.2607,1.6776],[-103.2975,18.2553,46.955],[-103.2959,18.2497,6.5591],[-103.2922,18.2478,0.0],[-103.2838,18.2463,4.4113],[-103.2493,18.2345,0.0],[-103.2505,18.2361,1.3238],[-103.247,18.2416,1.9716],[-103.2456,18.2406,14.6475],[-103.2425,18.2448,26.4898],[-103.2469,18.2377,0.5],[-103.246,18.235,0.0],[-103.2408,18.2348,2.3233],[-103.2426,18.2344,1.9255],[-103.2368,18.2333,19.4588],[-103.2338,18.2309,27.409],[-103.2312,18.231,8.7144],[-103.2276,18.2341,55.7891],[-103.2223,18.2323,15.1956],[-103.2191,18.2339,125.2827],[-103.2105,18.2319,19.9302],[-103.2051,18.229,50.6165],[-103.2041,18.2257,97.3101],[-103.2024,18.2262,134.2688],[-103.2042,18.2224,27.0716],[-103.1966,18.2244,41.7776],[-103.1913,18.2219,0.0],[-103.1854,18.2219,0.0],[-103.1839,18.2193,8.804],[-103.1792,18.2192,103.7842],[-103.1785,18.2172,22.9992],[-103.1761,18.2176,100.2991],[-103.1713,18.2156,90.7123],[-103.171,18.2138,74.2634],[-103.1677,18.2137,86.4605],[-103.1679,18.2109,12.5315],[-103.1672,18.2121,86.4605],[-103.1578,18.2104,0.0],[-103.1529,18.2069,7.3537],[-103.1482,18.2058,79.6622],[-103.1454,18.2038,72.8421],[-103.1458,18.2002,0.0],[-103.1347,18.2015,0.0],[-103.1287,18.205,0.0],[-103.1184,18.2032,1.8195],[-103.113,18.1992,25.7567],[-103.1132,18.1944,70.6256],[-103.1146,18.1937,1.9037],[-103.1116,18.191,5.1805],[-103.106,18.1918,30.9765],[-103.1008,18.1893,0.0],[-103.0997,18.1914,0.0],[-103.0922,18.1929,3.2467],[-103.0719,18.192,22.3163],[-103.0724,18.19,2.3581],[-103.0701,18.1909,92.445],[-103.0698,18.1896,22.1639],[-103.0669,18.1911,0.0],[-103.0666,18.1933,1.855],[-103.0629,18.1945,20.8024],[-103.0575,18.1929,0.8851],[-103.0563,18.1894,9.2489],[-103.0522,18.1901,41.2263],[-103.0436,18.1873,51.5479],[-103.0384,18.189,26.3266],[-103.0312,18.1881,4.9456],[-103.0183,18.1822,4.6208],[-103.0138,18.1772,3.2896],[-103.0058,18.1772,3.3285],[-102.9856,18.1716,1.1095],[-102.972,18.1634,7.9408],[-102.9564,18.1583,0.0],[-102.8061,18.0917,3.8479],[-102.7938,18.0883,0.0],[-102.79,18.0855,1.1075],[-102.7895,18.0912,9.7869]],
[[-102.1422,17.9501,0.7172],[-102.143,17.9534,4.5935],[-102.1395,17.9547,5.5567],[-102.1365,17.9539,0.0],[-102.1339,17.9496,0.0],[-102.1377,17.9506,5.0994],[-102.1422,17.9501,0.7172]]]]}
,"properties": {"GID_1": "MEX.16_1","GID_0": "MEX","country": "México","province": "Michoacán","VARNAME_1": "MichoacándeOcampo","NL_NAME_1": "NA","TYPE_1": "Estado","ENGTYPE_1": "State","CC_1": "NA","HASC_1": "MX.MC","ISO_1": "NA","name": "Michoacán.province","area_km2": 58778.25,"hist_schema_id": "Elevation0-9000","hist_area_km2": {"0": 237.33,"25": 245.84,"50": 176.31,"75": 148.97,"100": 156.78,"125": 165.9,"150": 419.72,"175": 397.53,"200": 503.86,"225": 706.22,"250": 797.35,"275": 770.59,"300": 758.81,"325": 767.91,"350": 703.29,"375": 670.63,"400": 659.92,"425": 652.43,"450": 665.35,"475": 692.65,"500": 710.39,"525": 724.86,"550": 720.04,"575": 741.97,"600": 727.89,"625": 703.22,"650": 691.29,"675": 694.4,"700": 672.78,"725": 645.19,"750": 622.62,"775": 617.88,"800": 604.88,"825": 603.14,"850": 589.66,"875": 571.78,"900": 563.34,"925": 540.94,"950": 523.13,"975": 503.17,"1000": 497.11,"1025": 485.15,"1050": 475.43,"1075": 455.63,"1100": 445.12,"1125": 428.08,"1150": 415.25,"1175": 410.52,"1200": 393.35,"1225": 379.24,"1250": 387.71,"1275": 377.64,"1300": 369.47,"1325": 357.25,"1350": 344.88,"1375": 333.14,"1400": 321.81,"1425": 318.74,"1450": 315.0,"1475": 317.93,"1500": 307.94,"1525": 1111.41,"1550": 721.34,"1575": 592.53,"1600": 568.18,"1625": 478.01,"1650": 456.39,"1675": 677.25,"1700": 707.04,"1725": 578.62,"1750": 546.08,"1775": 561.77,"1800": 496.27,"1825": 1071.88,"1850": 772.77,"1875": 632.98,"1900": 635.49,"1925": 630.83,"1950": 583.78,"1975": 741.31,"2000": 751.01,"2025": 785.25,"2050": 712.01,"2075": 657.49,"2100": 681.96,"2125": 668.13,"2150": 673.18,"2175": 640.03,"2200": 610.44,"2225": 604.89,"2250": 571.42,"2275": 537.35,"2300": 530.23,"2325": 487.25,"2350": 527.34,"2375": 486.57,"2400": 444.14,"2425": 423.94,"2450": 394.04,"2475": 372.22,"2500": 345.88,"2525": 304.16,"2550": 275.31,"2575": 256.0,"2600": 252.78,"2625": 218.53,"2650": 190.33,"2675": 169.0,"2700": 154.67,"2725": 140.17,"2750": 126.11,"2775": 112.88,"2800": 100.16,"2825": 88.76,"2850": 85.48,"2875": 79.94,"2900": 72.49,"2925": 67.71,"2950": 60.87,"2975": 51.82,"3000": 41.9,"3025": 35.37,"3050": 31.75,"3075": 25.48,"3100": 20.89,"3125": 18.19,"3150": 16.02,"3175": 14.34,"3200": 12.01,"3225": 11.09,"3250": 9.99,"3275": 8.33,"3300": 7.19,"3325": 6.23,"3350": 5.41,"3375": 4.32,"3400": 3.98,"3425": 3.22,"3450": 2.94,"3475": 2.26,"3500": 2.58,"3525": 2.16,"3550": 2.06,"3575": 1.68,"3600": 1.58,"3625": 1.3,"3650": 1.18,"3675": 0.7,"3700": 0.74,"3725": 0.5}}}