{"type": "Feature","bbox": [-96.0854,17.2596,-95.7244,17.5174],"geometry": {"type": "MultiPolygon","coordinates": [[[[-96.0775,17.371,2184.6455],[-96.0384,17.3437,1387.1294],[-96.0381,17.3489,1565.6425],[-96.0441,17.3591,2012.7988],[-96.0449,17.3651,2360.7078],[-96.0439,17.3658,2365.9106],[-96.0423,17.363,2268.0938],[-96.0367,17.3626,1970.1051],[-96.0312,17.3686,1812.9053],[-96.0241,17.3649,1954.4138],[-96.0195,17.3703,1755.9709],[-96.0148,17.3718,1615.7445],[-96.0097,17.3709,1450.5946],[-96.008,17.3732,1425.7646],[-96.0077,17.3781,1502.761],[-96.0054,17.38,1545.0076],[-95.9995,17.3804,1497.1093],[-95.9976,17.385,1779.7299],[-95.9986,17.3855,1895.5345],[-95.9966,17.3857,1845.791],[-95.9908,17.3796,2022.2107],[-95.9692,17.3799,1605.8041],[-95.959,17.3721,1073.0771],[-95.9555,17.3715,1039.5461],[-95.9488,17.3574,724.1212],[-95.9449,17.3435,502.9668],[-95.9395,17.3434,463.2437],[-95.9364,17.3404,521.238],[-95.9325,17.341,452.0517],[-95.9331,17.3386,538.8641],[-95.9308,17.3397,478.4417],[-95.9302,17.3423,464.593],[-95.926,17.3415,426.1025],[-95.9242,17.3394,431.9337],[-95.9198,17.3399,412.5865],[-95.9193,17.3384,460.6813],[-95.9156,17.3406,406.1518],[-95.9164,17.3365,403.8488],[-95.9134,17.3371,407.232],[-95.9104,17.3334,417.7807],[-95.9082,17.3331,397.799],[-95.8978,17.3356,387.7016],[-95.8953,17.3356,400.0778],[-95.8942,17.3339,352.8993],[-95.8919,17.3357,386.4364],[-95.8906,17.3341,343.1632],[-95.8864,17.335,357.8129],[-95.8868,17.3376,328.6493],[-95.8834,17.3393,317.748],[-95.8809,17.3351,316.6786],[-95.8832,17.3318,341.3688],[-95.887,17.3304,326.4651],[-95.8843,17.3265,335.6368],[-95.886,17.327,346.0022],[-95.8869,17.3249,343.3121],[-95.8854,17.3234,370.4033],[-95.8868,17.3193,361.3902],[-95.8905,17.315,400.5591],[-95.8887,17.3053,362.8797],[-95.8907,17.3027,366.4131],[-95.8939,17.303,360.9997],[-95.8929,17.3007,377.8812],[-95.8966,17.296,377.5817],[-95.8948,17.2941,382.4566],[-95.8972,17.2921,381.7712],[-95.8969,17.2877,398.6161],[-95.9021,17.2789,405.494],[-95.8996,17.273,418.2582],[-95.8961,17.2791,651.4388],[-95.888,17.2788,812.2361],[-95.8814,17.2819,1005.2101],[-95.8771,17.2784,953.6106],[-95.8758,17.2734,969.7211],[-95.8548,17.2603,1248.95],[-95.8486,17.2637,1266.7024],[-95.8374,17.2596,1056.4967],[-95.8065,17.2938,494.0767],[-95.795,17.3132,858.861],[-95.7917,17.3323,679.7036],[-95.778,17.3331,944.1805],[-95.7934,17.344,1046.9568],[-95.8002,17.3422,1001.6711],[-95.8137,17.3469,564.3719],[-95.8183,17.3583,386.5878],[-95.8237,17.3632,368.1595],[-95.8225,17.3663,331.2899],[-95.825,17.3678,337.0404],[-95.8256,17.3773,310.0461],[-95.8275,17.3797,282.1685],[-95.8256,17.3805,312.3923],[-95.8237,17.3851,300.8541],[-95.8239,17.3944,265.4501],[-95.8198,17.3974,236.1845],[-95.8253,17.4022,475.4312],[-95.8301,17.4028,524.8932],[-95.8299,17.4044,536.5739],[-95.8325,17.4036,459.213],[-95.8329,17.406,477.5802],[-95.8352,17.4071,482.7182],[-95.8373,17.4056,401.0633],[-95.8377,17.4069,401.0633],[-95.8403,17.4067,367.9013],[-95.8476,17.4115,399.2791],[-95.8595,17.4035,471.1963],[-95.8633,17.3877,731.2862],[-95.8714,17.3875,1014.3815],[-95.8803,17.3962,1027.3951],[-95.8969,17.3986,1122.1742],[-95.9192,17.4117,1436.38],[-95.9203,17.4185,1519.2915],[-95.9165,17.4242,1295.0356],[-95.9,17.4387,1179.7133],[-95.9561,17.446,874.1461],[-95.962,17.4609,929.0009],[-95.9638,17.4603,978.1699],[-95.9637,17.4577,1010.136],[-95.9674,17.4538,1195.8656],[-95.9756,17.4555,1283.792],[-95.9973,17.4494,1136.9661],[-96.0092,17.4576,873.178],[-96.0101,17.4603,800.1227],[-96.0125,17.4614,631.8552],[-96.0204,17.4624,407.051],[-96.0197,17.4533,877.2128],[-96.0267,17.4556,645.6686],[-96.0336,17.4543,384.7672],[-96.0342,17.4519,426.3071],[-96.0359,17.4523,457.3554],[-96.0425,17.4457,509.5645],[-96.044,17.4381,552.8019],[-96.0417,17.4346,605.4445],[-96.0427,17.4306,693.8472],[-96.0535,17.418,776.8053],[-96.0594,17.4154,835.7264],[-96.0633,17.4116,880.9496],[-96.0636,17.4041,976.7679],[-96.0692,17.4049,1256.7765],[-96.0716,17.4001,1318.3059],[-96.0789,17.3983,1717.7156],[-96.0824,17.3925,1973.3228],[-96.0854,17.3905,2050.7219],[-96.081,17.3884,1985.7854],[-96.0771,17.3825,1997.3003],[-96.0775,17.371,2184.6455]]],
[[[-95.7349,17.5129,144.8762],[-95.7369,17.5166,146.9126],[-95.7401,17.5083,192.4384],[-95.7466,17.5076,178.7548],[-95.7484,17.5088,139.8209],[-95.7536,17.5034,117.4196],[-95.7583,17.5069,148.4737],[-95.763,17.5076,150.2558],[-95.7656,17.5129,168.3373],[-95.7645,17.5174,187.7291],[-95.7709,17.5133,154.0844],[-95.7614,17.4956,128.168],[-95.7596,17.4946,118.7597],[-95.7689,17.4911,143.6574],[-95.7686,17.4866,157.0824],[-95.7713,17.4858,156.2941],[-95.7724,17.4824,200.1954],[-95.771,17.481,193.6198],[-95.7716,17.4782,207.562],[-95.7773,17.4747,256.0281],[-95.7803,17.4762,273.9626],[-95.7818,17.4729,224.5482],[-95.7804,17.469,211.5296],[-95.776,17.4677,208.0523],[-95.7721,17.4696,195.9554],[-95.7686,17.469,204.9713],[-95.7565,17.4644,186.8087],[-95.7525,17.4642,183.9793],[-95.7464,17.4665,155.8391],[-95.7486,17.4677,172.6484],[-95.7447,17.4695,134.6789],[-95.7462,17.4709,128.3191],[-95.745,17.4748,122.5481],[-95.7408,17.4726,135.2814],[-95.7395,17.4759,210.6238],[-95.7452,17.4813,315.2408],[-95.7468,17.4851,193.8204],[-95.751,17.4866,156.5084],[-95.752,17.489,138.8555],[-95.75,17.4942,124.3765],[-95.7382,17.4949,118.4083],[-95.7371,17.5013,128.666],[-95.7352,17.5024,145.7987],[-95.7316,17.5008,161.3493],[-95.7265,17.5012,168.6445],[-95.7244,17.5037,140.7159],[-95.7287,17.506,140.1942],[-95.7314,17.5112,144.4244],[-95.7349,17.5129,144.8762]]]]}
,"properties": {"GID_2": "MEX.20.462_2","GID_0": "MEX","country": "México","GID_1": "MEX.20_1","province": "Oaxaca","NL_NAME_1": "NA","county": "SantiagoChoápam","VARNAME_2": "NA","NL_NAME_2": "NA","TYPE_2": "Município","ENGTYPE_2": "Municipality","CC_2": "NA","HASC_2": "NA","name": "Santiago_Choápam.county","area_km2": 311.4306,"hist_schema_id": "Elevation0-9000","hist_area_km2": {"100": 0.1415,"125": 2.2446,"150": 3.7207,"175": 2.1839,"200": 1.7189,"225": 2.5483,"250": 2.2452,"275": 1.8613,"300": 1.9223,"325": 2.3878,"350": 3.0556,"375": 3.5818,"400": 4.2292,"425": 4.1484,"450": 4.8567,"475": 5.383,"500": 6.1115,"525": 6.3139,"550": 6.496,"575": 5.9901,"600": 6.0912,"625": 6.0912,"650": 7.1639,"675": 7.1232,"700": 6.5566,"725": 6.8198,"750": 7.1638,"775": 6.7388,"800": 7.3257,"825": 7.7506,"850": 7.1436,"875": 6.5363,"900": 7.1233,"925": 7.0019,"950": 6.1924,"975": 6.1925,"1000": 6.1314,"1025": 6.4351,"1050": 5.9898,"1075": 4.9172,"1100": 5.1598,"1125": 4.917,"1150": 4.1075,"1175": 4.5526,"1200": 4.1479,"1225": 3.824,"1250": 3.5812,"1275": 3.7229,"1300": 3.8036,"1325": 3.4393,"1350": 3.2775,"1375": 3.5,"1400": 3.0145,"1425": 2.7717,"1450": 3.2169,"1475": 2.9943,"1500": 2.4683,"1525": 2.5897,"1550": 2.5898,"1575": 2.266,"1600": 2.2459,"1625": 1.7198,"1650": 1.9424,"1675": 1.8817,"1700": 2.1852,"1725": 1.9424,"1750": 1.8615,"1775": 1.821,"1800": 2.1245,"1825": 1.8413,"1850": 1.6389,"1875": 1.6794,"1900": 1.7806,"1925": 1.4973,"1950": 1.5378,"1975": 1.4164,"2000": 1.0522,"2025": 1.2343,"2050": 0.8701,"2075": 0.7487,"2100": 0.9105,"2125": 0.7082,"2150": 0.6071,"2175": 0.5059,"2200": 0.7285,"2225": 0.3845,"2250": 0.3642,"2275": 0.2226,"2300": 0.1619,"2325": 0.0607,"2350": 0.0809,"2375": 0.0809,"2400": 0.0202}}}