{"type":"Feature","properties":{"GID_2":"MEX.15.93_2","GID_0":"MEX","country":"México","GID_1":"MEX.15_1","province":"México","NL_NAME_1":"NA","county":"Teoloyucan","VARNAME_2":"NA","NL_NAME_2":"NA","TYPE_2":"Município","ENGTYPE_2":"Municipality","CC_2":"NA","HASC_2":"NA","name":"Teoloyucan.county"},
"geometry":{"type": "MultiPolygon","coordinates": [[[[-99.2081,19.7521,2260.2832],[-99.2115,19.7553,2262.8958],[-99.2165,19.756,2268.3057],[-99.2158,19.7511,2276.6245],[-99.2082,19.7476,2271.2871],[-99.1965,19.7472,2269.1448],[-99.1947,19.7484,2269.1448],[-99.1876,19.7468,2280.3862],[-99.1896,19.7396,2267.2068],[-99.1867,19.7388,2270.4246],[-99.1848,19.7335,2251.0977],[-99.1648,19.7303,2246.7761],[-99.1664,19.7219,2246.4558],[-99.1563,19.7203,2246.3149],[-99.1527,19.7355,2244.5208],[-99.1658,19.7441,2246.8618],[-99.1627,19.7478,2246.0659],[-99.1599,19.7487,2245.1948],[-99.1497,19.7458,2245.3293],[-99.149,19.7656,2244.7107],[-99.1439,19.7666,2244.9517],[-99.1385,19.7655,2244.1279],[-99.1436,19.7956,2243.5],[-99.1769,19.7945,2245.2334],[-99.1804,19.7932,2246.9526],[-99.1796,19.7678,2248.9458],[-99.1845,19.7651,2250.543],[-99.198,19.7679,2279.1445],[-99.1984,19.763,2266.2046],[-99.196,19.7619,2256.0068],[-99.2002,19.7498,2258.5034],[-99.2081,19.7521,2260.2832]]]]}}