{"type":"Feature","properties":{"GID_2":"MEX.12.41_2","GID_0":"MEX","country":"México","GID_1":"MEX.12_1","province":"Guerrero","NL_NAME_1":"NA","county":"IxcateopandeCuauhtémoc","VARNAME_2":"NA","NL_NAME_2":"NA","TYPE_2":"Município","ENGTYPE_2":"Municipality","CC_2":"NA","HASC_2":"NA","name":"Ixcateopande_Cuauhtémoc.county"},
"geometry":{"type": "MultiPolygon","coordinates": [[[[-99.7018,18.4127,1361.6241],[-99.7088,18.4151,1338.2633],[-99.7131,18.4207,1340.9307],[-99.6904,18.4632,2270.6089],[-99.7011,18.4784,2305.6809],[-99.7034,18.4918,2381.9058],[-99.7082,18.4987,2376.6396],[-99.7117,18.499,2369.5742],[-99.7094,18.502,2365.5955],[-99.7143,18.5138,2354.2241],[-99.7151,18.5193,2370.8652],[-99.721,18.5225,2479.8059],[-99.722,18.527,2456.2507],[-99.7232,18.5272,2432.3037],[-99.722,18.5345,2306.6074],[-99.7244,18.5331,2319.2439],[-99.7264,18.5357,2222.1309],[-99.7306,18.5355,2195.0547],[-99.7433,18.5458,2027.4698],[-99.7526,18.5484,1907.26],[-99.7562,18.5531,1894.7678],[-99.762,18.553,1839.4612],[-99.7716,18.5484,1826.714],[-99.7753,18.5501,1797.6251],[-99.7854,18.5471,1828.0568],[-99.7903,18.54,1723.7125],[-99.7908,18.5311,1699.2374],[-99.7935,18.5318,1695.9363],[-99.795,18.5296,1679.0303],[-99.8004,18.5281,1675.5973],[-99.8028,18.529,1670.7423],[-99.8032,18.5274,1663.6454],[-99.8057,18.528,1661.9376],[-99.8103,18.5251,1667.0081],[-99.8135,18.5262,1640.2739],[-99.8181,18.5222,1694.4092],[-99.8202,18.5143,1597.6736],[-99.8263,18.5095,1574.9978],[-99.8281,18.5057,1553.676],[-99.8248,18.497,1537.6451],[-99.8292,18.493,1529.1548],[-99.8328,18.4862,1498.6968],[-99.8373,18.4857,1501.2052],[-99.8376,18.4816,1483.084],[-99.8395,18.4792,1469.5387],[-99.8436,18.4805,1466.5438],[-99.8456,18.4792,1449.3313],[-99.8465,18.473,1441.3618],[-99.8441,18.4726,1449.616],[-99.8429,18.4698,1453.3861],[-99.841,18.4703,1436.1095],[-99.8425,18.4681,1434.8134],[-99.8401,18.4656,1451.094],[-99.8414,18.4631,1438.6787],[-99.8381,18.4624,1443.8525],[-99.8359,18.4581,1419.2239],[-99.8398,18.4581,1458.1362],[-99.8405,18.456,1475.4711],[-99.8389,18.4513,1529.8857],[-99.832,18.4441,1390.1605],[-99.8347,18.437,1386.4293],[-99.8338,18.4327,1376.7097],[-99.8319,18.4311,1378.8899],[-99.8243,18.4332,1554.6666],[-99.8223,18.439,1575.7048],[-99.8192,18.4414,1582.1521],[-99.8127,18.4388,1565.8105],[-99.8113,18.4277,1548.2676],[-99.8135,18.4055,1294.0454],[-99.8081,18.4024,1281.8677],[-99.8059,18.403,1271.766],[-99.8066,18.4001,1276.1134],[-99.8043,18.4001,1271.7092],[-99.8066,18.3957,1273.1846],[-99.8047,18.3959,1278.7822],[-99.8043,18.3934,1277.4425],[-99.8022,18.3926,1259.5134],[-99.8055,18.3909,1258.0575],[-99.8021,18.3901,1260.9427],[-99.8021,18.3878,1271.9764],[-99.7992,18.3885,1306.8599],[-99.7993,18.3862,1252.4958],[-99.7969,18.3867,1280.9818],[-99.7966,18.3831,1252.3425],[-99.7944,18.3829,1252.4198],[-99.7956,18.3805,1245.8224],[-99.7972,18.3805,1245.8224],[-99.7955,18.3788,1243.926],[-99.7967,18.3765,1247.9181],[-99.7939,18.3772,1269.9775],[-99.7931,18.3744,1233.7271],[-99.7874,18.3736,1247.4183],[-99.7855,18.3853,1417.3237],[-99.78,18.3893,1281.8531],[-99.7738,18.3847,1264.392],[-99.7695,18.3851,1291.5728],[-99.7632,18.3769,1262.2457],[-99.7577,18.3749,1371.8672],[-99.7521,18.3769,1652.0562],[-99.7381,18.3833,1721.2148],[-99.7123,18.4014,1029.549],[-99.7058,18.4033,1129.1115],[-99.7018,18.4127,1361.6241]]]]}}