{"type": "Feature","bbox": [-98.911,19.536,-98.8791,19.5707],"geometry": {"type": "MultiPolygon","coordinates": [[[[-98.8928,19.5369,2250.0674],[-98.8839,19.536,2251.9802],[-98.8883,19.5448,2250.9707],[-98.8932,19.5476,2249.8091],[-98.8944,19.5505,2249.5791],[-98.8926,19.5552,2251.9409],[-98.8895,19.555,2251.6755],[-98.8894,19.557,2250.8279],[-98.8816,19.5559,2253.176],[-98.8791,19.5659,2256.6863],[-98.8902,19.5662,2250.4556],[-98.8949,19.5682,2250.4248],[-98.8965,19.5671,2247.8596],[-98.911,19.5707,2244.0195],[-98.9104,19.5545,2245.8064],[-98.9059,19.5478,2245.8596],[-98.9024,19.5514,2246.8567],[-98.9004,19.5511,2248.7266],[-98.9003,19.5412,2246.4783],[-98.8953,19.5403,2248.4355],[-98.8928,19.5369,2250.0674]]]]}
,"properties": {"GID_2": "MEX.15.25_2","GID_0": "MEX","country": "México","GID_1": "MEX.15_1","province": "México","NL_NAME_1": "NA","county": "Chiconcuac","VARNAME_2": "NA","NL_NAME_2": "NA","TYPE_2": "Município","ENGTYPE_2": "Municipality","CC_2": "NA","HASC_2": "NA","name": "Chiconcuac.county","area_km2": 6.73297,"hist_schema_id": "Elevation0-9000","hist_area_km2": {"2250": 6.73297}}}