{"type": "Feature","bbox": [-96.612,16.5925,-96.4721,16.7061],"geometry": {"type": "MultiPolygon","coordinates": [[[[-96.5937,16.6185,2862.1387],[-96.5327,16.608,1942.3215],[-96.5153,16.6077,1851.8605],[-96.5135,16.6088,1858.5586],[-96.496,16.5982,1537.6171],[-96.477,16.5925,1577.4832],[-96.4721,16.6104,1584.4065],[-96.4811,16.6188,1663.0393],[-96.4958,16.6427,1717.7917],[-96.4914,16.6481,1503.3875],[-96.4723,16.6553,1486.8907],[-96.4722,16.6639,1508.1324],[-96.4752,16.6663,1490.6959],[-96.4763,16.6696,1518.759],[-96.4894,16.6717,1474.7888],[-96.5063,16.6978,1540.7893],[-96.5182,16.7061,1416.7806],[-96.5281,16.705,1420.3064],[-96.5393,16.6637,1825.0023],[-96.5695,16.6713,2114.4546],[-96.5947,16.6567,2157.1526],[-96.6098,16.6386,2598.364],[-96.612,16.6217,2778.2637],[-96.5937,16.6185,2862.1387]]]]}
,"properties": {"GID_2": "MEX.20.330_2","GID_0": "MEX","country": "México","GID_1": "MEX.20_1","province": "Oaxaca","NL_NAME_1": "NA","county": "SanPedroTaviche","VARNAME_2": "NA","NL_NAME_2": "NA","TYPE_2": "Município","ENGTYPE_2": "Municipality","CC_2": "NA","HASC_2": "NA","name": "San_Pedro_Taviche.county","area_km2": 98.949,"hist_schema_id": "Elevation0-9000","hist_area_km2": {"1325": 0.06094,"1350": 0.5281,"1375": 1.13739,"1400": 1.86851,"1425": 2.21383,"1450": 2.7827,"1475": 4.77327,"1500": 5.09833,"1525": 5.20008,"1550": 5.26135,"1575": 5.22085,"1600": 5.50531,"1625": 5.13973,"1650": 4.449,"1675": 3.85984,"1700": 3.85982,"1725": 3.23002,"1750": 3.14874,"1775": 3.22998,"1800": 2.66119,"1825": 2.1127,"1850": 1.97049,"1875": 2.13299,"1900": 1.42196,"1925": 1.38134,"1950": 1.23913,"1975": 1.25943,"2000": 1.1985,"2025": 1.01567,"2050": 1.01567,"2075": 0.99536,"2100": 0.79223,"2125": 0.85318,"2150": 0.69069,"2175": 0.62972,"2200": 0.65006,"2225": 0.46724,"2250": 0.52818,"2275": 0.42661,"2300": 0.60945,"2325": 0.36567,"2350": 0.46725,"2375": 0.28441,"2400": 0.48756,"2425": 0.46725,"2450": 0.34536,"2475": 0.42662,"2500": 0.36568,"2525": 0.36567,"2550": 0.50788,"2575": 0.386,"2600": 0.386,"2625": 0.44694,"2650": 0.30474,"2675": 0.30473,"2700": 0.40632,"2725": 0.34537,"2750": 0.42663,"2775": 0.32506,"2800": 0.24379,"2825": 0.38601,"2850": 0.20316,"2875": 0.06095,"2900": 0.02032}}}