{"type": "Feature","bbox": [-96.9696,18.1203,-96.8917,18.1722],"geometry": {"type": "MultiPolygon","coordinates": [[[[-96.9394,18.1715,2299.3367],[-96.952,18.146,2152.6753],[-96.9564,18.1439,2139.0146],[-96.9609,18.1378,2403.2393],[-96.9696,18.1321,2594.8042],[-96.9691,18.1258,2601.4895],[-96.9653,18.1203,2611.0542],[-96.9609,18.1293,2115.8501],[-96.9504,18.1356,1880.1968],[-96.9476,18.1336,1823.5465],[-96.9439,18.1348,1777.3059],[-96.9412,18.1371,1781.5121],[-96.9404,18.1413,1692.5374],[-96.9355,18.1426,1641.8318],[-96.9318,18.1464,1606.4819],[-96.928,18.147,1577.7454],[-96.925299999999993,18.1441,1560.4323],[-96.9184,18.1482,1490.5363],[-96.9152,18.1487,1489.515],[-96.9122,18.1468,1511.5227],[-96.9074,18.1499,1428.6965],[-96.9067,18.1476,1471.9155],[-96.9048,18.1479,1398.2969],[-96.8953,18.1595,1805.2522],[-96.8917,18.1616,1875.0151],[-96.8923,18.1667,1952.0985],[-96.8974,18.1706,1866.1255],[-96.8993,18.1699,1887.2272],[-96.9014,18.1716,1903.8525],[-96.9137,18.1694,1901.7288],[-96.9178,18.1717,1933.4109],[-96.9251,18.1722,2080.9539],[-96.9292,18.17,2217.4114],[-96.9394,18.1715,2299.3367]]]]}
,"properties": {"GID_2": "MEX.20.165_2","GID_0": "MEX","country": "México","GID_1": "MEX.20_1","province": "Oaxaca","NL_NAME_1": "NA","county": "SanJerónimoTecóatl","VARNAME_2": "NA","NL_NAME_2": "NA","TYPE_2": "Município","ENGTYPE_2": "Municipality","CC_2": "NA","HASC_2": "NA","name": "San_Jerónimo_Tecóatl.county","area_km2": 17.7695,"hist_schema_id": "Elevation0-9000","hist_area_km2": {"1400": 0.04029,"1425": 0.08059,"1450": 0.08059,"1475": 0.30221,"1500": 0.26191,"1525": 0.32235,"1550": 0.22161,"1575": 0.3425,"1600": 0.42308,"1625": 0.50367,"1650": 0.62455,"1675": 0.52381,"1700": 0.54396,"1725": 0.72527,"1750": 0.80586,"1775": 0.84615,"1800": 1.06777,"1825": 0.76556,"1850": 0.74542,"1875": 0.76556,"1900": 0.64469,"1925": 0.64468,"1950": 0.66485,"1975": 0.56412,"2000": 0.6044,"2025": 0.52382,"2050": 0.52382,"2075": 0.40293,"2100": 0.50367,"2125": 0.40294,"2150": 0.30221,"2175": 0.36264,"2200": 0.24176,"2225": 0.18133,"2250": 0.12089,"2275": 0.04029,"2300": 0.0806,"2325": 0.18134,"2350": 0.06045,"2375": 0.0806,"2400": 0.0403,"2425": 0.1209,"2450": 0.06045,"2475": 0.1209,"2500": 0.0403,"2525": 0.0806,"2550": 0.0806,"2575": 0.06045,"2600": 0.0403}}}