{"type":"Feature","properties":{"GID_2":"MEX.30.92_2","GID_0":"MEX","country":"México","GID_1":"MEX.30_1","province":"Veracruz","NL_NAME_1":"NA","county":"Jilotepec","VARNAME_2":"NA","NL_NAME_2":"NA","TYPE_2":"Município","ENGTYPE_2":"Municipality","CC_2":"NA","HASC_2":"NA","name":"Jilotepec.county"},
"geometry":{"type": "MultiPolygon","coordinates": [[[[-96.8972,19.581,1288.4003],[-96.8955,19.5799,1327.5668],[-96.8929,19.5813,1282.3182],[-96.8887,19.5792,1291.0342],[-96.8865,19.5809,1255.9377],[-96.8824,19.5786,1241.0806],[-96.874,19.581,989.179],[-96.8748,19.5828,962.8903],[-96.8709,19.5876,907.6614],[-96.872,19.5918,888.3995],[-96.8646,19.5884,879.2216],[-96.8585,19.5884,857.7905],[-96.8495,19.5851,868.2492],[-96.8493,19.5882,857.5434],[-96.8473,19.588,859.2392],[-96.8465,19.5905,858.9735],[-96.8447,19.5909,858.9735],[-96.8441,19.5984,852.9251],[-96.8415,19.6035,827.63],[-96.8486,19.608,847.5566],[-96.8491,19.6066,849.1492],[-96.8566,19.608,864.8297],[-96.8584,19.6064,870.4975],[-96.8685,19.6096,908.8849],[-96.8711,19.6119,918.2826],[-96.8699,19.6153,924.9315],[-96.874,19.6171,943.4205],[-96.8747,19.6189,951.7565],[-96.8846,19.6224,1008.7163],[-96.888,19.6262,1029.8003],[-96.8969,19.6275,1082.3271],[-96.9031,19.6324,1132.4512],[-96.9121,19.6323,1200.345],[-96.9164,19.6351,1243.0018],[-96.9197,19.6341,1268.175],[-96.9242,19.6366,1300.8976],[-96.9378,19.6374,1364.4739],[-96.9431,19.6398,1392.152],[-96.9425,19.6408,1396.2676],[-96.9456,19.6392,1404.2743],[-96.9533,19.6398,1426.738],[-96.9627,19.6372,1499.0243],[-96.9685,19.6437,1543.9336],[-96.9739,19.6365,1550.9805],[-96.979,19.635,1728.1204],[-96.9758,19.6269,1692.5183],[-96.9816,19.6303,1751.1353],[-96.9855,19.6293,1798.9288],[-96.9875,19.6207,1814.4937],[-96.9802,19.6205,1715.4005],[-96.9775,19.6177,1703.0724],[-96.977,19.6152,1715.343],[-96.9744,19.6132,1686.7335],[-96.9746,19.6021,1663.0265],[-96.972,19.5992,1643.6383],[-96.9692,19.5993,1643.6884],[-96.9684,19.5967,1671.0345],[-96.9658,19.5951,1653.9319],[-96.9629,19.5969,1643.0632],[-96.9581,19.595,1603.7212],[-96.9546,19.6,1518.7471],[-96.9524,19.6014,1499.1487],[-96.9505,19.6002,1515.5045],[-96.9488,19.6021,1552.4156],[-96.9483,19.6083,1329.5958],[-96.9418,19.6124,1313.5072],[-96.9336,19.6053,1548.5667],[-96.9304,19.6062,1548.4595],[-96.9255,19.6029,1539.1566],[-96.917,19.6028,1487.4565],[-96.9184,19.5991,1504.6982],[-96.9311,19.5982,1537.7817],[-96.9326,19.5956,1477.4519],[-96.9306,19.5935,1421.064],[-96.9268,19.5921,1399.9001],[-96.9248,19.5936,1399.7048],[-96.9214,19.5934,1403.3308],[-96.917,19.5902,1429.0724],[-96.9139,19.59,1382.5621],[-96.9103,19.5846,1365.8934],[-96.9054,19.5851,1346.634],[-96.8972,19.581,1288.4003]]]]}}