{"type": "Feature","bbox": [-92.1864,17.5928,-91.7797,17.9433],"geometry": {"type": "MultiPolygon","coordinates": [[[[-91.8145,17.9005,5.9763],[-91.8207,17.8977,4.0],[-91.8354,17.8866,4.0],[-91.8497,17.8829,4.0],[-91.8579,17.8846,3.5],[-91.8707,17.8908,3.0],[-91.8942,17.8875,2.5],[-91.903,17.896,2.0],[-91.9125,17.8998,2.0],[-91.9181,17.8995,2.0],[-91.9234,17.8956,2.0],[-91.9255,17.8919,2.0],[-91.9239,17.8824,4.8783],[-91.9281,17.8708,2.0],[-91.9376,17.8645,2.0],[-91.9484,17.8633,2.0],[-91.9526,17.8654,2.8838],[-91.9571,17.8706,4.1314],[-91.9568,17.8799,2.0],[-91.9394,17.9011,2.0],[-91.9403,17.9074,3.6775],[-91.945,17.9103,2.0],[-91.9699,17.9104,2.0],[-91.9785,17.9137,2.0],[-91.9852,17.9204,2.0],[-91.993,17.9397,2.0],[-91.9957,17.9426,2.0],[-91.9999,17.9433,3.7996],[-91.9913,17.9196,4.6016],[-91.9984,17.899,12.893],[-92.0005,17.8987,6.5044],[-92.0034,17.8905,6.7172],[-92.0155,17.8975,7.3648],[-92.0192,17.8955,4.5241],[-92.0206,17.8918,3.924],[-92.0197,17.8878,3.0702],[-92.0297,17.8891,2.5],[-92.0671,17.8764,3.7799],[-92.0718,17.8777,4.0507],[-92.0721,17.8745,5.2016],[-92.0673,17.8704,6.2529],[-92.0605,17.8719,6.3853],[-92.0525,17.8672,4.6074],[-92.0484,17.858,6.186],[-92.0494,17.8548,4.4948],[-92.0534,17.8527,4.3634],[-92.0534,17.8485,4.9547],[-92.0563,17.8468,5.1769],[-92.0683,17.8487,3.998],[-92.0905,17.8566,3.7518],[-92.0905,17.8507,7.3587],[-92.102,17.8509,13.8667],[-92.1065,17.8381,7.7108],[-92.0994,17.8346,8.1587],[-92.1046,17.8276,10.8928],[-92.1055,17.8129,13.0465],[-92.1205,17.796,13.9066],[-92.1466,17.8147,8.1791],[-92.1466,17.8124,8.5833],[-92.1271,17.7859,16.9372],[-92.136,17.779,20.0095],[-92.1326,17.7751,21.8583],[-92.132,17.7703,22.5061],[-92.1299,17.767,23.0039],[-92.1517,17.7646,24.4977],[-92.1508,17.7508,30.7795],[-92.1717,17.7575,23.1669],[-92.175,17.7556,26.2056],[-92.1744,17.7581,25.8824],[-92.1864,17.7632,27.6835],[-92.1833,17.758,23.8393],[-92.1856,17.7444,27.6869],[-92.1836,17.7443,27.9151],[-92.1833,17.7323,25.9311],[-92.1741,17.7293,29.5141],[-92.1739,17.7326,27.0142],[-92.1513,17.7238,33.0725],[-92.1466,17.7188,38.8715],[-92.144,17.7204,36.3725],[-92.1412,17.7198,37.4192],[-92.1318,17.742,31.6709],[-92.1136,17.7412,38.4828],[-92.1221,17.7214,61.0181],[-92.117,17.7239,52.0218],[-92.1127,17.7231,46.5135],[-92.113,17.7094,35.0035],[-92.132,17.7097,42.2445],[-92.1321,17.6982,42.2446],[-92.0917,17.697,33.8613],[-92.0939,17.6866,34.5008],[-92.0766,17.6867,21.0624],[-92.0786,17.6794,31.0541],[-92.074,17.6763,26.3173],[-92.0683,17.6766,20.0793],[-92.072,17.6725,21.996],[-92.0684,17.6603,24.0135],[-92.0794,17.6451,36.2788],[-92.0813,17.635,35.125],[-92.0789,17.6233,42.9306],[-92.0848,17.619,54.9053],[-92.0861,17.614,61.9298],[-92.0717,17.6134,56.3538],[-92.0694,17.6108,58.8234],[-92.071,17.6096,56.8564],[-92.0623,17.6016,61.0032],[-92.06,17.6033,63.8784],[-92.0509,17.5981,69.9126],[-92.041,17.5957,64.9605],[-92.0411,17.5928,56.102],[-92.0303,17.6034,49.876],[-92.0172,17.6125,49.3659],[-92.0184,17.6308,27.8207],[-92.0286,17.6308,38.3905],[-92.0288,17.6388,39.9093],[-92.0223,17.6389,31.9821],[-92.0224,17.6511,16.631],[-92.0266,17.6556,15.8105],[-92.012,17.6683,21.3726],[-92.0042,17.6584,24.228],[-92.0001,17.6611,16.0748],[-91.977,17.6362,46.5289],[-91.9732,17.6433,34.4173],[-91.9701,17.6438,45.7375],[-91.9592,17.6516,31.2215],[-91.9615,17.6541,26.6534],[-91.9407,17.6719,41.4497],[-91.9494,17.6812,40.6685],[-91.9468,17.6826,41.1691],[-91.9587,17.6982,34.0502],[-91.9524,17.7033,28.9473],[-91.9514,17.7023,28.9473],[-91.9524,17.7348,17.8887],[-91.9415,17.7273,15.7758],[-91.9379,17.7227,17.9625],[-91.931,17.7231,20.3527],[-91.9303,17.7261,29.1515],[-91.9338,17.7332,22.7651],[-91.9341,17.7427,12.0454],[-91.9382,17.7463,18.8737],[-91.9424,17.7474,22.693],[-91.9336,17.7508,7.7623],[-91.9361,17.7527,4.0083],[-91.9375,17.7597,3.5],[-91.9442,17.7575,13.1854],[-91.9405,17.7663,3.5],[-91.9457,17.7685,4.7665],[-91.9383,17.7701,3.5],[-91.9289,17.7669,3.5],[-91.9238,17.77,19.41],[-91.932,17.78,18.574],[-91.9307,17.7831,7.597],[-91.9237,17.7881,3.0],[-91.9323,17.8008,5.0841],[-91.9345,17.8025,5.2083],[-91.9372,17.8015,7.2815],[-91.9379,17.8043,7.6583],[-91.9356,17.81,5.9716],[-91.9327,17.8128,7.0676],[-91.9208,17.813,6.4354],[-91.9096,17.8185,7.2501],[-91.9121,17.8216,4.5487],[-91.9203,17.8214,6.9564],[-91.9228,17.8249,6.121],[-91.9219,17.8321,5.7524],[-91.918,17.8354,5.6973],[-91.9057,17.8394,7.2852],[-91.8991,17.839,8.6961],[-91.8793,17.8264,6.5457],[-91.8484,17.8255,7.2565],[-91.8419,17.8163,6.4007],[-91.8354,17.8154,6.3208],[-91.8292,17.8125,6.7592],[-91.8236,17.7962,8.5091],[-91.7882,17.8074,4.0],[-91.7917,17.8176,4.0],[-91.7918,17.8306,4.0],[-91.789,17.8378,4.0],[-91.78,17.8483,4.0],[-91.7797,17.8513,4.0],[-91.7819,17.8543,4.0],[-91.798,17.8621,4.0],[-91.8044,17.8689,4.0],[-91.8089,17.8836,4.0],[-91.8093,17.8968,4.0],[-91.8109,17.8994,5.3531],[-91.8145,17.9005,5.9763]]]]}
,"properties": {"GID_2": "MEX.5.17_2","GID_0": "MEX","country": "México","GID_1": "MEX.5_1","province": "Chiapas","NL_NAME_1": "NA","county": "Catazajá","VARNAME_2": "NA","NL_NAME_2": "NA","TYPE_2": "Município","ENGTYPE_2": "Municipality","CC_2": "NA","HASC_2": "NA","name": "Catazajá.county","area_km2": 632.5167,"hist_schema_id": "Elevation0-9000","hist_area_km2": {"0": 362.857,"25": 222.8298,"50": 45.5769,"75": 1.2529}}}