{"type": "Feature","bbox": [-99.4213,19.6452,-99.1954,19.7922],"geometry": {"type": "MultiPolygon","coordinates": [[[[-99.3878,19.7773,2313.99],[-99.3899,19.7766,2307.6165],[-99.3884,19.775,2326.145],[-99.3916,19.775,2315.365],[-99.3899,19.7742,2326.145],[-99.3925,19.7715,2329.396],[-99.4013,19.7673,2365.877],[-99.4066,19.7543,2405.1621],[-99.4091,19.7521,2430.4312],[-99.4081,19.7513,2400.6763],[-99.4116,19.7477,2406.1279],[-99.4126,19.7393,2476.4795],[-99.414,19.7391,2436.8857],[-99.4143,19.7357,2470.1462],[-99.4158,19.7357,2457.1582],[-99.4158,19.7335,2451.9595],[-99.4141,19.7326,2503.198],[-99.4157,19.7304,2449.4768],[-99.4154,19.7268,2457.5015],[-99.4176,19.7254,2459.9688],[-99.4169,19.7191,2474.2979],[-99.4206,19.7152,2491.7227],[-99.4196,19.7134,2497.7473],[-99.4213,19.7102,2489.542],[-99.4212,19.7004,2513.3079],[-99.411,19.6974,2556.2336],[-99.3942,19.6999,2507.1863],[-99.3912,19.7023,2480.9426],[-99.3865,19.7001,2487.5168],[-99.3829,19.7021,2461.3027],[-99.3807,19.7019,2457.552],[-99.3801,19.6994,2472.3704],[-99.3794,19.7007,2503.4424],[-99.378,19.7,2503.3984],[-99.3786,19.6974,2514.9937],[-99.3676,19.7042,2492.3931],[-99.3634,19.7038,2488.6572],[-99.3586,19.7055,2475.3347],[-99.3535,19.7006,2468.1812],[-99.3516,19.7012,2468.2925],[-99.3473,19.6894,2397.9983],[-99.3431,19.6897,2385.3823],[-99.3385,19.688,2426.5681],[-99.3371,19.6859,2418.5315],[-99.3362,19.6843,2425.5317],[-99.3399,19.6792,2442.9814],[-99.3397,19.6758,2462.9329],[-99.3309,19.6797,2441.7874],[-99.3247,19.6713,2393.0857],[-99.322,19.6598,2427.9592],[-99.3354,19.6571,2435.4441],[-99.3339,19.6523,2457.7314],[-99.3278,19.6495,2408.8906],[-99.3236,19.6488,2399.9341],[-99.3203,19.6513,2387.7197],[-99.319,19.6452,2403.043],[-99.3048,19.6462,2364.3193],[-99.3006,19.6487,2359.3169],[-99.2914,19.6605,2340.9773],[-99.2846,19.6615,2331.8369],[-99.2826,19.6641,2324.5918],[-99.2758,19.6616,2308.2046],[-99.271,19.6645,2304.6646],[-99.271,19.6887,2287.6599],[-99.2695,19.6907,2286.8613],[-99.2622,19.6902,2279.0273],[-99.2607,19.6913,2278.5212],[-99.2567,19.6894,2276.9702],[-99.2548,19.6925,2274.843],[-99.2496,19.6922,2272.3733],[-99.2432,19.6944,2270.9968],[-99.2427,19.6928,2269.7676],[-99.2403,19.6931,2269.2837],[-99.2388,19.6978,2267.7937],[-99.2324,19.7016,2264.8267],[-99.2249,19.7026,2262.6558],[-99.2231,19.7048,2264.0989],[-99.2196,19.7047,2261.7346],[-99.2186,19.7011,2260.6946],[-99.2071,19.703,2261.0376],[-99.1992,19.7086,2255.2788],[-99.1954,19.7148,2256.3481],[-99.2001,19.7473,2261.939],[-99.2082,19.7476,2271.2871],[-99.2158,19.7511,2276.6245],[-99.2165,19.756,2268.3057],[-99.2115,19.7553,2262.8958],[-99.2081,19.7521,2260.2832],[-99.2141,19.7648,2274.5464],[-99.2156,19.7645,2284.9028],[-99.2179,19.7774,2309.0879],[-99.2214,19.7855,2275.5447],[-99.2249,19.7873,2270.7463],[-99.2282,19.7922,2293.8145],[-99.2576,19.775,2543.8118],[-99.2752,19.7698,2547.218],[-99.2773,19.754,2861.5461],[-99.2904,19.7576,2894.6133],[-99.2949,19.7621,2797.0684],[-99.3075,19.7595,2486.7043],[-99.3062,19.7565,2481.7017],[-99.3129,19.7517,2622.2126],[-99.3241,19.7511,2540.4189],[-99.328,19.7537,2465.1311],[-99.3328,19.7526,2426.1816],[-99.3366,19.7578,2375.5413],[-99.3408,19.7582,2362.1392],[-99.345,19.7628,2333.3398],[-99.3446,19.7645,2315.0522],[-99.3435,19.7638,2315.0522],[-99.3393,19.7669,2315.1519],[-99.3394,19.7692,2295.7561],[-99.3414,19.7704,2303.2981],[-99.3394,19.7716,2298.5315],[-99.3396,19.7751,2285.75],[-99.3435,19.7805,2264.9229],[-99.3515,19.7758,2369.3511],[-99.3578,19.7816,2295.8506],[-99.3674,19.7801,2354.2566],[-99.3706,19.7818,2269.9077],[-99.3739,19.7759,2262.9404],[-99.3769,19.7755,2280.1494],[-99.3824,19.7712,2356.2073],[-99.3843,19.7759,2346.927],[-99.3878,19.7773,2313.99]]]]}
,"properties": {"GID_2": "MEX.15.97_2","GID_0": "MEX","country": "México","GID_1": "MEX.15_1","province": "México","NL_NAME_1": "NA","county": "Tepotzotlán","VARNAME_2": "NA","NL_NAME_2": "NA","TYPE_2": "Município","ENGTYPE_2": "Municipality","CC_2": "NA","HASC_2": "NA","name": "Tepotzotlán.county","area_km2": 208.0433,"hist_schema_id": "Elevation0-9000","hist_area_km2": {"2250": 7.0454,"2275": 13.3918,"2300": 13.3723,"2325": 14.71,"2350": 17.2448,"2375": 20.3779,"2400": 20.5972,"2425": 19.5192,"2450": 16.8444,"2475": 14.0503,"2500": 10.9169,"2525": 7.3644,"2550": 6.7257,"2575": 4.67,"2600": 3.2129,"2625": 2.6741,"2650": 2.6542,"2675": 2.0555,"2700": 2.0754,"2725": 1.6962,"2750": 1.4568,"2775": 1.2372,"2800": 0.9978,"2825": 1.0576,"2850": 0.7184,"2875": 0.6186,"2900": 0.4989,"2925": 0.1796,"2950": 0.0798}}}