{"type":"Feature","properties":{"GID_2":"MEX.30.196_2","GID_0":"MEX","country":"México","GID_1":"MEX.30_1","province":"Veracruz","NL_NAME_1":"NA","county":"Tuxtilla","VARNAME_2":"NA","NL_NAME_2":"NA","TYPE_2":"Município","ENGTYPE_2":"Municipality","CC_2":"NA","HASC_2":"NA","name":"Tuxtilla.county"},
"geometry":{"type": "MultiPolygon","coordinates": [[[[-95.8515,18.1308,2.1752],[-95.8493,18.138,2.0],[-95.8498,18.1412,2.0],[-95.856,18.1442,2.4556],[-95.8577,18.1482,2.0],[-95.861,18.1476,2.2141],[-95.8675,18.1507,2.0],[-95.8666,18.1543,2.7002],[-95.8686,18.1545,8.2271],[-95.8689,18.1607,5.9172],[-95.8713,18.1608,6.2341],[-95.8698,18.1635,2.5571],[-95.8731,18.1641,4.8035],[-95.8714,18.1758,6.0094],[-95.8723,18.1778,3.8873],[-95.8708,18.1796,3.6663],[-95.8692,18.1792,2.9087],[-95.862799999999993,18.1735,5.0659],[-95.8619,18.1774,3.326],[-95.8566,18.1783,3.3894],[-95.8561,18.1806,3.5356],[-95.8519,18.1812,3.815],[-95.8509,18.1828,3.9733],[-95.8447,18.1816,4.2476],[-95.8414,18.1832,3.7236],[-95.8452,18.1917,5.3611],[-95.8411,18.1969,3.9788],[-95.8457,18.1995,3.697],[-95.8445,18.2051,4.3044],[-95.8502,18.2129,2.9709],[-95.8884,18.2507,7.3708],[-95.8899,18.2477,6.7838],[-95.8984,18.2436,9.1186],[-95.9012,18.2381,3.6615],[-95.9123,18.2525,1.5],[-95.9143,18.25,1.5],[-95.9201,18.2483,2.4886],[-95.918,18.2462,1.5],[-95.9192,18.2456,1.5],[-95.9111,18.2406,8.1952],[-95.9116,18.2219,10.0351],[-95.8938,18.2236,8.8637],[-95.89,18.2184,6.8302],[-95.8896,18.2125,9.6758],[-95.8818,18.2075,6.2099],[-95.8789,18.1978,2.563],[-95.8829,18.196,3.376],[-95.8824,18.1949,3.2484],[-95.89,18.1884,2.2221],[-95.8932,18.1901,2.93],[-95.8947,18.1875,2.6795],[-95.8987,18.1903,3.0262],[-95.9108,18.1849,4.051],[-95.9137,18.1711,4.6196],[-95.9097,18.1702,4.306],[-95.9113,18.1667,5.7414],[-95.9088,18.1659,4.4088],[-95.9096,18.1622,4.6521],[-95.9083,18.1608,4.1901],[-95.9095,18.156,4.6027],[-95.9124,18.1528,3.6606],[-95.9082,18.1535,3.5935],[-95.906,18.1514,3.0938],[-95.8979,18.1508,3.2706],[-95.8962,18.1488,2.9463],[-95.8952,18.144,4.1488],[-95.8971,18.146,4.0042],[-95.9008,18.1438,6.5546],[-95.9012,18.142,3.3503],[-95.8994,18.1407,3.3748],[-95.9027,18.1357,3.6938],[-95.8515,18.1308,2.1752]]]]}}