{"type": "Feature","bbox": [-104.3835,24.9557,-103.778,25.5859],"geometry": {"type": "MultiPolygon","coordinates": [[[[-103.778,25.2701,1206.0],[-103.7825,25.278199999999998,1228.7069],[-103.786,25.279,1224.7795],[-103.789,25.2899,1259.3926],[-103.8227,25.3501,1731.6411],[-103.8093,25.3628,1778.423],[-103.793,25.3926,1857.8625],[-103.8483,25.4613,1828.9086],[-103.9023,25.4525,1911.5255],[-103.905,25.4721,1740.2698],[-103.9494,25.4583,1545.0764],[-103.9532,25.4658,1561.3683],[-103.953,25.4725,1574.0557],[-103.9685,25.4988,1641.5236],[-103.9711,25.5058,1655.7947],[-103.9711,25.5137,1671.9735],[-103.9677,25.5178,1687.6052],[-103.9722,25.5202,1682.9851],[-103.9732,25.5378,1714.6011],[-103.9786,25.5476,1734.5623],[-103.9776,25.5497,1738.7432],[-103.9802,25.5531,1739.3356],[-104.0161,25.5442,1953.6501],[-104.0175,25.5793,1826.6875],[-104.0206,25.575,1861.8561],[-104.0248,25.5746,1869.5695],[-104.027,25.5724,1877.3904],[-104.0295,25.5746,1885.0005],[-104.0434,25.5736,1922.7623],[-104.043,25.5705,1930.6467],[-104.0494,25.565,1966.3016],[-104.0524,25.5512,1931.5973],[-104.0621,25.5525,1882.0208],[-104.0706,25.5502,1854.5704],[-104.0752,25.5563,1909.4319],[-104.078,25.5677,1914.61],[-104.0814,25.5728,1925.0327],[-104.0818,25.582,1967.9478],[-104.0867,25.5859,2035.8911],[-104.0938,25.5851,2161.7424],[-104.1002,25.5687,1934.7085],[-104.1053,25.5645,1851.1924],[-104.1103,25.5719,1904.634],[-104.1139,25.5739,1908.626],[-104.1204,25.5745,1900.108],[-104.1258,25.5718,1865.4009],[-104.1225,25.5672,1851.9137],[-104.1231,25.5643,1853.1549],[-104.15,25.5721,2180.8533],[-104.15,25.56,1792.6162],[-104.1511,25.5614,1800.4907],[-104.1924,25.5529,1660.9354],[-104.1932,25.5455,1642.9838],[-104.1909,25.5313,1656.5461],[-104.1838,25.5091,1666.723],[-104.174,25.4898,1560.4567],[-104.163,25.4827,1557.9795],[-104.1415,25.5112,1794.3478],[-104.1283,25.4894,1599.5923],[-104.1275,25.4861,1589.3767],[-104.1309,25.4848,1583.5763],[-104.1277,25.48,1583.9805],[-104.1265,25.4725,1555.9139],[-104.1336,25.4678,1537.6061],[-104.1345,25.4606,1517.1232],[-104.1372,25.4596,1512.913],[-104.1463,25.4699,1540.4807],[-104.1526,25.471,1535.724],[-104.1558,25.4679,1526.3696],[-104.1621,25.4674,1517.0697],[-104.1653,25.4647,1510.2333],[-104.1679,25.4586,1499.0986],[-104.1685,25.4518,1482.9517],[-104.1677,25.4483,1477.0126],[-104.1633,25.4445,1462.5181],[-104.164,25.4244,1428.8523],[-104.1602,25.4225,1426.4246],[-104.1518,25.4255,1450.3805],[-104.145,25.4171,1437.0221],[-104.1379,25.4128,1558.226],[-104.1283,25.3982,1489.2853],[-104.1278,25.3776,1429.4706],[-104.1243,25.3667,1341.021],[-104.1324,25.3677,1346.6484],[-104.138,25.3647,1341.1992],[-104.1199,25.3224,1298.1594],[-104.1688,25.3105,1329.0117],[-104.1859,25.3249,1373.0771],[-104.1994,25.3162,1499.5698],[-104.2008,25.3094,1401.7333],[-104.3095,25.2697,1725.1689],[-104.3128,25.2653,1713.1843],[-104.3341,25.2682,1764.9602],[-104.3324,25.2733,1853.9792],[-104.3513,25.279,1917.3435],[-104.3593,25.2681,1719.8785],[-104.3639,25.2714,1727.8215],[-104.3652,25.2672,1735.683],[-104.3739,25.2661,1782.1614],[-104.3698,25.2591,1783.2732],[-104.3821,25.2518,1985.0027],[-104.3679,25.2563,1746.1482],[-104.3668,25.1987,1911.9182],[-104.3568,25.1895,1904.4639],[-104.3654,25.1835,1682.1709],[-104.367,25.1295,1291.3154],[-104.366,25.1286,1304.2224],[-104.3801,25.1357,1290.1194],[-104.3828,25.1359,1290.551],[-104.3835,25.1339,1301.7904],[-104.3744,25.1105,1661.0186],[-104.3748,25.0712,1849.5022],[-104.3626,25.0569,1875.2776],[-104.3566,25.0219,1764.4789],[-104.341,25.0115,1791.0256],[-104.3377,25.0161,1846.1056],[-104.3299,25.0151,1836.2517],[-104.3258,25.0164,1772.0634],[-104.3233,25.0153,1730.9427],[-104.32,25.0187,1701.2922],[-104.3146,25.0192,1687.2001],[-104.3123,25.0227,1689.506],[-104.3101,25.0233,1670.906],[-104.311,25.0267,1651.511],[-104.3038,25.0265,1648.4751],[-104.3017,25.0301,1620.7344],[-104.2992,25.0311,1614.0787],[-104.2992,25.0265,1647.3982],[-104.2963,25.0232,1681.8689],[-104.2948,25.0239,1675.7839],[-104.2908,25.0189,1762.209],[-104.2894,24.9947,1938.9182],[-104.2732,24.9977,1901.5957],[-104.2618,25.0169,1794.3422],[-104.2586,25.0135,1789.3314],[-104.2541,25.012,1839.905],[-104.2545,25.0092,1872.2238],[-104.2493,25.0037,1941.051],[-104.2139,25.0212,1732.5876],[-104.2186,25.0524,1885.3772],[-104.1705,25.0486,1459.5186],[-104.1827,24.9984,1555.4431],[-104.1765,24.9961,1532.7203],[-104.1586,24.9968,1509.9231],[-104.1475,24.9898,1488.6758],[-104.1282,24.9921,1575.9335],[-104.1214,24.999,1590.0161],[-104.1101,25.0037,1588.0189],[-104.104,25.0123,1624.6892],[-104.1051,25.0269,1653.0388],[-104.1038,25.0369,1685.313],[-104.098,25.0532,1734.4769],[-104.0556,24.9557,1922.3077],[-104.0278,24.9699,2272.0349],[-103.9944,24.9629,1809.377],[-103.9953,24.9849,1759.2483],[-103.9428,24.9886,1932.5985],[-103.9484,25.0408,1843.0258],[-103.9571,25.0565,1767.2517],[-103.8976,25.093,1478.7761],[-103.9129,25.1115,1631.9056],[-103.9196,25.1342,1636.1576],[-103.8758,25.1907,1399.7133],[-103.8614,25.1976,1370.2639],[-103.8324,25.2524,1283.9482],[-103.8415,25.2728,1252.2327],[-103.8346,25.2699,1206.0],[-103.8276,25.2601,1210.1968],[-103.8239,25.2608,1239.4124],[-103.8254,25.2717,1206.0],[-103.8232,25.271,1206.8689],[-103.8189,25.2591,1226.6803],[-103.815,25.2605,1207.302],[-103.8127,25.2716,1216.2229],[-103.8052,25.2708,1206.0],[-103.8016,25.2797,1207.1897],[-103.7929,25.2798,1206.0],[-103.778,25.2701,1206.0]]]]}
,"properties": {"GID_2": "MEX.10.16_2","GID_0": "MEX","country": "México","GID_1": "MEX.10_1","province": "Durango","NL_NAME_1": "NA","county": "Nazas","VARNAME_2": "NA","NL_NAME_2": "NA","TYPE_2": "Município","ENGTYPE_2": "Municipality","CC_2": "NA","HASC_2": "NA","name": "Nazas.county","area_km2": 2392.176,"hist_schema_id": "Elevation0-9000","hist_area_km2": {"1200": 20.573,"1225": 78.609,"1250": 113.762,"1275": 111.138,"1300": 98.253,"1325": 82.86,"1350": 74.578,"1375": 71.318,"1400": 70.533,"1425": 71.182,"1450": 75.765,"1475": 75.651,"1500": 77.972,"1525": 75.177,"1550": 74.695,"1575": 68.178,"1600": 65.417,"1625": 66.607,"1650": 68.578,"1675": 74.309,"1700": 76.304,"1725": 79.886,"1750": 83.337,"1775": 82.374,"1800": 77.752,"1825": 73.534,"1850": 69.448,"1875": 64.81,"1900": 62.57,"1925": 55.102,"1950": 41.372,"1975": 27.103,"2000": 18.884,"2025": 15.01,"2050": 12.139,"2075": 10.569,"2100": 8.023,"2125": 6.089,"2150": 4.462,"2175": 3.677,"2200": 2.068,"2225": 1.417,"2250": 0.632,"2275": 0.287,"2300": 0.077,"2325": 0.077,"2375": 0.019}}}