{"type": "Feature","bbox": [-97.6473,18.4417,-97.4564,18.6648],"geometry": {"type": "MultiPolygon","coordinates": [[[[-97.5086,18.6627,2322.3315],[-97.5099,18.6616,2312.9749],[-97.5143,18.6627,2256.064],[-97.5181,18.6605,2233.1143],[-97.5193,18.655,2221.1113],[-97.5184,18.6497,2150.2705],[-97.5167,18.6486,2135.8315],[-97.5176,18.6447,2120.2888],[-97.5232,18.6354,2066.8293],[-97.532,18.6256,2013.2039],[-97.5394,18.6213,1974.3734],[-97.5487,18.6234,1943.9944],[-97.551,18.6185,1928.5627],[-97.5572,18.6159,1912.5507],[-97.563,18.6082,1876.0051],[-97.5741,18.6019,1847.7323],[-97.5716,18.5996,1854.0123],[-97.5764,18.5971,1855.8973],[-97.5886,18.5952,1887.743],[-97.5888,18.5939,1887.743],[-97.5899,18.595,1903.3108],[-97.5927,18.5924,1909.9481],[-97.5981,18.5924,1917.748],[-97.5987,18.5899,1925.9978],[-97.6031,18.5908,1921.6216],[-97.6038,18.5883,1933.4011],[-97.6096,18.5896,1941.3423],[-97.6086,18.5921,1928.3632],[-97.6162,18.5982,1910.3982],[-97.6245,18.5986,1921.0339],[-97.6251,18.5923,1938.2249],[-97.6215,18.5872,1979.7263],[-97.639,18.5938,1931.6243],[-97.6301,18.567,2039.272],[-97.6346,18.5632,2069.8079],[-97.6394,18.5623,2109.718],[-97.6428,18.5586,2108.7568],[-97.6415,18.5536,2125.3354],[-97.6473,18.5345,2281.8828],[-97.6469,18.5309,2335.6746],[-97.645,18.5302,2323.3374],[-97.645,18.5169,2460.6638],[-97.6369,18.5112,2411.4006],[-97.6369,18.5078,2391.5757],[-97.6399,18.5035,2345.3926],[-97.6368,18.5031,2367.064],[-97.6262,18.5052,2559.1348],[-97.6253,18.5087,2516.217],[-97.6201,18.5122,2315.2964],[-97.6157,18.5106,2339.1809],[-97.6112,18.506,2393.3667],[-97.6062,18.511,2283.4895],[-97.594,18.5123,2314.4668],[-97.5918,18.5148,2329.9128],[-97.591,18.5196,2288.1838],[-97.5826,18.5252,1972.3579],[-97.5747,18.5338,1872.9039],[-97.5714,18.5339,1858.3533],[-97.561,18.5401,1816.6946],[-97.5595,18.5384,1814.449],[-97.5449,18.5401,1776.5453],[-97.5444,18.5444,1778.2122],[-97.5194,18.5278,1750.6731],[-97.5186,18.5285,1750.6731],[-97.5187,18.5229,1754.7515],[-97.5326,18.5133,1786.2764],[-97.5482,18.5115,1833.723],[-97.5504,18.5089,1848.09],[-97.5486,18.5078,1858.4097],[-97.5476,18.5013,1860.625],[-97.5431,18.5012,1823.265],[-97.5418,18.4989,1819.207],[-97.5497,18.4782,1885.653],[-97.5458,18.478,1869.194],[-97.5467,18.4725,2100.6235],[-97.5522,18.4699,2050.4822],[-97.5494,18.4651,1970.4639],[-97.5467,18.4639,1954.9176],[-97.5422,18.4661,1914.3682],[-97.5415,18.458,1958.3444],[-97.5343,18.4528,2075.5537],[-97.5311,18.4463,2035.8331],[-97.5258,18.4438,2023.1356],[-97.5181,18.4436,1975.5249],[-97.5168,18.4417,1998.5182],[-97.5038,18.4495,1906.6887],[-97.5022,18.4551,1850.9619],[-97.4989,18.4513,1878.6569],[-97.4988,18.4482,1899.6499],[-97.4934,18.457,1828.8296],[-97.489,18.4597,1798.0726],[-97.4894,18.4634,1787.4038],[-97.4879,18.4661,1773.833],[-97.4852,18.4656,1773.1687],[-97.4856,18.4703,1762.0271],[-97.4779,18.4756,1730.8425],[-97.4746,18.4793,1718.3596],[-97.474,18.4823,1709.5598],[-97.4691,18.4823,1703.7466],[-97.468,18.4925,1701.1462],[-97.4565,18.484,1690.6467],[-97.4564,18.4857,1691.7368],[-97.4576,18.4941,1694.8824],[-97.4622,18.4971,1700.8433],[-97.4627,18.4998,1701.8513],[-97.4686,18.5015,1708.6611],[-97.4785,18.5081,1716.5742],[-97.4773,18.5109,1718.7222],[-97.4794,18.5117,1719.1653],[-97.4785,18.515,1720.5647],[-97.4837,18.5169,1721.9485],[-97.4987,18.527,1734.9532],[-97.4953,18.5356,1735.4308],[-97.5039,18.5413,1743.993],[-97.5065,18.549,1756.6637],[-97.506,18.5551,1776.6296],[-97.4992,18.5632,1854.0514],[-97.4959,18.5656,1762.965],[-97.4887,18.562,1781.337],[-97.4926,18.5655,1743.3846],[-97.4858,18.5659,1744.9034],[-97.4837,18.5685,1758.6597],[-97.4839,18.577,1770.6267],[-97.4875,18.5819,1762.4799],[-97.486,18.5821,1786.5542],[-97.4893,18.5891,1805.3152],[-97.4926,18.5923,1814.4257],[-97.4915,18.5938,1830.4541],[-97.4846,18.5982,1879.7466],[-97.4821,18.5961,1933.6459],[-97.4796,18.5974,1952.3606],[-97.4661,18.5935,1917.4192],[-97.4736,18.6091,1998.5031],[-97.4738,18.6125,2031.8706],[-97.4643,18.6236,2090.4741],[-97.4649,18.6321,2266.7681],[-97.4689,18.6286,2146.1113],[-97.4733,18.6321,2240.0408],[-97.4764,18.6394,2430.6465],[-97.4819,18.6443,2604.5417],[-97.486,18.6437,2480.1262],[-97.4884,18.6459,2381.9009],[-97.4913,18.6443,2272.6494],[-97.4918,18.6471,2361.1868],[-97.4892,18.6558,2587.6206],[-97.4953,18.6628,2763.4048],[-97.502,18.6648,2476.7671],[-97.5086,18.6627,2322.3315]]]]}
,"properties": {"GID_2": "MEX.21.161_2","GID_0": "MEX","country": "México","GID_1": "MEX.21_1","province": "Puebla","NL_NAME_1": "NA","county": "TepancodeLópez","VARNAME_2": "NA","NL_NAME_2": "NA","TYPE_2": "Município","ENGTYPE_2": "Municipality","CC_2": "NA","HASC_2": "NA","name": "Tepancode_López.county","area_km2": 225.9668,"hist_schema_id": "Elevation0-9000","hist_area_km2": {"1700": 3.8405,"1725": 9.3292,"1750": 20.4248,"1775": 21.8917,"1800": 21.5095,"1825": 14.8753,"1850": 15.6176,"1875": 10.1296,"1900": 9.0039,"1925": 8.18,"1950": 9.6065,"1975": 9.2047,"2000": 9.2247,"2025": 6.8533,"2050": 6.9941,"2075": 5.5474,"2100": 4.1003,"2125": 3.6583,"2150": 3.4973,"2175": 3.8189,"2200": 3.1555,"2225": 2.7937,"2250": 2.4518,"2275": 2.251,"2300": 2.2108,"2325": 2.1103,"2350": 1.7687,"2375": 2.0501,"2400": 1.5074,"2425": 1.6079,"2450": 1.6481,"2475": 1.2258,"2500": 1.0451,"2525": 0.9446,"2550": 0.4221,"2575": 0.3215,"2600": 0.1808,"2625": 0.1607,"2650": 0.0804,"2675": 0.1808,"2700": 0.0804,"2725": 0.1406,"2750": 0.0603,"2775": 0.0603,"2800": 0.0603,"2825": 0.0804,"2850": 0.0603}}}