{"type":"Feature","properties":{"GID_2":"MEX.28.20_2","GID_0":"MEX","country":"México","GID_1":"MEX.28_1","province":"Tamaulipas","NL_NAME_1":"NA","county":"Llera","VARNAME_2":"NA","NL_NAME_2":"NA","TYPE_2":"Município","ENGTYPE_2":"Municipality","CC_2":"NA","HASC_2":"NA","name":"Llera.county"},
"geometry":{"type": "MultiPolygon","coordinates": [[[[-99.0362,23.5424,461.1979],[-99.0632,23.5189,833.1987],[-99.095,23.5177,1206.9113],[-99.092,23.5027,1178.327],[-99.0927,23.4857,1077.9989],[-99.1133,23.4861,1134.4872],[-99.1146,23.4651,1015.2687],[-99.122,23.4465,837.9459],[-99.1327,23.4465,838.8769],[-99.1378,23.4437,838.0078],[-99.1418,23.4232,839.1925],[-99.1489,23.4286,937.2105],[-99.1488,23.4091,869.1962],[-99.1307,23.4065,540.2996],[-99.1268,23.3961,458.0306],[-99.1923,23.3994,684.5735],[-99.193,23.3698,995.5969],[-99.1937,23.375,980.3676],[-99.1957,23.3724,1059.2068],[-99.187,23.3124,802.0162],[-99.1755,23.3114,725.4818],[-99.1778,23.3027,708.6815],[-99.1446,23.2661,771.7547],[-99.1574,23.2625,435.8923],[-99.1834,23.269,493.7712],[-99.1856,23.238,397.5958],[-99.1816,23.2196,359.7122],[-99.198,23.2159,717.0764],[-99.1973,23.2066,755.6654],[-99.2168,23.2023,1424.1493],[-99.2096,23.1664,1603.5148],[-99.2672,23.1433,1847.5488],[-99.1859,23.1508,726.476],[-99.1854,23.127,844.7145],[-99.1492,23.1341,138.6633],[-99.1435,23.1309,139.3908],[-99.1439,23.1291,137.4564],[-99.1483,23.1295,137.4704],[-99.1477,23.1275,134.3924],[-99.1246,23.1265,157.6992],[-99.1247,23.128,156.4911],[-99.0853,23.1291,280.1051],[-99.085,23.1258,337.2587],[-99.0814,23.1258,361.5863],[-99.0695,23.1282,400.6066],[-99.0685,23.1235,405.0677],[-99.0653,23.124,400.1826],[-99.0652,23.1204,406.7104],[-99.0584,23.1213,334.0305],[-99.04,23.1177,216.1374],[-99.0368,23.1367,237.0587],[-99.0378,23.1401,242.8973],[-99.0022,23.1395,258.4885],[-98.999,23.1526,395.5226],[-98.9945,23.152,392.4193],[-98.99,23.1743,396.7255],[-98.967,23.1731,234.5565],[-98.9757,23.1543,248.7618],[-98.9507,23.1483,311.2788],[-98.9522,23.1429,369.337],[-98.9261,23.1413,194.4059],[-98.9283,23.1298,323.0546],[-98.9224,23.1295,237.5981],[-98.9221,23.1347,343.307],[-98.9167,23.1343,314.005],[-98.9153,23.1313,300.186],[-98.7645,23.1074,149.8257],[-98.7637,23.0931,149.9966],[-98.7611,23.088,149.4846],[-98.7601,23.0777,150.392],[-98.7552,23.0588,152.919],[-98.7266,23.0565,180.1435],[-98.7282,23.0654,185.5483],[-98.6897,23.0638,196.4173],[-98.6941,23.0383,192.4591],[-98.6652,23.0347,178.7233],[-98.6666,23.0253,167.2622],[-98.6269,23.0202,197.1509],[-98.6227,23.0472,266.3748],[-98.5546,23.0483,286.8051],[-98.5478,23.0951,366.4489],[-98.5373,23.0935,357.5048],[-98.4976,23.0981,748.187],[-98.4573,23.0869,528.9695],[-98.4432,23.1163,711.7507],[-98.4457,23.1216,583.0641],[-98.4284,23.1419,771.9681],[-98.4148,23.1707,717.204],[-98.4168,23.1885,884.5787],[-98.4142,23.1988,1026.5178],[-98.4079,23.2061,1011.5532],[-98.4646,23.2363,845.8703],[-98.4692,23.2857,790.385],[-98.5157,23.2989,811.3834],[-98.5047,23.3331,800.2953],[-98.5623,23.3261,758.9397],[-98.5685,23.3134,679.1987],[-98.5798,23.31,586.2633],[-98.5751,23.3013,616.8364],[-98.6035,23.2875,515.6367],[-98.609,23.2991,524.6993],[-98.6567,23.2806,358.3332],[-98.6716,23.208,281.513],[-98.703,23.1902,227.2294],[-98.703,23.1822,239.9129],[-98.7049,23.181,226.1129],[-98.7246,23.184,282.0147],[-98.7259,23.2476,233.7318],[-98.7459,23.2467,259.5234],[-98.7474,23.2851,208.809],[-98.7273,23.2858,223.0311],[-98.7312,23.3866,250.1156],[-98.7515,23.3889,239.5258],[-98.7518,23.3957,237.8428],[-98.8228,23.3909,227.5308],[-98.8461,23.3926,352.1719],[-98.8407,23.4308,200.0276],[-98.8606,23.4332,317.9102],[-98.8563,23.4589,190.1326],[-98.8371,23.4548,190.6802],[-98.8296,23.5049,179.6213],[-98.8463,23.5068,179.6189],[-98.8708,23.5064,203.8222],[-98.8682,23.5256,193.3966],[-98.8668,23.5259,190.7019],[-98.8676,23.528,192.4805],[-98.8712,23.5278,191.077],[-98.8811,23.5547,189.5253],[-98.9087,23.5462,205.2742],[-98.9115,23.5541,200.022],[-98.9187,23.5518,207.1024],[-98.9251,23.5593,206.1741],[-98.9335,23.575,215.9896],[-98.9666,23.5584,310.6876],[-98.9758,23.5742,276.2678],[-99.0024,23.5509,326.5733],[-99.0074,23.5514,338.4389],[-99.0097,23.5553,343.482],[-99.0171,23.5551,351.0054],[-99.0188,23.5575,346.0279],[-99.0362,23.5424,461.1979]]]]}}