{"type":"Feature","properties":{"GID_2":"MEX.23.6_2","GID_0":"MEX","country":"México","GID_1":"MEX.23_1","province":"QuintanaRoo","NL_NAME_1":"NA","county":"JoséMaríaMorelos","VARNAME_2":"NA","NL_NAME_2":"NA","TYPE_2":"Município","ENGTYPE_2":"Municipality","CC_2":"NA","HASC_2":"NA","name":"José_María_Morelos.county"},
"geometry":{"type": "MultiPolygon","coordinates": [[[[-89.147,19.2276,109.3827],[-88.7174,19.2311,29.8461],[-88.7176,19.2464,30.4945],[-88.7139,19.2809,78.5807],[-88.6494,19.2801,30.3335],[-88.6494,19.282,29.3898],[-88.636,19.2819,25.2498],[-88.6359,19.303,34.0295],[-88.6604,19.3044,40.5085],[-88.6595,19.3384,29.6864],[-88.6752,19.3386,69.5051],[-88.6689,19.3947,50.4008],[-88.6745,19.3952,55.6697],[-88.6747,19.4032,51.7704],[-88.6941,19.4018,61.1573],[-88.6994,19.4039,53.47],[-88.6957,19.4372,52.684],[-88.6895,19.4375,49.9973],[-88.6897,19.4439,63.52],[-88.6947,19.4436,61.7049],[-88.6926,19.4622,83.4301],[-88.6452,19.4572,49.7343],[-88.6453,19.4513,54.306],[-88.6227,19.4487,35.4158],[-88.6186,19.5963,37.7767],[-88.6306,19.5975,47.096],[-88.6533,19.6286,33.0304],[-88.6384,19.6351,39.9804],[-88.6395,19.6372,36.9422],[-88.6331,19.6434,32.8798],[-88.5907,19.6341,38.4449],[-88.5984,19.6433,37.2032],[-88.5759,19.6382,27.9524],[-88.5489,19.7493,42.2304],[-88.5284,19.7454,42.1483],[-88.5116,19.7846,40.754],[-88.4868,19.8803,33.7963],[-88.4836,19.8836,34.5659],[-88.484,19.8918,33.4309],[-88.4684,19.8914,35.2901],[-88.4685,19.957,37.3658],[-88.4103,19.9573,34.0193],[-88.4103,19.9509,34.1801],[-88.397,19.9513,27.6728],[-88.3971,19.9577,28.5538],[-88.3934,19.9577,31.7579],[-88.3929,19.9705,28.2582],[-88.3952,19.9702,23.2288],[-88.3959,19.9763,29.4463],[-88.3925,19.9767,28.0654],[-88.3914,20.0161,36.91],[-88.4406,20.0226,37.5039],[-88.4432,20.0068,34.0759],[-88.4842,20.0099,30.323],[-88.4834,20.0197,32.4807],[-88.4756,20.0184,37.9989],[-88.4742,20.0248,29.1087],[-88.4753,20.0377,39.2778],[-88.4886,20.0366,36.9713],[-88.4983,20.0382,32.7461],[-88.4971,20.0586,33.3723],[-88.4369,20.0523,40.1912],[-88.4225,20.1541,32.9011],[-88.4471,20.182,31.9008],[-88.5023,20.1901,33.7856],[-88.5076,20.1434,37.6474],[-88.5767,20.1481,30.3977],[-88.5782,20.1392,34.3627],[-88.5877,20.1405,32.512],[-88.588,20.1315,32.4416],[-88.6164,20.1345,32.3073],[-88.6208,20.1318,32.2119],[-88.6186,20.1278,31.2421],[-88.6192,20.1172,35.1339],[-88.6399,20.1204,33.8881],[-88.6906,20.0899,38.4],[-88.6908,20.077,37.8604],[-88.6849,20.0774,32.8285],[-88.6918,20.0292,31.6136],[-88.6948,20.03,32.7035],[-88.7002,20.0104,34.775],[-88.7125,20.0123,34.4628],[-88.713,20.0092,35.1144],[-88.7184,20.0103,31.217],[-88.7221,20.0051,32.7247],[-88.7238,20.0055,34.5889],[-88.7228,20.0132,32.4859],[-88.736,20.0176,37.8742],[-88.7358,20.016,38.1554],[-88.7323,20.0141,31.3643],[-88.7362,20.0097,38.817],[-88.7426,20.0086,46.7941],[-88.7425,20.0151,40.4602],[-88.7578,20.0139,40.8006],[-88.7577,20.0122,41.0689],[-88.7715,20.0135,46.7397],[-88.7712,20.0077,40.0675],[-88.7835,20.0082,42.2342],[-88.7844,19.9952,33.3251],[-88.7892,19.9956,36.6498],[-88.7905,19.9921,35.3967],[-88.7908,19.972,34.7393],[-88.798,19.9749,33.9534],[-88.7984,19.9525,25.7561],[-88.8056,19.9538,29.1531],[-88.806,19.9446,24.8235],[-88.8102,19.9449,26.826],[-88.8114,19.9352,38.2099],[-88.8089,19.9341,36.7308],[-88.8097,19.926,38.291],[-88.8126,19.9256,38.4789],[-88.8133,19.9183,36.4712],[-88.8161,19.9155,34.4383],[-88.8165,19.9045,34.736],[-88.8244,19.9048,33.9202],[-88.8232,19.9081,30.7169],[-88.8273,19.9109,25.2413],[-88.8294,19.906,33.2423],[-88.8274,19.9045,33.3125],[-88.8298,19.8986,26.757],[-88.8204,19.8905,31.7864],[-88.8259,19.8799,32.8761],[-88.8321,19.8816,27.0208],[-88.833,19.8782,29.8044],[-88.8802,19.8781,32.2367],[-88.8791,19.8624,34.5648],[-88.8906,19.861,34.0983],[-88.8904,19.8585,32.4575],[-88.9005,19.8611,31.9469],[-88.8976,19.8369,30.4613],[-88.8997,19.8333,31.9203],[-88.9035,19.831,29.9728],[-88.9082,19.8207,43.2761],[-88.9111,19.8009,35.7691],[-88.9203,19.804,58.7195],[-88.9295,19.7909,59.5142],[-88.9454,19.7919,48.1288],[-88.9439,19.8134,53.5592],[-88.9581,19.8105,57.3693],[-88.9564,19.8168,48.2106],[-88.9745,19.8181,61.9186],[-88.9761,19.8108,57.9853],[-88.9844,19.8052,60.5651],[-88.9844,19.7982,54.2566],[-88.9995,19.798,52.1501],[-89.0041,19.772,69.2992],[-89.0252,19.7767,62.5247],[-89.0488,19.7215,59.9457],[-89.017,19.7264,82.9393],[-89.0154,19.723,77.2821],[-88.9947,19.7274,73.7806],[-88.9975,19.7049,52.9019],[-89.0305,19.7088,61.934],[-89.0362,19.678,83.6047],[-89.076,19.6854,81.8075],[-89.0742,19.6942,80.6376],[-89.1234,19.7034,83.1554],[-89.1336,19.6146,92.622],[-89.1084,19.6123,87.8384],[-89.109,19.5823,87.3991],[-89.1495,19.5812,104.9311],[-89.1449,19.6374,99.4563],[-89.1892,19.644,111.4066],[-89.1902,19.6333,114.5935],[-89.2229,19.6367,117.3928],[-89.2196,19.608,117.5699],[-89.2966,19.5512,132.9881],[-89.1467,19.4239,121.9539],[-89.147,19.2276,109.3827]]]]}}