{"type": "Feature","bbox": [-96.9133,20.002,-96.6807,20.2382],"geometry": {"type": "MultiPolygon","coordinates": [[[[-96.764,20.0187,115.6677],[-96.7629,20.0238,105.125],[-96.7614,20.0236,111.8491],[-96.7616,20.022,112.3685],[-96.7429,20.0212,277.6399],[-96.737,20.0242,217.2919],[-96.739,20.0272,228.7438],[-96.7286,20.0329,142.4196],[-96.7185,20.0436,108.5675],[-96.7177,20.0465,85.232],[-96.712,20.0462,46.2629],[-96.7068,20.0499,39.2371],[-96.7119,20.0555,46.9453],[-96.6997,20.0662,11.1711],[-96.6973,20.0636,13.0092],[-96.6958,20.0675,9.9436],[-96.6807,20.0824,3.0565],[-96.6848,20.0843,1.3007],[-96.6897,20.0835,0.3858],[-96.6926,20.0863,1.6301],[-96.699,20.0873,0.1318],[-96.7009,20.0885,0.1926],[-96.7017,20.0932,1.1855],[-96.7071,20.0929,3.7924],[-96.7089,20.0946,3.7659],[-96.6937,20.1076,1.994],[-96.7047,20.1236,5.3814],[-96.7121,20.1444,3.3451],[-96.7157,20.1487,11.8596],[-96.7064,20.1563,2.5492],[-96.7157,20.1711,1.4678],[-96.7752,20.2283,0.5907],[-96.7818,20.238,2.8086],[-96.7848,20.2382,0.0],[-96.7862,20.2362,0.4037],[-96.7797,20.2292,0.3145],[-96.778,20.2234,0.9459],[-96.7789,20.2166,1.2871],[-96.7822,20.2085,1.7942],[-96.7887,20.2027,2.0068],[-96.8001,20.2013,3.3392],[-96.8113,20.2107,1.0841],[-96.8142,20.2111,1.1358],[-96.8214,20.2012,2.171],[-96.8237,20.1847,7.7532],[-96.8341,20.1764,15.7356],[-96.8364,20.1768,4.7656],[-96.842,20.1839,6.4799],[-96.854,20.1895,2.473],[-96.8572,20.197,4.3554],[-96.8617,20.1994,4.3854],[-96.8657,20.1982,6.3607],[-96.8668,20.1933,4.1157],[-96.8638,20.1871,3.9832],[-96.8527,20.1837,4.9781],[-96.85,20.1764,5.0624],[-96.8514,20.1671,2.5507],[-96.86,20.1616,2.8351],[-96.8579,20.1517,4.0038],[-96.8588,20.1487,7.4926],[-96.8612,20.1464,3.2682],[-96.8627,20.147,3.2682],[-96.8658,20.1541,4.1735],[-96.8683,20.1563,6.8576],[-96.874,20.1543,12.0128],[-96.8767,20.1497,4.3298],[-96.8752,20.1412,3.7601],[-96.8838,20.1355,10.4437],[-96.8824,20.1319,11.9888],[-96.8836,20.1305,11.9888],[-96.8869,20.1318,11.7232],[-96.8897,20.1303,12.7798],[-96.8915,20.1318,11.5083],[-96.8922,20.1306,11.4254],[-96.8901,20.1277,12.2001],[-96.894,20.1286,12.587],[-96.8936,20.1243,17.5871],[-96.8977,20.1266,15.2935],[-96.8985,20.1249,14.8446],[-96.8966,20.1252,13.9868],[-96.8986,20.1221,15.9924],[-96.9015,20.1226,15.9204],[-96.9031,20.1199,25.3225],[-96.9059,20.1211,16.4739],[-96.907,20.1167,17.0128],[-96.9051,20.1114,18.8454],[-96.9079,20.1113,17.8821],[-96.9088,20.1091,16.8444],[-96.9109,20.1106,18.4918],[-96.9093,20.106,16.7949],[-96.9126,20.1042,25.2954],[-96.9133,20.1002,18.584],[-96.91,20.0998,20.0969],[-96.9113,20.0981,21.4569],[-96.9085,20.0963,30.7998],[-96.9032,20.1012,21.5824],[-96.8965,20.0981,22.9662],[-96.8994,20.0963,21.798],[-96.8952,20.0932,27.1312],[-96.8968,20.093,22.3266],[-96.8991,20.0943,23.0387],[-96.9002,20.091,24.0468],[-96.8984,20.0896,23.7998],[-96.8949,20.0917,23.0861],[-96.8949,20.091,23.0861],[-96.8959,20.0905,23.0861],[-96.8935,20.0895,27.7329],[-96.898,20.0883,24.7335],[-96.8944,20.0876,25.2785],[-96.8937,20.0845,22.4747],[-96.8965,20.083,24.8342],[-96.8941,20.0823,24.5515],[-96.8953,20.08,25.7943],[-96.8878,20.079,27.9873],[-96.8884,20.0771,24.3457],[-96.8862,20.0756,26.3832],[-96.8836,20.0766,26.0499],[-96.8837,20.0784,26.0698],[-96.8818,20.0778,27.7233],[-96.8814,20.0745,28.0314],[-96.8795,20.0735,31.9852],[-96.8803,20.0651,39.0554],[-96.8753,20.0608,31.1258],[-96.8699,20.0595,33.5583],[-96.8657,20.0627,35.0746],[-96.8635,20.0624,36.8653],[-96.8723,20.0532,50.4119],[-96.8712,20.0522,35.9332],[-96.8669,20.0539,37.9924],[-96.8666,20.0513,36.4408],[-96.8695,20.0498,43.5792],[-96.8681,20.0486,41.4436],[-96.8622,20.0488,40.4978],[-96.8614,20.0529,39.3289],[-96.8599,20.051,40.5647],[-96.8613,20.0451,40.4808],[-96.8589,20.0462,51.9614],[-96.8583,20.0446,53.5688],[-96.8658,20.0408,46.903],[-96.8655,20.0372,44.8315],[-96.8625,20.0379,43.1955],[-96.8651,20.0306,47.9703],[-96.8636,20.0287,50.233],[-96.8582,20.0303,60.5707],[-96.8539,20.0229,130.6651],[-96.8476,20.0218,215.3193],[-96.8481,20.0177,228.379],[-96.8272,20.0144,408.6792],[-96.8265,20.0116,449.9295],[-96.8189,20.0023,623.3187],[-96.8155,20.002,437.5192],[-96.8111,20.0023,357.6016],[-96.8078,20.0046,318.232],[-96.8023,20.0038,256.7411],[-96.8005,20.0063,239.4724],[-96.7945,20.0055,202.7671],[-96.7891,20.0088,208.0059],[-96.7786,20.0087,210.2913],[-96.7726,20.0135,145.4304],[-96.7672,20.0114,137.2424],[-96.7654,20.0191,113.2644],[-96.764,20.0187,115.6677]]]]}
,"properties": {"GID_2": "MEX.30.121_2","GID_0": "MEX","country": "México","GID_1": "MEX.30_1","province": "Veracruz","NL_NAME_1": "NA","county": "Nautla","VARNAME_2": "NA","NL_NAME_2": "NA","TYPE_2": "Município","ENGTYPE_2": "Municipality","CC_2": "NA","HASC_2": "NA","name": "Nautla.county","area_km2": 356.4087,"hist_schema_id": "Elevation0-9000","hist_area_km2": {"0": 80.3062,"25": 78.6349,"50": 52.6027,"75": 34.8259,"100": 24.5951,"125": 16.8287,"150": 11.4116,"175": 9.4003,"200": 8.3251,"225": 8.7037,"250": 5.1188,"275": 3.4061,"300": 3.645,"325": 4.1031,"350": 2.7686,"375": 3.0874,"400": 2.0716,"425": 1.972,"450": 1.1554,"475": 0.6972,"500": 0.8765,"525": 0.518,"550": 0.2191,"575": 0.3984,"600": 0.3586,"625": 0.259,"650": 0.1195}}}