{"type": "Feature","bbox": [-98.9552,18.882,-98.8359,18.9999],"geometry": {"type": "MultiPolygon","coordinates": [[[[-98.8407,18.9557,1944.8723],[-98.8452,18.9551,1912.3446],[-98.8595,18.9648,1806.3928],[-98.86,18.9682,1825.2036],[-98.8579,18.9704,1847.0826],[-98.8573,18.9746,1895.6932],[-98.87,18.9905,2158.106],[-98.8684,18.9999,2364.3184],[-98.8817,18.9999,2273.1516],[-98.888,18.9765,1911.5737],[-98.8921,18.9714,1847.0964],[-98.8967,18.9728,1846.6321],[-98.8996,18.9695,1814.0211],[-98.8983,18.9605,1765.5787],[-98.9001,18.9581,1749.3701],[-98.907,18.9589,1767.5974],[-98.911,18.9525,1723.7643],[-98.9139,18.9545,1736.814],[-98.9165,18.9551,1742.1335],[-98.9185,18.9537,1727.3276],[-98.9218,18.9554,1736.923],[-98.9241,18.9491,1677.7981],[-98.9252,18.9525,1691.4587],[-98.9281,18.9528,1682.2352],[-98.9293,18.948,1645.0298],[-98.9343,18.9412,1582.9811],[-98.9416,18.9383,1532.6494],[-98.9467,18.9303,1502.0118],[-98.9529,18.9276,1481.1006],[-98.9509,18.9167,1435.4504],[-98.9552,18.9051,1383.6609],[-98.9522,18.9027,1374.3503],[-98.9463,18.9025,1411.8772],[-98.9429,18.9049,1428.2936],[-98.9385,18.9028,1444.0143],[-98.9359,18.8987,1445.173],[-98.933,18.8973,1446.4507],[-98.9419,18.8924,1413.1766],[-98.9423,18.8907,1416.5946],[-98.9284,18.882,1441.0522],[-98.9185,18.8878,1473.6814],[-98.9173,18.8866,1471.7695],[-98.9153,18.8887,1478.5388],[-98.9051,18.891,1505.3838],[-98.9001,18.8985,1531.7764],[-98.8913,18.9072,1569.0242],[-98.887,18.9049,1570.4731],[-98.8813,18.9075,1590.228],[-98.8734,18.9069,1607.8752],[-98.8606,18.9135,1645.2808],[-98.8606,18.9092,1642.0984],[-98.8571,18.9131,1655.455],[-98.8565,18.9168,1669.5371],[-98.8504,18.9187,1737.6049],[-98.8451,18.9322,1789.3606],[-98.8399,18.9354,1850.5709],[-98.8359,18.9502,1885.8135],[-98.8407,18.9557,1944.8723]]]]}
,"properties": {"GID_2": "MEX.17.2_2","GID_0": "MEX","country": "México","GID_1": "MEX.17_1","province": "Morelos","NL_NAME_1": "NA","county": "Atlatlahucan","VARNAME_2": "NA","NL_NAME_2": "NA","TYPE_2": "Município","ENGTYPE_2": "Municipality","CC_2": "NA","HASC_2": "NA","name": "Atlatlahucan.county","area_km2": 79.6581,"hist_schema_id": "Elevation0-9000","hist_area_km2": {"1375": 0.04012,"1400": 0.18053,"1425": 1.46427,"1450": 5.11499,"1475": 3.61051,"1500": 4.5331,"1525": 4.49281,"1550": 4.31216,"1575": 4.8336,"1600": 4.83345,"1625": 4.19163,"1650": 4.15144,"1675": 3.99079,"1700": 3.83029,"1725": 3.5495,"1750": 3.54954,"1775": 3.79013,"1800": 4.29133,"1825": 3.22846,"1850": 2.80725,"1875": 2.14551,"1900": 1.94499,"1925": 1.16294,"1950": 0.68172,"1975": 0.34084,"2000": 0.30073,"2025": 0.24059,"2050": 0.20049,"2075": 0.18044,"2100": 0.20048,"2125": 0.20048,"2150": 0.16038,"2175": 0.24057,"2200": 0.16038,"2225": 0.20048,"2250": 0.24057,"2275": 0.20047,"2300": 0.02005,"2325": 0.04009}}}