{"type":"Feature","properties":{"GID_2":"MEX.12.75_2","GID_0":"MEX","country":"México","GID_1":"MEX.12_1","province":"Guerrero","NL_NAME_1":"NA","county":"Xalpatláhuac","VARNAME_2":"NA","NL_NAME_2":"NA","TYPE_2":"Município","ENGTYPE_2":"Municipality","CC_2":"NA","HASC_2":"NA","name":"Xalpatláhuac.county"},
"geometry":{"type": "MultiPolygon","coordinates": [[[[-98.4547,17.5304,1612.6022],[-98.4595,17.5204,1930.5385],[-98.4596,17.5126,2013.0621],[-98.4638,17.5133,1915.4664],[-98.4619,17.5086,1903.2158],[-98.4695,17.5055,1541.1927],[-98.4771,17.5069,1688.5547],[-98.4816,17.5139,1683.3185],[-98.4808,17.5236,1562.5651],[-98.4979,17.5124,1858.1268],[-98.5023,17.5159,1725.964],[-98.5083,17.5094,1595.468],[-98.5112,17.509,1582.9292],[-98.5307,17.4937,1127.1138],[-98.5364,17.4913,1225.2085],[-98.539,17.4929,1216.9966],[-98.543,17.4924,1285.3318],[-98.5446,17.4906,1259.2128],[-98.5427,17.4867,1336.7808],[-98.5327,17.4796,1227.9238],[-98.5292,17.472,1144.4885],[-98.526,17.4703,1136.2517],[-98.5326,17.4701,1170.11],[-98.5356,17.4665,1241.6477],[-98.5362,17.4621,1363.8833],[-98.5405,17.46,1492.53],[-98.5427,17.4497,1656.0813],[-98.5401,17.4435,1684.0751],[-98.5379,17.4431,1614.6438],[-98.5349,17.445,1522.0023],[-98.5325,17.4418,1518.3516],[-98.5295,17.4407,1454.9744],[-98.5213,17.4454,1330.0459],[-98.5171,17.4505,1164.3567],[-98.5061,17.4543,1116.6934],[-98.5048,17.4442,1148.6908],[-98.5004,17.4377,1219.2356],[-98.5066,17.4386,1150.5226],[-98.5071,17.4339,1200.8444],[-98.5009,17.4314,1387.6768],[-98.4977,17.4272,1423.0359],[-98.495,17.4166,1566.5021],[-98.5066,17.4121,1242.61],[-98.5078,17.4093,1184.3788],[-98.5055,17.4076,1166.0082],[-98.5078,17.401,1190.8828],[-98.503,17.4007,1207.6384],[-98.4977,17.3932,1212.7559],[-98.4942,17.3916,1194.054],[-98.4865,17.394,1429.4872],[-98.4835,17.3932,1568.6243],[-98.4737,17.3838,1943.4883],[-98.4781,17.3815,1745.5603],[-98.4822,17.3737,1527.0677],[-98.488,17.3716,1380.4423],[-98.4889,17.374,1381.4797],[-98.494,17.377,1327.2761],[-98.4928,17.3841,1347.5637],[-98.4961,17.3869,1215.4952],[-98.4964,17.382,1218.0192],[-98.4983,17.3789,1214.2412],[-98.4967,17.3741,1226.7726],[-98.5046,17.3693,1634.1522],[-98.5025,17.3659,1652.856],[-98.5116,17.3579,1907.9171],[-98.512,17.3429,1786.8285],[-98.5337,17.3438,2147.5876],[-98.5303,17.3472,2108.0081],[-98.5303,17.3654,1704.4102],[-98.5388,17.3787,1410.0916],[-98.5379,17.3856,1324.1145],[-98.5342,17.391,1284.5969],[-98.5323,17.3912,1256.8041],[-98.5324,17.3943,1236.2025],[-98.5296,17.3987,1222.7291],[-98.5258,17.4007,1218.3726],[-98.5164,17.4127,1172.8167],[-98.5119,17.4134,1161.8831],[-98.5117,17.4195,1165.7429],[-98.5257,17.4204,1600.2092],[-98.5383,17.4237,1737.5261],[-98.5442,17.4239,1740.4861],[-98.5493,17.422,1691.9816],[-98.5547,17.4231,1696.2098],[-98.5551,17.4138,1788.5222],[-98.563,17.4189,1689.3643],[-98.5669,17.414,1728.5076],[-98.5703,17.413,1791.5425],[-98.5756,17.4148,2017.8033],[-98.5771,17.4121,1983.0311],[-98.5832,17.4153,1847.9659],[-98.5896,17.4161,1794.0562],[-98.5897,17.4208,1739.2942],[-98.5917,17.423,1746.1641],[-98.595,17.4215,1746.4871],[-98.5932,17.4215,1737.0669],[-98.5928,17.4197,1782.9502],[-98.5912,17.4204,1780.8434],[-98.5926,17.4192,1782.9502],[-98.5943,17.4197,1801.7606],[-98.5921,17.4183,1849.5078],[-98.5923,17.4167,1825.4867],[-98.596,17.417,1863.7642],[-98.5963,17.4157,1863.7642],[-98.5967,17.4163,1863.7642],[-98.5969,17.4179,1868.0273],[-98.6002,17.419,1824.948],[-98.5999,17.4251,1832.4478],[-98.5939,17.437,1756.5688],[-98.5905,17.4399,1825.077],[-98.5927,17.4428,1801.3699],[-98.5915,17.4511,1744.2798],[-98.557,17.4541,1540.0632],[-98.5561,17.4527,1566.5103],[-98.5493,17.458,1262.8694],[-98.5492,17.459,1255.2946],[-98.5555,17.4583,1344.6553],[-98.5617,17.4598,1354.484],[-98.5637,17.4617,1399.8735],[-98.5703,17.4617,1481.1489],[-98.5753,17.4636,1577.4551],[-98.5759,17.4656,1587.0813],[-98.5838,17.4705,1681.9547],[-98.5777,17.4714,1667.906],[-98.5748,17.4762,1627.0056],[-98.5688,17.4791,1687.1169],[-98.5701,17.5003,1637.7242],[-98.5726,17.5047,1556.1243],[-98.5749,17.506,1420.7811],[-98.5759,17.5048,1423.9365],[-98.5748,17.5025,1487.2771],[-98.5793,17.5002,1445.4663],[-98.5815,17.5019,1351.9421],[-98.5803,17.5068,1350.2678],[-98.5849,17.5064,1455.014],[-98.5885,17.4948,1533.7573],[-98.5995,17.4927,1509.9336],[-98.601,17.484,1714.0035],[-98.6126,17.4817,1576.1221],[-98.6133,17.4862,1581.1184],[-98.6159,17.479,1624.5066],[-98.6366,17.4792,1256.5894],[-98.6372,17.4767,1312.0363],[-98.6451,17.4797,1481.4709],[-98.661,17.4817,1570.3274],[-98.6638,17.4802,1552.4984],[-98.6603,17.4666,1613.7688],[-98.6579,17.4451,1730.5781],[-98.6639,17.4294,1745.8872],[-98.6503,17.436,1738.3728],[-98.6458,17.4467,1554.3401],[-98.6433,17.4447,1497.6161],[-98.6424,17.4457,1458.8003],[-98.6271,17.4415,1391.7045],[-98.6237,17.4369,1421.0005],[-98.6202,17.4353,1461.2871],[-98.6198,17.428,1429.0803],[-98.6101,17.4237,1791.0515],[-98.6071,17.4239,1853.281],[-98.6052,17.4051,1869.3793],[-98.5967,17.3827,2179.5159],[-98.5827,17.3704,2387.8638],[-98.5835,17.3682,2332.8882],[-98.5822,17.3655,2323.7534],[-98.6148,17.3516,2240.123],[-98.6214,17.3421,2282.459],[-98.6183,17.3391,2456.3589],[-98.6159,17.3415,2477.9531],[-98.6058,17.3269,2018.5962],[-98.5877,17.3351,1982.4456],[-98.5789,17.3325,1707.6713],[-98.5737,17.3345,1596.4082],[-98.5624,17.3352,1612.3955],[-98.5593,17.34,1499.7621],[-98.5533,17.3423,1596.8917],[-98.5409,17.328,2204.4883],[-98.536,17.3339,2201.3267],[-98.5321,17.3311,2021.7036],[-98.524,17.3292,1666.0807],[-98.5227,17.3322,1642.4636],[-98.5195,17.3338,1642.538],[-98.5161,17.3325,1732.4388],[-98.5015,17.3348,1386.9967],[-98.5039,17.3426,1373.9376],[-98.5037,17.3501,1391.2086],[-98.5017,17.3529,1367.307],[-98.5017,17.3576,1344.228],[-98.4968,17.3601,1293.9601],[-98.4962,17.3645,1255.9744],[-98.4928,17.367,1225.9966],[-98.4819,17.3639,1273.4788],[-98.4796,17.365,1283.0713],[-98.477,17.3642,1280.515],[-98.4741,17.3666,1312.6539],[-98.4648,17.3688,1325.223],[-98.4616,17.3743,1347.8171],[-98.4581,17.3763,1378.942],[-98.4633,17.3856,1602.1978],[-98.4673,17.3889,1736.5789],[-98.471,17.3897,1921.1921],[-98.4721,17.3918,1924.2323],[-98.468,17.4017,1638.1716],[-98.4684,17.4078,1529.8264],[-98.4664,17.4143,1746.4778],[-98.4698,17.4206,1408.0275],[-98.4665,17.4253,1578.9043],[-98.4648,17.4329,1810.7692],[-98.467,17.4384,1909.2771],[-98.4605,17.4468,1950.4523],[-98.4608,17.4511,2086.1289],[-98.4629,17.4545,2101.2437],[-98.4518,17.4541,1847.0553],[-98.4435,17.4575,1823.0864],[-98.4442,17.4605,1834.1794],[-98.4423,17.4645,1779.5491],[-98.4441,17.4708,1777.8358],[-98.4413,17.4746,1749.8545],[-98.4424,17.483,1673.4047],[-98.4494,17.5024,1783.7686],[-98.4513,17.5223,1700.7378],[-98.4503,17.5246,1694.2612],[-98.4539,17.5265,1687.3438],[-98.4547,17.5304,1612.6022]]]]}}