{"type":"Feature","properties":{"GID_2":"MEX.21.129_2","GID_0":"MEX","country":"México","GID_1":"MEX.21_1","province":"Puebla","NL_NAME_1":"NA","county":"SanJoséChiapa","VARNAME_2":"NA","NL_NAME_2":"NA","TYPE_2":"Município","ENGTYPE_2":"Municipality","CC_2":"NA","HASC_2":"NA","name":"San_José_Chiapa.county"},
"geometry":{"type": "MultiPolygon","coordinates": [[[[-97.6852,19.1926,2347.9897],[-97.6525,19.2453,2344.1345],[-97.6246,19.2987,2341.0],[-97.658,19.3107,2349.6267],[-97.666,19.2955,2351.6702],[-97.6695,19.2921,2347.0525],[-97.6776,19.2927,2351.3987],[-97.6909,19.2859,2353.2034],[-97.6992,19.2919,2365.1108],[-97.7012,19.2957,2366.4365],[-97.7047,19.2971,2371.853],[-97.7105,19.2956,2385.4802],[-97.7157,19.2978,2431.5203],[-97.7196,19.3048,2477.7505],[-97.7293,19.2931,2423.7664],[-97.7383,19.2871,2384.0251],[-97.737,19.2967,2403.1494],[-97.7451,19.3053,2419.1611],[-97.7539,19.2993,2442.9751],[-97.7571,19.2998,2452.7271],[-97.7651,19.2869,2421.3577],[-97.7697,19.2866,2422.4663],[-97.7714,19.2838,2416.4805],[-97.7735,19.284,2416.1714],[-97.7734,19.2863,2421.699],[-97.7752,19.2871,2427.5994],[-97.7767,19.2863,2421.1045],[-97.7854,19.2889,2430.8325],[-97.8005,19.3016,2439.4531],[-97.8209,19.3047,2431.9431],[-97.8393,19.3014,2394.8911],[-97.8372,19.2951,2387.3855],[-97.8391,19.2937,2386.9204],[-97.8396,19.2888,2385.9724],[-97.8302,19.2761,2384.0781],[-97.8154,19.2622,2374.8181],[-97.809,19.2595,2373.334],[-97.8087,19.2551,2379.1685],[-97.8032,19.2558,2374.3252],[-97.7859,19.247,2385.876],[-97.7902,19.2431,2386.2378],[-97.7867,19.2399,2399.7339],[-97.7896,19.2307,2386.4385],[-97.7981,19.2255,2372.3584],[-97.7469,19.1855,2348.4829],[-97.739,19.203,2350.9678],[-97.7396,19.1993,2350.4316],[-97.737799999999993,19.1985,2350.033],[-97.737799999999993,19.1952,2349.4453],[-97.7347,19.1939,2349.708],[-97.727,19.2102,2350.3906],[-97.7156,19.1977,2349.3452],[-97.7108,19.1981,2348.9009],[-97.709,19.1954,2348.6567],[-97.7062,19.1961,2348.7043],[-97.6965,19.1927,2348.0312],[-97.6852,19.1926,2347.9897]]]]}}