{"type": "Feature","bbox": [-105.68937528585921,27.499904898839759,-105.38147040887949,27.585270495707931],"geometry": {"type": "Polygon","coordinates": [[[-105.42106238397869,27.554067898231978,1332.495],[-105.44034323430583,27.550829892833519,1418.6769],[-105.46639445955698,27.550535528706405,1310.5],[-105.47743311432441,27.547886251562204,1310.5],[-105.49774423909651,27.5375835071126,1317.7097],[-105.51054907862672,27.5367004147312,1310.5],[-105.51511172259727,27.540232784256773,1310.5],[-105.53159611371665,27.557894631884693,1432.3907],[-105.55337905912438,27.557305903630407,1310.5],[-105.58090210501119,27.536111686476943,1323.6154],[-105.60342096073677,27.530518768061427,1313.9283],[-105.6144596155042,27.53257931695137,1325.5269],[-105.63771438154761,27.541998969019573,1310.5],[-105.64831149012434,27.544059517909488,1310.5],[-105.65890859870109,27.543176425528088,1310.5],[-105.67804226696465,27.537877871239743,1310.5],[-105.68937528585921,27.5367004147312,1311.6086],[-105.66656206600651,27.535522958222685,1310.5],[-105.65096076726853,27.527869490917254,1310.5],[-105.63742001742048,27.517861110594765,1310.5],[-105.62034689804685,27.509618915035077,1310.5],[-105.60091886565615,27.506969637890904,1310.5],[-105.58016619469336,27.509618915035077,1310.5],[-105.56073816230268,27.51580056170485,1310.5],[-105.54528404562826,27.523748393137424,1317.1038],[-105.52835810831819,27.509618915035077,1310.5],[-105.52482573879261,27.503142904238189,1310.5],[-105.49465341576162,27.513151284560678,1310.5],[-105.47728593226086,27.516389289959108,1310.5],[-105.46963246495542,27.512856920433535,1310.5],[-105.46565854923915,27.499904898839759,1310.5],[-105.45756353574302,27.508441458526562,1310.5],[-105.45020443256473,27.523748393137424,1318.5546],[-105.4490269760562,27.530518768061427,1310.5],[-105.43592777239886,27.53169622456997,1342.8151],[-105.41797156064382,27.529930039807169,1356.9509],[-105.40192871571514,27.53081313218857,1310.5],[-105.39515834079111,27.540527148383916,1338.614],[-105.39324497396476,27.549063708070747,1297.4316],[-105.38411968602368,27.572024109987012,1247.2687],[-105.38147040887949,27.585270495707931,1317.9784],[-105.4034005363508,27.564076278554438,1269.6257],[-105.42106238397869,27.554067898231978,1332.495]]]}
,"properties": {"featurecla": "Reservoir","scalerank": 7,"name": "Presa de la Boquilla","name_abb": "Psa. de la Boquilla","name_alt": null,"note": null,"delta": null,"dam_name": null,"year": -99,"admin": null,"min_zoom": 5.7,"min_label": 6.7,"area_km2": 88.68423,"hist_schema_id": "Elevation0-9000","hist_area_km2": {"1250": 1.67278,"1275": 3.87212,"1300": 68.70108,"1325": 7.63291,"1350": 2.91396,"1375": 1.44754,"1400": 0.99634,"1425": 0.67676,"1450": 0.52636,"1475": 0.18799,"1500": 0.0564}}}