{"type": "Feature","bbox": [-90.2165,20.736,-89.9017,20.9501],"geometry": {"type": "MultiPolygon","coordinates": [[[[-90.1598,20.8415,4.5842],[-90.1462,20.8367,7.1404],[-90.1435,20.8393,7.9118],[-90.1231,20.8355,7.6065],[-90.1192,20.8369,8.9037],[-90.1118,20.8044,10.9888],[-90.1107,20.7926,7.6141],[-90.1144,20.7794,9.957],[-90.1112,20.7694,9.0179],[-90.106,20.7688,10.9233],[-90.1038,20.7897,10.3648],[-90.0825,20.7883,11.3118],[-90.0846,20.775,11.4653],[-90.0787,20.7459,10.4488],[-90.0297,20.74,8.4769],[-90.0185,20.736,11.2236],[-90.0097,20.766,11.3606],[-89.996,20.7658,13.7005],[-89.985,20.7938,10.9417],[-89.9856,20.7991,8.8287],[-89.9806,20.7971,10.6572],[-89.9773,20.8187,8.6404],[-89.9728,20.8183,11.687],[-89.9722,20.824,10.4772],[-89.977,20.8244,9.1893],[-89.9769,20.8276,7.5578],[-89.9824,20.8278,8.1017],[-89.9794,20.8398,8.139],[-90.0016,20.8445,9.2656],[-89.9982,20.863,7.3439],[-89.9987,20.8655,6.8184],[-90.0029,20.866,6.8678],[-90.0031,20.8723,7.7711],[-89.9946,20.8773,7.24],[-89.9869,20.8642,7.0366],[-89.9644,20.8623,11.4337],[-89.9648,20.8518,8.1639],[-89.9608,20.8516,7.4582],[-89.9497,20.8598,10.1637],[-89.93,20.8631,12.2491],[-89.929,20.8444,12.0661],[-89.9204,20.838,11.1937],[-89.9159,20.8442,10.6073],[-89.9081,20.8628,11.5017],[-89.9206,20.8642,9.1332],[-89.9196,20.8694,11.1439],[-89.916,20.8701,12.1542],[-89.9182,20.8756,10.1886],[-89.9179,20.8823,12.1316],[-89.915,20.8838,8.0182],[-89.9092,20.8964,9.5948],[-89.9191,20.9022,7.9392],[-89.9113,20.9121,10.4221],[-89.9044,20.9321,6.6037],[-89.9017,20.9343,7.2742],[-89.9536,20.9482,5.1905],[-89.954,20.9429,5.7144],[-89.9625,20.948,6.7198],[-89.9698,20.9501,6.2751],[-89.9715,20.942,6.9172],[-89.9793,20.9428,8.8114],[-89.9921,20.941,8.4982],[-89.9957,20.9341,8.7962],[-89.9774,20.9288,5.0214],[-89.9773,20.9252,5.6537],[-89.9759,20.9251,5.6537],[-89.977,20.9169,5.1681],[-89.9746,20.9168,5.6907],[-89.9736,20.9116,7.55],[-89.977,20.9099,5.3055],[-89.976,20.9081,6.3358],[-90.0034,20.8943,5.956],[-90.0192,20.8972,5.5765],[-90.0225,20.8827,7.4215],[-90.0298,20.8837,7.1338],[-90.0228,20.9204,6.5825],[-90.0123,20.9263,7.3631],[-90.0096,20.9286,6.4535],[-90.0104,20.9299,6.4288],[-90.0314,20.9173,7.8358],[-90.0526,20.9171,9.6953],[-90.0541,20.9118,8.3647],[-90.0897,20.9116,8.8506],[-90.0911,20.8932,9.6675],[-90.1192,20.8946,7.4754],[-90.2092,20.9048,2.464],[-90.2165,20.8413,2.4677],[-90.1752,20.8365,10.9183],[-90.1707,20.8427,9.7862],[-90.1598,20.8415,4.5842]]]]}
,"properties": {"GID_2": "MEX.31.44_2","GID_0": "MEX","country": "México","GID_1": "MEX.31_1","province": "Yucatán","NL_NAME_1": "NA","county": "Kinchil","VARNAME_2": "NA","NL_NAME_2": "NA","TYPE_2": "Município","ENGTYPE_2": "Municipality","CC_2": "NA","HASC_2": "NA","name": "Kinchil.county","area_km2": 357.0003,"hist_schema_id": "Elevation0-9000","hist_area_km2": {"0": 339.9959,"25": 17.0044}}}