{"type":"Feature","properties":{"GID_2":"MEX.14.28_2","GID_0":"MEX","country":"México","GID_1":"MEX.14_1","province":"Jalisco","NL_NAME_1":"NA","county":"Cuautla","VARNAME_2":"NA","NL_NAME_2":"NA","TYPE_2":"Município","ENGTYPE_2":"Municipality","CC_2":"NA","HASC_2":"NA","name":"Cuautla.county"},
"geometry":{"type": "MultiPolygon","coordinates": [[[[-104.4048,20.291,2072.7637],[-104.4163,20.2793,1960.8528],[-104.417,20.2763,1974.043],[-104.4152,20.2742,1956.7943],[-104.4179,20.2708,1879.9116],[-104.4363,20.2711,1740.5133],[-104.4399,20.2747,1721.9999],[-104.4413,20.2699,1711.3369],[-104.4447,20.268,1675.623],[-104.4441,20.2665,1677.9238],[-104.452,20.2635,1673.7095],[-104.4517,20.2562,1767.6881],[-104.4489,20.254,1777.9846],[-104.4571,20.2547,1806.7253],[-104.4618,20.2513,1896.7937],[-104.4631,20.253,1915.1616],[-104.4656,20.2531,1952.2855],[-104.4674,20.2566,1975.3582],[-104.4702,20.2511,1971.0964],[-104.4725,20.2509,1973.908],[-104.4773,20.2515,1964.4744],[-104.483,20.2548,1853.0677],[-104.4855,20.2522,1836.6047],[-104.4913,20.2543,1785.4835],[-104.4919,20.253,1790.5137],[-104.4973,20.2573,1728.3551],[-104.4982,20.2642,1678.5208],[-104.5004,20.2614,1639.3062],[-104.5023,20.2646,1615.301],[-104.5035,20.262,1620.6162],[-104.5081,20.2666,1615.3206],[-104.5129,20.2628,1651.1406],[-104.5137,20.2559,1630.3254],[-104.5174,20.2568,1603.9082],[-104.5209,20.2643,1544.1642],[-104.5212,20.2692,1537.3319],[-104.5269,20.2741,1499.5845],[-104.5271,20.2761,1498.4371],[-104.5326,20.2778,1507.658],[-104.5283,20.2872,1483.8667],[-104.5345,20.2922,1476.8103],[-104.5369,20.2988,1471.5659],[-104.5408,20.2988,1471.0031],[-104.5381,20.3002,1471.5659],[-104.5402,20.3011,1470.5999],[-104.5437,20.2993,1472.2441],[-104.5463,20.2924,1475.7091],[-104.5498,20.293,1475.9604],[-104.5514,20.2909,1477.8948],[-104.5511,20.2884,1477.8655],[-104.5576,20.2867,1484.8608],[-104.5624,20.2757,1485.4584],[-104.5674,20.2787,1486.7701],[-104.5692,20.2776,1486.7701],[-104.569,20.2791,1508.3875],[-104.5708,20.2726,1497.4941],[-104.5694,20.2674,1499.6881],[-104.566,20.2633,1507.9576],[-104.5701,20.2572,1513.1237],[-104.5727,20.257,1515.6901],[-104.5711,20.2536,1577.0383],[-104.5746,20.2542,1536.4221],[-104.5799,20.2526,1534.0941],[-104.5841,20.2552,1521.3275],[-104.5877,20.2527,1528.9681],[-104.5905,20.2426,1615.0828],[-104.5849,20.2379,1585.7472],[-104.5859,20.2371,1605.7606],[-104.5842,20.2331,1668.4889],[-104.5798,20.2313,1683.2583],[-104.5798,20.2259,1767.1211],[-104.5823,20.2232,1818.0356],[-104.5826,20.2195,1834.5023],[-104.5899,20.2119,1726.7457],[-104.598,20.2092,1592.9746],[-104.5983,20.2115,1582.1187],[-104.6002,20.2099,1577.2606],[-104.602,20.2028,1577.7195],[-104.596,20.2008,1633.5757],[-104.5961,20.1979,1633.7708],[-104.6002,20.1961,1581.8015],[-104.5987,20.1892,1597.1724],[-104.6037,20.1892,1610.0096],[-104.6045,20.1859,1611.6218],[-104.6081,20.1825,1619.7759],[-104.6145,20.1816,1644.7384],[-104.6179,20.1792,1675.2247],[-104.6221,20.1722,1782.4735],[-104.6301,20.1703,1729.7786],[-104.634,20.1679,1803.342],[-104.6359,20.1648,1860.2572],[-104.6435,20.1634,1954.6577],[-104.6521,20.1688,1996.9436],[-104.6522,20.1741,2040.1545],[-104.6582,20.181,2246.5935],[-104.6593,20.1779,2249.7773],[-104.6616,20.1785,2284.0039],[-104.6634,20.1822,2345.7312],[-104.6741,20.1766,2346.5039],[-104.6773,20.1826,2133.5488],[-104.682,20.1871,2094.6858],[-104.6897,20.1909,2010.1078],[-104.6891,20.1947,1994.554],[-104.6933,20.1952,1966.855],[-104.7028,20.2071,1870.5836],[-104.7061,20.2063,1821.167],[-104.7086,20.2004,1924.6709],[-104.7075,20.2003,1924.6709],[-104.707,20.1935,2153.6279],[-104.7081,20.1879,2146.7363],[-104.7056,20.1799,2092.4038],[-104.7067,20.1735,2157.3262],[-104.7087,20.1711,2136.3813],[-104.7079,20.1696,2182.4404],[-104.7106,20.1683,2169.8535],[-104.7023,20.1636,2169.7104],[-104.7048,20.1599,2189.4194],[-104.7037,20.156,2090.2593],[-104.7011,20.1548,2075.0254],[-104.706,20.1507,1889.9186],[-104.7039,20.1476,1830.4946],[-104.7042,20.1443,1769.2771],[-104.7014,20.1444,1729.3538],[-104.6988,20.1424,1492.4801],[-104.6959,20.1431,1553.783],[-104.6931,20.1443,1617.7346],[-104.6899,20.1491,1992.6304],[-104.6887,20.1448,1964.0657],[-104.6875,20.1486,2026.1713],[-104.6846,20.1485,2102.3118],[-104.6839,20.1507,2255.2393],[-104.6794,20.1442,2210.3672],[-104.68,20.1471,2242.1631],[-104.6757,20.1475,2174.6794],[-104.6792,20.1544,2259.3386],[-104.6765,20.1579,2299.582],[-104.6714,20.1542,2301.5078],[-104.6701,20.1505,2249.6262],[-104.6643,20.1487,2156.4043],[-104.6666,20.146,2166.1426],[-104.6652,20.1414,2182.3889],[-104.6662,20.1387,2196.9546],[-104.6637,20.1369,2217.9946],[-104.6626,20.1301,2163.04],[-104.659,20.1267,2131.76],[-104.6591,20.1246,2152.8354],[-104.6559,20.1232,2096.5442],[-104.6561,20.1185,2070.3784],[-104.6533,20.1189,2093.1968],[-104.6483,20.1128,2017.4446],[-104.6249,20.1064,1858.9161],[-104.6203,20.111,1861.9419],[-104.6176,20.1105,1839.333],[-104.6188,20.113,1863.0101],[-104.6178,20.116,1796.7397],[-104.6122,20.1206,1775.9869],[-104.6101,20.1207,1776.6565],[-104.6099,20.1232,1765.8617],[-104.613,20.1279,1752.2415],[-104.6098,20.1335,1749.5754],[-104.6059,20.1335,1748.6482],[-104.6041,20.135,1718.2668],[-104.5981,20.1285,1831.2179],[-104.586,20.1218,2113.4702],[-104.581,20.1229,2118.3499],[-104.5773,20.1219,2067.8872],[-104.574,20.1261,2109.0635],[-104.5701,20.1258,2116.8877],[-104.5667,20.1283,2124.1306],[-104.5623,20.133,2072.5635],[-104.5623,20.1376,2055.2175],[-104.5542,20.1374,2030.9252],[-104.5529,20.1386,2030.9252],[-104.5478,20.1358,1973.1401],[-104.54,20.1354,1942.1927],[-104.5373,20.1283,1942.0593],[-104.5239,20.1207,1799.603],[-104.521,20.1225,1751.7974],[-104.5144,20.1214,1731.1204],[-104.5118,20.1249,1696.6438],[-104.5092,20.1252,1684.9268],[-104.5073,20.1341,1808.2793],[-104.5104,20.1354,1825.2178],[-104.5143,20.1434,1979.0072],[-104.5165,20.1447,1992.7078],[-104.5158,20.1453,1969.4755],[-104.5085,20.1433,1872.8485],[-104.5088,20.1468,1907.7979],[-104.5071,20.1469,1883.4119],[-104.501,20.1459,1873.4343],[-104.4959,20.138,1951.2349],[-104.4908,20.1343,1948.9271],[-104.4873,20.1281,1918.3778],[-104.4817,20.1244,1853.7495],[-104.4806,20.1265,1836.4434],[-104.4763,20.1254,1846.4351],[-104.4694,20.1263,1840.1733],[-104.4648,20.1225,1823.5616],[-104.4556,20.1208,1834.8491],[-104.453,20.1256,1846.5847],[-104.4506,20.1268,1841.4308],[-104.4445,20.1228,1755.9865],[-104.4427,20.1254,1728.8699],[-104.4393,20.1233,1715.9619],[-104.4377,20.1305,1575.9764],[-104.4396,20.1329,1553.5559],[-104.437,20.1334,1538.4624],[-104.4333,20.1294,1528.8779],[-104.4328,20.1267,1537.642],[-104.4228,20.1187,1524.4495],[-104.4207,20.1185,1485.4226],[-104.4209,20.1169,1474.2065],[-104.4175,20.1161,1463.5577],[-104.4151,20.1195,1472.4152],[-104.4126,20.1194,1470.3201],[-104.4075,20.1111,1415.2605],[-104.4026,20.1132,1472.2933],[-104.4018,20.1159,1441.9053],[-104.4092,20.1249,1490.0736],[-104.4088,20.1267,1484.8647],[-104.4047,20.1246,1533.6184],[-104.4,20.1273,1509.9425],[-104.3957,20.1234,1485.896],[-104.3905,20.1234,1465.0453],[-104.3879,20.1253,1448.0208],[-104.387,20.1296,1455.4139],[-104.3802,20.129,1411.1995],[-104.3899,20.1497,1497.531],[-104.3943,20.1524,1559.0911],[-104.3973,20.1572,1716.896],[-104.3985,20.1773,1669.7037],[-104.3946,20.1872,1682.5842],[-104.3995,20.1939,1702.9888],[-104.398,20.1966,1704.7987],[-104.3867,20.1993,1728.0964],[-104.378,20.1944,1728.8053],[-104.3676,20.1941,1699.6653],[-104.3664,20.2021,1824.6122],[-104.3713,20.2041,1886.6165],[-104.371,20.2092,1864.5271],[-104.3675,20.2112,1830.5752],[-104.371,20.2121,1821.4409],[-104.3656,20.2147,1815.5934],[-104.3667,20.2189,1724.7474],[-104.3556,20.2265,1703.1257],[-104.3554,20.2285,1721.2411],[-104.3641,20.2394,1849.0182],[-104.3647,20.2475,1866.5654],[-104.3716,20.2545,1946.6088],[-104.375,20.2663,2031.145],[-104.3807,20.2659,2040.5891],[-104.3824,20.2679,2035.0118],[-104.3897,20.2691,2015.7751],[-104.385,20.2752,1933.981],[-104.3875,20.2799,1974.2292],[-104.3921,20.2826,1971.6641],[-104.3944,20.2896,1974.1888],[-104.4022,20.29,2060.4724],[-104.4024,20.2954,2098.9468],[-104.4048,20.291,2072.7637]]]]}}