{"type": "Feature","bbox": [-104.1385,23.5924,-103.8161,23.861],"geometry": {"type": "MultiPolygon","coordinates": [[[[-104.1206,23.6203,2318.8521],[-104.1385,23.6014,2370.9912],[-104.1067,23.6096,2210.5156],[-104.0939,23.6058,2133.2214],[-104.0774,23.6074,2279.8379],[-104.0766,23.627,2349.4219],[-104.0423,23.6494,1962.0962],[-104.0421,23.6451,1969.4226],[-104.0408,23.6445,1969.4226],[-104.0398,23.6461,1977.2418],[-104.032,23.6318,2054.1733],[-104.0298,23.6312,2059.6218],[-104.032,23.6261,2087.7136],[-104.0213,23.6223,2071.7466],[-104.019,23.6155,2096.499],[-104.0286,23.6001,2346.6858],[-104.0298,23.6004,2346.6858],[-104.035,23.593,2116.6458],[-104.0242,23.5924,2219.0068],[-104.0186,23.5948,2186.1182],[-103.9994,23.6113,2110.5247],[-104.0012,23.6651,1981.545],[-103.9893,23.6552,2001.019],[-103.9879,23.6567,1997.7825],[-103.985,23.6544,2001.2833],[-103.9656,23.6693,1945.1232],[-103.9634,23.6682,1955.1588],[-103.9612,23.6694,1945.1702],[-103.9596,23.6726,1945.8313],[-103.9566,23.6678,1966.3745],[-103.9577,23.6705,1951.4591],[-103.9551,23.672,1955.0513],[-103.9025,23.6844,2074.7026],[-103.841,23.7013,2286.0559],[-103.8545,23.7279,2233.6606],[-103.8624,23.7526,2101.8291],[-103.8512,23.7667,2131.8774],[-103.8503,23.7707,2115.8318],[-103.8441,23.7728,2125.7483],[-103.8437,23.7748,2130.8743],[-103.8354,23.7826,2155.1829],[-103.8351,23.7851,2162.9478],[-103.8236,23.7889,2221.2537],[-103.8203,23.7919,2282.3525],[-103.8222,23.8008,2326.6123],[-103.8161,23.8077,2370.4631],[-103.8312,23.8247,2642.7466],[-103.8326,23.8489,2743.2517],[-103.8478,23.861,2642.5312],[-103.8827,23.8472,2406.958],[-103.9041,23.8342,2207.4087],[-103.9055,23.8197,2182.1904],[-103.9481,23.8259,2019.8102],[-103.9972,23.7829,1906.7653],[-103.9978,23.7853,1905.4272],[-104.0106,23.7747,1898.7701],[-104.018,23.7729,1898.8805],[-104.0201,23.7689,1898.896],[-104.0166,23.7666,1900.9192],[-104.0344,23.7514,1902.1665],[-104.0319,23.748,1903.9463],[-104.0266,23.751,1902.2573],[-104.0285,23.7538,1900.6213],[-104.0253,23.7559,1900.4412],[-104.0218,23.7507,1902.0146],[-104.0201,23.7517,1902.0146],[-104.0193,23.7505,1903.337],[-104.0224,23.7484,1903.9803],[-104.0195,23.7438,1907.4741],[-104.0392,23.7437,1906.7094],[-104.0406,23.7446,1905.7561],[-104.0376,23.748,1903.8555],[-104.0422,23.7482,1903.5406],[-104.0424,23.7447,1905.7561],[-104.0499,23.7479,1904.397],[-104.0489,23.7445,1909.2972],[-104.0463,23.7429,1903.0947],[-104.0452,23.736,1912.7847],[-104.0419,23.7347,1906.1233],[-104.0372,23.736,1908.8754],[-104.0367,23.7333,1909.606],[-104.0396,23.7323,1906.6952],[-104.0387,23.7265,1916.5249],[-104.0347,23.7216,1912.1674],[-104.0347,23.7204,1915.0447],[-104.0491,23.7136,1948.1176],[-104.0423,23.7059,1936.0535],[-104.0275,23.714,1917.0806],[-104.0237,23.7054,1930.2355],[-104.0485,23.6911,1966.9246],[-104.0499,23.6933,1967.3877],[-104.0521,23.692,1971.9448],[-104.0507,23.6899,1970.892],[-104.0599,23.6849,1994.124],[-104.0559,23.6761,1990.5708],[-104.0877,23.6554,2086.6143],[-104.0967,23.6514,2386.5562],[-104.0926,23.6492,2338.8604],[-104.1206,23.6203,2318.8521]]]]}
,"properties": {"GID_2": "MEX.10.39_2","GID_0": "MEX","country": "México","GID_1": "MEX.10_1","province": "Durango","NL_NAME_1": "NA","county": "VicenteGuerrero","VARNAME_2": "NA","NL_NAME_2": "NA","TYPE_2": "Município","ENGTYPE_2": "Municipality","CC_2": "NA","HASC_2": "NA","name": "Vicente_Guerrero.county","area_km2": 370.17,"hist_schema_id": "Elevation0-9000","hist_area_km2": {"1900": 18.4553,"1925": 42.2559,"1950": 31.4284,"1975": 39.0198,"2000": 35.6017,"2025": 28.6303,"2050": 21.9519,"2075": 21.9127,"2100": 21.0583,"2125": 14.5357,"2150": 11.4894,"2175": 9.6263,"2200": 9.2761,"2225": 8.2285,"2250": 6.9672,"2275": 6.8128,"2300": 6.6197,"2325": 7.0659,"2350": 4.7357,"2375": 4.4053,"2400": 2.3862,"2425": 2.3083,"2450": 1.5322,"2475": 1.6873,"2500": 1.5515,"2525": 1.4352,"2550": 1.4157,"2575": 1.4739,"2600": 1.8036,"2625": 1.7066,"2650": 1.2218,"2675": 0.8145,"2700": 0.5624,"2725": 0.1357,"2750": 0.0582}}}