{"type":"Feature","properties":{"featurecla":"River","scalerank":8,"rivernum":661,"dissolve":"661River","name":"Lerma5","name_alt":null,"note":null,"min_zoom":7.0,"strokeweig":0.2,"name_en":"Lerma","min_label":8.0},
"geometry":{"type": "LineString","coordinates": [[-100.70024414062499,20.053729559369117,1855.7744],[-100.76645507812499,20.066766668744123,1848.4819],[-100.80356445312499,20.09003327030662,1844.5803],[-100.85791015625,20.11517975468162,1844.5953],[-100.88095703124999,20.136249090619117,1830.5334],[-100.895751953125,20.164569403119117,1814.0365],[-100.91789550781249,20.26190827030662,1745.0375],[-100.92399902343749,20.271747137494117,1744.2996],[-100.93583984374999,20.27387116093162,1741.0472],[-100.95781249999999,20.273456121869117,1740.7062],[-100.98027343749999,20.27558014530662,1743.3977],[-100.99919433593749,20.282001043744117,1760.1024],[-101.01372070312499,20.29279205936912,1733.2208],[-101.02299804687499,20.308221746869123,1747.0586],[-101.02580566406249,20.328485418744123,1730.6771],[-101.01616210937499,20.39325592655662,1724.0289],[-101.06333007812499,20.45160553593162,1721.6467],[-101.076171875,20.463495184369123,1768.2859],[-101.10270996093749,20.483172918744117,1718.4001],[-101.11174316406249,20.492547918744123,1718.3289],[-101.12773437499999,20.48578522343162,1716.9038],[-101.14299316406249,20.48725006718162,1716.3689],[-101.15104980468749,20.49628327030662,1717.201],[-101.145263671875,20.512469793744117,1791.6353],[-101.16196289062499,20.520868231244123,1762.1056],[-101.165771484375,20.535272528119123,1714.574],[-101.16472167968749,20.550311590619117,1713.3293],[-101.1669921875,20.56085846561912,1713.2201],[-101.2392578125,20.58734772343162,1708.1265],[-101.24609375,20.587030340619123,1707.5564],[-101.24887695312499,20.57855866093162,1717.5044],[-101.25083007812499,20.569110418744117,1713.0046],[-101.25615234374999,20.561542059369117,1713.0237],[-101.26384277343749,20.55646393436912,1724.7428],[-101.27702636718749,20.553485418744117,1717.3479],[-101.28867187499999,20.548358465619117,1706.0049],[-101.29362792968749,20.54718659061912,1705.4287],[-101.30478515624999,20.552997137494117,1703.3368],[-101.31376953124999,20.555780340619123,1706.4727],[-101.32402343749999,20.55463287968162,1705.2888],[-101.33500976562499,20.54437897343162,1702.3746],[-101.364990234375,20.492547918744123,1707.3169],[-101.38835449218749,20.486102606244117,1699.0012],[-101.392333984375,20.48578522343162,1699.442],[-101.39306640625,20.47687409061912,1698.5422],[-101.38713378906249,20.45795319218162,1699.6642],[-101.385498046875,20.44818756718162,1699.7533],[-101.389892578125,20.42890045780662,1701.3026],[-101.40903320312499,20.40534088749412,1701.6945],[-101.41806640624999,20.37824127811912,1694.8966],[-101.42985839843749,20.361590887494117,1694.4932],[-101.44541015624999,20.34613678593162,1695.7178],[-101.461181640625,20.33490631718162,1695.8619]]}}