{"type": "Feature","bbox": [-98.1113,16.8496,-97.9124,16.9864],"geometry": {"type": "MultiPolygon","coordinates": [[[[-98.0807,16.885,412.3806],[-98.0156,16.8804,487.1005],[-98.0039,16.8857,426.3177],[-97.9746,16.877,466.5258],[-97.9186,16.8496,1111.0902],[-97.9132,16.8744,1244.7571],[-97.9169,16.8831,1151.8903],[-97.9124,16.8891,1254.429],[-97.9314,16.9046,534.7921],[-97.9331,16.9027,535.359],[-97.9363,16.9051,504.6004],[-97.943,16.9051,443.8322],[-97.9417,16.9073,468.6946],[-97.9436,16.907,457.0713],[-97.9446,16.912,483.3741],[-97.9495,16.921,525.4865],[-97.9485,16.9255,528.9575],[-97.9532,16.9289,487.8522],[-97.952,16.9316,490.0534],[-97.95,16.9314,526.4906],[-97.9508,16.935,537.1335],[-97.9481,16.9344,577.6491],[-97.9498,16.9478,657.8319],[-97.9625,16.9705,1047.4238],[-97.9939,16.9864,1141.6941],[-98.0262,16.9667,1179.2266],[-98.0399,16.97,1004.7554],[-98.0332,16.9767,1048.1299],[-98.0365,16.9786,1033.219],[-98.0489,16.9717,990.968],[-98.102,16.9603,565.6089],[-98.0971,16.9689,730.1896],[-98.1113,16.9589,798.226],[-98.1065,16.9567,528.2877],[-98.1056,16.9513,539.0178],[-98.1075,16.942,443.3155],[-98.1005,16.9407,424.0526],[-98.0992,16.9376,438.7483],[-98.1,16.9345,468.5656],[-98.0956,16.9237,411.2137],[-98.0871,16.914,393.8486],[-98.0867,16.9071,384.7447],[-98.0838,16.9027,369.6125],[-98.0825,16.8928,351.6435],[-98.0806,16.8905,377.894],[-98.0807,16.885,412.3806]]]]}
,"properties": {"GID_2": "MEX.20.65_2","GID_0": "MEX","country": "México","GID_1": "MEX.20_1","province": "Oaxaca","NL_NAME_1": "NA","county": "MesonesHidalgo","VARNAME_2": "NA","NL_NAME_2": "NA","TYPE_2": "Município","ENGTYPE_2": "Municipality","CC_2": "NA","HASC_2": "NA","name": "Mesones_Hidalgo.county","area_km2": 175.1738,"hist_schema_id": "Elevation0-9000","hist_area_km2": {"325": 0.1014,"350": 0.4463,"375": 3.7329,"400": 6.2078,"425": 10.1632,"450": 11.7453,"475": 11.0961,"500": 10.467,"525": 9.1078,"550": 6.9778,"575": 7.3835,"600": 6.2881,"625": 5.6187,"650": 6.0243,"675": 5.9229,"700": 5.5577,"725": 4.8883,"750": 4.7463,"775": 4.8477,"800": 4.5433,"825": 4.6449,"850": 4.5839,"875": 4.2797,"900": 4.2594,"925": 4.3607,"950": 3.6509,"975": 3.8334,"1000": 3.5698,"1025": 2.7179,"1050": 2.6367,"1075": 2.3528,"1100": 2.1094,"1125": 2.0079,"1150": 1.5415,"1175": 1.0141,"1200": 0.6693,"1225": 0.4057,"1250": 0.3043,"1275": 0.2434,"1300": 0.1217}}}