{"type": "Feature","id": "2717","bbox": [-102.85635,21.67015,-101.84543,22.46478],"geometry": {"type": "Polygon","coordinates": [[[-102.2114,22.3545,1953.1849],[-102.22908,22.36902,1959.6803],[-102.24313,22.39192,1962.1484],[-102.25264,22.41119,1969.6897],[-102.26143,22.43377,1980.3098],[-102.27491,22.45615,1990.8398],[-102.29155,22.46478,2002.6578],[-102.3098,22.44623,2000.0957],[-102.31884,22.42845,2011.2587],[-102.33031,22.40969,2028.5994],[-102.34514,22.39698,2065.0713],[-102.36447,22.39739,2140.4631],[-102.37708,22.39202,2261.1162],[-102.38555,22.38236,2291.9297],[-102.39351,22.37192,2319.7925],[-102.40436,22.3636,2329.0952],[-102.41372,22.36137,2309.1995],[-102.42328,22.36184,2352.7803],[-102.43304,22.36323,2434.1921],[-102.44286,22.36375,2417.1064],[-102.44627,22.36323,2421.3503],[-102.44963,22.36246,2418.1399],[-102.45284,22.36127,2405.8208],[-102.45604,22.35982,2396.1836],[-102.46359,22.35021,2367.272],[-102.46751,22.33843,2343.1108],[-102.47134,22.32613,2341.1699],[-102.47847,22.31528,2317.2651],[-102.49252,22.30799,2332.7407],[-102.51102,22.30551,2331.156],[-102.53035,22.30603,2459.8716],[-102.54689,22.30773,2548.915],[-102.58301,22.30959,2743.3728],[-102.62104,22.30665,2775.7979],[-102.65432,22.29249,2490.6675],[-102.67629,22.26076,2362.5569],[-102.67295,22.24417,2352.7334],[-102.65913,22.23012,2478.5542],[-102.64781,22.21291,2764.7302],[-102.65226,22.18717,2625.4839],[-102.66595,22.16196,2548.7307],[-102.68424,22.13979,2632.8271],[-102.70491,22.11943,2400.1929],[-102.72566,22.09958,2302.6448],[-102.74398,22.07793,2792.4055],[-102.76016,22.05359,2432.7581],[-102.77517,22.02827,2473.3379],[-102.79003,22.00393,2435.3899],[-102.80297,21.9862,2516.7505],[-102.81703,21.9691,2457.2866],[-102.83044,21.95168,2403.7175],[-102.84178,21.93298,2368.4473],[-102.84971,21.91303,2303.7285],[-102.8541,21.89257,2367.8687],[-102.85596,21.87169,2329.8857],[-102.85635,21.85029,2220.8887],[-102.8469,21.81185,1951.1509],[-102.82493,21.78699,1585.9673],[-102.79473,21.76844,1622.9053],[-102.76049,21.7488,1895.9917],[-102.73039,21.75934,2027.1138],[-102.69608,21.77113,2392.5449],[-102.66138,21.77784,2280.3018],[-102.63032,21.77304,2426.2417],[-102.58903,21.75278,2052.0491],[-102.55242,21.72803,1921.2083],[-102.51418,21.70612,1849.6082],[-102.46803,21.69459,1819.0746],[-102.43677,21.69082,1793.3396],[-102.4055,21.68596,1879.0581],[-102.37418,21.681,1839.2019],[-102.34287,21.67671,1846.7764],[-102.31414,21.6731,1837.1102],[-102.28634,21.67015,1862.2749],[-102.25895,21.67072,1936.9227],[-102.23125,21.67775,2021.4288],[-102.20696,21.69149,2080.8813],[-102.1867,21.70901,2137.0317],[-102.16738,21.72751,1981.7898],[-102.14578,21.74425,1969.8188],[-102.12169,21.75397,1978.671],[-102.09896,21.75888,1972.4438],[-102.07989,21.76792,1974.5718],[-102.06676,21.79014,1978.3954],[-102.06247,21.8165,1987.1533],[-102.05906,21.84332,2004.3113],[-102.04914,21.8659,1998.7704],[-102.02496,21.8797,1997.4067],[-101.99803,21.88781,2003.0364],[-101.98196,21.90393,2009.1543],[-101.96759,21.92099,2020.0612],[-101.94579,21.93194,2056.2498],[-101.91359,21.9413,2329.4448],[-101.89173,21.95566,2202.3545],[-101.87411,21.97623,2171.7354],[-101.85468,22.00429,2125.4136],[-101.85272,22.0078,2136.1726],[-101.85044,22.01116,2146.6936],[-101.84802,22.01442,2115.1382],[-101.84543,22.01747,2108.0679],[-101.85845,22.03576,2111.8125],[-101.87189,22.05318,2113.2498],[-101.88641,22.06951,2117.9309],[-101.9029,22.08485,2098.855],[-101.92842,22.09958,2090.9194],[-101.95643,22.10961,2089.4141],[-101.97979,22.12304,2052.5308],[-101.99137,22.1478,2094.7295],[-101.99044,22.17854,2090.6199],[-101.98703,22.21523,2083.7942],[-101.98765,22.25012,2025.3021],[-101.99886,22.27528,2027.1858],[-102.0171,22.28365,2023.2156],[-102.03772,22.28417,2026.5914],[-102.05886,22.28448,2050.0469],[-102.0787,22.29197,2077.8813],[-102.09182,22.30474,2112.4502],[-102.10123,22.31631,2093.0771],[-102.11281,22.32319,2092.2056],[-102.13224,22.32241,2086.3403],[-102.14433,22.3329,2044.5771],[-102.14882,22.34815,2056.9558],[-102.15353,22.36339,2025.6238],[-102.16639,22.37373,2009.7822],[-102.17347,22.37238,2004.1251],[-102.17998,22.36964,1994.3274],[-102.18582,22.36561,1984.8511],[-102.19084,22.36034,1977.0059],[-102.2114,22.3545,1953.1849]]]}
,"properties": {"ISO3166-1-Alpha-3": "MEX","country": "Mexico","fill": "#F0F","name": "Aguascalientes","area_km2": 5562.488,"hist_schema_id": "Elevation0-9000","hist_area_km2": {"1550": 1.752,"1575": 7.323,"1600": 17.125,"1625": 27.003,"1650": 31.114,"1675": 30.403,"1700": 28.945,"1725": 26.917,"1750": 28.747,"1775": 40.047,"1800": 55.038,"1825": 78.55,"1850": 193.77,"1875": 245.96,"1900": 273.633,"1925": 332.958,"1950": 348.616,"1975": 383.029,"2000": 498.735,"2025": 496.4,"2050": 353.586,"2075": 247.317,"2100": 202.478,"2125": 159.345,"2150": 140.604,"2175": 124.38,"2200": 105.284,"2225": 100.708,"2250": 91.387,"2275": 83.936,"2300": 71.028,"2325": 68.598,"2350": 72.389,"2375": 65.662,"2400": 61.12,"2425": 56.301,"2450": 50.46,"2475": 47.491,"2500": 43.66,"2525": 41.066,"2550": 36.366,"2575": 34.91,"2600": 34.536,"2625": 22.244,"2650": 17.924,"2675": 15.901,"2700": 11.973,"2725": 9.5,"2750": 7.693,"2775": 6.907,"2800": 6.338,"2825": 5.141,"2850": 5.71,"2875": 4.689,"2900": 4.14,"2925": 2.747,"2950": 2.06,"2975": 0.549,"3000": 0.216}}}