{"type": "Feature","bbox": [-93.4307,16.7171,-93.2044,17.0302],"geometry": {"type": "MultiPolygon","coordinates": [[[[-93.2216,17.0301,177.3324],[-93.23,17.0287,181.2217],[-93.2432,17.0228,174.1593],[-93.2489,17.0225,197.5252],[-93.2579,17.018,170.0],[-93.2687,17.0158,264.2271],[-93.2767,17.0071,234.6111],[-93.2821,17.0041,179.6375],[-93.2875,17.0036,169.5],[-93.2968,17.012,169.0],[-93.3142,17.0138,191.3564],[-93.3255,17.0216,194.0471],[-93.3419,17.0254,168.5],[-93.3506,17.03,168.0],[-93.3585,17.0302,168.0],[-93.3611,17.0284,168.0],[-93.3696,17.0292,194.2548],[-93.3791,17.0198,275.3279],[-93.3789,17.0163,399.371],[-93.3692,17.0162,415.7126],[-93.3728,16.9868,574.361],[-93.386,16.9897,500.7226],[-93.3884,16.9818,498.9476],[-93.3964,16.9812,461.2496],[-93.396,16.9794,422.0599],[-93.3986,16.9783,428.274],[-93.3964,16.9771,419.3952],[-93.398,16.9761,387.5265],[-93.3984,16.9726,391.3207],[-93.3941,16.9673,481.4481],[-93.3805,16.965,556.8081],[-93.3719,16.9523,331.4273],[-93.3749,16.9524,349.2966],[-93.378,16.9479,361.095],[-93.3729,16.9424,370.8781],[-93.3708,16.9328,441.0855],[-93.3817,16.9243,692.0632],[-93.3747,16.9138,702.2759],[-93.3881,16.9062,803.8085],[-93.3883,16.9017,774.3293],[-93.3944,16.9045,859.1299],[-93.3984,16.9022,912.8102],[-93.4307,16.9019,912.9214],[-93.4307,16.892,931.6144],[-93.423,16.886,897.5775],[-93.4172,16.8873,953.5513],[-93.4175,16.8861,908.5841],[-93.4146,16.8862,925.2758],[-93.4148,16.8914,995.8113],[-93.4135,16.8925,958.4937],[-93.4147,16.8969,869.9846],[-93.3997,16.897,877.2202],[-93.4054,16.8627,921.6763],[-93.3983,16.8622,919.8426],[-93.3901,16.8521,901.1829],[-93.3907,16.8487,906.7986],[-93.369,16.8136,1048.1199],[-93.3738,16.7977,1086.5337],[-93.3771,16.7964,1064.1208],[-93.3757,16.7936,1052.845],[-93.3685,16.788,1100.2277],[-93.3631,16.7922,1146.3132],[-93.3471,16.7927,1078.2406],[-93.3263,16.7964,1062.5555],[-93.3212,16.7937,1064.5527],[-93.3099,16.7826,1077.4497],[-93.3118,16.7777,1083.8108],[-93.314,16.779,1071.1953],[-93.3144,16.7659,1046.9346],[-93.3176,16.7632,1032.1998],[-93.3191,16.7636,1041.7294],[-93.3235,16.7582,1060.4878],[-93.3185,16.7489,1014.3892],[-93.3144,16.7474,994.6342],[-93.312,16.7513,996.8109],[-93.3115,16.7489,1000.8086],[-93.317,16.7449,992.2299],[-93.3183,16.7283,1002.7234],[-93.302,16.7246,949.5735],[-93.2952,16.7202,924.256],[-93.2751,16.7171,922.4801],[-93.27,16.7309,874.43],[-93.2726,16.7351,851.9072],[-93.2553,16.73,809.5604],[-93.2538,16.7309,797.8357],[-93.2559,16.7389,818.1483],[-93.2496,16.7389,757.0582],[-93.249,16.7428,778.7776],[-93.247,16.7434,769.6937],[-93.2474,16.7462,788.5865],[-93.2427,16.7469,762.4567],[-93.2417,16.7568,804.4319],[-93.236,16.7651,778.2091],[-93.2292,16.7661,729.1726],[-93.2248,16.7704,691.4641],[-93.2204,16.7719,682.2257],[-93.2191,16.7784,746.52],[-93.2228,16.7814,759.1863],[-93.2211,16.7864,726.7577],[-93.2141,16.7803,723.5704],[-93.2089,16.7801,677.594],[-93.2082,16.7821,674.6564],[-93.2095,16.7832,689.2717],[-93.2083,16.784,680.8384],[-93.2064,16.7834,675.6861],[-93.2064,16.7816,669.1826],[-93.2044,16.7828,679.1609],[-93.2047,16.7848,684.1852],[-93.2131,16.7888,715.6356],[-93.2086,16.8051,980.8334],[-93.2174,16.8126,1015.8713],[-93.2267,16.818,1080.6096],[-93.2453,16.8247,1018.3165],[-93.256,16.8317,1046.2111],[-93.2701,16.8376,1066.6559],[-93.2728,16.8443,1093.902],[-93.2648,16.8485,1169.3],[-93.2721,16.8712,976.2875],[-93.2701,16.8713,989.371],[-93.2726,16.8765,962.0591],[-93.2742,16.8866,1009.9924],[-93.2764,16.8891,989.3762],[-93.2936,16.8956,835.2873],[-93.2994,16.905,758.0773],[-93.3088,16.9104,615.5927],[-93.3028,16.9172,409.5807],[-93.3005,16.9342,338.4792],[-93.2964,16.9335,342.0046],[-93.2946,16.9346,399.7197],[-93.2951,16.9314,389.544],[-93.292,16.9343,414.6865],[-93.291,16.9324,355.3516],[-93.2885,16.9382,533.5946],[-93.2884,16.9726,707.3918],[-93.2903,16.975,727.1909],[-93.295,16.9756,638.3059],[-93.2954,16.981,437.0687],[-93.2995,16.9871,240.4145],[-93.2997,16.9851,292.9693],[-93.3051,16.9817,297.9913],[-93.3107,16.9833,257.1116],[-93.3086,16.9865,362.7485],[-93.3036,16.9882,419.3752],[-93.3079,16.9936,557.589],[-93.3063,17.0107,169.0],[-93.3048,17.0098,179.3666],[-93.3051,17.007,231.6534],[-93.3022,17.0054,243.5407],[-93.3029,17.0099,213.0945],[-93.299,17.0104,207.5311],[-93.296,17.0092,178.0473],[-93.2896,17.0016,240.5784],[-93.2806,17.0013,274.0654],[-93.2711,17.0082,305.6451],[-93.2659,17.0145,278.5648],[-93.2412,17.0212,291.0982],[-93.2204,17.0301,192.5689],[-93.2216,17.0301,177.3324]]]]}
,"properties": {"GID_2": "MEX.5.14_2","GID_0": "MEX","country": "México","GID_1": "MEX.5_1","province": "Chiapas","NL_NAME_1": "NA","county": "Berriozábal","VARNAME_2": "NA","NL_NAME_2": "NA","TYPE_2": "Município","ENGTYPE_2": "Municipality","CC_2": "NA","HASC_2": "NA","name": "Berriozábal.county","area_km2": 358.1774,"hist_schema_id": "Elevation0-9000","hist_area_km2": {"175": 4.6021,"200": 0.7096,"225": 0.7502,"250": 1.0949,"275": 3.0824,"300": 4.1369,"325": 4.279,"350": 4.2383,"375": 4.9684,"400": 5.1306,"425": 6.1445,"450": 6.2055,"475": 7.1382,"500": 7.0366,"525": 7.6449,"550": 6.7731,"575": 5.3334,"600": 4.502,"625": 4.36,"650": 3.772,"675": 3.448,"700": 3.915,"725": 5.2341,"750": 5.1538,"775": 7.1221,"800": 6.7983,"825": 8.8686,"850": 14.4096,"875": 17.0477,"900": 21.4725,"925": 23.1762,"950": 24.211,"975": 23.603,"1000": 25.3291,"1025": 19.6449,"1050": 14.4082,"1075": 13.9214,"1100": 10.7755,"1125": 7.143,"1150": 5.3166,"1175": 3.8555,"1200": 1.0552,"1225": 0.2638,"1250": 0.1015}}}