{"type":"Feature","properties":{"GID_2":"MEX.16.97_2","GID_0":"MEX","country":"México","GID_1":"MEX.16_1","province":"Michoacán","NL_NAME_1":"NA","county":"Tumbiscatío","VARNAME_2":"NA","NL_NAME_2":"NA","TYPE_2":"Município","ENGTYPE_2":"Municipality","CC_2":"NA","HASC_2":"NA","name":"Tumbiscatío.county"},
"geometry":{"type": "MultiPolygon","coordinates": [[[[-102.8335,18.5255,641.728],[-102.8367,18.5236,644.0585],[-102.8355,18.5208,653.6954],[-102.8366,18.5175,667.1],[-102.841,18.5166,696.1005],[-102.8418,18.5198,690.7935],[-102.8452,18.5189,765.6907],[-102.8462,18.5162,721.5872],[-102.8501,18.5165,715.2062],[-102.8502,18.5139,727.0305],[-102.858,18.5136,750.7585],[-102.8564,18.5099,761.6311],[-102.8592,18.5082,788.2426],[-102.8599,18.5048,797.5356],[-102.866,18.4996,811.3691],[-102.8688,18.4998,815.6625],[-102.8759,18.4928,872.0284],[-102.8788,18.4934,886.8604],[-102.8907,18.4892,983.7805],[-102.8955,18.4841,1084.3857],[-102.9039,18.4835,1405.8367],[-102.9006,18.4798,1468.838],[-102.8926,18.476,1418.3392],[-102.8917,18.4707,1182.6537],[-102.8791,18.4603,918.2553],[-102.876,18.4632,882.1159],[-102.874,18.4605,863.5347],[-102.8663,18.4627,864.692],[-102.863,18.46,829.1379],[-102.8582,18.462,802.8083],[-102.8572,18.4597,803.5702],[-102.8531,18.46,784.3866],[-102.8523,18.4524,814.3904],[-102.8548,18.4513,830.6732],[-102.853,18.4475,858.3875],[-102.8578,18.4422,1050.4274],[-102.8543,18.4322,1378.021],[-102.8548,18.4295,1373.3319],[-102.8457,18.4216,1026.3862],[-102.838,18.4187,864.1443],[-102.8343,18.4147,791.4119],[-102.8318,18.4148,771.3774],[-102.8234,18.4083,656.4244],[-102.8245,18.4058,687.3914],[-102.8222,18.3978,686.8894],[-102.8161,18.4001,573.7924],[-102.8108,18.3972,548.2805],[-102.8066,18.3984,529.7243],[-102.8042,18.3961,518.4586],[-102.8021,18.3962,521.639],[-102.8012,18.3912,482.5413],[-102.7981,18.3934,469.4836],[-102.7936,18.39,473.5283],[-102.7891,18.3928,444.3155],[-102.7862,18.3888,410.9764],[-102.7815,18.388,395.2759],[-102.781,18.3846,394.3257],[-102.7784,18.3861,382.7692],[-102.776,18.3807,325.7063],[-102.7717,18.3795,330.1088],[-102.7699,18.3827,364.8152],[-102.7668,18.383,379.6677],[-102.7653,18.386,451.5132],[-102.7618,18.3874,433.0739],[-102.7612,18.3905,479.0099],[-102.7585,18.3904,470.6504],[-102.7559,18.3875,459.8676],[-102.7523,18.3874,504.9297],[-102.7525,18.3857,486.2327],[-102.7471,18.3867,505.2314],[-102.745,18.3902,616.1597],[-102.7286,18.3781,1054.2227],[-102.7241,18.3804,872.7435],[-102.7164,18.3718,604.5445],[-102.708,18.3726,492.7256],[-102.6919,18.3673,1080.6716],[-102.6864,18.3623,781.9344],[-102.6824,18.3616,646.1038],[-102.6802,18.3532,578.2586],[-102.6817,18.3479,514.916],[-102.6778,18.3479,530.7631],[-102.6767,18.3449,555.0129],[-102.6751,18.3452,529.5707],[-102.6745,18.3414,538.6432],[-102.6725,18.3407,533.3561],[-102.6717,18.3368,590.8036],[-102.6701,18.3376,541.3457],[-102.669,18.3356,550.8801],[-102.6638,18.3374,639.1171],[-102.6627,18.3401,628.1558],[-102.6613,18.3386,653.9819],[-102.6615,18.3411,675.2206],[-102.6592,18.3405,698.3132],[-102.657,18.3431,715.377],[-102.6486,18.3391,799.7091],[-102.6407,18.3391,901.8232],[-102.639,18.3423,948.6661],[-102.6329,18.346,1079.3431],[-102.6247,18.3501,1292.7169],[-102.615,18.3523,1247.9333],[-102.6099,18.3488,1110.917],[-102.6054,18.348,947.8848],[-102.6022,18.3493,908.6553],[-102.5973,18.3455,839.562],[-102.5953,18.3458,840.5533],[-102.5935,18.3365,756.9783],[-102.5969,18.3351,736.567],[-102.5927,18.3323,737.7849],[-102.5898,18.3318,773.4246],[-102.5882,18.3333,786.8724],[-102.5865,18.3323,805.1942],[-102.5802,18.3375,893.0455],[-102.5762,18.3368,949.8466],[-102.5724,18.3396,1003.8864],[-102.5679,18.339,1094.8829],[-102.5606,18.3428,1237.0785],[-102.5547,18.3426,1190.2859],[-102.5562,18.3447,1190.3853],[-102.5512,18.3441,1107.2507],[-102.5461,18.3464,1013.2691],[-102.5409,18.3433,935.5989],[-102.5394,18.3443,913.6873],[-102.5374,18.341,901.0748],[-102.5397,18.3379,865.3812],[-102.535,18.3362,825.8286],[-102.535,18.3331,788.6185],[-102.5317,18.3296,738.1078],[-102.5243,18.3281,680.7184],[-102.5233,18.3249,663.3356],[-102.5195,18.3257,638.8088],[-102.5182,18.3239,620.7067],[-102.5153,18.3245,612.1396],[-102.5149,18.322,596.9943],[-102.5124,18.3211,574.2812],[-102.506,18.3225,473.9694],[-102.4986,18.3287,553.1478],[-102.4955,18.3396,534.6142],[-102.4998,18.3458,587.6982],[-102.5024,18.3455,581.532],[-102.5049,18.3504,600.314],[-102.5011,18.3504,696.8977],[-102.5013,18.3531,639.6006],[-102.4968,18.3552,654.3736],[-102.4976,18.358,648.3281],[-102.4961,18.3601,655.6561],[-102.494,18.3596,663.6614],[-102.4904,18.3633,742.3126],[-102.4902,18.369,755.386],[-102.4866,18.3705,797.8367],[-102.4847,18.3737,858.1259],[-102.4845,18.3774,1008.0028],[-102.483,18.3784,1008.0028],[-102.4833,18.3836,1069.8251],[-102.4794,18.3855,1061.6503],[-102.4793,18.3893,1079.2025],[-102.4768,18.3925,1086.9618],[-102.4582,18.3959,1387.9636],[-102.4565,18.3986,1420.1886],[-102.4579,18.402,1471.0396],[-102.4565,18.4044,1559.522],[-102.4392,18.405,1663.8727],[-102.4215,18.401,1635.7174],[-102.4041,18.3998,1556.613],[-102.3982,18.4072,1099.1433],[-102.3995,18.4113,992.5161],[-102.3947,18.4162,760.2415],[-102.3818,18.4068,754.5452],[-102.3774,18.407,839.0101],[-102.3744,18.4028,735.1379],[-102.372,18.4092,833.5767],[-102.3688,18.4081,797.123],[-102.355,18.416,788.9187],[-102.3486,18.4181,800.8229],[-102.3487,18.4248,794.1462],[-102.3448,18.4269,802.8824],[-102.3455,18.4296,803.527],[-102.3508,18.4333,815.6201],[-102.3504,18.4366,824.7656],[-102.355,18.4398,823.6268],[-102.35,18.4389,844.6945],[-102.3468,18.4428,847.9938],[-102.3418,18.4442,872.7172],[-102.345,18.4498,958.4991],[-102.3426,18.4536,946.8835],[-102.3414,18.4617,933.3825],[-102.3429,18.464,991.1683],[-102.3443,18.4625,940.4972],[-102.3462,18.4631,945.1057],[-102.3457,18.4666,933.245],[-102.3469,18.466,933.245],[-102.3476,18.4676,955.1003],[-102.3444,18.4684,949.1194],[-102.3453,18.4717,971.2178],[-102.3421,18.4726,982.6205],[-102.3452,18.4764,976.3707],[-102.3402,18.4764,980.5225],[-102.3389,18.4785,957.2164],[-102.3356,18.4766,967.8984],[-102.3375,18.4807,992.1414],[-102.3342,18.4842,976.4294],[-102.3306,18.4841,976.5319],[-102.3312,18.4871,1001.3485],[-102.3289,18.4854,999.4385],[-102.3291,18.4877,984.9663],[-102.3306,18.4879,1001.3485],[-102.3273,18.4907,991.7413],[-102.328,18.4921,1005.431],[-102.3254,18.4916,1032.0581],[-102.3228,18.4934,999.9967],[-102.322,18.4917,1037.2748],[-102.3204,18.493,1021.1891],[-102.3191,18.4915,1036.4642],[-102.3172,18.4931,1025.1451],[-102.3177,18.4949,1038.6846],[-102.3142,18.4913,1048.9062],[-102.3134,18.4945,1047.562],[-102.3121,18.4946,1047.562],[-102.2985,18.4838,1352.6454],[-102.2913,18.484,1299.1967],[-102.2902,18.4875,1350.1057],[-102.2867,18.4904,1271.6504],[-102.283,18.4911,1316.885],[-102.2811,18.4996,1307.9077],[-102.2856,18.5064,1280.3199],[-102.2853,18.5083,1264.3521],[-102.2894,18.5121,1450.1354],[-102.2779,18.5127,1018.8002],[-102.2758,18.5173,1065.863],[-102.2767,18.5264,1195.0753],[-102.2697,18.5321,1399.1],[-102.2811,18.5481,1236.8571],[-102.2814,18.5517,1046.9232],[-102.2865,18.5557,919.5907],[-102.2872,18.561,857.9816],[-102.2854,18.5629,838.0957],[-102.2868,18.5664,797.8102],[-102.2827,18.5649,778.2574],[-102.2834,18.5689,788.9159],[-102.2812,18.5751,758.9843],[-102.2761,18.5769,678.4043],[-102.2767,18.5791,659.8559],[-102.2742,18.5789,640.4555],[-102.2733,18.5828,699.5596],[-102.2717,18.5822,632.7916],[-102.2708,18.5851,609.3626],[-102.2684,18.586,612.7815],[-102.2678,18.5916,596.6603],[-102.2654,18.5935,586.9595],[-102.2659,18.5986,579.051],[-102.2638,18.5983,621.4946],[-102.263,18.5961,611.452],[-102.2558,18.5961,674.9721],[-102.2503,18.592,817.9659],[-102.2451,18.5943,870.203],[-102.2296,18.5929,1243.6787],[-102.225,18.6023,869.7124],[-102.2247,18.6141,714.6195],[-102.2193,18.617,679.1351],[-102.2193,18.6233,624.5299],[-102.2171,18.6261,591.7336],[-102.2136,18.6266,576.321],[-102.2085,18.6215,865.1663],[-102.2037,18.6232,742.1838],[-102.2018,18.6294,594.5574],[-102.1867,18.6261,733.3527],[-102.1818,18.6306,951.2272],[-102.1715,18.6285,1054.8503],[-102.1668,18.6324,1206.5691],[-102.1676,18.6379,1121.7065],[-102.1736,18.6508,818.7098],[-102.1867,18.6645,898.5484],[-102.1831,18.6702,1005.1901],[-102.1816,18.6787,994.1295],[-102.1849,18.6861,1109.5439],[-102.184,18.6927,1019.9619],[-102.1879,18.6957,981.5813],[-102.1913,18.708,1102.9246],[-102.2006,18.7103,982.4039],[-102.2055,18.7152,889.3611],[-102.2106,18.7429,812.7734],[-102.2128,18.7457,773.3012],[-102.218,18.7468,605.2461],[-102.2201,18.7506,549.4402],[-102.2191,18.7634,428.2028],[-102.2246,18.7669,243.2352],[-102.2212,18.7705,234.7764],[-102.2222,18.7729,236.6676],[-102.2156,18.7771,239.2807],[-102.2164,18.7791,244.3959],[-102.2125,18.7842,252.9896],[-102.2145,18.7901,264.6956],[-102.2175,18.7921,280.0728],[-102.216,18.7949,283.1635],[-102.2217,18.7966,312.3656],[-102.2178,18.8041,331.266],[-102.2174,18.8106,399.9631],[-102.2209,18.8182,649.9372],[-102.23,18.8259,999.944],[-102.2367,18.8415,830.3459],[-102.2446,18.8422,652.9492],[-102.2574,18.8464,1086.3586],[-102.2621,18.8425,1195.2656],[-102.2746,18.8397,888.3865],[-102.2786,18.8374,698.5789],[-102.2818,18.8286,392.9474],[-102.2849,18.8276,386.1378],[-102.285,18.8242,370.8643],[-102.2835,18.8191,344.6644],[-102.2801,18.8195,344.0998],[-102.2753,18.8126,324.4842],[-102.2765,18.8119,334.9192],[-102.2754,18.8109,334.9192],[-102.277,18.8029,314.9947],[-102.2749,18.8012,312.3035],[-102.2766,18.7993,301.2978],[-102.2763,18.7963,297.9612],[-102.2783,18.7969,297.4066],[-102.2751,18.7922,293.2055],[-102.2747,18.7888,287.6126],[-102.2693,18.7832,280.4798],[-102.258,18.7789,268.2594],[-102.2561,18.7765,266.291],[-102.2504,18.7799,261.4799],[-102.2468,18.7788,258.046],[-102.2417,18.7654,246.5652],[-102.2539,18.7625,251.8473],[-102.2564,18.7591,256.3262],[-102.2565,18.7536,264.1329],[-102.2585,18.7502,277.0954],[-102.2613,18.7506,272.7573],[-102.262,18.7482,273.7041],[-102.2652,18.7504,291.2932],[-102.2653,18.7473,295.48],[-102.2836,18.7339,416.0006],[-102.2959,18.7326,711.031],[-102.3062,18.7275,483.1255],[-102.3357,18.723,646.5892],[-102.3378,18.73,711.4108],[-102.3407,18.7302,701.2643],[-102.3441,18.7231,538.5162],[-102.3434,18.7202,521.8409],[-102.3447,18.7186,511.5281],[-102.3416,18.7143,507.6429],[-102.3438,18.7096,525.5632],[-102.3468,18.7094,541.9097],[-102.3479,18.7119,557.0032],[-102.3513,18.7113,607.13],[-102.3611,18.7175,650.2405],[-102.3654,18.7153,795.3594],[-102.3692,18.7169,827.343],[-102.3755,18.7167,1085.311],[-102.3772,18.7183,1083.4695],[-102.3874,18.7176,1130.7043],[-102.3968,18.72,1126.9302],[-102.4007,18.7161,1190.6641],[-102.4104,18.721,1395.031],[-102.4154,18.7188,1274.7617],[-102.4272,18.7181,1444.5569],[-102.4374,18.7113,1534.1752],[-102.4516,18.7162,1121.5762],[-102.4532,18.7216,1046.626],[-102.4557,18.7228,979.6254],[-102.4585,18.7267,956.5793],[-102.4586,18.7294,866.3926],[-102.46,18.7294,866.3926],[-102.4606,18.7336,815.7529],[-102.4666,18.7293,868.6703],[-102.4713,18.7339,913.5638],[-102.4724,18.7325,883.3694],[-102.4744,18.733,907.8445],[-102.4744,18.7357,981.4851],[-102.4773,18.7351,971.5374],[-102.4822,18.737,963.1219],[-102.4839,18.7356,1005.8829],[-102.4835,18.7321,1009.7164],[-102.4854,18.7297,1045.6327],[-102.4845,18.7274,1024.3019],[-102.4926,18.7281,1074.1923],[-102.4974,18.7174,1175.3979],[-102.5018,18.7204,1279.3168],[-102.5036,18.7238,1428.3069],[-102.5144,18.726,1457.1171],[-102.5229,18.7232,1791.7612],[-102.5363,18.7268,1919.5359],[-102.5449,18.7192,2013.587],[-102.5551,18.7233,1741.2493],[-102.5601,18.7224,1690.7799],[-102.5641,18.7261,1563.5747],[-102.5645,18.721,1661.5642],[-102.5665,18.7198,1738.0627],[-102.5681,18.7147,1994.3883],[-102.5652,18.7074,1989.7661],[-102.5683,18.7028,1811.6958],[-102.5709,18.7027,1774.9044],[-102.5727,18.7005,1674.5111],[-102.5755,18.7015,1600.2705],[-102.5795,18.6992,1555.8145],[-102.59,18.6982,1396.6558],[-102.606,18.6926,1249.4122],[-102.6094,18.6839,1211.9587],[-102.6118,18.6848,1217.0098],[-102.6133,18.6923,1306.2798],[-102.6238,18.6917,1158.6788],[-102.6249,18.6937,1179.2853],[-102.6393,18.7009,1579.8246],[-102.639,18.6946,1407.2568],[-102.642,18.6901,1265.1143],[-102.6426,18.6824,1194.0515],[-102.6443,18.6799,1175.5946],[-102.6489,18.679,1155.1213],[-102.6499,18.6754,1204.2292],[-102.6486,18.674,1166.3372],[-102.65,18.6704,1130.5391],[-102.6443,18.6609,1072.4514],[-102.6453,18.6554,1057.5454],[-102.6545,18.6621,1104.9011],[-102.6579,18.6673,1123.1058],[-102.6656,18.6693,1191.3744],[-102.6714,18.668,1257.2871],[-102.6789,18.6699,1516.5312],[-102.6815,18.6695,1615.609],[-102.6859,18.6619,1519.6417],[-102.6926,18.66,1495.842],[-102.7007,18.6529,1404.848],[-102.7159,18.649,1247.9562],[-102.7162,18.6414,1625.5306],[-102.7139,18.6394,1545.7549],[-102.7164,18.6345,1536.1288],[-102.7143,18.6314,1599.4558],[-102.7133,18.6245,1651.7588],[-102.7159,18.6167,1647.7589],[-102.7129,18.6117,1646.4561],[-102.7179,18.5994,1825.7529],[-102.7156,18.5943,1715.2207],[-102.7175,18.5911,1697.1444],[-102.7164,18.5865,1517.6119],[-102.719,18.5831,1366.1338],[-102.7168,18.5772,1227.6694],[-102.7192,18.5759,1249.2169],[-102.7289,18.5786,1481.7505],[-102.7359,18.5769,1719.5562],[-102.7395,18.5688,1769.2678],[-102.7369,18.5627,1584.8142],[-102.7324,18.56,1483.3693],[-102.732,18.5579,1419.2767],[-102.7271,18.557,1299.0447],[-102.7206,18.5506,1149.8058],[-102.7132,18.5484,1032.0903],[-102.7119,18.5495,1005.1685],[-102.7091,18.546,976.9404],[-102.709,18.5423,899.5118],[-102.7056,18.5365,754.4687],[-102.7084,18.5321,751.4334],[-102.7148,18.5276,750.3697],[-102.7169,18.5228,745.4162],[-102.7193,18.5224,756.3002],[-102.7231,18.5273,743.3527],[-102.7246,18.5261,718.6335],[-102.7234,18.5234,725.0316],[-102.7248,18.5216,729.0181],[-102.7273,18.5242,738.7805],[-102.7306,18.5245,693.2249],[-102.7331,18.5235,693.2843],[-102.7339,18.5205,713.2805],[-102.7407,18.5227,701.5676],[-102.7444,18.5207,678.3093],[-102.7495,18.521,675.5463],[-102.7527,18.5184,672.274],[-102.7568,18.5199,696.0392],[-102.7588,18.5228,658.4401],[-102.7633,18.5151,630.5971],[-102.7664,18.5163,611.2107],[-102.7695,18.5133,600.2483],[-102.7725,18.5157,619.6113],[-102.7779,18.5128,550.6208],[-102.7772,18.5026,551.6169],[-102.7817,18.4967,534.1318],[-102.7904,18.4965,526.234],[-102.7932,18.4941,517.0383],[-102.7951,18.5018,540.7441],[-102.8022,18.5032,565.3204],[-102.8044,18.511,567.016],[-102.8063,18.5123,556.7136],[-102.8055,18.5154,582.7995],[-102.8118,18.5199,572.3057],[-102.8159,18.5169,606.7526],[-102.8173,18.5227,600.0054],[-102.8294,18.5284,620.3496],[-102.8335,18.5255,641.728]]]]}}