{"type":"Feature","properties":{"GID_2":"MEX.20.394_2","GID_0":"MEX","country":"México","GID_1":"MEX.20_1","province":"Oaxaca","NL_NAME_1":"NA","county":"SantaInésYatzeche","VARNAME_2":"NA","NL_NAME_2":"NA","TYPE_2":"Município","ENGTYPE_2":"Municipality","CC_2":"NA","HASC_2":"NA","name":"Santa_Inés_Yatzeche.county"},
"geometry":{"type": "MultiPolygon","coordinates": [[[[-96.7638,16.7981,1464.8015],[-96.7544,16.7975,1469.0654],[-96.7513,16.8115,1468.5524],[-96.7599,16.8152,1469.2598],[-96.7609,16.8121,1468.9949],[-96.7659,16.8124,1468.9409],[-96.7656,16.7985,1465.1595],[-96.7638,16.7981,1464.8015]]]]}}