{"type": "Feature","bbox": [-103.1725,21.8646,-102.9096,22.1429],"geometry": {"type": "MultiPolygon","coordinates": [[[[-103.1725,21.9966,1879.3712],[-103.1667,21.9879,1963.0516],[-103.1668,21.9846,1971.0813],[-103.1596,21.984,2029.4924],[-103.1588,21.9819,2075.6421],[-103.1527,21.9792,2097.3223],[-103.1432,21.9676,2247.9597],[-103.1388,21.9536,2287.4319],[-103.1443,21.9495,2320.9878],[-103.145,21.9461,2396.5688],[-103.1369,21.9425,2419.3953],[-103.1357,21.9406,2446.3459],[-103.1432,21.9345,2615.95],[-103.1502,21.9201,2655.543],[-103.1482,21.9111,2660.6414],[-103.1504,21.8962,2613.8779],[-103.1441,21.8961,2622.6064],[-103.1355,21.892,2544.3018],[-103.127,21.8923,2587.8552],[-103.1165,21.8875,2560.0942],[-103.1155,21.8804,2376.6167],[-103.1111,21.8761,2358.377],[-103.1104,21.8732,2367.7136],[-103.1012,21.8704,2325.7534],[-103.0935,21.8653,2326.8167],[-103.0874,21.8646,2386.4971],[-103.0879,21.866,2377.6362],[-103.0827,21.8714,2179.6106],[-103.0822,21.8739,2169.3184],[-103.0661,21.8794,2060.1125],[-103.0646,21.8787,2069.063],[-103.0604,21.8806,2062.7285],[-103.0548,21.8786,2027.1418],[-103.0364,21.8789,1939.3562],[-103.0352,21.8816,1892.3993],[-103.0336,21.8809,1904.0906],[-103.0331,21.883,1880.5876],[-103.0303,21.8837,1887.5497],[-103.0159,21.881,1777.8511],[-103.0149,21.8828,1795.9576],[-103.0168,21.8896,1895.3812],[-103.0134,21.8958,1819.5437],[-103.0149,21.8965,1788.3047],[-103.015,21.9001,1795.2119],[-103.0132,21.9027,1866.299],[-103.0151,21.9071,1876.6367],[-103.0202,21.9116,2024.5676],[-103.0237,21.91,2065.4243],[-103.0469,21.9176,2364.2939],[-103.0426,21.9175,2330.4065],[-103.0439,21.9196,2311.5989],[-103.0408,21.9229,2304.0208],[-103.0382,21.9223,2272.0046],[-103.0371,21.9251,2279.4602],[-103.0295,21.9242,2218.4192],[-103.0265,21.9277,2201.8357],[-103.0227,21.9278,2161.1172],[-103.0224,21.9325,2127.2759],[-103.0188,21.9355,2080.7415],[-103.0148,21.9344,2035.9049],[-103.0148,21.938,2021.6626],[-103.0125,21.9352,1985.0039],[-103.0123,21.9409,1957.4619],[-103.0062,21.9582,1840.2732],[-103.0061,21.9676,1903.9109],[-103.0162,21.9675,2259.7397],[-102.9997,22.0009,2191.592],[-102.9742,22.0467,2296.918],[-102.9774,22.0561,2124.585],[-102.9761,22.063,2203.7322],[-102.973,22.067,2364.0308],[-102.9729,22.06,2270.0046],[-102.9699,22.0584,2353.4314],[-102.9694,22.0525,2386.8809],[-102.9608,22.049,2355.3855],[-102.9534,22.0572,1941.4019],[-102.9483,22.0569,1912.0061],[-102.9425,22.0592,1867.2706],[-102.9433,22.0616,1874.8695],[-102.9404,22.0647,1903.1943],[-102.9382,22.0649,1951.9692],[-102.9377,22.0627,1939.0085],[-102.9332,22.061,1908.8167],[-102.93,22.0572,1898.6212],[-102.9243,22.058,1876.9988],[-102.9198,22.064,1789.6316],[-102.9186,22.07,1807.0206],[-102.9136,22.0732,1803.8267],[-102.9099,22.0731,1786.7107],[-102.9096,22.0775,1818.7114],[-102.9148,22.0761,1805.2096],[-102.9168,22.077,1816.7009],[-102.9193,22.081,1844.5413],[-102.9196,22.0861,1853.3663],[-102.9251,22.0906,1918.6299],[-102.9328,22.091,1926.7942],[-102.9381,22.0876,1953.9418],[-102.9461,22.0881,1966.8008],[-102.948,22.0904,1963.3926],[-102.9444,22.0973,1902.7622],[-102.9463,22.1001,1928.4951],[-102.945,22.1045,1913.0397],[-102.9558,22.1106,2068.2129],[-102.9503,22.1182,2210.7424],[-102.9554,22.1216,2359.7427],[-102.9509,22.1269,2335.1389],[-102.9539,22.1285,2334.6089],[-102.9563,22.1273,2308.4072],[-102.9604,22.1282,2302.4807],[-102.9607,22.1302,2274.5952],[-102.9639,22.1323,2173.0723],[-102.9668,22.1309,2071.1855],[-102.9697,22.1338,2121.1758],[-102.9747,22.1351,2025.9861],[-102.9767,22.1429,1936.8741],[-102.9825,22.1391,1968.478],[-102.9866,22.1396,1937.8411],[-102.9951,22.1371,1948.2767],[-102.999,22.1383,1949.697],[-103.0068,22.1364,1930.6279],[-103.0165,22.1294,1942.7721],[-103.0198,22.1241,1949.9259],[-103.0209,22.1245,1942.3784],[-103.023,22.1195,1957.6249],[-103.0226,22.117,1987.9619],[-103.025,22.1165,1976.4211],[-103.025,22.1137,2004.7954],[-103.0255,22.1147,1998.0173],[-103.0288,22.1121,1994.4773],[-103.0277,22.108,2020.3676],[-103.0295,22.1056,2006.3389],[-103.0325,22.1052,2038.3026],[-103.0379,22.1109,2051.5483],[-103.0449,22.1111,2033.2695],[-103.0562,22.0521,2244.0996],[-103.0503,22.0479,2216.394],[-103.0514,22.0469,2214.3237],[-103.049,22.0436,2204.8059],[-103.0503,22.0417,2202.6519],[-103.1071,22.0468,2249.8955],[-103.1085,22.0392,2252.4917],[-103.1141,22.0391,2189.623],[-103.1091,22.029,2150.2864],[-103.1102,22.0275,2141.3713],[-103.1089,22.0258,2134.3291],[-103.1116,22.0211,2129.6912],[-103.11,22.0174,2118.231],[-103.1115,22.0143,2098.9019],[-103.1171,22.0129,2065.1824],[-103.1209,22.0152,2057.8333],[-103.1328,22.003,2023.4237],[-103.138,22.003,1951.5801],[-103.1437,22.008,1943.2584],[-103.146,22.0053,1958.7809],[-103.1601,22.0032,1913.1162],[-103.1596,22.0006,1924.5055],[-103.1644,21.9987,1897.6655],[-103.1651,21.997,1928.1302],[-103.1681,21.9986,1912.6879],[-103.1725,21.9966,1879.3712]]]]}
,"properties": {"GID_2": "MEX.32.10_2","GID_0": "MEX","country": "México","GID_1": "MEX.32_1","province": "Zacatecas","NL_NAME_1": "NA","county": "ElPlateadodeJoaquínAmaro","VARNAME_2": "NA","NL_NAME_2": "NA","TYPE_2": "Município","ENGTYPE_2": "Municipality","CC_2": "NA","HASC_2": "NA","name": "El_Plateadode_Joaquín_Amaro.county","area_km2": 354.2845,"hist_schema_id": "Elevation0-9000","hist_area_km2": {"1750": 0.0393,"1775": 0.2163,"1800": 0.9239,"1825": 1.0419,"1850": 1.6906,"1875": 2.0643,"1900": 2.7129,"1925": 4.1477,"1950": 5.6205,"1975": 6.3867,"2000": 7.5463,"2025": 8.3318,"2050": 8.9412,"2075": 9.1186,"2100": 8.3722,"2125": 9.8663,"2150": 10.8887,"2175": 15.5869,"2200": 27.8527,"2225": 29.859,"2250": 28.5827,"2275": 22.9429,"2300": 19.3263,"2325": 18.697,"2350": 18.8752,"2375": 16.378,"2400": 13.232,"2425": 14.4511,"2450": 9.7522,"2475": 8.652,"2500": 4.917,"2525": 4.4255,"2550": 2.8324,"2575": 2.4784,"2600": 1.8884,"2625": 3.108,"2650": 2.5375}}}