{"type": "Feature","bbox": [-97.1966,18.9838,-96.9998,19.1343],"geometry": {"type": "MultiPolygon","coordinates": [[[[-97.0529,19.1323,1825.6786],[-97.0529,19.129,1780.4827],[-97.0557,19.1307,1810.6323],[-97.0567,19.1291,1793.9453],[-97.0555,19.1236,1771.8282],[-97.0574,19.1219,1745.9677],[-97.0555,19.112,1597.0782],[-97.0519,19.1067,1463.2142],[-97.056,19.1063,1475.3518],[-97.0601,19.112,1463.126],[-97.0665,19.1129,1511.7083],[-97.067,19.1068,1718.6272],[-97.0638,19.101,1676.5349],[-97.0704,19.1025,1678.6304],[-97.0697,19.0995,1643.0139],[-97.0739,19.097,1944.9242],[-97.0786,19.0993,1767.5587],[-97.0773,19.095,1978.1493],[-97.0783,19.0924,2096.4065],[-97.0893,19.0904,2389.1304],[-97.0984,19.0796,2118.1812],[-97.1043,19.0818,2114.7554],[-97.1142,19.0763,2332.7744],[-97.1212,19.0762,2186.8662],[-97.1151,19.068,1944.8875],[-97.1237,19.0666,2043.5769],[-97.1322,19.068,2230.7874],[-97.135,19.07,2331.6196],[-97.135,19.0661,2227.4131],[-97.1327,19.0636,2104.5347],[-97.1371,19.0648,2110.3621],[-97.1428,19.062,2251.1021],[-97.1558,19.0661,2351.1873],[-97.1671,19.0632,2431.9028],[-97.1698,19.0663,2482.0601],[-97.173,19.0664,2497.2437],[-97.1772,19.0639,2510.1299],[-97.1794,19.0645,2600.8013],[-97.1802,19.063,2694.2627],[-97.1868,19.0623,2945.6687],[-97.1883,19.0598,2988.4739],[-97.1929,19.0585,3157.1831],[-97.1946,19.055,3092.469],[-97.1948,19.0539,3092.469],[-97.1918,19.0531,2943.2002],[-97.1966,19.0439,3360.0896],[-97.1956,19.0413,3232.0869],[-97.1901,19.0382,3095.3877],[-97.1859,19.0387,3114.2771],[-97.1813,19.0325,3024.3447],[-97.1758,19.0294,2929.1853],[-97.176,19.0247,2890.7842],[-97.1729,19.0228,2739.5576],[-97.1706,19.0235,2683.8206],[-97.1643,19.0121,2290.8486],[-97.1577,19.011,2240.2947],[-97.1537,19.0049,2163.189],[-97.1464,19.0044,2083.6836],[-97.134,18.9989,2034.507],[-97.1325,19.0,2045.9191],[-97.1295,18.9964,1910.8577],[-97.1277,18.9965,1907.6436],[-97.1272,18.9985,1900.8566],[-97.1237,18.9967,1833.426],[-97.1229,18.9984,1776.9591],[-97.1174,18.9922,1711.6497],[-97.1109,18.989,1635.8901],[-97.1038,18.9899,1671.5065],[-97.1026,18.992,1583.4806],[-97.0987,18.9911,1555.9835],[-97.0944,18.9847,1516.8805],[-97.092,18.9838,1515.0],[-97.0912,18.9905,1664.2507],[-97.0857,18.9974,2011.4946],[-97.0768,19.0027,2091.5471],[-97.065,19.0028,1633.0623],[-97.0661,19.012,1917.3969],[-97.0721,19.0227,1700.8362],[-97.0693,19.0307,1651.2916],[-97.0654,19.029,1858.5183],[-97.0665,19.0277,1950.1373],[-97.0648,19.0241,1890.1364],[-97.0586,19.0239,2276.3013],[-97.0519,19.0254,2167.1287],[-97.043,19.0321,1628.5564],[-97.0374,19.0322,1471.0665],[-97.032,19.037,1417.4492],[-97.0282,19.0355,1385.3826],[-97.0239,19.0283,1332.318],[-97.024,19.0321,1404.663],[-97.0209,19.0353,1527.85],[-97.0222,19.0373,1504.5507],[-97.0206,19.0391,1423.8916],[-97.033,19.0494,1481.2081],[-97.006,19.0513,1379.9314],[-97.0066,19.0551,1387.2943],[-97.0121,19.0634,1423.3483],[-97.0107,19.0655,1451.8115],[-97.0132,19.065,1441.4742],[-97.0111,19.0681,1445.425],[-97.0136,19.0702,1464.774],[-97.0151,19.0689,1464.774],[-97.0179,19.0701,1493.264],[-97.0181,19.0738,1477.1548],[-97.0112,19.0765,1354.0352],[-97.0086,19.0794,1274.1501],[-97.0046,19.0742,1217.2397],[-96.9998,19.0849,1439.8875],[-97.0009,19.0884,1419.5841],[-97.0067,19.0932,1456.3971],[-97.0093,19.0926,1475.7607],[-97.0092,19.1003,1466.4805],[-97.0143,19.108,1435.436],[-97.0161,19.1076,1453.5591],[-97.0202,19.1126,1568.2124],[-97.0253,19.115,1600.6169],[-97.0231,19.1196,1682.4203],[-97.0256,19.1241,1502.4189],[-97.0314,19.1265,1573.7062],[-97.0326,19.1305,1597.3585],[-97.0381,19.1343,1661.443],[-97.042,19.1286,1680.6747],[-97.0458,19.128,1731.0239],[-97.0529,19.1323,1825.6786]]]]}
,"properties": {"GID_2": "MEX.30.58_2","GID_0": "MEX","country": "México","GID_1": "MEX.30_1","province": "Veracruz","NL_NAME_1": "NA","county": "Coscomatepec","VARNAME_2": "NA","NL_NAME_2": "NA","TYPE_2": "Município","ENGTYPE_2": "Municipality","CC_2": "NA","HASC_2": "NA","name": "Coscomatepec.county","area_km2": 158.7821,"hist_schema_id": "Elevation0-9000","hist_area_km2": {"1225": 0.1002,"1250": 0.0802,"1275": 0.1403,"1300": 0.3206,"1325": 0.3005,"1350": 0.4608,"1375": 0.7614,"1400": 1.3025,"1425": 2.585,"1450": 4.5689,"1475": 6.7931,"1500": 6.9732,"1525": 4.3682,"1550": 4.2479,"1575": 4.1277,"1600": 3.9473,"1625": 5.0293,"1650": 5.25,"1675": 4.5687,"1700": 4.3085,"1725": 3.9079,"1750": 4.0482,"1775": 3.928,"1800": 3.9081,"1825": 3.788,"1850": 3.4874,"1875": 3.6678,"1900": 3.6078,"1925": 3.9284,"1950": 4.1289,"1975": 3.7881,"2000": 3.1267,"2025": 3.0866,"2050": 3.1869,"2075": 3.1668,"2100": 2.6456,"2125": 2.786,"2150": 2.8862,"2175": 1.9642,"2200": 2.2047,"2225": 1.8239,"2250": 1.7437,"2275": 2.1044,"2300": 1.6635,"2325": 1.4831,"2350": 1.1023,"2375": 1.3628,"2400": 1.1223,"2425": 0.9219,"2450": 1.0422,"2475": 0.7415,"2500": 1.2426,"2525": 1.3027,"2550": 0.942,"2575": 1.2025,"2600": 1.4631,"2625": 1.4831,"2650": 1.0221,"2675": 0.8618,"2700": 0.7215,"2725": 0.4409,"2750": 0.5612,"2775": 0.3608,"2800": 0.461,"2825": 0.4209,"2850": 0.3608,"2875": 0.3006,"2900": 0.3207,"2925": 0.2405,"2950": 0.1603,"2975": 0.2806,"3000": 0.2004,"3025": 0.2205,"3050": 0.1403,"3075": 0.1002,"3100": 0.2405,"3125": 0.2205,"3150": 0.1002,"3175": 0.2004,"3200": 0.0802,"3225": 0.1002,"3250": 0.0601,"3275": 0.0601,"3300": 0.1002,"3325": 0.1203,"3350": 0.1002}}}