{"type": "Feature","bbox": [-101.748,20.6874,-101.4526,20.9443],"geometry": {"type": "MultiPolygon","coordinates": [[[[-101.5271,20.7491,1803.0422],[-101.5107,20.7594,1736.6914],[-101.5082,20.7597,1736.0222],[-101.5055,20.7705,1734.6443],[-101.4955,20.7795,1735.1805],[-101.4861,20.781,1735.8462],[-101.486,20.784,1736.7415],[-101.4788,20.7843,1737.6104],[-101.4786,20.786,1736.8802],[-101.4526,20.7945,1737.7195],[-101.4601,20.8059,1740.0957],[-101.4601,20.8114,1740.3844],[-101.464,20.8218,1743.0842],[-101.4599,20.8475,1748.8461],[-101.5044,20.8514,1745.1769],[-101.5016,20.8599,1747.5083],[-101.5043,20.8619,1748.202],[-101.5077,20.8619,1747.657],[-101.5085,20.867,1749.3333],[-101.4979,20.8669,1749.624],[-101.4977,20.891,1756.5295],[-101.4995,20.8911,1756.5597],[-101.5002,20.9093,1763.8752],[-101.5015,20.9094,1763.7924],[-101.5015,20.9117,1764.3344],[-101.5077,20.9122,1771.5872],[-101.5077,20.9135,1771.5872],[-101.5,20.913,1763.9327],[-101.4988,20.916,1764.0331],[-101.5196,20.9178,1788.718],[-101.5206,20.9331,1877.1318],[-101.5192,20.9392,1903.1885],[-101.5613,20.9443,1851.2083],[-101.5675,20.9052,1893.6666],[-101.5862,20.9083,1782.5151],[-101.5803,20.9219,1801.528],[-101.5895,20.9242,1808.66],[-101.5887,20.9385,1784.1824],[-101.5937,20.9377,1803.6321],[-101.5923,20.9378,1803.6321],[-101.5951,20.9254,1815.8442],[-101.6414,20.9291,1764.7427],[-101.6466,20.8915,1758.5638],[-101.6641,20.8984,1759.2469],[-101.6701,20.8908,1759.3723],[-101.6651,20.885,1760.8469],[-101.6652,20.8821,1762.1041],[-101.6694,20.8825,1783.3101],[-101.6691,20.8862,1775.4502],[-101.6758,20.8847,1788.5369],[-101.6894,20.8646,1831.3555],[-101.6915,20.8651,1821.7719],[-101.696,20.875,1826.9156],[-101.6885,20.893,1789.1497],[-101.697,20.894,1807.9636],[-101.7087,20.8106,1774.9291],[-101.7033,20.81,1765.0391],[-101.7047,20.8042,1761.1672],[-101.7172,20.8028,1796.9697],[-101.7194,20.7981,1814.9791],[-101.7232,20.7956,1842.6899],[-101.7406,20.7931,2049.9648],[-101.7412,20.7897,2015.5588],[-101.748,20.7842,2033.1616],[-101.7475,20.7824,2075.4302],[-101.7442,20.7816,2045.9025],[-101.7425,20.7794,2024.4587],[-101.7326,20.779,1895.6858],[-101.7312,20.7838,1903.7808],[-101.7288,20.7861,1875.9534],[-101.7238,20.7846,1826.1246],[-101.7187,20.787,1784.6042],[-101.7187,20.7884,1781.7319],[-101.712,20.7883,1768.2675],[-101.7115,20.7851,1765.7087],[-101.6941,20.784,1751.9061],[-101.6878,20.7892,1750.8999],[-101.6826,20.7893,1750.0917],[-101.6822,20.782,1750.854],[-101.6781,20.7709,1752.6306],[-101.6885,20.7687,1824.73],[-101.6888,20.7524,1806.6663],[-101.6944,20.749,1786.1002],[-101.6937,20.7474,1783.3875],[-101.6966,20.743,1783.3265],[-101.6938,20.7386,1762.2062],[-101.6977,20.7361,1756.5614],[-101.6968,20.7327,1734.3573],[-101.6986,20.7325,1734.3573],[-101.7015,20.7277,1707.6003],[-101.7002,20.7279,1707.0708],[-101.7001,20.7249,1704.1207],[-101.6981,20.7231,1704.6755],[-101.6993,20.7214,1704.923],[-101.6933,20.7175,1704.8037],[-101.6951,20.7151,1704.7596],[-101.6907,20.7099,1704.1178],[-101.691,20.698,1703.4772],[-101.6895,20.6938,1704.7036],[-101.677,20.6912,1700.7112],[-101.6668,20.6903,1700.0481],[-101.6643,20.6922,1699.7928],[-101.6611,20.6901,1699.3982],[-101.6557,20.6915,1699.6646],[-101.6465,20.6874,1698.7261],[-101.6441,20.6912,1698.3926],[-101.6372,20.6946,1698.2184],[-101.6356,20.7101,1735.365],[-101.626,20.7094,1712.8413],[-101.6269,20.7132,1718.9348],[-101.6236,20.7212,1726.2601],[-101.6278,20.7227,1739.7578],[-101.6376,20.7226,1733.1946],[-101.6386,20.7313,1736.2043],[-101.6452,20.7435,1787.8961],[-101.6448,20.7476,1810.1099],[-101.6411,20.75,1806.4333],[-101.6391,20.7571,1818.5575],[-101.6338,20.762,1799.9114],[-101.6022,20.7765,1856.1829],[-101.5945,20.7745,1875.1831],[-101.587,20.7637,1878.6935],[-101.593,20.7618,1873.0087],[-101.5893,20.7547,1865.8956],[-101.5705,20.7538,1889.4508],[-101.567,20.7408,1910.2612],[-101.5573,20.7428,1908.4675],[-101.5575,20.7599,1829.974],[-101.5271,20.7491,1803.0422]]]]}
,"properties": {"GID_2": "MEX.11.25_2","GID_0": "MEX","country": "México","GID_1": "MEX.11_1","province": "Guanajuato","NL_NAME_1": "NA","county": "Romita","VARNAME_2": "NA","NL_NAME_2": "NA","TYPE_2": "Município","ENGTYPE_2": "Municipality","CC_2": "NA","HASC_2": "NA","name": "Romita.county","area_km2": 441.6407,"hist_schema_id": "Elevation0-9000","hist_area_km2": {"1700": 8.2902,"1725": 24.9786,"1750": 211.0262,"1775": 85.2638,"1800": 48.8242,"1825": 29.5454,"1850": 15.1212,"1875": 11.4158,"1900": 5.2723,"1925": 0.4559,"1950": 0.218,"1975": 0.2577,"2000": 0.2379,"2025": 0.1388,"2050": 0.2775,"2075": 0.2577,"2100": 0.0595}}}