{"type":"Feature","properties":{"GID_2":"MEX.14.66_2","GID_0":"MEX","country":"México","GID_1":"MEX.14_1","province":"Jalisco","NL_NAME_1":"NA","county":"Poncitlán","VARNAME_2":"NA","NL_NAME_2":"NA","TYPE_2":"Município","ENGTYPE_2":"Municipality","CC_2":"NA","HASC_2":"NA","name":"Poncitlán.county"},
"geometry":{"type": "MultiPolygon","coordinates": [[[[-103.0365,20.1814,1522.0548],[-103.0368,20.1771,1523.6982],[-103.0251,20.1645,1522.3119],[-103.0198,20.1622,1522.6836],[-103.0137,20.1651,1524.5039],[-103.0034,20.1645,1524.5056],[-102.9976,20.167,1524.9288],[-102.9975,20.1697,1522.1921],[-102.9721,20.1734,1539.8002],[-102.952,20.1704,1553.3445],[-102.9384,20.1714,1525.1071],[-102.9303,20.167,1522.2241],[-102.9213,20.1647,1524.9153],[-102.9078,20.1621,1519.2627],[-102.9018,20.1644,1519.5122],[-102.8946,20.1642,1519.4753],[-102.8869,20.1588,1519.8215],[-102.8815,20.1601,1522.5752],[-102.8755,20.1576,1520.9337],[-102.866,20.1624,1519.9497],[-102.8625,20.1544,1519.9436],[-102.8523,20.1492,1523.896],[-102.8529,20.1478,1522.2292],[-102.8557,20.1478,1525.4336],[-102.857,20.1443,1523.5164],[-102.855,20.1367,1524.1312],[-102.8501,20.1319,1523.9862],[-102.8461,20.1308,1522.1392],[-102.8454,20.1233,1526.3014],[-102.8407,20.1161,1524.1729],[-102.8375,20.1135,1525.7209],[-102.8352,20.1166,1520.2554],[-102.8243,20.108,1519.3628],[-102.8163,20.106,1519.9675],[-102.8073,20.1127,1523.6802],[-102.8019,20.123,1519.0],[-102.8074,20.1332,1538.2791],[-102.8193,20.1372,1519.0],[-102.8081,20.141,1519.0],[-102.7988,20.1418,1525.1132],[-102.792,20.1416,1528.6365],[-102.7894,20.1384,1524.3118],[-102.7847,20.1376,1525.6049],[-102.7761,20.1384,1541.8491],[-102.7744,20.1397,1524.2161],[-102.7762,20.1419,1520.2605],[-102.7671,20.1487,1521.2534],[-102.7572,20.1534,1522.041],[-102.7525,20.1486,1524.1428],[-102.7488,20.153,1523.4615],[-102.7433,20.1549,1523.0936],[-102.7302,20.1666,1522.6371],[-102.7253,20.1653,1522.2502],[-102.7089,20.1683,1522.8722],[-102.6897,20.166,1522.9717],[-102.6797,20.1715,1522.5439],[-102.6789,20.1851,1523.0189],[-102.6821,20.1909,1523.0785],[-102.6844,20.2122,1522.4486],[-102.6955,20.2141,1521.9403],[-102.7044,20.2101,1522.5332],[-102.712,20.2134,1519.3093],[-102.7273,20.2135,1519.8755],[-102.7295,20.2152,1521.3025],[-102.7296,20.2137,1519.248],[-102.7374,20.2145,1520.1237],[-102.7481,20.2115,1519.5022],[-102.7484,20.2168,1521.731],[-102.7468,20.2169,1521.7758],[-102.7498,20.2212,1521.468],[-102.7432,20.2249,1521.1449],[-102.747,20.2299,1519.0],[-102.7356,20.2909,1519.0],[-102.7644,20.2944,1521.6958],[-102.7669,20.296,1519.0],[-102.7657,20.298,1534.5768],[-102.7669,20.2964,1519.0],[-102.7734,20.3023,1519.0],[-102.7832,20.3195,1522.1816],[-102.7867,20.3224,1520.8833],[-102.7846,20.3285,1521.5096],[-102.7849,20.3353,1522.6168],[-102.7782,20.3418,1525.1602],[-102.7793,20.3472,1524.9114],[-102.786,20.3557,1523.1206],[-102.7879,20.3651,1523.2822],[-102.796,20.3736,1523.0928],[-102.8091,20.382,1523.7706],[-102.822,20.3871,1526.298],[-102.8348,20.3884,1523.283],[-102.8462,20.3931,1522.8759],[-102.8612,20.3874,1522.4606],[-102.8792,20.3871,1524.0819],[-102.8852,20.3823,1522.2128],[-102.9073,20.3813,1523.646],[-102.9259,20.3859,1521.8413],[-102.9328,20.3858,1521.5974],[-102.9364,20.3876,1521.4955],[-102.9375,20.3919,1521.4474],[-102.9407,20.3953,1521.5803],[-102.9469,20.3954,1521.6924],[-102.9528,20.4019,1521.8542],[-102.9675,20.403199999999998,1521.7856],[-102.979,20.4013,1521.077],[-102.9908,20.4018,1520.5443],[-103.0033,20.407,1521.9467],[-103.0189,20.4193,1520.594],[-103.0259,20.4223,1521.799],[-103.0293,20.4212,1522.4646],[-103.0345,20.4156,1522.0487],[-103.0326,20.4091,1520.4302],[-103.0341,20.407,1520.9453],[-103.044,20.4105,1521.321],[-103.0469,20.4101,1520.9299],[-103.0592,20.4057,1521.1807],[-103.0843,20.4002,1522.83],[-103.083,20.3999,1527.0035],[-103.0823,20.3963,1556.4429],[-103.0923,20.3951,1568.9891],[-103.0887,20.3878,1755.1625],[-103.0668,20.3792,2040.4902],[-103.0633,20.3764,1916.6652],[-103.0637,20.3728,1881.1588],[-103.0662,20.3713,1863.8087],[-103.072,20.3615,1755.9108],[-103.0782,20.3597,1714.7311],[-103.087,20.3599,1674.0239],[-103.0883,20.3537,1655.9255],[-103.0978,20.3495,1648.6885],[-103.0979,20.3471,1640.9254],[-103.1026,20.3496,1641.7333],[-103.1066,20.3475,1677.812],[-103.1157,20.3306,1549.7319],[-103.1126,20.3213,1529.0851],[-103.1045,20.3252,1522.2782],[-103.1025,20.3247,1522.4248],[-103.1015,20.3223,1524.0166],[-103.0978,20.325,1519.0],[-103.0938,20.3243,1519.0],[-103.0936,20.3267,1524.9817],[-103.091,20.3261,1521.0654],[-103.09,20.3307,1541.0317],[-103.0825,20.3309,1522.3374],[-103.0805,20.3352,1527.2865],[-103.0783,20.3336,1519.0],[-103.0745,20.3347,1524.7195],[-103.0725,20.3319,1519.0],[-103.0648,20.3327,1532.7351],[-103.0644,20.3311,1522.6848],[-103.0587,20.3338,1543.0942],[-103.0594,20.3304,1519.0],[-103.0552,20.3295,1528.4059],[-103.0513,20.3301,1519.0],[-103.0506,20.3332,1520.3727],[-103.0419,20.3322,1547.7777],[-103.0369,20.3352,1524.3121],[-103.0339,20.3341,1521.8867],[-103.0254,20.2904,1529.9557],[-103.0229,20.2868,1519.0],[-103.0365,20.1814,1522.0548]]]]}}