{"type":"Feature","properties":{"GID_2":"MEX.11.10_2","GID_0":"MEX","country":"México","GID_1":"MEX.11_1","province":"Guanajuato","NL_NAME_1":"NA","county":"Cuerámaro","VARNAME_2":"NA","NL_NAME_2":"NA","TYPE_2":"Município","ENGTYPE_2":"Municipality","CC_2":"NA","HASC_2":"NA","name":"Cuerámaro.county"},
"geometry":{"type": "MultiPolygon","coordinates": [[[[-101.6372,20.6946,1698.2184],[-101.6441,20.6912,1698.3926],[-101.6465,20.6874,1698.7261],[-101.6557,20.6915,1699.6646],[-101.662,20.6901,1700.7369],[-101.6647,20.6921,1699.7928],[-101.6672,20.6903,1700.0481],[-101.6888,20.6936,1703.7844],[-101.6932,20.697,1703.7721],[-101.6936,20.7005,1704.6409],[-101.7078,20.7015,1717.4341],[-101.7089,20.7036,1732.6294],[-101.7198,20.702,1743.0969],[-101.7226,20.6997,1759.0364],[-101.7229,20.6968,1738.2065],[-101.7276,20.6947,1742.307],[-101.7267,20.6936,1750.6394],[-101.7289,20.6917,1773.2441],[-101.736,20.6953,1812.4712],[-101.7424,20.6891,1838.175],[-101.7339,20.6874,1781.1281],[-101.7318,20.6833,1816.0482],[-101.7331,20.679,1850.3193],[-101.7399,20.6723,1852.5779],[-101.7395,20.6701,1844.0397],[-101.742,20.6689,1858.428],[-101.7427,20.6642,1854.9587],[-101.7439,20.6639,1854.9587],[-101.7436,20.6757,1951.793],[-101.7535,20.6646,1877.8683],[-101.75,20.658,1978.7468],[-101.7562,20.658,1913.3374],[-101.7564,20.656,1927.8073],[-101.7589,20.6552,1928.0299],[-101.7572,20.6487,1938.2506],[-101.7604,20.6405,1945.3625],[-101.7754,20.639,2058.4868],[-101.7769,20.6372,2145.9673],[-101.7751,20.6348,2253.582],[-101.7622,20.6324,2001.493],[-101.7622,20.6294,2048.4658],[-101.7674,20.628,2094.6289],[-101.7673,20.624,2192.5662],[-101.7711,20.6247,2259.9954],[-101.7762,20.6227,2261.0566],[-101.7707,20.6173,2250.3406],[-101.7664,20.6192,2246.4121],[-101.7562,20.6054,2232.0513],[-101.7486,20.6067,2190.8289],[-101.7432,20.6033,2160.8291],[-101.7417,20.6053,2130.4346],[-101.7414,20.6018,2155.0227],[-101.7361,20.6013,2096.0508],[-101.718,20.6082,1979.2397],[-101.7179,20.6031,1992.1359],[-101.7152,20.604,1853.6367],[-101.7121,20.5947,1842.0082],[-101.7125,20.5891,1964.3922],[-101.7078,20.5844,2038.5408],[-101.7094,20.5771,2076.7114],[-101.7169,20.572,2071.2622],[-101.7114,20.5684,2131.6406],[-101.7112,20.5643,2045.1157],[-101.7439,20.5638,2101.229],[-101.7422,20.5555,2266.2913],[-101.7239,20.5539,2257.4727],[-101.722,20.547,2294.5344],[-101.7223,20.5382,2154.6379],[-101.6898,20.5361,2018.1567],[-101.6696,20.5366,2131.0713],[-101.6695,20.5402,1991.5945],[-101.664,20.5456,1867.4812],[-101.6637,20.5477,1844.1254],[-101.6608,20.5474,1828.584],[-101.6599,20.5505,1961.9038],[-101.6522,20.5529,1761.7485],[-101.6342,20.5477,1738.5225],[-101.6352,20.5284,1778.467],[-101.6049,20.527,1690.8662],[-101.593,20.5321,1690.4414],[-101.5909,20.5346,1690.1683],[-101.5899,20.5335,1690.4309],[-101.5855,20.5354,1689.9141],[-101.5871,20.5412,1688.8724],[-101.5848,20.5461,1689.161],[-101.5867,20.548,1689.1294],[-101.5889,20.5465,1689.0165],[-101.5904,20.5502,1689.6421],[-101.589,20.5522,1689.5588],[-101.59,20.5565,1689.3022],[-101.5879,20.5553,1689.6727],[-101.5882,20.5577,1689.4888],[-101.5864,20.5583,1689.8892],[-101.5874,20.5596,1689.7313],[-101.5892,20.5587,1689.4888],[-101.5913,20.5625,1689.603],[-101.5937,20.5626,1688.5692],[-101.5954,20.5656,1689.2644],[-101.5952,20.5698,1688.1504],[-101.5937,20.5701,1688.8854],[-101.5946,20.573,1688.5726],[-101.5924,20.5752,1688.3627],[-101.5921,20.5794,1688.7003],[-101.5901,20.5778,1688.6415],[-101.5877,20.5782,1688.135],[-101.5865,20.5808,1688.2722],[-101.5842,20.5803,1688.7871],[-101.5791,20.5831,1689.33],[-101.5835,20.590699999999998,1688.4236],[-101.5815,20.595,1688.7397],[-101.5824,20.5994,1689.5205],[-101.5805,20.602,1689.6548],[-101.5816,20.6057,1691.6018],[-101.5796,20.6107,1692.6272],[-101.5776,20.6118,1691.4036],[-101.5787,20.6164,1692.6956],[-101.5778,20.6195,1692.1],[-101.5809,20.6217,1692.0662],[-101.5825,20.6213,1691.9268],[-101.5837,20.6237,1692.1844],[-101.5852,20.6229,1692.1844],[-101.5866,20.6249,1692.0706],[-101.5893,20.6252,1692.5503],[-101.5904,20.6299,1693.6338],[-101.5874,20.6351,1693.922],[-101.5865,20.6303,1694.0305],[-101.5847,20.63,1694.0845],[-101.5835,20.6332,1693.5732],[-101.5804,20.6328,1695.3055],[-101.5801,20.6387,1703.5869],[-101.5861,20.6397,1695.3505],[-101.5905,20.6424,1695.3516],[-101.5923,20.6479,1696.478],[-101.5992,20.6544,1695.6266],[-101.6022,20.6536,1696.3693],[-101.6088,20.6587,1696.1542],[-101.6103,20.6552,1696.2087],[-101.6126,20.6577,1696.8826],[-101.6176,20.6564,1696.4307],[-101.6216,20.6608,1696.8999],[-101.6184,20.6643,1698.1771],[-101.6209,20.6674,1697.5181],[-101.6203,20.6708,1697.2091],[-101.6239,20.6724,1696.7484],[-101.6231,20.6781,1696.7823],[-101.6292,20.6822,1697.6514],[-101.6308,20.6854,1698.4807],[-101.6366,20.687,1698.63],[-101.6353,20.6904,1698.2784],[-101.6372,20.6946,1698.2184]]]]}}