{"type": "Feature","bbox": [-97.2267,16.8482,-97.0658,16.9953],"geometry": {"type": "MultiPolygon","coordinates": [[[[-97.0767,16.8685,2690.3992],[-97.0817,16.8879,2471.7832],[-97.0891,16.8985,2775.4443],[-97.0893,16.9063,2824.0034],[-97.0931,16.9187,2896.6714],[-97.0928,16.9204,2878.5427],[-97.0883,16.9227,2805.575],[-97.0877,16.9293,2744.8721],[-97.0832,16.9343,2653.094],[-97.079,16.9344,2565.3149],[-97.0756,16.9385,2592.3228],[-97.0726,16.9381,2499.8171],[-97.0689,16.9401,2512.4712],[-97.0711,16.9436,2421.0046],[-97.0718,16.9534,2291.1804],[-97.0686,16.9597,2027.0092],[-97.0701,16.9658,1849.6248],[-97.0661,16.9718,1969.8898],[-97.0658,16.9763,2122.209],[-97.0694,16.9765,2206.5308],[-97.0715,16.9793,2213.2419],[-97.0784,16.9805,2053.9509],[-97.0915,16.9874,1997.1101],[-97.1045,16.9883,1997.5869],[-97.1145,16.9922,1982.822],[-97.131,16.9953,1992.442],[-97.1384,16.9923,1884.2345],[-97.1474,16.9913,1627.2727],[-97.1446,16.9883,1630.7072],[-97.145,16.9856,1631.4009],[-97.1686,16.9798,2208.2322],[-97.1966,16.9767,1728.7455],[-97.1956,16.9603,1682.499],[-97.2088,16.9187,1966.2429],[-97.2071,16.8984,1894.7761],[-97.2139,16.8728,1570.3879],[-97.2179,16.8676,1428.3391],[-97.222,16.868,1412.9359],[-97.2222,16.8567,1704.9243],[-97.2267,16.854,1715.7654],[-97.222,16.8491,1792.0858],[-97.211,16.8585,1472.861],[-97.2102,16.8556,1427.3978],[-97.2085,16.856,1414.7373],[-97.2087,16.8577,1412.7012],[-97.2061,16.8589,1437.8303],[-97.2082,16.8613,1432.4706],[-97.2067,16.8629,1566.2321],[-97.203,16.858,1601.2795],[-97.1962,16.8553,1558.1045],[-97.1904,16.8541,1628.7889],[-97.1787,16.8551,1533.6552],[-97.1684,16.8519,1597.7197],[-97.1683,16.8482,1480.9933],[-97.16,16.8485,1513.0826],[-97.1576,16.8529,1577.5848],[-97.1461,16.8529,1630.9377],[-97.1429,16.8559,1879.453],[-97.0767,16.8685,2690.3992]]]]}
,"properties": {"GID_2": "MEX.20.110_2","GID_0": "MEX","country": "México","GID_1": "MEX.20_1","province": "Oaxaca","NL_NAME_1": "NA","county": "SanAntonioHuitepec","VARNAME_2": "NA","NL_NAME_2": "NA","TYPE_2": "Município","ENGTYPE_2": "Municipality","CC_2": "NA","HASC_2": "NA","name": "San_Antonio_Huitepec.county","area_km2": 192.0722,"hist_schema_id": "Elevation0-9000","hist_area_km2": {"1400": 0.2232,"1425": 0.2232,"1450": 0.2232,"1475": 0.2029,"1500": 0.2029,"1525": 0.2841,"1550": 0.629,"1575": 0.6696,"1600": 0.9739,"1625": 1.2781,"1650": 2.7183,"1675": 2.7789,"1700": 3.631,"1725": 4.0365,"1750": 4.6248,"1775": 5.6793,"1800": 5.1925,"1825": 5.7604,"1850": 6.0038,"1875": 6.1459,"1900": 7.708,"1925": 7.7891,"1950": 7.282,"1975": 7.5254,"2000": 6.5315,"2025": 6.7952,"2050": 6.6939,"2075": 7.0589,"2100": 7.5052,"2125": 6.349,"2150": 7.5255,"2175": 6.2274,"2200": 5.4362,"2225": 5.558,"2250": 4.8479,"2275": 4.1989,"2300": 4.1786,"2325": 3.7527,"2350": 3.2455,"2375": 2.5761,"2400": 3.1035,"2425": 2.0893,"2450": 2.4747,"2475": 1.7444,"2500": 1.7242,"2525": 1.4808,"2550": 1.4199,"2575": 1.0953,"2600": 0.852,"2625": 1.0751,"2650": 0.7708,"2675": 0.9533,"2700": 0.71,"2725": 0.4868,"2750": 0.4665,"2775": 0.3651,"2800": 0.4665,"2825": 0.1826,"2850": 0.0811,"2875": 0.0406,"2900": 0.0811,"2925": 0.1217,"2950": 0.0203}}}