{"type":"Feature","properties":{"featurecla":"River","scalerank":10,"rivernum":22299,"dissolve":"22299River","name":"El Santiago","name_alt":null,"note":"ID is link back to CEC data","name_full":"Rio El Santiago","min_zoom":6.0,"strokeweig":0.15,"uident":2014101,"min_label":7.0},
"geometry":{"type": "LineString","coordinates": [[-105.19554602772872,24.492458400514863,2117.2393],[-105.1900935537704,24.473822332806535,2047.902],[-105.1732478506454,24.449977931764863,2062.7456],[-105.1698298818954,24.438503322389863,2123.8921],[-105.18565833241622,24.411647853639863,2190.8435],[-105.2015681631454,24.409979559369035,2292.4583],[-105.19920813710372,24.377224025514863,2180.4707],[-105.1949763662704,24.367377020306535,2184.0667],[-105.18895423085372,24.358506577598206,2217.751],[-105.17027747304122,24.345038153119035,2255.4668],[-105.16340084543707,24.335720119264863,2248.6084],[-105.16291256418707,24.315537827598206,2287.8848],[-105.1622615225204,24.291937567181535,2400.0901],[-105.17113196522872,24.274359442181535,2406.5637],[-105.18541419179122,24.264268296348206,2416.2683],[-105.2042537100204,24.265326239056535,2296.7686],[-105.19147701731207,24.225449936973206,2351.9004],[-105.17463131418707,24.204169012494035,2307.4678],[-105.17735755116622,24.195013739056535,2335.2144],[-105.17609615793707,24.181911525514863,2369.3457],[-105.1703181631454,24.167588608848206,2429.9697],[-105.1422419912704,24.130072332806535,2482.5513]]}}