{"type":"Feature","properties":{"featurecla":"River","scalerank":10,"rivernum":22299,"dissolve":"22299River","name":"El Santiago","name_alt":null,"note":"ID is link back to CEC data","name_full":"Rio El Santiago","min_zoom":6.0,"strokeweig":0.2,"uident":2014101,"min_label":7.0},
"geometry":{"type": "LineString","coordinates": [[-105.4527888662704,25.178819077598206,1760.6018],[-105.44823157460372,25.167914129681535,1677.5479],[-105.44066321522872,25.096462306764863,1723.3101],[-105.42027747304122,25.036240952598206,1736.9285],[-105.4007869131454,24.998073634889863,1762.9089],[-105.39329993397872,24.966498114056535,1807.2986],[-105.3812556631454,24.952826239056535,1760.819],[-105.38121497304122,24.926581121869035,1840.1655],[-105.3749080068954,24.907822983848206,1814.589],[-105.36974036366622,24.883734442181535,1808.0808],[-105.35114498606205,24.849636134889863,1811.7334],[-105.33678137929122,24.838690496869035,1813.361],[-105.32774817616622,24.826727606244035,1824.2559],[-105.32445227772872,24.815619207806535,1888.0681],[-105.33625240793705,24.793768621869035,1912.998],[-105.33869381418705,24.779160874473206,1895.0879],[-105.3363337881454,24.765000718223206,1966.9297],[-105.31200110585372,24.722479559369035,1939.0422],[-105.30231686106207,24.710150457806535,2071.9688],[-105.2877498037704,24.652411199994035,1938.188],[-105.27708899647872,24.633368231244035,1973.4651],[-105.26988684804122,24.622748114056535,2065.1577],[-105.25812740793707,24.586696681764863,2089.8184],[-105.2230525381454,24.529486395306535,2028.687],[-105.2164607412704,24.524766343223206,2035.6199],[-105.2062068350204,24.528672593223206,2052.114],[-105.19554602772872,24.492458400514863,2117.2393]]}}