{"type":"Feature","properties":{"featurecla":"River","scalerank":11,"rivernum":22295,"dissolve":"22295River","name":"Pixtla","name_alt":null,"note":"ID is link back to CEC data","name_full":"Rio Pixtla","min_zoom":6.7,"strokeweig":0.15,"uident":2015401,"min_label":7.7},
"geometry":{"type": "LineString","coordinates": [[-105.7130427725204,24.207831121869035,1251.4147],[-105.6947322256454,24.205593166139863,1614.8379],[-105.69456946522872,24.214951890098206,1557.3267],[-105.69977779856205,24.230292059369035,1384.3583],[-105.70567786366622,24.246527410931535,2056.9341],[-105.70783443918705,24.262152410931535,1646.1395],[-105.71605384022872,24.271307684369035,2352.0962],[-105.7267146475204,24.272324936973206,2261.7698],[-105.73155676991622,24.272813218223206,2127.0532],[-105.7486873037704,24.280218817181535,2172.8296],[-105.75169837147872,24.288885809369035,2325.9438],[-105.75202389231205,24.289740301556535,2325.9438],[-105.75328528554122,24.293280340619035,2403.3103],[-105.7584529287704,24.323513088014863,2461.0842],[-105.7572322256454,24.343939520306535,2300.958],[-105.75389563710372,24.362127996869035,2531.916],[-105.72252356679122,24.378037827598206,2431.1846],[-105.69684811106205,24.404486395306535,2519.9812],[-105.64110266835372,24.415838934369035,2607.606]]}}