{"type":"Feature","properties":{"featurecla":"River","scalerank":10,"rivernum":22297,"dissolve":"22297River","name":"El Yerbanis","name_alt":null,"note":"ID is link back to CEC data","name_full":"Arroyo El Yerbanis","min_zoom":6.0,"strokeweig":0.2,"uident":2014501,"min_label":7.0},
"geometry":{"type": "LineString","coordinates": [[-104.81566321522872,24.546250718223206,2004.5262],[-104.79015051991622,24.527899481244035,1962.7725],[-104.75841223866622,24.519232489056535,1948.8081],[-104.74693762929122,24.513454494264863,1944.9784],[-104.74006100168707,24.504909572389863,1942.2664],[-104.7208552725204,24.429877020306535,1925.9666],[-104.7198787100204,24.410345770306535,1922.6467],[-104.72581946522872,24.389715887494035,1920.9238],[-104.71686764231207,24.375677801556535,1918.8616],[-104.72105872304122,24.357448634889863,1917.2686],[-104.72956295481207,24.345648504681535,1915.1653],[-104.73688717356207,24.331081447389863,1913.3256],[-104.7245173818954,24.320908921348206,1912.1029],[-104.72077389231207,24.307155666139863,1912.3975],[-104.71491451731207,24.243516343223206,1897.5527],[-104.69050045481207,24.208075262494035,1896.8572],[-104.64452063710372,24.212266343223206,1889.1643],[-104.62950598866622,24.209092515098206,1879.3822],[-104.62140865793707,24.199164129681535,1878.0155],[-104.61701412668707,24.163885809369035,1868.4758],[-104.58747311106207,24.139227606244035,1864.7386],[-104.56175696522872,24.107692775514863,1861.4639],[-104.53148352772872,24.105332749473206,1859.1003],[-104.4872126943954,24.111761785931535,1857.3842],[-104.47345943918707,24.106756903119035,1857.2279],[-104.45832272043707,24.094753322389863,1856.9603],[-104.42601477772872,24.055283921348206,1962.7122]]}}