{"type":"Feature","properties":{"featurecla":"River","scalerank":12,"rivernum":22306,"dissolve":"22306River","name":"San Gregorio","name_alt":null,"note":"ID is link back to CEC data","name_full":"Rio San Gregorio","min_zoom":7.0,"strokeweig":0.15,"uident":2010901,"min_label":8.0},
"geometry":{"type": "LineString","coordinates": [[-106.1180720693954,24.948350327598206,2008.5825],[-106.0997615225204,24.965602931764863,1986.4363],[-106.08360755116622,24.993963934369035,1821.908],[-106.0643611318954,25.003363348431535,2468.4897],[-106.03888912668705,25.032294012494035,2523.3572],[-106.02586829335372,25.041530666139863,2287.9653],[-106.00890051991622,25.045111395306535,2320.0828],[-105.9855037100204,25.038845119264863,2419.0391],[-105.96198482981205,25.035996811973206,2479.5652],[-105.94102942616622,25.046087957806535,2468.7993],[-105.91087805897872,25.047145900514863,2506.2163],[-105.89293372304122,25.056097723431535,2549.5688],[-105.87828528554122,25.059759832806535,2553.415],[-105.8512263662704,25.060573634889863,2614.3223],[-105.82603919179122,25.084743556764863,2675.564]]}}