{"type":"Feature","properties":{"featurecla":"River","scalerank":12,"rivernum":22305,"dissolve":"22305River","name":"Santa Ana","name_alt":null,"note":"ID is link back to CEC data","name_full":"Santa Ana","min_zoom":7.0,"strokeweig":0.15,"uident":2012201,"min_label":8.0},
"geometry":{"type": "LineString","coordinates": [[-104.26793372304122,24.705877996869035,2344.0308],[-104.23289954335372,24.708766994264863,2314.5464],[-104.21369381418707,24.701768296348206,2279.449],[-104.15355384022872,24.701931056764863,2161.5303],[-104.13951575429122,24.726914780723206,2059.9712],[-104.1017146475204,24.741807358848206,1886.6039],[-104.07469641835372,24.758408921348206,1815.7644],[-104.04401607981207,24.797145900514863,1757.7867],[-104.0399470693954,24.808905340619035,1703.2522],[-104.0448298818954,24.849880275514863,1647.9364]]}}