{"type":"Feature","properties":{"featurecla":"River","scalerank":12,"rivernum":22301,"dissolve":"22301River","name":"San Juan","name_alt":null,"note":"ID is link back to CEC data","name_full":"San Juan","min_zoom":7.0,"strokeweig":0.2,"uident":2013701,"min_label":8.0},
"geometry":{"type": "LineString","coordinates": [[-104.0448298818954,24.849880275514863,1647.9364],[-104.0331111318954,24.833441473431535,1646.3115],[-104.0133357412704,24.809434311973206,1685.3223],[-103.99640865793707,24.784979559369035,1712.847],[-103.9796443350204,24.756862697389863,1750.2037],[-103.97667395741622,24.749782619264863,1753.4879],[-103.93976803293707,24.657782293744035,1845.7373],[-103.9383845693954,24.632350978639863,1873.8735],[-103.9403376943954,24.609320379681535,1894.3282],[-103.96320553293707,24.557074285931535,1917.354],[-103.97264563710372,24.525702215619035,1948.9144],[-103.96922766835372,24.515082098431535,1946.9858],[-103.95978756418707,24.501776434369035,1944.3351],[-103.94880123606207,24.493516343223206,1956.6167]]}}