{"type": "Feature","bbox": [-97.9224,20.5729,-97.6934,20.84],"geometry": {"type": "MultiPolygon","coordinates": [[[[-97.8948,20.7978,148.9172],[-97.9037,20.775,181.7971],[-97.9224,20.7165,306.9733],[-97.8974,20.7032,113.673],[-97.8975,20.7006,114.727],[-97.9019,20.6977,114.9596],[-97.9063,20.6907,119.4834],[-97.9137,20.6892,122.9866],[-97.9132,20.6841,127.2066],[-97.9159,20.6811,132.6594],[-97.9178,20.6712,141.692],[-97.9082,20.671,145.803],[-97.9048,20.6733,143.3511],[-97.8962,20.6724,153.5488],[-97.8944,20.6743,136.2913],[-97.8871,20.6749,122.4279],[-97.8891,20.6714,122.4057],[-97.8855,20.662,128.2697],[-97.8858,20.6581,122.6691],[-97.8837,20.6564,128.3282],[-97.8784,20.6423,131.5262],[-97.8758,20.639,130.6526],[-97.8804,20.6239,140.2937],[-97.8753,20.6224,132.3961],[-97.8738,20.618,135.4804],[-97.8751,20.615,137.2329],[-97.8708,20.6128,139.2915],[-97.869,20.6089,139.9451],[-97.8667,20.608,140.9225],[-97.8653,20.5982,145.5347],[-97.8613,20.5988,150.49],[-97.8608,20.601,150.6697],[-97.8489,20.6075,152.5071],[-97.8428,20.6056,159.3105],[-97.8343,20.6073,208.2227],[-97.8342,20.6109,204.7298],[-97.8279,20.6063,174.1432],[-97.8266,20.6095,168.4128],[-97.8195,20.6052,221.2012],[-97.8165,20.5981,346.6743],[-97.8085,20.6037,345.1178],[-97.7945,20.6043,397.3954],[-97.7897,20.6018,357.9563],[-97.7826,20.5837,373.1479],[-97.7812,20.5835,373.1479],[-97.7687,20.5945,193.1842],[-97.7653,20.5923,192.3806],[-97.7606,20.5925,188.6235],[-97.7568,20.5943,173.4567],[-97.7551,20.5969,165.8998],[-97.7525,20.5965,163.4313],[-97.7527,20.5978,162.4289],[-97.7492,20.5976,157.7256],[-97.7492,20.5991,159.4504],[-97.7449,20.6012,148.9884],[-97.7403,20.6017,144.5026],[-97.7337,20.5866,201.3699],[-97.7348,20.5796,288.8363],[-97.7304,20.578,376.7839],[-97.7124,20.5788,333.3289],[-97.7049,20.5748,198.8827],[-97.7041,20.5729,152.0033],[-97.7035,20.5748,155.6237],[-97.7012,20.5742,149.054],[-97.6971,20.5966,120.1115],[-97.6948,20.5982,118.5993],[-97.6934,20.6027,128.001],[-97.6993,20.6022,166.2896],[-97.7015,20.6037,150.413],[-97.7048,20.6017,137.5541],[-97.7057,20.605,153.0981],[-97.7073,20.6041,182.3228],[-97.7076,20.6058,192.9537],[-97.7113,20.6045,216.0193],[-97.7105,20.6087,263.579],[-97.7154,20.6091,304.132],[-97.7125,20.6148,205.6348],[-97.7127,20.6204,187.4918],[-97.7076,20.6229,160.9154],[-97.7092,20.6241,182.6905],[-97.708,20.6264,231.3611],[-97.7049,20.6251,201.6048],[-97.7045,20.6292,170.4834],[-97.7065,20.6317,173.5337],[-97.7101,20.6316,186.1613],[-97.7145,20.6369,202.1654],[-97.7312,20.6378,246.4778],[-97.7354,20.6411,279.3091],[-97.7352,20.6448,299.9491],[-97.7373,20.6464,336.2639],[-97.7495,20.6433,296.06],[-97.7483,20.6454,259.6872],[-97.7526,20.6499,212.4995],[-97.7527,20.6518,196.2543],[-97.7504,20.6528,182.7178],[-97.7521,20.6577,165.1344],[-97.7492,20.6597,162.6197],[-97.7453,20.6572,162.1207],[-97.7449,20.6587,162.1207],[-97.7406,20.6601,159.6234],[-97.7408,20.6624,155.9911],[-97.7381,20.663,153.0709],[-97.7398,20.6637,155.9911],[-97.7385,20.6667,153.5995],[-97.7406,20.674,154.0214],[-97.7371,20.6797,170.8852],[-97.7407,20.6819,163.9156],[-97.7395,20.687,173.4901],[-97.7407,20.6897,128.6028],[-97.7483,20.6863,196.8899],[-97.7565,20.689,366.0493],[-97.7575,20.6935,414.226],[-97.7555,20.6987,279.7618],[-97.7514,20.7014,164.0187],[-97.7524,20.7049,184.8214],[-97.7506,20.7073,225.3374],[-97.7516,20.7131,266.8786],[-97.7502,20.7241,424.963],[-97.7519,20.7252,424.963],[-97.753,20.7324,397.1129],[-97.7491,20.7321,372.0259],[-97.737,20.7394,151.0441],[-97.7285,20.7413,133.1075],[-97.7252,20.7463,129.6464],[-97.7262,20.7476,137.6126],[-97.7228,20.75,120.7545],[-97.7256,20.7528,118.1216],[-97.7264,20.76,100.4569],[-97.7234,20.7594,102.8804],[-97.7219,20.7625,109.4067],[-97.7199,20.7618,108.6445],[-97.719,20.763,94.729],[-97.7237,20.7671,121.538],[-97.7266,20.7673,127.5564],[-97.7253,20.7694,125.9152],[-97.7265,20.7712,122.8347],[-97.7209,20.7704,97.3253],[-97.7192,20.7755,88.955],[-97.7204,20.7756,88.955],[-97.7209,20.7787,93.1647],[-97.7252,20.7777,88.8405],[-97.7251,20.7804,89.9352],[-97.7281,20.785,90.2906],[-97.7231,20.7864,89.2379],[-97.726,20.7917,78.371],[-97.7225,20.7917,69.62],[-97.7212,20.7953,69.9586],[-97.7176,20.7955,62.8983],[-97.7131,20.7998,65.8008],[-97.7049,20.7974,60.0598],[-97.7033,20.7938,68.1759],[-97.7013,20.7936,76.1969],[-97.6947,20.7965,60.3607],[-97.6952,20.8,82.3865],[-97.7389,20.8015,170.1084],[-97.7482,20.809,196.7293],[-97.7503,20.8148,151.5367],[-97.7584,20.819,133.657],[-97.7631,20.8189,135.0414],[-97.7648,20.8221,99.0991],[-97.773,20.8272,118.4432],[-97.7739,20.823,113.234],[-97.777,20.8243,117.4828],[-97.7904,20.8168,95.7411],[-97.7972,20.8212,82.6018],[-97.7995,20.8193,70.5862],[-97.8072,20.822,65.7361],[-97.809,20.8199,67.3118],[-97.8138,20.8201,70.0751],[-97.824,20.8098,71.7868],[-97.8307,20.808,83.3323],[-97.8322,20.8097,75.6705],[-97.8309,20.8127,65.2658],[-97.8374,20.8126,65.9261],[-97.8379,20.8146,69.1029],[-97.8426,20.8165,72.686],[-97.8501,20.8169,68.0269],[-97.8494,20.8197,69.9228],[-97.8431,20.8244,70.4503],[-97.8436,20.8314,74.353],[-97.8389,20.8365,72.0114],[-97.8425,20.84,79.1327],[-97.8458,20.8395,79.6735],[-97.8529,20.8329,76.0793],[-97.8617,20.8354,78.1768],[-97.8708,20.8313,85.9322],[-97.8791,20.8343,190.2963],[-97.8849,20.8234,83.1511],[-97.8948,20.7978,148.9172]]]]}
,"properties": {"GID_2": "MEX.21.65_2","GID_0": "MEX","country": "México","GID_1": "MEX.21_1","province": "Puebla","NL_NAME_1": "NA","county": "FranciscoZ.Mena","VARNAME_2": "NA","NL_NAME_2": "NA","TYPE_2": "Município","ENGTYPE_2": "Municipality","CC_2": "NA","HASC_2": "NA","name": "Francisco_Z.Mena.county","area_km2": 429.9793,"hist_schema_id": "Elevation0-9000","hist_area_km2": {"50": 0.4955,"75": 12.8821,"100": 32.8482,"125": 51.2209,"150": 57.0239,"175": 58.5934,"200": 45.9573,"225": 38.1012,"250": 34.1133,"275": 27.8852,"300": 24.4317,"325": 30.7191,"350": 7.6751,"375": 3.9073,"400": 2.4394,"425": 1.3882,"450": 0.2975}}}