{"type": "Feature","bbox": [-100.7656,28.6066,-100.4457,28.9408],"geometry": {"type": "MultiPolygon","coordinates": [[[[-100.7466,28.8462,262.1523],[-100.6767,28.7523,283.8571],[-100.6526,28.7487,281.0613],[-100.6381,28.656,242.5425],[-100.6338,28.6531,246.2668],[-100.6287,28.6543,241.309],[-100.6138,28.6496,238.8867],[-100.6037,28.6515,236.8914],[-100.5643,28.6445,246.8253],[-100.5642,28.6411,249.2444],[-100.5567,28.6397,259.5624],[-100.5534,28.6418,266.1835],[-100.5475,28.6407,266.0103],[-100.5476,28.6417,266.0103],[-100.512,28.6356,260.2596],[-100.4598,28.6066,239.24],[-100.4476,28.61,204.1175],[-100.4486,28.617,202.0132],[-100.4457,28.6376,201.3005],[-100.4472,28.6421,212.6702],[-100.4559,28.6424,203.8557],[-100.4615,28.6408,204.0724],[-100.4744,28.6471,207.9722],[-100.4796,28.6556,212.5366],[-100.4973,28.6587,219.8855],[-100.5003,28.6619,204.4166],[-100.5082,28.6841,206.4162],[-100.512,28.7065,219.0745],[-100.5067,28.7169,215.5928],[-100.508,28.7225,206.0],[-100.5074,28.7402,210.9164],[-100.5144,28.7422,210.5988],[-100.5145,28.7513,209.518],[-100.5211,28.7576,211.7911],[-100.5283,28.7558,211.7732],[-100.5334,28.7588,212.8023],[-100.5338,28.7616,213.5003],[-100.5303,28.7669,211.6984],[-100.5299,28.7704,210.8497],[-100.5315,28.7735,212.9187],[-100.5351,28.7755,214.684],[-100.5381,28.7813,210.5],[-100.533,28.7885,212.6539],[-100.5338,28.8012,218.5576],[-100.5358,28.806,240.4014],[-100.5418,28.808,214.0152],[-100.5461,28.8128,216.9693],[-100.5467,28.8255,216.2882],[-100.5532,28.8282,217.4429],[-100.5618,28.8292,221.1733],[-100.5703,28.8258,218.5905],[-100.5745,28.8281,219.1111],[-100.577,28.8358,219.4628],[-100.573,28.8488,221.8297],[-100.5793,28.8552,220.97559999999999],[-100.5899,28.8616,233.6008],[-100.5915,28.8646,219.0551],[-100.5904,28.8729,221.3208],[-100.5969,28.8731,221.1898],[-100.599,28.8752,224.7403],[-100.5989,28.8796,226.4093],[-100.5906,28.8836,222.5537],[-100.5899,28.8879,224.2266],[-100.5925,28.889,224.8616],[-100.5994,28.8865,222.4575],[-100.6026,28.8869,223.6061],[-100.6041,28.8895,224.6162],[-100.601,28.9016,224.3571],[-100.6069,28.9028,227.0262],[-100.6108,28.9007,228.2871],[-100.6134,28.9012,224.6827],[-100.6158,28.9029,228.3913],[-100.6167,28.9075,226.3929],[-100.6216,28.91,226.7289],[-100.6246,28.9095,228.258],[-100.6247,28.906,229.9726],[-100.6268,28.9039,228.8203],[-100.6326,28.9037,226.9402],[-100.6364,28.9113,226.5861],[-100.641,28.9152,230.3945],[-100.6393,28.9166,229.3081],[-100.6315,28.9168,229.7852],[-100.6297,28.919,227.3027],[-100.6297,28.9226,229.3422],[-100.6396,28.9287,232.2632],[-100.6455,28.94,229.8059],[-100.6479,28.9408,229.0132],[-100.6705,28.9312,270.5045],[-100.7011,28.9381,273.8105],[-100.7048,28.9339,272.2649],[-100.7022,28.929,274.3198],[-100.6854,28.9248,266.0974],[-100.6868,28.9153,254.8593],[-100.7243,28.9112,256.5919],[-100.7656,28.8654,290.057],[-100.7466,28.8462,262.1523]]]]}
,"properties": {"GID_2": "MEX.7.25_2","GID_0": "MEX","country": "México","GID_1": "MEX.7_1","province": "Coahuila","NL_NAME_1": "NA","county": "PiedrasNegras","VARNAME_2": "NA","NL_NAME_2": "NA","TYPE_2": "Município","ENGTYPE_2": "Municipality","CC_2": "NA","HASC_2": "NA","name": "Piedras_Negras.county","area_km2": 474.1882,"hist_schema_id": "Elevation0-9000","hist_area_km2": {"200": 2.9948,"225": 134.2807,"250": 170.0253,"275": 165.5133,"300": 1.374}}}