{"type":"Feature","properties":{"GID_2":"MEX.24.16_2","GID_0":"MEX","country":"México","GID_1":"MEX.24_1","province":"SanLuisPotosí","NL_NAME_1":"NA","county":"Ebano","VARNAME_2":"NA","NL_NAME_2":"NA","TYPE_2":"Município","ENGTYPE_2":"Municipality","CC_2":"NA","HASC_2":"NA","name":"Ebano.county"},
"geometry":{"type": "MultiPolygon","coordinates": [[[[-98.5622,21.9676,9.4299],[-98.5507,21.9608,5.0],[-98.5266,21.9782,3.5],[-98.522,21.9794,3.5],[-98.5046,21.9666,5.5191],[-98.4932,21.9604,14.982],[-98.4776,21.9603,7.807],[-98.4688,21.9646,6.0487],[-98.4681,21.9655,10.6584],[-98.482,21.983,12.0309],[-98.4799,21.989,12.5054],[-98.4815,21.9905,12.3589],[-98.4763,21.9996,11.7521],[-98.4761,21.9939,12.2575],[-98.4723,21.988,15.5886],[-98.47,21.9904,16.1442],[-98.4636,21.991,18.7571],[-98.4624,21.9962,21.6058],[-98.4595,21.9952,20.2912],[-98.4602,22.0011,21.3606],[-98.4584,22.005,22.0132],[-98.4595,22.0054,22.0132],[-98.4482,22.0212,14.2713],[-98.4483,22.0273,15.0419],[-98.4435,22.033,10.4568],[-98.4432,22.0371,10.288],[-98.4464,22.0422,11.6718],[-98.4429,22.0494,10.6697],[-98.4346,22.0517,16.1068],[-98.4344,22.0569,14.6982],[-98.4419,22.0649,10.2133],[-98.44,22.0685,17.4572],[-98.4395,22.0756,12.5095],[-98.4365,22.0781,16.8889],[-98.4308,22.0793,10.0343],[-98.4334,22.0857,17.4191],[-98.4324,22.0897,14.9788],[-98.4261,22.0925,12.8163],[-98.4229,22.0968,15.0767],[-98.4188,22.098,14.3249],[-98.4195,22.1009,9.2275],[-98.4276,22.1088,8.3384],[-98.4303,22.1085,13.65],[-98.4324,22.1105,8.6041],[-98.4387,22.1119,8.0961],[-98.4382,22.1148,5.8379],[-98.4323,22.1178,8.2255],[-98.432,22.1283,9.0129],[-98.4288,22.1303,7.6794],[-98.4261,22.1301,8.4047],[-98.4263,22.1331,6.9294],[-98.4233,22.1324,7.283],[-98.4206,22.1383,8.2377],[-98.4167,22.1412,6.9113],[-98.4111,22.1434,6.4637],[-98.3553,22.1803,5.8329],[-98.3444,22.1865,7.3613],[-98.3365,22.1877,6.7661],[-98.3348,22.1902,8.0733],[-98.3343,22.1971,18.9007],[-98.3304,22.2013,27.4277],[-98.3348,22.2025,51.9543],[-98.3352,22.21,49.8685],[-98.345,22.214,56.0777],[-98.3431,22.2159,53.3769],[-98.3521,22.2207,61.9358],[-98.3523,22.2228,62.6989],[-98.3446,22.2221,50.4845],[-98.326,22.2431,43.1774],[-98.3519,22.2386,55.2173],[-98.3524,22.2412,51.08],[-98.3632,22.2389,50.8843],[-98.3643,22.2373,50.4029],[-98.3696,22.2381,46.3779],[-98.3695,22.2361,44.2023],[-98.3746,22.2361,39.2105],[-98.3672,22.2513,43.2],[-98.3681,22.2554,40.9766],[-98.3754,22.254,39.068],[-98.3763,22.2508,36.9681],[-98.3783,22.2534,34.5976],[-98.3818,22.2533,37.9212],[-98.3825,22.2559,37.1123],[-98.4051,22.2561,36.983],[-98.4042,22.2592,34.5],[-98.4057,22.2626,35.4865],[-98.4032,22.2664,34.797],[-98.4058,22.2672,37.3774],[-98.4064,22.2694,37.7027],[-98.4018,22.2697,34.8243],[-98.4009,22.2725,36.7851],[-98.3964,22.2763,37.8605],[-98.402,22.2779,39.8459],[-98.4032,22.2822,40.6737],[-98.4076,22.2842,39.3762],[-98.4248,22.2743,44.613],[-98.4304,22.2746,40.8217],[-98.4338,22.278199999999998,37.7657],[-98.433,22.28,41.0875],[-98.4291,22.2805,36.8003],[-98.4277,22.2835,38.0551],[-98.4328,22.2892,38.6241],[-98.4386,22.2926,37.9336],[-98.4467,22.3056,23.7717],[-98.4545,22.3039,20.3836],[-98.4576,22.3013,20.4733],[-98.4615,22.3049,20.5469],[-98.4645,22.3035,20.4627],[-98.4659,22.3,25.9136],[-98.4644,22.2967,25.1592],[-98.4759,22.2886,28.0071],[-98.4778,22.2962,24.5814],[-98.4819,22.2967,25.5955],[-98.482,22.2994,26.595],[-98.4869,22.2989,31.869],[-98.488,22.3035,37.2546],[-98.4918,22.3036,42.6586],[-98.4922,22.3049,44.4028],[-98.496,22.3037,44.4992],[-98.4968,22.3077,37.4654],[-98.4985,22.3068,40.3563],[-98.5038,22.3097,37.9138],[-98.5057,22.309,38.9605],[-98.5061,22.316,36.3253],[-98.5157,22.3192,37.4928],[-98.5256,22.3188,45.1677],[-98.5256,22.328,46.3846],[-98.5353,22.328,44.2179],[-98.5352,22.3379,37.1019],[-98.5548,22.338,45.8516],[-98.5548,22.3426,40.8012],[-98.5645,22.3426,35.3289],[-98.5645,22.3475,36.8481],[-98.5731,22.3464,32.8281],[-98.5745,22.3486,31.8341],[-98.5793,22.3486,30.4],[-98.5806,22.3515,30.5341],[-98.579,22.3533,31.6877],[-98.581,22.3546,29.6739],[-98.5805,22.3572,28.4015],[-98.5823,22.3601,27.3285],[-98.5788,22.3659,25.668],[-98.5793,22.3778,27.9311],[-98.5829,22.3731,27.5375],[-98.6761,22.3732,47.8634],[-98.6815,22.3716,49.9547],[-98.6841,22.3635,64.0497],[-98.6765,22.3641,56.6849],[-98.6765,22.3551,67.4928],[-98.6667,22.3551,55.0037],[-98.6665,22.3461,52.1354],[-98.6376,22.346,45.8454],[-98.6376,22.337,56.938],[-98.6376,22.328,52.1266],[-98.6763,22.3279,60.8201],[-98.6765,22.2487,77.8047],[-98.6795,22.2445,74.3979],[-98.6814,22.2458,76.7577],[-98.6814,22.24,73.4445],[-98.6589,22.2401,59.1644],[-98.661,22.2313,61.7822],[-98.6717,22.2315,69.1242],[-98.6716,22.2284,65.0033],[-98.6765,22.2285,65.1419],[-98.6764,22.2273,65.1419],[-98.6621,22.2269,62.3953],[-98.6648,22.2159,62.8973],[-98.5911,22.1942,42.6797],[-98.5911,22.1856,39.7983],[-98.5739,22.1892,39.0122],[-98.5551,22.1837,38.6306],[-98.5538,22.1871,39.3594],[-98.5521,22.1856,39.5685],[-98.5435,22.1852,32.2823],[-98.5434,22.1889,32.9976],[-98.537,22.1883,35.2591],[-98.5378,22.1813,34.379],[-98.528,22.1819,30.3945],[-98.5261,22.185,30.6814],[-98.5153,22.1829,29.5725],[-98.5177,22.1723,26.6666],[-98.5155,22.1717,25.6882],[-98.5155,22.1591,24.9501],[-98.5114,22.1542,24.759],[-98.506,22.1543,30.187],[-98.5036,22.1505,28.296],[-98.5108,22.1237,19.1673],[-98.5079,22.1066,9.735],[-98.5032,22.1054,8.4302],[-98.5048,22.1027,8.442],[-98.5099,22.1007,9.6398],[-98.5063,22.0974,10.1944],[-98.5002,22.0981,9.813],[-98.4999,22.0915,12.9919],[-98.5038,22.0881,16.6332],[-98.5072,22.0748,15.9973],[-98.5059,22.0731,15.8206],[-98.4971,22.0729,15.6909],[-98.4922,22.0763,13.267],[-98.49,22.0654,17.5399],[-98.4953,22.0585,19.2801],[-98.5029,22.0438,19.8676],[-98.5139,22.0509,20.8939],[-98.5184,22.0512,21.2002],[-98.5282,22.0471,20.967],[-98.5357,22.0477,22.6297],[-98.5365,22.0371,20.0316],[-98.5303,22.0248,16.189],[-98.532,22.0202,13.8803],[-98.5284,22.0166,16.1099],[-98.5361,22.019,16.0235],[-98.5427,22.0145,15.7323],[-98.5571,22.0129,16.0283],[-98.5579,22.0058,20.4237],[-98.5508,21.9945,14.3944],[-98.5535,21.9874,18.681],[-98.5629,21.9801,16.4752],[-98.5627,21.9732,16.9184],[-98.5602,21.9696,21.3137],[-98.5622,21.9676,9.4299]]]]}}