{"type": "Feature","bbox": [-98.6946,21.0934,-98.4636,21.3981],"geometry": {"type": "MultiPolygon","coordinates": [[[[-98.5614,21.1545,182.0179],[-98.5611,21.1564,179.297],[-98.556,21.1575,186.6285],[-98.5551,21.1595,177.9633],[-98.5486,21.163,168.4464],[-98.5482,21.1656,149.5708],[-98.5516,21.1695,187.7127],[-98.5412,21.1766,133.0996],[-98.5392,21.1833,125.0223],[-98.5294,21.1823,115.368],[-98.5277,21.1832,113.8376],[-98.5277,21.1858,116.736],[-98.5248,21.1854,114.2767],[-98.5237,21.1832,111.3289],[-98.5227,21.1856,109.3264],[-98.5227,21.1881,107.4776],[-98.5289,21.1955,168.9932],[-98.5267,21.197,176.5913],[-98.53,21.199,158.0909],[-98.5335,21.1966,187.4753],[-98.5372,21.2013,174.5526],[-98.5328,21.2076,136.4994],[-98.5473,21.2061,189.1086],[-98.5491,21.2053,191.288],[-98.5489,21.2028,194.415],[-98.5521,21.2012,195.4825],[-98.5517,21.205,184.4907],[-98.5533,21.2085,174.4935],[-98.5513,21.2117,171.2525],[-98.5469,21.2142,163.0454],[-98.5447,21.2246,154.5775],[-98.5395,21.2322,152.8981],[-98.5357,21.235,135.7371],[-98.5347,21.2337,151.573],[-98.5313,21.2338,119.633],[-98.5257,21.2372,107.517],[-98.5237,21.2438,127.8567],[-98.5165,21.2443,80.7509],[-98.5379,21.2639,113.4681],[-98.544,21.2639,123.3017],[-98.5427,21.2686,146.3707],[-98.5258,21.2875,127.3157],[-98.5181,21.3032,116.2511],[-98.5059,21.3194,107.9165],[-98.4956,21.33,96.5967],[-98.4974,21.3372,102.7422],[-98.4956,21.3404,114.4212],[-98.4852,21.3501,108.4729],[-98.4783,21.3474,116.5564],[-98.4779,21.3438,105.0021],[-98.472,21.3467,151.1619],[-98.4656,21.3471,197.5233],[-98.4636,21.3502,165.8392],[-98.47,21.3575,106.2707],[-98.4697,21.3623,101.5204],[-98.4661,21.3655,98.2628],[-98.4684,21.3703,79.501],[-98.4655,21.3732,70.2853],[-98.4699,21.3834,46.2119],[-98.4687,21.387,47.9901],[-98.4733,21.3912,49.4966],[-98.4815,21.3887,54.8262],[-98.4797,21.3962,53.3528],[-98.4808,21.3977,50.0381],[-98.487,21.3981,50.4317],[-98.4869,21.3924,54.0813],[-98.4889,21.3911,52.268],[-98.4913,21.392,52.5686],[-98.4941,21.3875,55.3019],[-98.4972,21.3861,54.1991],[-98.5012,21.3855,53.4176],[-98.5026,21.3891,53.9401],[-98.5047,21.3892,54.8316],[-98.5071,21.3857,52.9105],[-98.505,21.382,56.1479],[-98.5087,21.3784,54.9122],[-98.5129,21.3771,57.6244],[-98.5131,21.3745,56.5239],[-98.5158,21.3723,58.1793],[-98.5116,21.369,55.3913],[-98.5091,21.3707,58.8651],[-98.5074,21.37,54.145],[-98.5069,21.3661,54.964],[-98.5114,21.3625,55.9114],[-98.5148,21.3652,54.9617],[-98.5154,21.3617,60.1614],[-98.5174,21.3619,56.4463],[-98.5204,21.3647,60.9427],[-98.5205,21.3686,60.2429],[-98.5252,21.366,58.6371],[-98.5275,21.3665,57.9697],[-98.5274,21.3678,61.1874],[-98.5296,21.3678,61.7334],[-98.5282,21.3697,62.1423],[-98.5302,21.3695,62.1214],[-98.5298,21.3711,62.5693],[-98.5315,21.3712,62.6912],[-98.5309,21.3725,60.1872],[-98.5336,21.3745,63.0597],[-98.5325,21.3758,63.6051],[-98.5339,21.3765,63.6051],[-98.5311,21.3776,72.7907],[-98.532,21.3785,64.2283],[-98.5353,21.3787,65.1838],[-98.5345,21.3798,65.753],[-98.536,21.3804,65.753],[-98.5393,21.3791,68.5797],[-98.5391,21.3834,70.473],[-98.5413,21.384,87.747],[-98.545,21.3843,92.588],[-98.5446,21.3809,77.3169],[-98.5461,21.3806,77.3169],[-98.547,21.3835,77.5633],[-98.5496,21.3846,85.3291],[-98.552,21.3795,86.7819],[-98.557,21.3796,107.0304],[-98.5589,21.3774,88.5808],[-98.5615,21.3774,92.6707],[-98.5642,21.3748,88.8559],[-98.5643,21.372,89.5971],[-98.5665,21.3737,91.658],[-98.5677,21.3708,92.5943],[-98.576,21.3746,100.5031],[-98.579,21.3731,103.6256],[-98.5808,21.3741,93.757],[-98.5813,21.3697,104.6994],[-98.5829,21.3701,100.0847],[-98.5835,21.3728,97.7308],[-98.5861,21.3717,98.1054],[-98.5901,21.3728,99.9231],[-98.591,21.3666,102.1526],[-98.5961,21.3642,105.4677],[-98.5969,21.3591,110.5065],[-98.5992,21.3584,112.8088],[-98.5999,21.3601,110.5705],[-98.6024,21.3579,111.9746],[-98.6035,21.3593,110.2759],[-98.607,21.3581,113.4875],[-98.608,21.3595,112.9049],[-98.612,21.3592,120.7433],[-98.6142,21.362,123.4475],[-98.619,21.3589,131.4668],[-98.6203,21.3612,129.6018],[-98.6192,21.3625,136.4505],[-98.6235,21.3647,138.026],[-98.6272,21.3598,171.2671],[-98.6286,21.3648,147.09],[-98.6315,21.3656,155.2249],[-98.6351,21.3635,166.7278],[-98.6378,21.3644,161.4227],[-98.6383,21.3677,167.5269],[-98.6404,21.366,158.9286],[-98.644,21.3665,173.4693],[-98.6463,21.3587,253.8898],[-98.6452,21.3581,253.8898],[-98.6497,21.3548,330.8918],[-98.6496,21.3526,317.7555],[-98.6519,21.3528,334.2371],[-98.6528,21.3468,245.6043],[-98.6718,21.3483,443.6618],[-98.6751,21.3498,466.8762],[-98.6811,21.3462,492.6],[-98.6836,21.342,341.0754],[-98.677,21.3366,275.3029],[-98.6709,21.3249,221.5418],[-98.6603,21.3209,205.6712],[-98.6489,21.3129,343.9932],[-98.632,21.3131,170.2111],[-98.6245,21.3097,130.2353],[-98.6249,21.3082,148.549],[-98.6202,21.3071,123.1243],[-98.6189,21.305,111.5286],[-98.6158,21.3047,93.2208],[-98.6125,21.2998,91.589],[-98.6095,21.2993,90.3051],[-98.6047,21.3018,87.3567],[-98.6039,21.298,87.6513],[-98.5991,21.2921,85.7127],[-98.6016,21.2866,87.9083],[-98.596,21.2853,82.9954],[-98.5952,21.2832,88.6805],[-98.5975,21.2827,85.3723],[-98.5985,21.2797,91.5976],[-98.6026,21.2794,111.4738],[-98.6039,21.2764,96.973],[-98.6011,21.2748,106.7017],[-98.6042,21.2723,101.8838],[-98.6031,21.2703,114.4905],[-98.605,21.2685,108.8056],[-98.6023,21.2659,112.1841],[-98.6024,21.2623,123.5429],[-98.6,21.2612,128.2117],[-98.6077,21.2565,220.6028],[-98.6089,21.2527,289.1891],[-98.6069,21.2488,256.8774],[-98.6042,21.2495,244.7987],[-98.5994,21.2477,171.3708],[-98.6023,21.2429,193.909],[-98.6011,21.2328,250.1454],[-98.6039,21.2253,319.074],[-98.6047,21.2203,304.1994],[-98.6036,21.2184,303.4413],[-98.6065,21.2163,184.8094],[-98.6052,21.2152,186.9723],[-98.6087,21.2014,152.59],[-98.618,21.1943,207.0982],[-98.6386,21.185,175.8038],[-98.6392,21.1832,181.9501],[-98.6424,21.1822,177.1109],[-98.6506,21.1835,171.9654],[-98.6505,21.1809,180.6564],[-98.6585,21.1861,234.5327],[-98.6583,21.1828,216.9577],[-98.6638,21.1841,243.2784],[-98.6694,21.1932,176.4294],[-98.6689,21.1949,177.1542],[-98.6731,21.1946,185.5457],[-98.6769,21.1994,167.2357],[-98.6804,21.1985,198.6363],[-98.6827,21.2006,206.4918],[-98.6835,21.1977,189.047],[-98.6866,21.1949,243.5268],[-98.6852,21.1902,200.613],[-98.6917,21.188,204.3837],[-98.6915,21.1847,211.1872],[-98.6946,21.1822,220.9288],[-98.692,21.168,285.8497],[-98.6786,21.1678,322.3696],[-98.6729,21.1637,235.1404],[-98.6732,21.1603,250.0262],[-98.6714,21.1587,258.739],[-98.6592,21.1569,228.1656],[-98.6635,21.1503,244.7009],[-98.6636,21.1441,264.9161],[-98.6621,21.1423,266.3087],[-98.66,21.1425,290.7414],[-98.6604,21.1352,314.9175],[-98.6572,21.1243,305.3225],[-98.6581,21.1207,301.3228],[-98.6494,21.1134,303.8625],[-98.6453,21.1065,393.3581],[-98.6349,21.1028,327.0317],[-98.6252,21.0949,584.9743],[-98.618,21.0934,637.4961],[-98.6146,21.1019,541.5968],[-98.6146,21.122,450.7885],[-98.6175,21.1251,435.3211],[-98.605,21.1309,247.2874],[-98.6037,21.1332,262.8326],[-98.6018,21.1283,264.2569],[-98.5957,21.1274,249.4621],[-98.5977,21.1237,245.2659],[-98.587,21.1255,290.6145],[-98.5856,21.1238,285.4645],[-98.5868,21.1216,319.2899],[-98.5851,21.1209,333.4484],[-98.5816,21.1257,276.4791],[-98.581,21.1375,226.0124],[-98.5732,21.1413,235.8424],[-98.5689,21.1457,222.5757],[-98.5671,21.1504,210.6787],[-98.5614,21.1545,182.0179]]]]}
,"properties": {"GID_2": "MEX.13.53_2","GID_0": "MEX","country": "México","GID_1": "MEX.13_1","province": "Hidalgo","NL_NAME_1": "NA","county": "SanFelipeOrizatlán","VARNAME_2": "NA","NL_NAME_2": "NA","TYPE_2": "Município","ENGTYPE_2": "Municipality","CC_2": "NA","HASC_2": "NA","name": "San_Felipe_Orizatlán.county","area_km2": 324.6043,"hist_schema_id": "Elevation0-9000","hist_area_km2": {"50": 12.182,"75": 35.3903,"100": 29.2115,"125": 40.868,"150": 41.3312,"175": 37.4486,"200": 32.671,"225": 27.1406,"250": 21.8245,"275": 14.4701,"300": 8.9352,"325": 6.2668,"350": 3.9342,"375": 3.2223,"400": 2.6096,"425": 2.3527,"450": 1.5224,"475": 1.206,"500": 0.6129,"525": 0.4153,"550": 0.4747,"575": 0.356,"600": 0.0989,"625": 0.0396,"650": 0.0198}}}