{"type": "Feature","bbox": [-106.616,24.6001,-105.0261,25.4455],"geometry": {"type": "MultiPolygon","coordinates": [[[[-105.2597,24.6229,2044.4047],[-105.263,24.625,2041.8013],[-105.2553,24.6275,2172.3774],[-105.2452,24.6733,2176.5129],[-105.222,24.684,2173.8674],[-105.22,24.7019,2203.9604],[-105.2805,24.7013,1927.8485],[-105.2808,24.7079,2065.4321],[-105.2895,24.703,1948.9094],[-105.2906,24.7036,1947.6063],[-105.2915,24.7058,2046.6406],[-105.2903,24.7088,2039.9631],[-105.2851,24.7142,2074.5571],[-105.2862,24.7205,2104.3228],[-105.2891,24.7246,2100.1621],[-105.2957,24.7278,2069.481],[-105.2983,24.7312,2029.5729],[-105.302,24.732,2037.057],[-105.303,24.7389,1929.8865],[-105.3046,24.7407,1917.0449],[-105.31,24.7406,1885.5149],[-105.3143,24.7427,1880.6665],[-105.3131,24.7454,1879.7627],[-105.3143,24.7501,1863.4133],[-105.3174,24.7506,1867.5361],[-105.3148,24.7527,1871.3232],[-105.318,24.7577,1938.0566],[-105.3174,24.7615,1919.5017],[-105.3198,24.7671,1867.4587],[-105.3131,24.7682,1919.8438],[-105.3009,24.7668,2000.3164],[-105.2951,24.7618,2080.8267],[-105.2834,24.7647,2052.7603],[-105.279,24.7628,2030.0608],[-105.2846,24.7707,1999.2241],[-105.2888,24.7722,1999.3928],[-105.2895,24.7745,1987.7522],[-105.2953,24.7762,1954.2195],[-105.2983,24.784,1938.8163],[-105.2377,24.8,2633.4639],[-105.2457,24.8275,2487.1716],[-105.263,24.8697,2523.5449],[-105.2665,24.8726,2586.7578],[-105.2495,24.8736,2806.8989],[-105.2403,24.8759,2708.1636],[-105.2107,24.8909,2813.4548],[-105.1408,24.8992,2103.7227],[-105.1616,24.9289,2135.6582],[-105.2129,24.9069,2740.5454],[-105.2154,24.9118,2744.0862],[-105.2154,24.9203,2759.8005],[-105.2091,24.9265,2657.6089],[-105.2091,24.9301,2637.4321],[-105.2067,24.9327,2598.1821],[-105.2089,24.9335,2607.8679],[-105.2083,24.9375,2512.1577],[-105.1938,24.9453,2349.4373],[-105.185,24.966,2094.9866],[-105.1838,24.9635,2101.3433],[-105.1751,24.9745,2055.8076],[-105.173,24.973,2053.8887],[-105.1686,24.9748,2045.3118],[-105.1673,24.9737,2045.1724],[-105.1607,24.9845,2024.1842],[-105.1746,24.9919,2029.1095],[-105.1697,24.9994,2017.5283],[-105.1631,24.9959,2013.616],[-105.16,25.001,2009.4963],[-105.1621,25.0022,2010.1459],[-105.1589,25.0072,2005.0659],[-105.1611,25.0083,2006.2548],[-105.1569,25.0145,2000.3984],[-105.159,25.0157,2000.7576],[-105.1498,25.0298,1992.3726],[-105.1533,25.0318,1992.3834],[-105.1515,25.0337,1992.2928],[-105.1572,25.0374,1994.1866],[-105.1503,25.0398,1994.803],[-105.1527,25.0411,1995.438],[-105.1502,25.0448,1997.1467],[-105.1533,25.0464,1997.4373],[-105.148,25.0543,2001.8206],[-105.1394,25.0496,2000.6149],[-105.136,25.0548,2004.1107],[-105.1296,25.0512,2005.105],[-105.1196,25.0662,2026.7374],[-105.115,25.0632,2025.5142],[-105.1118,25.0687,2039.9954],[-105.1193,25.0973,2166.571],[-105.114,25.1026,2422.604],[-105.08,25.0902,2276.2183],[-105.0644,25.1112,2865.6106],[-105.0375,25.1119,2829.7881],[-105.0261,25.1341,2421.1855],[-105.0737,25.1402,2826.3052],[-105.0966,25.1726,3030.5449],[-105.1059,25.1636,2846.511],[-105.1216,25.1647,2791.9624],[-105.1329,25.1611,2892.3098],[-105.1335,25.1715,2995.2441],[-105.1381,25.1775,3030.0632],[-105.1477,25.1824,2992.031],[-105.1349,25.2013,3071.6611],[-105.132,25.2005,3049.3606],[-105.1368,25.2063,3051.9238],[-105.1363,25.2082,2999.3687],[-105.1246,25.2104,2977.3735],[-105.1337,25.2132,3012.9297],[-105.1451,25.2806,2606.0898],[-105.1599,25.2898,2416.3877],[-105.188,25.33,2267.8333],[-105.1944,25.3491,2068.6177],[-105.2047,25.3473,1924.7869],[-105.2182,25.3488,1850.5906],[-105.2256,25.3535,1813.0925],[-105.2299,25.3588,1763.9866],[-105.2333,25.3576,1766.2125],[-105.2447,25.3596,1743.7078],[-105.2497,25.365,1715.2958],[-105.2546,25.3662,1647.8879],[-105.2559,25.3678,1635.8887],[-105.2543,25.3706,1654.8026],[-105.257,25.3747,1637.9048],[-105.2638,25.3704,1663.3208],[-105.267,25.3734,1679.5302],[-105.277,25.3777,1681.51],[-105.2877,25.3739,1601.3748],[-105.2935,25.3736,1574.5204],[-105.306,25.365,1667.9287],[-105.3092,25.3648,1584.8029],[-105.3194,25.3594,1608.8496],[-105.3261,25.3602,1640.5221],[-105.3277,25.3617,1591.2424],[-105.3295,25.3609,1583.9407],[-105.333,25.3505,1595.7438],[-105.3278,25.3488,1670.8307],[-105.3266,25.3464,1631.1321],[-105.3277,25.3436,1614.2833],[-105.3305,25.3432,1604.2312],[-105.3283,25.3382,1625.7717],[-105.3334,25.3252,1608.4681],[-105.34,25.3256,1609.7015],[-105.3417,25.328,1608.658],[-105.3514,25.3274,1606.9928],[-105.36,25.3307,1652.062],[-105.3597,25.3319,1652.062],[-105.3641,25.3338,1630.6111],[-105.3666,25.3368,1635.183],[-105.3652,25.3382,1647.7606],[-105.367,25.3435,1666.2078],[-105.3664,25.3474,1691.783],[-105.3697,25.3568,1709.6672],[-105.3675,25.3575,1724.8364],[-105.3687,25.359,1705.9006],[-105.3675,25.3602,1734.827],[-105.3698,25.3648,1738.8843],[-105.3664,25.3674,1726.01],[-105.3747,25.3777,1786.1895],[-105.3764,25.3829,1801.6766],[-105.3839,25.3834,1804.8303],[-105.3824,25.3847,1824.0778],[-105.3841,25.3862,1853.7289],[-105.3812,25.3874,1898.2295],[-105.3889,25.3928,1951.4045],[-105.3835,25.3954,1930.3938],[-105.4051,25.4138,1924.9852],[-105.4178,25.4065,2035.0728],[-105.4608,25.3733,2090.7974],[-105.4907,25.3843,2653.0476],[-105.5425,25.4455,3000.2659],[-105.5573,25.3337,2535.738],[-105.5383,25.2911,2160.3093],[-105.5409,25.2898,2147.5886],[-105.5411,25.2851,2140.4749],[-105.5444,25.2803,2167.7954],[-105.5454,25.275,2139.3733],[-105.5501,25.2784,2122.0332],[-105.557,25.2791,2059.8862],[-105.5623,25.2763,2011.802],[-105.5636,25.2733,1975.8562],[-105.5659,25.277,1950.9307],[-105.5677,25.277,1932.6263],[-105.5708,25.2737,1907.9252],[-105.5772,25.2733,1903.1821],[-105.5799,25.2704,1857.9441],[-105.5903,25.2667,1843.9081],[-105.5914,25.2637,1812.8146],[-105.5949,25.2626,1814.4594],[-105.5983,25.2584,1798.5657],[-105.5959,25.2507,1771.4773],[-105.5883,25.2495,1736.1357],[-105.5803,25.2409,1732.8967],[-105.5787,25.2299,1746.6777],[-105.5705,25.2218,1737.7817],[-105.5691,25.2135,1753.8782],[-105.5646,25.2067,1733.7094],[-105.5602,25.2019,1731.2554],[-105.5534,25.1984,1721.959],[-105.5603,25.189,1740.7864],[-105.6296,25.169,2572.1001],[-105.6826,25.2235,2463.3455],[-105.7526,25.2317,2350.6624],[-105.8108,25.2338,2425.5991],[-105.7834,25.2244,2525.5342],[-105.7827,25.2215,2511.6672],[-105.7986,25.1838,2492.9036],[-105.7896,25.172,2587.1353],[-105.7784,25.0948,2629.3586],[-105.8647,25.0256,2598.6062],[-105.8923,25.1059,2730.2886],[-105.9817,25.0989,2590.0737],[-106.0318,25.1,2470.54],[-106.123,25.0987,2546.1125],[-106.1231,25.0918,2493.5483],[-106.1329,25.0896,2470.5508],[-106.1319,25.0859,2478.3306],[-106.1247,25.0788,2510.9177],[-106.1247,25.0679,2649.0234],[-106.1529,25.0678,2843.2],[-106.1553,25.0709,2743.2749],[-106.1729,25.0699,2446.2656],[-106.1733,25.0491,2352.167],[-106.1658,25.0497,2259.0356],[-106.1691,25.0248,2225.6365],[-106.1902,25.0237,2112.6821],[-106.1759,24.9929,2457.7861],[-106.2163,24.99,2546.1719],[-106.2383,24.9917,2659.0027],[-106.2578,24.9967,2556.7563],[-106.2703,24.9914,2644.3569],[-106.3369,25.0322,2606.4263],[-106.3244,25.0464,2746.4124],[-106.3142,25.0543,2623.5828],[-106.3253,25.0809,2631.3567],[-106.3415,25.0713,2740.4102],[-106.3436,25.064,2688.8552],[-106.3595,25.0471,2371.3174],[-106.3874,25.0414,1733.7814],[-106.3908,25.0646,2522.7642],[-106.3807,25.0571,2258.2766],[-106.3749,25.101,2761.3572],[-106.3998,25.072,2606.498],[-106.397,25.0694,2652.4236],[-106.4179,25.036,2060.0874],[-106.4213,25.0239,2360.7148],[-106.4306,25.0229,2544.8159],[-106.4662,24.9684,2496.863],[-106.5017,25.0022,2658.7419],[-106.4947,24.9851,2738.0347],[-106.4993,24.9538,2736.9507],[-106.5067,24.9504,2725.6367],[-106.5592,24.9578,2343.1079],[-106.5819,24.9936,1243.7111],[-106.584,24.992,1292.7657],[-106.5932,24.9913,1024.7327],[-106.5952,24.9864,1094.5605],[-106.5986,24.9862,1084.3054],[-106.5981,24.9838,1100.7252],[-106.6029,24.9849,1114.5148],[-106.6092,24.9794,1193.8005],[-106.6152,24.9795,1250.52],[-106.6145,24.9776,1335.624],[-106.616,24.9749,1385.2328],[-106.6085,24.9587,2182.9487],[-106.6079,24.951,2202.2939],[-106.6118,24.9503,2265.0679],[-106.5888,24.9298,1615.9314],[-106.5853,24.9235,1486.1375],[-106.5847,24.9245,1517.1404],[-106.5835,24.9235,1474.9542],[-106.5826,24.9205,1467.4838],[-106.5847,24.917,1410.9132],[-106.5833,24.9157,1485.9319],[-106.5851,24.9142,1384.6721],[-106.5829,24.912,1420.8497],[-106.581,24.9125,1358.9827],[-106.58,24.9101,1348.1353],[-106.5818,24.9075,1300.8312],[-106.5806,24.905,1272.25],[-106.5827,24.9022,1260.3789],[-106.5803,24.8986,1212.3647],[-106.5812,24.8955,1171.2673],[-106.5774,24.8949,1131.5867],[-106.5772,24.8919,1082.673],[-106.5723,24.892,1033.1246],[-106.5694,24.8873,1026.7219],[-106.5713,24.8856,982.5984],[-106.5706,24.8801,967.7934],[-106.5683,24.8791,926.6619],[-106.5694,24.8771,942.4266],[-106.5668,24.8731,868.1991],[-106.5687,24.8694,834.4435],[-106.5659,24.857,780.5577],[-106.562,24.8569,739.3744],[-106.5616,24.8592,829.652],[-106.5541,24.8566,688.3651],[-106.5539,24.8513,641.919],[-106.5515,24.8503,608.2887],[-106.55,24.847,627.1325],[-106.5425,24.8467,603.4354],[-106.5352,24.8425,563.8656],[-106.5384,24.8386,672.2329],[-106.5465,24.834,843.6422],[-106.5495,24.8263,908.5929],[-106.5457,24.8277,858.045],[-106.5398,24.8272,743.5143],[-106.5349,24.8297,695.6501],[-106.5348,24.8324,639.7006],[-106.5367,24.8337,693.6858],[-106.5316,24.8326,591.4727],[-106.5291,24.8413,535.2437],[-106.5268,24.8413,516.606],[-106.5214,24.8377,496.208],[-106.5115,24.8261,463.0533],[-106.5059,24.8241,455.3206],[-106.5043,24.8209,447.1936],[-106.5015,24.8209,466.7612],[-106.501,24.8156,439.7889],[-106.4933,24.8125,460.1946],[-106.4955,24.8069,465.9955],[-106.4934,24.8035,474.4745],[-106.4908,24.8031,493.5383],[-106.4916,24.7967,479.2826],[-106.4886,24.7969,411.0471],[-106.4858,24.7933,396.4393],[-106.4865,24.7908,391.058],[-106.4907,24.7886,408.4606],[-106.4918,24.7806,391.3182],[-106.4972,24.7761,421.1525],[-106.4952,24.7659,376.8485],[-106.5033,24.7664,362.6552],[-106.5036,24.7633,357.8516],[-106.5017,24.7599,386.513],[-106.5023,24.7537,373.7594],[-106.5097,24.7531,353.9761],[-106.5066,24.747,357.2211],[-106.5064,24.7432,348.8138],[-106.5072,24.741,402.3924],[-106.5111,24.7418,333.9896],[-106.5131,24.7401,330.0718],[-106.5095,24.7354,367.5903],[-106.5113,24.7311,329.4965],[-106.5149,24.7283,319.3213],[-106.5176,24.7153,417.4809],[-106.5271,24.7072,307.8674],[-106.4965,24.7152,1298.2751],[-106.4858,24.7386,1082.6492],[-106.4322,24.7704,1371.903],[-106.4184,24.7829,1153.7007],[-106.3952,24.7493,500.2435],[-106.3907,24.7527,506.8804],[-106.3843,24.7531,485.5168],[-106.3811,24.7444,519.6257],[-106.3769,24.747,524.6334],[-106.3744,24.7449,543.6213],[-106.3751,24.747,528.5635],[-106.3673,24.7498,567.8577],[-106.3616,24.7482,591.0731],[-106.3589,24.7498,611.0419],[-106.3579,24.7478,596.1537],[-106.3563,24.7486,595.9487],[-106.3541,24.747,622.2122],[-106.3524,24.7489,708.4907],[-106.349,24.7477,633.0702],[-106.3481,24.7495,648.0131],[-106.3427,24.7467,670.4168],[-106.3393,24.7484,677.4379],[-106.3359,24.7466,694.6819],[-106.3334,24.749,731.8053],[-106.3323,24.7473,725.5881],[-106.3265,24.7487,750.6548],[-106.3233,24.7462,769.1783],[-106.3189,24.7474,800.7328],[-106.3108,24.7444,889.0014],[-106.3021,24.7452,1067.9241],[-106.2966,24.7503,1455.1887],[-106.2967,24.7541,1453.338],[-106.2993,24.7586,1576.085],[-106.2967,24.7666,1578.0823],[-106.295,24.7684,1582.3149],[-106.2886,24.7697,1628.105],[-106.2863,24.7734,1625.6653],[-106.2805,24.7709,1695.8943],[-106.2701,24.7614,1767.475],[-106.2626,24.7591,1888.799],[-106.2579,24.7537,1932.317],[-106.2517,24.7521,2144.6472],[-106.2285,24.7525,2357.1887],[-106.2206,24.7447,2433.5884],[-106.2033,24.8039,1582.2478],[-106.1348,24.7926,2229.3115],[-106.0931,24.8125,2784.6223],[-106.0569,24.8045,2627.9702],[-106.0524,24.8238,2700.2515],[-106.0438,24.8228,2677.8213],[-106.0382,24.8192,2639.2449],[-106.0366,24.8154,2618.2261],[-106.0346,24.8145,2645.0671],[-106.0332,24.8164,2639.8743],[-106.0303,24.8165,2639.4136],[-106.0281,24.8125,2609.0769],[-106.0242,24.813,2620.1899],[-106.0233,24.8152,2616.0259],[-106.0197,24.8126,2566.1157],[-106.0179,24.813,2586.1985],[-106.015,24.8183,2633.0244],[-106.0068,24.8155,2589.4292],[-106.0059,24.8173,2576.5444],[-106.003,24.8176,2604.8623],[-106.006,24.8193,2600.6519],[-106.0049,24.8223,2688.4177],[-106.0065,24.8262,2657.3057],[-106.003,24.8286,2643.1365],[-105.9988,24.8285,2604.8774],[-105.9938,24.8251,2589.2451],[-105.9933,24.8281,2540.0586],[-105.9964,24.8319,2560.4692],[-105.9898,24.8322,2651.6089],[-105.9868,24.8346,2638.6553],[-105.9885,24.8432,2741.6118],[-105.9808,24.8424,2747.3259],[-105.9859,24.8524,2727.0215],[-105.9849,24.8574,2765.5112],[-105.9803,24.859,2682.6055],[-105.9797,24.8609,2670.0691],[-105.9815,24.8643,2688.3958],[-105.9789,24.866,2748.4102],[-105.9806,24.8687,2752.3838],[-105.9765,24.8749,2803.3191],[-105.9804,24.8791,2853.7224],[-105.9797,24.883,2889.9399],[-105.9822,24.8925,2779.6519],[-105.9761,24.893,2763.1858],[-105.9731,24.8962,2756.8723],[-105.972,24.9003,2750.3684],[-105.9636,24.9018,2723.3091],[-105.9589,24.9058,2733.46],[-105.9534,24.9069,2777.1348],[-105.9475,24.9141,2745.7974],[-105.9487,24.9156,2746.4966],[-105.9467,24.9162,2752.231],[-105.9449,24.9145,2764.6863],[-105.9449,24.9113,2754.0527],[-105.9381,24.9136,2764.7856],[-105.937,24.9111,2773.7393],[-105.9329,24.917,2685.2136],[-105.9275,24.9136,2671.0171],[-105.9275,24.9172,2654.9729],[-105.9257,24.9193,2721.7612],[-105.9163,24.9226,2740.4421],[-105.9076,24.9184,2718.0261],[-105.9025,24.9185,2750.4932],[-105.8866,24.8822,2735.3384],[-105.729,24.8302,2437.6191],[-105.7294,24.8448,2213.5232],[-105.7089,24.8364,2396.6423],[-105.7085,24.793,2419.9197],[-105.6483,24.7946,2483.0745],[-105.6455,24.7534,2527.6677],[-105.6343,24.753,2466.6245],[-105.6461,24.7271,2440.8813],[-105.6625,24.6965,2344.0999],[-105.6625,24.6913,2254.7957],[-105.6665,24.6867,2295.4263],[-105.6666,24.682,2230.1802],[-105.6688,24.6807,2234.9827],[-105.668,24.6716,2211.4607],[-105.6754,24.6683,2226.97],[-105.6768,24.6609,2213.1433],[-105.6855,24.6556,2221.364],[-105.6786,24.6563,2257.4639],[-105.6785,24.6526,2447.8723],[-105.6833,24.6508,2334.0652],[-105.7024,24.6497,2368.9395],[-105.6966,24.6398,2247.2288],[-105.7088,24.6378,2235.335],[-105.7169,24.639,2197.5979],[-105.7028,24.6228,2433.5215],[-105.6863,24.6001,2539.4695],[-105.6734,24.6053,2605.0034],[-105.6426,24.6354,2314.1873],[-105.6351,24.6161,2325.2109],[-105.6093,24.6187,2241.3757],[-105.6055,24.629,2434.6924],[-105.5942,24.6329,2448.5774],[-105.5778,24.6284,2466.1724],[-105.5783,24.6258,2466.9282],[-105.5696,24.6191,2375.8179],[-105.5628,24.6167,2329.3718],[-105.5601,24.6232,2378.6909],[-105.5505,24.6201,2456.354],[-105.5408,24.628,2456.2532],[-105.5269,24.6189,2517.0156],[-105.5238,24.6243,2555.9521],[-105.4937,24.6194,2506.98],[-105.4715,24.65,2564.6851],[-105.4662,24.6485,2520.9819],[-105.4637,24.6435,2536.8816],[-105.4525,24.6415,2381.0613],[-105.4102,24.6202,2542.9023],[-105.4282,24.6374,2536.3594],[-105.4131,24.6348,2601.6775],[-105.3507,24.6774,2113.0613],[-105.3502,24.6545,2133.3203],[-105.3318,24.6485,2076.5515],[-105.3256,24.6145,2408.262],[-105.2937,24.6352,2121.23],[-105.2976,24.6134,2074.321],[-105.2905,24.6196,2024.663],[-105.2872,24.6176,1974.5812],[-105.286,24.6251,1972.4365],[-105.2777,24.6269,2003.0806],[-105.278,24.6308,1980.1039],[-105.2727,24.6339,2046.0159],[-105.271,24.6331,2058.7971],[-105.274,24.6252,1993.9568],[-105.2733,24.6234,2050.7173],[-105.2704,24.6254,2003.8229],[-105.2675,24.6252,2020.9956],[-105.2648,24.6234,1995.5806],[-105.2641,24.6204,2069.9807],[-105.2597,24.6229,2044.4047]]]]}
,"properties": {"GID_2": "MEX.10.33_2","GID_0": "MEX","country": "México","GID_1": "MEX.10_1","province": "Durango","NL_NAME_1": "NA","county": "SantiagoPapasquiaro","VARNAME_2": "NA","NL_NAME_2": "NA","TYPE_2": "Município","ENGTYPE_2": "Municipality","CC_2": "NA","HASC_2": "NA","name": "Santiago_Papasquiaro.county","area_km2": 6415.351,"hist_schema_id": "Elevation0-9000","hist_area_km2": {"325": 0.27,"350": 0.424,"375": 0.655,"400": 1.54,"425": 1.963,"450": 2.772,"475": 3.541,"500": 4.119,"525": 5.639,"550": 6.159,"575": 8.237,"600": 10.488,"625": 11.43,"650": 13.412,"675": 12.988,"700": 15.162,"725": 16.47,"750": 17.278,"775": 16.835,"800": 19.49,"825": 20.201,"850": 21.125,"875": 21.99,"900": 20.623,"925": 23.086,"950": 22.874,"975": 21.893,"1000": 21.681,"1025": 22.392,"1050": 22.16,"1075": 21.736,"1100": 21.602,"1125": 20.928,"1150": 22.062,"1175": 20.927,"1200": 20.503,"1225": 18.964,"1250": 20.618,"1275": 20.156,"1300": 18.059,"1325": 18.02,"1350": 18.693,"1375": 18.155,"1400": 18.251,"1425": 18.116,"1450": 16.673,"1475": 15.943,"1500": 15.654,"1525": 15.0,"1550": 15.365,"1575": 15.306,"1600": 15.359,"1625": 18.022,"1650": 22.932,"1675": 37.432,"1700": 60.06,"1725": 80.466,"1750": 84.789,"1775": 93.496,"1800": 108.859,"1825": 121.563,"1850": 122.188,"1875": 117.745,"1900": 115.207,"1925": 111.272,"1950": 110.705,"1975": 108.775,"2000": 160.702,"2025": 199.287,"2050": 173.276,"2075": 161.222,"2100": 159.04,"2125": 144.247,"2150": 120.602,"2175": 101.51,"2200": 86.913,"2225": 78.095,"2250": 75.692,"2275": 77.449,"2300": 84.729,"2325": 90.602,"2350": 109.295,"2375": 133.803,"2400": 146.108,"2425": 155.417,"2450": 156.748,"2475": 165.594,"2500": 171.644,"2525": 175.025,"2550": 170.181,"2575": 164.446,"2600": 164.748,"2625": 154.977,"2650": 138.351,"2675": 115.013,"2700": 97.33,"2725": 81.239,"2750": 68.574,"2775": 57.749,"2800": 49.587,"2825": 36.439,"2850": 27.099,"2875": 18.839,"2900": 12.636,"2925": 8.698,"2950": 6.143,"2975": 4.222,"3000": 2.917,"3025": 1.439,"3050": 0.614,"3075": 0.441,"3100": 0.173}}}