{"type": "Feature","bbox": [-98.7633,17.6135,-98.5824,17.8561],"geometry": {"type": "MultiPolygon","coordinates": [[[[-98.7633,17.6548,1967.3569],[-98.7557,17.6135,1937.3618],[-98.7295,17.6176,2118.8599],[-98.7358,17.6289,2079.4868],[-98.7282,17.6286,2140.4524],[-98.724,17.6338,2109.3398],[-98.7249,17.6353,2109.3398],[-98.7186,17.6634,2011.4246],[-98.7215,17.6674,2045.2311],[-98.7208,17.6713,2077.7168],[-98.6881,17.6752,1853.4038],[-98.6832,17.671,1809.5359],[-98.6775,17.6692,1770.0498],[-98.6703,17.6783,1678.2791],[-98.6258,17.6886,1803.3274],[-98.6183,17.6933,1593.2098],[-98.6164,17.7025,1341.6344],[-98.6133,17.704,1365.4503],[-98.6113,17.7,1401.6729],[-98.6082,17.6985,1423.3325],[-98.5824,17.7125,1806.3657],[-98.6003,17.7412,1318.5524],[-98.5991,17.7579,1478.0597],[-98.6019,17.7795,1560.314],[-98.6086,17.792,1510.4757],[-98.6111,17.8023,1658.5405],[-98.6064,17.8486,904.507],[-98.6034,17.8561,875.2567],[-98.6078,17.856,874.1908],[-98.6135,17.8481,918.0852],[-98.6254,17.8477,1055.5619],[-98.671,17.8276,1370.472],[-98.6691,17.8237,1527.449],[-98.6782,17.8169,1490.9121],[-98.6878,17.8132,1413.2565],[-98.7024,17.8035,1562.8796],[-98.7032,17.7995,1607.5226],[-98.7187,17.7873,1631.4985],[-98.7173,17.7823,1430.7263],[-98.7092,17.7822,1246.8008],[-98.7043,17.7766,1460.783],[-98.7004,17.7767,1589.426],[-98.7098,17.7655,1279.531],[-98.7097,17.7622,1270.8684],[-98.7121,17.7628,1284.2664],[-98.7156,17.757,1327.7175],[-98.7152,17.7528,1384.0554],[-98.7164,17.7517,1368.7158],[-98.7154,17.7501,1394.1744],[-98.7173,17.7433,1435.2748],[-98.7271,17.7497,1433.0131],[-98.7288,17.7499,1394.3501],[-98.7314,17.747,1409.3767],[-98.7331,17.7395,1568.3245],[-98.7316,17.7348,1733.261],[-98.7288,17.7342,1587.1995],[-98.7275,17.7356,1583.4707],[-98.722,17.7323,1531.7103],[-98.7225,17.7254,1814.5486],[-98.7301,17.7207,1923.03],[-98.7467,17.719,1913.2747],[-98.7538,17.7073,1991.7896],[-98.7559,17.7003,2105.5737],[-98.7567,17.6851,1977.7635],[-98.7377,17.6742,2166.5735],[-98.7633,17.6548,1967.3569]]]]}
,"properties": {"GID_2": "MEX.12.28_2","GID_0": "MEX","country": "México","GID_1": "MEX.12_1","province": "Guerrero","NL_NAME_1": "NA","county": "Cualác","VARNAME_2": "NA","NL_NAME_2": "NA","TYPE_2": "Município","ENGTYPE_2": "Municipality","CC_2": "NA","HASC_2": "NA","name": "Cualác.county","area_km2": 240.0885,"hist_schema_id": "Elevation0-9000","hist_area_km2": {"850": 0.2422,"875": 0.2624,"900": 0.4844,"925": 0.5247,"950": 0.7266,"975": 0.8679,"1000": 1.4129,"1025": 1.7562,"1050": 2.3012,"1075": 2.9674,"1100": 3.129,"1125": 4.1182,"1150": 5.2893,"1175": 5.148,"1200": 5.9555,"1225": 6.3191,"1250": 6.2789,"1275": 6.6223,"1300": 7.0668,"1325": 7.6931,"1350": 7.5116,"1375": 8.0165,"1400": 7.7138,"1425": 8.5215,"1450": 8.5016,"1475": 8.6428,"1500": 8.7238,"1525": 7.8555,"1550": 7.4719,"1575": 6.6239,"1600": 5.4526,"1625": 5.1699,"1650": 5.0893,"1675": 4.3219,"1700": 4.423,"1725": 4.1201,"1750": 4.4232,"1775": 4.08,"1800": 4.1812,"1825": 4.3632,"1850": 3.9389,"1875": 4.7473,"1900": 4.2019,"1925": 4.3232,"1950": 4.2625,"1975": 4.3031,"2000": 3.6365,"2025": 3.6969,"2050": 2.8685,"2075": 2.6059,"2100": 2.3433,"2125": 1.7978,"2150": 1.3332,"2175": 1.1312,"2200": 0.4848,"2225": 0.0404}}}