{"type":"Feature","properties":{"featurecla":"River","scalerank":7,"rivernum":391,"dissolve":"391River","name":"Grijalva4","name_alt":null,"note":null,"min_zoom":6.0,"strokeweig":0.25,"name_en":"Grijalva","min_label":7.0},
"geometry":{"type": "LineString","coordinates": [[-93.14208984375,17.949579168744123,11.7125],[-93.120410156249989,17.92218659061912,10.3857],[-93.087573242187489,17.90033600468162,9.0928],[-93.054541015624991,17.894647528119123,9.8594],[-93.0322265625,17.91547272343162,7.5765],[-93.010791015624989,17.91242096561912,9.1649],[-92.997900390624991,17.93292877811912,8.1467],[-92.98779296875,17.95868561405662,9.1701],[-92.97421875,17.971307684369123,8.5694],[-92.963671874999989,17.964960028119123,8.5277],[-92.950366210937489,17.95441315311912,21.2881],[-92.939794921874991,17.952264715619123,6.8053],[-92.937255859375,17.971307684369123,16.2488],[-92.9208984375,17.962176824994117,6.987],[-92.915576171874989,17.95709869999412,5.8419],[-92.907568359374991,17.97125885624412,7.5628],[-92.896655273437489,18.00983307499412,3.2365],[-92.895068359374989,18.02252838749412,5.5572],[-92.886816406249991,18.042743231244117,3.8493],[-92.868334960937489,18.048846746869117,2.8855],[-92.848681640624989,18.04852936405662,2.9508],[-92.837011718749991,18.04987213749412,3.2588],[-92.820483398437489,18.063006903119117,2.2502],[-92.806982421874991,18.06757233280662,5.7086],[-92.792236328125,18.06928131718162,4.2936],[-92.772143554687489,18.073749090619117,1.522],[-92.75390625,18.08661530155662,1.7408],[-92.726489257812489,18.12311432499412,0.0],[-92.717529296875,18.12836334843162,1.3619],[-92.717529296875,18.13519928593162,1.3841],[-92.703295898437489,18.122186590619123,0.5],[-92.703906249999989,18.133319403119117,2.0289],[-92.70263671875,18.14398834843162,0.9912],[-92.699951171875,18.154071356244117,1.6693],[-92.695849609374989,18.16315338749412,1.0347],[-92.717138671874991,18.15631744999412,0.6058],[-92.729052734374989,18.16766998905662,1.5065],[-92.730566406249991,18.18781159061912,1.1082],[-92.720703125,18.20722077030662,1.0892],[-92.7109375,18.22077057499412,1.0095],[-92.701025390624991,18.24103424686912,1.0569],[-92.693359375,18.263202215619117,0.7024],[-92.690234374999989,18.282586981244123,0.6231],[-92.692675781249989,18.34259674686912,0.4372],[-92.690234374999989,18.36115143436912,1.3154],[-92.670019531249991,18.400751043744123,0.4226]]}}