{"type":"Feature","properties":{"GID_2":"MEX.21.142_2","GID_0":"MEX","country":"México","GID_1":"MEX.21_1","province":"Puebla","NL_NAME_1":"NA","county":"SanPedroYeloixtlahuaca","VARNAME_2":"NA","NL_NAME_2":"NA","TYPE_2":"Município","ENGTYPE_2":"Municipality","CC_2":"NA","HASC_2":"NA","name":"San_Pedro_Yeloixtlahuaca.county"},
"geometry":{"type": "MultiPolygon","coordinates": [[[[-97.9676,17.9707,1503.9268],[-97.9729,17.98,1478.3845],[-97.9706,17.9942,1466.8329],[-97.9674,17.9965,1432.0414],[-97.967,17.9989,1419.7341],[-97.9684,17.9987,1437.8331],[-97.9698,18.0035,1418.9877],[-97.9683,18.0055,1410.235],[-97.9695,18.0055,1410.235],[-97.9688,18.0109,1409.2803],[-97.9673,18.0119,1390.4327],[-97.9691,18.013,1392.7766],[-97.9669,18.0173,1371.4551],[-97.9684,18.0179,1405.6683],[-97.9686,18.0236,1371.9646],[-97.9744,18.0256,1408.1963],[-97.9794,18.0469,1344.3308],[-97.9829,18.0486,1333.1254],[-97.9827,18.0532,1297.6755],[-97.9856,18.054,1251.5691],[-97.9892,18.0518,1256.705],[-97.9982,18.0556,1320.5743],[-97.9988,18.0572,1282.7966],[-98.001,18.0564,1306.7554],[-98.0025,18.0587,1335.9733],[-98.0046,18.0586,1302.9421],[-98.0042,18.0602,1308.2593],[-98.0058,18.0595,1291.6848],[-98.0049,18.0633,1341.1709],[-98.0063,18.0646,1310.3185],[-98.0032,18.071,1269.8916],[-98.0048,18.0775,1219.5212],[-98.0039,18.0806,1243.1863],[-98.0017,18.0811,1246.187],[-98.0008,18.0853,1265.3253],[-98.0054,18.0855,1290.1523],[-98.0084,18.0829,1231.6963],[-98.0088,18.0792,1234.2351],[-98.0129,18.0772,1205.6526],[-98.0149,18.0808,1225.074],[-98.02,18.0795,1213.7627],[-98.0251,18.0836,1190.1066],[-98.0291,18.0829,1185.9865],[-98.031,18.085,1178.5021],[-98.0345,18.0835,1180.5945],[-98.0365,18.0799,1183.73],[-98.0377,18.088,1198.5503],[-98.043,18.086,1168.3142],[-98.0475,18.0872,1175.9343],[-98.0466,18.0909,1182.2311],[-98.0483,18.0933,1154.5247],[-98.0464,18.0942,1159.2041],[-98.0508,18.0973,1168.5264],[-98.0487,18.1059,1176.674],[-98.0442,18.103,1168.3291],[-98.0426,18.1053,1230.1763],[-98.0388,18.1049,1184.0862],[-98.0407,18.1082,1223.98],[-98.0379,18.1081,1225.1504],[-98.0393,18.1103,1221.0305],[-98.0371,18.111,1244.0956],[-98.039,18.1128,1250.7789],[-98.0378,18.1126,1249.2284],[-98.0368,18.116,1225.0078],[-98.0343,18.1156,1225.5984],[-98.0308,18.1291,1264.9357],[-98.0365,18.1401,1215.5514],[-98.0416,18.1401,1204.0398],[-98.045,18.1382,1187.9341],[-98.0443,18.1355,1180.5581],[-98.0468,18.1368,1174.1818],[-98.0494,18.1361,1175.9326],[-98.0497,18.1338,1168.5558],[-98.0532,18.135,1177.7002],[-98.0559,18.1329,1156.3831],[-98.0573,18.1355,1153.7261],[-98.0656,18.1373,1154.7758],[-98.0687,18.1276,1137.3619],[-98.0794,18.1241,1115.4941],[-98.0797,18.1212,1115.9442],[-98.0845,18.1211,1113.8888],[-98.0826,18.1135,1107.4507],[-98.086,18.108,1108.6577],[-98.0912,18.1061,1105.3597],[-98.087,18.1003,1105.3254],[-98.0871,18.0963,1107.1632],[-98.0907,18.0959,1098.462],[-98.0969,18.1031,1102.5155],[-98.0995,18.1033,1093.3907],[-98.1038,18.0999,1089.9935],[-98.1042,18.0961,1094.9252],[-98.0982,18.0953,1093.0249],[-98.0996,18.0902,1110.9561],[-98.098,18.0882,1146.5693],[-98.0964,18.0897,1115.9849],[-98.0951,18.0848,1145.7576],[-98.0964,18.0833,1159.4846],[-98.0943,18.0821,1138.7603],[-98.0949,18.0774,1145.3611],[-98.0931,18.0777,1148.6844],[-98.0926,18.0759,1158.6909],[-98.0957,18.0738,1161.4768],[-98.0959,18.0666,1170.2579],[-98.1007,18.0643,1163.7217],[-98.1026,18.0657,1168.5366],[-98.1042,18.0609,1155.478],[-98.1074,18.0596,1149.4133],[-98.1045,18.0542,1183.238],[-98.0997,18.0506,1251.4141],[-98.1005,18.0474,1333.4393],[-98.1029,18.0462,1439.0536],[-98.1012,18.0375,1255.174],[-98.1054,18.035,1229.6438],[-98.1017,18.0323,1239.9731],[-98.1,18.0277,1322.0491],[-98.1008,18.025,1268.3075],[-98.1037,18.0219,1245.5697],[-98.1115,18.0242,1211.8313],[-98.1053,18.0132,1310.2773],[-98.1042,18.0078,1261.1115],[-98.1096,18.0012,1233.5222],[-98.1096,17.9911,1197.595],[-98.1074,17.9875,1204.7129],[-98.1073,17.9828,1152.3557],[-98.0989,17.9817,1175.0488],[-98.0947,17.9853,1181.0956],[-98.0927,17.9836,1210.818],[-98.0899,17.9846,1194.203],[-98.0892,17.9827,1216.1422],[-98.0752,17.9806,1291.677],[-98.0635,17.9855,1556.8887],[-98.0592,17.9819,1576.2019],[-98.0542,17.9829,1679.6593],[-98.0476,17.9811,1733.9683],[-98.0467,17.9762,1650.9286],[-98.0445,17.9794,1692.2286],[-98.0377,17.9827,1901.7863],[-98.0379,17.9875,1711.9965],[-98.035,17.9877,1660.6533],[-98.0298,17.9918,1540.4734],[-98.0254,17.9856,1614.7474],[-98.0197,17.9857,1661.6877],[-98.0152,17.9806,1832.3445],[-97.9996,17.9755,1577.1515],[-97.99,17.9754,1521.7239],[-97.9865,17.9786,1498.2888],[-97.9794,17.9644,1611.8503],[-97.9698,17.9679,1514.5701],[-97.9676,17.9707,1503.9268]]]]}}