{"type":"Feature","properties":{"GID_2":"MEX.5.9_2","GID_0":"MEX","country":"México","GID_1":"MEX.5_1","province":"Chiapas","NL_NAME_1":"NA","county":"AngelAlbinoCorzo","VARNAME_2":"NA","NL_NAME_2":"NA","TYPE_2":"Município","ENGTYPE_2":"Municipality","CC_2":"NA","HASC_2":"NA","name":"Angel_Albino_Corzo.county"},
"geometry":{"type": "MultiPolygon","coordinates": [[[[-92.6152,15.8591,1059.5498],[-92.6212,15.8878,1303.4381],[-92.6271,15.8875,1072.6399],[-92.6362,15.8825,857.3334],[-92.6504,15.8978,702.2684],[-92.6509,15.9063,659.2659],[-92.6612,15.917,563.2927],[-92.6646,15.9151,568.237],[-92.6683,15.9166,560.1483],[-92.6678,15.9107,566.0278],[-92.67,15.9066,569.4933],[-92.6728,15.9051,573.3625],[-92.6724,15.9069,578.2067],[-92.6778,15.9056,606.1604],[-92.6791,15.9031,627.9218],[-92.683,15.9034,588.3109],[-92.6914,15.8981,600.2838],[-92.6941,15.8982,580.7345],[-92.6968,15.8922,586.3746],[-92.7061,15.8896,586.1963],[-92.7104,15.8909,591.6063],[-92.7144,15.8872,596.9295],[-92.724,15.8854,601.7294],[-92.7276,15.8789,604.2919],[-92.7337,15.8737,618.0048],[-92.7335,15.8691,616.2894],[-92.7418,15.8671,631.8541],[-92.7471,15.8633,622.4696],[-92.748,15.8598,624.8586],[-92.7514,15.8569,639.2153],[-92.7669,15.8595,713.4327],[-92.7758,15.8579,809.632],[-92.7994,15.842,723.305],[-92.8091,15.8288,920.8788],[-92.7842,15.8243,699.7621],[-92.8063,15.8012,797.3104],[-92.818,15.7918,785.9713],[-92.8182,15.7889,794.5485],[-92.814,15.7852,838.0903],[-92.814,15.7822,790.6631],[-92.8171,15.7812,823.7233],[-92.8224,15.7832,867.8589],[-92.8243,15.7769,829.1907],[-92.8272,15.7742,888.3401],[-92.8259,15.7639,904.0508],[-92.8287,15.7611,955.7306],[-92.8277,15.7585,871.9424],[-92.8297,15.7554,900.8148],[-92.8263,15.7535,914.2069],[-92.8225,15.7545,881.6486],[-92.819,15.7529,902.717],[-92.8194,15.7505,888.8252],[-92.8162,15.7455,905.5817],[-92.8132,15.7452,934.3838],[-92.8112,15.7393,926.337],[-92.8054,15.7356,930.1254],[-92.8018,15.7301,987.894],[-92.8066,15.7189,1177.9133],[-92.8174,15.7293,1284.0088],[-92.8303,15.7147,1526.4845],[-92.8262,15.7078,1991.8501],[-92.815,15.7148,1311.9146],[-92.8062,15.7146,1242.6802],[-92.8296,15.6668,2175.3552],[-92.8262,15.6646,2283.0396],[-92.8243,15.6665,2227.8237],[-92.8174,15.6588,2040.2053],[-92.812,15.6594,2012.8688],[-92.8083,15.6561,1978.2817],[-92.8057,15.6559,1996.0703],[-92.8045,15.6576,1982.7144],[-92.7948,15.6548,2120.2998],[-92.7878,15.6439,2157.3208],[-92.7823,15.6417,2063.0559],[-92.7666,15.6474,1805.5768],[-92.7683,15.6362,2208.0811],[-92.7628,15.6314,2401.4348],[-92.7614,15.6621,1744.2506],[-92.7663,15.6702,1959.8298],[-92.7465,15.6703,1726.8411],[-92.7455,15.6758,1562.4456],[-92.7347,15.676,1707.083],[-92.7351,15.679,1503.6244],[-92.7247,15.679,1633.7233],[-92.7202,15.6827,1501.9766],[-92.7161,15.683,1466.1523],[-92.7138,15.6851,1551.3816],[-92.7086,15.7104,1464.0902],[-92.6912,15.7102,1587.2526],[-92.6912,15.6949,1115.1858],[-92.6876,15.6945,1077.251],[-92.6818,15.7065,1617.5771],[-92.6816,15.7123,1835.443],[-92.6776,15.7142,1567.5326],[-92.6761,15.7229,1912.6742],[-92.6668,15.7248,1808.4927],[-92.6593,15.7305,1428.4097],[-92.6334,15.7335,1402.7024],[-92.6273,15.7357,1446.2731],[-92.6182,15.7422,1130.0691],[-92.6085,15.7435,1346.6525],[-92.6104,15.7453,1245.0271],[-92.5994,15.7443,1291.1167],[-92.5891,15.7486,1475.8838],[-92.5836,15.7478,1486.2301],[-92.5813,15.7529,1738.8555],[-92.5742,15.754,1817.3351],[-92.5712,15.7521,1811.6461],[-92.5705,15.7492,1702.0776],[-92.5761,15.7333,1167.1162],[-92.5808,15.7316,1185.3524],[-92.577,15.6998,912.9547],[-92.5772,15.6897,952.3599],[-92.5948,15.6703,869.6776],[-92.5892,15.6573,1055.6488],[-92.6154,15.6429,1146.0204],[-92.6171,15.6374,1394.3029],[-92.6141,15.633,1703.3381],[-92.6305,15.6337,1619.2939],[-92.6505,15.6212,1800.2089],[-92.6513,15.6165,1805.478],[-92.6647,15.6125,2070.9937],[-92.6598,15.6104,1958.6509],[-92.663,15.609,2138.6658],[-92.6615,15.6072,2162.9858],[-92.6529,15.6067,2033.8005],[-92.6436,15.621,2078.6975],[-92.6372,15.6211,2100.1733],[-92.6263,15.6296,1992.7383],[-92.5989,15.6251,1866.15],[-92.5935,15.6217,1736.6298],[-92.5898,15.6229,1658.8522],[-92.563,15.6185,1226.8353],[-92.5419,15.6012,980.0982],[-92.5388,15.6001,913.34],[-92.5348,15.6083,893.2362],[-92.5296,15.6109,881.8341],[-92.5269,15.6154,890.0195],[-92.5211,15.6143,951.8065],[-92.5211,15.6211,854.0098],[-92.5178,15.6206,850.0707],[-92.5164,15.6233,854.8057],[-92.5114,15.6246,842.574],[-92.5063,15.6309,833.8782],[-92.5057,15.6343,821.1246],[-92.5037,15.6343,825.767],[-92.5015,15.6373,815.8103],[-92.497,15.6372,815.2781],[-92.4969,15.6433,806.4564],[-92.4946,15.6456,911.3849],[-92.5142,15.658,935.915],[-92.5247,15.6672,1360.444],[-92.521,15.6703,1514.1311],[-92.5298,15.6737,1697.5247],[-92.5309,15.6794,1633.3143],[-92.5215,15.6846,1480.9523],[-92.511,15.6954,1239.8906],[-92.524,15.6957,1188.859],[-92.5159,15.6998,1064.084],[-92.4973,15.6982,954.8599],[-92.4917,15.6997,775.3311],[-92.4933,15.7064,766.4957],[-92.5226,15.7073,943.5004],[-92.5165,15.7387,1682.7415],[-92.5133,15.7423,1835.6238],[-92.5139,15.7461,1868.7358],[-92.5178,15.7453,1828.8436],[-92.5203,15.7414,1709.5826],[-92.5268,15.7458,1758.7738],[-92.5324,15.7441,1720.6699],[-92.5357,15.7466,1737.2594],[-92.5366,15.7443,1705.4958],[-92.5387,15.7439,1666.2399],[-92.5409,15.7493,1737.0178],[-92.5439,15.7491,1765.6478],[-92.5464,15.7574,1527.1028],[-92.5724,15.7644,1475.4839],[-92.569,15.7757,1094.2491],[-92.5723,15.7785,1068.1213],[-92.5736,15.7775,1083.1541],[-92.5729,15.7737,1204.3859],[-92.5745,15.7692,1334.5623],[-92.5936,15.7619,1741.1421],[-92.6019,15.7692,1521.9301],[-92.6105,15.78,1254.5635],[-92.6089,15.7895,1277.7106],[-92.614,15.7937,1034.3788],[-92.6164,15.8002,770.4375],[-92.6113,15.804,741.8235],[-92.6089,15.8085,763.8469],[-92.6074,15.8163,722.3038],[-92.6094,15.8259,727.7666],[-92.6064,15.8269,725.6019],[-92.6042,15.8299,681.6891],[-92.6152,15.8591,1059.5498]]]]}}