{"type":"Feature","properties":{"GID_2":"MEX.21.74_2","GID_0":"MEX","country":"México","GID_1":"MEX.21_1","province":"Puebla","NL_NAME_1":"NA","county":"Huehuetla","VARNAME_2":"NA","NL_NAME_2":"NA","TYPE_2":"Município","ENGTYPE_2":"Municipality","CC_2":"NA","HASC_2":"NA","name":"Huehuetla.county"},
"geometry":{"type": "MultiPolygon","coordinates": [[[[-97.6152,20.0249,396.2538],[-97.6118,20.0311,414.438],[-97.6055,20.0308,491.7567],[-97.6001,20.0281,405.3436],[-97.5978,20.0307,385.5082],[-97.592,20.0314,302.9424],[-97.5903,20.0343,353.0565],[-97.5938,20.0508,279.5753],[-97.6063,20.0531,589.3733],[-97.606,20.0575,584.0371],[-97.6093,20.0589,591.8057],[-97.6117,20.0549,592.2448],[-97.6195,20.0516,631.8959],[-97.6198,20.0458,764.9247],[-97.6249,20.0417,785.2207],[-97.6195,20.0388,842.5176],[-97.621,20.0335,782.4573],[-97.6196,20.0235,775.231],[-97.6179,20.0261,546.3801],[-97.6152,20.0249,396.2538]]],
[[[-97.5959,20.0968,274.4836],[-97.5905,20.096,284.6805],[-97.5879,20.0977,292.7972],[-97.5842,20.0948,256.8322],[-97.5803,20.0967,260.7723],[-97.5811,20.1003,256.1043],[-97.5788,20.103,212.0485],[-97.5817,20.1062,396.1193],[-97.5821,20.109,514.807],[-97.5874,20.1086,548.0846],[-97.5875,20.1123,502.9703],[-97.5936,20.1154,486.0195],[-97.5976,20.115,511.2545],[-97.6025,20.1189,608.0209],[-97.6051,20.1317,444.7832],[-97.601,20.1413,275.9075],[-97.6038,20.1405,304.4291],[-97.6053,20.1418,340.3254],[-97.6069,20.1504,541.9102],[-97.6084,20.1516,608.3229],[-97.605,20.1578,394.7965],[-97.6045,20.1669,370.0985],[-97.6164,20.169,403.2837],[-97.6213,20.1721,168.3649],[-97.622,20.1688,213.0974],[-97.6251,20.1683,336.9359],[-97.6227,20.1661,197.5289],[-97.6248,20.1636,358.8861],[-97.6235,20.1605,244.0618],[-97.6257,20.1583,338.5341],[-97.6236,20.1581,269.4902],[-97.623,20.1536,281.0103],[-97.6244,20.1519,360.9149],[-97.6264,20.1529,287.8091],[-97.6255,20.1483,292.2828],[-97.6286,20.1435,379.9883],[-97.6253,20.144,312.6637],[-97.6227,20.141,331.3045],[-97.6372,20.1374,703.2218],[-97.6348,20.126,809.7174],[-97.636,20.1194,844.3165],[-97.6446,20.12,580.568],[-97.6409,20.1104,752.3842],[-97.6428,20.1079,806.7477],[-97.6466,20.1074,897.4753],[-97.6514,20.1111,717.4064],[-97.6476,20.1004,805.5359],[-97.65,20.1003,847.8675],[-97.655,20.095,1109.8673],[-97.6612,20.072,1005.895],[-97.6346,20.078,436.3325],[-97.6256,20.076,417.7268],[-97.6227,20.0825,396.1592],[-97.6182,20.0852,385.9935],[-97.6131,20.0918,321.9325],[-97.6092,20.0903,349.1897],[-97.6085,20.093,370.1475],[-97.6032,20.0946,314.5634],[-97.6044,20.0967,310.5063],[-97.6023,20.0968,299.1182],[-97.6017,20.0988,321.9812],[-97.5959,20.0968,274.4836]]]]}}