{"type": "Feature","bbox": [-108.6287,29.75,-107.9104,30.6806],"geometry": {"type": "MultiPolygon","coordinates": [[[[-108.6106,30.0424,2065.741],[-108.6069,30.0286,1917.4692],[-108.6155,29.9659,2032.4283],[-108.6287,29.953,1981.0618],[-108.6281,29.9513,1985.0593],[-108.6229,29.9505,2021.0016],[-108.6188,29.9313,1969.3578],[-108.6191,29.9094,1626.2057],[-108.6149,29.8951,1668.4626],[-108.6148,29.8813,1408.1938],[-108.613,29.8841,1475.2722],[-108.6062,29.8847,1428.111],[-108.6055,29.8876,1448.9353],[-108.5994,29.8882,1460.5452],[-108.5998,29.8904,1449.5886],[-108.5971,29.893,1480.781],[-108.5949,29.893,1489.1218],[-108.5951,29.8946,1483.6821],[-108.5913,29.8937,1531.3146],[-108.5896,29.8959,1489.3601],[-108.585,29.8972,1521.3143],[-108.5845,29.8957,1490.5276],[-108.5782,29.895,1541.6609],[-108.5709,29.898,1536.7974],[-108.5623,29.895,1554.2711],[-108.5572,29.8984,1568.835],[-108.5543,29.8981,1575.4666],[-108.5645,29.924,2069.4709],[-108.5103,30.0052,2093.6602],[-108.3625,30.0048,2199.5889],[-108.3625,29.9601,2265.9966],[-108.3106,29.9601,2254.592],[-108.3106,30.005,2164.5603],[-108.2234,30.0052,2148.0205],[-108.2231,29.7584,2405.6104],[-108.1275,29.7583,2288.332],[-108.1122,29.75,2161.5298],[-108.0978,29.7766,1915.3937],[-108.0711,29.7767,2238.5369],[-108.0395,29.7797,2219.9834],[-108.0229,29.7774,2144.022],[-108.0264,29.7787,2029.4851],[-108.0272,29.7879,1989.4006],[-108.0249,29.79,2003.0513],[-108.0256,29.7932,1964.1168],[-108.022,29.795,1986.795],[-108.0218,29.7978,1954.5448],[-108.0191,29.8013,1935.9606],[-108.0213,29.8068,1926.3435],[-108.0206,29.8121,1913.4125],[-108.0223,29.8129,1915.9459],[-108.0239,29.8247,1892.8585],[-108.0223,29.8255,1888.7622],[-108.0219,29.8311,1882.895],[-108.0189,29.8345,1869.5977],[-108.0197,29.836,1881.6313],[-108.0169,29.837,1870.0427],[-108.0185,29.8381,1916.9545],[-108.016,29.8398,1884.7361],[-108.0183,29.8405,1913.9233],[-108.0143,29.8413,1844.3165],[-108.0151,29.8425,1845.4603],[-108.0129,29.8468,1826.8317],[-108.0115,29.8462,1827.9987],[-108.0109,29.8489,1824.9088],[-108.0092,29.8492,1807.5297],[-108.0103,29.8515,1848.5654],[-108.0067,29.8529,1813.5876],[-108.0077,29.8561,1789.7034],[-108.0023,29.8619,1774.9929],[-108.0031,29.8643,1772.6024],[-108.0,29.8649,1751.0667],[-108.0013,29.8688,1740.7212],[-107.9982,29.8808,1742.765],[-108.0042,29.8856,1734.532],[-107.9965,29.8875,1714.6494],[-107.9991,29.8924,1712.6736],[-107.9949,29.896,1711.3181],[-107.995,29.8987,1708.1621],[-108.0008,29.8993,1709.4753],[-108.0033,29.903,1705.0753],[-108.0027,29.9045,1708.4886],[-107.9979,29.9056,1701.6089],[-108.0024,29.9129,1695.5447],[-108.002,29.9143,1704.2356],[-107.9914,29.9114,1692.5272],[-107.9855,29.915,1683.0322],[-107.9889,29.9251,1700.6221],[-107.9864,29.9276,1688.1619],[-107.9958,29.9312,1688.0215],[-107.9937,29.9348,1674.2061],[-107.9888,29.938,1709.8436],[-107.9948,29.9483,1657.9309],[-107.9888,29.9503,1721.3091],[-107.9923,29.9609,1679.8467],[-107.9962,29.963,1652.406],[-107.9932,29.9648,1723.7201],[-107.9978,29.9676,1664.926],[-107.9947,29.9698,1652.3352],[-108.0001,29.9779,1645.7797],[-108.0049,29.9816,1642.4648],[-108.0054,29.9896,1642.6177],[-108.0073,29.9918,1635.3326],[-108.0049,29.9938,1637.9236],[-108.005,29.9965,1634.6381],[-108.0128,29.9989,1644.6332],[-108.0096,30.004,1634.6919],[-108.0111,30.0052,1624.5323],[-108.0148,30.0037,1680.0236],[-108.015,30.0114,1628.562],[-108.0129,30.0114,1643.6755],[-108.0115,30.0075,1694.0459],[-108.0035,30.0058,1780.8302],[-108.0018,30.0075,1778.0673],[-108.0019,30.0121,1819.2797],[-107.9985,30.0106,1908.5519],[-107.9948,30.0142,1913.6229],[-107.9904,30.0156,1895.1775],[-107.99,30.024,1907.2299],[-107.9883,30.0252,1889.3845],[-107.972,30.0264,2051.7126],[-107.9519,30.0201,1926.4935],[-107.9475,30.0258,1861.5063],[-107.9258,30.0182,2134.3906],[-107.9284,30.0221,2163.2395],[-107.9314,30.0206,2149.5996],[-107.9334,30.025,2135.6931],[-107.9284,30.0393,2142.8674],[-107.929,30.0429,2141.1772],[-107.9264,30.0468,2121.4375],[-107.9277,30.0478,2100.0774],[-107.9336,30.0442,2022.9004],[-107.934,30.0487,1988.1322],[-107.9368,30.0534,1976.604],[-107.9317,30.0672,1948.089],[-107.9418,30.0721,1951.1797],[-107.9441,30.0775,1941.1316],[-107.9436,30.081,1936.6108],[-107.9473,30.085,1947.3552],[-107.9529,30.0859,1958.6935],[-107.9538,30.0903,1972.5294],[-107.9613,30.0918,1965.0908],[-107.9615,30.0939,1972.4824],[-107.9582,30.0954,1965.7449],[-107.9604,30.0982,1971.6831],[-107.9638,30.0991,1990.6896],[-107.9502,30.2252,1653.2845],[-107.9809,30.2263,1599.002],[-107.9818,30.2303,1568.1044],[-107.9843,30.2325,1554.9362],[-107.9914,30.2338,1534.5906],[-107.9985,30.2325,1518.988],[-107.9965,30.2398,1516.6514],[-107.9902,30.2452,1521.9285],[-107.9782,30.2484,1529.5312],[-107.9679,30.2456,1503.1577],[-107.9627,30.2502,1508.8694],[-107.9617,30.2554,1501.6658],[-107.9628,30.2597,1500.0854],[-107.9578,30.265,1498.3469],[-107.9617,30.2684,1497.4111],[-107.9556,30.2742,1496.5359],[-107.9581,30.2786,1496.34],[-107.9554,30.2866,1492.6012],[-107.9561,30.2888,1492.248],[-107.9531,30.2907,1492.3005],[-107.954,30.2922,1491.9021],[-107.9511,30.2946,1491.5505],[-107.9504,30.2987,1489.4791],[-107.9439,30.3014,1488.2439],[-107.9482,30.3062,1487.3184],[-107.9495,30.3134,1485.428],[-107.9472,30.3179,1484.0269],[-107.9491,30.3205,1486.4751],[-107.9495,30.3258,1483.8765],[-107.9469,30.3273,1483.7374],[-107.9442,30.3261,1482.5615],[-107.9415,30.33,1481.8724],[-107.9417,30.3327,1479.3646],[-107.9366,30.3343,1478.126],[-107.9368,30.3405,1476.9938],[-107.9317,30.3461,1475.4387],[-107.9316,30.3535,1473.585],[-107.929,30.3554,1474.0519],[-107.9283,30.3599,1472.6091],[-107.9306,30.3617,1471.9694],[-107.9293,30.3644,1471.3286],[-107.9328,30.3679,1470.0087],[-107.9333,30.3715,1468.5081],[-107.9384,30.3746,1468.3976],[-107.9358,30.3786,1469.5703],[-107.9389,30.3804,1467.1189],[-107.9399,30.3842,1463.9282],[-107.9361,30.3963,1461.9308],[-107.9389,30.4001,1461.9452],[-107.9376,30.4049,1460.2872],[-107.9386,30.4139,1457.574],[-107.9434,30.4157,1457.5886],[-107.9444,30.4178,1457.1726],[-107.9401,30.4234,1455.4122],[-107.9416,30.4256,1453.9475],[-107.9416,30.4338,1452.7627],[-107.9437,30.4378,1451.0298],[-107.9414,30.4401,1450.989],[-107.942,30.4436,1450.88],[-107.9337,30.447,1448.5718],[-107.9375,30.4536,1447.0308],[-107.9314,30.4545,1446.5779],[-107.9303,30.4568,1446.613],[-107.9315,30.459,1445.2554],[-107.9262,30.4615,1444.3652],[-107.9296,30.4659,1442.9087],[-107.9249,30.4704,1441.3757],[-107.9215,30.4702,1441.8743],[-107.9204,30.4752,1440.3296],[-107.9258,30.48,1439.1023],[-107.9223,30.4816,1437.6951],[-107.9204,30.4869,1437.2325],[-107.9212,30.4906,1435.7388],[-107.9196,30.4965,1434.0405],[-107.9208,30.501,1432.637],[-107.917,30.506,1432.4346],[-107.9191,30.5093,1431.2153],[-107.9147,30.5116,1430.8406],[-107.9179,30.5206,1429.2494],[-107.9151,30.5225,1428.1464],[-107.9155,30.5252,1428.1176],[-107.9107,30.5275,1429.4629],[-107.9134,30.5327,1426.7054],[-107.9104,30.5355,1427.0813],[-107.9142,30.5445,1423.8604],[-107.9105,30.5451,1425.1069],[-107.9112,30.5477,1423.1892],[-107.9163,30.5492,1422.5579],[-107.9129,30.5548,1421.9032],[-107.9137,30.5586,1420.3561],[-107.9154,30.5597,1420.2272],[-107.9151,30.5629,1419.6288],[-107.9128,30.5629,1419.499],[-107.9121,30.5645,1418.8289],[-107.9132,30.5727,1417.6729],[-107.9119,30.5775,1417.3313],[-107.9143,30.5792,1416.4624],[-107.9126,30.5808,1416.8351],[-107.9123,30.5857,1415.4417],[-107.9126,30.5874,1415.3055],[-107.918,30.5874,1414.4725],[-107.912,30.5954,1413.5057],[-107.9124,30.5979,1412.4576],[-107.9157,30.6005,1412.0128],[-107.9161,30.6083,1410.6829],[-107.9199,30.6083,1409.7877],[-107.9194,30.6189,1410.5248],[-107.9224,30.6233,1406.4652],[-107.9231,30.6292,1405.4949],[-107.9211,30.6295,1408.5829],[-107.9221,30.6339,1405.4309],[-107.9234,30.6357,1405.2178],[-107.9255,30.6355,1404.7301],[-107.9273,30.6401,1403.9561],[-107.9267,30.6453,1403.0255],[-107.9296,30.6459,1402.9158],[-107.9302,30.6528,1400.7841],[-107.935,30.6571,1399.8154],[-107.9351,30.6597,1399.2595],[-107.9373,30.6619,1399.5548],[-108.0179,30.6519,1401.4918],[-108.0212,30.6595,1404.0537],[-108.0382,30.6515,1424.9008],[-108.0366,30.6642,1418.4244],[-108.0579,30.6806,1423.5334],[-108.1101,30.6754,1566.9635],[-108.1073,30.6609,1618.5217],[-108.0959,30.6472,1494.0721],[-108.0721,30.6268,1456.6914],[-108.0741,30.603,1439.9733],[-108.0886,30.6001,1447.3042],[-108.0909,30.5988,1448.9863],[-108.0893,30.5971,1445.0283],[-108.0965,30.5931,1454.9677],[-108.0995,30.5947,1451.3656],[-108.1065,30.5944,1451.8953],[-108.1081,30.5966,1452.6533],[-108.1139,30.5946,1454.3779],[-108.1159,30.5915,1455.5339],[-108.1231,30.589,1459.9038],[-108.1252,30.586,1457.9558],[-108.13,30.5848,1458.4886],[-108.1308,30.5828,1461.4161],[-108.1449,30.5778,1461.6946],[-108.1483,30.5739,1463.6582],[-108.1534,30.5734,1464.2693],[-108.1618,30.5655,1466.4492],[-108.1715,30.5609,1468.6555],[-108.1571,30.5392,1491.8879],[-108.1569,30.5361,1495.137],[-108.1603,30.5291,1500.4779],[-108.1631,30.5286,1500.9658],[-108.1657,30.5311,1496.9059],[-108.1708,30.5321,1489.8904],[-108.1727,30.5396,1485.2819],[-108.1755,30.5407,1486.7383],[-108.19,30.5328,1524.9688],[-108.1907,30.5268,1547.275],[-108.1893,30.5228,1553.8062],[-108.1921,30.5145,1578.8542],[-108.1939,30.5104,1594.825],[-108.1993,30.5086,1609.0461],[-108.2045,30.4998,1641.4855],[-108.2083,30.4966,1659.2281],[-108.2092,30.4876,1700.901],[-108.217,30.4825,1719.1479],[-108.2277,30.4819,1763.6881],[-108.2301,30.4793,1796.9772],[-108.2228,30.4719,1817.5986],[-108.2217,30.4682,1825.4391],[-108.2131,30.4625,1796.6265],[-108.2017,30.4584,1770.5803],[-108.1825,30.4598,1730.0021],[-108.1787,30.4506,1719.2898],[-108.1737,30.4458,1712.5864],[-108.1821,30.4459,1718.5085],[-108.1876,30.4399,1738.196],[-108.1976,30.4349,1767.4893],[-108.2004,30.431,1778.571],[-108.2113,30.4258,1815.8993],[-108.2198,30.4152,1905.6721],[-108.2152,30.3994,1703.651],[-108.2075,30.3934,1708.408],[-108.2039,30.3929,1691.6538],[-108.2015,30.3945,1689.3097],[-108.1981,30.389,1714.3777],[-108.1985,30.3835,1742.4012],[-108.2014,30.377,1934.7588],[-108.2047,30.3761,1945.683],[-108.255,30.3794,1767.3136],[-108.2613,30.3844,1771.5446],[-108.2681,30.3851,1776.064],[-108.279,30.3914,1800.5712],[-108.2963,30.3946,1823.8914],[-108.3028,30.3945,1835.3136],[-108.3047,30.3926,1841.4446],[-108.3159,30.393,1865.6907],[-108.3223,30.3909,1885.8566],[-108.334,30.3907,1963.9778],[-108.3421,30.3953,2015.6156],[-108.344,30.3982,1991.1489],[-108.3491,30.3962,2035.7737],[-108.3465,30.3936,2197.1165],[-108.3464,30.386,2237.8518],[-108.3486,30.3855,2240.5559],[-108.3516,30.3817,2196.2913],[-108.3579,30.38,2212.8638],[-108.3633,30.3765,2214.7476],[-108.3707,30.3754,2178.1543],[-108.3725,30.3733,2175.3179],[-108.368,30.3654,2144.0576],[-108.3693,30.3647,2144.0576],[-108.3667,30.3582,2139.0286],[-108.3706,30.353,2133.6973],[-108.3709,30.3476,2106.4702],[-108.3815,30.3449,2092.3757],[-108.3831,30.3399,2071.5391],[-108.3963,30.3464,2099.3484],[-108.3977,30.3453,2119.8406],[-108.4077,30.3469,2130.5173],[-108.4061,30.3363,2214.7739],[-108.436,30.3438,2243.2192],[-108.4414,30.3022,2125.6987],[-108.4756,30.3043,2060.4495],[-108.5017,30.2641,2450.8208],[-108.5019,30.2351,2381.8333],[-108.5054,30.1797,2071.2175],[-108.6176,30.236,2360.5146],[-108.6117,30.1023,2147.4736],[-108.6182,30.0895,2165.1924],[-108.6145,30.0893,2155.2852],[-108.6147,30.0578,2003.0186],[-108.6106,30.0424,2065.741]]]]}
,"properties": {"GID_2": "MEX.6.13_2","GID_0": "MEX","country": "México","GID_1": "MEX.6_1","province": "Chihuahua","NL_NAME_1": "NA","county": "CasasGrandes","VARNAME_2": "NA","NL_NAME_2": "NA","TYPE_2": "Município","ENGTYPE_2": "Municipality","CC_2": "NA","HASC_2": "NA","name": "Casas_Grandes.county","area_km2": 3758.975,"hist_schema_id": "Elevation0-9000","hist_area_km2": {"1400": 76.65,"1425": 131.888,"1450": 65.621,"1475": 72.908,"1500": 68.279,"1525": 77.916,"1550": 93.595,"1575": 99.135,"1600": 106.415,"1625": 101.333,"1650": 96.336,"1675": 88.763,"1700": 87.116,"1725": 85.832,"1750": 81.144,"1775": 77.955,"1800": 72.932,"1825": 77.446,"1850": 84.267,"1875": 92.253,"1900": 95.455,"1925": 94.769,"1950": 96.217,"1975": 104.322,"2000": 110.26,"2025": 122.939,"2050": 138.277,"2075": 136.034,"2100": 129.368,"2125": 128.226,"2150": 132.859,"2175": 114.407,"2200": 87.936,"2225": 67.852,"2250": 59.875,"2275": 54.802,"2300": 49.192,"2325": 43.532,"2350": 39.279,"2375": 36.716,"2400": 34.779,"2425": 30.432,"2450": 25.381,"2475": 21.858,"2500": 18.132,"2525": 16.004,"2550": 12.35,"2575": 9.28,"2600": 5.144,"2625": 3.013,"2650": 2.26,"2675": 0.22}}}