{"type":"Feature","properties":{"GID_2":"MEX.7.1_2","GID_0":"MEX","country":"México","GID_1":"MEX.7_1","province":"Coahuila","NL_NAME_1":"NA","county":"Abasolo","VARNAME_2":"NA","NL_NAME_2":"NA","TYPE_2":"Município","ENGTYPE_2":"Municipality","CC_2":"NA","HASC_2":"NA","name":"Abasolo.county"},
"geometry":{"type": "MultiPolygon","coordinates": [[[[-100.9423,27.0964,941.8032],[-100.9697,27.1056,716.0217],[-101.1257,27.1503,500.7876],[-101.1764,27.1221,423.9554],[-101.1836,27.1525,438.4784],[-101.1877,27.1598,456.2613],[-101.1957,27.1656,435.3706],[-101.2122,27.1702,395.5687],[-101.2166,27.1943,383.9475],[-101.2062,27.2073,379.6746],[-101.2012,27.2101,380.7437],[-101.2332,27.2096,390.8499],[-101.2553,27.2253,456.0441],[-101.2596,27.2418,642.9371],[-101.2656,27.2493,703.7836],[-101.2705,27.2504,686.2228],[-101.2772,27.2552,813.534],[-101.2824,27.2555,847.705],[-101.2875,27.2615,860.5631],[-101.3055,27.2676,1000.709],[-101.322,27.2792,1163.0159],[-101.3692,27.22,422.0023],[-101.3708,27.2148,422.8395],[-101.3775,27.2201,426.1649],[-101.3776,27.2169,425.1024],[-101.3833,27.214,428.2317],[-101.3907,27.2072,430.2044],[-101.408,27.1983,434.5732],[-101.4271,27.1848,440.4741],[-101.4344,27.1889,439.9026],[-101.433,27.1903,439.6291],[-101.4385,27.1978,443.2247],[-101.44,27.1939,442.2854],[-101.4448,27.2002,444.0213],[-101.4464,27.1992,444.4285],[-101.4482,27.2015,445.5576],[-101.449,27.1997,445.0543],[-101.4526,27.2048,446.288],[-101.4534,27.2029,446.0047],[-101.4551,27.2053,446.192],[-101.4562,27.2028,446.0748],[-101.456,27.2067,446.5746],[-101.4601,27.2053,446.0546],[-101.4711,27.2125,451.0163],[-101.4758,27.2136,452.7015],[-101.4974,27.1448,449.2754],[-101.4922,27.145,447.4976],[-101.4868,27.142,447.4827],[-101.4835,27.1441,446.7349],[-101.4773,27.1446,445.3676],[-101.4442,27.1329,440.9979],[-101.4373,27.128,441.9081],[-101.4317,27.1058,460.8535],[-101.4129,27.1007,454.43],[-101.3469,27.063,467.3862],[-101.2977,27.0207,507.4444],[-101.2641,27.007,494.9881],[-101.2052,27.0406,452.5965],[-101.1797,27.0118,476.2193],[-101.0764,27.0425,1744.7776],[-101.0675,27.0207,1563.3571],[-101.0608,27.0236,1519.928],[-100.9423,27.0964,941.8032]]]]}}