{"type":"Feature","properties":{"GID_2":"MEX.7.31_2","GID_0":"MEX","country":"México","GID_1":"MEX.7_1","province":"Coahuila","NL_NAME_1":"NA","county":"SanBuenaventura","VARNAME_2":"NA","NL_NAME_2":"NA","TYPE_2":"Município","ENGTYPE_2":"Municipality","CC_2":"NA","HASC_2":"NA","name":"San_Buenaventura.county"},
"geometry":{"type": "MultiPolygon","coordinates": [[[[-101.4758,27.2136,452.7015],[-101.4439,27.3154,483.8181],[-101.4773,27.3161,490.7402],[-101.4568,27.3876,740.854],[-101.4966,27.4445,848.212],[-101.4999,27.494,1148.2749],[-101.504,27.507,1086.2104],[-101.5191,27.5296,1201.062],[-101.5216,27.5362,1283.1533],[-101.5313,27.5453,1096.2709],[-101.5516,27.5733,1345.7303],[-101.573,27.6035,1119.864],[-101.5907,27.6328,1252.7507],[-101.591,27.6395,1315.843],[-101.5975,27.6657,1060.0612],[-101.6066,27.6908,772.3076],[-101.5017,27.7331,1406.2566],[-101.5066,27.7418,1404.1372],[-101.5008,27.7634,1072.8906],[-101.5205,27.7783,1326.7671],[-101.556,27.7848,1209.7529],[-101.5571,27.7901,1464.7903],[-101.5536,27.7973,1353.1143],[-101.5602,27.7994,1419.9246],[-101.5638,27.8062,1310.6794],[-101.5851,27.7996,1469.2021],[-101.5977,27.8057,1370.6689],[-101.6007,27.8135,1326.0284],[-101.6107,27.8156,1370.9069],[-101.6228,27.8281,1467.321],[-101.665,27.8331,1289.4666],[-101.6806,27.8404,1393.0669],[-101.6981,27.8451,1450.9761],[-101.7022,27.8432,1530.5833],[-101.7176,27.8465,1455.7747],[-101.7228,27.8456,1483.9843],[-101.7288,27.8469,1515.6294],[-101.7382,27.8537,1526.9817],[-101.7417,27.8529,1564.6732],[-101.7454,27.855,1507.9595],[-101.7493,27.859,1492.106],[-101.7737,27.8643,1565.3461],[-101.7811,27.8673,1475.5408],[-101.7868,27.8724,1514.8497],[-101.7922,27.8737,1589.5874],[-101.7945,27.8728,1608.3414],[-101.8031,27.8442,1676.3549],[-101.8077,27.847,1604.6481],[-101.8107,27.8468,1653.4011],[-101.8146,27.8501,1726.6575],[-101.8172,27.8488,1714.6102],[-101.8203,27.8499,1703.8191],[-101.8276,27.8468,1790.7823],[-101.8449,27.8498,1856.6349],[-101.8542,27.8605,1847.0269],[-101.8659,27.8628,1902.1199],[-101.8747,27.8674,1966.131],[-101.8762,27.871,1928.6704],[-101.886,27.8732,1912.3389],[-101.8879,27.8756,1872.0243],[-101.8922,27.8766,1999.5365],[-101.8938,27.881,1907.5594],[-101.9039,27.8915,2039.6986],[-101.908,27.8995,2013.7914],[-101.9074,27.9065,1884.5817],[-101.918,27.9117,2005.0205],[-101.9242,27.9243,1976.042],[-101.9305,27.9244,2053.3372],[-101.932,27.9295,1942.1388],[-101.935,27.9299,1968.9973],[-101.9377,27.933,1919.4608],[-101.9452,27.9505,1904.5735],[-101.9543,27.9548,1956.0542],[-101.9597,27.9615,1809.7527],[-101.9678,27.9654,1851.3022],[-101.9654,27.9728,1753.7734],[-101.9672,27.9779,1831.5942],[-101.9663,27.9825,1761.0117],[-101.9595,27.992,1918.9731],[-101.9576,27.9924,1872.0797],[-101.9575,27.9971,1769.5356],[-101.9639,28.003,1841.1549],[-101.9669,28.0043,1819.8479],[-101.9701,28.0034,1814.7689],[-101.9756,28.0124,1797.3911],[-101.9732,28.0179,1779.4958],[-101.979,28.019,1692.9631],[-101.9992,28.015,1757.7075],[-102.0167,28.0185,1769.8853],[-102.0292,28.0389,1557.1918],[-102.0532,28.0437,1306.7954],[-102.0837,28.0465,1094.4602],[-102.0638,28.122,1991.1406],[-102.0582,28.1594,1826.7789],[-102.0586,28.1738,1850.661],[-102.0669,28.2209,1982.3016],[-102.0712,28.2336,2010.6788],[-102.0683,28.273,1946.6582],[-102.066,28.2842,1995.3225],[-102.068,28.2896,1956.5121],[-102.0654,28.3096,2097.6472],[-102.0664,28.3223,2063.2461],[-102.0785,28.3327,1937.2061],[-102.0697,28.3605,2029.1648],[-102.0737,28.3873,1874.8008],[-102.078,28.4398,2157.9055],[-102.0868,28.4604,2166.5903],[-102.1588,28.5333,2073.9482],[-102.2299,28.5575,1910.1237],[-102.2959,28.6099,1737.4622],[-102.3117,28.6207,1645.4301],[-102.3383,28.6556,1422.2256],[-102.3582,28.6591,1817.4397],[-102.3812,28.6677,1833.6223],[-102.3817,28.6363,1463.7997],[-102.4228,28.5884,1381.5085],[-102.4216,28.5273,1433.6782],[-102.4359,28.5079,1728.3136],[-102.4794,28.5508,1912.0046],[-102.4566,28.4366,1394.749],[-102.4408,28.3483,1631.5072],[-102.4366,28.3329,1587.3695],[-102.4424,28.3311,1556.0474],[-102.4929,28.2896,1733.3126],[-102.4819,28.2666,1826.1252],[-102.4445,28.2123,1716.6221],[-102.4414,28.2054,1812.7964],[-102.442,28.2027,1802.6072],[-102.4359,28.1903,1785.2021],[-102.436,28.187,1794.2578],[-102.4288,28.1781,1809.082],[-102.426,28.1654,1736.7626],[-102.4124,28.1476,1747.5012],[-102.4129,28.142,1603.6708],[-102.4017,28.115,1770.9219],[-102.3814,28.0487,1470.3767],[-102.3845,28.0155,1589.7278],[-102.3674,27.9919,1942.5596],[-102.3623,27.9892,1962.8113],[-102.3641,27.9856,2021.125],[-102.3619,27.9808,2041.2997],[-102.357,27.9762,1973.1011],[-102.3566,27.9733,2039.0764],[-102.3476,27.9646,2004.6835],[-102.2875,28.0043,1311.2249],[-102.2824,28.005,1324.0493],[-102.2529,27.9717,1307.6917],[-102.2407,27.9774,1589.7523],[-102.215,27.948,1411.1079],[-102.2499,27.9018,1290.1768],[-102.2555,27.8996,1301.792],[-102.2541,27.8972,1306.1477],[-102.2666,27.8929,1324.6608],[-102.277,27.8871,1361.5219],[-102.30029999999999,27.8871,1730.0288],[-102.2837,27.8718,1644.5258],[-102.2729,27.8567,1528.5841],[-102.272,27.8527,1623.0721],[-102.2653,27.8482,1654.7537],[-102.255,27.8455,1742.6586],[-102.2469,27.8639,1744.3712],[-102.2191,27.8484,2009.4535],[-102.2013,27.8515,1717.8977],[-102.157,27.8181,1924.91],[-102.1995,27.6924,1443.3792],[-102.1824,27.657,1741.0635],[-102.137,27.6951,1667.3112],[-102.1244,27.6685,1703.6519],[-102.1238,27.6619,1648.1284],[-102.1212,27.6569,1800.6951],[-102.1069,27.6031,1731.7998],[-102.0901,27.568,1770.2266],[-102.0698,27.5425,1686.0208],[-102.0687,27.5387,1757.6235],[-102.0568,27.5218,1783.3998],[-102.0489,27.5132,1693.3313],[-102.0243,27.5003,1933.324],[-101.9979,27.477,1770.9055],[-101.9533,27.4673,2010.9843],[-101.9381,27.4754,1630.7397],[-101.9292,27.4891,1458.161],[-101.8717,27.49,1632.6305],[-101.843,27.4487,1382.5042],[-101.8358,27.4415,1299.7859],[-101.8169,27.4108,1324.8771],[-101.7906,27.3784,1309.7848],[-101.767,27.3413,1340.9653],[-101.768,27.3013,817.4962],[-101.7702,27.301,803.8247],[-101.7623,27.2768,752.072],[-101.7547,27.2763,754.8887],[-101.751,27.2684,724.9232],[-101.7087,27.2501,653.4021],[-101.7145,27.2324,659.0952],[-101.6901,27.2054,603.307],[-101.69,27.2006,605.3425],[-101.6817,27.2105,604.7794],[-101.6874,27.2204,618.1701],[-101.6865,27.2249,620.0737],[-101.683,27.2256,610.0085],[-101.6412,27.2087,557.4959],[-101.6382,27.214,557.7408],[-101.631,27.2114,551.5005],[-101.6407,27.1951,550.1458],[-101.5985,27.1814,504.689],[-101.6571,27.1648,544.3777],[-101.653,27.171,550.6551],[-101.7033,27.181,599.8502],[-101.7094,27.1562,587.4785],[-101.6923,27.1528,562.2165],[-101.6935,27.1443,561.5851],[-101.6925,27.1436,559.1053],[-101.6966,27.1214,546.0068],[-101.691,27.1223,544.1656],[-101.6079,27.0652,505.7222],[-101.5908,27.0554,503.2522],[-101.588,27.0562,501.8119],[-101.5842,27.0523,503.7816],[-101.5855,27.0518,504.3519],[-101.581,27.045,508.8148],[-101.5774,27.0475,507.2247],[-101.5749,27.0435,510.6328],[-101.5515,27.0474,507.386],[-101.543,27.0386,512.2285],[-101.5386,27.0373,511.78],[-101.5205,27.0152,521.4297],[-101.4641,27.0505,522.6943],[-101.4545,27.0437,527.917],[-101.4129,27.1007,454.43],[-101.4317,27.1058,460.8535],[-101.4373,27.128,441.9081],[-101.4442,27.1329,440.9979],[-101.4773,27.1446,445.3676],[-101.4835,27.1441,446.7349],[-101.4868,27.142,447.4827],[-101.4922,27.145,447.4976],[-101.4974,27.1448,449.2754],[-101.4758,27.2136,452.7015]]]]}}