{"type":"Feature","properties":{"GID_2":"MEX.20.20_2","GID_0":"MEX","country":"México","GID_1":"MEX.20_1","province":"Oaxaca","NL_NAME_1":"NA","county":"CoatecasAltas","VARNAME_2":"NA","NL_NAME_2":"NA","TYPE_2":"Município","ENGTYPE_2":"Municipality","CC_2":"NA","HASC_2":"NA","name":"Coatecas_Altas.county"},
"geometry":{"type": "MultiPolygon","coordinates": [[[[-96.593,16.5285,1540.2108],[-96.6137,16.5267,1534.9877],[-96.6108,16.5285,1532.1411],[-96.6112,16.5355,1570.2037],[-96.6141,16.5414,1591.6382],[-96.6192,16.5428,1618.6592],[-96.6221,16.546,1634.4337],[-96.6226,16.5491,1638.6819],[-96.6208,16.5521,1601.9336],[-96.6217,16.5566,1599.6667],[-96.6264,16.5528,1662.7524],[-96.6313,16.5513,1731.7722],[-96.639,16.554,1970.1262],[-96.6472,16.5468,1738.5593],[-96.6433,16.5635,1885.3618],[-96.6502,16.571,1840.6577],[-96.656,16.5737,1980.0764],[-96.6603,16.5783,1913.6731],[-96.6616,16.5804,1945.035],[-96.6603,16.5837,1976.4977],[-96.6681,16.5924,2296.0515],[-96.6828,16.5889,1936.4822],[-96.6731,16.5875,2207.418],[-96.6772,16.5825,2063.1035],[-96.6801,16.5738,1790.6566],[-96.6778,16.5729,1737.0396],[-96.6785,16.5605,1574.7076],[-96.6974,16.543,1489.2395],[-96.6871,16.5402,1501.1669],[-96.6862,16.5368,1507.5435],[-96.6831,16.5353,1511.425],[-96.6963,16.5182,1646.4393],[-96.6981,16.5137,1828.6748],[-96.6977,16.5093,1816.989],[-96.7109,16.5043,1699.0511],[-96.71,16.5009,1658.7297],[-96.7032,16.495,1825.4329],[-96.6754,16.4813,1637.2029],[-96.6741,16.4844,1651.0652],[-96.6691,16.4834,1668.1102],[-96.6598,16.4881,1708.9456],[-96.6611,16.4726,1707.172],[-96.6435,16.4688,1752.8945],[-96.635,16.4617,1871.3765],[-96.6335,16.456,1990.766],[-96.6324,16.4581,1942.5715],[-96.6332,16.4631,1926.5005],[-96.6282,16.4724,1833.2836],[-96.6202,16.4694,1746.9404],[-96.6149,16.4721,1696.8595],[-96.6105,16.4709,1681.0486],[-96.6106,16.4699,1691.8499],[-96.6145,16.4706,1699.4958],[-96.6112,16.4692,1691.8499],[-96.6127,16.4666,1721.905],[-96.6119,16.4637,1733.1973],[-96.608,16.4625,1738.8474],[-96.6058,16.4594,1669.1002],[-96.6032,16.4596,1666.5853],[-96.5986,16.462,1651.8492],[-96.5944,16.4684,1588.5781],[-96.5895,16.4695,1564.8055],[-96.5914,16.473,1624.3188],[-96.5863,16.4771,1600.4326],[-96.5799,16.4754,1566.9722],[-96.5582,16.4794,1371.125],[-96.5642,16.4891,1466.6189],[-96.5665,16.4888,1419.5188],[-96.5664,16.492,1427.8289],[-96.5708,16.4946,1456.106],[-96.5736,16.4943,1438.6536],[-96.5612,16.5009,1560.3834],[-96.5603,16.5026,1566.4744],[-96.5628,16.5074,1591.4948],[-96.559,16.5109,1575.4155],[-96.5612,16.5206,1591.7122],[-96.5742,16.5291,1550.4285],[-96.5864,16.5298,1584.0253],[-96.593,16.5285,1540.2108]]]]}}