{"type":"Feature","properties":{"GID_2":"MEX.19.29_2","GID_0":"MEX","country":"México","GID_1":"MEX.19_1","province":"NuevoLeón","NL_NAME_1":"NA","county":"Juárez","VARNAME_2":"NA","NL_NAME_2":"NA","TYPE_2":"Município","ENGTYPE_2":"Municipality","CC_2":"NA","HASC_2":"NA","name":"Juárez.county"},
"geometry":{"type": "MultiPolygon","coordinates": [[[[-100.117,25.6966,417.5579],[-100.118,25.6912,405.3782],[-100.1274,25.6711,397.8668],[-100.1297,25.6711,402.1236],[-100.1855,25.6356,488.2391],[-100.1872,25.6364,495.863],[-100.1879,25.634,497.1681],[-100.1951,25.6295,542.1024],[-100.2092,25.6231,1147.083],[-100.2421,25.6248,1617.9714],[-100.2432,25.617,1587.8896],[-100.2397,25.6113,1552.1438],[-100.2367,25.6096,1393.6932],[-100.2346,25.6031,1407.1643],[-100.227,25.5952,1184.6692],[-100.225,25.5898,1200.071],[-100.2164,25.5812,1060.8013],[-100.2133,25.5731,1003.9609],[-100.2061,25.5634,1091.5424],[-100.2,25.5517,1069.8977],[-100.1978,25.5507,998.4034],[-100.1936,25.5443,1048.7898],[-100.1838,25.5367,1142.7883],[-100.1793,25.5303,1084.9148],[-100.1736,25.538,843.4858],[-100.1693,25.5311,701.0443],[-100.1627,25.5288,640.877],[-100.1625,25.525,721.8491],[-100.1531,25.5268,1002.3101],[-100.1425,25.5334,647.009],[-100.1342,25.5366,480.2629],[-100.1326,25.5351,467.9345],[-100.127,25.535,456.7659],[-100.1278,25.5336,463.9438],[-100.1252,25.532,460.7544],[-100.1277,25.5307,468.2332],[-100.1226,25.5271,450.5766],[-100.122,25.524,448.1973],[-100.1234,25.522,451.0293],[-100.1201,25.522,448.364],[-100.1152,25.5255,434.5107],[-100.1135,25.5236,440.4945],[-100.1114,25.5243,438.8001],[-100.1071,25.5166,419.2607],[-100.1035,25.5163,411.1678],[-100.1016,25.5139,409.2978],[-100.0951,25.5155,401.5443],[-100.088,25.5121,394.4244],[-100.0843,25.5151,395.4684],[-100.0807,25.5153,389.3879],[-100.0812,25.5183,388.6418],[-100.077,25.5181,386.3934],[-100.0734,25.5211,385.7391],[-100.0759,25.5234,386.726],[-100.0719,25.5256,386.4397],[-100.068,25.522,375.8435],[-100.0683,25.5207,375.8435],[-100.0668,25.5208,375.2872],[-100.0606,25.5152,367.8329],[-100.0593,25.5158,369.5399],[-100.0606,25.5172,372.2881],[-100.0553,25.5211,371.5258],[-100.0501,25.5163,360.7846],[-100.049,25.5173,359.037],[-100.0739,25.5403,387.3942],[-100.075,25.5393,387.3942],[-100.0731,25.5376,383.0547],[-100.0773,25.5339,388.9478],[-100.1107,25.5648,432.6561],[-100.1068,25.5687,427.7968],[-100.0969,25.5597,416.5754],[-100.0958,25.5606,417.0847],[-100.1018,25.5661,421.8394],[-100.0979,25.5699,416.1972],[-100.1018,25.5736,420.0555],[-100.0985,25.5766,416.9138],[-100.0919,25.5705,410.7876],[-100.0905,25.5717,409.8727],[-100.1044,25.5845,421.6994],[-100.0942,25.5983,407.1441],[-100.0866,25.6014,395.0479],[-100.0858,25.6069,390.6902],[-100.0804,25.6051,389.8779],[-100.0745,25.6102,379.3147],[-100.0628,25.6114,373.8177],[-100.0583,25.6214,360.4614],[-100.0563,25.6226,361.1064],[-100.0572,25.6261,360.7461],[-100.056,25.628,353.6004],[-100.0424,25.6201,343.9782],[-100.0402,25.6377,370.2281],[-100.0656,25.6533,388.728],[-100.0643,25.6526,387.5608],[-100.0559,25.6614,383.7452],[-100.0464,25.6577,397.3727],[-100.0297,25.6542,389.6731],[-100.009,25.6522,341.9916],[-99.9962,25.6665,318.3097],[-100.0036,25.6668,327.3986],[-99.9941,25.6793,315.3262],[-99.9901,25.6823,308.6318],[-99.9932,25.6845,310.3214],[-99.9982,25.6832,311.7669],[-99.9943,25.6891,311.3184],[-99.9977,25.6918,313.4532],[-100.0391,25.6953,341.7804],[-100.0372,25.6999,338.4804],[-100.0424,25.7021,338.5195],[-100.052,25.7032,346.5521],[-100.053,25.6975,351.9168],[-100.0724,25.701,361.9409],[-100.0899,25.6995,397.5074],[-100.1164,25.7032,413.2908],[-100.117,25.6966,417.5579]]]]}}