{"type":"Feature","properties":{"GID_2":"MEX.5.1_2","GID_0":"MEX","country":"México","GID_1":"MEX.5_1","province":"Chiapas","NL_NAME_1":"NA","county":"Acacoyagua","VARNAME_2":"NA","NL_NAME_2":"NA","TYPE_2":"Município","ENGTYPE_2":"Municipality","CC_2":"NA","HASC_2":"NA","name":"Acacoyagua.county"},
"geometry":{"type": "MultiPolygon","coordinates": [[[[-92.7176,15.3205,30.2019],[-92.7132,15.3276,41.7477],[-92.7048,15.3225,32.8763],[-92.6992,15.3264,39.6642],[-92.6889,15.3188,42.0607],[-92.6738,15.3233,60.1615],[-92.6637,15.3297,80.629],[-92.6528,15.3324,103.2966],[-92.6615,15.3482,259.7281],[-92.6536,15.3495,266.906],[-92.6493,15.3525,377.5275],[-92.6549,15.3622,135.3311],[-92.651,15.373,160.6309],[-92.6472,15.3776,236.5192],[-92.6403,15.375,273.0701],[-92.6457,15.3604,177.0836],[-92.6401,15.3591,196.4318],[-92.6398,15.3564,280.3799],[-92.6299,15.3775,439.3202],[-92.6273,15.3763,409.2013],[-92.6141,15.4044,1645.4717],[-92.6303,15.4043,1305.4136],[-92.6335,15.4111,1417.7938],[-92.6275,15.4258,1500.5096],[-92.6067,15.4548,1140.5835],[-92.5658,15.4543,1571.2546],[-92.5715,15.4685,1893.6519],[-92.5707,15.4796,2335.4246],[-92.5523,15.4752,1627.0171],[-92.557,15.4869,1994.8811],[-92.6479,15.4876,1691.621],[-92.658,15.4906,1751.8351],[-92.6584,15.4885,1638.7632],[-92.6973,15.4819,1268.4863],[-92.7118,15.4754,1390.42],[-92.7176,15.4754,1591.7758],[-92.7208,15.4657,1570.4598],[-92.7309,15.4678,1049.7788],[-92.7315,15.4637,913.3469],[-92.7345,15.46,873.3004],[-92.74,15.4591,736.4863],[-92.7438,15.4551,729.3933],[-92.7465,15.4547,674.8658],[-92.7442,15.4571,718.384],[-92.7469,15.4607,825.5911],[-92.7572,15.4579,1080.3409],[-92.7653,15.4452,678.8647],[-92.7645,15.4426,657.6129],[-92.7678,15.4388,694.9099],[-92.769,15.4328,940.8184],[-92.7613,15.432,679.8735],[-92.7606,15.4331,721.6374],[-92.7569,15.43,619.4191],[-92.7538,15.4349,533.2974],[-92.7487,15.4288,468.9267],[-92.7702,15.4272,874.8954],[-92.7722,15.4222,518.2637],[-92.7751,15.4194,435.5469],[-92.7762,15.4145,290.4723],[-92.7738,15.4117,343.9878],[-92.7685,15.422,465.8583],[-92.7554,15.4203,710.7996],[-92.7628,15.4077,568.1519],[-92.765,15.3978,494.5748],[-92.7519,15.3979,463.0809],[-92.7533,15.3845,155.8848],[-92.7678,15.3864,102.6697],[-92.7527,15.3779,41.0798],[-92.7548,15.3651,39.6901],[-92.7537,15.3655,39.3844],[-92.7489,15.3518,37.5685],[-92.747,15.3536,36.3742],[-92.7478,15.3471,32.6733],[-92.7446,15.3377,33.0569],[-92.734,15.3418,34.4962],[-92.7322,15.3235,29.9598],[-92.7248,15.3196,31.9142],[-92.7176,15.3205,30.2019]]]]}}