{"type":"Feature","properties":{"GID_2":"MEX.20.316_2","GID_0":"MEX","country":"México","GID_1":"MEX.20_1","province":"Oaxaca","NL_NAME_1":"NA","county":"SanPedroJuchatengo","VARNAME_2":"NA","NL_NAME_2":"NA","TYPE_2":"Município","ENGTYPE_2":"Municipality","CC_2":"NA","HASC_2":"NA","name":"San_Pedro_Juchatengo.county"},
"geometry":{"type": "MultiPolygon","coordinates": [[[[-97.0782,16.3658,871.442],[-97.0829,16.3627,1114.8596],[-97.0819,16.3552,1084.201],[-97.0869,16.347,850.0317],[-97.0973,16.3474,842.422],[-97.0979,16.353,840.7671],[-97.1002,16.3549,841.9794],[-97.1012,16.3597,840.8645],[-97.105,16.3651,843.348],[-97.1134,16.3621,836.2534],[-97.1203,16.352,867.7343],[-97.1214,16.3559,848.6308],[-97.1257,16.3582,830.0473],[-97.1277,16.3565,835.8637],[-97.129,16.3513,834.287],[-97.1321,16.3517,833.3062],[-97.1335,16.3558,866.834],[-97.136,16.3547,827.2421],[-97.1375,16.3508,828.6254],[-97.1417,16.3517,829.2744],[-97.1435,16.3506,849.4052],[-97.1423,16.2786,1683.4253],[-97.1301,16.2877,1452.0524],[-97.1108,16.2823,1297.2957],[-97.0883,16.2666,1172.0613],[-97.0856,16.2697,1154.2279],[-97.0868,16.2707,1156.6617],[-97.0843,16.2707,1136.9543],[-97.0834,16.2761,1129.6271],[-97.0813,16.2759,1105.7544],[-97.0812,16.2773,1165.5504],[-97.0859,16.2797,1084.3142],[-97.0871,16.2766,1107.7604],[-97.0887,16.2777,1068.8849],[-97.0873,16.2843,1042.876],[-97.0853,16.2851,1097.686],[-97.0884,16.2872,1030.1022],[-97.0868,16.2901,1071.2361],[-97.0886,16.2905,1088.8092],[-97.0896,16.2888,1045.8514],[-97.0904,16.2905,1022.9734],[-97.0847,16.2963,993.0269],[-97.0833,16.2932,1098.0757],[-97.0817,16.2938,987.0695],[-97.0811,16.2972,1112.145],[-97.085,16.3004,972.5316],[-97.0821,16.3045,953.5386],[-97.0822,16.3068,957.8981],[-97.08,16.3079,993.1364],[-97.0825,16.3096,948.527],[-97.0733,16.3125,905.4495],[-97.0725,16.3164,905.153],[-97.0702,16.3186,935.1429],[-97.0727,16.3217,911.9772],[-97.072,16.328,882.3028],[-97.0752,16.3323,853.2758],[-97.0732,16.3388,857.855],[-97.0777,16.3531,868.0029],[-97.0744,16.3568,909.0034],[-97.0743,16.3591,891.8547],[-97.0782,16.3658,871.442]]]]}}