{"type":"Feature","properties":{"GID_2":"MEX.26.23_2","GID_0":"MEX","country":"México","GID_1":"MEX.26_1","province":"Sonora","NL_NAME_1":"NA","county":"Cumpas","VARNAME_2":"NA","NL_NAME_2":"NA","TYPE_2":"Município","ENGTYPE_2":"Municipality","CC_2":"NA","HASC_2":"NA","name":"Cumpas.county"},
"geometry":{"type": "MultiPolygon","coordinates": [[[[-110.0562,30.1434,1147.5068],[-110.0227,30.1349,1068.4614],[-110.0131,30.1078,975.3698],[-110.0135,30.0777,1003.0592],[-110.0873,30.090699999999998,1613.1998],[-110.0951,30.0946,1726.6838],[-110.1007,30.1134,1688.5912],[-110.1069,30.0942,1434.1454],[-110.1033,30.0906,1464.8755],[-110.0925,30.056,1545.0334],[-110.0897,30.0247,1373.2062],[-110.0881,30.029,1610.5481],[-110.0802,30.0271,1676.8322],[-110.0847,30.0123,1338.969],[-110.0781,30.0151,1521.5548],[-110.0673,29.994,1530.0858],[-110.0501,29.9895,1603.9142],[-110.0426,29.9942,1410.522],[-110.0409,29.9802,1408.6798],[-110.0629,29.9802,1594.9146],[-110.0571,29.9422,1664.4609],[-110.0486,29.9161,1793.9541],[-110.0024,29.9073,1622.8588],[-110.0004,29.8954,1739.5677],[-110.0024,29.8614,1619.4514],[-109.9536,29.8433,1583.6887],[-109.9382,29.8429,1423.3801],[-109.936,29.8198,1419.3738],[-109.9145,29.8095,1248.2778],[-109.8951,29.8097,1068.6847],[-109.8904,29.8123,1025.7373],[-109.857,29.8148,865.1289],[-109.8606,29.8382,909.8214],[-109.8755,29.8337,958.2578],[-109.8735,29.8505,1047.509],[-109.8585,29.8532,860.1854],[-109.8424,29.8733,1013.6755],[-109.8233,29.8701,792.4974],[-109.8174,29.8775,785.576],[-109.7876,29.8817,714.1042],[-109.7742,29.8685,910.9005],[-109.7425,29.8712,711.1125],[-109.6604,29.8731,697.0485],[-109.6548,29.8711,683.6816],[-109.6519,29.876,689.0033],[-109.6526,29.8981,711.8234],[-109.587,29.8964,880.2324],[-109.5988,29.9298,888.794],[-109.5698,29.9548,1428.9135],[-109.5479,29.9927,1814.0173],[-109.6215,29.9755,1009.002],[-109.6031,30.0174,1474.2231],[-109.6122,30.0258,1422.8394],[-109.6192,30.0399,1402.5398],[-109.5934,30.0646,2038.9624],[-109.5955,30.0725,1810.5649],[-109.5854,30.0806,1871.5499],[-109.5375,30.0876,958.159],[-109.5443,30.1087,1026.3444],[-109.5509,30.1186,1230.4797],[-109.5561,30.1402,1364.7141],[-109.5757,30.1393,1263.7391],[-109.5808,30.1643,1312.1963],[-109.5203,30.1695,1676.7539],[-109.5403,30.2046,1701.9091],[-109.5333,30.2234,1554.6567],[-109.6379,30.2235,1099.0221],[-109.6331,30.2549,1391.3068],[-109.6325,30.2888,1228.9637],[-109.6458,30.2861,1150.6748],[-109.6585,30.3105,1071.4504],[-109.6545,30.3105,1096.0565],[-109.6566,30.3143,1082.1089],[-109.6712,30.3122,1054.1406],[-109.6683,30.3014,1066.7791],[-109.671,30.2868,1160.1882],[-109.6809,30.2739,1096.0848],[-109.691,30.2648,958.7776],[-109.6982,30.261,934.4799],[-109.728,30.2659,999.3127],[-109.7297,30.3201,1434.3977],[-109.8644,30.3116,1093.8564],[-109.9205,30.2189,1387.2753],[-109.9889,30.2085,1220.3131],[-110.0234,30.172,1143.3243],[-110.0562,30.1434,1147.5068]]]]}}