{"type":"Feature","properties":{"GID_2":"MEX.21.197_2","GID_0":"MEX","country":"México","GID_1":"MEX.21_1","province":"Puebla","NL_NAME_1":"NA","county":"Xicotepec","VARNAME_2":"NA","NL_NAME_2":"NA","TYPE_2":"Município","ENGTYPE_2":"Municipality","CC_2":"NA","HASC_2":"NA","name":"Xicotepec.county"},
"geometry":{"type": "MultiPolygon","coordinates": [[[[-98.0199,20.2369,1630.8529],[-98.0112,20.236,1387.9104],[-98.0095,20.2419,1275.2628],[-98.0059,20.2412,1443.0828],[-97.9956,20.2474,1585.7568],[-97.9843,20.2464,1736.4956],[-97.9779,20.2324,1491.9626],[-97.9691,20.234,1252.5531],[-97.9684,20.236,1242.4922],[-97.9633,20.2333,1215.5471],[-97.9627,20.2315,1204.3877],[-97.9565,20.2292,1221.9429],[-97.9571,20.233,1218.278],[-97.9549,20.2339,1218.3057],[-97.955,20.2377,1204.6095],[-97.9407,20.2292,1179.1162],[-97.9378,20.2309,1176.6006],[-97.9293,20.2309,1125.2021],[-97.9284,20.2294,1143.9567],[-97.9234,20.2305,1018.7975],[-97.9202,20.2371,804.0046],[-97.915,20.2382,753.5242],[-97.907,20.2372,740.9935],[-97.9085,20.2411,885.1341],[-97.9053,20.2392,832.7667],[-97.901,20.2397,793.1473],[-97.8985,20.2431,827.6108],[-97.8955,20.2441,734.5351],[-97.8947,20.2505,738.6335],[-97.8919,20.2504,893.9532],[-97.8927,20.2484,780.5238],[-97.8906,20.2491,893.9532],[-97.8899,20.2545,966.7021],[-97.8861,20.2578,933.5413],[-97.8881,20.2596,927.3243],[-97.885,20.2591,908.6487],[-97.8849,20.2606,845.8726],[-97.8824,20.2614,747.6251],[-97.8821,20.2677,691.0374],[-97.8762,20.2674,729.4054],[-97.8771,20.2712,780.6572],[-97.8759,20.2757,738.3521],[-97.8734,20.2786,780.2711],[-97.8738,20.2805,748.8965],[-97.8718,20.279,772.2056],[-97.873,20.2826,739.5849],[-97.8706,20.2849,720.1691],[-97.8711,20.2885,700.1409],[-97.8671,20.2964,670.1443],[-97.8605,20.2925,715.7635],[-97.8596,20.2946,694.8774],[-97.8616,20.3006,668.2098],[-97.8535,20.3079,417.54],[-97.8547,20.3174,369.1253],[-97.8452,20.315,539.7816],[-97.8452,20.3136,581.4241],[-97.84,20.3136,662.3511],[-97.8394,20.3181,644.943],[-97.8375,20.3177,651.5655],[-97.8398,20.3207,651.7872],[-97.8372,20.326,642.1827],[-97.8401,20.3264,628.7999],[-97.8367,20.327,642.1827],[-97.8391,20.3321,611.0017],[-97.8396,20.3384,601.3987],[-97.8321,20.3401,608.1332],[-97.8257,20.3344,600.8258],[-97.823,20.3356,573.3147],[-97.8169,20.3332,523.6724],[-97.8147,20.334,513.9301],[-97.81,20.3404,450.9874],[-97.8084,20.3385,451.7573],[-97.8055,20.3384,460.0037],[-97.8045,20.3412,412.8303],[-97.8058,20.3424,403.018],[-97.8005,20.3465,413.2968],[-97.8006,20.3531,327.802],[-97.7916,20.3574,308.6762],[-97.7919,20.3609,371.2719],[-97.7889,20.3639,291.2659],[-97.7823,20.3648,296.7883],[-97.7756,20.3736,249.4137],[-97.7714,20.3758,233.137],[-97.769,20.3799,236.5968],[-97.7654,20.3811,224.57],[-97.7654,20.3845,237.3414],[-97.7624,20.389,211.5764],[-97.7636,20.3923,206.9353],[-97.7626,20.3979,212.6584],[-97.7573,20.3998,200.3468],[-97.7582,20.4031,191.5375],[-97.7557,20.4054,230.0037],[-97.7558,20.413,172.0049],[-97.751,20.4146,166.4912],[-97.751,20.4187,164.5202],[-97.7487,20.422,160.0048],[-97.7537,20.4241,163.5183],[-97.7596,20.4301,164.9436],[-97.7662,20.4338,203.207],[-97.7696,20.4341,197.425],[-97.7739,20.4309,170.9923],[-97.7823,20.4335,175.1595],[-97.7854,20.431,172.2079],[-97.7924,20.4311,182.4134],[-97.7981,20.4283,181.6119],[-97.7975,20.4261,182.4501],[-97.8006,20.4243,183.2907],[-97.8009,20.4221,184.1608],[-97.809,20.4162,186.6231],[-97.8135,20.4164,193.3011],[-97.8229,20.4204,193.516],[-97.8214,20.4146,214.5336],[-97.8238,20.4122,200.62],[-97.8241,20.4067,207.7961],[-97.8268,20.4092,210.1053],[-97.8342,20.4089,214.7419],[-97.8414,20.4046,210.0155],[-97.8462,20.3945,221.2521],[-97.86,20.3949,222.8351],[-97.8623,20.3913,221.2713],[-97.8669,20.3894,232.8207],[-97.8774,20.3945,232.7289],[-97.8798,20.3985,236.8903],[-97.8894,20.4072,297.6757],[-97.8933,20.4071,268.4368],[-97.8949,20.4004,265.2287],[-97.8994,20.3986,255.1466],[-97.902,20.3936,329.2389],[-97.9076,20.3916,267.2829],[-97.9198,20.3912,282.8513],[-97.9278,20.3892,281.0496],[-97.931,20.3834,290.1277],[-97.9302,20.3782,290.6936],[-97.9357,20.3712,305.6962],[-97.9402,20.3681,317.7857],[-97.9397,20.3647,337.571],[-97.9437,20.3621,315.4138],[-97.9477,20.3654,313.2291],[-97.9498,20.3652,342.1859],[-97.952,20.3587,375.5231],[-97.957,20.3596,335.9309],[-97.9604,20.3545,403.2071],[-97.9567,20.3509,421.8918],[-97.9583,20.3474,486.2586],[-97.9563,20.343,387.9999],[-97.9579,20.3418,417.2668],[-97.9622,20.3434,366.282],[-97.9634,20.3377,388.9636],[-97.965,20.3365,387.4039],[-97.9701,20.3373,384.6873],[-97.9698,20.3335,363.2071],[-97.9765,20.3273,504.2505],[-97.9722,20.3214,479.6067],[-97.9722,20.3192,426.7148],[-97.9735,20.3178,439.6241],[-97.9777,20.3199,398.7914],[-97.9784,20.3141,429.5175],[-97.983,20.3075,407.8154],[-97.9852,20.3082,404.5812],[-97.988,20.3153,408.5164],[-97.9975,20.3215,452.5953],[-98.001,20.3272,449.938],[-98.0153,20.3248,474.5668],[-98.0234,20.328,482.1744],[-98.0319,20.3277,504.0216],[-98.0434,20.3231,507.2729],[-98.0444,20.3189,512.9507],[-98.0381,20.3069,527.8506],[-98.0409,20.3037,552.3343],[-98.0406,20.3014,540.937],[-98.0312,20.2968,977.8552],[-98.0255,20.2875,1616.0439],[-98.0203,20.2902,1538.0785],[-98.0136,20.2875,1541.0281],[-98.017,20.2762,1568.067],[-98.0189,20.2771,1532.7117],[-98.0268,20.2693,1301.282],[-98.0311,20.26,1180.798],[-98.029,20.2563,1145.1946],[-98.0256,20.2546,1143.4547],[-98.019,20.2568,1137.3586],[-98.0167,20.2549,1127.2874],[-98.0218,20.252,1185.1162],[-98.0263,20.2458,1279.2839],[-98.0199,20.2369,1630.8529]]]]}}