{"type":"Feature","properties":{"GID_2":"MEX.20.551_2","GID_0":"MEX","country":"México","GID_1":"MEX.20_1","province":"Oaxaca","NL_NAME_1":"NA","county":"TotontepecVilladeMorelos","VARNAME_2":"NA","NL_NAME_2":"NA","TYPE_2":"Município","ENGTYPE_2":"Municipality","CC_2":"NA","HASC_2":"NA","name":"Totontepec_Villade_Morelos.county"},
"geometry":{"type": "MultiPolygon","coordinates": [[[[-96.0622,17.165,2742.1311],[-96.0566,17.1611,2634.1995],[-96.0387,17.1653,2215.7041],[-96.0108,17.1438,3204.6392],[-95.9979,17.174,3117.5537],[-95.9806,17.1887,2249.5898],[-95.9705,17.1936,1822.8376],[-95.9651,17.1985,1415.0651],[-95.9652,17.2021,1598.2642],[-95.9596,17.2105,1743.7833],[-95.9574,17.2173,1551.4614],[-95.9503,17.22,1443.4119],[-95.9434,17.2255,1038.3457],[-95.9349,17.2358,647.7924],[-95.9312,17.2359,641.4232],[-95.9297,17.2332,625.7913],[-95.9257,17.2387,582.8996],[-95.9159,17.2349,604.7637],[-95.9091,17.2386,519.6835],[-95.9073,17.2361,563.8542],[-95.9021,17.2371,587.5445],[-95.8968,17.2608,573.3657],[-95.8999,17.268,463.0447],[-95.8996,17.273,418.2582],[-95.9024,17.2724,457.6323],[-95.9031,17.2738,431.9943],[-95.9059,17.2717,516.4794],[-95.9187,17.2749,1022.0414],[-95.9246,17.2725,1244.8965],[-95.9353,17.2795,1282.4661],[-95.9384,17.2765,1060.7445],[-95.9413,17.2785,1030.0571],[-95.9395,17.2823,1325.9825],[-95.9498,17.2912,1693.8962],[-95.9628,17.2869,1899.9716],[-95.9696,17.2866,2080.3721],[-95.9727,17.2942,1918.8905],[-95.9677,17.3019,1497.7253],[-95.9781,17.3129,1094.8757],[-95.9823,17.313,1167.1138],[-95.9866,17.31,1176.6304],[-95.9964,17.3167,805.3583],[-95.9895,17.3199,740.2012],[-96.0215,17.3157,1412.1689],[-96.0291,17.3218,1754.4495],[-96.0351,17.3208,1957.1851],[-96.0386,17.323,2027.757],[-96.0436,17.3215,2103.2158],[-96.0468,17.3171,2263.5991],[-96.0649,17.3177,2314.1846],[-96.0648,17.3238,2168.3596],[-96.067,17.3282,2125.1655],[-96.0696,17.3234,2116.3281],[-96.0822,17.323,2011.7483],[-96.0814,17.3109,1777.9189],[-96.0852,17.3038,1581.8992],[-96.0805,17.3016,1768.0474],[-96.088,17.2953,1908.1855],[-96.0811,17.2908,1939.2998],[-96.0831,17.2836,2217.4128],[-96.0854,17.2807,2298.4956],[-96.0927,17.2792,2204.4053],[-96.1003,17.2727,2204.3833],[-96.1053,17.2614,2119.8838],[-96.112799999999993,17.2604,1882.9043],[-96.1302,17.2378,1174.6527],[-96.1367,17.238,1066.6648],[-96.1378,17.2342,1034.5707],[-96.1461,17.2312,960.5494],[-96.138,17.2263,1038.3068],[-96.1261,17.2223,1242.353],[-96.1262,17.2207,1186.0608],[-96.1242,17.2203,1250.826],[-96.1178,17.2136,1676.7095],[-96.1142,17.2081,1905.4642],[-96.0975,17.2078,2069.9041],[-96.0883,17.2107,2202.5891],[-96.0641,17.205,2642.4985],[-96.0635,17.1967,2679.1902],[-96.0684,17.1862,2858.6343],[-96.0637,17.1731,2858.5383],[-96.0609,17.1706,2807.8857],[-96.0622,17.165,2742.1311]]]]}}