{"type": "Feature","bbox": [-103.5556,21.501,-103.1586,21.7283],"geometry": {"type": "MultiPolygon","coordinates": [[[[-103.5547,21.5766,2087.739],[-103.5449,21.5742,2110.5928],[-103.5449,21.5723,2150.8906],[-103.543,21.5717,2145.3186],[-103.5339,21.5747,2241.0234],[-103.5308,21.5743,2242.6292],[-103.5219,21.5793,2275.4915],[-103.5153,21.5736,2444.8618],[-103.5126,21.5691,2453.167],[-103.5142,21.5659,2438.0093],[-103.5118,21.5609,2267.2842],[-103.5156,21.5554,2179.8723],[-103.5104,21.5538,2147.1084],[-103.5026,21.558,2121.9321],[-103.5009,21.5555,2098.0005],[-103.5117,21.5924,2145.9995],[-103.4541,21.5831,1940.0278],[-103.4307,21.5769,1907.5642],[-103.3833,21.5729,1919.8951],[-103.3812,21.5742,1912.1936],[-103.3761,21.5707,1855.0095],[-103.3748,21.5723,1843.8715],[-103.3701,21.5705,1847.2736],[-103.3675,21.5641,1918.3361],[-103.3457,21.5539,2151.2844],[-103.3417,21.5496,2138.7129],[-103.3228,21.5443,1927.454],[-103.3245,21.5404,1983.469],[-103.315,21.536,1993.064],[-103.317,21.5319,2023.8341],[-103.3213,21.5295,2016.4076],[-103.3276,21.5217,2018.8265],[-103.3204,21.5189,2010.9895],[-103.321,21.515,1981.2388],[-103.3177,21.5125,1958.4559],[-103.3134,21.5119,1964.2904],[-103.3121,21.5188,1939.1089],[-103.291,21.5166,2216.9104],[-103.2904,21.5227,2085.6704],[-103.2538,21.5155,2197.1191],[-103.2539,21.5028,2501.3872],[-103.2443,21.501,2501.7625],[-103.2339,21.554,2482.6929],[-103.1977,21.5853,2368.6309],[-103.1978,21.5927,2371.8821],[-103.2032,21.5951,2416.1089],[-103.2087,21.6001,2460.3042],[-103.2087,21.6032,2457.2329],[-103.2022,21.6019,2394.2734],[-103.1982,21.6028,2359.2651],[-103.1948,21.608,2334.5642],[-103.1901,21.6092,2220.0137],[-103.1863,21.6141,2091.4121],[-103.1807,21.6132,2013.4153],[-103.1777,21.617,1978.4658],[-103.1717,21.617,1896.3352],[-103.1721,21.6222,1986.0778],[-103.1777,21.6254,2088.0942],[-103.1789,21.6301,2225.2119],[-103.163,21.6299,1902.7877],[-103.1586,21.6331,1828.8275],[-103.1589,21.6382,1859.0402],[-103.1615,21.6434,1870.031],[-103.1638,21.6421,1875.3645],[-103.1661,21.6431,1891.5604],[-103.165,21.6472,1926.0291],[-103.1669,21.6495,1914.524],[-103.1743,21.6462,1968.2629],[-103.1766,21.6479,1977.3752],[-103.1797,21.6473,1984.3835],[-103.1825,21.6511,2000.2754],[-103.1914,21.6485,2063.8315],[-103.1996,21.6598,2207.9897],[-103.2217,21.6703,2192.5693],[-103.2294,21.6694,2152.4595],[-103.2315,21.6655,2076.6711],[-103.2354,21.6673,2010.2332],[-103.2411,21.6652,2004.2542],[-103.2486,21.6657,1878.3353],[-103.2658,21.6833,1818.5388],[-103.271,21.6821,1811.8784],[-103.2763,21.6837,1803.1582],[-103.2769,21.6825,1803.1582],[-103.2885,21.6877,1775.2336],[-103.289,21.6936,1751.8157],[-103.2877,21.6951,1764.8329],[-103.2893,21.6957,1767.024],[-103.2874,21.7012,1740.4799],[-103.305,21.709,1724.0681],[-103.3114,21.7087,1714.2314],[-103.3113,21.7106,1708.4331],[-103.3147,21.7127,1701.1046],[-103.3165,21.7115,1699.4154],[-103.3141,21.709,1701.5665],[-103.3155,21.7021,1702.6128],[-103.3267,21.704,1721.1619],[-103.3282,21.6994,1718.144],[-103.336,21.6959,1735.5824],[-103.3392,21.696,1745.507],[-103.3427,21.6969,1752.1865],[-103.3475,21.7022,1786.0497],[-103.3523,21.7139,1856.4006],[-103.3608,21.7125,1892.0693],[-103.3712,21.7057,1898.9642],[-103.3762,21.7114,1907.7831],[-103.3769,21.7172,1881.2943],[-103.3836,21.7095,1894.2291],[-103.3875,21.7083,1873.5496],[-103.3897,21.7053,1863.2488],[-103.3935,21.7057,1843.6785],[-103.392,21.708,1853.9287],[-103.3946,21.7102,1847.2659],[-103.392,21.7113,1847.9473],[-103.3909,21.7152,1847.2008],[-103.3935,21.7213,1857.5736],[-103.4048,21.7267,1899.4133],[-103.4112,21.7255,1941.8187],[-103.427,21.7283,2211.6519],[-103.4304,21.7232,2224.7495],[-103.4397,21.7211,2249.5833],[-103.442,21.7158,2250.2119],[-103.444,21.717,2251.9373],[-103.4463,21.714,2250.4456],[-103.4579,21.7094,2244.3428],[-103.4622,21.7014,2249.655],[-103.4612,21.7011,2249.655],[-103.4624,21.6968,2250.9905],[-103.4713,21.6959,2255.6152],[-103.4769,21.697,2277.6865],[-103.4831,21.6946,2217.2766],[-103.486,21.6872,2261.3584],[-103.4852,21.6823,2283.0801],[-103.4929,21.6798,2302.9458],[-103.4955,21.676,2318.2378],[-103.4974,21.6761,2321.3467],[-103.4981,21.6679,2331.968],[-103.5122,21.6591,2256.0547],[-103.515,21.6553,2242.1157],[-103.5177,21.6451,2238.5859],[-103.5208,21.6411,2192.2607],[-103.521,21.635,2185.186],[-103.5349,21.6431,2220.3882],[-103.5354,21.6464,2235.1196],[-103.5395,21.6493,2246.738],[-103.5487,21.6499,2229.0977],[-103.5522,21.6458,2271.7046],[-103.5516,21.6414,2267.1694],[-103.5555,21.6341,2236.4487],[-103.5556,21.6254,2181.9849],[-103.5538,21.6246,2177.5125],[-103.5506,21.6134,2198.1685],[-103.5504,21.597,2150.8442],[-103.5452,21.5876,2089.1157],[-103.5524,21.5839,2101.4031],[-103.5547,21.5766,2087.739]]]]}
,"properties": {"GID_2": "MEX.32.45_2","GID_0": "MEX","country": "México","GID_1": "MEX.32_1","province": "Zacatecas","NL_NAME_1": "NA","county": "Tepechitlán","VARNAME_2": "NA","NL_NAME_2": "NA","TYPE_2": "Município","ENGTYPE_2": "Municipality","CC_2": "NA","HASC_2": "NA","name": "Tepechitlán.county","area_km2": 546.2814,"hist_schema_id": "Elevation0-9000","hist_area_km2": {"1700": 4.8464,"1725": 16.3934,"1750": 25.1256,"1775": 33.8392,"1800": 38.829,"1825": 45.4881,"1850": 42.5878,"1875": 32.8339,"1900": 25.3654,"1925": 20.2643,"1950": 16.3419,"1975": 12.9318,"2000": 13.425,"2025": 12.8727,"2050": 10.9793,"2075": 10.6248,"2100": 11.4529,"2125": 13.2469,"2150": 13.424,"2175": 16.6953,"2200": 19.8092,"2225": 18.1321,"2250": 17.579,"2275": 11.767,"2300": 12.1017,"2325": 9.5989,"2350": 6.978,"2375": 6.8404,"2400": 6.0324,"2425": 4.3175,"2450": 3.6671,"2475": 4.2196,"2500": 3.2341,"2525": 1.7945,"2550": 0.9662,"2575": 0.6704,"2600": 0.3944,"2625": 0.4141,"2650": 0.1972}}}