{"type": "Feature","bbox": [-97.6502,17.7543,-97.5068,17.8711],"geometry": {"type": "MultiPolygon","coordinates": [[[[-97.5101,17.7964,2408.9658],[-97.5105,17.8143,2428.4094],[-97.5084,17.8304,2556.2769],[-97.5068,17.8305,2511.8054],[-97.5435,17.8543,2850.5459],[-97.5528,17.8559,2700.8984],[-97.5613,17.8623,2871.0918],[-97.5611,17.8643,2887.7498],[-97.5757,17.8711,2668.2705],[-97.5872,17.8654,2713.1843],[-97.5926,17.8592,2803.9888],[-97.6049,17.8403,2681.1819],[-97.6224,17.8188,2256.2102],[-97.6265,17.8084,2340.759],[-97.634,17.799,2441.4604],[-97.6502,17.7855,2260.7603],[-97.6449,17.7682,1791.4226],[-97.6373,17.7684,1815.8844],[-97.6304,17.7631,1872.5109],[-97.6244,17.762,1879.4148],[-97.6201,17.7567,1899.6364],[-97.6133,17.7543,1895.7565],[-97.6041,17.7556,1906.9872],[-97.5966,17.7613,1941.848],[-97.5929,17.762,1980.8971],[-97.5834,17.7698,1951.5408],[-97.5739,17.7734,2006.3765],[-97.5743,17.7788,1992.368],[-97.5694,17.7818,2037.7933],[-97.5662,17.7888,2220.3601],[-97.5532,17.7803,2169.7969],[-97.5208,17.7869,2258.6152],[-97.5192,17.7989,2311.8552],[-97.5101,17.7964,2408.9658]]]]}
,"properties": {"GID_2": "MEX.20.323_2","GID_0": "MEX","country": "México","GID_1": "MEX.20_1","province": "Oaxaca","NL_NAME_1": "NA","county": "SanPedroNopala","VARNAME_2": "NA","NL_NAME_2": "NA","TYPE_2": "Município","ENGTYPE_2": "Municipality","CC_2": "NA","HASC_2": "NA","name": "San_Pedro_Nopala.county","area_km2": 109.81219,"hist_schema_id": "Elevation0-9000","hist_area_km2": {"1775": 0.02019,"1800": 0.20191,"1825": 0.30286,"1850": 0.48458,"1875": 0.58553,"1900": 0.88839,"1925": 0.92877,"1950": 1.31237,"1975": 1.53446,"2000": 1.75653,"2025": 2.24106,"2050": 2.20066,"2075": 2.70532,"2100": 3.49263,"2125": 3.45216,"2150": 4.25962,"2175": 3.91635,"2200": 4.48153,"2225": 4.60255,"2250": 5.7935,"2275": 5.47043,"2300": 5.51071,"2325": 4.90506,"2350": 4.80405,"2375": 4.66281,"2400": 4.38015,"2425": 4.3599,"2450": 3.936,"2475": 3.47173,"2500": 4.13777,"2525": 3.61298,"2550": 3.2294,"2575": 2.72478,"2600": 2.32104,"2625": 2.36145,"2650": 1.45316,"2675": 1.1302,"2700": 0.70637,"2725": 0.60546,"2750": 0.40363,"2775": 0.24218,"2800": 0.08072,"2825": 0.02018,"2850": 0.08072,"2875": 0.02018,"2900": 0.02018}}}