{"type": "Feature","bbox": [-104.044,25.8293,-103.2608,26.7549],"geometry": {"type": "MultiPolygon","coordinates": [[[[-103.9326,26.754,1101.7576],[-104.044,26.6428,1310.5597],[-104.0292,26.6328,1404.3123],[-104.0153,26.6299,1374.101],[-104.0147,26.5972,1302.4187],[-104.0237,26.5684,1249.9111],[-104.013,26.5677,1190.8523],[-104.0161,26.5601,1178.5742],[-103.9475,26.5579,1145.9819],[-103.9449,26.5419,1158.4265],[-103.9524,26.5003,1152.9237],[-103.9563,26.4925,1151.8525],[-103.9751,26.4773,1156.2157],[-103.953,26.4535,1151.2365],[-103.961,26.4471,1152.0812],[-103.9545,26.4401,1150.3188],[-104.0102,26.3952,1154.5278],[-103.8381,26.2101,1140.3904],[-103.7002,26.0817,1107.7848],[-103.6276,25.9013,1119.0641],[-103.5931,25.9254,1098.8152],[-103.5889,25.9125,1101.6183],[-103.5839,25.9161,1098.9873],[-103.5733,25.9125,1099.2388],[-103.5772,25.8994,1100.6001],[-103.5663,25.8967,1100.5042],[-103.5697,25.888,1101.9669],[-103.5644,25.8776,1102.2688],[-103.5534,25.8823,1101.7317],[-103.55,25.8753,1102.0109],[-103.5395,25.8796,1101.0474],[-103.5431,25.8658,1103.1943],[-103.5231,25.8636,1100.5104],[-103.5056,25.866,1101.1396],[-103.5074,25.8326,1105.7885],[-103.4848,25.8311,1104.5896],[-103.4822,25.8576,1102.5276],[-103.4742,25.8582,1101.5707],[-103.4605,25.8547,1101.8849],[-103.4614,25.842,1102.8353],[-103.4513,25.8392,1102.5945],[-103.4369,25.8381,1103.3628],[-103.4377,25.8293,1103.8556],[-103.4114,25.8357,1104.6351],[-103.4208,25.846,1104.1379],[-103.4333,25.8432,1103.3372],[-103.4319,25.8573,1103.2174],[-103.4439,25.8696,1101.6481],[-103.4019,25.875,1102.8766],[-103.3966,25.8702,1102.1505],[-103.3916,25.8566,1103.3743],[-103.3794,25.8603,1103.3845],[-103.3797,25.8551,1103.0219],[-103.3768,25.8548,1101.8547],[-103.3765,25.853,1103.0842],[-103.3717,25.8535,1103.7256],[-103.3735,25.8577,1103.0911],[-103.3729,25.8671,1102.8259],[-103.3622,25.8643,1103.3147],[-103.3466,25.8769,1101.384],[-103.3505,26.1424,1366.0165],[-103.2608,26.2847,2000.541],[-103.3168,26.3618,1221.897],[-103.3742,26.6024,1147.9937],[-103.637,26.6934,1165.8695],[-103.6439,26.6902,1199.7014],[-103.6583,26.7195,1133.5303],[-103.682,26.7216,1137.1277],[-103.8613,26.7541,1101.7791],[-103.8613,26.7504,1102.7518],[-103.8812,26.7549,1103.5819],[-103.9278,26.7527,1101.2454],[-103.9326,26.754,1101.7576]]]]}
,"properties": {"GID_2": "MEX.10.37_2","GID_0": "MEX","country": "México","GID_1": "MEX.10_1","province": "Durango","NL_NAME_1": "NA","county": "Tlahualilo","VARNAME_2": "NA","NL_NAME_2": "NA","TYPE_2": "Município","ENGTYPE_2": "Municipality","CC_2": "NA","HASC_2": "NA","name": "Tlahualilo.county","area_km2": 4751.033,"hist_schema_id": "Elevation0-9000","hist_area_km2": {"1100": 1966.041,"1125": 937.788,"1150": 630.874,"1175": 318.751,"1200": 220.277,"1225": 143.631,"1250": 98.683,"1275": 72.404,"1300": 60.242,"1325": 55.252,"1350": 55.375,"1375": 36.008,"1400": 24.791,"1425": 22.247,"1450": 18.011,"1475": 15.047,"1500": 12.103,"1525": 10.147,"1550": 9.292,"1575": 8.265,"1600": 5.834,"1625": 5.567,"1650": 4.826,"1675": 4.409,"1700": 3.079,"1725": 3.041,"1750": 2.908,"1775": 2.281,"1800": 1.901,"1825": 0.969,"1850": 0.456,"1875": 0.247,"1900": 0.095,"1925": 0.038,"1950": 0.076,"1975": 0.038,"2000": 0.038}}}