{"type": "Feature","bbox": [-101.2124,20.0345,-101.0799,20.2003],"geometry": {"type": "MultiPolygon","coordinates": [[[[-101.1963,20.0572,2082.4629],[-101.1791,20.0624,1988.0552],[-101.1767,20.0645,1929.3124],[-101.174,20.0721,1855.1603],[-101.1716,20.0735,1854.2469],[-101.1709,20.0757,1849.6965],[-101.1736,20.0762,1851.7419],[-101.1697,20.0823,1856.1418],[-101.1705,20.0846,1867.91],[-101.1726,20.0849,1884.0538],[-101.1756,20.0959,1872.724],[-101.1736,20.0978,1867.6237],[-101.1711,20.094,1872.1471],[-101.1663,20.0912,1870.2183],[-101.1652,20.0872,1874.8428],[-101.1585,20.0869,1849.1743],[-101.1566,20.0838,1847.1337],[-101.1544,20.085,1836.1787],[-101.1331,20.06,1834.5502],[-101.1261,20.0644,1834.7888],[-101.1195,20.071,1843.4176],[-101.1197,20.0735,1841.7577],[-101.1175,20.0733,1842.4691],[-101.1176,20.0749,1838.834],[-101.115,20.075,1839.272],[-101.1139,20.0772,1844.5116],[-101.1105,20.076,1843.3929],[-101.0943,20.082,1938.1075],[-101.0802,20.0828,1943.8608],[-101.0799,20.0911,2082.9351],[-101.0819,20.0972,2180.0779],[-101.0861,20.0957,2168.3096],[-101.0905,20.1062,2238.1677],[-101.0932,20.1043,2220.1741],[-101.0935,20.1064,2266.5496],[-101.0984,20.1104,2246.7705],[-101.0966,20.1124,2263.8325],[-101.0995,20.1138,2285.4465],[-101.0981,20.115,2285.4465],[-101.0934,20.1142,2280.9597],[-101.0918,20.1187,2257.3269],[-101.0928,20.1192,2250.9949],[-101.0898,20.1207,2262.6895],[-101.0919,20.1228,2253.3875],[-101.0902,20.1246,2252.813],[-101.096,20.1265,2246.4688],[-101.0947,20.1301,2200.7925],[-101.0958,20.1315,2189.1602],[-101.1021,20.129,2238.7114],[-101.1043,20.1344,2152.2588],[-101.1031,20.1346,2163.6133],[-101.1034,20.1365,2138.4263],[-101.107,20.1361,2114.0745],[-101.1081,20.1382,2091.7732],[-101.1068,20.139,2072.6577],[-101.1094,20.14,2070.2466],[-101.1096,20.1433,2021.7786],[-101.1158,20.141,1982.0634],[-101.1169,20.1443,1959.9987],[-101.1148,20.1464,1976.0256],[-101.1191,20.1519,1991.0219],[-101.1193,20.1552,2021.0803],[-101.123,20.1543,2030.8064],[-101.1242,20.1559,2046.4371],[-101.1258,20.1646,2137.8953],[-101.1373,20.1664,2143.9551],[-101.14,20.1638,2101.9521],[-101.141,20.165,2101.9521],[-101.1449,20.1649,2022.4475],[-101.1525,20.1624,1897.0757],[-101.1554,20.1599,1872.3459],[-101.1593,20.1603,1847.9327],[-101.1555,20.1774,1892.5552],[-101.147,20.1855,1888.8728],[-101.1452,20.1898,1852.6272],[-101.1485,20.1906,1823.8395],[-101.1524,20.1865,1860.3035],[-101.1554,20.1875,1839.3667],[-101.1556,20.1851,1846.0934],[-101.1593,20.1855,1841.9982],[-101.1609,20.1821,1877.9742],[-101.1626,20.1857,1852.3942],[-101.165,20.1855,1841.5875],[-101.165,20.1801,1889.5151],[-101.1703,20.1793,1848.2104],[-101.175,20.1896,1765.9641],[-101.1742,20.1918,1758.3271],[-101.18,20.1921,1750.9004],[-101.1802,20.1897,1773.2416],[-101.1761,20.1887,1779.1194],[-101.1784,20.1814,1808.2317],[-101.197,20.1823,1838.4838],[-101.1964,20.1895,1795.314],[-101.1989,20.1894,1789.7621],[-101.198,20.1974,1797.709],[-101.2036,20.2003,1777.7368],[-101.2053,20.1988,1778.3792],[-101.2053,20.1946,1779.9742],[-101.2075,20.1931,1795.772],[-101.2057,20.189,1835.5674],[-101.2068,20.1819,1904.514],[-101.2124,20.1741,2012.0938],[-101.2106,20.1696,2081.8064],[-101.2113,20.1663,2118.679],[-101.2091,20.1636,2206.625],[-101.2094,20.1615,2147.1533],[-101.2024,20.1608,2014.6127],[-101.198,20.1621,1982.8682],[-101.1943,20.1603,1890.6682],[-101.1962,20.1586,1913.6761],[-101.1991,20.1597,1978.9023],[-101.1993,20.1534,1886.4584],[-101.2032,20.152,1949.4783],[-101.2019,20.1484,1924.38],[-101.1915,20.1385,1814.5264],[-101.1847,20.1393,1811.4265],[-101.1833,20.1373,1809.5007],[-101.1842,20.1357,1809.407],[-101.1808,20.1343,1805.5961],[-101.1821,20.1321,1806.09],[-101.1789,20.1271,1817.0212],[-101.1806,20.1258,1820.6761],[-101.178,20.1216,1841.3354],[-101.1794,20.121,1843.1885],[-101.1805,20.124,1825.0811],[-101.1816,20.1236,1828.6383],[-101.1839,20.1183,1834.1573],[-101.1833,20.1143,1847.0027],[-101.1841,20.1118,1845.2446],[-101.1851,20.1121,1845.8799],[-101.1853,20.1058,1859.6315],[-101.1897,20.1028,1895.7446],[-101.1917,20.1047,1895.8975],[-101.2007,20.1059,1865.1017],[-101.1992,20.1012,1882.2708],[-101.1997,20.0914,1883.7872],[-101.1976,20.0925,1881.6134],[-101.1954,20.0914,1887.9099],[-101.1963,20.0874,1888.3722],[-101.1928,20.0858,1892.9227],[-101.1939,20.0822,1908.8715],[-101.1925,20.0791,1906.7009],[-101.196,20.0765,1936.4384],[-101.1962,20.0723,1960.6152],[-101.205,20.0706,2008.8884],[-101.2022,20.0572,2053.2451],[-101.2032,20.0462,1992.3359],[-101.2102,20.0474,1997.4622],[-101.2118,20.0377,2127.1306],[-101.2047,20.0349,2091.2061],[-101.2022,20.0366,2055.1453],[-101.2004,20.0346,2081.5278],[-101.1932,20.0345,2031.3818],[-101.1921,20.0477,1994.4028],[-101.1957,20.0509,2021.9043],[-101.1943,20.0543,2035.1111],[-101.1975,20.0546,2052.259],[-101.1982,20.0574,2100.8428],[-101.1963,20.0572,2082.4629]]]]}
,"properties": {"GID_2": "MEX.11.41_2","GID_0": "MEX","country": "México","GID_1": "MEX.11_1","province": "Guanajuato","NL_NAME_1": "NA","county": "Uriangato","VARNAME_2": "NA","NL_NAME_2": "NA","TYPE_2": "Município","ENGTYPE_2": "Municipality","CC_2": "NA","HASC_2": "NA","name": "Uriangato.county","area_km2": 116.76257,"hist_schema_id": "Elevation0-9000","hist_area_km2": {"1750": 0.15919,"1775": 0.37808,"1800": 11.20584,"1825": 12.74149,"1850": 19.23169,"1875": 12.18368,"1900": 9.21774,"1925": 5.67393,"1950": 6.33118,"1975": 5.17632,"2000": 5.39593,"2025": 5.31603,"2050": 5.31589,"2075": 3.98185,"2100": 3.42433,"2125": 2.78722,"2150": 1.89133,"2175": 1.47321,"2200": 1.3936,"2225": 0.95562,"2250": 1.47324,"2275": 0.65699,"2300": 0.31854,"2325": 0.05973,"2350": 0.01991}}}