{"type": "Feature","bbox": [-96.3848,19.2208,-96.2222,19.4143],"geometry": {"type": "MultiPolygon","coordinates": [[[[-96.2222,19.2652,1.1041],[-96.253,19.2824,1.727],[-96.2646,19.2906,1.3172],[-96.2818,19.3082,0.3699],[-96.296,19.3075,0.9957],[-96.3079,19.3132,5.7558],[-96.32,19.3156,3.3478],[-96.3258,19.3216,1.9933],[-96.3311,19.3359,3.0963],[-96.3239,19.3203,1.7573],[-96.3198,19.3165,1.0001],[-96.3016,19.313,0.0],[-96.296,19.3097,0.0],[-96.2828,19.3093,0.0],[-96.2967,19.3237,0.9168],[-96.3069,19.3426,1.4578],[-96.3112,19.3588,4.5473],[-96.3108,19.3641,9.4254],[-96.3074,19.3698,0.0],[-96.3073,19.373,0.2179],[-96.3151,19.3901,1.661],[-96.3219,19.4143,0.0],[-96.3226,19.4091,3.1801],[-96.3261,19.4073,2.036],[-96.3285,19.4095,2.6725],[-96.3299,19.4088,2.6725],[-96.3298,19.4042,4.1743],[-96.3322,19.4009,3.2945],[-96.332,19.3959,4.3056],[-96.3426,19.3974,5.5499],[-96.3428,19.3959,5.958],[-96.3533,19.3955,6.3675],[-96.3657,19.3998,8.2949],[-96.3771,19.4007,9.0967],[-96.3757,19.3935,7.9972],[-96.3766,19.3881,13.8476],[-96.3734,19.3878,9.7101],[-96.3745,19.383,10.6771],[-96.3723,19.3814,14.3401],[-96.3771,19.3729,28.0304],[-96.3819,19.3723,19.5157],[-96.3848,19.3606,18.1731],[-96.3814,19.3599,18.2949],[-96.378,19.3653,9.8393],[-96.3737,19.3643,11.7069],[-96.3716,19.3621,9.024],[-96.3739,19.3583,16.6862],[-96.3587,19.3479,4.0174],[-96.3598,19.3427,10.7281],[-96.3494,19.3412,9.3893],[-96.3496,19.3369,6.0474],[-96.3517,19.337,6.7003],[-96.3513,19.3329,7.1157],[-96.3545,19.3326,8.7971],[-96.3529,19.329,8.3229],[-96.3494,19.3284,6.386],[-96.347,19.3253,5.7912],[-96.3457,19.3146,5.7585],[-96.3369,19.3068,3.512],[-96.337,19.3051,2.5238],[-96.3288,19.3026,1.9053],[-96.329,19.3012,3.1265],[-96.3221,19.2956,3.2608],[-96.325,19.2963,2.8247],[-96.3279,19.293,3.2561],[-96.3274,19.2871,2.9066],[-96.34,19.2489,3.1638],[-96.3394,19.2419,5.4194],[-96.3237,19.2373,13.2038],[-96.3245,19.2345,10.704],[-96.3198,19.2329,21.8878],[-96.3188,19.231,22.6752],[-96.3167,19.2331,28.4936],[-96.3096,19.2327,39.8415],[-96.3093,19.2351,53.5425],[-96.2978,19.2388,96.9714],[-96.2958,19.2417,88.9289],[-96.2911,19.2435,91.3039],[-96.2868,19.2599,97.8244],[-96.2801,19.2592,81.2017],[-96.273,19.2648,12.7432],[-96.2537,19.2429,10.1326],[-96.257,19.2417,25.4147],[-96.2414,19.2255,32.1335],[-96.2264,19.2208,14.051],[-96.2271,19.226,11.9727],[-96.2258,19.2307,17.8405],[-96.227,19.2354,16.2421],[-96.2242,19.2435,15.7602],[-96.2242,19.2489,14.5723],[-96.2263,19.2552,8.2767],[-96.2237,19.2566,6.8824],[-96.2243,19.2593,4.1378],[-96.2268,19.2591,4.6666],[-96.2277,19.2606,4.2728],[-96.225,19.2614,4.3417],[-96.224,19.2646,1.1554],[-96.2222,19.2652,1.1041]]]]}
,"properties": {"GID_2": "MEX.30.96_2","GID_0": "MEX","country": "México","GID_1": "MEX.30_1","province": "Veracruz","NL_NAME_1": "NA","county": "LaAntigua","VARNAME_2": "NA","NL_NAME_2": "NA","TYPE_2": "Município","ENGTYPE_2": "Municipality","CC_2": "NA","HASC_2": "NA","name": "La_Antigua.county","area_km2": 130.3216,"hist_schema_id": "Elevation0-9000","hist_area_km2": {"0": 69.0248,"25": 41.8026,"50": 10.5274,"75": 6.0446,"100": 2.8822,"125": 0.04}}}