{"type":"Feature","properties":{"GID_2":"MEX.21.147_2","GID_0":"MEX","country":"México","GID_1":"MEX.21_1","province":"Puebla","NL_NAME_1":"NA","county":"SantaCatarinaTlaltempan","VARNAME_2":"NA","NL_NAME_2":"NA","TYPE_2":"Município","ENGTYPE_2":"Municipality","CC_2":"NA","HASC_2":"NA","name":"Santa_Catarina_Tlaltempan.county"},
"geometry":{"type": "MultiPolygon","coordinates": [[[[-98.113,18.6357,1199.5079],[-98.1163,18.6327,1193.0656],[-98.122,18.634,1199.3352],[-98.1241,18.6277,1204.6595],[-98.1279,18.6267,1183.3032],[-98.1272,18.6203,1178.9719],[-98.1304,18.6206,1184.6985],[-98.1366,18.6151,1180.2435],[-98.1414,18.6167,1175.3013],[-98.1412,18.6142,1172.4343],[-98.1434,18.6126,1169.6892],[-98.1327,18.6093,1204.2744],[-98.1316,18.6069,1222.2017],[-98.1249,18.6026,1239.438],[-98.1264,18.5956,1264.5885],[-98.1214,18.5922,1265.2782],[-98.1187,18.5923,1256.938],[-98.115,18.5898,1230.9961],[-98.1099,18.5903,1230.3572],[-98.1097,18.5849,1235.7599],[-98.1077,18.5826,1240.5553],[-98.1056,18.5835,1242.8289],[-98.1058,18.5863,1264.1128],[-98.1035,18.5856,1271.4569],[-98.1007,18.59,1315.812],[-98.0966,18.5913,1346.1616],[-98.0959,18.5842,1260.9521],[-98.0848,18.5861,1263.585],[-98.0708,18.5969,1308.7792],[-98.0666,18.6011,1311.2776],[-98.0663,18.6033,1315.5688],[-98.0518,18.6024,1342.326],[-98.0446,18.6073,1359.3933],[-98.0412,18.6051,1335.4026],[-98.0394,18.6092,1343.1321],[-98.0357,18.6111,1362.5892],[-98.0351,18.6131,1350.4253],[-98.0312,18.6141,1362.3833],[-98.026,18.6242,1371.3578],[-98.0193,18.6268,1394.9264],[-98.017,18.6338,1426.813],[-98.021,18.6376,1535.8748],[-98.0188,18.6415,1553.3226],[-98.0406,18.6449,1539.8347],[-98.0442,18.6481,1531.4695],[-98.047,18.6457,1531.6],[-98.0511,18.6451,1521.8064],[-98.0539,18.6374,1512.1444],[-98.062,18.6333,1510.3514],[-98.0771,18.6345,1478.9465],[-98.0956,18.6258,1282.9196],[-98.0956,18.627,1282.9196],[-98.0995,18.626,1245.676],[-98.1024,18.6284,1229.5575],[-98.1061,18.6288,1218.5767],[-98.107,18.6326,1229.2872],[-98.1105,18.634,1200.03],[-98.1105,18.6356,1212.683],[-98.113,18.6357,1199.5079]]]]}}