{"type":"Feature","properties":{"GID_2":"MEX.14.84_2","GID_0":"MEX","country":"México","GID_1":"MEX.14_1","province":"Jalisco","NL_NAME_1":"NA","county":"Sayula","VARNAME_2":"NA","NL_NAME_2":"NA","TYPE_2":"Município","ENGTYPE_2":"Municipality","CC_2":"NA","HASC_2":"NA","name":"Sayula.county"},
"geometry":{"type": "MultiPolygon","coordinates": [[[[-103.6615,19.936,2202.7886],[-103.665,19.9377,2217.5378],[-103.6653,19.9332,2190.7268],[-103.6632,19.9321,2186.1729],[-103.6628,19.9276,2181.8188],[-103.6586,19.9226,2209.3962],[-103.6563,19.912,2219.5444],[-103.6634,19.9103,2269.1997],[-103.6647,19.9046,2284.1638],[-103.6691,19.9023,2328.3933],[-103.6703,19.8958,2361.9375],[-103.669,19.8911,2421.2627],[-103.6748,19.886,2539.8574],[-103.6869,19.8894,2243.0063],[-103.691,19.8868,2215.0576],[-103.695,19.8866,2207.1816],[-103.6997,19.8822,2262.3396],[-103.7074,19.8805,2224.9956],[-103.6987,19.8782,2291.6116],[-103.6869,19.8653,2304.6121],[-103.6744,19.8667,2303.3745],[-103.6757,19.8563,2206.9775],[-103.6676,19.8482,2092.7432],[-103.659,19.8497,2039.5337],[-103.659,19.8482,2046.0551],[-103.6546,19.8459,1975.2946],[-103.648,19.8472,1921.8347],[-103.6367,19.8456,1770.0465],[-103.6358,19.8441,1729.8083],[-103.6269,19.847,1575.156],[-103.6249,19.8409,1653.5685],[-103.6304,19.8384,1686.432],[-103.6304,19.8339,1779.0355],[-103.6331,19.8324,1863.9088],[-103.6337,19.8282,1871.4275],[-103.6358,19.8289,1861.5856],[-103.6378,19.8274,1877.5634],[-103.6441,19.8322,1956.147],[-103.6476,19.8305,1983.6151],[-103.6496,19.8317,1983.9161],[-103.6509,19.8197,2131.8916],[-103.647,19.8146,2133.6621],[-103.6493,19.806,2148.1655],[-103.6518,19.8059,2140.439],[-103.652,19.8033,2166.197],[-103.6406,19.7983,2227.3948],[-103.6342,19.7927,2252.1475],[-103.6271,19.7902,2334.0701],[-103.6245,19.7867,2362.9028],[-103.6251,19.7827,2377.7507],[-103.6231,19.7782,2330.3926],[-103.6052,19.7714,2292.0112],[-103.6006,19.774,2304.7854],[-103.5928,19.7714,2357.6938],[-103.5898,19.7725,2349.9963],[-103.5832,19.7653,2282.3906],[-103.5767,19.7743,2109.3101],[-103.5718,19.7717,2089.4758],[-103.5648,19.7724,1999.3105],[-103.5581,19.7763,1885.191],[-103.5513,19.7768,1768.7296],[-103.5477,19.7746,1735.658],[-103.5436,19.7743,1666.478],[-103.5482,19.7896,1735.1721],[-103.5506,19.794,1675.9954],[-103.5529,19.796,1722.5891],[-103.5538,19.7952,1731.0962],[-103.5532,19.7963,1722.5891],[-103.5584,19.8009,1785.7085],[-103.5614,19.8053,1734.2382],[-103.5642,19.8153,1572.937],[-103.5678,19.8177,1595.2544],[-103.5658,19.8188,1579.4536],[-103.565,19.8249,1545.7732],[-103.5635,19.8228,1557.5739],[-103.5584,19.8249,1537.8947],[-103.5577,19.8293,1501.4327],[-103.5594,19.83,1511.3884],[-103.5579,19.837,1474.8044],[-103.5553,19.8361,1461.9805],[-103.5517,19.8374,1437.1874],[-103.5514,19.8397,1434.9926],[-103.546,19.840699999999998,1497.0236],[-103.5474,19.8462,1489.9927],[-103.5443,19.8485,1418.8022],[-103.5446,19.8511,1397.9973],[-103.542,19.8545,1387.7552],[-103.5414,19.864,1371.0676],[-103.5119,19.8541,1441.121],[-103.5141,19.8624,1381.8438],[-103.5125,19.8681,1383.2007],[-103.515,19.8757,1379.925],[-103.5095,19.8764,1374.4904],[-103.509,19.8852,1369.9879],[-103.5046,19.8869,1377.2656],[-103.5025,19.8917,1385.5354],[-103.5002,19.8922,1407.1841],[-103.4994,19.8956,1376.1274],[-103.502,19.9008,1360.0037],[-103.5007,19.9056,1381.7411],[-103.4982,19.9072,1392.248],[-103.4997,19.9113,1369.2972],[-103.5137,19.9129,1348.2749],[-103.5135,19.9252,1350.4091],[-103.5162,19.9266,1358.8267],[-103.5242,19.9264,1345.6973],[-103.5231,19.9488,1346.238],[-103.5275,19.9476,1343.7308],[-103.5419,19.9374,1343.5347],[-103.5516,19.9281,1345.1079],[-103.5613,19.9254,1343.3414],[-103.5729,19.9088,1343.6815],[-103.5686,19.9065,1343.4056],[-103.5705,19.8955,1345.5637],[-103.5769,19.893,1347.5417],[-103.5793,19.8929,1347.2102],[-103.5775,19.9023,1343.5806],[-103.5801,19.9057,1343.1486],[-103.5934,19.9109,1344.3015],[-103.5971,19.909,1345.4167],[-103.6082,19.9313,1346.8983],[-103.609,19.9291,1349.819],[-103.6134,19.9297,1358.9185],[-103.6095,19.9086,1351.2972],[-103.6197,19.9172,1379.74],[-103.6217,19.9212,1390.595],[-103.6345,19.9252,1531.0129],[-103.6324,19.9276,1505.8124],[-103.6463,19.931,1986.3707],[-103.6456,19.9346,1967.4905],[-103.6476,19.9352,2014.3156],[-103.6538,19.9361,2195.0015],[-103.6581,19.9343,2194.3984],[-103.6615,19.936,2202.7886]]]]}}