{"type":"Feature","properties":{"GID_2":"MEX.31.73_2","GID_0":"MEX","country":"México","GID_1":"MEX.31_1","province":"Yucatán","NL_NAME_1":"NA","county":"Tahdziú","VARNAME_2":"NA","NL_NAME_2":"NA","TYPE_2":"Município","ENGTYPE_2":"Municipality","CC_2":"NA","HASC_2":"NA","name":"Tahdziú.county"},
"geometry":{"type": "MultiPolygon","coordinates": [[[[-88.9823,20.2891,34.0781],[-88.9888,20.2645,34.3904],[-88.9825,20.2559,30.819],[-88.9662,20.2525,27.1929],[-88.9781,20.2477,31.2364],[-88.9852,20.2424,28.0296],[-88.9791,20.2242,30.2813],[-88.9786,20.2061,39.3019],[-88.9885,20.2053,41.779],[-88.9894,20.2024,43.0165],[-88.9679,20.1961,40.7575],[-88.9685,20.1669,36.6235],[-88.929,20.1628,32.536],[-88.9058,20.163,33.883],[-88.9022,20.1896,34.9826],[-88.9145,20.1924,39.3743],[-88.9132,20.2011,37.6541],[-88.9145,20.2058,35.2757],[-88.9121,20.2101,37.6531],[-88.8992,20.2083,42.9801],[-88.8999,20.2012,44.0404],[-88.8318,20.1937,42.3676],[-88.8311,20.1988,38.8944],[-88.8259,20.2087,35.8083],[-88.82,20.2147,27.355],[-88.8151,20.2163,33.611],[-88.8152,20.2201,24.2291],[-88.8183,20.2203,28.7657],[-88.8185,20.2239,28.6918],[-88.8276,20.2237,28.6138],[-88.8264,20.2315,31.787],[-88.8055,20.2298,29.8544],[-88.8045,20.2356,35.8033],[-88.7948,20.2344,35.5718],[-88.7941,20.241,33.545],[-88.7966,20.241,35.8581],[-88.7959,20.2441,34.1524],[-88.7977,20.2447,34.463],[-88.7924,20.254,34.557],[-88.7942,20.2671,28.003],[-88.8248,20.2695,28.9097],[-88.8235,20.2771,26.7723],[-88.8155,20.287,29.6491],[-88.8427,20.2889,32.1781],[-88.8415,20.2962,30.3962],[-88.8837,20.2997,29.2762],[-88.8823,20.3138,27.5673],[-88.886,20.3159,25.0078],[-88.8996,20.315,29.3645],[-88.8968,20.3215,24.254],[-88.9423,20.3274,28.4842],[-88.943,20.3173,32.6454],[-88.9763,20.3208,30.1083],[-88.9775,20.2886,33.2776],[-88.9823,20.2891,34.0781]]]]}}