{"type": "Feature","bbox": [-110.1114,28.2004,-109.6273,28.563],"geometry": {"type": "MultiPolygon","coordinates": [[[[-109.66,28.3897,860.8541],[-109.6273,28.5105,687.6159],[-109.6502,28.524,396.2314],[-109.6527,28.5217,411.2825],[-109.6528,28.5146,455.1345],[-109.6555,28.5082,450.1708],[-109.6518,28.5034,416.1452],[-109.652,28.5008,409.9997],[-109.6466,28.4986,357.4745],[-109.648,28.4926,336.4623],[-109.659,28.483,331.0876],[-109.6648,28.48,356.9358],[-109.6741,28.4785,385.6167],[-109.6778,28.4722,380.2021],[-109.6815,28.4728,382.3548],[-109.6849,28.4669,392.4814],[-109.6916,28.4654,405.9064],[-109.6943,28.4632,412.5931],[-109.704,28.473,446.878],[-109.7183,28.459,528.1187],[-109.7325,28.4635,477.723],[-109.7455,28.4787,559.8378],[-109.771,28.5,393.445],[-109.7711,28.5142,670.9606],[-109.7795,28.5106,558.6312],[-109.8114,28.5057,416.9576],[-109.8158,28.4988,331.6501],[-109.8163,28.495,331.7049],[-109.8257,28.4956,341.8171],[-109.8384,28.504,364.4763],[-109.8556,28.4814,335.7094],[-109.8735,28.4798,346.2047],[-109.8661,28.5134,363.7829],[-109.9012,28.5189,339.7222],[-109.8934,28.563,376.934],[-109.8967,28.5629,367.5798],[-109.9102,28.5478,362.9163],[-109.9173,28.5488,339.2974],[-109.9181,28.5475,329.1553],[-109.9277,28.5458,374.1364],[-109.9581,28.5469,420.395],[-109.9774,28.5442,534.6582],[-109.9767,28.5406,577.6169],[-109.9848,28.4854,386.8888],[-109.9883,28.4846,387.2141],[-109.9916,28.4801,404.9516],[-110.0025,28.481,411.4207],[-110.0149,28.4764,439.5681],[-110.0277,28.4749,448.3869],[-110.0362,28.4763,465.9376],[-110.0407,28.4603,505.3035],[-110.0575,28.4644,471.7039],[-110.053,28.4569,502.5944],[-110.0647,28.4503,491.9458],[-110.0537,28.4179,478.5603],[-110.068,28.4128,479.8336],[-110.0629,28.3907,441.972],[-110.0724,28.3854,437.1694],[-110.0697,28.3724,458.8779],[-110.1114,28.3527,533.2304],[-110.1053,28.3195,497.9959],[-110.106,28.3174,524.0061],[-110.1007,28.3145,595.0587],[-110.1003,28.3092,469.7703],[-110.047,28.3084,366.6172],[-110.033,28.3002,413.7601],[-109.9865,28.2832,282.799],[-109.9507,28.2561,233.2843],[-109.9449,28.2185,172.3143],[-109.9012,28.2004,134.7564],[-109.8944,28.2079,146.9168],[-109.9026,28.2135,128.9489],[-109.9094,28.2092,128.2577],[-109.9111,28.2107,139.0907],[-109.9111,28.2638,196.4358],[-109.9005,28.2652,176.3629],[-109.8951,28.2614,169.9217],[-109.8976,28.2592,169.4397],[-109.8958,28.2562,173.1785],[-109.8912,28.2567,166.0214],[-109.8904,28.259,163.9945],[-109.8873,28.2572,161.4074],[-109.8851,28.2601,160.2132],[-109.8847,28.2638,160.6056],[-109.8886,28.2645,161.1251],[-109.8885,28.2663,161.9737],[-109.8857,28.2669,163.6008],[-109.8795,28.2751,170.9038],[-109.8759,28.2717,189.8441],[-109.8614,28.2752,208.6712],[-109.858,28.2747,201.6404],[-109.8569,28.2778,206.4842],[-109.8541,28.2778,210.2364],[-109.8506,28.2815,212.5448],[-109.8459,28.2802,231.3487],[-109.841,28.2844,234.8951],[-109.7849,28.292,412.322],[-109.7746,28.2557,533.7514],[-109.6969,28.2713,714.7789],[-109.7015,28.2825,373.395],[-109.7462,28.2943,529.2584],[-109.7562,28.3192,736.0877],[-109.748,28.334,659.7238],[-109.7638,28.3716,598.7021],[-109.7711,28.4045,491.5167],[-109.7008,28.407,699.541],[-109.6915,28.3975,774.41],[-109.6763,28.3975,700.6959],[-109.6666,28.3912,802.4658],[-109.66,28.3897,860.8541]]]]}
,"properties": {"GID_2": "MEX.26.65_2","GID_0": "MEX","country": "México","GID_1": "MEX.26_1","province": "Sonora","NL_NAME_1": "NA","county": "SuaquiGrande","VARNAME_2": "NA","NL_NAME_2": "NA","TYPE_2": "Município","ENGTYPE_2": "Municipality","CC_2": "NA","HASC_2": "NA","name": "Suaqui_Grande.county","area_km2": 915.4379,"hist_schema_id": "Elevation0-9000","hist_area_km2": {"125": 1.8684,"150": 3.9419,"175": 10.4218,"200": 23.1338,"225": 26.8783,"250": 40.4189,"275": 53.0965,"300": 76.1748,"325": 90.1817,"350": 83.0688,"375": 71.4715,"400": 64.5259,"425": 61.9598,"450": 65.5075,"475": 57.0739,"500": 47.4283,"525": 37.0575,"550": 27.3774,"575": 21.2594,"600": 16.3175,"625": 11.5807,"650": 9.5482,"675": 5.6135,"700": 3.7487,"725": 2.145,"750": 1.3991,"775": 0.9515,"800": 0.5784,"825": 0.1866,"850": 0.2799,"875": 0.1306,"900": 0.0746,"925": 0.0373}}}