{"type": "Feature","bbox": [-108.4212,26.8101,-107.6228,27.6281],"geometry": {"type": "MultiPolygon","coordinates": [[[[-107.6228,27.2677,2545.2666],[-107.6365,27.3413,2591.7854],[-107.7157,27.2884,2037.5779],[-107.7211,27.2915,2034.344],[-107.7322,27.2902,1956.713],[-107.7354,27.295,2030.9968],[-107.7428,27.2995,1554.9291],[-107.745,27.2975,1525.5529],[-107.7492,27.2991,1495.7859],[-107.7507,27.3048,1513.0392],[-107.7533,27.3075,1365.1288],[-107.7569,27.3083,1356.6195],[-107.7589,27.3083,1332.9912],[-107.7634,27.3033,1266.7227],[-107.7662,27.3026,1247.0242],[-107.7768,27.307,1153.816],[-107.7888,27.306,1068.0112],[-107.8084,27.311,945.3386],[-107.8105,27.309,872.4363],[-107.813,27.3093,842.3997],[-107.8185,27.3066,811.1841],[-107.8286,27.306,748.017],[-107.8331,27.3031,802.0165],[-107.8346,27.3042,740.0139],[-107.7766,27.3326,2149.8943],[-107.7357,27.3467,2241.0706],[-107.7193,27.3897,2307.6921],[-107.7107,27.4461,2442.9507],[-107.6555,27.4778,1270.4594],[-107.6656,27.4843,1216.9728],[-107.6739,27.4823,1188.5569],[-107.6819,27.4892,1183.88],[-107.6841,27.4873,1160.0211],[-107.6869,27.4873,1155.5233],[-107.6926,27.4943,1211.0801],[-107.7025,27.5005,1124.918],[-107.7033,27.5027,1122.8136],[-107.7064,27.5029,1133.7032],[-107.7117,27.5092,1114.426],[-107.7202,27.5085,1231.0543],[-107.7219,27.5138,1091.6383],[-107.7273,27.5137,1158.6017],[-107.7297,27.5156,1081.0885],[-107.7357,27.5168,1100.738],[-107.739,27.5202,1099.2588],[-107.7456,27.52,1140.0168],[-107.7481,27.5255,1039.9027],[-107.7455,27.529,1063.0259],[-107.7473,27.5306,1118.501],[-107.7499,27.5308,1188.4258],[-107.7533,27.5271,1017.6854],[-107.7578,27.528,1013.925],[-107.7616,27.5252,1125.1027],[-107.7665,27.5247,986.3931],[-107.7696,27.5289,1072.9054],[-107.7686,27.5303,1098.7869],[-107.7718,27.5312,1190.6567],[-107.7729,27.5337,1129.7197],[-107.7767,27.5359,1246.0337],[-107.7819,27.5449,1360.4347],[-107.7863,27.5473,1475.0686],[-107.7858,27.5528,1560.222],[-107.7828,27.5563,1606.3289],[-107.7964,27.5663,1918.3817],[-107.8016,27.5723,1973.911],[-107.8033,27.5787,2006.3032],[-107.8154,27.5886,2207.5051],[-107.8159,27.5915,2201.5193],[-107.8218,27.5976,2256.353],[-107.8222,27.602,2279.2432],[-107.8199,27.6027,2287.4897],[-107.8219,27.6094,2294.3647],[-107.8296,27.6103,2260.8965],[-107.8306,27.6173,2261.0698],[-107.8377,27.6281,1983.5471],[-107.8505,27.6253,1958.0968],[-107.8574,27.62,2004.451],[-107.8581,27.6179,1950.2717],[-107.8561,27.6134,1915.3396],[-107.8605,27.6064,1888.6904],[-107.865,27.6038,1869.157],[-107.8694,27.6054,1900.6127],[-107.8737,27.6034,1883.3313],[-107.8797,27.6041,1837.0029],[-107.8828,27.5993,1814.4565],[-107.8807,27.5905,1816.0679],[-107.8848,27.5863,1805.1411],[-107.8883,27.5891,1822.9369],[-107.8928,27.5864,1802.7268],[-107.8974,27.5911,1810.1128],[-107.8985,27.5947,1855.1259],[-107.904,27.5989,1830.5879],[-107.9083,27.5949,1800.4583],[-107.9118,27.5944,1834.9515],[-107.9113,27.5908,1748.4435],[-107.9126,27.5895,1728.8739],[-107.9161,27.5943,1738.5366],[-107.9239,27.593,1691.6973],[-107.9379,27.6076,1638.817],[-107.9453,27.6085,1629.0278],[-107.9487,27.613,1644.2859],[-107.9489,27.6207,1580.3986],[-107.9546,27.6256,1589.592],[-107.9587,27.6235,1579.1702],[-107.9596,27.6149,1591.5059],[-107.958,27.6084,1590.2605],[-107.9604,27.6091,1628.6937],[-107.9675,27.6065,1627.4304],[-107.9681,27.5988,1636.4296],[-107.971,27.591,1623.7303],[-107.9712,27.5949,1629.541],[-107.9728,27.5964,1673.4373],[-107.9835,27.5969,1715.5438],[-107.9856,27.6034,1715.9261],[-107.9927,27.6091,1732.4934],[-107.9966,27.6066,1778.1575],[-107.9997,27.6075,1805.7767],[-108.0018,27.61,1791.0269],[-108.0074,27.6112,1809.9495],[-108.0099,27.6154,1804.974],[-108.0123,27.6165,1821.5504],[-108.015,27.6138,1809.6237],[-108.0187,27.614,1872.975],[-108.0206,27.6116,1826.9531],[-108.0244,27.611,1901.2645],[-108.0275,27.6064,1896.1432],[-108.0306,27.6063,1921.3555],[-108.0341,27.6033,1926.0193],[-108.0395,27.6034,2037.3824],[-108.0438,27.5956,2183.3987],[-108.0496,27.5893,2350.8086],[-108.054,27.5871,2470.2646],[-108.0514,27.5833,2521.4453],[-108.0494,27.5834,2505.689],[-108.0497,27.5859,2499.7617],[-108.0478,27.5863,2483.728],[-108.0457,27.5857,2453.4612],[-108.0448,27.5837,2400.8608],[-108.046,27.5783,2305.7568],[-108.0507,27.5715,2256.0044],[-108.049,27.5675,2277.6753],[-108.0519,27.5628,2246.3596],[-108.0506,27.5605,2248.6987],[-108.0521,27.5569,2167.5659],[-108.0502,27.5522,2136.1279],[-108.0576,27.5455,2008.0544],[-108.0554,27.5388,2087.8928],[-108.0573,27.5369,2199.0291],[-108.0574,27.5315,2123.8831],[-108.0627,27.5239,2021.3955],[-108.0627,27.5167,1965.7616],[-108.0656,27.5143,2017.4371],[-108.0658,27.5099,2038.418],[-108.0696,27.4999,1956.6066],[-108.0688,27.4928,1893.0981],[-108.0743,27.4862,1734.4347],[-108.0827,27.4825,1605.757],[-108.0839,27.4802,1602.1362],[-108.082,27.4771,1602.1536],[-108.0775,27.4758,1692.5609],[-108.0758,27.4721,1662.4828],[-108.0699,27.4696,1674.6936],[-108.0718,27.4651,1810.7817],[-108.0707,27.4619,1794.0],[-108.0738,27.4602,1831.3174],[-108.0757,27.4624,1844.838],[-108.0787,27.4623,1877.0828],[-108.0955,27.4544,1979.8318],[-108.1002,27.4468,2149.6211],[-108.1031,27.4451,2189.5864],[-108.1023,27.4432,2204.0913],[-108.0984,27.4427,2191.3516],[-108.0857,27.4491,1990.614],[-108.08,27.4454,1948.3536],[-108.0805,27.4409,1893.9695],[-108.083,27.4371,1840.0229],[-108.088,27.4335,1858.3367],[-108.0889,27.4278,1730.1447],[-108.0796,27.4183,1646.7126],[-108.0802,27.403,1603.9774],[-108.0777,27.4028,1615.6957],[-108.0768,27.4003,1603.4832],[-108.0717,27.4009,1592.6268],[-108.0723,27.3967,1629.4508],[-108.0694,27.3991,1643.5923],[-108.0697,27.3971,1597.7441],[-108.068,27.3959,1610.7711],[-108.0698,27.3947,1622.6339],[-108.0696,27.3924,1607.5015],[-108.0722,27.3939,1619.9911],[-108.0731,27.3927,1611.4482],[-108.0714,27.3915,1611.9246],[-108.0723,27.3894,1617.2639],[-108.0696,27.3885,1615.3873],[-108.0724,27.3857,1627.7042],[-108.0688,27.3864,1621.0876],[-108.0687,27.3834,1614.6608],[-108.0667,27.3833,1616.5715],[-108.0668,27.3772,1637.4973],[-108.0689,27.3768,1624.4688],[-108.0677,27.3748,1629.0985],[-108.0695,27.3694,1636.8224],[-108.0668,27.3663,1642.1935],[-108.0707,27.3647,1642.9409],[-108.0701,27.3622,1645.4747],[-108.0717,27.3608,1652.4155],[-108.0733,27.3611,1652.4155],[-108.072,27.3573,1648.4763],[-108.0786,27.3569,1678.1893],[-108.087,27.3521,1701.3068],[-108.0937,27.354,1742.5005],[-108.0983,27.3513,1776.465],[-108.1108,27.35,1705.3303],[-108.1137,27.3479,1690.687],[-108.1161,27.3487,1691.0886],[-108.1193,27.3446,1669.7678],[-108.1316,27.34,1653.2582],[-108.1303,27.332,1913.674],[-108.183,27.3478,1768.8123],[-108.1917,27.3402,1456.0457],[-108.1928,27.3364,1471.4824],[-108.1919,27.3316,1447.1687],[-108.201,27.315,1575.3049],[-108.1967,27.3087,1566.0928],[-108.2388,27.2826,1659.2943],[-108.2529,27.2699,1737.637],[-108.2266,27.2584,1804.6772],[-108.2229,27.2421,1755.7856],[-108.2314,27.2235,1703.0618],[-108.2488,27.2334,1230.5874],[-108.2395,27.1992,1401.78],[-108.2484,27.1892,803.0881],[-108.2529,27.1623,1610.1669],[-108.2571,27.1606,1676.5703],[-108.2547,27.1546,1573.031],[-108.2179,27.0991,1431.5406],[-108.2356,27.0918,1594.531],[-108.2404,27.0931,1570.2029],[-108.2544,27.086,1355.2577],[-108.2644,27.0828,1351.7491],[-108.2845,27.0607,1681.0012],[-108.3401,27.04,1146.6642],[-108.3539,27.0752,1446.3121],[-108.4072,27.0432,1004.0907],[-108.4212,27.0212,249.0],[-108.4137,27.0202,249.0],[-108.4099,27.0161,269.8593],[-108.4096,27.0134,249.0],[-108.3716,27.023,863.7327],[-108.3501,27.0226,868.5536],[-108.3476,27.0184,467.4488],[-108.341,27.0137,875.0665],[-108.3385,27.009,908.5552],[-108.3333,27.0046,938.0023],[-108.3276,27.0077,1086.813],[-108.3249,27.0062,1101.1433],[-108.322,27.0089,1212.9583],[-108.3222,27.0145,1217.8362],[-108.326,27.0205,1220.3838],[-108.3227,27.0277,1159.4819],[-108.3166,27.0345,1118.1094],[-108.3074,27.0349,1043.9207],[-108.3034,27.0366,1074.6923],[-108.2946,27.0259,984.6011],[-108.2889,27.0266,975.8102],[-108.2909,27.0148,638.9874],[-108.2842,27.0125,403.2938],[-108.274,27.0189,487.0883],[-108.2731,27.0225,530.1547],[-108.2699,27.0251,562.3483],[-108.2629,27.0268,678.7615],[-108.263,27.0289,542.8333],[-108.2605,27.0293,606.2313],[-108.2609,27.0331,595.358],[-108.2582,27.0337,696.2342],[-108.2586,27.0353,620.9882],[-108.2504,27.041,610.6584],[-108.2462,27.0388,586.4789],[-108.2429,27.042,608.2374],[-108.2412,27.0418,664.7125],[-108.2321,27.0316,1142.6409],[-108.2259,27.0272,1363.7028],[-108.2147,27.0302,1342.2643],[-108.2116,27.0344,1385.8414],[-108.2095,27.0323,1375.3054],[-108.2054,27.0326,1345.1791],[-108.2019,27.0309,1279.5925],[-108.1988,27.0352,1172.78],[-108.1943,27.032,1141.3756],[-108.1945,27.0289,1141.5773],[-108.1918,27.0259,1103.8379],[-108.1949,27.0262,1110.5952],[-108.1944,27.0242,1085.8512],[-108.1902,27.0197,1053.1251],[-108.1895,27.0145,913.3947],[-108.1868,27.0122,864.7155],[-108.1873,27.0103,851.2322],[-108.1836,27.0091,796.2197],[-108.1839,27.0067,796.7472],[-108.1803,27.0002,753.6368],[-108.1836,26.9953,766.3499],[-108.1817,26.9937,754.7294],[-108.1863,26.9931,692.246],[-108.1885,26.9889,701.1267],[-108.1879,26.9864,665.7111],[-108.1971,26.9838,666.1455],[-108.1969,26.9811,651.2246],[-108.2013,26.983,616.9512],[-108.2047,26.9803,632.6063],[-108.208,26.9811,593.6328],[-108.2068,26.9826,640.1034],[-108.2078,26.983,590.7488],[-108.2091,26.9805,593.6328],[-108.2109,26.9804,579.7845],[-108.2107,26.9781,598.7648],[-108.2161,26.9774,570.9111],[-108.2153,26.9704,619.8679],[-108.219,26.9719,524.3069],[-108.2184,26.9648,503.989],[-108.2263,26.9636,472.1615],[-108.235,26.9586,436.9113],[-108.2355,26.9535,356.5837],[-108.2305,26.948,346.3198],[-108.231,26.9435,322.0769],[-108.2293,26.9427,320.5152],[-108.2314,26.9407,309.6395],[-108.2288,26.9386,292.72],[-108.231,26.9328,297.8755],[-108.2263,26.9295,294.4314],[-108.225,26.9229,278.7014],[-108.2278,26.918,353.2722],[-108.2273,26.9144,300.2608],[-108.2302,26.9057,249.0],[-108.2207,26.8978,249.0],[-108.2144,26.888,249.0],[-108.2097,26.8854,249.0],[-108.2062,26.8855,249.0],[-108.2035,26.8877,249.0],[-108.2028,26.8906,249.0],[-108.208,26.9046,249.0],[-108.2059,26.9063,249.0],[-108.1977,26.9027,258.9549],[-108.1901,26.8959,249.0],[-108.1857,26.8997,249.0],[-108.1817,26.8982,249.0],[-108.1787,26.8845,249.0],[-108.1767,26.8814,259.037],[-108.1745,26.8815,320.6368],[-108.1714,26.8839,249.0],[-108.1717,26.8923,249.0],[-108.1671,26.8958,249.0],[-108.1559,26.8952,297.3804],[-108.1532,26.8977,252.1032],[-108.1483,26.9076,268.9719],[-108.1454,26.9089,278.1596],[-108.1417,26.9066,254.9196],[-108.142,26.8978,260.3236],[-108.1396,26.8955,253.8904],[-108.1442,26.8676,600.736],[-108.0941,26.8705,944.5421],[-108.0368,26.8101,2150.6475],[-107.9738,26.8261,2002.2473],[-107.9416,26.8419,1633.1875],[-107.9383,26.931,306.7592],[-107.9371,26.9337,356.6822],[-107.9372,26.9368,326.0486],[-107.9398,26.9385,311.0408],[-107.9393,26.9438,340.7695],[-107.9324,26.9465,308.5092],[-107.9289,26.9428,317.7313],[-107.9259,26.9453,348.6882],[-107.9264,26.9518,391.2323],[-107.9298,26.9534,590.1864],[-107.9312,26.9692,617.3126],[-107.9371,26.9755,462.9509],[-107.9315,26.9813,497.0834],[-107.9321,26.9829,493.9888],[-107.9299,26.9861,514.0121],[-107.931,26.9896,511.4796],[-107.9297,26.9884,513.459],[-107.9215,26.9917,606.8201],[-107.9207,26.9892,658.4099],[-107.9182,26.9889,689.0193],[-107.9174,26.9913,683.8225],[-107.9144,26.9924,726.7085],[-107.9123,26.9913,816.543],[-107.9079,26.9997,802.2096],[-107.904,26.9963,701.8159],[-107.9005,26.9955,633.8148],[-107.8983,26.9992,648.1312],[-107.8955,26.9994,633.4027],[-107.8952,26.9987,580.0148],[-107.8957,26.996,590.8751],[-107.892,26.9964,582.8417],[-107.893,26.9922,576.7375],[-107.8899,26.9927,527.9559],[-107.8869,26.9906,431.184],[-107.8757,26.9994,361.8536],[-107.8662,26.9985,387.0551],[-107.866,27.0077,396.9167],[-107.8579,27.0141,408.4544],[-107.8663,27.0173,381.8885],[-107.8607,27.0289,387.7065],[-107.8671,27.0364,409.067],[-107.8716,27.0376,385.6264],[-107.8668,27.0435,428.4664],[-107.8685,27.0466,444.0857],[-107.7965,27.0533,2191.5],[-107.7881,27.0992,2209.2163],[-107.8024,27.1368,1687.3213],[-107.7979,27.1362,1664.1548],[-107.7911,27.132,1598.3018],[-107.789,27.1335,1469.1355],[-107.7873,27.1328,1479.2529],[-107.7859,27.1354,1410.8124],[-107.7796,27.1359,1260.5839],[-107.7749,27.1337,1108.5093],[-107.7696,27.1355,990.6655],[-107.768,27.1335,965.4325],[-107.7626,27.1331,931.8695],[-107.7592,27.1299,873.6768],[-107.7499,27.1274,777.6547],[-107.7449,27.1235,795.771],[-107.7343,27.1311,750.8953],[-107.7267,27.139,771.1599],[-107.7226,27.1452,786.8903],[-107.7249,27.1498,793.303],[-107.7223,27.1631,836.5862],[-107.7254,27.1681,841.5108],[-107.7227,27.1695,854.2787],[-107.7232,27.1717,869.063],[-107.7268,27.1781,890.795],[-107.7251,27.1845,925.5314],[-107.7205,27.1876,972.7203],[-107.7186,27.1931,1044.983],[-107.7187,27.1967,1031.7539],[-107.7217,27.1995,1064.3654],[-107.7245,27.2097,1227.281],[-107.7201,27.2201,1437.2864],[-107.7243,27.2259,1422.5176],[-107.7217,27.2321,1464.2271],[-107.7243,27.2391,1485.499],[-107.7221,27.245,1549.2529],[-107.7172,27.2485,1625.066],[-107.7157,27.2515,1599.4392],[-107.7146,27.252,1652.6775],[-107.6761,27.2125,2194.1094],[-107.6228,27.2677,2545.2666]]]]}
,"properties": {"GID_2": "MEX.6.65_2","GID_0": "MEX","country": "México","GID_1": "MEX.6_1","province": "Chihuahua","NL_NAME_1": "NA","county": "Urique","VARNAME_2": "NA","NL_NAME_2": "NA","TYPE_2": "Município","ENGTYPE_2": "Municipality","CC_2": "NA","HASC_2": "NA","name": "Urique.county","area_km2": 3306.746,"hist_schema_id": "Elevation0-9000","hist_area_km2": {"250": 6.106,"275": 6.427,"300": 10.736,"325": 10.642,"350": 14.025,"375": 17.54,"400": 17.804,"425": 17.444,"450": 17.803,"475": 18.217,"500": 17.932,"525": 19.744,"550": 19.705,"575": 20.8,"600": 21.856,"625": 21.535,"650": 23.669,"675": 22.988,"700": 23.931,"725": 21.967,"750": 23.287,"775": 23.947,"800": 24.361,"825": 24.585,"850": 26.339,"875": 27.075,"900": 28.772,"925": 31.151,"950": 32.093,"975": 34.47,"1000": 35.168,"1025": 33.241,"1050": 33.882,"1075": 33.296,"1100": 33.217,"1125": 32.16,"1150": 32.761,"1175": 31.154,"1200": 31.307,"1225": 30.341,"1250": 30.794,"1275": 30.34,"1300": 29.339,"1325": 28.544,"1350": 29.39,"1375": 29.785,"1400": 28.368,"1425": 31.198,"1450": 30.005,"1475": 30.685,"1500": 30.303,"1525": 29.697,"1550": 30.017,"1575": 31.034,"1600": 34.911,"1625": 41.013,"1650": 42.425,"1675": 47.17,"1700": 52.367,"1725": 57.023,"1750": 58.229,"1775": 65.465,"1800": 68.613,"1825": 68.573,"1850": 73.41,"1875": 70.812,"1900": 71.131,"1925": 72.879,"1950": 73.651,"1975": 72.02,"2000": 72.92,"2025": 72.479,"2050": 74.636,"2075": 73.031,"2100": 71.352,"2125": 72.21,"2150": 70.376,"2175": 67.96,"2200": 65.378,"2225": 62.081,"2250": 53.873,"2275": 47.831,"2300": 41.827,"2325": 33.565,"2350": 26.806,"2375": 19.804,"2400": 13.5,"2425": 8.268,"2450": 6.31,"2475": 4.822,"2500": 2.75,"2525": 1.695,"2550": 0.452,"2575": 0.038,"2600": 0.057,"2625": 0.057}}}