{"type":"Feature","properties":{"GID_2":"MEX.24.35_2","GID_0":"MEX","country":"México","GID_1":"MEX.24_1","province":"SanLuisPotosí","NL_NAME_1":"NA","county":"SantaMaríadelRío","VARNAME_2":"NA","NL_NAME_2":"NA","TYPE_2":"Município","ENGTYPE_2":"Municipality","CC_2":"NA","HASC_2":"NA","name":"Santa_Maríadel_Río.county"},
"geometry":{"type": "MultiPolygon","coordinates": [[[[-100.7513,21.5806,1909.7333],[-100.746,21.5817,1921.1184],[-100.739,21.5783,1937.9075],[-100.735,21.579,1939.2815],[-100.7295,21.575,1955.0072],[-100.7276,21.568,1969.0155],[-100.7209,21.5615,1995.9541],[-100.7176,21.5502,2063.0188],[-100.71,21.5502,2096.5627],[-100.7052,21.5482,2112.5476],[-100.7026,21.5487,2146.9053],[-100.7007,21.5525,2162.6436],[-100.6921,21.5464,2204.1841],[-100.6812,21.5475,2345.3152],[-100.6772,21.5414,2276.8416],[-100.6656,21.5352,2374.8198],[-100.6656,21.5278,2485.1069],[-100.6575,21.5247,2387.5244],[-100.6385,21.5283,2335.7114],[-100.6345,21.5377,2283.2837],[-100.637,21.5413,2270.6963],[-100.6354,21.5432,2325.2368],[-100.6143,21.5331,2195.4485],[-100.6219,21.519,2387.481],[-100.6204,21.5102,2353.5515],[-100.615,21.5058,2232.4534],[-100.612,21.5094,2181.303],[-100.6042,21.5088,2185.7854],[-100.5903,21.5164,2103.1665],[-100.5844,21.5223,2056.5857],[-100.6023,21.5375,2144.127],[-100.6015,21.5487,2023.7592],[-100.6001,21.56,1993.6383],[-100.5949,21.5744,1938.7854],[-100.5961,21.5756,1936.1721],[-100.5955,21.579,1929.1113],[-100.5913,21.5834,1923.0331],[-100.5929,21.5873,1914.136],[-100.5897,21.5917,1909.7288],[-100.5899,21.595,1900.9812],[-100.5941,21.5974,1890.6951],[-100.594,21.6075,1875.7079],[-100.5888,21.6126,1869.3488],[-100.5893,21.6169,1858.4656],[-100.5813,21.621,1847.491],[-100.5932,21.622,1890.1625],[-100.5951,21.6166,1909.4487],[-100.607,21.6179,1898.1168],[-100.6058,21.6375,1874.3025],[-100.598,21.6461,1901.6899],[-100.6304,21.688,1767.2725],[-100.6345,21.685,1795.4175],[-100.6397,21.6894,1783.1091],[-100.6382,21.6961,1772.3125],[-100.6342,21.6945,1758.9543],[-100.6339,21.6987,1764.8684],[-100.6269,21.7,1748.4106],[-100.6268,21.7015,1751.1361],[-100.6294,21.7024,1752.9731],[-100.629,21.7092,1776.1497],[-100.634,21.7146,1768.8418],[-100.641,21.7506,1761.8091],[-100.6036,21.749,1882.3491],[-100.6032,21.7471,1826.817],[-100.5949,21.7467,1813.772],[-100.592,21.7448,1839.9664],[-100.5949,21.7433,1786.0092],[-100.5997,21.7218,1755.7302],[-100.585,21.7171,1766.1379],[-100.5819,21.7325,1880.6847],[-100.58,21.7347,1881.093],[-100.577,21.7338,1824.2285],[-100.5761,21.7356,1830.7369],[-100.5706,21.737,1862.7178],[-100.567,21.7357,1915.8086],[-100.5559,21.7371,1837.0197],[-100.5545,21.7428,1754.8477],[-100.5528,21.7431,1754.8477],[-100.5539,21.7455,1708.0427],[-100.5513,21.7483,1673.5513],[-100.5511,21.7677,1612.8721],[-100.5499,21.7683,1601.7415],[-100.5446,21.7641,1611.3462],[-100.5368,21.7615,1590.6593],[-100.5352,21.7615,1616.4871],[-100.5352,21.7653,1591.9309],[-100.533,21.7659,1604.0896],[-100.5322,21.7607,1601.0536],[-100.5289,21.761,1584.3735],[-100.5267,21.7584,1586.7434],[-100.5269,21.7549,1579.4829],[-100.5165,21.7485,1576.3932],[-100.5128,21.749,1580.3789],[-100.5116,21.7457,1574.2931],[-100.5087,21.7438,1597.4395],[-100.505,21.7434,1556.094],[-100.4975,21.7531,1790.3357],[-100.4857,21.7487,1908.3568],[-100.4834,21.7426,1714.7417],[-100.4786,21.745,1777.647],[-100.48,21.738,1635.9827],[-100.4729,21.7383,1737.6801],[-100.4697,21.7419,1832.5872],[-100.4659,21.7431,1984.8796],[-100.461,21.7401,2143.2852],[-100.469,21.7351,1708.0776],[-100.4692,21.7323,1677.2472],[-100.4601,21.7324,1787.8218],[-100.4575,21.7284,2003.2224],[-100.4521,21.7311,2036.0538],[-100.4465,21.7398,1973.4421],[-100.4368,21.738,1814.2378],[-100.4247,21.74,2198.2551],[-100.4115,21.7346,2020.9539],[-100.4071,21.7281,1862.1702],[-100.4005,21.7311,1922.5627],[-100.4138,21.7456,2150.4377],[-100.408,21.7544,2423.7439],[-100.4006,21.7575,2418.9912],[-100.4021,21.7584,2418.9912],[-100.3998,21.7617,2446.4607],[-100.3796,21.7522,2093.0388],[-100.3732,21.738,1995.7555],[-100.3657,21.738,1870.7119],[-100.3577,21.7425,1891.4622],[-100.3543,21.7473,1930.7598],[-100.3325,21.747,1923.2078],[-100.3322,21.7251,1856.5981],[-100.3169,21.7413,2293.7842],[-100.3151,21.7384,2196.5999],[-100.3097,21.7389,2266.9124],[-100.3057,21.7369,2267.9585],[-100.3042,21.7321,2157.2627],[-100.299,21.7309,2315.4199],[-100.289,21.7139,2069.7295],[-100.2872,21.7141,2069.7295],[-100.2858,21.7117,2019.3657],[-100.2789,21.7073,1987.7375],[-100.2788,21.7035,2069.1604],[-100.2762,21.7012,2055.1851],[-100.277,21.6989,2067.2786],[-100.2746,21.6951,2124.8398],[-100.2771,21.6865,1926.2291],[-100.2721,21.6873,2080.1743],[-100.2688,21.6827,2119.906],[-100.254,21.6732,2041.884],[-100.2463,21.6649,1995.4203],[-100.2223,21.6657,1667.1461],[-100.2061,21.6575,1905.7853],[-100.1944,21.6474,1590.3894],[-100.1902,21.6472,1601.6571],[-100.1848,21.6507,1372.3615],[-100.1814,21.6495,1410.1472],[-100.1806,21.6502,1410.1472],[-100.1879,21.6572,1472.7188],[-100.1808,21.6633,1668.1783],[-100.1724,21.6643,1835.7378],[-100.1628,21.6704,1751.3323],[-100.1794,21.7144,1252.2009],[-100.1851,21.7251,1378.5942],[-100.1773,21.7837,1728.5641],[-100.1838,21.7911,1749.0557],[-100.1925,21.8109,1739.2344],[-100.2019,21.8181,1803.105],[-100.2013,21.8218,1825.8486],[-100.2033,21.8238,1809.0278],[-100.2046,21.8347,2045.5852],[-100.2085,21.8394,2043.3411],[-100.2393,21.8357,1513.2397],[-100.2403,21.8381,1528.6614],[-100.2426,21.8359,1534.1726],[-100.2445,21.8367,1557.5673],[-100.2449,21.8387,1565.7007],[-100.2473,21.8396,1549.6377],[-100.2472,21.8428,1629.2594],[-100.249,21.842,1599.5256],[-100.2512,21.8466,1575.8292],[-100.2534,21.8473,1604.9432],[-100.2555,21.8545,1714.0657],[-100.2639,21.8616,1938.4016],[-100.2779,21.8904,1945.9305],[-100.2826,21.8842,1873.8801],[-100.2854,21.8851,1972.0137],[-100.2869,21.8815,1864.9336],[-100.2903,21.881,1851.2537],[-100.3006,21.8931,1938.4446],[-100.3223,21.8648,2286.5276],[-100.3333,21.867,2173.3027],[-100.3483,21.8556,2267.5935],[-100.3739,21.8692,1902.0582],[-100.3735,21.8756,2070.8113],[-100.3785,21.8828,2172.7761],[-100.3735,21.8866,2017.1506],[-100.3826,21.8962,2125.0962],[-100.3877,21.894,2252.2957],[-100.3927,21.8956,2362.7314],[-100.3968,21.8998,2375.6694],[-100.4033,21.9355,1999.5404],[-100.4093,21.9338,1916.3759],[-100.4095,21.9431,1972.6989],[-100.4209,21.9579,1793.0579],[-100.4237,21.9577,1795.5334],[-100.427,21.9541,1834.1216],[-100.4292,21.9556,1831.9362],[-100.4335,21.9526,1847.3271],[-100.4444,21.9529,1871.3397],[-100.4467,21.956,1890.8285],[-100.4535,21.9477,1730.7876],[-100.4674,21.9557,1682.4019],[-100.4784,21.9584,1663.8269],[-100.4807,21.9614,1647.0879],[-100.4848,21.9606,1631.563],[-100.4986,21.9645,1584.9213],[-100.5252,21.9372,1865.1586],[-100.5382,21.9403,1984.3326],[-100.544,21.9341,1860.9248],[-100.5424,21.9242,1889.9449],[-100.5512,21.9115,2239.9614],[-100.5697,21.9132,2106.03],[-100.5716,21.9089,2259.4507],[-100.5803,21.9112,2234.7087],[-100.5802,21.9169,2225.9084],[-100.5815,21.917,2230.6431],[-100.5814,21.9155,2225.9084],[-100.5893,21.9118,2121.4182],[-100.6031,21.914,2042.2932],[-100.6099,21.9061,2174.2708],[-100.6302,21.9098,2178.3628],[-100.6242,21.9142,2393.0083],[-100.6358,21.9174,2181.3516],[-100.646,21.9171,2263.0112],[-100.6667,21.9318,2272.0574],[-100.6738,21.9244,2171.8242],[-100.6845,21.9225,2155.2832],[-100.693,21.918,2184.6538],[-100.7012,21.9167,2180.0396],[-100.703,21.9134,2102.5425],[-100.713,21.9088,2068.4758],[-100.7226,21.9084,1975.1127],[-100.7322,21.9147,1947.8693],[-100.7345,21.9116,1989.8165],[-100.7306,21.9094,1975.438],[-100.7279,21.9052,2016.4419],[-100.7184,21.9006,1971.8627],[-100.7151,21.8876,1979.8909],[-100.7379,21.8915,1846.1912],[-100.752,21.8859,1817.7031],[-100.7708,21.8837,1940.0958],[-100.7852,21.8914,1848.8513],[-100.7869,21.889,1839.5154],[-100.79,21.8892,1845.9637],[-100.7886,21.8878,1845.2754],[-100.7947,21.8573,1884.9635],[-100.8008,21.8385,1995.1208],[-100.807,21.8289,1932.2212],[-100.8043,21.7879,1910.8081],[-100.8107,21.7673,2115.3867],[-100.8255,21.7539,2375.0869],[-100.8367,21.7395,2115.0112],[-100.8469,21.7158,2143.8999],[-100.853,21.6743,2021.35],[-100.8343,21.6646,2144.7847],[-100.8577,21.619,2348.4727],[-100.8166,21.6027,2101.7078],[-100.8095,21.592,1955.8289],[-100.8059,21.5939,1950.7783],[-100.7923,21.5948,1976.3588],[-100.7733,21.5881,1903.251],[-100.7725,21.5955,1879.0619],[-100.7661,21.5921,1886.5895],[-100.7666,21.590699999999998,1884.2018],[-100.762,21.5851,1898.0541],[-100.7552,21.5835,1903.85],[-100.7513,21.5806,1909.7333]]]]}}