{"type":"Feature","properties":{"GID_2":"MEX.30.112_2","GID_0":"MEX","country":"México","GID_1":"MEX.30_1","province":"Veracruz","NL_NAME_1":"NA","county":"Miahuatlán","VARNAME_2":"NA","NL_NAME_2":"NA","TYPE_2":"Município","ENGTYPE_2":"Municipality","CC_2":"NA","HASC_2":"NA","name":"Miahuatlán.county"},
"geometry":{"type": "MultiPolygon","coordinates": [[[[-96.8558,19.7088,1832.1877],[-96.8551,19.7135,1851.8787],[-96.8573,19.7147,1877.4492],[-96.856,19.7259,1964.11],[-96.8545,19.7284,1984.5173],[-96.8507,19.7288,2004.9042],[-96.8494,19.7309,1990.2751],[-96.8544,19.7314,1973.4459],[-96.8568,19.7284,1984.1333],[-96.8619,19.7307,1976.3673],[-96.8661,19.7283,1987.7981],[-96.8638,19.7345,1876.2698],[-96.8664,19.739,1593.7808],[-96.8704,19.7414,1469.0583],[-96.8735,19.7476,1395.1169],[-96.873,19.7546,1185.5444],[-96.8708,19.7571,1206.0546],[-96.873,19.7626,1055.8763],[-96.8718,19.7689,954.5591],[-96.8818,19.7725,1007.7797],[-96.8827,19.7634,1072.938],[-96.8895,19.7564,1190.3281],[-96.8881,19.7473,1431.4071],[-96.8922,19.7455,1474.7627],[-96.897,19.7384,1549.8533],[-96.9029,19.7361,1833.0714],[-96.9041,19.734,1915.6624],[-96.9027,19.7342,1915.6624],[-96.9032,19.7318,2006.365],[-96.9014,19.7325,2001.0325],[-96.9001,19.7309,1980.5354],[-96.903,19.721,1966.3876],[-96.9073,19.7207,1992.4728],[-96.9092,19.7221,2012.2458],[-96.9126,19.7199,2002.9531],[-96.917,19.7209,2004.7241],[-96.9168,19.7162,1928.1105],[-96.9182,19.7154,1914.7061],[-96.9155,19.7105,1880.1908],[-96.9166,19.7042,1833.303],[-96.9145,19.7015,1838.5564],[-96.91,19.7059,1912.2949],[-96.9085,19.7116,1951.7886],[-96.9104,19.7144,1990.8215],[-96.9078,19.7145,1954.7003],[-96.9072,19.7119,1963.3936],[-96.9044,19.7118,1922.5957],[-96.8991,19.7078,1881.5829],[-96.9027,19.7059,1922.2225],[-96.903,19.7033,1919.1147],[-96.8982,19.7005,1855.8746],[-96.898,19.7032,1884.1742],[-96.8949,19.7029,1906.1245],[-96.8907,19.6982,1880.4084],[-96.8883,19.6985,1854.0322],[-96.8883,19.6939,1814.5261],[-96.8862,19.6912,1778.1862],[-96.8831,19.6934,1785.0474],[-96.8843,19.6952,1795.9685],[-96.8831,19.7009,1854.9944],[-96.881,19.7018,1838.6223],[-96.8777,19.6981,1798.7939],[-96.8725,19.6989,1765.3242],[-96.868,19.6973,1747.8505],[-96.8681,19.6952,1750.3165],[-96.8651,19.6919,1784.2708],[-96.8662,19.6903,1802.3657],[-96.8625,19.6897,1787.0615],[-96.8619,19.6949,1757.4418],[-96.8544,19.6954,1776.9614],[-96.8558,19.7088,1832.1877]]]]}}