{"type":"Feature","properties":{"GID_2":"MEX.20.51_2","GID_0":"MEX","country":"México","GID_1":"MEX.20_1","province":"Oaxaca","NL_NAME_1":"NA","county":"MagdalenaApasco","VARNAME_2":"NA","NL_NAME_2":"NA","TYPE_2":"Município","ENGTYPE_2":"Municipality","CC_2":"NA","HASC_2":"NA","name":"Magdalena_Apasco.county"},
"geometry":{"type": "MultiPolygon","coordinates": [[[[-96.78,17.2681,2050.5444],[-96.8011,17.2611,1746.7706],[-96.8065,17.262,1699.3708],[-96.8071,17.2684,1756.6772],[-96.8162,17.2786,1895.3809],[-96.833,17.2842,2054.3081],[-96.8328,17.2688,1885.5273],[-96.83,17.25,1667.9152],[-96.8273,17.2486,1668.5364],[-96.8311,17.2427,1652.2142],[-96.8358,17.2434,1649.557],[-96.8365,17.2393,1643.3971],[-96.842,17.2385,1645.0819],[-96.8447,17.2301,1635.1123],[-96.8463,17.2307,1634.916],[-96.8465,17.2288,1635.1123],[-96.8481,17.2289,1636.465],[-96.8461,17.222,1640.3995],[-96.839,17.2214,1626.5731],[-96.8361,17.2191,1620.032],[-96.8338,17.2213,1621.3368],[-96.8303,17.2161,1616.5212],[-96.8281,17.2195,1625.5623],[-96.8256,17.2196,1625.1837],[-96.8225,17.2242,1632.6028],[-96.8235,17.2192,1625.2991],[-96.8198,17.2183,1621.0913],[-96.8149,17.2239,1638.3123],[-96.8144,17.2267,1641.5264],[-96.8157,17.2295,1648.6555],[-96.8145,17.231,1647.5022],[-96.819,17.2323,1643.1851],[-96.8182,17.2368,1648.7788],[-96.8048,17.2353,1670.5698],[-96.8062,17.231,1668.1152],[-96.8033,17.2245,1656.9871],[-96.8076,17.2222,1642.6875],[-96.8049,17.2151,1646.9309],[-96.803,17.2133,1652.7694],[-96.800299999999993,17.2136,1656.4771],[-96.7996,17.215,1659.1921],[-96.8011,17.2168,1658.124],[-96.7956,17.217,1663.3409],[-96.7977,17.2302,1685.4053],[-96.7873,17.2461,1829.0165],[-96.7884,17.2485,1870.9075],[-96.78,17.2681,2050.5444]]]]}}