{"type": "Feature","bbox": [-98.0278,19.5005,-97.9485,19.572],"geometry": {"type": "MultiPolygon","coordinates": [[[[-97.9833,19.572,2585.4236],[-97.987,19.5692,2702.2312],[-97.985,19.5657,2697.0649],[-97.994,19.5564,2594.5332],[-97.9949,19.5512,2562.8926],[-98.0001,19.543,2524.4944],[-98.0054,19.54,2542.3545],[-98.0227,19.5221,2545.3545],[-98.0176,19.5183,2538.9575],[-98.0223,19.5149,2534.8691],[-98.0232,19.5123,2534.2546],[-98.0278,19.5106,2531.9812],[-98.0181,19.5058,2557.3052],[-98.0059,19.5045,2561.8586],[-98.006,19.5005,2545.8433],[-98.0003,19.5089,2535.3179],[-97.9947,19.5133,2511.2993],[-97.9947,19.5046,2602.71],[-97.9882,19.5018,2593.9846],[-97.9811,19.5068,2515.2476],[-97.9828,19.5156,2512.9578],[-97.9818,19.5217,2494.771],[-97.975,19.5289,2483.5537],[-97.9714,19.5306,2484.2627],[-97.9715,19.5405,2473.7046],[-97.9727,19.5415,2483.6121],[-97.9583,19.5455,2484.1978],[-97.9485,19.5423,2512.2888],[-97.9517,19.5455,2495.8613],[-97.9517,19.5512,2453.3059],[-97.9546,19.5555,2440.2427],[-97.9616,19.5504,2441.7083],[-97.9635,19.5512,2459.2036],[-97.9682,19.5489,2473.2068],[-97.9683,19.56,2498.7769],[-97.9742,19.5667,2525.2263],[-97.9774,19.566,2552.9377],[-97.9833,19.572,2585.4236]]]]}
,"properties": {"GID_2": "MEX.29.21_2","GID_0": "MEX","country": "México","GID_1": "MEX.29_1","province": "Tlaxcala","NL_NAME_1": "NA","county": "LázaroCárdenas","VARNAME_2": "NA","NL_NAME_2": "NA","TYPE_2": "Município","ENGTYPE_2": "Municipality","CC_2": "NA","HASC_2": "NA","name": "Lázaro_Cárdenas.county","area_km2": 25.53694,"hist_schema_id": "Elevation0-9000","hist_area_km2": {"2425": 0.0999,"2450": 0.47952,"2475": 1.6184,"2500": 5.51495,"2525": 6.3143,"2550": 7.47358,"2575": 1.95828,"2600": 1.099,"2625": 0.45954,"2650": 0.2997,"2675": 0.17981,"2700": 0.03996}}}