{"type":"Feature","properties":{"GID_2":"MEX.27.17_2","GID_0":"MEX","country":"México","GID_1":"MEX.27_1","province":"Tabasco","NL_NAME_1":"NA","county":"Tenosique","VARNAME_2":"NA","NL_NAME_2":"NA","TYPE_2":"Município","ENGTYPE_2":"Municipality","CC_2":"NA","HASC_2":"NA","name":"Tenosique.county"},
"geometry":{"type": "MultiPolygon","coordinates": [[[[-90.9875,17.2792,43.2819],[-90.987799999999993,17.4231,62.3756],[-90.9921,17.4235,61.1503],[-90.9921,17.428,61.5177],[-90.9968,17.4284,62.1265],[-90.997,17.4243,60.406],[-91.0109,17.4237,65.0163],[-91.0096,17.4286,67.1425],[-91.0129,17.4288,63.9717],[-91.0169,17.4234,62.1508],[-91.0192,17.4234,58.0569],[-91.018,17.4255,58.7139],[-91.0218,17.4256,55.6407],[-91.0225,17.4234,56.7803],[-91.027,17.4236,54.2282],[-91.0271,17.4214,56.7204],[-91.0322,17.4223,51.1646],[-91.0317,17.4673,75.9832],[-91.0579,17.4701,65.7948],[-91.0579,17.483,81.3608],[-91.0793,17.4837,60.7839],[-91.0817,17.4851,58.5712],[-91.0817,17.4809,59.3125],[-91.0892,17.4817,54.9586],[-91.0885,17.4791,56.4409],[-91.0908,17.4791,55.1525],[-91.0904,17.4771,56.4011],[-91.0953,17.4777,55.9091],[-91.0956,17.4816,54.4664],[-91.0979,17.4814,52.6458],[-91.0978,17.4788,52.6348],[-91.109,17.4794,48.2432],[-91.1089,17.4777,50.8444],[-91.1387,17.4778,40.5428],[-91.1415,17.4814,39.0],[-91.1412,17.4841,41.4839],[-91.1376,17.4856,40.8884],[-91.1342,17.4908,41.6344],[-91.1399,17.4929,40.1364],[-91.1409,17.5019,42.7896],[-91.1454,17.5058,41.5042],[-91.15,17.5057,50.4585],[-91.1523,17.5096,49.2265],[-91.1766,17.5198,54.8917],[-91.1727,17.528,62.1518],[-91.1718,17.5394,63.6394],[-91.1732,17.5612,55.6838],[-91.1881,17.5622,53.4475],[-91.2067,17.5787,55.1668],[-91.2096,17.5663,53.0577],[-91.208,17.5661,56.3623],[-91.207,17.5622,49.9301],[-91.2106,17.5629,48.3002],[-91.2414,17.5564,36.5048],[-91.2394,17.5547,37.4032],[-91.2476,17.5397,42.3977],[-91.253,17.5388,39.1028],[-91.2595,17.5646,35.7872],[-91.2606,17.5825,35.4565],[-91.2642,17.5837,38.0326],[-91.2667,17.5807,35.4305],[-91.2717,17.5807,34.5573],[-91.2753,17.5787,34.4372],[-91.2793,17.5798,32.8812],[-91.2807,17.5825,35.9532],[-91.2837,17.5836,33.3231],[-91.2956,17.5844,28.5912],[-91.298,17.5833,38.1364],[-91.2964,17.5871,30.1935],[-91.2995,17.5882,29.7702],[-91.2963,17.591,26.5592],[-91.3014,17.5914,29.9305],[-91.3059,17.5938,25.6999],[-91.3064,17.592,30.1582],[-91.3028,17.5893,32.3814],[-91.3075,17.5869,32.9803],[-91.3034,17.5826,29.6435],[-91.3044,17.5796,29.4755],[-91.306,17.5779,29.6839],[-91.3086,17.5789,28.4749],[-91.3106,17.5762,25.007],[-91.3139,17.5763,18.8918],[-91.3149,17.5744,19.1188],[-91.3157,17.5755,22.0347],[-91.3152,17.572,30.4322],[-91.3184,17.5724,23.1895],[-91.3184,17.5742,19.1167],[-91.3212,17.574,23.9248],[-91.3208,17.5707,23.9703],[-91.3238,17.5686,23.9357],[-91.322,17.5642,22.3261],[-91.3231,17.5628,22.4361],[-91.3296,17.5616,18.296],[-91.3324,17.564,16.9989],[-91.331,17.5578,17.0804],[-91.3338,17.5563,18.1924],[-91.336,17.5595,23.1568],[-91.3382,17.559,16.773],[-91.3382,17.5608,17.1992],[-91.3409,17.5603,20.1114],[-91.3397,17.5624,21.7059],[-91.3427,17.5625,13.5363],[-91.3423,17.5645,13.5797],[-91.3441,17.5659,13.9432],[-91.3458,17.5635,14.6425],[-91.345,17.5621,14.6425],[-91.347,17.5624,14.989],[-91.346,17.5601,20.302],[-91.348,17.5611,14.7058],[-91.3484,17.5592,16.1649],[-91.3517,17.5592,15.416],[-91.3588,17.5712,15.9756],[-91.353,17.5791,15.744],[-91.3554,17.58,15.4602],[-91.3543,17.5811,16.1839],[-91.3553,17.5835,15.6689],[-91.3588,17.5863,10.5],[-91.354,17.5929,10.5],[-91.3535,17.5974,10.0],[-91.3597,17.6075,10.0],[-91.3787,17.6195,10.0],[-91.3925,17.6251,10.0],[-91.4107,17.626,10.0],[-91.4161,17.624,30.7207],[-91.4194,17.6195,24.098],[-91.422,17.6194,28.4764],[-91.4224,17.6164,27.398],[-91.4382,17.6197,41.2796],[-91.4392,17.6176,42.3177],[-91.4561,17.6304,41.3275],[-91.478,17.6425,48.0268],[-91.4647,17.6574,25.2935],[-91.4674,17.6651,24.1854],[-91.5092,17.6592,22.5598],[-91.5088,17.6564,24.9246],[-91.5138,17.657,25.4631],[-91.52,17.6406,45.9782],[-91.5295,17.6416,77.5826],[-91.5418,17.6164,71.979],[-91.5511,17.6136,72.0116],[-91.5541,17.6186,73.4641],[-91.5627,17.5957,61.6312],[-91.5743,17.5948,69.265],[-91.5751,17.5894,65.2698],[-91.5731,17.5826,60.8364],[-91.5766,17.5815,62.2664],[-91.5847,17.5683,80.9006],[-91.5754,17.5576,92.8017],[-91.5789,17.5531,80.5298],[-91.576,17.5474,74.6513],[-91.5774,17.5435,54.4941],[-91.5682,17.4998,79.9716],[-91.5651,17.4914,41.0388],[-91.5786,17.4888,53.7817],[-91.5787,17.4834,58.3859],[-91.5839,17.4784,41.7333],[-91.5833,17.4746,37.3602],[-91.5885,17.4759,37.3301],[-91.5948,17.4617,48.8855],[-91.5954,17.4567,49.0283],[-91.5981,17.4552,48.958],[-91.5954,17.4426,63.1234],[-91.5966,17.439,84.8253],[-91.6023,17.4359,80.9265],[-91.6025,17.4331,72.9364],[-91.6202,17.4317,80.6157],[-91.6175,17.4262,67.9296],[-91.6089,17.4255,64.6419],[-91.6069,17.4169,96.7446],[-91.5588,17.4005,140.5758],[-91.5579,17.4222,86.2297],[-91.5524,17.4215,95.65],[-91.5521,17.4226,147.0635],[-91.5372,17.4197,221.7236],[-91.5368,17.4074,57.5583],[-91.5303,17.4055,51.5184],[-91.5273,17.4024,44.924],[-91.5172,17.3982,36.5899],[-91.5151,17.3948,28.6497],[-91.5099,17.3922,25.2108],[-91.505,17.3995,28.6279],[-91.5005,17.3983,21.9498],[-91.4978,17.3951,18.836],[-91.4843,17.3881,18.0],[-91.4565,17.3757,33.9795],[-91.4527,17.3758,29.0865],[-91.4472,17.3829,83.5068],[-91.4393,17.3843,71.4425],[-91.4303,17.3777,67.6945],[-91.4198,17.3741,116.1917],[-91.4144,17.3592,27.9086],[-91.4168,17.3521,150.9279],[-91.4168,17.3456,44.9814],[-91.4051,17.3427,95.2013],[-91.397,17.3379,108.6677],[-91.3847,17.3196,30.5],[-91.3837,17.3112,41.4069],[-91.3877,17.3052,31.5],[-91.3885,17.3001,42.3161],[-91.3903,17.2993,40.9866],[-91.4126,17.3075,36.1036],[-91.4187,17.3035,39.3763],[-91.4252,17.3023,43.0322],[-91.4275,17.2766,352.7615],[-91.4397,17.251,60.6577],[-90.9875,17.2514,261.5055],[-90.9875,17.2792,43.2819]]]]}}