{"type": "Feature","bbox": [-98.0988,17.0044,-97.9263,17.1241],"geometry": {"type": "MultiPolygon","coordinates": [[[[-98.0252,17.0192,1637.4608],[-98.0302,17.0158,1855.1411],[-98.0196,17.0044,1587.8059],[-98.0108,17.0111,1410.8276],[-97.9506,17.0272,775.738],[-97.9487,17.025,737.8243],[-97.9472,17.0187,732.1621],[-97.9396,17.0219,729.5415],[-97.9396,17.0293,739.0508],[-97.9358,17.033,751.228],[-97.9282,17.049,783.1212],[-97.928,17.0473,773.1367],[-97.9263,17.0494,811.8907],[-97.9534,17.0676,793.3121],[-97.9546,17.0646,778.8651],[-97.9605,17.0693,958.1063],[-97.966,17.0633,836.8792],[-97.967,17.0572,829.2085],[-97.9692,17.0545,771.4133],[-97.9762,17.0623,819.1635],[-97.982,17.0637,817.2722],[-98.0021,17.0601,991.1661],[-98.0076,17.068,1047.4226],[-98.0137,17.0714,1186.6714],[-98.016,17.0881,1473.9011],[-98.0232,17.0892,1438.4403],[-98.0354,17.0849,1387.3146],[-98.0396,17.0748,1126.9717],[-98.0419,17.0753,1133.6803],[-98.0464,17.073,1281.9244],[-98.0519,17.0739,1367.7084],[-98.0486,17.0708,1418.2705],[-98.036,17.0688,1058.3682],[-98.0406,17.0653,1382.476],[-98.0275,17.0622,1099.0408],[-98.0256,17.0559,1281.8],[-98.0213,17.0557,1204.7612],[-98.021,17.0589,1124.0984],[-98.0133,17.062,965.5417],[-98.0024,17.0569,951.1575],[-97.9913,17.048,887.1036],[-97.9898,17.0402,869.9066],[-97.9877,17.0382,866.4637],[-97.9893,17.0362,861.6992],[-97.9819,17.0317,839.855],[-97.9802,17.0246,833.0229],[-97.9881,17.0237,918.0725],[-97.9978,17.0185,1096.449],[-98.0003,17.0197,1136.8845],[-98.0252,17.0192,1637.4608]]],
[[[-98.0988,17.0839,1913.5549],[-98.0809,17.0666,2036.9003],[-98.0726,17.0644,1780.5416],[-98.0604,17.0787,1517.1631],[-98.0605,17.1079,1636.4293],[-98.0618,17.1134,1604.8816],[-98.0697,17.1241,2090.3806],[-98.0858,17.1177,1784.9429],[-98.0842,17.106,1587.3623],[-98.0988,17.0839,1913.5549]]]]}
,"properties": {"GID_2": "MEX.20.24_2","GID_0": "MEX","country": "México","GID_1": "MEX.20_1","province": "Oaxaca","NL_NAME_1": "NA","county": "ConstanciadelRosario","VARNAME_2": "NA","NL_NAME_2": "NA","TYPE_2": "Município","ENGTYPE_2": "Municipality","CC_2": "NA","HASC_2": "NA","name": "Constanciadel_Rosario.county","area_km2": 57.19944,"hist_schema_id": "Elevation0-9000","hist_area_km2": {"725": 1.23665,"750": 4.27727,"775": 3.95275,"800": 3.32438,"825": 2.91898,"850": 2.51361,"875": 2.22981,"900": 1.92576,"925": 1.62172,"950": 1.37843,"975": 1.29732,"1000": 1.0135,"1025": 0.60809,"1050": 0.62834,"1075": 0.79048,"1100": 1.11478,"1125": 0.89182,"1150": 0.64861,"1175": 0.89187,"1200": 0.91215,"1225": 0.79049,"1250": 1.03365,"1275": 0.9931,"1300": 1.37818,"1325": 1.11468,"1350": 1.07415,"1375": 1.17548,"1400": 1.15525,"1425": 0.97281,"1450": 1.17546,"1475": 1.03364,"1500": 0.99308,"1525": 0.72961,"1550": 0.68905,"1575": 1.05387,"1600": 0.95251,"1625": 0.99308,"1650": 0.81065,"1675": 0.87141,"1700": 0.72961,"1725": 0.81062,"1750": 0.36478,"1775": 0.52691,"1800": 0.30398,"1825": 0.34452,"1850": 0.1824,"1875": 0.16212,"1900": 0.22293,"1925": 0.10132,"1950": 0.0608,"1975": 0.12159,"2000": 0.04053,"2025": 0.04053,"2075": 0.02026}}}