{"type":"Feature","properties":{"GID_2":"MEX.26.71_2","GID_0":"MEX","country":"México","GID_1":"MEX.26_1","province":"Sonora","NL_NAME_1":"NA","county":"VillaPesqueira","VARNAME_2":"NA","NL_NAME_2":"NA","TYPE_2":"Município","ENGTYPE_2":"Municipality","CC_2":"NA","HASC_2":"NA","name":"Villa_Pesqueira.county"},
"geometry":{"type": "MultiPolygon","coordinates": [[[[-110.0842,29.4319,739.5986],[-110.0854,29.3997,1015.7593],[-110.0407,29.3961,761.426],[-110.0326,29.3684,844.861],[-110.0323,29.3412,888.1384],[-110.017,29.3277,850.189],[-109.9781,29.3618,815.3683],[-109.9775,29.1913,797.0364],[-109.9556,29.192,855.0295],[-109.9847,29.1734,998.1617],[-109.9717,29.1632,960.6107],[-110.0,29.1613,785.8468],[-110.0458,29.1621,808.5978],[-110.0538,29.1579,825.5943],[-110.0542,29.1539,793.1979],[-110.0629,29.1535,697.7347],[-110.0622,29.1501,699.3881],[-110.0761,29.1442,665.8089],[-110.0849,29.1485,658.6123],[-110.0906,29.1462,646.1077],[-110.0884,29.1528,649.926],[-110.1152,29.1567,632.0311],[-110.13,29.0684,591.3871],[-110.1153,29.0663,588.8544],[-110.1158,29.0651,585.6603],[-110.1037,29.0622,600.5154],[-110.1067,29.0544,588.1552],[-110.1028,29.0529,592.1202],[-110.0639,29.0246,617.5266],[-110.038,29.013,621.2646],[-110.0501,28.9926,609.0941],[-110.0534,28.9936,604.537],[-110.0636,28.9815,588.1003],[-110.0789,28.9555,575.4167],[-110.0732,28.9359,567.605],[-110.0704,28.9104,576.1372],[-110.1019,28.9016,557.6715],[-110.0987,28.9305,557.0001],[-110.1196,28.9254,549.3667],[-110.1221,28.8959,532.1398],[-110.1201,28.8905,534.139],[-110.1149,28.8877,540.8089],[-110.12,28.8798,565.6852],[-110.1187,28.8786,566.7692],[-110.1202,28.8726,588.9329],[-110.1135,28.8496,616.9263],[-110.114,28.8427,627.1674],[-109.9154,28.8677,738.8481],[-109.9125,28.8644,852.2849],[-109.874,28.8438,762.9716],[-109.8293,28.7972,989.9324],[-109.8211,28.8177,665.6338],[-109.7911,28.8255,819.6874],[-109.7966,28.8328,861.3416],[-109.8035,28.8511,624.2793],[-109.8267,28.841,758.8365],[-109.8421,28.874,559.5242],[-109.818,28.8843,552.2441],[-109.8405,28.9102,736.7949],[-109.8468,28.9316,729.2127],[-109.8485,28.9493,713.9061],[-109.8484,28.9998,623.9008],[-109.8833,29.0208,873.4647],[-109.87,29.039,990.8214],[-109.8816,29.0897,1200.5939],[-109.8657,29.0941,962.7294],[-109.8687,29.1335,1324.885],[-109.8589,29.1404,1227.7677],[-109.862,29.154,1173.0131],[-109.8722,29.1528,1122.9988],[-109.8843,29.2359,1576.0848],[-109.8915,29.3172,1327.0051],[-109.9387,29.3647,1071.179],[-109.9506,29.3683,1100.483],[-109.9505,29.3662,1028.1045],[-109.964,29.3725,1001.7866],[-109.981,29.3877,847.1612],[-109.9825,29.4141,887.1709],[-109.9741,29.4166,854.8251],[-109.9595,29.4302,746.1487],[-109.9382,29.4396,756.1711],[-109.9298,29.4397,861.9151],[-109.9281,29.4512,816.3254],[-109.9413,29.456,859.1199],[-109.9447,29.4602,924.0907],[-109.9521,29.46,944.427],[-109.9682,29.4745,1028.1373],[-109.9883,29.4762,1051.2806],[-109.9924,29.4439,1059.2048],[-110.016,29.4507,1029.2119],[-110.0166,29.4834,1427.3969],[-110.0358,29.4774,859.9608],[-110.0343,29.4602,800.3145],[-110.0264,29.458,848.0223],[-110.0295,29.4492,745.6678],[-110.0723,29.4521,682.2361],[-110.0842,29.4319,739.5986]]]]}}