{"type":"Feature","properties":{"GID_2":"MEX.15.123_2","GID_0":"MEX","country":"México","GID_1":"MEX.15_1","province":"México","NL_NAME_1":"NA","county":"Zinacantepec","VARNAME_2":"NA","NL_NAME_2":"NA","TYPE_2":"Município","ENGTYPE_2":"Municipality","CC_2":"NA","HASC_2":"NA","name":"Zinacantepec.county"},
"geometry":{"type": "MultiPolygon","coordinates": [[[[-99.9019,19.2577,3300.574],[-99.9009,19.2481,3282.2095],[-99.9024,19.2328,3390.1936],[-99.9006,19.2334,3414.5273],[-99.901,19.2246,3416.8091],[-99.8975,19.2237,3392.8154],[-99.8807,19.2294,3430.1672],[-99.8801,19.2352,3551.6201],[-99.8739,19.2363,3603.1084],[-99.8668,19.2172,3445.1274],[-99.8771,19.2165,3278.2734],[-99.8842,19.2049,3063.0781],[-99.8602,19.193,3159.3032],[-99.8575,19.1976,3348.679],[-99.847,19.1855,3255.4143],[-99.8502,19.1781,3165.4104],[-99.8456,19.1756,3353.3911],[-99.847,19.1691,3134.2869],[-99.8507,19.1685,3065.408],[-99.8511,19.1659,3013.6147],[-99.8577,19.1657,3013.9573],[-99.8708,19.159,2816.2183],[-99.8784,19.1593,2754.5579],[-99.8697,19.1572,2807.5161],[-99.8652,19.1543,2858.5227],[-99.8583,19.1553,2942.3242],[-99.8421,19.1516,3159.6179],[-99.8344,19.1344,3353.0591],[-99.8341,19.1248,3424.8984],[-99.8427,19.0865,3196.9956],[-99.8479,19.077,3178.4993],[-99.8366,19.0769,3187.959],[-99.8299,19.0743,3300.6116],[-99.8184,19.076,3386.4995],[-99.7842,19.0715,3685.6621],[-99.7692,19.0742,3693.877],[-99.7689,19.0899,4018.3284],[-99.7794,19.0964,4044.2356],[-99.7806,19.1083,4294.8032],[-99.7824,19.1122,4069.6572],[-99.7663,19.1262,4136.8291],[-99.7684,19.1393,3887.5933],[-99.7656,19.1506,3693.7031],[-99.7727,19.1613,3605.7954],[-99.7504,19.1948,3247.917],[-99.7486,19.2016,3239.603],[-99.7414,19.2133,3011.2876],[-99.732,19.2118,2999.6216],[-99.7251,19.2218,2934.7256],[-99.7204,19.2346,2853.0557],[-99.723,19.2349,2874.6755],[-99.7194,19.2442,2817.4087],[-99.7193,19.2621,2761.2195],[-99.7153,19.2675,2751.3828],[-99.7095,19.2673,2746.7412],[-99.7051,19.2764,2734.6909],[-99.6992,19.2811,2722.2241],[-99.6983,19.2865,2717.5801],[-99.697,19.2866,2717.5801],[-99.6958,19.2968,2712.5347],[-99.7043,19.2976,2717.8955],[-99.7025,19.3082,2708.6099],[-99.7066,19.308,2706.46],[-99.7068,19.3092,2708.6401],[-99.7133,19.3079,2702.207],[-99.7162,19.3098,2705.8872],[-99.7184,19.3093,2701.4097],[-99.7208,19.3118,2697.1924],[-99.72,19.3143,2694.1191],[-99.7216,19.3208,2680.103],[-99.7191,19.3256,2675.7578],[-99.7181,19.3348,2670.168],[-99.7267,19.3361,2676.6733],[-99.7325,19.3337,2722.6636],[-99.7331,19.329,2724.6445],[-99.7392,19.3297,2769.8828],[-99.7391,19.3246,2733.0366],[-99.7523,19.327,2801.6719],[-99.752,19.3324,2784.2305],[-99.7608,19.3331,2716.5786],[-99.7607,19.3284,2749.1045],[-99.7728,19.3303,2762.8115],[-99.7743,19.3205,2756.9224],[-99.7719,19.3187,2770.0479],[-99.7688,19.3112,2731.5117],[-99.7602,19.3136,2723.3589],[-99.7607,19.3037,2742.6399],[-99.7569,19.3025,2738.1042],[-99.7593,19.2904,2760.1177],[-99.7678,19.2907,2769.4541],[-99.7683,19.2845,2777.666],[-99.7706,19.2846,2780.6279],[-99.7717,19.2816,2788.6562],[-99.7727,19.2846,2782.8857],[-99.7933,19.2884,2789.0649],[-99.7997,19.2865,2862.3567],[-99.8023,19.2935,2837.2397],[-99.816,19.2886,2840.9404],[-99.8146,19.2915,2837.3506],[-99.8156,19.2963,2842.9116],[-99.8132,19.3027,2803.0488],[-99.8139,19.3062,2796.3669],[-99.8092,19.319,2720.429],[-99.8251,19.3206,2770.6069],[-99.8255,19.3177,2775.2607],[-99.8305,19.3141,2804.3826],[-99.8346,19.3083,2841.7295],[-99.8395,19.3063,2875.2932],[-99.8407,19.3081,2881.8384],[-99.8533,19.3102,2942.7156],[-99.8563,19.2847,3141.2666],[-99.8546,19.2822,3203.0771],[-99.855,19.2775,3278.7878],[-99.8586,19.2585,3491.8599],[-99.8626,19.2473,3635.9678],[-99.8691,19.244,3574.0894],[-99.8754,19.2507,3588.8203],[-99.8783,19.251,3717.6484],[-99.8754,19.2594,3649.0151],[-99.9019,19.2577,3300.574]]]]}}