{"type": "Feature","bbox": [-96.2992,16.1501,-96.1026,16.302],"geometry": {"type": "MultiPolygon","coordinates": [[[[-96.209,16.2735,3318.8896],[-96.2232,16.2797,3154.8015],[-96.2307,16.2791,3097.4629],[-96.235,16.276,3019.384],[-96.2425,16.275,2987.9067],[-96.257,16.2857,2841.4204],[-96.2761,16.2849,2292.4497],[-96.2882,16.2898,1796.363],[-96.2966,16.302,1728.8875],[-96.2966,16.2969,1862.369],[-96.2992,16.2891,1878.496],[-96.2944,16.2774,1945.4189],[-96.2969,16.2672,2061.6389],[-96.2926,16.2652,2088.3191],[-96.29,16.2617,2164.8997],[-96.2894,16.2538,2294.2766],[-96.2918,16.2483,2515.7476],[-96.2781,16.2377,2509.2576],[-96.277,16.233,2616.9521],[-96.2693,16.2223,2749.1577],[-96.2648,16.1963,3509.3616],[-96.2541,16.1929,3655.4485],[-96.2501,16.1867,3524.2478],[-96.2174,16.1853,3339.1909],[-96.2176,16.1736,3264.5852],[-96.2107,16.1701,2881.3457],[-96.2075,16.1644,3103.283],[-96.1934,16.1699,2359.2734],[-96.1797,16.1627,1882.8431],[-96.172,16.1625,2260.4761],[-96.1487,16.1536,1961.2388],[-96.1206,16.1501,2300.4294],[-96.1026,16.1626,2731.8137],[-96.1316,16.2016,3042.9995],[-96.1638,16.2082,3291.9685],[-96.1782,16.2234,3546.061],[-96.1749,16.2286,3386.1187],[-96.1744,16.2435,3194.9683],[-96.1844,16.2586,3367.7944],[-96.203,16.2679,3361.813],[-96.209,16.2735,3318.8896]]]]}
,"properties": {"GID_2": "MEX.20.321_2","GID_0": "MEX","country": "México","GID_1": "MEX.20_1","province": "Oaxaca","NL_NAME_1": "NA","county": "SanPedroMixtepec-Dto.26-","VARNAME_2": "NA","NL_NAME_2": "NA","TYPE_2": "Município","ENGTYPE_2": "Municipality","CC_2": "NA","HASC_2": "NA","name": "San_Pedro_Mixtepec-Dto.26-.county","area_km2": 155.0699,"hist_schema_id": "Elevation0-9000","hist_area_km2": {"1700": 0.0204,"1725": 0.0407,"1750": 0.0407,"1775": 0.1629,"1800": 0.2036,"1825": 0.1832,"1850": 0.4275,"1875": 0.5293,"1900": 0.7532,"1925": 0.6107,"1950": 1.0789,"1975": 0.8957,"2000": 1.0383,"2025": 1.2011,"2050": 1.0993,"2075": 1.6286,"2100": 1.6693,"2125": 1.6287,"2150": 1.5065,"2175": 1.6693,"2200": 1.4658,"2225": 1.7712,"2250": 1.7304,"2275": 1.873,"2300": 1.9545,"2325": 2.2395,"2350": 2.3413,"2375": 2.382,"2400": 2.6873,"2425": 2.4025,"2450": 3.1149,"2475": 3.3185,"2500": 2.4634,"2525": 2.9317,"2550": 2.952,"2575": 3.1555,"2600": 3.5425,"2625": 3.1963,"2650": 3.461,"2675": 3.2574,"2700": 3.2573,"2725": 3.3388,"2750": 3.1351,"2775": 2.9722,"2800": 2.7483,"2825": 2.9519,"2850": 3.4609,"2875": 3.3794,"2900": 2.8095,"2925": 3.0333,"2950": 3.2165,"2975": 3.4201,"3000": 2.6872,"3025": 3.0741,"3050": 2.4633,"3075": 2.5447,"3100": 2.4634,"3125": 2.9112,"3150": 2.3616,"3175": 2.7077,"3200": 2.4227,"3225": 2.3616,"3250": 2.3209,"3275": 2.1988,"3300": 2.1377,"3325": 2.2802,"3350": 1.9952,"3375": 1.5472,"3400": 1.364,"3425": 1.4251,"3450": 0.9568,"3475": 0.9365,"3500": 0.9772,"3525": 0.6515,"3550": 0.9569,"3575": 0.6108,"3600": 0.7126,"3625": 0.5497,"3650": 0.5904,"3675": 0.3461,"3700": 0.1629}}}