{"type":"Feature","properties":{"GID_2":"MEX.14.24_2","GID_0":"MEX","country":"México","GID_1":"MEX.14_1","province":"Jalisco","NL_NAME_1":"NA","county":"Cocula","VARNAME_2":"NA","NL_NAME_2":"NA","TYPE_2":"Município","ENGTYPE_2":"Municipality","CC_2":"NA","HASC_2":"NA","name":"Cocula.county"},
"geometry":{"type": "MultiPolygon","coordinates": [[[[-103.762,20.2663,2015.5914],[-103.7724,20.2944,1520.076],[-103.7728,20.3032,1494.3651],[-103.7748,20.3037,1485.8419],[-103.777,20.307,1485.6185],[-103.779,20.3133,1459.1198],[-103.7778,20.316,1446.7421],[-103.7702,20.317,1445.6063],[-103.7703,20.3282,1428.4302],[-103.7623,20.3295,1424.1525],[-103.7607,20.3317,1421.5522],[-103.7602,20.3355,1415.3057],[-103.7639,20.3417,1420.0186],[-103.7632,20.3432,1422.7732],[-103.7542,20.3392,1407.2515],[-103.7528,20.3431,1412.2128],[-103.747,20.3457,1407.8895],[-103.7452,20.3506,1404.9325],[-103.743,20.3511,1393.3137],[-103.7375,20.359,1368.0011],[-103.7375,20.3607,1367.4802],[-103.7396,20.3611,1372.0553],[-103.7395,20.364,1367.4688],[-103.7442,20.3673,1366.4896],[-103.7424,20.37,1367.4154],[-103.7436,20.3723,1357.4492],[-103.7418,20.3733,1358.2104],[-103.7459,20.3794,1354.9229],[-103.7449,20.3854,1332.7377],[-103.7469,20.3891,1319.2589],[-103.7493,20.3907,1325.3947],[-103.757,20.3911,1310.7943],[-103.7624,20.3955,1318.5707],[-103.7613,20.3983,1309.454],[-103.7551,20.4018,1298.0325],[-103.755,20.403199999999998,1299.0468],[-103.7588,20.4046,1307.4915],[-103.7569,20.4079,1309.5],[-103.7565,20.415,1312.1594],[-103.7492,20.4228,1355.2555],[-103.7537,20.4306,1341.7277],[-103.752,20.4367,1345.8726],[-103.7522,20.4452,1341.2531],[-103.7549,20.4482,1329.5083],[-103.7609,20.4482,1321.8486],[-103.7634,20.4461,1321.7902],[-103.7644,20.4481,1318.7321],[-103.7707,20.4475,1314.2649],[-103.7708,20.4494,1331.7422],[-103.7727,20.4502,1329.0286],[-103.7755,20.4447,1301.0115],[-103.7777,20.4489,1330.53],[-103.7784,20.4565,1398.873],[-103.7833,20.4701,1440.2739],[-103.7846,20.4699,1419.4153],[-103.7831,20.4724,1430.2832],[-103.7851,20.4713,1421.9968],[-103.7865,20.4731,1454.7535],[-103.7859,20.4754,1500.3002],[-103.7833,20.4743,1424.4989],[-103.7804,20.4827,1342.8951],[-103.7804,20.4874,1357.2583],[-103.7898,20.4939,1288.2375],[-103.7898,20.4955,1301.7782],[-103.7867,20.4947,1321.3497],[-103.78,20.498,1326.829],[-103.7834,20.4997,1301.2194],[-103.7811,20.5002,1314.9897],[-103.7836,20.5014,1304.6871],[-103.7781,20.5032,1311.3982],[-103.7809,20.5048,1322.1295],[-103.7802,20.5079,1325.3126],[-103.7769,20.5117,1375.4652],[-103.7727,20.5114,1405.4517],[-103.7702,20.5171,1435.8611],[-103.7728,20.5183,1430.2202],[-103.7737,20.5226,1407.2026],[-103.7793,20.5259,1397.1553],[-103.7785,20.5267,1396.0359],[-103.7863,20.5299,1349.0157],[-103.7894,20.5297,1350.9011],[-103.7891,20.5315,1346.1376],[-103.8032,20.533,1269.4694],[-103.8063,20.5348,1265.4427],[-103.8088,20.5333,1261.8744],[-103.8116,20.5339,1261.1777],[-103.8138,20.5324,1257.8455],[-103.8139,20.5302,1257.3101],[-103.8179,20.5302,1251.0059],[-103.8209,20.5323,1248.9666],[-103.8234,20.5322,1247.3844],[-103.8234,20.5301,1246.1132],[-103.8286,20.5351,1244.5873],[-103.8275,20.5374,1244.2805],[-103.8238,20.5389,1247.1986],[-103.8251,20.542,1244.5804],[-103.8274,20.5401,1243.8655],[-103.8394,20.5383,1239.4635],[-103.8363,20.5267,1240.1055],[-103.8415,20.523,1242.4082],[-103.842,20.518,1242.1925],[-103.8491,20.511,1244.9441],[-103.8463,20.5077,1247.3318],[-103.8473,20.5059,1246.7946],[-103.844,20.505,1247.4362],[-103.8452,20.4976,1247.6685],[-103.8466,20.496,1248.016],[-103.8537,20.4954,1250.9795],[-103.8561,20.4902,1252.2911],[-103.8547,20.4834,1254.8456],[-103.8658,20.4808,1256.2559],[-103.8652,20.4781,1258.3245],[-103.8675,20.476,1259.6658],[-103.8662,20.4745,1266.9993],[-103.8709,20.4743,1261.4946],[-103.8709,20.472,1260.585],[-103.8694,20.4722,1265.2493],[-103.8712,20.4712,1260.585],[-103.8707,20.4688,1260.3962],[-103.8729,20.4689,1264.6835],[-103.873,20.4676,1262.366],[-103.8742,20.4688,1268.3907],[-103.876,20.4665,1264.4243],[-103.8762,20.46,1265.5105],[-103.8737,20.4603,1266.0144],[-103.8737,20.4558,1269.4034],[-103.8723,20.4556,1269.4034],[-103.8759,20.443,1282.5516],[-103.8738,20.4422,1279.0881],[-103.8718,20.4298,1287.3148],[-103.8738,20.4299,1287.3148],[-103.8794,20.4173,1291.7944],[-103.8834,20.4139,1296.592],[-103.8827,20.4094,1301.3314],[-103.8803,20.4089,1302.566],[-103.8717,20.3945,1308.8107],[-103.8717,20.3978,1307.309],[-103.8689,20.3972,1306.7904],[-103.8684,20.3995,1304.2389],[-103.8628,20.3971,1306.0929],[-103.8614,20.3987,1305.9402],[-103.8512,20.3955,1301.7202],[-103.8511,20.3934,1303.6559],[-103.8495,20.393,1303.6559],[-103.8505,20.3902,1306.4962],[-103.846,20.389,1308.3336],[-103.8545,20.3847,1316.5232],[-103.8557,20.382,1327.064],[-103.8531,20.3804,1328.1215],[-103.8513,20.3819,1321.9823],[-103.8429,20.3745,1323.0978],[-103.849,20.372,1334.6748],[-103.856,20.3655,1375.5225],[-103.8802,20.3653,1370.9451],[-103.8792,20.3632,1372.6044],[-103.8816,20.3642,1370.9451],[-103.8819,20.3617,1373.0],[-103.8843,20.3596,1383.3817],[-103.8908,20.3652,1418.3499],[-103.8907,20.3722,1391.9979],[-103.8986,20.3751,1339.7366],[-103.9007,20.3785,1335.0327],[-103.8993,20.3814,1330.1949],[-103.9009,20.3829,1329.2979],[-103.9006,20.3834,1329.2979],[-103.8992,20.3817,1330.1949],[-103.8986,20.3834,1327.5234],[-103.9003,20.3865,1323.0175],[-103.9047,20.3802,1338.8237],[-103.9032,20.3794,1338.8237],[-103.9073,20.3706,1360.5426],[-103.9077,20.3651,1375.4185],[-103.9102,20.3641,1386.5522],[-103.9147,20.3564,1399.4076],[-103.9153,20.3539,1414.4636],[-103.9116,20.3535,1393.7761],[-103.9125,20.3504,1428.6587],[-103.9111,20.3493,1428.6587],[-103.9126,20.3466,1493.3997],[-103.9161,20.3465,1423.5969],[-103.9204,20.3431,1460.0237],[-103.9242,20.3435,1513.4578],[-103.9224,20.3415,1474.5547],[-103.9233,20.3395,1497.6395],[-103.9251,20.3399,1497.6395],[-103.9304,20.3358,1643.3982],[-103.9327,20.3274,1845.9091],[-103.9387,20.325,1918.3586],[-103.9467,20.3244,1832.468],[-103.9485,20.3211,1891.9572],[-103.9351,20.3101,1895.8611],[-103.9278,20.3106,1882.8577],[-103.925,20.3047,1850.1702],[-103.922,20.3036,1845.6343],[-103.9224,20.3012,1837.4539],[-103.9122,20.2962,1802.4973],[-103.9124,20.295,1799.8411],[-103.9085,20.295,1761.485],[-103.907,20.2965,1762.087],[-103.9049,20.2944,1746.3605],[-103.9053,20.2907,1740.6488],[-103.9004,20.2976,1762.0663],[-103.901,20.302,1774.1215],[-103.8906,20.3041,1862.4731],[-103.8875,20.3024,1914.0669],[-103.8874,20.304,1920.2225],[-103.8859,20.3033,1977.0151],[-103.8845,20.305,1990.5916],[-103.88,20.3018,2068.364],[-103.874,20.3014,2113.7041],[-103.872,20.2995,2108.6318],[-103.8671,20.3013,2097.5315],[-103.8636,20.2998,2091.5767],[-103.8589,20.3013,2034.7693],[-103.8524,20.2989,1987.4321],[-103.8495,20.2921,1998.886],[-103.8457,20.2897,2002.4673],[-103.841,20.2901,1925.2795],[-103.8312,20.2978,1668.5399],[-103.827,20.2963,1650.988],[-103.8208,20.298,1555.741],[-103.8227,20.2953,1585.8263],[-103.8215,20.289,1629.4652],[-103.8228,20.2877,1623.3142],[-103.8106,20.2679,2161.8501],[-103.8089,20.2762,2041.0924],[-103.8006,20.2719,1898.1189],[-103.7965,20.2743,1748.6549],[-103.7874,20.272,1648.6277],[-103.7875,20.2685,1670.1938],[-103.783,20.2652,1744.6262],[-103.7766,20.266,1774.0298],[-103.7706,20.2692,1841.8013],[-103.762,20.2663,2015.5914]]]]}}