{"type":"Feature","properties":{"GID_2":"MEX.20.333_2","GID_0":"MEX","country":"México","GID_1":"MEX.20_1","province":"Oaxaca","NL_NAME_1":"NA","county":"SanPedroTidaá","VARNAME_2":"NA","NL_NAME_2":"NA","TYPE_2":"Município","ENGTYPE_2":"Municipality","CC_2":"NA","HASC_2":"NA","name":"San_Pedro_Tidaá.county"},
"geometry":{"type": "MultiPolygon","coordinates": [[[[-97.4431,17.3484,3070.3765],[-97.4419,17.3423,3096.2979],[-97.4317,17.3257,3151.0244],[-97.4206,17.3156,3152.4951],[-97.3915,17.3083,2789.1387],[-97.3671,17.3145,2329.6289],[-97.3655,17.3171,2390.335],[-97.3389,17.3335,2184.7251],[-97.3546,17.3486,2290.9502],[-97.3572,17.3531,2299.2317],[-97.3602,17.3652,2306.5278],[-97.3932,17.3637,2604.1846],[-97.4431,17.3484,3070.3765]]]]}}