{"type":"Feature","properties":{"GID_2":"MEX.28.25_2","GID_0":"MEX","country":"México","GID_1":"MEX.28_1","province":"Tamaulipas","NL_NAME_1":"NA","county":"MiguelAlemán","VARNAME_2":"NA","NL_NAME_2":"NA","TYPE_2":"Município","ENGTYPE_2":"Municipality","CC_2":"NA","HASC_2":"NA","name":"Miguel_Alemán.county"},
"geometry":{"type": "MultiPolygon","coordinates": [[[[-99.0239,26.1041,79.9416],[-99.0267,26.1118,81.4849],[-99.0236,26.1149,81.1721],[-99.0165,26.114,79.8681],[-99.0144,26.1178,79.9939],[-99.0148,26.1213,79.1856],[-99.0169,26.1235,78.7768],[-98.9919,26.1821,81.0298],[-98.9943,26.1879,76.998],[-98.9897,26.1872,76.4099],[-98.9418,26.2982,85.8569],[-98.9466,26.3146,82.5126],[-98.946,26.3381,56.1942],[-98.9483,26.3381,55.923],[-98.9457,26.3424,54.2121],[-98.949,26.3424,54.5116],[-98.9498,26.3567,53.3722],[-98.9445,26.3666,55.4078],[-98.9561,26.3771,46.4781],[-98.9534,26.3846,47.8583],[-98.9537,26.3932,48.1112],[-98.9633,26.3988,53.1103],[-98.9767,26.4008,53.3528],[-98.988,26.3914,48.508],[-99.0035,26.3935,48.1995],[-99.0108,26.3923,50.6886],[-99.0128,26.3931,48.1144],[-99.0219,26.4071,48.4509],[-99.0311,26.4124,49.179],[-99.0363,26.4135,49.5135],[-99.0439,26.4108,50.1158],[-99.0533,26.4023,49.2084],[-99.0623,26.3973,51.4108],[-99.0815,26.3966,52.5175],[-99.085,26.398,49.8501],[-99.0892,26.408,54.517],[-99.0965,26.4122,52.8633],[-99.1105,26.4074,59.2195],[-99.1071,26.4063,60.4432],[-99.1115,26.3996,67.8275],[-99.101,26.3921,61.8436],[-99.1037,26.3926,64.4023],[-99.1037,26.3866,65.7001],[-99.1012,26.3822,67.556],[-99.1045,26.3811,74.3704],[-99.1042,26.3787,74.8077],[-99.1179,26.3767,93.2875],[-99.1175,26.3461,101.8278],[-99.1113,26.3276,104.2822],[-99.1171,26.3246,104.1846],[-99.1169,26.3036,125.8277],[-99.1072,26.3013,132.7222],[-99.1049,26.2986,133.7662],[-99.1013,26.299,124.7417],[-99.1001,26.2945,131.9267],[-99.1063,26.2919,118.0406],[-99.1085,26.2934,119.8367],[-99.1116,26.2896,113.4167],[-99.112799999999993,26.2945,121.1129],[-99.1168,26.2952,121.8477],[-99.1164,26.2631,93.3341],[-99.1828,26.2649,124.0789],[-99.1802,26.2629,124.1296],[-99.1801,26.2573,122.5149],[-99.1837,26.2561,127.0866],[-99.1865,26.2571,138.367],[-99.1867,26.259,134.8567],[-99.1978,26.2585,116.9784],[-99.167,26.0755,92.6092],[-99.1619,26.0703,89.8721],[-99.1601,26.0612,91.6644],[-99.1531,26.0624,86.5644],[-99.1442,26.0614,86.5487],[-99.1416,26.0598,82.6021],[-99.1411,26.053,85.704],[-99.1277,26.0536,88.8877],[-99.124,26.0567,90.5027],[-99.1323,26.0647,87.7714],[-99.1309,26.0688,88.7623],[-99.1199,26.0665,85.5374],[-99.1147,26.076,84.4133],[-99.1086,26.079,86.5359],[-99.0977,26.0807,84.0008],[-99.095,26.0806,87.0492],[-99.0933,26.0785,82.5115],[-99.0964,26.0728,83.7714],[-99.0933,26.0705,82.5891],[-99.0765,26.0719,86.6732],[-99.0764,26.0763,82.2592],[-99.0745,26.0788,84.1965],[-99.0666,26.0778,83.3889],[-99.0625,26.0801,87.1361],[-99.0639,26.0863,81.3156],[-99.0625,26.090699999999998,82.4809],[-99.0551,26.0925,80.3267],[-99.045,26.0987,81.98],[-99.0373,26.0935,82.6405],[-99.025,26.0934,81.9785],[-99.0217,26.0984,80.9292],[-99.0239,26.1041,79.9416]]]]}}