{"type": "Feature","bbox": [-89.1486,18.6261,-87.5494,19.2311],"geometry": {"type": "MultiPolygon","coordinates": [[[[-89.1486,18.8773,106.5029],[-89.0663,18.8876,92.6473],[-89.0618,18.8574,85.5122],[-89.0065,18.8653,72.647],[-89.0067,18.8169,75.843],[-88.965,18.8156,75.36],[-88.9662,18.7976,75.4082],[-88.9237,18.7956,96.3313],[-88.923,18.8186,96.0073],[-88.8268,18.8199,153.0742],[-88.8249,18.7592,180.4433],[-88.7538,18.7595,102.2701],[-88.7532,18.6261,62.167],[-88.587,18.6274,51.9176],[-88.5853,18.6582,33.3769],[-88.5604,18.6491,30.7981],[-88.4138,18.6277,1.5439],[-88.4115,18.6427,11.9699],[-88.4064,18.643,0.0],[-88.4059,18.647,0.0],[-88.391,18.6591,0.0],[-88.3886,18.6625,0.0],[-88.39,18.6656,0.0],[-88.3809,18.6783,0.0],[-88.3804,18.6977,0.0],[-88.3774,18.7023,0.0],[-88.3673,18.7131,0.0],[-88.3443,18.7238,0.0],[-88.339,18.7299,0.0],[-88.3062,18.7566,0.0],[-88.3051,18.7597,0.0],[-88.3071,18.767,0.0],[-88.3062,18.77,0.0],[-88.2985,18.783,0.0],[-88.2778,18.7978,0.0],[-88.265,18.8235,0.0],[-88.2509,18.8462,0.0],[-88.2452,18.8514,0.0],[-88.2392,18.8615,0.0],[-88.232,18.8693,0.0],[-88.2312,18.8751,0.0],[-88.2222,18.8771,0.0],[-88.2046,18.8676,0.0],[-88.191,18.8654,0.0],[-88.1866,18.8675,0.0],[-88.1747,18.8939,1.0242],[-88.1698,18.9009,0.0],[-88.144,18.9003,0.5097],[-88.1389,18.9276,6.1436],[-88.0849,18.9278,6.0052],[-88.0873,18.9771,7.999],[-88.0644,18.977,7.8735],[-88.0639,18.9804,9.9483],[-88.0616,18.9804,11.2808],[-88.0616,18.9771,9.7134],[-88.0487,18.9805,12.013],[-87.6483,18.9765,4.0252],[-87.6178,18.9626,1.901],[-87.6142,18.9626,3.2611],[-87.6089,18.9733,0.0],[-87.6053,18.9877,0.5121],[-87.6006,18.9916,0.0],[-87.59,19.0074,0.9249],[-87.5795,19.0359,1.4372],[-87.5735,19.043,0.0],[-87.5712,19.053,0.5733],[-87.5668,19.0626,2.7006],[-87.5623,19.0688,2.8637],[-87.5566,19.0688,1.5669],[-87.5535,19.0743,0.0],[-87.5519,19.0825,2.3701],[-87.5494,19.0866,0.0],[-87.5522,19.0937,2.8179],[-87.5498,19.1037,3.1955],[-87.55,19.1186,3.1436],[-88.017,19.1166,8.8169],[-88.0792,19.1264,12.6207],[-88.1445,19.1412,10.1461],[-88.1681,19.1424,13.1975],[-88.1695,19.1399,7.3002],[-88.1722,19.14,3.8431],[-88.1732,19.1443,1.8951],[-88.1709,19.1455,7.9858],[-88.1735,19.1503,1.0],[-88.2084,19.1566,19.4037],[-88.2207,19.1157,20.5379],[-88.22,19.1072,12.0],[-88.2245,19.1012,3.8753],[-88.2425,19.0518,21.3482],[-88.3879,19.094,19.2536],[-88.4236,19.0969,34.4163],[-88.3989,19.1727,32.2152],[-88.3852,19.1982,28.8217],[-88.4147,19.1981,25.1141],[-88.4738,19.1939,16.1458],[-88.4825,19.1959,15.937],[-88.4849,19.2025,26.5607],[-88.5555,19.2016,25.1172],[-88.5553,19.1895,23.2537],[-88.5899,19.1895,22.8118],[-88.5899,19.2123,26.5494],[-88.5984,19.2182,25.4453],[-88.7175,19.2182,29.8887],[-88.7174,19.2311,29.8461],[-89.147,19.2276,109.3827],[-89.147,19.1332,97.7076],[-89.1358,19.1324,99.0896],[-89.1471,18.995,83.8693],[-89.1486,18.8773,106.5029]]]]}
,"properties": {"GID_2": "MEX.23.1_2","GID_0": "MEX","country": "México","GID_1": "MEX.23_1","province": "QuintanaRoo","NL_NAME_1": "NA","county": "Bacalar","VARNAME_2": "NA","NL_NAME_2": "NA","TYPE_2": "Município","ENGTYPE_2": "Municipality","CC_2": "NA","HASC_2": "NA","name": "Bacalar.county","area_km2": 6081.007,"hist_schema_id": "Elevation0-9000","hist_area_km2": {"0": 1164.654,"25": 2322.034,"50": 774.866,"75": 875.053,"100": 645.222,"125": 232.514,"150": 56.69,"175": 9.354,"200": 0.623}}}