{"type":"Feature","properties":{"featurecla":"River","scalerank":12,"rivernum":22439,"dissolve":"22439River","name":"Arroyo sin Nombre","name_alt":null,"note":"ID is link back to CEC data","name_full":"Arroyo sin Nombre","min_zoom":7.0,"strokeweig":0.2,"uident":1953301,"min_label":8.0},
"geometry":{"type": "LineString","coordinates": [[-116.08543860585372,32.406195379681535,1501.3761],[-116.07225501210372,32.395697332806535,1351.1912],[-116.02643795481205,32.340521551556535,1454.6661],[-116.0106501943954,32.332546291139863,1468.2792],[-115.96776282460372,32.308661199994035,1512.8887]]}}