{"type":"Feature","properties":{"featurecla":"River","scalerank":12,"rivernum":22439,"dissolve":"22439River","name":"sin Nombre","name_alt":null,"note":"ID is link back to CEC data","name_full":"Arroyo sin Nombre","min_zoom":7.0,"strokeweig":0.2,"uident":1953301,"min_label":8.0},
"geometry":{"type": "LineString","coordinates": [[-116.5597224600204,32.316188869264863,411.3011],[-116.5497126943954,32.335272528119035,499.9408],[-116.5277400381454,32.3467878275982,571.605],[-116.4903865225204,32.363104559369035,725.9759],[-116.45270748606205,32.3646100932232,723.6924],[-116.39024817616622,32.374782619264863,720.7911],[-116.36213131418705,32.386297918744035,933.2325],[-116.32477779856205,32.411932684369035,906.083],[-116.28209387929122,32.4290632182232,1105.5977],[-116.23729407460372,32.4427350932232,1109.021],[-116.1959529287704,32.452337957806535,1246.7261],[-116.18004309804122,32.452460028119035,1283.7594],[-116.16185462147872,32.447088934369035,1328.0607],[-116.08543860585372,32.406195379681535,1501.3761]]}}