{"type":"Feature","properties":{"featurecla":"River","scalerank":12,"rivernum":22436,"dissolve":"22436River","name":"Hardy","name_alt":null,"note":"ID is link back to CEC data","name_full":"Hardy","min_zoom":7.0,"strokeweig":0.15,"uident":1955801,"min_label":8.0},
"geometry":{"type": "LineString","coordinates": [[-115.3126521475204,32.292669989056535,9.0305],[-115.30744381418705,32.258246160931535,8.1727],[-115.29893958241622,32.248968817181535,7.9817],[-115.28673255116622,32.2444929057232,7.5922],[-115.27879798085372,32.228583074994035,7.8362],[-115.27232825429122,32.2227643900982,7.0574],[-115.2750544912704,32.2156843119732,7.3373],[-115.29112708241622,32.206000067181535,6.9175],[-115.2838435537704,32.181179103639863,7.0036],[-115.2877498037704,32.165309963014863,6.3639],[-115.28587805897872,32.151882228639863,5.7001],[-115.25914466054122,32.136664129681535,5.8592],[-115.24815833241622,32.126247463014863,6.0474],[-115.2130427725204,32.109076239056535,5.7526]]}}