{"type":"Feature","properties":{"GID_2":"MEX.21.157_2","GID_0":"MEX","country":"México","GID_1":"MEX.21_1","province":"Puebla","NL_NAME_1":"NA","county":"Tehuitzingo","VARNAME_2":"NA","NL_NAME_2":"NA","TYPE_2":"Município","ENGTYPE_2":"Municipality","CC_2":"NA","HASC_2":"NA","name":"Tehuitzingo.county"},
"geometry":{"type": "MultiPolygon","coordinates": [[[[-98.1432,18.3518,1667.3798],[-98.1533,18.3472,1478.2786],[-98.1611,18.3462,1342.882],[-98.1608,18.3479,1354.3121],[-98.1627,18.3488,1363.6101],[-98.1619,18.3527,1401.3448],[-98.1598,18.3545,1405.5129],[-98.1611,18.3562,1397.4565],[-98.1593,18.3565,1427.1246],[-98.1618,18.3631,1535.3623],[-98.1777,18.3659,1658.0592],[-98.1807,18.3649,1524.8],[-98.1855,18.3667,1512.2994],[-98.1868,18.3753,1450.9956],[-98.1899,18.379,1387.8347],[-98.1903,18.3827,1286.042],[-98.1977,18.3908,1215.3989],[-98.199,18.396,1170.2992],[-98.2035,18.3933,1167.0193],[-98.2062,18.3937,1179.4099],[-98.2066,18.3955,1203.2037],[-98.2085,18.3941,1168.2983],[-98.2082,18.3921,1158.0725],[-98.2106,18.3915,1156.5198],[-98.2104,18.3896,1157.2537],[-98.2132,18.3891,1150.7736],[-98.2172,18.3908,1130.0594],[-98.2205,18.3901,1123.0112],[-98.2203,18.3962,1136.6655],[-98.218,18.3974,1120.6418],[-98.2193,18.3979,1128.9481],[-98.2241,18.3938,1128.5677],[-98.2301,18.3951,1123.1462],[-98.2309,18.3968,1092.5991],[-98.2348,18.3958,1107.3284],[-98.2349,18.3939,1088.5137],[-98.237799999999993,18.3962,1086.9736],[-98.238,18.3945,1083.2441],[-98.2399,18.3949,1077.1184],[-98.2397,18.3937,1109.6569],[-98.2421,18.3931,1077.1829],[-98.2533,18.3974,1064.0056],[-98.2607,18.3971,1046.8007],[-98.2642,18.3994,1051.1742],[-98.2509,18.409,1093.8788],[-98.2571,18.4125,1058.0745],[-98.2622,18.4095,1059.4178],[-98.2715,18.4081,1067.1255],[-98.2783,18.4034,1025.3022],[-98.2862,18.4035,1023.4926],[-98.2857,18.4068,1013.4486],[-98.2877,18.4064,1016.9254],[-98.289,18.4102,1008.8612],[-98.2898,18.4084,1015.9216],[-98.2927,18.4097,1003.5405],[-98.2848,18.414,1017.5274],[-98.2772,18.4103,1017.1399],[-98.2764,18.4145,1009.4874],[-98.2805,18.4164,1015.6365],[-98.2807,18.418,1011.4958],[-98.2717,18.4199,1016.2915],[-98.2692,18.4243,1019.7559],[-98.2711,18.4293,1024.9612],[-98.2689,18.4306,1018.7496],[-98.2705,18.4326,1035.3083],[-98.2742,18.4326,1021.7641],[-98.2747,18.4343,1047.0094],[-98.275,18.433,1032.8992],[-98.2762,18.4336,1032.8992],[-98.2762,18.4357,1024.4402],[-98.2711,18.4409,1034.2582],[-98.2705,18.4376,1023.5972],[-98.269,18.4382,1023.5972],[-98.274,18.4479,1040.5586],[-98.2725,18.4509,1068.6492],[-98.2745,18.4589,1063.4642],[-98.2784,18.4578,1042.0287],[-98.2787,18.4637,1056.5837],[-98.2819,18.4656,1045.5853],[-98.2792,18.4678,1049.3591],[-98.2804,18.4715,1058.955],[-98.2792,18.4731,1049.2867],[-98.2845,18.475,1058.2118],[-98.2811,18.4796,1055.1719],[-98.2824,18.4836,1071.6906],[-98.2874,18.4868,1087.4142],[-98.2947,18.4845,1116.1171],[-98.2963,18.4862,1133.297],[-98.3001,18.4866,1157.1119],[-98.305,18.486,1174.1239],[-98.3065,18.4826,1240.151],[-98.3058,18.4806,1274.1814],[-98.3093,18.4827,1258.2668],[-98.3104,18.4812,1366.6633],[-98.3136,18.4813,1400.0024],[-98.3135,18.4797,1413.886],[-98.3151,18.4813,1432.337],[-98.3212,18.4769,1404.5417],[-98.3324,18.4722,1623.7621],[-98.3358,18.4756,1569.7937],[-98.3442,18.4789,1342.9744],[-98.3429,18.4736,1442.2565],[-98.3374,18.4676,1608.9038],[-98.3457,18.4657,1576.708],[-98.3477,18.4608,1444.458],[-98.3492,18.465,1456.976],[-98.3595,18.4668,1227.2811],[-98.3592,18.4656,1227.2811],[-98.3632,18.4647,1212.6],[-98.3688,18.4585,1192.4753],[-98.3733,18.4599,1161.2667],[-98.3744,18.4582,1147.8142],[-98.3725,18.4541,1147.0956],[-98.3661,18.4487,1203.1909],[-98.3668,18.4452,1186.863],[-98.3811,18.442,1120.6975],[-98.3843,18.4426,1131.2267],[-98.3899,18.4397,1099.5403],[-98.3876,18.438,1116.6401],[-98.3887,18.4274,1366.4622],[-98.3962,18.4253,1110.1289],[-98.4002,18.4214,1077.7235],[-98.4017,18.4178,1059.8843],[-98.4064,18.4136,1045.7883],[-98.4065,18.4084,1033.7872],[-98.4107,18.4111,1092.0688],[-98.4149,18.4094,1107.0337],[-98.4185,18.405,1133.8966],[-98.4159,18.3931,1089.6904],[-98.4116,18.3931,1023.6478],[-98.4048,18.3868,1015.1512],[-98.4081,18.3847,1001.7546],[-98.4086,18.3821,1004.3685],[-98.4113,18.3814,995.4851],[-98.4124,18.3827,1003.847],[-98.4126,18.3754,1021.118],[-98.4146,18.3772,996.7678],[-98.4176,18.3744,989.9564],[-98.4202,18.3755,1001.9886],[-98.4221,18.3714,984.5925],[-98.4329,18.3784,1112.8568],[-98.4365,18.3744,1052.4637],[-98.4347,18.366,986.6777],[-98.4297,18.3663,985.8401],[-98.4341,18.362,1089.9612],[-98.4398,18.3615,1130.3442],[-98.441,18.3593,1127.6936],[-98.4393,18.357,1135.0511],[-98.4407,18.3538,1150.6447],[-98.4363,18.3513,1085.5933],[-98.4358,18.3425,1037.4991],[-98.4341,18.3404,1020.2824],[-98.4379,18.3356,995.3579],[-98.4367,18.3332,995.8411],[-98.4349,18.3344,995.4646],[-98.4311,18.3322,1035.6285],[-98.4311,18.3277,963.6658],[-98.4244,18.3264,929.4446],[-98.4245,18.323,947.1527],[-98.4189,18.3215,938.8775],[-98.417,18.3173,924.7366],[-98.4191,18.3184,936.6125],[-98.4217,18.3153,949.2604],[-98.4276,18.3182,935.6908],[-98.4303,18.313,930.6786],[-98.4324,18.3159,928.5855],[-98.4362,18.3138,924.7871],[-98.4393,18.3169,919.7771],[-98.4426,18.3151,951.3192],[-98.4393,18.3146,930.5524],[-98.4338,18.3091,925.8796],[-98.428,18.3095,914.349],[-98.4272,18.3035,922.6733],[-98.4334,18.3063,931.2249],[-98.4349,18.3047,906.8273],[-98.4334,18.3015,979.868],[-98.4261,18.2974,900.4891],[-98.4313,18.295,1001.9484],[-98.4303,18.2909,909.7166],[-98.4314,18.2869,899.5427],[-98.4347,18.2871,926.2512],[-98.4331,18.2819,919.514],[-98.4341,18.2793,921.929],[-98.4302,18.2786,936.9924],[-98.4268,18.2802,977.1326],[-98.4273,18.2814,970.2312],[-98.4182,18.2803,991.6736],[-98.4087,18.2852,1062.3208],[-98.4038,18.282,1115.6561],[-98.3969,18.2846,1126.3075],[-98.3854,18.2814,1269.0767],[-98.3839,18.2764,1380.7954],[-98.3819,18.2756,1399.1667],[-98.3733,18.2819,1522.6104],[-98.373,18.2899,1415.6582],[-98.3653,18.2844,1685.342],[-98.3647,18.277,1647.6312],[-98.3583,18.2631,1458.6975],[-98.3572,18.2547,1381.199],[-98.3527,18.2628,1403.8221],[-98.3422,18.2549,1507.8958],[-98.3327,18.2558,1352.709],[-98.3287,18.2524,1427.4954],[-98.3175,18.2601,1168.7897],[-98.3121,18.2681,1182.6223],[-98.3052,18.2652,1207.3434],[-98.3074,18.2576,1264.5499],[-98.3058,18.2563,1256.0671],[-98.3056,18.2526,1293.6741],[-98.3032,18.2519,1295.8066],[-98.2963,18.2559,1207.1949],[-98.2925,18.254,1281.0603],[-98.2909,18.2507,1221.359],[-98.2837,18.2561,1184.1752],[-98.2828,18.2598,1173.6876],[-98.2812,18.2596,1173.6876],[-98.2788,18.2624,1161.7083],[-98.2779,18.2647,1154.4172],[-98.281,18.2688,1140.3741],[-98.2812,18.2728,1133.8521],[-98.2798,18.2763,1123.1349],[-98.276,18.2785,1119.6143],[-98.2748,18.2713,1137.8679],[-98.2718,18.2693,1144.5042],[-98.2714,18.2669,1142.6376],[-98.2664,18.2689,1127.4156],[-98.2656,18.2645,1142.2125],[-98.2606,18.2562,1172.8879],[-98.254,18.2619,1202.9188],[-98.2412,18.268,1207.6752],[-98.2365,18.2729,1214.6343],[-98.2318,18.2721,1238.0991],[-98.2267,18.275,1234.8864],[-98.2208,18.2729,1235.8906],[-98.2188,18.275,1256.0862],[-98.2118,18.2729,1325.3448],[-98.2085,18.2729,1381.1157],[-98.2086,18.2752,1336.6326],[-98.2045,18.2727,1383.0046],[-98.199,18.2743,1381.5408],[-98.1989,18.2772,1381.281],[-98.2029,18.2816,1386.3254],[-98.2028,18.2837,1397.4025],[-98.1994,18.2868,1328.2905],[-98.1882,18.2901,1359.2913],[-98.1871,18.2924,1393.3258],[-98.1815,18.2893,1465.8131],[-98.1788,18.2897,1494.2551],[-98.1786,18.2874,1535.5212],[-98.1745,18.2885,1480.7157],[-98.172,18.2864,1527.9313],[-98.1687,18.2908,1406.0487],[-98.1699,18.2945,1389.8341],[-98.1664,18.3032,1354.2963],[-98.1555,18.3099,1418.5986],[-98.1466,18.3077,1473.8553],[-98.1445,18.3108,1465.649],[-98.1456,18.3144,1498.5414],[-98.1435,18.3189,1502.4188],[-98.1448,18.3198,1502.4188],[-98.1364,18.3275,1562.8649],[-98.1397,18.3306,1677.0431],[-98.1399,18.3329,1647.1527],[-98.1375,18.3444,1651.3328],[-98.1432,18.3518,1667.3798]]]]}}