{"type":"Feature","properties":{"GID_2":"MEX.24.3_2","GID_0":"MEX","country":"México","GID_1":"MEX.24_1","province":"SanLuisPotosí","NL_NAME_1":"NA","county":"Aquismón","VARNAME_2":"NA","NL_NAME_2":"NA","TYPE_2":"Município","ENGTYPE_2":"Municipality","CC_2":"NA","HASC_2":"NA","name":"Aquismón.county"},
"geometry":{"type": "MultiPolygon","coordinates": [[[[-99.1293,21.4868,1344.5806],[-99.0722,21.4886,1211.3947],[-99.0709,21.4857,1212.6061],[-99.0699,21.488,1231.8229],[-99.0614,21.4836,1031.6885],[-99.0498,21.4818,1318.7209],[-99.0221,21.4952,999.7344],[-99.0171,21.4911,962.6763],[-99.0076,21.5028,549.4507],[-99.0129,21.5087,416.8626],[-99.0258,21.532,209.1053],[-99.0291,21.5415,425.5441],[-99.0295,21.5512,516.199],[-99.0186,21.5527,411.0959],[-99.0011,21.5708,126.0128],[-99.0079,21.5711,88.9098],[-99.005,21.5805,90.6545],[-99.0,21.5837,78.7297],[-98.9981,21.5874,75.4708],[-98.9994,21.5923,73.1029],[-98.9976,21.5937,74.9035],[-98.9941,21.606,68.8208],[-98.9907,21.6111,64.4307],[-98.9903,21.6162,61.189],[-98.9955,21.6293,58.586],[-98.9964,21.634,60.1353],[-98.9951,21.6349,60.1353],[-98.9989,21.6365,58.418],[-98.9994,21.6423,56.4221],[-99.0054,21.6482,53.8268],[-99.0078,21.6472,57.6397],[-99.008,21.6502,52.5052],[-99.0129,21.6543,53.4524],[-99.0124,21.657,51.3842],[-99.0145,21.6608,49.4598],[-99.0157,21.6604,50.3302],[-99.0194,21.6644,54.4502],[-99.0194,21.6683,47.5843],[-99.0148,21.6727,48.0765],[-99.0151,21.6766,47.3684],[-99.0176,21.6782,44.4491],[-99.0164,21.6807,45.134],[-99.0174,21.6838,43.3257],[-99.019,21.6843,47.5104],[-99.0176,21.689,50.0903],[-99.0132,21.6901,43.4421],[-99.0121,21.6943,41.5099],[-99.0104,21.6949,41.0966],[-99.0102,21.6963,41.8171],[-99.0117,21.6965,40.2001],[-99.0086,21.6972,41.1412],[-99.0101,21.699,43.0286],[-99.0085,21.7032,41.7915],[-99.0044,21.7064,40.5068],[-99.0026,21.7053,39.3294],[-99.0016,21.7075,40.1239],[-98.9976,21.7076,42.2526],[-98.9947,21.71,39.7687],[-98.9952,21.7134,37.8074],[-98.9927,21.715,54.6568],[-98.9932,21.7208,37.4798],[-98.9903,21.7243,38.9925],[-98.9861,21.7251,43.4036],[-98.9836,21.7267,42.8795],[-98.9828,21.7296,38.2381],[-98.9821,21.7282,37.2264],[-98.9804,21.7306,37.1111],[-98.9794,21.7297,37.7326],[-98.9777,21.7332,37.681399999999996],[-98.9746,21.7337,50.3066],[-98.9767,21.7351,35.7677],[-98.9741,21.7379,35.354],[-98.9745,21.7414,36.4838],[-98.9715,21.7393,36.6495],[-98.97,21.7418,36.2909],[-98.9736,21.7466,38.0672],[-98.9683,21.7441,36.585],[-98.9619,21.7487,42.7897],[-98.9634,21.7523,35.6688],[-98.9611,21.7536,35.4875],[-98.9607,21.7601,36.4299],[-98.9616,21.7633,37.0622],[-98.9683,21.7669,47.4409],[-98.9759,21.7683,49.0433],[-98.9786,21.7726,58.604],[-98.9813,21.7729,61.9152],[-98.9799,21.7739,61.3348],[-98.9832,21.778199999999998,69.4441],[-98.9839,21.7769,66.6868],[-98.9989,21.7769,64.8084],[-98.9998,21.7801,69.9648],[-99.0048,21.7799,68.8812],[-99.0042,21.7851,69.8947],[-99.0059,21.7869,72.1603],[-98.9986,21.7992,58.0095],[-99.0009,21.8021,41.7796],[-99.0102,21.8058,47.2894],[-99.0109,21.8025,44.9507],[-99.0237,21.7982,47.6081],[-99.0299,21.8179,45.0144],[-99.0351,21.8125,40.4391],[-99.042,21.8095,41.3136],[-99.056,21.7965,41.0],[-99.0636,21.7995,43.5816],[-99.0639,21.8062,43.4049],[-99.0671,21.8082,49.1992],[-99.0774,21.807,83.2479],[-99.0837,21.8015,133.3638],[-99.0883,21.8008,186.9556],[-99.0986,21.7942,131.3819],[-99.1122,21.7996,118.4415],[-99.117,21.8063,91.6163],[-99.1157,21.8454,560.875],[-99.1174,21.8479,429.9601],[-99.1409,21.8463,159.0185],[-99.1478,21.8672,194.9038],[-99.1399,21.8679,211.7392],[-99.1396,21.8711,228.5318],[-99.1457,21.8704,163.3817],[-99.1519,21.8937,166.5213],[-99.1546,21.9069,166.2358],[-99.1512,21.9088,286.8569],[-99.1608,21.9344,320.1655],[-99.1579,21.9349,357.4805],[-99.159,21.9367,315.484],[-99.1562,21.9379,320.0052],[-99.1631,21.9551,351.5611],[-99.1646,21.965699999999998,310.6713],[-99.164,21.9678,334.1951],[-99.1611,21.9677,337.5328],[-99.1605,21.9735,357.4637],[-99.1573,21.9742,319.1118],[-99.1621,21.9742,320.4745],[-99.1521,22.0057,350.7305],[-99.1622,22.0037,256.466],[-99.1648,22.0124,251.6012],[-99.1782,22.0093,274.9399],[-99.1747,21.9987,294.6907],[-99.1856,21.9937,266.7017],[-99.1899,22.0065,230.7265],[-99.1866,22.007,231.767],[-99.1924,22.0147,247.7821],[-99.1965,22.0115,242.9616],[-99.2017,22.0127,242.2961],[-99.2036,22.006,282.2335],[-99.2028,22.0017,240.3117],[-99.2055,21.9999,338.4741],[-99.2074,22.005,334.3667],[-99.2095,22.004,321.7636],[-99.2125,21.9987,330.7802],[-99.2102,21.9889,353.8273],[-99.2223,21.9883,344.8286],[-99.222,21.9916,336.6607],[-99.2235,21.991,328.3369],[-99.2268,21.9987,324.4572],[-99.2263,22.0011,332.7004],[-99.232,22.001,324.5995],[-99.2307,21.9925,404.0459],[-99.2267,21.9837,434.2934],[-99.224,21.9626,427.7357],[-99.2221,21.9582,447.1502],[-99.2434,21.9496,286.5303],[-99.2399,21.9461,284.56],[-99.2396,21.9413,286.1107],[-99.2458,21.9402,287.9052],[-99.2556,21.9309,285.4089],[-99.2541,21.9131,276.9786],[-99.2519,21.9096,278.1271],[-99.2502,21.8987,277.7577],[-99.2457,21.8959,273.3837],[-99.2394,21.8971,269.6391],[-99.237799999999993,21.8921,279.0865],[-99.2381,21.8909,271.3623],[-99.2446,21.8913,269.7243],[-99.2483,21.886,284.7321],[-99.2505,21.8668,269.9141],[-99.2481,21.8635,265.4304],[-99.2469,21.8567,258.4905],[-99.2493,21.8522,266.9884],[-99.2466,21.8441,257.5156],[-99.2423,21.844,260.2359],[-99.2402,21.8421,255.4566],[-99.2383,21.832,262.9738],[-99.2329,21.835,250.1494],[-99.2272,21.8307,244.7021],[-99.2242,21.831,245.2173],[-99.2263,21.8298,257.5696],[-99.2234,21.8176,357.7713],[-99.2265,21.8168,401.7702],[-99.2235,21.8095,451.726],[-99.2303,21.8074,284.6602],[-99.2205,21.806,481.3112],[-99.2241,21.8037,432.4069],[-99.2182,21.8045,399.0325],[-99.2177,21.8017,507.8367],[-99.216,21.8022,436.1164],[-99.2162,21.8073,462.2957],[-99.2079,21.8046,282.9829],[-99.2017,21.8046,271.4392],[-99.2034,21.8067,282.7671],[-99.203,21.8098,253.1437],[-99.2018,21.8065,214.0729],[-99.1987,21.8073,210.1606],[-99.1908,21.801,192.9494],[-99.1851,21.8067,187.6563],[-99.1799,21.8051,193.2712],[-99.18,21.8001,250.486],[-99.1724,21.7869,409.7061],[-99.1632,21.7405,435.6103],[-99.1735,21.7413,390.0415],[-99.1853,21.7399,221.7224],[-99.1923,21.7293,287.9005],[-99.1994,21.707,184.2302],[-99.2013,21.7072,190.3543],[-99.2026,21.7034,183.4637],[-99.2018,21.6919,203.6826],[-99.2041,21.6882,181.3886],[-99.1992,21.6827,187.2665],[-99.1899,21.6801,220.7778],[-99.1865,21.6764,319.9872],[-99.186,21.6732,276.4341],[-99.1881,21.6699,211.4288],[-99.1817,21.6614,656.2389],[-99.1732,21.6381,727.2552],[-99.1689,21.631,848.6754],[-99.1719,21.627,843.2947],[-99.1387,21.6038,1249.7493],[-99.1351,21.5973,1136.958],[-99.1306,21.5966,1261.6951],[-99.1304,21.5923,1190.8252],[-99.1283,21.5898,1327.515],[-99.1283,21.5817,1343.6545],[-99.1305,21.579,1377.5098],[-99.1423,21.5354,1285.3833],[-99.1369,21.5141,1397.561],[-99.1298,21.5017,1414.9961],[-99.1293,21.4868,1344.5806]]]]}}