{"type":"Feature","properties":{"featurecla":"River","scalerank":10,"rivernum":22253,"dissolve":"22253River","name":"Bejucos","name_alt":null,"note":"ID is link back to CEC data","name_full":"Bejucos","min_zoom":6.0,"strokeweig":0.2,"uident":2034601,"min_label":7.0},
"geometry":{"type": "LineString","coordinates": [[-100.63036048085372,18.356797593223206,257.2549],[-100.60582434804122,18.379095770306535,251.186],[-100.60033118397872,18.399766343223206,251.3664],[-100.60973059804122,18.417832749473206,291.3181],[-100.59471594960372,18.427842515098206,277.1451],[-100.57872473866622,18.453477280723206,265.3236],[-100.57811438710372,18.481716213014863,266.8124],[-100.5792537100204,18.505235093223206,270.1274],[-100.59797115793707,18.534247137494035,276.9573],[-100.61388098866622,18.552110093223206,295.8142],[-100.61241614491622,18.561306056764863,296.7847],[-100.6210017568954,18.562608140098206,299.8737],[-100.65440833241622,18.613389390098206,339.114],[-100.68541419179122,18.678981838014863,322.0392],[-100.68781490793707,18.702419338014863,539.8455],[-100.6817927725204,18.728949285931535,358.0],[-100.6922908193954,18.768825588014863,358.0],[-100.69774329335372,18.778631903119035,358.0],[-100.68480384022872,18.794053452598206,381.7512],[-100.68956458241622,18.816595770306535,431.6028],[-100.69859778554122,18.839382228639863,502.1219],[-100.71336829335372,18.855292059369035,417.5556],[-100.73497473866622,18.857204494264863,386.9373],[-100.74449622304122,18.868516343223206,447.235]]}}