{"type":"Feature","properties":{"featurecla":"River","scalerank":11,"rivernum":22234,"dissolve":"22234River","name":"Amacuzac1","name_alt":null,"note":"ID is link back to CEC data","name_full":"Amacuzac","min_zoom":6.7,"strokeweig":0.2,"uident":2040501,"min_label":7.7},
"geometry":{"type": "LineString","coordinates": [[-99.769602017312067,18.845404364056535,1742.2949],[-99.7503962881454,18.818630275514863,1825.5732],[-99.727365689187067,18.794134832806535,1640.5903],[-99.703358527728724,18.757839259889863,1648.3762],[-99.680043098041224,18.722479559369035,1427.5646],[-99.6336970693954,18.718858140098206,1432.6292],[-99.625070767312067,18.715358791139863,1304.644],[-99.603382941791224,18.717800197389863,1530.5145],[-99.590809699603724,18.713812567181535,1460.41],[-99.583729621478724,18.706813869264863,1494.5844],[-99.5792537100204,18.697333074994035,1456.2881],[-99.574289517312067,18.686387436973206,1501.7957],[-99.560047980853724,18.676052150514863,1452.5444],[-99.536854621478724,18.670355535931535,1430.5348],[-99.523426887103724,18.669867254681535,1510.6765],[-99.495472785541224,18.674099025514863,1355.1365],[-99.504221157937067,18.656195379681535,1169.187],[-99.5106501943954,18.638251043744035,1151.7258],[-99.507394986062067,18.624131577598206,1132.0801],[-99.4867244131454,18.617946681764863,1087.8195],[-99.467600064187067,18.614772853639863,1061.8555],[-99.4461970693954,18.618963934369035,1035.7181],[-99.437977668353724,18.617295640098206,1068.7234],[-99.435129361062067,18.616766668744035,1053.3999],[-99.382557746478724,18.602647202598206,952.8466],[-99.348744269916224,18.587022202598206,887.952],[-99.326039191791224,18.587225653119035,922.5387],[-99.314442512103724,18.593451239056535,890.9799],[-99.300892707416224,18.569403387494035,898.9042],[-99.287912564187067,18.565212306764863,858.4628],[-99.271311001687067,18.550360418744035,858.0751],[-99.260975715228724,18.553656317181535,877.7582],[-99.2477107412704,18.564520574994035,923.0141],[-99.2269587881454,18.571234442181535,861.7401],[-99.225900845437067,18.568304754681535,872.4043],[-99.1966853506454,18.557928778119035,923.5537],[-99.170277473041224,18.555934963014863,877.5765],[-99.161488410541224,18.552923895306535,912.3364],[-99.154652473041224,18.549139715619035,944.6476],[-99.150461392312067,18.543036199994035,918.2265],[-99.149240689187067,18.532904364056535,899.3251],[-99.146473762103724,18.520127671348206,797.3703],[-99.144846157937067,18.507879949994035,876.5769],[-99.1415095693954,18.496608791139863,960.2057],[-99.134144660541224,18.486883856244035,826.7301],[-99.126942512103724,18.480332749473206,928.9146],[-99.1212458975204,18.473944403119035,1165.0786],[-99.117298957416224,18.466335353639863,1123.9677],[-99.115101691791224,18.456406968223206,961.7185],[-99.102528449603724,18.428574936973206,829.8009],[-99.0802302725204,18.407741603639863,893.205],[-99.059071418353724,18.384588934369035,1075.953],[-99.053578254291224,18.363959051556535,859.1878],[-99.0497126943954,18.349920965619035,864.0849],[-99.046620246478724,18.334051824994035,835.5358],[-99.0470271475204,18.319037176556535,970.4321],[-99.048207160541224,18.304266668744035,908.4578],[-99.047230598041224,18.288885809369035,863.0211],[-99.0423884756454,18.275946356244035,888.7343],[-99.0355525381454,18.264675197389863,759.7202],[-99.0306697256454,18.252712306764863,801.0966],[-99.0314021475204,18.237656968223206,785.5965],[-99.064198371478724,18.217352606244035,725.6801],[-99.0658259756454,18.198431707806535,783.292],[-99.076893683978724,18.160264390098206,714.4839],[-99.0943904287704,18.135036525514863,680.0363],[-99.114816861062067,18.116278387494035,643.3024],[-99.113270637103724,18.108018296348206,789.1183],[-99.1046443350204,18.103135483848206,638.3803],[-99.132923957416224,18.090033270306535,637.629],[-99.1188044912704,18.060126043744035,753.7986],[-99.116769986062067,18.043768621869035,792.9276],[-99.121449348041224,18.014186916139863,771.4652],[-99.128000454812067,18.008002020306535,663.0165],[-99.1371150381454,18.008571681764863,847.7552],[-99.141916470437067,18.002956447389863,956.1716],[-99.144602017312067,17.991156317181535,639.2217],[-99.145619269916224,17.976589259889863,799.4236],[-99.134592251687067,17.945990301556535,584.5363],[-99.1390681631454,17.923854884889863,784.6389]]}}