{"type": "Feature","bbox": [-100.0304,23.7236,-99.4569,24.0394],"geometry": {"type": "MultiPolygon","coordinates": [[[[-100.0178,23.9421,1609.7876],[-100.0243,23.8944,1615.4022],[-100.0304,23.8852,1605.0248],[-99.9648,23.857,1922.9011],[-99.969,23.8472,1802.5851],[-99.9745,23.8475,1765.7778],[-99.9722,23.8401,1782.2738],[-99.9423,23.838,2052.5325],[-99.945,23.7879,1747.106],[-99.9103,23.7854,1942.4106],[-99.9079,23.79,1987.6715],[-99.8934,23.7448,2419.384],[-99.8828,23.7236,2506.834],[-99.8607,23.7745,3493.0918],[-99.8055,23.7843,2501.3628],[-99.769,23.7845,2676.4138],[-99.6834,23.7766,2112.3181],[-99.6195,23.7597,1639.0548],[-99.6022,23.7629,1949.818],[-99.5767,23.7755,1347.7823],[-99.4938,23.8787,1745.936],[-99.4569,23.8661,2651.8054],[-99.4869,23.9605,2092.3857],[-99.52,23.9906,1365.4369],[-99.5409,23.9973,1876.9116],[-99.5419,24.0336,1623.5402],[-99.5709,24.0394,1904.5114],[-99.5788,24.0369,2197.2852],[-99.6759,24.0389,1723.786],[-99.6893,24.0332,2536.3877],[-99.7208,24.0277,2430.4155],[-99.7429,24.0288,2714.8953],[-99.7484,24.0238,2668.3687],[-99.755,24.0114,2495.6494],[-99.7491,23.9971,2050.49],[-99.758,23.9889,1664.2646],[-99.7667,23.9845,1392.7815],[-99.7686,23.986,1401.5916],[-99.7682,23.9908,1423.6207],[-99.7748,23.9945,1323.9381],[-99.7807,24.0101,1303.0295],[-99.7833,24.0102,1391.5249],[-99.7866,24.015,1347.7092],[-99.7889,24.0121,1442.1168],[-99.8366,24.0052,2428.614],[-99.8395,23.9971,2486.1523],[-99.8442,23.9913,2293.6033],[-99.8421,23.9835,2050.8635],[-99.853,23.9982,2261.0793],[-99.862,23.9904,1998.5775],[-99.8675,23.9977,2374.3901],[-99.8798,23.9896,2405.709],[-99.8782,24.0172,2160.033],[-99.9182,24.0025,2264.0923],[-99.9728,24.0051,1870.6567],[-99.9855,23.9909,1842.0022],[-100.0086,23.9426,1673.7812],[-100.0178,23.9421,1609.7876]]]]}
,"properties": {"GID_2": "MEX.19.22_2","GID_0": "MEX","country": "México","GID_1": "MEX.19_1","province": "NuevoLeón","NL_NAME_1": "NA","county": "GeneralZaragoza","VARNAME_2": "NA","NL_NAME_2": "NA","TYPE_2": "Município","ENGTYPE_2": "Municipality","CC_2": "NA","HASC_2": "NA","name": "General_Zaragoza.county","area_km2": 1310.089,"hist_schema_id": "Elevation0-9000","hist_area_km2": {"1100": 0.058,"1125": 0.097,"1150": 0.097,"1175": 0.155,"1200": 0.155,"1225": 0.213,"1250": 0.291,"1275": 0.64,"1300": 0.795,"1325": 1.473,"1350": 3.197,"1375": 4.979,"1400": 5.909,"1425": 4.882,"1450": 5.037,"1475": 5.599,"1500": 6.181,"1525": 7.867,"1550": 7.557,"1575": 7.421,"1600": 9.244,"1625": 12.868,"1650": 13.333,"1675": 13.973,"1700": 13.856,"1725": 14.689,"1750": 14.457,"1775": 16.415,"1800": 16.938,"1825": 17.926,"1850": 17.869,"1875": 18.295,"1900": 20.195,"1925": 19.516,"1950": 21.319,"1975": 22.772,"2000": 23.801,"2025": 23.723,"2050": 23.434,"2075": 23.666,"2100": 23.802,"2125": 24.772,"2150": 25.799,"2175": 24.869,"2200": 25.839,"2225": 26.054,"2250": 27.254,"2275": 26.848,"2300": 28.902,"2325": 28.011,"2350": 29.154,"2375": 29.33,"2400": 28.651,"2425": 28.379,"2450": 28.476,"2475": 26.286,"2500": 25.802,"2525": 28.05,"2550": 24.754,"2575": 25.996,"2600": 26.151,"2625": 25.764,"2650": 26.87,"2675": 24.99,"2700": 21.151,"2725": 19.717,"2750": 19.485,"2775": 18.147,"2800": 17.721,"2825": 15.783,"2850": 15.414,"2875": 13.689,"2900": 12.7,"2925": 11.013,"2950": 10.005,"2975": 8.939,"3000": 8.434,"3025": 7.426,"3050": 7.291,"3075": 7.601,"3100": 6.088,"3125": 4.576,"3150": 3.801,"3175": 3.2,"3200": 2.347,"3225": 2.249,"3250": 2.347,"3275": 1.823,"3300": 1.377,"3325": 1.164,"3350": 0.853,"3375": 0.776,"3400": 0.795,"3425": 0.659,"3450": 0.659,"3475": 0.543,"3500": 0.291,"3525": 0.252,"3550": 0.078}}}