{"type": "Feature","bbox": [-95.7446,16.8729,-95.6053,16.9994],"geometry": {"type": "MultiPolygon","coordinates": [[[[-95.6584,16.9076,958.6118],[-95.6586,16.9144,966.427],[-95.65,16.936,722.8536],[-95.6494,16.9455,778.1664],[-95.6407,16.9446,481.1109],[-95.6068,16.9707,486.0103],[-95.6053,16.9785,398.0196],[-95.6483,16.9815,851.9547],[-95.649,16.9638,860.1738],[-95.6687,16.9595,771.8464],[-95.6907,16.9881,1604.7501],[-95.6922,16.9935,1524.3137],[-95.6969,16.9977,1126.9946],[-95.7033,16.9994,1026.6545],[-95.7116,16.994,875.5106],[-95.718,16.9925,789.2379],[-95.7195,16.9903,813.8077],[-95.7185,16.9853,988.5745],[-95.7113,16.9785,1125.3469],[-95.7159,16.9767,933.379],[-95.7258,16.9816,781.5182],[-95.7298,16.9797,740.0406],[-95.7296,16.9754,759.8149],[-95.7317,16.9704,794.7586],[-95.7305,16.9661,880.3925],[-95.731,16.9644,878.8361],[-95.7351,16.9624,941.642],[-95.7353,16.96,1053.7202],[-95.7352,16.9561,1104.4702],[-95.7295,16.9416,1714.2146],[-95.7329,16.9377,1720.4524],[-95.7317,16.9336,1809.2223],[-95.7331,16.9269,1684.5664],[-95.7379,16.9238,1840.6722],[-95.7409,16.9181,1816.8583],[-95.7407,16.9109,2036.2277],[-95.7435,16.9017,2234.7825],[-95.7399,16.8987,2125.9512],[-95.7396,16.8957,2082.9272],[-95.7446,16.8906,2091.1875],[-95.7446,16.8882,2047.5066],[-95.717,16.8896,1830.1337],[-95.6944,16.8729,1606.6752],[-95.6584,16.9076,958.6118]]]]}
,"properties": {"GID_2": "MEX.20.235_2","GID_0": "MEX","country": "México","GID_1": "MEX.20_1","province": "Oaxaca","NL_NAME_1": "NA","county": "SanLucasCamotlán","VARNAME_2": "NA","NL_NAME_2": "NA","TYPE_2": "Município","ENGTYPE_2": "Municipality","CC_2": "NA","HASC_2": "NA","name": "San_Lucas_Camotlán.county","area_km2": 102.22372,"hist_schema_id": "Elevation0-9000","hist_area_km2": {"400": 0.14196,"425": 0.66924,"450": 0.81118,"475": 1.17623,"500": 1.64265,"525": 1.25734,"550": 1.35874,"575": 1.58181,"600": 1.09511,"625": 1.15593,"650": 1.09509,"675": 1.19649,"700": 1.05456,"725": 0.64897,"750": 1.1357,"775": 0.73008,"800": 1.01405,"825": 0.81122,"850": 1.17628,"875": 1.15597,"900": 1.09515,"925": 1.0546,"950": 1.39936,"975": 1.21684,"1000": 1.43993,"1025": 1.56164,"1050": 1.58192,"1075": 1.82527,"1100": 1.76443,"1125": 1.56164,"1150": 2.089,"1175": 1.96732,"1200": 2.14989,"1225": 2.35266,"1250": 2.65695,"1275": 2.57579,"1300": 3.22483,"1325": 2.9206,"1350": 3.32625,"1375": 3.36679,"1400": 3.10317,"1425": 2.75847,"1450": 2.69761,"1475": 2.14999,"1500": 2.21087,"1525": 1.78499,"1550": 1.60244,"1575": 1.92699,"1600": 1.56195,"1625": 1.76484,"1650": 1.48084,"1675": 1.68375,"1700": 1.72428,"1725": 1.37944,"1750": 1.2172,"1775": 1.05491,"1800": 1.11578,"1825": 0.77091,"1850": 0.68975,"1875": 0.54775,"1900": 0.44631,"1925": 0.54775,"1950": 0.40573,"1975": 0.50717,"2000": 0.56803,"2025": 0.48689,"2050": 0.81147,"2075": 0.66946,"2100": 0.64918,"2125": 0.58831,"2150": 0.32458,"2175": 0.40573,"2200": 0.28401,"2225": 0.10143,"2250": 0.08114,"2275": 0.04057,"2300": 0.04057}}}