{"type":"Feature","properties":{"GID_2":"MEX.5.4_2","GID_0":"MEX","country":"México","GID_1":"MEX.5_1","province":"Chiapas","NL_NAME_1":"NA","county":"Aldama","VARNAME_2":"NA","NL_NAME_2":"NA","TYPE_2":"Município","ENGTYPE_2":"Municipality","CC_2":"NA","HASC_2":"NA","name":"Aldama.county"},
"geometry":{"type": "MultiPolygon","coordinates": [[[[-92.6719,16.884,2143.1953],[-92.6667,16.9019,2026.9406],[-92.6647,16.905,2113.0881],[-92.6572,16.9076,2092.7705],[-92.6517,16.9232,2048.2803],[-92.6547,16.9287,2047.1121],[-92.6606,16.9202,1898.2552],[-92.667,16.921,1799.5437],[-92.6686,16.9226,1769.2],[-92.67,16.9216,1763.1515],[-92.6744,16.9244,1705.3878],[-92.6766,16.923,1759.6575],[-92.68,16.9243,1680.3315],[-92.6806,16.926,1625.3514],[-92.6871,16.9279,1566.2233],[-92.6957,16.9345,1410.8159],[-92.6996,16.947,1287.9709],[-92.7002,16.9544,1140.5841],[-92.698,16.9655,933.6309],[-92.6939,16.9729,863.1343],[-92.709,16.9805,786.5198],[-92.7167,16.9657,1268.2349],[-92.7061,16.96,1317.7811],[-92.7038,16.9522,1300.5984],[-92.7047,16.936,1567.5544],[-92.7216,16.916,2035.3738],[-92.7191,16.9082,1992.9462],[-92.7149,16.9052,1920.146],[-92.6952,16.9053,1787.6761],[-92.6875,16.8897,1853.833],[-92.6719,16.884,2143.1953]]]]}}