{"type": "Feature","bbox": [-96.2232,17.1311,-96.1621,17.1775],"geometry": {"type": "MultiPolygon","coordinates": [[[[-96.2232,17.1608,1068.3104],[-96.2163,17.1511,1621.3853],[-96.1975,17.1365,1597.3826],[-96.1784,17.1311,1484.9062],[-96.1621,17.1321,951.5048],[-96.1672,17.1349,939.9203],[-96.1682,17.1382,934.1169],[-96.1712,17.1386,967.7128],[-96.1791,17.1453,958.1375],[-96.1833,17.1508,892.4126],[-96.1859,17.1597,919.067],[-96.1917,17.1671,878.8984],[-96.1944,17.1672,887.4689],[-96.2002,17.1772,849.9655],[-96.2106,17.1775,906.6666],[-96.2151,17.1683,972.2164],[-96.2232,17.1608,1068.3104]]]]}
,"properties": {"GID_2": "MEX.20.250_2","GID_0": "MEX","country": "México","GID_1": "MEX.20_1","province": "Oaxaca","NL_NAME_1": "NA","county": "SanMateoCajonos","VARNAME_2": "NA","NL_NAME_2": "NA","TYPE_2": "Município","ENGTYPE_2": "Municipality","CC_2": "NA","HASC_2": "NA","name": "San_Mateo_Cajonos.county","area_km2": 14.72841,"hist_schema_id": "Elevation0-9000","hist_area_km2": {"825": 0.02026,"850": 0.18231,"875": 0.1418,"900": 0.26335,"925": 0.3444,"950": 0.40517,"975": 0.38491,"1000": 0.42543,"1025": 0.44568,"1050": 0.44569,"1075": 0.4862,"1100": 0.46595,"1125": 0.54699,"1150": 0.60776,"1175": 0.40519,"1200": 0.58751,"1225": 0.40518,"1250": 0.52674,"1275": 0.4457,"1300": 0.56725,"1325": 0.50648,"1350": 0.4457,"1375": 0.50648,"1400": 0.60778,"1425": 0.48623,"1450": 0.48623,"1475": 0.44572,"1500": 0.42546,"1525": 0.74963,"1550": 0.38494,"1575": 0.38494,"1600": 0.36468,"1625": 0.24311,"1650": 0.16208,"1675": 0.14182,"1700": 0.06078,"1725": 0.14182,"1750": 0.08104}}}