{"type":"Feature","properties":{"GID_2":"MEX.21.54_2","GID_0":"MEX","country":"México","GID_1":"MEX.21_1","province":"Puebla","NL_NAME_1":"NA","county":"CuapiaxtladeMadero","VARNAME_2":"NA","NL_NAME_2":"NA","TYPE_2":"Município","ENGTYPE_2":"Municipality","CC_2":"NA","HASC_2":"NA","name":"Cuapiaxtlade_Madero.county"},
"geometry":{"type": "MultiPolygon","coordinates": [[[[-97.8019,18.9205,2046.39],[-97.8194,18.9287,2075.623],[-97.82,18.9267,2076.3276],[-97.8271,18.9299,2089.6484],[-97.826,18.9324,2096.0303],[-97.8388,18.9383,2113.2827],[-97.8385,18.9456,2144.0256],[-97.8321,18.9477,2146.1123],[-97.8258,18.9463,2136.6021],[-97.8214,18.9529,2150.1355],[-97.8278,18.955,2160.4272],[-97.84,18.9626,2213.5557],[-97.8442,18.9595,2214.3208],[-97.8391,18.9536,2174.2952],[-97.8389,18.9513,2164.4478],[-97.8543,18.9395,2132.4492],[-97.8564,18.9354,2111.147],[-97.8494,18.9365,2111.6118],[-97.8448,18.9335,2101.7883],[-97.8412,18.9336,2099.582],[-97.8437,18.9238,2081.8535],[-97.8477,18.9252,2078.1787],[-97.8568,18.9237,2077.832],[-97.8547,18.9203,2069.7686],[-97.8569,18.9127,2059.3696],[-97.8541,18.9088,2054.9712],[-97.8407,18.9015,2040.6785],[-97.8327,18.8958,2030.6945],[-97.8332,18.8945,2027.9292],[-97.8294,18.8935,2023.2556],[-97.8242,18.9077,2043.1333],[-97.7876,18.8962,2008.5364],[-97.7858,18.9013,2013.2051],[-97.7885,18.9021,2015.8124],[-97.7888,18.9081,2020.4161],[-97.7872,18.9074,2020.4161],[-97.7863,18.9132,2026.2317],[-97.8019,18.9205,2046.39]]]]}}