{"type": "Feature","bbox": [-101.9968,19.2638,-101.7891,19.3874],"geometry": {"type": "MultiPolygon","coordinates": [[[[-101.8177,19.3085,1219.5452],[-101.8117,19.3164,1364.5366],[-101.8047,19.3189,1448.2249],[-101.806,19.3191,1436.229],[-101.8048,19.3249,1527.3726],[-101.801,19.331,1643.1278],[-101.8018,19.3363,1663.7797],[-101.7995,19.3399,1700.0428],[-101.7891,19.3482,1925.2216],[-101.794,19.3541,1773.6953],[-101.7973,19.3555,1768.937],[-101.8006,19.3614,1751.1433],[-101.8007,19.3656,1744.8416],[-101.8049,19.3651,1724.3643],[-101.8049,19.368,1719.5508],[-101.808,19.3696,1717.7322],[-101.8144,19.3698,1699.9058],[-101.8206,19.367,1669.3955],[-101.8251,19.3672,1664.2903],[-101.8338,19.3611,1593.0186],[-101.8339,19.3628,1595.0977],[-101.8358,19.3622,1597.0066],[-101.8375,19.3646,1593.3136],[-101.8434,19.3632,1562.014],[-101.8379,19.367,1597.2992],[-101.8376,19.3688,1632.7834],[-101.8412,19.3712,1631.0695],[-101.8385,19.3736,1640.7454],[-101.8373,19.3778,1583.4473],[-101.8382,19.3864,1604.0222],[-101.851,19.3863,1609.8359],[-101.8519,19.3842,1527.2231],[-101.8542,19.3872,1533.5535],[-101.8571,19.3874,1507.0496],[-101.8615,19.3801,1511.4874],[-101.8826,19.3821,1904.9512],[-101.8888,19.3759,1835.7419],[-101.9058,19.3734,1371.322],[-101.9154,19.3672,1264.4431],[-101.925,19.3675,1204.4291],[-101.9286,19.3629,1192.0488],[-101.9288,19.3692,1215.9436],[-101.9325,19.3714,1237.6567],[-101.9337,19.3765,1273.9113],[-101.9376,19.3792,1277.5701],[-101.9406,19.379,1274.6655],[-101.9483,19.3762,1278.5703],[-101.947,19.3709,1251.025],[-101.9516,19.3702,1229.4781],[-101.9525,19.3684,1223.8628],[-101.9535,19.3717,1225.4572],[-101.9554,19.372,1227.3328],[-101.9625,19.3714,1271.2195],[-101.9643,19.3699,1289.3876],[-101.9708,19.3705,1349.6652],[-101.9675,19.3609,1513.9425],[-101.9807,19.3595,1568.8896],[-101.9916,19.3533,1575.7988],[-101.9939,19.3457,1378.2667],[-101.9965,19.3434,1365.9625],[-101.9955,19.3393,1367.4788],[-101.9968,19.3334,1362.7114],[-101.9947,19.3314,1354.5833],[-101.9937,19.3257,1337.2654],[-101.991,19.3267,1300.0538],[-101.9906,19.3247,1281.0206],[-101.9868,19.3226,1276.7587],[-101.9775,19.3239,1225.5574],[-101.9742,19.3211,1201.4308],[-101.9684,19.3098,1066.6519],[-101.964,19.3049,968.8647],[-101.9641,19.2999,903.6223],[-101.9618,19.2931,824.4068],[-101.9539,19.2855,758.5356],[-101.9538,19.2814,721.019],[-101.9486,19.2774,698.1819],[-101.9499,19.2693,727.6434],[-101.9425,19.2647,678.4625],[-101.9381,19.2704,778.2992],[-101.9331,19.2711,786.7999],[-101.9317,19.2733,792.8918],[-101.9246,19.2763,810.592],[-101.9225,19.2766,820.4969],[-101.9197,19.2746,816.9722],[-101.9159,19.277,825.6282],[-101.9105,19.2763,848.4155],[-101.9065,19.278,867.1417],[-101.9031,19.2759,888.5792],[-101.9008,19.2708,932.1557],[-101.8982,19.2711,944.2946],[-101.8966,19.2673,944.1524],[-101.8936,19.2663,899.8885],[-101.8922,19.2674,904.4479],[-101.8862,19.2638,909.3803],[-101.8827,19.2662,922.0107],[-101.8822,19.2722,920.0244],[-101.8743,19.2732,872.5854],[-101.8718,19.275,872.2052],[-101.8651,19.2742,857.4868],[-101.8616,19.2754,853.3592],[-101.8584,19.2796,828.3569],[-101.8563,19.2794,839.4678],[-101.8551,19.2835,851.4167],[-101.8515,19.2858,875.98],[-101.8505,19.2897,892.9778],[-101.845,19.2943,958.3813],[-101.8404,19.3029,992.0175],[-101.8389,19.3027,992.0175],[-101.8403,19.3078,1034.9398],[-101.8396,19.3067,1045.0266],[-101.8342,19.3083,1172.1836],[-101.8202,19.307,1236.0024],[-101.8193,19.3058,1236.0024],[-101.8177,19.3085,1219.5452]]]]}
,"properties": {"GID_2": "MEX.16.88_2","GID_0": "MEX","country": "México","GID_1": "MEX.16_1","province": "Michoacán","NL_NAME_1": "NA","county": "Taretan","VARNAME_2": "NA","NL_NAME_2": "NA","TYPE_2": "Município","ENGTYPE_2": "Municipality","CC_2": "NA","HASC_2": "NA","name": "Taretan.county","area_km2": 185.5256,"hist_schema_id": "Elevation0-9000","hist_area_km2": {"650": 0.1601,"675": 0.4203,"700": 0.2402,"725": 0.4203,"750": 0.3202,"775": 0.6804,"800": 2.8818,"825": 3.4621,"850": 3.6021,"875": 4.1825,"900": 5.0029,"925": 6.8639,"950": 8.3045,"975": 7.0836,"1000": 7.7039,"1025": 6.0429,"1050": 6.3828,"1075": 6.7626,"1100": 7.9428,"1125": 8.5829,"1150": 6.6821,"1175": 6.0818,"1200": 5.5816,"1225": 6.4617,"1250": 6.9017,"1275": 7.6617,"1300": 5.5215,"1325": 4.8212,"1350": 4.2811,"1375": 3.8209,"1400": 2.6806,"1425": 2.9207,"1450": 2.7006,"1475": 2.7206,"1500": 3.0406,"1525": 3.2606,"1550": 3.4005,"1575": 2.9605,"1600": 3.1405,"1625": 2.8605,"1650": 2.1403,"1675": 1.6603,"1700": 2.3004,"1725": 1.5203,"1750": 1.3603,"1775": 0.6801,"1800": 0.4001,"1825": 0.4201,"1850": 0.2,"1875": 0.12,"1900": 0.12,"1925": 0.04,"1950": 0.02}}}