{"type": "Feature","bbox": [-95.3315,16.4578,-95.1752,16.5749],"geometry": {"type": "MultiPolygon","coordinates": [[[[-95.2023,16.5355,151.8006],[-95.2659,16.5444,862.0562],[-95.3315,16.5749,442.946],[-95.3286,16.5495,597.5668],[-95.3217,16.5171,458.5948],[-95.319,16.4957,883.8218],[-95.2746,16.4848,631.8463],[-95.2634,16.4715,959.3425],[-95.2428,16.4578,831.9076],[-95.1972,16.4621,96.6373],[-95.1882,16.4662,93.1888],[-95.1898,16.476,100.1458],[-95.1887,16.4761,100.1458],[-95.1881,16.488,93.6013],[-95.185,16.4885,90.3229],[-95.1847,16.4909,86.8998],[-95.1792,16.4899,81.3782],[-95.1789,16.4922,81.7084],[-95.1755,16.494,76.945],[-95.1752,16.5001,83.9187],[-95.1793,16.5021,81.8528],[-95.18,16.5083,85.6979],[-95.183,16.5138,87.696],[-95.1775,16.5277,90.1247],[-95.1813,16.5313,105.3541],[-95.1815,16.5335,111.125],[-95.1801,16.5339,117.2043],[-95.1826,16.5388,130.1043],[-95.2023,16.5355,151.8006]]]]}
,"properties": {"GID_2": "MEX.20.58_2","GID_0": "MEX","country": "México","GID_1": "MEX.20_1","province": "Oaxaca","NL_NAME_1": "NA","county": "MagdalenaTlacotepec","VARNAME_2": "NA","NL_NAME_2": "NA","TYPE_2": "Município","ENGTYPE_2": "Municipality","CC_2": "NA","HASC_2": "NA","name": "Magdalena_Tlacotepec.county","area_km2": 124.69162,"hist_schema_id": "Elevation0-9000","hist_area_km2": {"75": 1.36205,"100": 11.09975,"125": 5.83452,"150": 4.22841,"175": 4.1879,"200": 3.8219,"225": 4.37077,"250": 4.35036,"275": 3.23222,"300": 3.51686,"325": 3.61844,"350": 4.47215,"375": 4.20789,"400": 3.82163,"425": 3.92321,"450": 3.67929,"475": 2.90684,"500": 3.55729,"525": 3.17112,"550": 2.96774,"575": 3.15065,"600": 2.72385,"625": 2.64245,"650": 2.39855,"675": 2.33751,"700": 1.97169,"725": 2.19523,"750": 2.15466,"775": 1.91073,"800": 1.70745,"825": 1.68711,"850": 2.29693,"875": 2.09374,"900": 2.43946,"925": 2.25644,"950": 2.29705,"975": 2.07337,"1000": 1.7074,"1025": 0.81301,"1050": 0.67072,"1075": 0.30487,"1100": 0.30487,"1125": 0.06098,"1150": 0.04065,"1175": 0.0813,"1200": 0.02033,"1225": 0.02033}}}