{"type": "Feature","bbox": [-100.4842,19.0291,-100.3131,19.3222],"geometry": {"type": "MultiPolygon","coordinates": [[[[-100.318,19.3181,2544.2861],[-100.3219,19.3191,2429.6035],[-100.3221,19.3213,2432.1177],[-100.3228,19.3197,2455.2905],[-100.3455,19.3147,2317.1455],[-100.3663,19.3222,1945.1324],[-100.3817,19.315,1696.2711],[-100.384,19.3133,1682.3058],[-100.3792,19.3043,1771.4141],[-100.3821,19.3036,1805.2006],[-100.3856,19.2983,1858.849],[-100.3827,19.2965,1871.2527],[-100.3846,19.2946,1872.0198],[-100.3851,19.2903,1898.0403],[-100.3827,19.2869,1917.3751],[-100.38,19.2723,1993.5118],[-100.3881,19.2675,2134.1289],[-100.3895,19.2648,2200.7996],[-100.3981,19.2692,2004.7885],[-100.4265,19.268,1524.6174],[-100.4273,19.269,1508.3032],[-100.4335,19.2682,1415.0814],[-100.4385,19.2657,1367.901],[-100.4431,19.2664,1303.1021],[-100.4395,19.2587,1310.2909],[-100.442,19.2586,1294.1714],[-100.443,19.2563,1246.0818],[-100.4458,19.2563,1222.4875],[-100.4498,19.2512,1176.9331],[-100.4579,19.2534,1244.8702],[-100.4578,19.2514,1244.6025],[-100.4636,19.2501,1236.3508],[-100.4624,19.2484,1250.6141],[-100.4654,19.2471,1229.7876],[-100.4645,19.2461,1233.041],[-100.4712,19.2399,1174.1404],[-100.4696,19.2372,1154.7324],[-100.4711,19.2354,1007.9449],[-100.4706,19.227,917.3845],[-100.4708,19.2255,917.3845],[-100.4747,19.2233,970.8369],[-100.4742,19.2188,897.7589],[-100.4763,19.2202,854.1762],[-100.4796,19.2188,957.0608],[-100.4799,19.2205,1020.0148],[-100.4842,19.2187,931.3519],[-100.4829,19.2154,857.6055],[-100.476,19.2144,815.0068],[-100.4735,19.2119,884.9701],[-100.472,19.2146,857.6717],[-100.4684,19.2093,909.5508],[-100.4657,19.2111,897.6108],[-100.4615,19.2069,913.9333],[-100.4644,19.2032,1071.8914],[-100.4607,19.1871,922.4854],[-100.4575,19.1849,986.9734],[-100.4571,19.1826,951.9196],[-100.4561,19.1834,951.9196],[-100.4547,19.1818,967.4608],[-100.4551,19.1786,1002.4027],[-100.451,19.1788,1028.1709],[-100.4499,19.1755,1030.9711],[-100.4467,19.1732,1032.3276],[-100.4479,19.1691,1054.6625],[-100.446,19.1676,1064.7589],[-100.4444,19.1508,1321.4128],[-100.4517,19.141,1100.9355],[-100.4645,19.1388,1131.8015],[-100.4723,19.1397,1024.8127],[-100.4756,19.1379,923.3959],[-100.476,19.1349,879.5157],[-100.4802,19.1361,818.5917],[-100.4786,19.1322,817.068],[-100.4734,19.1281,867.8816],[-100.474,19.1239,895.0883],[-100.4702,19.1223,944.1853],[-100.4684,19.118,971.3168],[-100.4688,19.1145,974.7587],[-100.4743,19.1088,987.647],[-100.477,19.103,935.7333],[-100.4704,19.0801,874.361],[-100.4725,19.0774,870.6738],[-100.4763,19.0793,817.9457],[-100.4752,19.0766,791.7096],[-100.4775,19.0755,754.3126],[-100.4755,19.0611,754.0906],[-100.4767,19.0582,701.5013],[-100.4759,19.0469,674.5834],[-100.474,19.0437,637.5557],[-100.4766,19.0376,581.7491],[-100.4799,19.0358,576.9351],[-100.4796,19.0323,563.0511],[-100.4755,19.0342,571.6166],[-100.4687,19.0291,580.0755],[-100.4656,19.0317,569.3357],[-100.4613,19.0315,590.1805],[-100.459,19.033,602.6042],[-100.4579,19.041,601.7402],[-100.4536,19.0424,608.4938],[-100.4512,19.0478,620.0833],[-100.4456,19.0454,637.2017],[-100.4484,19.049,623.7226],[-100.4471,19.052,653.0765],[-100.4396,19.0543,633.1545],[-100.4362,19.0579,633.0259],[-100.4314,19.0549,661.4253],[-100.4317,19.0607,720.9036],[-100.4205,19.061,646.325],[-100.4198,19.0659,662.2537],[-100.4119,19.0634,670.6243],[-100.4104,19.0642,693.5197],[-100.4126,19.0667,661.0497],[-100.4118,19.0722,656.7781],[-100.4105,19.0745,660.2186],[-100.4075,19.0756,685.423],[-100.4089,19.0789,738.6034],[-100.4068,19.0805,719.3462],[-100.4107,19.084,718.3167],[-100.4048,19.0933,730.2911],[-100.4066,19.0961,786.413],[-100.4039,19.0979,731.7549],[-100.4029,19.1038,745.6454],[-100.4055,19.1041,737.8243],[-100.4067,19.1059,753.0948],[-100.4039,19.1077,753.467],[-100.4044,19.1095,732.6627],[-100.3991,19.1105,737.2536],[-100.3976,19.1162,762.3732],[-100.3952,19.1179,768.5726],[-100.3946,19.1217,752.6467],[-100.3963,19.1234,799.1974],[-100.3921,19.1246,811.2909],[-100.3939,19.1276,752.8546],[-100.3915,19.1284,772.7029],[-100.3882,19.1368,784.9251],[-100.3895,19.1429,797.4103],[-100.3865,19.1451,801.8721],[-100.3861,19.1475,832.1409],[-100.3829,19.1476,804.1788],[-100.3797,19.1515,808.8983],[-100.376,19.1515,823.2185],[-100.3731,19.1486,842.6915],[-100.3692,19.1505,867.1747],[-100.3667,19.1497,850.2714],[-100.3664,19.1534,845.1116],[-100.3637,19.1521,859.8247],[-100.3616,19.1547,905.7162],[-100.3782,19.1711,1381.2101],[-100.3711,19.1775,1541.8643],[-100.3731,19.1942,1468.3713],[-100.3701,19.1944,1469.6145],[-100.3626,19.2029,1715.5334],[-100.3592,19.203,1768.3368],[-100.3603,19.2051,1772.1827],[-100.3336,19.2309,1897.4832],[-100.3313,19.2305,1875.1036],[-100.3225,19.2507,1917.2174],[-100.3199,19.253,1949.3923],[-100.3217,19.2563,1982.1377],[-100.3197,19.2618,2091.9766],[-100.3211,19.2671,2115.0703],[-100.3205,19.2803,2340.7742],[-100.3153,19.2874,2773.7017],[-100.3201,19.2889,2738.6641],[-100.3201,19.2909,2700.5364],[-100.3131,19.2973,2637.9907],[-100.3207,19.3068,2484.967],[-100.3233,19.3068,2419.0632],[-100.3206,19.3153,2528.5408],[-100.318,19.3181,2544.2861]]]]}
,"properties": {"GID_2": "MEX.16.82_2","GID_0": "MEX","country": "México","GID_1": "MEX.16_1","province": "Michoacán","NL_NAME_1": "NA","county": "Susupuato","VARNAME_2": "NA","NL_NAME_2": "NA","TYPE_2": "Município","ENGTYPE_2": "Municipality","CC_2": "NA","HASC_2": "NA","name": "Susupuato.county","area_km2": 268.8012,"hist_schema_id": "Elevation0-9000","hist_area_km2": {"550": 0.0401,"575": 0.461,"600": 0.4409,"625": 0.8017,"650": 0.8618,"675": 1.1423,"700": 1.4429,"725": 1.2024,"750": 2.0238,"775": 2.4646,"800": 3.306,"825": 4.6281,"850": 4.8883,"875": 5.7497,"900": 7.853,"925": 6.2503,"950": 7.9528,"975": 8.7936,"1000": 9.5544,"1025": 9.9145,"1050": 10.0943,"1075": 9.0127,"1100": 8.1912,"1125": 7.1898,"1150": 6.9892,"1175": 5.8875,"1200": 5.4867,"1225": 4.6052,"1250": 4.9655,"1275": 4.2847,"1300": 3.3237,"1325": 3.784,"1350": 3.6238,"1375": 3.7238,"1400": 3.1633,"1425": 2.9029,"1450": 3.2232,"1475": 2.4425,"1500": 2.4024,"1525": 3.5036,"1550": 3.0431,"1575": 2.7428,"1600": 3.2232,"1625": 2.8428,"1650": 2.5425,"1675": 2.4023,"1700": 2.7826,"1725": 2.9427,"1750": 3.6033,"1775": 2.7223,"1800": 2.5821,"1825": 2.4419,"1850": 2.7221,"1875": 3.4426,"1900": 3.7828,"1925": 4.0029,"1950": 4.2428,"1975": 4.1628,"2000": 5.1835,"2025": 4.3629,"2050": 3.1621,"2075": 2.982,"2100": 3.1021,"2125": 2.5016,"2150": 1.8612,"2175": 1.3208,"2200": 1.1207,"2225": 0.7004,"2250": 0.8605,"2275": 0.8405,"2300": 1.0606,"2325": 0.8004,"2350": 0.4803,"2375": 0.6003,"2400": 0.4802,"2425": 0.4602,"2450": 0.4602,"2475": 0.3202,"2500": 0.4202,"2525": 0.1801,"2550": 0.2001,"2575": 0.1001,"2600": 0.1601,"2625": 0.06,"2650": 0.06,"2675": 0.04,"2700": 0.06,"2775": 0.02,"2800": 0.02,"2825": 0.02}}}