{"type":"Feature","properties":{"GID_2":"MEX.7.36_2","GID_0":"MEX","country":"México","GID_1":"MEX.7_1","province":"Coahuila","NL_NAME_1":"NA","county":"Viesca","VARNAME_2":"NA","NL_NAME_2":"NA","TYPE_2":"Município","ENGTYPE_2":"Municipality","CC_2":"NA","HASC_2":"NA","name":"Viesca.county"},
"geometry":{"type": "MultiPolygon","coordinates": [[[[-103.3369,25.3713,1154.2246],[-103.3419,25.3704,1155.5858],[-103.3512,25.373,1156.3031],[-103.3575,25.3816,1158.5256],[-103.3579,25.3849,1157.8096],[-103.3664,25.3934,1160.0377],[-103.3703,25.3937,1160.4794],[-103.3717,25.3905,1160.4265],[-103.3805,25.391,1163.7628],[-103.3905,25.3974,1167.235],[-103.3973,25.3953,1167.5361],[-103.4067,25.3989,1170.3241],[-103.4092,25.3962,1169.2424],[-103.4169,25.3937,1188.8767],[-103.4198,25.3943,1170.8489],[-103.4245,25.39,1172.3842],[-103.4299,25.389,1175.0706],[-103.4335,25.3863,1175.0676],[-103.4449,25.384,1176.5789],[-103.448,25.3811,1178.1984],[-103.4579,25.3781,1176.5134],[-103.4576,25.3761,1174.4348],[-103.4623,25.3762,1176.7166],[-103.4611,25.3706,1178.9307],[-103.4659,25.3598,1181.1895],[-103.4662,25.3523,1189.2136],[-103.4692,25.3501,1185.3381],[-103.4709,25.3453,1187.03],[-103.4787,25.3382,1190.2056],[-103.4804,25.3343,1190.4454],[-103.4865,25.3329,1188.0239],[-103.4865,25.3308,1188.1055],[-103.4797,25.3262,1192.7899],[-103.4793,25.3239,1193.0635],[-103.4858,25.3148,1196.8271],[-103.4936,25.3117,1198.9259],[-103.4664,25.2768,1251.7385],[-103.4442,25.2791,1437.9325],[-103.4701,25.301,1321.5735],[-103.4413,25.3212,1316.7573],[-103.428,25.3011,1676.9165],[-103.3861,25.2743,1448.1459],[-103.3758,25.2734,1373.3281],[-103.3456,25.2591,1419.6785],[-103.3462,25.223,2356.1938],[-103.1959,25.1945,1688.5796],[-103.1904,25.1603,2420.3118],[-103.1215,25.1166,1558.6182],[-103.1038,25.1118,1528.1401],[-103.0975,25.0418,1447.2917],[-103.0977,25.024,1452.2498],[-103.0632,25.0094,1479.6163],[-103.0449,24.9858,1531.8882],[-103.0191,24.9716,1543.0817],[-103.0691,24.9738,1691.6025],[-103.0383,24.9619,1585.847],[-103.0444,24.9406,1637.2798],[-103.0536,24.925,1785.7303],[-102.957,24.8647,1505.3721],[-102.9568,24.8317,1459.9237],[-102.993,24.8143,1458.1174],[-102.9887,24.7962,1436.2886],[-102.9751,24.7994,1438.424],[-102.9746,24.7928,1439.1653],[-102.965,24.794,1441.4655],[-102.9635,24.788,1446.1274],[-102.9458,24.7786,1451.1455],[-102.9372,24.7778,1454.3296],[-102.9355,24.7801,1452.0168],[-102.9326,24.778,1455.3292],[-102.923,24.7802,1453.9927],[-102.9222,24.7734,1461.4802],[-102.9199,24.7729,1458.1655],[-102.916,24.7761,1459.3514],[-102.9075,24.7679,1464.0199],[-102.9002,24.7647,1463.9409],[-102.8954,24.766,1464.4779],[-102.8905,24.7603,1468.6807],[-102.8863,24.7582,1471.1099],[-102.8832,24.7506,1469.4885],[-102.8751,24.7489,1473.6343],[-102.8697,24.7421,1472.0935],[-102.8564,24.7398,1477.3881],[-102.8531,24.772,1652.1533],[-102.6697,25.0666,1515.2429],[-102.4468,24.9995,1618.5356],[-102.4633,25.1159,1685.3462],[-102.5363,25.2013,1789.1367],[-102.5453,25.2212,1360.8273],[-102.5562,25.2396,1200.7328],[-102.6049,25.2568,1128.9331],[-102.6992,25.373,1090.0259],[-102.6974,25.3742,1117.1761],[-102.698,25.3946,1090.4923],[-102.7042,25.4683,1090.6072],[-102.7069,25.473,1090.915],[-102.7919,25.484,1247.6255],[-102.7795,25.5258,2007.1653],[-102.9047,25.5572,1099.202],[-102.886,25.6232,1103.2902],[-103.0321,25.6349,1101.7489],[-103.0745,25.5971,1105.6289],[-103.0806,25.6027,1104.9717],[-103.0951,25.5998,1109.3296],[-103.0894,25.5835,1130.625],[-103.0847,25.5752,1127.5897],[-103.0871,25.5705,1155.6853],[-103.0862,25.5482,1104.8539],[-103.082,25.5476,1104.8354],[-103.0897,25.5025,1105.1688],[-103.0812,25.5015,1104.1624],[-103.0811,25.4922,1104.1309],[-103.0842,25.4743,1105.9375],[-103.0941,25.4757,1106.8457],[-103.1097,25.3906,1108.8945],[-103.1236,25.394,1111.8259],[-103.1243,25.3912,1111.8942],[-103.138,25.3934,1113.751],[-103.1383,25.4025,1113.8442],[-103.1454,25.4068,1114.9646],[-103.1607,25.4068,1118.2378],[-103.1601,25.4085,1118.243],[-103.1649,25.4087,1118.885],[-103.1644,25.4115,1118.9989],[-103.2659,25.4148,1138.8752],[-103.3071,25.3897,1147.8081],[-103.3071,25.387,1148.5116],[-103.3115,25.3821,1149.2102],[-103.3169,25.3826,1150.5128],[-103.319,25.377,1152.0702],[-103.3242,25.3724,1154.1848],[-103.3283,25.3711,1153.3245],[-103.3312,25.3745,1156.0714],[-103.3369,25.3713,1154.2246]]]]}}