{"type": "Feature","bbox": [-97.445,16.2677,-97.2406,16.4426],"geometry": {"type": "MultiPolygon","coordinates": [[[[-97.3097,16.3872,778.2079],[-97.3142,16.3851,660.9799],[-97.3205,16.387,666.0103],[-97.3198,16.3911,639.7148],[-97.3159,16.3955,650.547],[-97.3102,16.3973,637.2807],[-97.3115,16.402,615.796],[-97.3185,16.4019,639.3832],[-97.3201,16.3982,644.039],[-97.3235,16.3956,617.4785],[-97.3281,16.3983,603.4857],[-97.3286,16.4058,608.0637],[-97.3205,16.4112,572.699],[-97.3224,16.4167,578.5884],[-97.3254,16.4178,588.9937],[-97.3307,16.4156,563.6541],[-97.3337,16.423,588.4353],[-97.3425,16.42,575.0683],[-97.3453,16.417,564.0954],[-97.3519,16.4199,543.134],[-97.3607,16.4187,533.2156],[-97.3641,16.4231,516.5533],[-97.3654,16.4292,509.7765],[-97.3722,16.4311,511.3806],[-97.3787,16.4398,517.8666],[-97.3791,16.4426,562.549],[-97.3833,16.4257,806.3119],[-97.3945,16.3974,1323.0625],[-97.3971,16.3949,1099.2169],[-97.4023,16.3951,980.1636],[-97.4143,16.3897,1323.4487],[-97.4273,16.3805,1642.938],[-97.4317,16.3793,1805.6211],[-97.4362,16.3733,2025.1475],[-97.4319,16.3641,1925.0414],[-97.4334,16.3556,1810.2188],[-97.4404,16.3506,1755.5615],[-97.445,16.339,1536.0317],[-97.4371,16.3354,1310.2131],[-97.4397,16.2764,599.3321],[-97.4289,16.2857,591.605],[-97.4249,16.2928,613.768],[-97.4269,16.2995,644.8337],[-97.4329,16.3049,706.6782],[-97.4266,16.3084,789.0628],[-97.4217,16.309,808.7374],[-97.4192,16.3085,761.7529],[-97.4159,16.3032,617.4871],[-97.4108,16.303,692.0862],[-97.4022,16.3075,702.7007],[-97.3725,16.3097,855.225],[-97.3748,16.3071,847.1455],[-97.3736,16.305,893.2142],[-97.3653,16.2997,993.5067],[-97.3651,16.2956,1151.0389],[-97.3555,16.2852,1323.2249],[-97.3534,16.2777,1049.7921],[-97.3534,16.2683,955.1002],[-97.352,16.2701,950.4374],[-97.3257,16.2775,1504.7468],[-97.3225,16.2751,1451.8744],[-97.3238,16.2677,1623.0896],[-97.2575,16.2848,2326.7686],[-97.2565,16.2961,1839.0504],[-97.2406,16.3119,2039.9253],[-97.242,16.3228,1789.9679],[-97.2638,16.3154,1702.0574],[-97.2955,16.3187,1243.2593],[-97.2954,16.3224,1201.5405],[-97.2897,16.3308,1119.0427],[-97.2919,16.3361,1027.5524],[-97.2879,16.3396,948.3812],[-97.2882,16.3454,928.5446],[-97.3097,16.3396,1423.3008],[-97.3102,16.3359,1475.6758],[-97.3178,16.3314,1593.0314],[-97.3203,16.3339,1798.6182],[-97.3221,16.3466,1493.6573],[-97.3192,16.3532,1329.3127],[-97.3202,16.3548,1287.4441],[-97.3124,16.362,1221.2549],[-97.3133,16.3653,1192.5308],[-97.3075,16.3739,1107.2942],[-97.308,16.3866,723.9108],[-97.3097,16.3872,778.2079]]]]}
,"properties": {"GID_2": "MEX.20.217_2","GID_0": "MEX","country": "México","GID_1": "MEX.20_1","province": "Oaxaca","NL_NAME_1": "NA","county": "SanJuanQuiahije","VARNAME_2": "NA","NL_NAME_2": "NA","TYPE_2": "Município","ENGTYPE_2": "Municipality","CC_2": "NA","HASC_2": "NA","name": "San_Juan_Quiahije.county","area_km2": 204.6972,"hist_schema_id": "Elevation0-9000","hist_area_km2": {"475": 0.0407,"500": 0.3254,"525": 0.5696,"550": 0.7323,"575": 0.956,"600": 1.1188,"625": 1.1189,"650": 1.5664,"675": 1.831,"700": 1.7496,"725": 2.0141,"750": 2.1972,"775": 2.3396,"800": 2.1768,"825": 2.1973,"850": 2.5024,"875": 2.4209,"900": 2.5634,"925": 3.0923,"950": 2.6854,"975": 2.6855,"1000": 2.7464,"1025": 2.4617,"1050": 2.787,"1075": 3.0313,"1100": 3.1127,"1125": 3.1534,"1150": 3.011,"1175": 3.6823,"1200": 3.4586,"1225": 3.8249,"1250": 4.7404,"1275": 4.2927,"1300": 5.127,"1325": 4.9641,"1350": 4.8829,"1375": 5.2287,"1400": 4.7811,"1425": 5.2084,"1450": 5.2491,"1475": 5.0456,"1500": 5.6357,"1525": 5.6763,"1550": 5.6764,"1575": 6.0629,"1600": 6.0427,"1625": 6.1241,"1650": 4.944,"1675": 4.7203,"1700": 4.6593,"1725": 3.6828,"1750": 3.0317,"1775": 3.4997,"1800": 2.7876,"1825": 3.0115,"1850": 2.3196,"1875": 1.9127,"1900": 1.8924,"1925": 1.9739,"1950": 1.3227,"1975": 1.567,"2000": 1.4449,"2025": 1.2414,"2050": 0.9565,"2075": 1.1397,"2100": 0.753,"2125": 0.8954,"2150": 0.7123,"2175": 0.7123,"2200": 0.5088,"2225": 0.5291,"2250": 0.3663,"2275": 0.2646,"2300": 0.2849,"2325": 0.2849,"2350": 0.1425,"2375": 0.1832,"2400": 0.0204,"2425": 0.0407}}}