{"type":"Feature","properties":{"GID_2":"MEX.15.117_2","GID_0":"MEX","country":"México","GID_1":"MEX.15_1","province":"México","NL_NAME_1":"NA","county":"VillaGuerrero","VARNAME_2":"NA","NL_NAME_2":"NA","TYPE_2":"Município","ENGTYPE_2":"Municipality","CC_2":"NA","HASC_2":"NA","name":"Villa_Guerrero.county"},
"geometry":{"type": "MultiPolygon","coordinates": [[[[-99.7204,18.8993,2435.5447],[-99.7191,18.8982,2419.7888],[-99.7151,18.8991,2392.3247],[-99.7176,18.903,2433.5952],[-99.717,18.9056,2380.2288],[-99.7152,18.9073,2416.2805],[-99.7147,18.9112,2388.9563],[-99.7104,18.9131,2305.5854],[-99.701,18.9119,2095.4634],[-99.6937,18.9072,1969.2682],[-99.6879,18.9068,1949.9215],[-99.683,18.9025,1914.9204],[-99.6824,18.9059,1939.1786],[-99.6712,18.9042,1909.4894],[-99.6657,18.8985,1855.5776],[-99.6625,18.8978,1838.668],[-99.6613,18.8949,1845.5745],[-99.6594,18.8955,1891.6945],[-99.6608,18.8939,1845.5745],[-99.6603,18.8918,1887.6178],[-99.6577,18.8941,1874.729],[-99.652,18.8898,1805.7917],[-99.6517,18.8818,1809.377],[-99.6473,18.8819,1744.3679],[-99.644,18.8738,1744.9282],[-99.6404,18.8734,1700.0303],[-99.636,18.8663,1712.3339],[-99.6331,18.8671,1720.6042],[-99.6331,18.8641,1748.7809],[-99.6311,18.8641,1677.1777],[-99.6316,18.8618,1670.958],[-99.63,18.8625,1701.4946],[-99.6287,18.8561,1673.0784],[-99.624,18.8495,1696.894],[-99.6261,18.8477,1648.1462],[-99.624,18.8451,1656.5316],[-99.6247,18.8414,1621.3668],[-99.6216,18.8398,1666.5791],[-99.6214,18.8312,1581.1132],[-99.6194,18.8328,1610.2987],[-99.6183,18.8304,1607.5795],[-99.6195,18.8287,1586.5522],[-99.6134,18.8243,1530.0636],[-99.6123,18.8197,1561.4451],[-99.6095,18.8197,1517.855],[-99.6112,18.8174,1529.0964],[-99.6094,18.8163,1565.675],[-99.6075,18.8174,1495.1997],[-99.6087,18.8223,1554.0953],[-99.6074,18.8247,1503.3394],[-99.6073,18.8333,1637.5663],[-99.6101,18.8396,1653.6534],[-99.6084,18.8408,1673.4448],[-99.6082,18.8446,1632.4819],[-99.6134,18.8553,1618.666],[-99.6126,18.8569,1636.5444],[-99.6152,18.8644,1688.4517],[-99.6138,18.8795,1719.7762],[-99.616,18.8839,1781.6489],[-99.6152,18.8905,1814.089],[-99.6223,18.9014,1840.213],[-99.6253,18.9124,1861.5308],[-99.625,18.9236,1918.1003],[-99.6231,18.9239,1848.8129],[-99.6225,18.9279,1827.4812],[-99.6237,18.929,1937.3069],[-99.6235,18.9336,1856.7014],[-99.6253,18.9349,1974.4393],[-99.6252,18.9413,2000.9888],[-99.6222,18.9464,1900.734],[-99.6153,18.9515,1920.9974],[-99.6177,18.958,1966.8894],[-99.6207,18.9581,2025.1577],[-99.6205,18.9609,1989.597],[-99.6233,18.9607,1979.7865],[-99.6252,18.964,2043.9623],[-99.6336,18.9684,2078.5811],[-99.6356,18.9666,2070.8223],[-99.6398,18.9699,2073.061],[-99.6432,18.9767,2223.0374],[-99.6431,18.9801,2215.9138],[-99.638,18.981,2170.7668],[-99.6388,18.9841,2204.7095],[-99.6367,18.9874,2248.1548],[-99.6383,19.0058,2410.6958],[-99.6358,19.0093,2555.8767],[-99.6355,19.0133,2644.0447],[-99.6382,19.0308,2857.2197],[-99.6467,19.0293,2756.9133],[-99.6555,19.03,2527.5527],[-99.6573,19.0419,2651.1682],[-99.6552,19.0486,2688.375],[-99.6561,19.0579,2721.7419],[-99.6654,19.0549,2937.3872],[-99.6764,19.0546,3221.6121],[-99.7119,19.0603,3470.7273],[-99.7177,19.0597,3633.6714],[-99.7171,19.0563,3672.6372],[-99.7238,19.0639,3593.4983],[-99.732,19.0664,3622.8982],[-99.7715,19.0651,3443.7456],[-99.7692,19.0357,3046.7314],[-99.7729,19.0274,2950.9302],[-99.7711,19.0204,2827.7332],[-99.7662,19.0132,2810.8699],[-99.7666,19.0062,2641.9734],[-99.7648,19.004,2613.0647],[-99.7661,19.0026,2614.4893],[-99.7622,18.9969,2556.7446],[-99.749,18.989,2473.7095],[-99.7492,18.9868,2524.6621],[-99.7462,18.9821,2422.9668],[-99.7468,18.9727,2472.5808],[-99.7392,18.9641,2450.2283],[-99.729,18.9691,2358.4219],[-99.7243,18.9646,2283.6616],[-99.7324,18.9596,2371.2595],[-99.7238,18.9516,2211.9548],[-99.7394,18.9433,2346.188],[-99.7399,18.9325,2427.9639],[-99.7328,18.9282,2451.8967],[-99.7217,18.9063,2447.5784],[-99.7204,18.8993,2435.5447]]]]}}