{"type": "Feature","bbox": [-98.1551,20.1703,-98.0509,20.3055],"geometry": {"type": "MultiPolygon","coordinates": [[[[-98.1298,20.1766,2122.9429],[-98.1265,20.1779,2106.6626],[-98.1237,20.1764,2119.5334],[-98.1234,20.1703,2188.1104],[-98.1195,20.1724,2097.4031],[-98.117,20.1799,2033.0992],[-98.1127,20.1824,2030.9753],[-98.1095,20.1863,2128.1677],[-98.1094,20.1887,2159.4629],[-98.1049,20.1919,2173.6294],[-98.099,20.202,1813.7859],[-98.1006,20.2069,1702.2742],[-98.0995,20.2124,1580.136],[-98.1039,20.2229,1509.0288],[-98.1024,20.23,1474.1436],[-98.0987,20.2325,1466.8356],[-98.1004,20.2369,1451.4658],[-98.0959,20.2404,1297.8059],[-98.0928,20.2395,1244.1859],[-98.091,20.2422,1265.6779],[-98.0869,20.2421,1128.4581],[-98.0828,20.2447,1036.4132],[-98.0785,20.2514,921.4537],[-98.0733,20.2526,956.8291],[-98.0681,20.2637,830.9337],[-98.0589,20.2662,739.5986],[-98.0601,20.2703,743.4781],[-98.0567,20.2743,765.0283],[-98.0571,20.2786,794.9841],[-98.0555,20.2819,702.0646],[-98.0509,20.2881,632.4035],[-98.0511,20.2943,567.2021],[-98.0562,20.2946,577.9324],[-98.059,20.2987,617.5915],[-98.0656,20.3003,683.8961],[-98.0714,20.3041,655.8451],[-98.0795,20.3028,606.2653],[-98.0852,20.3054,623.9308],[-98.0866,20.3039,621.0279],[-98.0902,20.3055,640.4042],[-98.0938,20.3046,638.7377],[-98.1041,20.2982,672.5469],[-98.105,20.2964,656.8432],[-98.1029,20.2859,713.0447],[-98.1039,20.284,741.8241],[-98.1025,20.2821,741.3569],[-98.1053,20.2803,741.8203],[-98.1046,20.2763,729.3483],[-98.1115,20.2612,782.2],[-98.1171,20.2564,865.2972],[-98.1175,20.2536,836.4991],[-98.1201,20.2529,834.2596],[-98.1195,20.2499,840.4738],[-98.1317,20.2428,923.6434],[-98.136,20.2345,990.6107],[-98.1351,20.2335,1024.8154],[-98.1388,20.2315,1060.5616],[-98.1382,20.2291,1088.2595],[-98.1402,20.2269,1193.4568],[-98.1392,20.2257,1193.4568],[-98.1424,20.2219,1322.344],[-98.1451,20.2202,1345.1812],[-98.1502,20.2213,1324.5325],[-98.1551,20.2172,1377.5272],[-98.1529,20.2125,1414.0704],[-98.1539,20.2086,1499.4653],[-98.1514,20.2079,1479.0952],[-98.1438,20.1995,1575.8491],[-98.1389,20.1998,1639.948],[-98.1349,20.1909,1723.4268],[-98.1296,20.1887,1786.1741],[-98.1275,20.1826,1954.9923],[-98.1318,20.1787,2096.4111],[-98.1298,20.1766,2122.9429]]]]}
,"properties": {"GID_2": "MEX.21.102_2","GID_0": "MEX","country": "México","GID_1": "MEX.21_1","province": "Puebla","NL_NAME_1": "NA","county": "Naupan","VARNAME_2": "NA","NL_NAME_2": "NA","TYPE_2": "Município","ENGTYPE_2": "Municipality","CC_2": "NA","HASC_2": "NA","name": "Naupan.county","area_km2": 61.20875,"hist_schema_id": "Elevation0-9000","hist_area_km2": {"550": 0.01989,"575": 0.09943,"600": 0.21874,"625": 0.25851,"650": 0.19886,"675": 0.29828,"700": 0.35794,"725": 0.47728,"750": 0.6165,"775": 0.53694,"800": 0.81536,"825": 0.7955,"850": 0.91485,"875": 0.97454,"900": 0.77564,"925": 1.01434,"950": 0.83535,"975": 1.03423,"1000": 0.91491,"1025": 0.85524,"1050": 0.73593,"1075": 1.13374,"1100": 0.83538,"1125": 0.77571,"1150": 1.07404,"1175": 0.89507,"1200": 0.83535,"1225": 1.11386,"1250": 0.99451,"1275": 1.31273,"1300": 1.3326,"1325": 1.90948,"1350": 1.61113,"1375": 1.273,"1400": 1.7305,"1425": 1.77036,"1450": 1.69074,"1475": 1.71069,"1500": 1.63112,"1525": 1.67094,"1550": 1.73067,"1575": 1.65111,"1600": 1.05434,"1625": 0.87535,"1650": 1.01465,"1675": 1.07435,"1700": 0.75605,"1725": 0.79583,"1750": 0.99484,"1775": 0.83566,"1800": 0.6168,"1825": 0.53721,"1850": 0.65661,"1875": 0.59692,"1900": 0.67651,"1925": 0.67652,"1950": 0.776,"1975": 0.59693,"2000": 0.73622,"2025": 0.87553,"2050": 1.33322,"2075": 1.49242,"2100": 1.27357,"2125": 0.57708,"2150": 0.27859,"2175": 0.35819,"2200": 0.25869,"2225": 0.0597}}}