{"type": "Feature","bbox": [-109.1857,29.2674,-108.535,29.9639],"geometry": {"type": "MultiPolygon","coordinates": [[[[-108.6285,29.9534,1981.0618],[-108.6432,29.956,1692.9541],[-108.68,29.9583,1697.4124],[-108.7015,29.9492,1861.6189],[-108.7025,29.944,1772.317],[-108.7214,29.9469,1850.0222],[-108.7933,29.9639,2218.1741],[-108.8037,29.9604,2318.8508],[-108.8388,29.955,2570.7168],[-108.8594,29.9585,2165.9399],[-108.876,29.9487,1873.3082],[-108.8947,29.9426,1687.2371],[-108.8933,29.9319,1570.3728],[-108.8952,29.9219,1566.542],[-108.9072,29.9083,1527.3761],[-108.9101,29.9124,1585.5933],[-108.9152,29.8952,1367.2642],[-108.936,29.8925,1528.0598],[-108.9959,29.8578,2120.8984],[-109.0003,29.8344,1724.5356],[-108.9988,29.8275,1756.3309],[-108.999,29.8032,1865.5271],[-109.0283,29.8018,1317.6624],[-109.0419,29.7854,1180.5994],[-109.0448,29.7792,1166.8781],[-109.0408,29.7575,1175.1887],[-109.0458,29.7455,1129.2173],[-109.0493,29.7311,1061.9928],[-109.0515,29.7311,1065.6138],[-109.0496,29.7305,1061.9928],[-109.0738,29.6671,1192.0298],[-109.0907,29.668,1018.4724],[-109.1029,29.6612,1293.0071],[-109.1128,29.6661,1291.5297],[-109.1213,29.6767,1278.104],[-109.1248,29.669,1267.087],[-109.1326,29.6656,1353.0291],[-109.1387,29.6696,1297.4097],[-109.1538,29.6656,1154.3561],[-109.1786,29.7175,967.4633],[-109.1811,29.6485,849.0735],[-109.1857,29.6397,866.7476],[-109.1743,29.6049,1329.8726],[-109.1637,29.6108,1243.7852],[-109.1512,29.6015,1205.397],[-109.1461,29.5866,1348.1349],[-109.1481,29.5523,1095.2675],[-109.1249,29.5368,1053.3879],[-109.1295,29.532,1000.8211],[-109.126,29.522,887.9191],[-109.1523,29.5142,450.0571],[-109.1503,29.5132,485.2638],[-109.1463,29.5003,466.2238],[-109.1471,29.4921,486.298],[-109.1456,29.4881,526.0922],[-109.1484,29.4852,523.4586],[-109.139,29.4775,519.3192],[-109.1384,29.4716,464.2549],[-109.1366,29.47,460.5601],[-109.1373,29.4648,463.2439],[-109.1338,29.4625,471.3989],[-109.1235,29.4628,472.6183],[-109.1144,29.4584,464.8097],[-109.1159,29.4546,466.2822],[-109.1253,29.4513,494.076],[-109.1237,29.4501,472.8955],[-109.125,29.4438,471.1113],[-109.1179,29.4433,483.6992],[-109.1092,29.4485,480.5592],[-109.1021,29.4485,476.6613],[-109.0969,29.4443,478.665],[-109.0974,29.4348,502.0196],[-109.0948,29.4285,489.9223],[-109.0819,29.4174,498.9523],[-109.0807,29.4119,502.2876],[-109.0738,29.4105,499.1459],[-109.0658,29.4028,504.8611],[-109.0629,29.4027,491.1033],[-109.0575,29.4066,540.9681],[-109.0519,29.406,501.94],[-109.0501,29.4037,510.6192],[-109.0453,29.4047,497.8202],[-109.0432,29.4001,576.9669],[-109.037,29.3946,568.8522],[-109.037,29.3907,554.0161],[-109.0322,29.3824,577.8472],[-109.0325,29.3802,517.5042],[-109.0291,29.3788,544.1742],[-109.0257,29.3746,516.4829],[-109.0186,29.3728,515.4254],[-109.0172,29.3666,522.9816],[-109.0134,29.3637,540.0189],[-109.0079,29.3658,535.1578],[-108.9968,29.375,517.2435],[-108.9765,29.3744,557.8957],[-108.9676,29.3693,658.5417],[-108.9504,29.3693,579.5634],[-108.9473,29.3781,541.9319],[-108.9372,29.3767,614.3679],[-108.9386,29.3802,570.0404],[-108.9264,29.3793,609.2186],[-108.9185,29.391,581.4401],[-108.8824,29.3782,1143.5317],[-108.8824,29.3672,1299.7946],[-108.8354,29.3141,1485.1268],[-108.8306,29.3026,1479.9757],[-108.8188,29.3097,1274.6458],[-108.7943,29.2965,1127.5365],[-108.778,29.296,1398.816],[-108.7445,29.3126,1551.2822],[-108.7442,29.2767,1494.197],[-108.7381,29.2846,1587.5569],[-108.7338,29.2822,1552.8254],[-108.7303,29.2691,1578.1155],[-108.6822,29.2674,1890.7404],[-108.6697,29.3074,1711.7924],[-108.7036,29.4085,1411.42],[-108.7074,29.4395,1401.3265],[-108.7191,29.4598,940.7828],[-108.7178,29.466,897.821],[-108.6943,29.4671,1334.3367],[-108.6896,29.484,1675.3324],[-108.666,29.4851,1122.5428],[-108.644,29.4888,1589.4209],[-108.6252,29.501,1538.4707],[-108.6307,29.5043,1569.651],[-108.6487,29.5091,1444.0657],[-108.6623,29.5445,1501.3528],[-108.6383,29.5583,1802.5482],[-108.6595,29.584,1815.2227],[-108.6411,29.5889,1573.1655],[-108.6463,29.6104,1580.8364],[-108.6447,29.6275,1748.2965],[-108.655,29.6494,1776.5842],[-108.6183,29.6605,2165.7344],[-108.6452,29.692,2172.4907],[-108.6591,29.7161,2296.126],[-108.5925,29.7176,2370.9314],[-108.5928,29.7284,2395.5613],[-108.5478,29.7374,2030.259],[-108.5408,29.7362,2023.2262],[-108.5384,29.7476,2016.6379],[-108.535,29.7514,2012.114],[-108.5413,29.7961,1716.6951],[-108.6017,29.7971,2037.6406],[-108.6186,29.8005,1848.3594],[-108.6294,29.8063,1622.8004],[-108.6355,29.831,1530.3831],[-108.6149,29.8441,1536.6947],[-108.6084,29.8451,1490.3701],[-108.6072,29.8471,1581.1624],[-108.6217,29.8782,1479.7659],[-108.6147,29.8845,1475.2722],[-108.6149,29.8951,1668.4626],[-108.6191,29.9094,1626.2057],[-108.6188,29.9313,1969.3578],[-108.6229,29.9505,2021.0016],[-108.6281,29.9513,1985.0593],[-108.6285,29.9534,1981.0618]]]]}
,"properties": {"GID_2": "MEX.26.42_2","GID_0": "MEX","country": "México","GID_1": "MEX.26_1","province": "Sonora","NL_NAME_1": "NA","county": "NácoriChico","VARNAME_2": "NA","NL_NAME_2": "NA","TYPE_2": "Município","ENGTYPE_2": "Municipality","CC_2": "NA","HASC_2": "NA","name": "Nácori_Chico.county","area_km2": 2835.898,"hist_schema_id": "Elevation0-9000","hist_area_km2": {"450": 0.498,"475": 2.178,"500": 2.954,"525": 3.749,"550": 4.58,"575": 5.91,"600": 8.403,"625": 13.554,"650": 19.775,"675": 27.657,"700": 37.067,"725": 44.225,"750": 47.709,"775": 62.31,"800": 73.995,"825": 77.087,"850": 80.512,"875": 81.157,"900": 78.378,"925": 75.516,"950": 71.604,"975": 71.603,"1000": 76.56,"1025": 70.081,"1050": 67.109,"1075": 66.071,"1100": 61.403,"1125": 59.094,"1150": 56.266,"1175": 56.537,"1200": 53.42,"1225": 49.968,"1250": 48.636,"1275": 46.274,"1300": 42.052,"1325": 39.822,"1350": 37.829,"1375": 36.794,"1400": 36.885,"1425": 35.35,"1450": 35.699,"1475": 34.46,"1500": 37.891,"1525": 39.169,"1550": 37.499,"1575": 40.449,"1600": 38.512,"1625": 37.097,"1650": 35.835,"1675": 36.033,"1700": 36.637,"1725": 35.44,"1750": 34.888,"1775": 34.63,"1800": 31.996,"1825": 31.85,"1850": 30.963,"1875": 32.637,"1900": 32.288,"1925": 29.27,"1950": 28.387,"1975": 26.584,"2000": 25.388,"2025": 22.519,"2050": 21.58,"2075": 20.79,"2100": 18.674,"2125": 18.104,"2150": 16.558,"2175": 15.437,"2200": 14.441,"2225": 13.063,"2250": 10.873,"2275": 9.806,"2300": 8.61,"2325": 6.88,"2350": 5.722,"2375": 4.949,"2400": 3.698,"2425": 3.017,"2450": 2.336,"2475": 1.582,"2500": 1.324,"2525": 0.975,"2550": 0.46,"2575": 0.184,"2600": 0.092,"2625": 0.055}}}