{"type":"Feature","properties":{"GID_2":"MEX.15.87_2","GID_0":"MEX","country":"México","GID_1":"MEX.15_1","province":"México","NL_NAME_1":"NA","county":"Temascalcingo","VARNAME_2":"NA","NL_NAME_2":"NA","TYPE_2":"Município","ENGTYPE_2":"Municipality","CC_2":"NA","HASC_2":"NA","name":"Temascalcingo.county"},
"geometry":{"type": "MultiPolygon","coordinates": [[[[-100.0769,20.0295,2386.959],[-100.0796,20.0301,2365.9934],[-100.0836,20.0267,2363.9824],[-100.0888,20.015,2361.0486],[-100.0882,20.0167,2361.5967],[-100.0913,20.0243,2362.042],[-100.0971,20.0273,2360.9167],[-100.097,20.0233,2361.6001],[-100.1016,20.0267,2360.9465],[-100.1055,20.0267,2362.3433],[-100.1108,20.0311,2361.3794],[-100.1113,20.034,2361.0122],[-100.1185,20.0338,2360.9512],[-100.1196,20.036,2360.6299],[-100.1186,20.0378,2360.0283],[-100.1203,20.0389,2359.7837],[-100.1266,20.0381,2360.3672],[-100.1334,20.041,2359.0818],[-100.134,20.0434,2359.0288],[-100.1379,20.0443,2360.2986],[-100.1397,20.0431,2364.8774],[-100.1472,20.0553,2360.0967],[-100.1533,20.0537,2377.2905],[-100.1545,20.0351,2397.7021],[-100.1587,20.0358,2415.9631],[-100.1559,20.0245,2586.9958],[-100.1577,20.0179,2722.8289],[-100.1551,20.0135,2743.8142],[-100.1551,20.0074,2773.2988],[-100.1445,20.0052,2589.824],[-100.1377,20.0108,2498.8022],[-100.1306,20.0097,2505.1284],[-100.1252,20.0122,2489.4668],[-100.1232,20.0077,2558.8184],[-100.116,20.0061,2524.4995],[-100.1244,19.9968,2719.7751],[-100.1314,19.982,2993.0249],[-100.1301,19.9162,2436.3665],[-100.1192,19.9121,2366.2158],[-100.1175,19.904,2391.6411],[-100.1142,19.9014,2475.4631],[-100.1024,19.8797,2446.981],[-100.071,19.8631,2702.3071],[-100.0634,19.8619,2686.575],[-100.0634,19.8546,2623.2756],[-100.0875,19.8604,2558.8513],[-100.0916,19.8599,2540.6528],[-100.0858,19.8445,2547.9717],[-100.0773,19.8436,2550.5732],[-100.0703,19.8392,2553.3804],[-100.0662,19.8333,2553.1428],[-100.0581,19.8318,2555.4268],[-100.054,19.8493,2559.1665],[-100.051,19.8303,2554.8953],[-100.0479,19.8307,2561.1057],[-100.049,19.8353,2591.125],[-100.047,19.845,2594.9675],[-100.04,19.8411,2590.395],[-100.0424,19.8267,2557.0068],[-100.032,19.8145,2560.0891],[-100.0341,19.8111,2586.5505],[-100.0258,19.8071,2598.9988],[-100.0186,19.8072,2596.0364],[-100.0185,19.8131,2643.2258],[-100.0011,19.8159,2559.1555],[-99.9817,19.8155,2531.3359],[-99.9813,19.8173,2531.9924],[-99.9751,19.8136,2523.959],[-99.9587,19.8154,2510.2891],[-99.9584,19.8287,2517.1724],[-99.9606,19.8297,2519.6401],[-99.9599,19.8342,2534.8271],[-99.9437,19.8258,2507.646],[-99.9397,19.829,2516.1953],[-99.9449,19.8313,2521.2429],[-99.939,19.8434,2578.5503],[-99.948,19.8463,2691.5007],[-99.9477,19.8519,2451.511],[-99.9438,19.8535,2453.2849],[-99.9438,19.8509,2451.7725],[-99.94,19.848,2466.9971],[-99.9322,19.8467,2467.8823],[-99.9302,19.8589,2453.1013],[-99.9432,19.8556,2451.1956],[-99.9632,19.8534,2462.2617],[-99.9688,19.8571,2453.3911],[-99.9733,19.8578,2451.0483],[-99.9742,19.8593,2451.7092],[-99.9714,19.8615,2457.7876],[-99.9653,19.8785,2568.137],[-99.9324,19.871,2533.7605],[-99.9324,19.8848,2731.8857],[-99.935,19.8927,2921.1663],[-99.9262,19.8906,2656.1729],[-99.9252,19.8953,2658.3271],[-99.9232,19.896,2787.9297],[-99.9165,19.906,2638.2539],[-99.9062,19.903199999999998,2545.8679],[-99.8988,19.8988,2521.5566],[-99.8909,19.9057,2511.0862],[-99.9223,19.928,2710.3628],[-99.9322,19.9394,2756.4048],[-99.9447,19.9359,2696.519],[-99.9506,19.9291,2792.156],[-99.9549,19.9291,2824.2817],[-99.961,19.9317,2992.3911],[-99.9679,19.9304,3052.3843],[-99.9674,19.946,2770.2456],[-99.9729,19.9541,2584.314],[-99.9774,19.9673,2423.1987],[-99.9743,19.9713,2479.8064],[-100.0126,19.9888,2422.7993],[-100.0108,19.9905,2499.3721],[-100.0226,19.9957,2481.2446],[-100.0275,19.9975,2538.0034],[-100.0328,19.995,2425.1155],[-100.0571,20.0045,2433.8757],[-100.0641,20.0093,2423.4438],[-100.066,20.0123,2396.0222],[-100.0653,20.0137,2396.0222],[-100.0689,20.0144,2403.4241],[-100.0715,20.0185,2389.2058],[-100.0733,20.0184,2381.4399],[-100.0769,20.0295,2386.959]]]]}}