{"type": "Feature","bbox": [-110.1516,27.0183,-109.5342,28.407],"geometry": {"type": "MultiPolygon","coordinates": [[[[-110.0319,27.0867,1.5146],[-110.0385,27.0892,0.0],[-110.0409,27.0873,0.7937],[-110.0451,27.0869,0.0],[-110.046,27.0841,0.0],[-110.0355,27.0795,0.0],[-110.0262,27.0794,1.6822],[-110.0188,27.0775,1.726],[-109.9888,27.0657,11.5454],[-109.9719,27.0571,12.625],[-109.962,27.0501,2.4782],[-109.9554,27.0429,0.0],[-109.9451,27.0212,1.3614],[-109.9414,27.0183,0.238],[-109.9391,27.0192,1.1223],[-109.9391,27.023,1.2988],[-109.9473,27.0344,7.0072],[-109.9487,27.0399,6.8021],[-109.9617,27.0543,0.6113],[-109.9728,27.0619,1.136],[-109.9737,27.0648,4.439],[-109.9803,27.0655,0.0],[-109.9914,27.0705,0.0],[-109.9989,27.0756,0.0],[-110.0006,27.0803,2.9022],[-110.0027,27.0816,0.8075],[-110.0057,27.0781,2.5753],[-110.0118,27.0821,0.0],[-110.0139,27.0856,0.0],[-110.0155,27.0841,5.0446],[-110.0144,27.0814,2.6609],[-110.0157,27.0809,2.6609],[-110.0186,27.0832,3.1576],[-110.0319,27.0867,1.5146]]],
[[[-110.0584,27.0807,0.5154],[-110.0575,27.0804,0.0],[-110.0602,27.0827,0.8651],[-110.0597,27.0815,0.0],[-110.0584,27.0807,0.5154]]],
[[[-110.023,27.112,0.0],[-110.0218,27.1124,0.0],[-110.0215,27.1134,0.0],[-110.024,27.113,0.4358],[-110.023,27.112,0.0]]],
[[[-110.0926,27.1761,3.7845],[-110.0891,27.1025,1.1904],[-110.0608,27.0824,0.8651],[-110.059,27.0871,0.2306],[-110.056,27.0892,0.4548],[-110.0448,27.0921,0.0],[-110.0473,27.0934,1.6237],[-110.0458,27.0977,1.0987],[-110.0425,27.0987,0.0],[-110.0436,27.0996,0.6526],[-110.0401,27.1022,0.1145],[-110.0414,27.1027,0.5594],[-110.0405,27.104,3.6988],[-110.0469,27.1078,0.6026],[-110.0384,27.1035,0.0],[-110.0341,27.1106,0.8079],[-110.0354,27.1129,0.5585],[-110.0402,27.112,2.1607],[-110.0451,27.1135,5.8315],[-110.0504,27.1187,1.5148],[-110.0567,27.1208,1.0607],[-110.0505,27.1202,0.0],[-110.0499,27.1257,0.8984],[-110.0476,27.1189,0.472],[-110.0397,27.1131,0.3244],[-110.0348,27.1139,0.7726],[-110.0342,27.1154,0.9002],[-110.0399,27.1168,1.2081],[-110.043,27.1202,0.4138],[-110.0401,27.1195,1.3568],[-110.0398,27.118,0.0],[-110.0368,27.1212,1.3113],[-110.0359,27.1178,0.8124],[-110.0341,27.1168,0.3418],[-110.0331,27.1205,0.0],[-110.0353,27.1256,0.0],[-110.0304,27.1285,0.8607],[-110.0308,27.1258,0.1527],[-110.0282,27.1233,0.8179],[-110.0325,27.1193,1.461],[-110.0326,27.108,0.0],[-110.0272,27.1142,1.1048],[-110.0266,27.1131,0.329],[-110.0224,27.1141,0.8406],[-110.0206,27.117,0.7873],[-110.0179,27.1173,0.6174],[-110.0188,27.1237,0.7378],[-110.011,27.1268,0.6686],[-110.0108,27.1237,0.9303],[-110.0165,27.1215,0.0],[-110.0168,27.1173,0.6174],[-110.0195,27.1157,0.4585],[-110.015,27.1145,0.3105],[-110.0101,27.1159,0.32],[-110.0082,27.1191,0.9421],[-110.0061,27.1199,0.3665],[-110.0051,27.1231,0.7327],[-110.0036,27.1232,1.226],[-110.0049,27.1193,1.0948],[-110.0078,27.1185,1.0992],[-110.0098,27.1153,0.4007],[-110.0129,27.115,0.0],[-110.0019,27.1113,0.0],[-110.001,27.1053,0.6714],[-110.0046,27.1043,1.0352],[-110.0051,27.1058,0.0],[-110.0068,27.1034,0.0],[-110.0012,27.1036,0.0],[-109.9987,27.1096,0.5551],[-109.9965,27.1091,0.2697],[-109.9944,27.1114,0.7438],[-109.992,27.1114,0.296],[-109.9926,27.1125,0.9825],[-109.9887,27.117,2.0399],[-109.9887,27.1148,0.0],[-109.9862,27.1151,0.3283],[-109.9822,27.1109,0.2772],[-109.9764,27.1083,0.1519],[-109.9779,27.1037,0.0],[-109.973,27.1002,0.0],[-109.9709,27.1038,1.4262],[-109.9715,27.1065,0.9797],[-109.9734,27.1063,1.0593],[-109.9734,27.1165,0.7633],[-109.9531,27.1166,4.7894],[-109.9529,27.1348,7.3038],[-109.941,27.1348,10.5713],[-109.9412,27.153199999999998,10.4727],[-109.9127,27.1533,16.2665],[-109.9127,27.1449,13.8183],[-109.8803,27.145,17.7492],[-109.8803,27.1534,18.7861],[-109.8705,27.1533,20.0176],[-109.8727,27.1569,19.3255],[-109.8618,27.1725,24.4754],[-109.8596,27.1808,26.4596],[-109.8508,27.1808,27.5898],[-109.8509,27.1944,28.1147],[-109.8437,27.2009,31.8311],[-109.8441,27.2022,32.6656],[-109.8304,27.2022,35.1238],[-109.8303,27.2155,36.0797],[-109.8283,27.2172,36.6899],[-109.8283,27.2221,37.9044],[-109.8262,27.2261,38.3656],[-109.8201,27.2262,39.7269],[-109.8203,27.2335,40.9381],[-109.815,27.2398,42.0269],[-109.815,27.2446,43.5334],[-109.8256,27.2447,42.6403],[-109.8256,27.2558,45.5914],[-109.8069,27.256,46.6142],[-109.8042,27.2599,46.0058],[-109.8048,27.2651,47.5016],[-109.7991,27.2683,48.6341],[-109.7964,27.2726,50.097],[-109.7931,27.2744,51.1279],[-109.7902,27.2903,56.3603],[-109.7931,27.2905,56.4895],[-109.7938,27.2865,54.5866],[-109.7963,27.2858,54.2704],[-109.8093,27.2996,57.168],[-109.8048,27.2995,57.9537],[-109.8047,27.3153,62.9263],[-109.8187,27.3154,59.3308],[-109.8186,27.3533,62.6479],[-109.7786,27.3531,72.4775],[-109.7738,27.348,71.7889],[-109.768,27.3573,76.5075],[-109.7758,27.3633,73.6978],[-109.7758,27.4073,79.3274],[-109.7703,27.4073,78.0366],[-109.7694,27.3787,76.1143],[-109.7431,27.378,83.4546],[-109.7263,27.3731,83.463],[-109.7242,27.3713,79.3996],[-109.7225,27.3741,82.9679],[-109.7155,27.3763,83.187],[-109.7143,27.3782,85.7163],[-109.7534,27.4133,91.8356],[-109.7264,27.4359,118.5568],[-109.7261,27.443,247.3627],[-109.7587,27.447,176.3647],[-109.7624,27.4902,375.8059],[-109.7344,27.5,409.7871],[-109.7262,27.5044,506.5544],[-109.7379,27.5142,594.0682],[-109.7595,27.5196,804.7004],[-109.7609,27.5218,746.0411],[-109.8138,27.5183,192.195],[-109.8074,27.5476,288.6618],[-109.8026,27.5458,111.705],[-109.8062,27.5572,91.4208],[-109.8037,27.5606,91.0923],[-109.8069,27.5626,89.4345],[-109.8107,27.5627,85.5049],[-109.7697,27.5981,122.557],[-109.7716,27.6171,130.6331],[-109.7372,27.6219,167.3602],[-109.7429,27.6407,211.2802],[-109.747,27.6825,188.7541],[-109.7626,27.679,159.3309],[-109.7794,27.7205,131.8503],[-109.7635,27.733,147.8732],[-109.7571,27.736,160.235],[-109.7621,27.7433,155.8487],[-109.7526,27.7497,183.4101],[-109.7442,27.7516,185.1634],[-109.7376,27.7574,193.5292],[-109.7439,27.763,207.2135],[-109.7306,27.7685,206.7738],[-109.7201,27.7944,300.6494],[-109.7176,27.8059,291.0442],[-109.7011,27.8153,330.995],[-109.707,27.8247,302.8196],[-109.706,27.8318,292.0867],[-109.7075,27.8344,312.5013],[-109.6946,27.8317,324.3266],[-109.6946,27.8329,323.3787],[-109.6906,27.8335,345.8204],[-109.6893,27.8305,349.4159],[-109.6869,27.8296,429.7841],[-109.6863,27.804,409.5504],[-109.6795,27.8065,431.5576],[-109.6545,27.7815,419.2949],[-109.6624,27.8413,395.183],[-109.6496,27.8456,301.1143],[-109.6456,27.8445,307.3763],[-109.6439,27.8422,294.5464],[-109.6391,27.8457,290.7069],[-109.633,27.8434,276.2218],[-109.6276,27.8452,272.0941],[-109.6242,27.8491,263.353],[-109.6051,27.8557,274.2788],[-109.6001,27.8539,285.0283],[-109.5987,27.8551,285.0283],[-109.5909,27.8509,340.0984],[-109.5899,27.8551,377.7344],[-109.5615,27.8518,515.5555],[-109.5554,27.857,439.5755],[-109.5556,27.8646,359.5671],[-109.5513,27.8711,446.3882],[-109.5546,27.8803,487.4537],[-109.5359,27.9087,442.3373],[-109.5342,27.9185,507.7844],[-109.5471,27.9169,448.7695],[-109.553,27.9427,605.6166],[-109.5563,27.9427,537.8265],[-109.5639,27.9491,484.8058],[-109.5662,27.9544,481.8207],[-109.5571,27.9763,601.7441],[-109.5606,27.977,528.399],[-109.5683,27.9898,475.2237],[-109.5633,27.991,418.9473],[-109.5698,28.007,407.4496],[-109.5856,28.011,306.7364],[-109.5909,28.0108,288.5415],[-109.6031,28.0029,301.3587],[-109.6218,27.9975,328.5471],[-109.625,28.0035,420.2289],[-109.6459,28.0023,328.4351],[-109.6633,28.0284,353.4709],[-109.6661,28.0494,346.7955],[-109.6745,28.0752,284.4251],[-109.6889,28.085,237.9447],[-109.6838,28.1349,304.044],[-109.6259,28.1351,239.77],[-109.6273,28.1563,324.6894],[-109.6147,28.1735,642.9369],[-109.6263,28.1764,483.3844],[-109.626,28.1888,293.7517],[-109.6666,28.1895,106.6332],[-109.6671,28.1971,119.65],[-109.6636,28.2019,126.635],[-109.6659,28.212,130.1591],[-109.6609,28.2152,118.8374],[-109.6552,28.215,125.9287],[-109.6534,28.2173,117.2014],[-109.6523,28.2231,113.8387],[-109.6576,28.2267,119.6613],[-109.6583,28.2302,143.6626],[-109.6581,28.2433,115.8983],[-109.6556,28.2467,121.7308],[-109.6528,28.2483,119.2057],[-109.6474,28.2475,121.2669],[-109.6389,28.2408,118.6886],[-109.6372,28.2409,119.2243],[-109.6317,28.2438,123.7897],[-109.6321,28.2489,127.8166],[-109.6277,28.2548,121.5858],[-109.6182,28.261,123.8894],[-109.6134,28.2611,125.2468],[-109.6118,28.2626,124.2175],[-109.6094,28.2766,131.2674],[-109.6034,28.288,125.4232],[-109.6024,28.3061,128.7269],[-109.5988,28.3113,130.3057],[-109.603,28.3241,139.2392],[-109.6024,28.3289,140.9795],[-109.607,28.3342,132.1775],[-109.6118,28.3349,136.3734],[-109.6131,28.3386,145.5028],[-109.6056,28.3543,159.7267],[-109.5991,28.3578,140.2556],[-109.592,28.3657,143.0815],[-109.582,28.3669,142.8776],[-109.5751,28.3634,141.3788],[-109.5691,28.3698,162.8529],[-109.5702,28.3738,145.1294],[-109.66,28.3897,860.8541],[-109.6666,28.3912,802.4658],[-109.6763,28.3975,700.6959],[-109.6915,28.3975,774.41],[-109.7008,28.407,699.541],[-109.7711,28.4045,491.5167],[-109.7638,28.3716,598.7021],[-109.748,28.334,659.7238],[-109.7562,28.3192,736.0877],[-109.7462,28.2943,529.2584],[-109.7015,28.2825,373.395],[-109.6969,28.2713,714.7789],[-109.7746,28.2557,533.7514],[-109.7849,28.292,412.322],[-109.841,28.2844,234.8951],[-109.8459,28.2802,231.3487],[-109.8506,28.2815,212.5448],[-109.8541,28.2778,210.2364],[-109.8569,28.2778,206.4842],[-109.858,28.2747,201.6404],[-109.8614,28.2752,208.6712],[-109.8759,28.2717,189.8441],[-109.8795,28.2751,170.9038],[-109.8857,28.2669,163.6008],[-109.8885,28.2663,161.9737],[-109.8886,28.2645,161.1251],[-109.8847,28.2638,160.6056],[-109.8851,28.2601,160.2132],[-109.8873,28.2572,161.4074],[-109.8904,28.259,163.9945],[-109.8912,28.2567,166.0214],[-109.8958,28.2562,173.1785],[-109.8976,28.2592,169.4397],[-109.8951,28.2614,169.9217],[-109.9005,28.2652,176.3629],[-109.9111,28.2638,196.4358],[-109.9111,28.2107,139.0907],[-109.9094,28.2092,128.2577],[-109.9026,28.2135,128.9489],[-109.8944,28.2079,146.9168],[-109.9012,28.2004,134.7564],[-109.9449,28.2185,172.3143],[-109.9507,28.2561,233.2843],[-109.9865,28.2832,282.799],[-110.033,28.3002,413.7601],[-110.047,28.3084,366.6172],[-110.1003,28.3092,469.7703],[-110.0957,28.2645,347.7832],[-110.099,28.2614,342.5622],[-110.1429,28.2518,371.9125],[-110.1269,28.2051,307.5154],[-110.1516,28.1951,289.7811],[-110.1506,28.1929,305.4002],[-110.1482,28.1936,339.4293],[-110.1429,28.1882,457.0118],[-110.1245,28.1932,289.7512],[-110.1327,28.131,270.9539],[-110.0814,28.1052,202.224],[-110.0851,28.1003,206.1103],[-110.0859,28.0942,202.2097],[-110.105,28.0803,194.7942],[-110.1129,28.077,190.2648],[-110.117,28.0728,185.9139],[-110.1138,28.0657,183.0602],[-110.1059,28.0604,181.6808],[-110.1093,28.0583,184.0585],[-110.1087,28.0564,184.4871],[-110.1147,28.0536,188.5674],[-110.1175,28.0462,194.5632],[-110.1266,28.0456,218.173],[-110.1396,28.0383,199.2034],[-110.138,28.0343,200.1124],[-110.1241,28.0254,209.1905],[-110.114,28.0137,214.0873],[-110.1114,28.0047,218.8671],[-110.1049,28.0014,221.1079],[-110.102,28.0015,223.2769],[-110.102,27.9983,223.9302],[-110.0963,27.9931,226.7634],[-110.0875,27.9796,241.5744],[-110.0824,27.976,250.2337],[-110.0802,27.9709,247.159],[-110.0764,27.9695,252.5926],[-110.0681,27.959,268.1857],[-110.0691,27.9541,273.24],[-110.0655,27.9504,278.5654],[-110.0573,27.9504,284.2653],[-110.0551,27.9489,286.9676],[-110.0548,27.9357,307.2409],[-110.0494,27.9241,324.2774],[-110.051,27.9222,340.8671],[-110.0498,27.9186,335.2758],[-110.052,27.9155,331.9459],[-110.0761,27.9061,219.3492],[-110.0762,27.8958,206.1199],[-110.0742,27.8898,197.991],[-110.0818,27.8834,188.7301],[-110.086,27.8774,186.9931],[-110.0866,27.8715,169.9429],[-110.0895,27.8648,161.1833],[-110.0887,27.8612,156.8764],[-110.0957,27.8524,146.7225],[-110.095,27.8434,140.6154],[-110.1003,27.8337,148.492],[-110.1045,27.8148,117.2258],[-110.1038,27.811,118.2876],[-110.1055,27.8021,111.8028],[-110.0997,27.7945,107.5078],[-110.1006,27.793,104.7169],[-110.1058,27.7919,102.8302],[-110.1063,27.789,101.9497],[-110.1038,27.7847,102.9032],[-110.1061,27.7816,97.5725],[-110.1046,27.7784,101.7565],[-110.1065,27.777,95.6487],[-110.1045,27.7692,102.5278],[-110.1144,27.7602,93.912],[-110.1164,27.7316,77.4142],[-110.1219,27.7217,70.7625],[-110.1242,27.7194,70.5288],[-110.1315,27.717,68.4398],[-110.1346,27.7134,66.5166],[-110.1344,27.7114,66.2314],[-110.1319,27.7093,66.6431],[-110.1272,27.7125,67.1288],[-110.102,27.711,81.807],[-110.0963,27.7042,70.5815],[-110.095,27.6993,67.56],[-110.0833,27.7158,81.2731],[-110.076,27.7204,89.9045],[-110.0601,27.7185,84.437],[-110.0532,27.722,93.2785],[-110.0484,27.7222,90.0134],[-110.0441,27.721,87.6543],[-110.0388,27.7158,84.4609],[-110.0274,27.7159,78.5012],[-110.0287,27.7074,75.405],[-110.0235,27.6997,71.5072],[-110.0232,27.6932,67.329],[-110.0175,27.695,67.1086],[-110.0179,27.6911,65.9],[-110.0141,27.6862,62.8508],[-110.014,27.6844,62.7131],[-110.0217,27.6769,60.1324],[-110.0175,27.6691,56.8117],[-110.0192,27.6584,51.3241],[-110.0229,27.6508,56.0362],[-110.022,27.6391,47.1421],[-110.0196,27.6352,46.8678],[-110.019,27.6278,50.7055],[-110.0082,27.6178,38.4062],[-110.0095,27.6163,38.6639],[-110.0071,27.6103,32.8484],[-110.0093,27.6046,33.6893],[-110.0061,27.5991,32.5342],[-110.0102,27.5908,32.5696],[-110.0197,27.5849,28.8091],[-110.0143,27.5858,29.0781],[-110.0143,27.5195,26.9399],[-110.0966,27.5191,25.4302],[-110.0967,27.5007,22.4439],[-110.105,27.5008,22.2576],[-110.1045,27.4658,21.4112],[-110.1042,27.4648,22.081],[-110.0968,27.4646,22.5803],[-110.0967,27.4186,19.5415],[-110.1027,27.4186,18.9226],[-110.1028,27.414,18.6269],[-110.0963,27.414,18.7498],[-110.0966,27.1897,2.6662],[-110.0923,27.1897,4.3546],[-110.0926,27.1829,3.294],[-110.1,27.1821,2.8898],[-110.1003,27.176,3.6302],[-110.0926,27.1761,3.7845]]]]}
,"properties": {"GID_2": "MEX.26.19_2","GID_0": "MEX","country": "México","GID_1": "MEX.26_1","province": "Sonora","NL_NAME_1": "NA","county": "Cajeme","VARNAME_2": "NA","NL_NAME_2": "NA","TYPE_2": "Município","ENGTYPE_2": "Municipality","CC_2": "NA","HASC_2": "NA","name": "Cajeme.county","area_km2": 4860.913,"hist_schema_id": "Elevation0-9000","hist_area_km2": {"0": 227.688,"25": 744.435,"50": 495.939,"75": 392.592,"100": 321.114,"125": 325.856,"150": 311.542,"175": 300.323,"200": 306.46,"225": 269.971,"250": 236.291,"275": 187.404,"300": 154.495,"325": 130.062,"350": 99.177,"375": 78.252,"400": 59.304,"425": 44.768,"450": 37.754,"475": 31.644,"500": 22.792,"525": 16.674,"550": 11.177,"575": 9.658,"600": 6.966,"625": 5.732,"650": 5.189,"675": 4.553,"700": 3.321,"725": 3.023,"750": 2.389,"775": 2.706,"800": 2.258,"825": 1.866,"850": 1.511,"875": 1.381,"900": 1.101,"925": 1.138,"950": 0.821,"975": 0.821,"1000": 0.354,"1025": 0.149,"1050": 0.168,"1075": 0.093}}}