{"type": "Feature","bbox": [-98.6003,19.1588,-98.4389,19.2394],"geometry": {"type": "MultiPolygon","coordinates": [[[[-98.4425,19.2335,2295.1326],[-98.4478,19.2324,2303.1086],[-98.451,19.2281,2321.9414],[-98.4556,19.2342,2315.877],[-98.4664,19.2327,2395.1714],[-98.4756,19.2394,2367.0251],[-98.4801,19.2385,2377.2192],[-98.4953,19.2211,2449.2576],[-98.4967,19.2235,2445.2856],[-98.5004,19.2194,2461.3799],[-98.5021,19.2219,2460.4927],[-98.507,19.2202,2475.1396],[-98.5082,19.2225,2467.4373],[-98.5224,19.2083,2571.6294],[-98.5357,19.2079,2660.9512],[-98.5453,19.2045,2785.7903],[-98.5433,19.2067,2727.6003],[-98.5465,19.2069,2747.7678],[-98.5462,19.2085,2723.1968],[-98.5406,19.215699999999998,2631.2004],[-98.5582,19.209,2781.0469],[-98.5636,19.2103,2886.7981],[-98.561,19.2119,2827.1707],[-98.5615,19.2134,2786.7085],[-98.5648,19.213,2834.9346],[-98.5681,19.2099,2955.4001],[-98.5802,19.2087,3135.4595],[-98.5824,19.2042,3193.637],[-98.5874,19.1993,3324.6147],[-98.5904,19.1992,3427.0122],[-98.5831,19.1976,3347.4131],[-98.5826,19.1962,3341.6753],[-98.5853,19.1948,3352.1353],[-98.5918,19.1962,3409.0674],[-98.5975,19.194,3440.5159],[-98.6003,19.1945,3494.1121],[-98.5956,19.1923,3440.5288],[-98.5918,19.1926,3450.8008],[-98.5747,19.1831,3217.0435],[-98.5744,19.1813,3219.6943],[-98.579,19.1773,3307.9265],[-98.5907,19.1743,3543.832],[-98.5872,19.1707,3548.2598],[-98.5887,19.1676,3521.1064],[-98.5843,19.1631,3421.4875],[-98.5789,19.1608,3347.353],[-98.5733,19.1619,3325.7219],[-98.5714,19.1588,3265.4978],[-98.57,19.1588,3244.6709],[-98.5688,19.1619,3211.6982],[-98.5605,19.1615,3150.6658],[-98.5553,19.1657,3037.1836],[-98.5463,19.1656,2979.1704],[-98.5499,19.1607,3036.3154],[-98.5456,19.1627,2871.2551],[-98.5315,19.1643,2720.0442],[-98.5278,19.1631,2658.5991],[-98.5128,19.1644,2574.5039],[-98.5057,19.1683,2545.95],[-98.492,19.1686,2523.6697],[-98.4728,19.1809,2413.2144],[-98.4625,19.1913,2369.3477],[-98.4542,19.1923,2355.6353],[-98.451,19.1956,2339.6523],[-98.4411,19.1997,2296.7446],[-98.4389,19.2166,2295.8474],[-98.4425,19.2335,2295.1326]]]]}
,"properties": {"GID_2": "MEX.21.35_2","GID_0": "MEX","country": "México","GID_1": "MEX.21_1","province": "Puebla","NL_NAME_1": "NA","county": "Chiautzingo","VARNAME_2": "NA","NL_NAME_2": "NA","TYPE_2": "Município","ENGTYPE_2": "Municipality","CC_2": "NA","HASC_2": "NA","name": "Chiautzingo.county","area_km2": 81.27493,"hist_schema_id": "Elevation0-9000","hist_area_km2": {"2300": 2.32242,"2325": 3.22342,"2350": 4.70507,"2375": 4.2245,"2400": 4.76498,"2425": 3.86418,"2450": 3.22359,"2475": 3.40385,"2500": 3.00346,"2525": 3.12367,"2550": 2.62312,"2575": 2.42291,"2600": 2.32283,"2625": 2.02246,"2650": 1.82221,"2675": 1.74212,"2700": 1.72211,"2725": 1.32161,"2750": 1.16142,"2775": 1.46179,"2800": 1.2215,"2825": 1.40174,"2850": 1.50185,"2875": 1.36166,"2900": 1.48182,"2925": 1.24154,"2950": 1.78221,"2975": 1.56196,"3000": 1.24153,"3025": 1.00121,"3050": 1.04127,"3075": 0.78095,"3100": 1.04125,"3125": 1.00124,"3150": 1.04129,"3175": 0.92113,"3200": 0.94116,"3225": 0.72089,"3250": 0.60076,"3275": 0.70089,"3300": 0.38046,"3325": 0.60074,"3350": 0.72089,"3375": 0.58075,"3400": 0.3805,"3425": 0.4606,"3450": 0.34045,"3475": 0.40053,"3500": 0.14018,"3525": 0.08011,"3550": 0.10013,"3575": 0.02003}}}