{"type": "Feature","bbox": [-109.3669,28.1815,-108.4797,28.6449],"geometry": {"type": "MultiPolygon","coordinates": [[[[-108.4797,28.3696,1736.1553],[-108.489,28.3751,1791.4265],[-108.5155,28.4263,1733.9757],[-108.5136,28.4396,1662.9231],[-108.5087,28.4493,1474.8253],[-108.5041,28.4544,1508.1211],[-108.5174,28.4556,1470.9949],[-108.5204,28.4598,1495.9469],[-108.5135,28.4729,1646.9819],[-108.5137,28.4845,1699.4282],[-108.5091,28.4871,1717.3326],[-108.5048,28.4934,1756.1851],[-108.5077,28.4999,1795.5063],[-108.5077,28.5082,1876.5869],[-108.5233,28.5059,1841.4969],[-108.5319,28.539,2036.251],[-108.5313,28.5567,2056.7271],[-108.5516,28.5778,1988.0928],[-108.5562,28.5777,1899.3938],[-108.5664,28.5677,1698.5081],[-108.5734,28.5558,1661.2231],[-108.5816,28.553,1609.9749],[-108.5865,28.5467,1565.6083],[-108.5989,28.5439,1569.8528],[-108.6138,28.5353,1446.9691],[-108.6158,28.5378,1448.8778],[-108.6238,28.5385,1695.4363],[-108.6387,28.506,1598.9225],[-108.6472,28.5023,1264.2971],[-108.6586,28.5042,1236.231],[-108.6613,28.5031,1214.5455],[-108.6647,28.505,1222.8618],[-108.6736,28.503,1210.7021],[-108.6811,28.5043,1221.2119],[-108.6858,28.5004,1203.5217],[-108.6909,28.5003,1211.5376],[-108.6907,28.4953,1239.7438],[-108.696,28.4964,1175.4259],[-108.7036,28.4926,1183.6115],[-108.7055,28.4941,1207.5264],[-108.7048,28.4977,1177.2258],[-108.7108,28.5052,1258.7107],[-108.7201,28.5047,1210.8129],[-108.7218,28.5071,1208.2809],[-108.7272,28.5073,1154.7998],[-108.731,28.5099,1158.2507],[-108.7426,28.5115,1113.6655],[-108.7487,28.5217,1138.2346],[-108.7446,28.5275,1064.7123],[-108.7456,28.5297,1071.3337],[-108.7437,28.5383,1250.579],[-108.7533,28.5452,1109.2812],[-108.7552,28.5447,1149.8804],[-108.7452,28.5385,1121.1426],[-108.7469,28.5349,1142.2678],[-108.7465,28.5281,1064.7123],[-108.7496,28.526,1080.3877],[-108.7509,28.5228,1095.5491],[-108.7475,28.5147,1085.9976],[-108.7536,28.5136,1134.7802],[-108.7543,28.5107,1129.6536],[-108.7765,28.5207,1456.7124],[-108.7876,28.5235,1317.2422],[-108.7995,28.5426,1620.9629],[-108.8062,28.5429,1445.4752],[-108.8133,28.5464,1469.3616],[-108.8107,28.5493,1554.7148],[-108.8122,28.5547,1589.8604],[-108.8128,28.5738,1540.2883],[-108.8235,28.5827,1461.3446],[-108.8247,28.5922,1561.2202],[-108.8313,28.5945,1558.6426],[-108.8352,28.5912,1556.8634],[-108.8536,28.5982,1460.4117],[-108.8819,28.5947,1740.927],[-108.8798,28.5792,2007.6527],[-108.882,28.5728,1910.7305],[-108.8699,28.5489,1894.2726],[-108.8968,28.5457,1696.27],[-108.8964,28.5532,1912.3895],[-108.9057,28.5628,1981.3593],[-108.9132,28.5677,1878.2686],[-108.9225,28.5879,1477.3971],[-108.9452,28.5735,1413.6523],[-108.9534,28.5705,1360.6263],[-108.9581,28.5719,1350.9258],[-108.9601,28.5688,1339.042],[-108.9647,28.5688,1339.2039],[-108.9679,28.5618,1353.8995],[-108.9711,28.5617,1361.2655],[-108.9723,28.5641,1390.2113],[-108.9775,28.5643,1339.0431],[-108.9784,28.5674,1283.6886],[-108.9821,28.5685,1265.3773],[-108.9851,28.5676,1252.1353],[-108.9899,28.573,1383.6212],[-108.9922,28.5686,1237.0062],[-108.9961,28.5677,1225.8221],[-109.0025,28.5789,1234.5502],[-109.0166,28.596,1577.9465],[-109.0197,28.5895,1117.4557],[-109.0264,28.5892,1047.7181],[-109.0299,28.5995,1233.2064],[-109.0502,28.5981,1161.0364],[-109.048,28.5912,847.5961],[-109.0527,28.591,837.3799],[-109.0562,28.5886,855.9554],[-109.0606,28.5899,812.2474],[-109.0626,28.5925,847.664],[-109.0666,28.5912,801.235],[-109.0724,28.5932,786.8327],[-109.0734,28.5922,786.8327],[-109.0813,28.6064,893.6824],[-109.1378,28.604,876.4991],[-109.14,28.6449,766.0119],[-109.1449,28.6424,824.9221],[-109.1562,28.6403,1055.6116],[-109.1646,28.6415,860.6465],[-109.1764,28.6237,1099.5253],[-109.1858,28.62,1112.8231],[-109.1908,28.6296,1026.8239],[-109.2107,28.6316,1124.1815],[-109.2111,28.6348,1250.0751],[-109.2559,28.6384,1343.8022],[-109.2568,28.6297,1413.4764],[-109.2529,28.6139,1448.4321],[-109.2592,28.5735,1014.4791],[-109.2461,28.5671,1312.8894],[-109.2443,28.5624,1129.6724],[-109.25,28.5602,1169.0972],[-109.2597,28.5643,1072.7897],[-109.2606,28.5622,1091.5363],[-109.2959,28.5535,1031.2974],[-109.2949,28.518,824.1276],[-109.3043,28.5198,953.2208],[-109.3238,28.5117,1146.0134],[-109.3298,28.5109,1375.5996],[-109.3396,28.5139,982.664],[-109.3453,28.5101,1131.6462],[-109.3516,28.5127,1131.7048],[-109.3631,28.5113,1230.5134],[-109.3657,28.5,883.7307],[-109.3669,28.4902,863.3434],[-109.3485,28.4838,1404.4102],[-109.3471,28.4365,1045.0029],[-109.343,28.4186,1004.267],[-109.3388,28.4123,1188.8356],[-109.3599,28.3891,1045.9431],[-109.3668,28.3889,1107.3147],[-109.3667,28.3528,1011.4762],[-109.3642,28.3487,811.7667],[-109.3531,28.3501,813.2197],[-109.3171,28.3302,922.5538],[-109.2846,28.2489,504.7058],[-109.2669,28.244,625.8261],[-109.2506,28.2532,663.5956],[-109.2537,28.2372,465.1497],[-109.2466,28.2371,485.9303],[-109.2316,28.25,501.6789],[-109.221,28.2423,679.4434],[-109.2214,28.2366,712.0781],[-109.2063,28.235,859.6053],[-109.1945,28.2356,833.535],[-109.187,28.2423,646.9755],[-109.1833,28.2486,599.052],[-109.1667,28.234,762.153],[-109.1683,28.2308,747.2263],[-109.1617,28.2295,719.0603],[-109.1388,28.2434,987.338],[-109.1216,28.2312,1145.6755],[-109.1111,28.2144,1422.1661],[-109.1043,28.2084,1223.9513],[-109.1078,28.2011,1141.967],[-109.0812,28.1911,1416.0754],[-109.0784,28.1815,1426.1963],[-109.0658,28.1826,1817.1558],[-109.062,28.1992,1851.098],[-109.0692,28.2498,1748.0637],[-109.0749,28.2726,1827.5818],[-109.0688,28.2737,1744.27],[-109.0584,28.2673,1596.9216],[-109.0633,28.2801,1622.8739],[-109.0671,28.281,1636.9738],[-109.0701,28.2843,1656.309],[-109.0687,28.2861,1675.08],[-109.0663,28.2864,1663.8186],[-109.0639,28.2836,1623.808],[-109.0595,28.2847,1720.0758],[-109.0564,28.2792,1713.2032],[-109.0519,28.2764,1631.4708],[-109.0504,28.2808,1652.1619],[-109.0458,28.2812,1667.9192],[-109.0444,28.2785,1780.9071],[-109.0464,28.2761,1745.8171],[-109.0464,28.2732,1678.702],[-109.0407,28.267,1619.8237],[-109.0343,28.273,1635.2363],[-109.0312,28.2727,1634.0649],[-109.028,28.2772,1669.5044],[-109.0228,28.2775,1673.7123],[-109.0138,28.2671,1922.5171],[-109.0031,28.2622,1975.2797],[-108.9974,28.2551,1997.6536],[-108.9942,28.2563,2008.3859],[-108.9931,28.2605,1992.3513],[-108.9883,28.2625,1965.3695],[-108.9896,28.2709,1907.6703],[-108.9871,28.2778,1957.7241],[-108.9955,28.2864,1968.0911],[-108.9969,28.2955,1979.2234],[-108.994,28.298,2009.4377],[-108.989,28.2968,1988.9868],[-108.988,28.295,1956.2034],[-108.9891,28.2915,1927.0094],[-108.9829,28.2871,1910.9783],[-108.9861,28.2837,1954.3933],[-108.9836,28.277,1897.6309],[-108.9737,28.2731,1549.2792],[-108.9673,28.265,1667.719],[-108.9614,28.262,1633.4296],[-108.9288,28.2596,1398.3798],[-108.922,28.2515,1381.1227],[-108.9127,28.26,1528.9797],[-108.9076,28.2598,1740.9509],[-108.9037,28.2617,1927.1173],[-108.8913,28.261,1791.2583],[-108.8807,28.2647,2060.8652],[-108.8693,28.257,1565.6786],[-108.8616,28.2568,1360.6693],[-108.8561,28.2515,1389.2631],[-108.8514,28.2595,1673.9333],[-108.842,28.2533,1584.6377],[-108.8358,28.2628,1578.3097],[-108.8304,28.265,1866.249],[-108.7917,28.2536,2263.6836],[-108.7967,28.2672,1781.6364],[-108.751,28.2716,1687.491],[-108.7139,28.288,1528.2179],[-108.6872,28.3035,1504.0376],[-108.6765,28.3029,1410.2427],[-108.6721,28.2982,1439.3512],[-108.6672,28.2994,1479.9005],[-108.6619,28.2955,1495.5258],[-108.6558,28.3018,1434.5419],[-108.6524,28.2984,1444.2715],[-108.6444,28.2983,1577.8732],[-108.6413,28.2916,1515.5801],[-108.6355,28.3063,1599.1331],[-108.6362,28.3352,1642.1978],[-108.6112,28.3353,1635.3667],[-108.6035,28.3476,1767.4702],[-108.5509,28.3181,2104.4419],[-108.5359,28.3237,1862.7549],[-108.5196,28.3348,1762.6255],[-108.5217,28.3651,1814.189],[-108.5057,28.3608,1741.12],[-108.5014,28.3557,1737.968],[-108.4797,28.3696,1736.1553]]]]}
,"properties": {"GID_2": "MEX.26.72_2","GID_0": "MEX","country": "México","GID_1": "MEX.26_1","province": "Sonora","NL_NAME_1": "NA","county": "Yécora","VARNAME_2": "NA","NL_NAME_2": "NA","TYPE_2": "Município","ENGTYPE_2": "Municipality","CC_2": "NA","HASC_2": "NA","name": "Yécora.county","area_km2": 2671.383,"hist_schema_id": "Elevation0-9000","hist_area_km2": {"400": 0.168,"425": 1.12,"450": 3.286,"475": 8.101,"500": 14.914,"525": 17.378,"550": 18.795,"575": 20.903,"600": 21.462,"625": 21.61,"650": 23.138,"675": 23.415,"700": 26.21,"725": 31.506,"750": 33.851,"775": 35.637,"800": 37.2,"825": 39.431,"850": 41.518,"875": 43.528,"900": 45.555,"925": 46.671,"950": 43.465,"975": 44.657,"1000": 43.203,"1025": 37.798,"1050": 36.812,"1075": 33.699,"1100": 31.236,"1125": 28.292,"1150": 26.596,"1175": 25.981,"1200": 24.529,"1225": 26.766,"1250": 27.68,"1275": 33.704,"1300": 40.194,"1325": 46.482,"1350": 49.539,"1375": 53.677,"1400": 61.434,"1425": 69.787,"1450": 72.864,"1475": 84.687,"1500": 87.983,"1525": 88.528,"1550": 95.729,"1575": 92.055,"1600": 84.6,"1625": 77.521,"1650": 80.028,"1675": 79.434,"1700": 74.677,"1725": 68.842,"1750": 62.518,"1775": 53.68,"1800": 47.303,"1825": 37.958,"1850": 28.985,"1875": 20.051,"1900": 17.46,"1925": 14.105,"1950": 12.24,"1975": 10.431,"2000": 9.256,"2025": 6.251,"2050": 5.934,"2075": 4.982,"2100": 4.908,"2125": 5.449,"2150": 1.922,"2175": 0.056}}}