{"type": "Feature","bbox": [-97.8962,18.315,-97.7418,18.4766],"geometry": {"type": "MultiPolygon","coordinates": [[[[-97.7529,18.4616,1914.9009],[-97.7554,18.4645,1921.3445],[-97.7568,18.4712,1931.817],[-97.7692,18.4766,1974.5878],[-97.773,18.4749,2008.6196],[-97.7759,18.4718,2047.5493],[-97.7755,18.4692,2035.3779],[-97.7864,18.4654,1979.0515],[-97.7938,18.4562,1911.088],[-97.7949,18.4533,1903.6787],[-97.7904,18.4514,1901.3083],[-97.793,18.444,1890.0809],[-97.7979,18.4451,1885.3917],[-97.8006,18.438,1892.7642],[-97.8043,18.4399,1888.8379],[-97.8087,18.4354,1895.46],[-97.8141,18.4425,1874.231],[-97.8183,18.4423,1870.9631],[-97.8193,18.4405,1872.3416],[-97.8342,18.4413,1865.1395],[-97.831,18.4202,1876.5383],[-97.8396,18.4202,1868.761],[-97.8395,18.4226,1866.7789],[-97.8413,18.424,1865.3513],[-97.8408,18.4298,1863.3531],[-97.8427,18.4299,1863.2212],[-97.8433,18.4326,1862.5143],[-97.8482,18.4361,1860.6946],[-97.8496,18.4416,1858.8677],[-97.8486,18.4433,1858.3308],[-97.8503,18.4418,1858.8677],[-97.8563,18.4417,1862.8635],[-97.8595,18.4367,1870.0427],[-97.8674,18.4331,1886.8416],[-97.8697,18.4302,1893.7229],[-97.8789,18.4267,1914.5226],[-97.8808,18.4234,1934.3412],[-97.8893,18.4175,1939.8027],[-97.889,18.4128,1967.7571],[-97.8797,18.413,1972.374],[-97.8762,18.416,1943.3784],[-97.8764,18.4148,1944.1531],[-97.8654,18.4151,1910.5171],[-97.8647,18.4138,1898.4409],[-97.8703,18.4107,1912.1375],[-97.8706,18.4082,1930.3484],[-97.8762,18.4016,1944.1738],[-97.8841,18.3986,1965.3828],[-97.8834,18.3952,1996.765],[-97.8878,18.3913,2039.9287],[-97.8884,18.3857,2024.0723],[-97.8905,18.3836,1951.8206],[-97.8907,18.3754,1838.6937],[-97.8962,18.3728,1770.0103],[-97.8958,18.365,1899.9928],[-97.8851,18.3573,1834.4518],[-97.8807,18.3567,1764.2065],[-97.8793,18.3579,1826.8101],[-97.8782,18.3549,1726.0269],[-97.8762,18.3553,1728.3254],[-97.8766,18.3577,1838.8018],[-97.8721,18.3582,1882.7428],[-97.8703,18.363,2011.2864],[-97.8706,18.3679,1991.6923],[-97.8663,18.3659,1939.3201],[-97.8637,18.3614,1917.1221],[-97.8613,18.3603,1870.7775],[-97.8583,18.3531,1699.2251],[-97.8505,18.3625,1834.4532],[-97.8434,18.3612,1854.374],[-97.8313,18.368,1934.7467],[-97.8274,18.3812,1929.9845],[-97.8211,18.3787,1963.7405],[-97.8177,18.3634,1836.6987],[-97.815,18.3622,1842.0753],[-97.816,18.3547,1767.2424],[-97.8139,18.3539,1758.9171],[-97.8026,18.3372,1698.2842],[-97.7992,18.335,1689.8992],[-97.7944,18.3265,1700.111],[-97.7802,18.315,1629.4348],[-97.7782,18.3175,1639.7806],[-97.7764,18.3264,1711.4097],[-97.7807,18.3389,1869.0459],[-97.7802,18.3447,1869.2734],[-97.777,18.3498,2030.7937],[-97.7698,18.351,2142.0547],[-97.77,18.3605,2156.8049],[-97.7735,18.3655,2144.6125],[-97.7817,18.3928,1993.3557],[-97.7873,18.4057,1941.8313],[-97.7919,18.4121,1922.2908],[-97.7784,18.4099,1946.1492],[-97.7668,18.4058,1970.2715],[-97.7626,18.4015,1948.9021],[-97.7608,18.3952,1867.1338],[-97.7544,18.3944,1851.5236],[-97.7462,18.3969,1819.3857],[-97.7444,18.3999,1825.2327],[-97.7456,18.4023,1824.8864],[-97.7423,18.4021,1813.4908],[-97.7418,18.4078,1824.0343],[-97.7457,18.4159,1834.2908],[-97.7451,18.4213,1844.6531],[-97.7483,18.4334,1910.0433],[-97.7472,18.435,1875.0581],[-97.7482,18.442,1909.7428],[-97.747,18.4423,1893.1859],[-97.7493,18.4456,1896.916],[-97.75,18.4527,1909.5331],[-97.7514,18.4536,1909.5331],[-97.7507,18.4564,1909.3676],[-97.7534,18.4599,1914.0991],[-97.7529,18.4616,1914.9009]]]]}
,"properties": {"GID_2": "MEX.21.53_2","GID_0": "MEX","country": "México","GID_1": "MEX.21_1","province": "Puebla","NL_NAME_1": "NA","county": "Coyotepec","VARNAME_2": "NA","NL_NAME_2": "NA","TYPE_2": "Município","ENGTYPE_2": "Municipality","CC_2": "NA","HASC_2": "NA","name": "Coyotepec.county","area_km2": 133.8257,"hist_schema_id": "Elevation0-9000","hist_area_km2": {"1625": 0.1409,"1650": 0.5032,"1675": 0.9661,"1700": 1.1271,"1725": 1.449,"1750": 1.5496,"1775": 1.449,"1800": 1.2477,"1825": 1.3079,"1850": 3.0379,"1875": 14.9463,"1900": 26.8954,"1925": 23.8991,"1950": 14.4852,"1975": 10.4618,"2000": 7.2832,"2025": 6.0157,"2050": 4.4061,"2075": 2.9777,"2100": 2.8771,"2125": 2.8972,"2150": 2.1526,"2175": 0.9253,"2200": 0.3822,"2225": 0.3821,"2250": 0.0603}}}