{"type":"Feature","properties":{"GID_2":"MEX.21.51_2","GID_0":"MEX","country":"México","GID_1":"MEX.21_1","province":"Puebla","NL_NAME_1":"NA","county":"Coxcatlán","VARNAME_2":"NA","NL_NAME_2":"NA","TYPE_2":"Município","ENGTYPE_2":"Municipality","CC_2":"NA","HASC_2":"NA","name":"Coxcatlán.county"},
"geometry":{"type": "MultiPolygon","coordinates": [[[[-97.0887,18.1492,977.9689],[-97.0421,18.1566,1907.1686],[-97.0377,18.1725,2139.2283],[-97.0391,18.1724,2109.7715],[-97.0402,18.1748,2079.2715],[-97.025,18.1898,2240.6987],[-97.0256,18.197,2136.7173],[-97.0291,18.2,1902.2484],[-97.0157,18.2088,2528.4192],[-97.0159,18.2119,2598.8418],[-97.0229,18.2198,2528.4646],[-97.0445,18.2123,1684.6329],[-97.0492,18.2126,1524.4841],[-97.0522,18.2148,1481.844],[-97.0604,18.2111,1330.2485],[-97.0713,18.2108,1162.6194],[-97.0658,18.2153,1231.6633],[-97.0655,18.2182,1298.8499],[-97.0608,18.2234,1295.4596],[-97.0626,18.2297,1381.6351],[-97.0671,18.2337,1484.3107],[-97.0726,18.2346,1506.8595],[-97.0778,18.2388,1663.4768],[-97.0835,18.2399,1850.5475],[-97.0904,18.2493,1957.1803],[-97.0982,18.2544,2309.6946],[-97.0997,18.254,2309.6946],[-97.1002,18.2596,2365.2915],[-97.0987,18.2624,2413.5725],[-97.0878,18.2723,2576.864],[-97.0874,18.2794,2599.4092],[-97.0848,18.2812,2616.6123],[-97.0847,18.2857,2550.9294],[-97.0658,18.298,2630.6184],[-97.0688,18.3032,2661.0479],[-97.0665,18.3067,2658.9624],[-97.0669,18.3097,2622.8125],[-97.0638,18.3113,2698.8206],[-97.0619,18.3166,2685.6624],[-97.0568,18.3204,2659.0056],[-97.0556,18.3306,2603.9253],[-97.0625,18.335,2564.9246],[-97.0635,18.3487,2537.8467],[-97.0693,18.3464,2337.9153],[-97.0739,18.3467,2203.4338],[-97.08,18.3421,2098.1724],[-97.0814,18.343,2107.3528],[-97.0888,18.3374,1937.5035],[-97.0948,18.3356,1878.6396],[-97.102,18.337,1804.8549],[-97.1035,18.3351,1784.9242],[-97.1071,18.3399,1965.213],[-97.1104,18.3413,2083.6699],[-97.1102,18.3338,1874.719],[-97.1125,18.3294,1695.533],[-97.1146,18.3283,1690.3931],[-97.1144,18.3298,1717.4764],[-97.1194,18.3303,1914.366],[-97.1234,18.3265,1938.5712],[-97.1268,18.3274,1949.376],[-97.1294,18.3251,1858.4449],[-97.1337,18.3268,1837.47],[-97.1364,18.3261,1808.0873],[-97.148,18.3333,1575.6575],[-97.1458,18.3451,1408.0275],[-97.1489,18.3484,1284.312],[-97.1565,18.3514,1142.285],[-97.1564,18.3477,1134.1989],[-97.1597,18.3463,1237.7921],[-97.1614,18.3427,1120.5649],[-97.168,18.3381,1103.2495],[-97.1717,18.33,1081.4059],[-97.172,18.3242,1073.7578],[-97.1745,18.3225,1085.6755],[-97.1746,18.3158,1062.9753],[-97.1778,18.3147,1061.3826],[-97.178,18.3125,1074.0836],[-97.1817,18.3099,1046.7402],[-97.1819,18.3067,1046.266],[-97.1854,18.304,1036.2737],[-97.1875,18.2996,1025.4672],[-97.1957,18.2977,1048.8634],[-97.1987,18.2897,1024.2074],[-97.2067,18.2889,1041.6725],[-97.2052,18.2726,1019.1926],[-97.1946,18.2616,1001.0085],[-97.1945,18.253,988.7753],[-97.1962,18.2507,981.6655],[-97.1943,18.2506,966.7701],[-97.1911,18.2557,965.883],[-97.1876,18.2534,963.6769],[-97.1872,18.251,957.6964],[-97.1912,18.246,941.1317],[-97.1893,18.2399,942.0614],[-97.1848,18.2352,923.6735],[-97.1804,18.2338,928.4725],[-97.1821,18.2275,924.5114],[-97.1787,18.2233,910.797],[-97.1699,18.2178,901.4806],[-97.1678,18.2142,889.0247],[-97.1664,18.2102,884.8571],[-97.1681,18.1979,881.8739],[-97.1672,18.1942,870.5793],[-97.1638,18.1939,869.861],[-97.164,18.1913,865.1522],[-97.161,18.1898,861.3232],[-97.1615,18.1852,874.3964],[-97.1543,18.1816,858.0158],[-97.1541,18.1798,847.2109],[-97.1442,18.1691,825.0093],[-97.144,18.1634,848.8242],[-97.1405,18.1733,847.4318],[-97.1338,18.1741,870.5819],[-97.134,18.1707,865.5295],[-97.1381,18.1697,847.2336],[-97.1386,18.1671,844.5323],[-97.1339,18.1577,823.0001],[-97.1239,18.1625,917.0033],[-97.1129,18.1514,855.8552],[-97.1138,18.1495,850.7615],[-97.1092,18.1502,867.5891],[-97.1057,18.1481,857.7137],[-97.0902,18.153,929.7453],[-97.0887,18.1492,977.9689]]]]}}