{"type":"Feature","properties":{"GID_2":"MEX.9.5_2","GID_0":"MEX","country":"México","GID_1":"MEX.9_1","province":"DistritoFederal","NL_NAME_1":"NA","county":"CuajimalpadeMorelos","VARNAME_2":"NA","NL_NAME_2":"NA","TYPE_2":"Município","ENGTYPE_2":"Municipality","CC_2":"NA","HASC_2":"NA","name":"Cuajimalpade_Morelos.county"},
"geometry":{"type": "MultiPolygon","coordinates": [[[[-99.2477,19.386,2498.3557],[-99.2485,19.3904,2479.9573],[-99.247,19.3942,2417.4893],[-99.2526,19.3935,2457.6956],[-99.2548,19.3952,2478.3564],[-99.2548,19.3937,2472.6587],[-99.2593,19.3926,2522.6663],[-99.2596,19.3943,2511.8669],[-99.2552,19.3991,2466.8564],[-99.2557,19.4033,2432.7085],[-99.257,19.4004,2475.9683],[-99.2581,19.4048,2439.0178],[-99.2613,19.3993,2427.5598],[-99.2654,19.3987,2465.821],[-99.2696,19.3904,2522.2417],[-99.2724,19.3897,2516.8723],[-99.2737,19.387,2560.7581],[-99.2828,19.3814,2569.2188],[-99.2857,19.3764,2621.8145],[-99.2906,19.375,2623.1692],[-99.2939,19.3701,2654.5999],[-99.2979,19.3693,2674.6206],[-99.299,19.3675,2690.855],[-99.3012,19.3697,2645.2703],[-99.3013,19.3771,2537.7925],[-99.3035,19.3778,2617.5466],[-99.3078,19.3716,2644.821],[-99.3131,19.3704,2768.9136],[-99.3154,19.3659,2791.9106],[-99.3169,19.3663,2798.4211],[-99.3195,19.3636,2800.3884],[-99.3207,19.3604,2705.2712],[-99.3181,19.3582,2644.1514],[-99.3233,19.3583,2684.8748],[-99.3264,19.3537,2704.5659],[-99.3285,19.3531,2713.8269],[-99.3283,19.3452,2802.6606],[-99.3338,19.3306,2947.5864],[-99.3566,19.3067,3387.5063],[-99.3563,19.302,3286.8862],[-99.35,19.2968,3163.5781],[-99.3535,19.2974,3160.3181],[-99.3515,19.2942,3158.2639],[-99.3545,19.2933,3159.7981],[-99.3536,19.2919,3201.4548],[-99.3649,19.2778,3146.0515],[-99.3619,19.2757,3166.3154],[-99.3482,19.274,3355.7683],[-99.3447,19.2695,3476.4055],[-99.3392,19.2677,3565.7642],[-99.3376,19.264,3672.5959],[-99.3399,19.2597,3721.582],[-99.3423,19.2411,3816.24],[-99.3308,19.2379,3678.6187],[-99.3267,19.2326,3742.1096],[-99.3243,19.2326,3784.0596],[-99.3236,19.2651,3601.7703],[-99.3174,19.2749,3421.3833],[-99.3157,19.2822,3263.4563],[-99.3164,19.3,3064.7212],[-99.314,19.3014,3037.3035],[-99.3116,19.3068,3064.4023],[-99.3102,19.3076,3012.9194],[-99.3088,19.3051,3059.3096],[-99.3033,19.3111,3025.1372],[-99.3013,19.3095,3063.7864],[-99.3,19.314,3009.6189],[-99.3018,19.3183,2975.895],[-99.3005,19.3223,2953.0781],[-99.2948,19.3169,2956.5708],[-99.2931,19.3205,2885.9001],[-99.2906,19.3215,2872.2336],[-99.2913,19.3292,2864.229],[-99.288,19.3335,2806.4177],[-99.2883,19.3307,2785.2793],[-99.2867,19.3298,2779.9746],[-99.2875,19.3311,2785.2793],[-99.285,19.3365,2733.7378],[-99.2802,19.3352,2685.8389],[-99.2812,19.3374,2680.541],[-99.2684,19.3419,2624.4092],[-99.2631,19.3468,2569.8923],[-99.259,19.3481,2540.7729],[-99.2611,19.3478,2558.6587],[-99.2582,19.3498,2560.3315],[-99.2611,19.3608,2571.3516],[-99.2668,19.3635,2588.3096],[-99.2651,19.3717,2568.1743],[-99.2684,19.3687,2581.6296],[-99.2684,19.3718,2603.8894],[-99.2698,19.3714,2612.061],[-99.2701,19.3728,2603.0327],[-99.2614,19.3758,2529.4487],[-99.2477,19.386,2498.3557]]]]}}