{"type": "Feature","bbox": [-97.7313,19.4987,-97.62,19.6029],"geometry": {"type": "MultiPolygon","coordinates": [[[[-97.6941,19.6029,2506.7944],[-97.7116,19.5932,2635.4763],[-97.7159,19.5836,2732.8428],[-97.7165,19.5759,2900.1008],[-97.714,19.5729,3048.4241],[-97.7176,19.5649,3181.9202],[-97.722,19.565,3068.876],[-97.7313,19.5592,2820.2041],[-97.7304,19.5575,2774.0225],[-97.7269,19.558,2885.9304],[-97.7261,19.5556,2931.0486],[-97.7189,19.5547,3177.79],[-97.7161,19.5504,3203.9824],[-97.713,19.5489,3171.7424],[-97.7152,19.5463,3238.0479],[-97.7155,19.539,3131.8877],[-97.7181,19.5401,3110.0522],[-97.7212,19.5372,3079.9404],[-97.7179,19.5317,3001.9148],[-97.709,19.5283,2924.0461],[-97.7039,19.5221,2828.6626],[-97.7002,19.5204,2749.3953],[-97.6958,19.5219,2682.1443],[-97.6906,19.5302,2517.8135],[-97.6941,19.5341,2624.2749],[-97.6854,19.5336,2515.2783],[-97.6809,19.5349,2553.3086],[-97.6778,19.5316,2522.0154],[-97.6787,19.5306,2477.6206],[-97.6771,19.5299,2463.1882],[-97.6773,19.528199999999998,2447.1006],[-97.6756,19.5302,2537.9678],[-97.6713,19.5311,2614.147],[-97.6683,19.5349,2650.9072],[-97.6656,19.5346,2654.2505],[-97.6598,19.5277,2546.4094],[-97.6506,19.5244,2392.8669],[-97.6482,19.522,2384.4404],[-97.6458,19.5126,2368.6372],[-97.6365,19.5045,2358.2795],[-97.6345,19.4987,2354.1521],[-97.6234,19.5068,2356.3987],[-97.6321,19.5148,2363.2666],[-97.6276,19.5178,2374.1895],[-97.6303,19.5263,2451.3008],[-97.6294,19.5298,2483.0476],[-97.6321,19.5314,2579.228],[-97.62,19.538,2648.5132],[-97.624,19.5505,2408.3706],[-97.6262,19.5524,2399.4299],[-97.6286,19.5624,2401.3228],[-97.6266,19.5679,2404.9343],[-97.6304,19.5645,2404.5337],[-97.6323,19.565,2404.7852],[-97.6328,19.5632,2405.7002],[-97.6314,19.5628,2402.1929],[-97.645,19.5614,2413.3835],[-97.6476,19.5805,2425.2124],[-97.655,19.5901,2432.415],[-97.6586,19.5914,2445.0215],[-97.6648,19.5898,2519.7239],[-97.6728,19.5918,2634.4453],[-97.6764,19.5891,2663.4756],[-97.6808,19.5883,2734.0874],[-97.6818,19.5964,2571.3301],[-97.6941,19.6029,2506.7944]]]]}
,"properties": {"GID_2": "MEX.21.107_2","GID_0": "MEX","country": "México","GID_1": "MEX.21_1","province": "Puebla","NL_NAME_1": "NA","county": "Ocotepec","VARNAME_2": "NA","NL_NAME_2": "NA","TYPE_2": "Município","ENGTYPE_2": "Municipality","CC_2": "NA","HASC_2": "NA","name": "Ocotepec.county","area_km2": 67.34991,"hist_schema_id": "Elevation0-9000","hist_area_km2": {"2350": 1.77868,"2375": 3.19732,"2400": 7.77239,"2425": 5.37425,"2450": 2.39748,"2475": 1.67824,"2500": 1.47844,"2525": 1.61832,"2550": 1.83806,"2575": 1.83812,"2600": 2.39754,"2625": 2.91698,"2650": 2.9769,"2675": 2.47732,"2700": 2.19754,"2725": 2.2575,"2750": 2.19756,"2775": 2.11765,"2800": 1.79799,"2825": 1.85794,"2850": 1.63821,"2875": 1.57827,"2900": 1.47836,"2925": 1.21869,"2950": 1.25865,"2975": 1.25865,"3000": 1.19871,"3025": 1.15875,"3050": 0.79917,"3075": 1.01891,"3100": 0.7792,"3125": 0.71924,"3150": 0.55942,"3175": 0.35962,"3200": 0.07992,"3225": 0.07992}}}