{"type":"Feature","properties":{"GID_2":"MEX.31.70_2","GID_0":"MEX","country":"México","GID_1":"MEX.31_1","province":"Yucatán","NL_NAME_1":"NA","county":"Sucilá","VARNAME_2":"NA","NL_NAME_2":"NA","TYPE_2":"Município","ENGTYPE_2":"Municipality","CC_2":"NA","HASC_2":"NA","name":"Sucilá.county"},
"geometry":{"type": "MultiPolygon","coordinates": [[[[-88.4781,21.1869,13.2274],[-88.4571,21.185,16.6562],[-88.4549,21.1522,17.8904],[-88.4188,21.1486,18.7317],[-88.4199,21.1413,18.1819],[-88.411,21.1401,22.1606],[-88.4064,21.1433,21.6503],[-88.3929,21.1463,17.3605],[-88.3968,21.1535,21.4929],[-88.3772,21.1487,26.8802],[-88.3747,21.1449,24.469],[-88.3703,21.1428,27.9556],[-88.3681,21.1469,26.9868],[-88.3547,21.1533,23.8918],[-88.356,21.1399,23.9874],[-88.3395,21.1378,22.3614],[-88.3381,21.1407,22.6487],[-88.3287,21.1448,13.3418],[-88.3318,21.1389,23.2188],[-88.3318,21.1357,23.5429],[-88.3267,21.1348,19.6102],[-88.3275,21.1253,24.7185],[-88.3218,21.125,25.7024],[-88.3164,21.1268,25.8065],[-88.3086,21.1259,21.3839],[-88.3044,21.1233,27.5222],[-88.2906,21.1195,26.0],[-88.2863,21.1208,25.7896],[-88.2806,21.1198,23.7347],[-88.2791,21.1326,23.4204],[-88.2704,21.1316,19.4435],[-88.2705,21.137,27.0967],[-88.2663,21.1439,20.5954],[-88.2662,21.1548,23.0437],[-88.2478,21.1563,20.3235],[-88.245,21.1758,21.1889],[-88.2468,21.1855,20.4973],[-88.2516,21.1858,24.0565],[-88.2717,21.1819,18.1217],[-88.2739,21.187,20.9776],[-88.2798,21.1903,15.4745],[-88.2838,21.2021,16.0943],[-88.2914,21.2067,17.0918],[-88.2855,21.2181,19.9682],[-88.2845,21.2237,15.8011],[-88.3163,21.227,14.9484],[-88.314,21.245,14.635],[-88.3028,21.2483,17.7794],[-88.3014,21.2517,19.8119],[-88.3045,21.2511,20.6976],[-88.3362,21.2564,16.8072],[-88.3347,21.262,18.5517],[-88.3388,21.2617,18.1541],[-88.3384,21.2791,9.9311],[-88.3112,21.2806,12.3695],[-88.3107,21.2897,15.2859],[-88.3161,21.2903,14.9745],[-88.3244,21.2862,11.1932],[-88.3321,21.297,19.6],[-88.3372,21.2985,19.1628],[-88.3436,21.2988,13.0528],[-88.3436,21.2961,14.3511],[-88.3782,21.3007,10.3789],[-88.3802,21.2883,14.3765],[-88.3816,21.2884,14.658],[-88.3861,21.2923,9.2495],[-88.3858,21.2967,10.4544],[-88.3892,21.3021,12.3946],[-88.42,21.2984,14.2478],[-88.4286,21.2992,9.5728],[-88.4326,21.2842,11.3427],[-88.4396,21.2787,13.851],[-88.4428,21.279,13.7844],[-88.4444,21.2698,12.8333],[-88.4646,21.2722,11.9163],[-88.4707,21.2402,12.4542],[-88.4727,21.2134,12.1768],[-88.4739,21.2088,11.5946],[-88.4799,21.2099,14.7749],[-88.4832,21.1965,14.9985],[-88.4837,21.1893,14.8276],[-88.4781,21.1869,13.2274]]]]}}