{"type":"Feature","properties":{"GID_2":"MEX.19.35_2","GID_0":"MEX","country":"México","GID_1":"MEX.19_1","province":"NuevoLeón","NL_NAME_1":"NA","county":"Marín","VARNAME_2":"NA","NL_NAME_2":"NA","TYPE_2":"Município","ENGTYPE_2":"Municipality","CC_2":"NA","HASC_2":"NA","name":"Marín.county"},
"geometry":{"type": "MultiPolygon","coordinates": [[[[-99.8906,26.0143,1296.9364],[-99.8912,26.0106,1407.9371],[-99.8945,26.0099,1326.7594],[-99.8952,26.008,1334.0402],[-99.8827,26.0069,1396.6152],[-99.8802,25.9945,1426.6685],[-99.8941,25.9825,1194.062],[-99.8985,25.9712,971.4731],[-99.9142,25.9584,641.2044],[-99.9143,25.9458,558.6528],[-99.9185,25.9421,538.762],[-99.9205,25.9365,524.2819],[-99.9243,25.9326,514.3436],[-99.9238,25.9272,501.0201],[-99.9259,25.9246,494.0418],[-99.9301,25.9242,488.9813],[-99.9318,25.9208,481.0778],[-99.9346,25.9201,476.9508],[-99.9354,25.917,468.696],[-99.9432,25.9134,455.464],[-99.9454,25.9095,452.03],[-99.9507,25.9086,442.2101],[-99.95,25.9065,438.9103],[-99.9515,25.9052,434.3339],[-99.9978,25.92,474.3414],[-100.0649,25.918,376.8164],[-100.0609,25.9125,381.5064],[-100.0688,25.8808,344.5],[-100.084,25.8704,348.7609],[-100.082,25.8659,348.3203],[-100.0858,25.8682,349.2699],[-100.0927,25.8599,353.0142],[-100.093,25.8533,360.9434],[-100.0949,25.8514,374.7969],[-100.097,25.8539,359.4375],[-100.1011,25.8491,382.366],[-100.1018,25.848,381.5406],[-100.0976,25.8474,377.0042],[-100.098,25.8345,362.352],[-100.099,25.8354,362.352],[-100.1042,25.8315,377.3805],[-100.0706,25.8177,353.6691],[-100.067,25.8182,347.2614],[-100.0659,25.8161,344.2578],[-100.0595,25.8186,343.8147],[-100.0591,25.8156,341.3637],[-100.0313,25.824,321.0483],[-100.0313,25.8168,318.5437],[-100.0246,25.811,317.7062],[-100.0232,25.8069,315.6452],[-100.0184,25.8035,315.33],[-100.0069,25.8014,313.4861],[-100.003,25.799,310.6454],[-99.9984,25.8005,312.9749],[-99.9933,25.7997,306.0483],[-99.992,25.7975,309.54],[-99.9929,25.791,313.866],[-99.9889,25.7848,306.3214],[-99.9901,25.7748,300.7957],[-99.9794,25.765,298.5414],[-99.9644,25.7656,301.2513],[-99.9559,25.7607,296.0967],[-99.9442,25.7579,290.851],[-99.9392,25.7538,292.7762],[-99.9329,25.7522,287.5425],[-99.925299999999993,25.7547,290.7105],[-99.9097,25.7544,282.2289],[-99.8973,25.7526,282.1487],[-99.8822,25.7479,274.7314],[-99.8837,25.7508,283.6458],[-99.8883,25.7529,285.1407],[-99.8897,25.7569,280.493],[-99.8941,25.7563,283.4756],[-99.8941,25.7601,289.015],[-99.9003,25.764,285.6682],[-99.8982,25.7716,290.8978],[-99.9022,25.7727,291.2731],[-99.903,25.7769,292.2585],[-99.8973,25.7773,295.4577],[-99.8941,25.7792,298.8145],[-99.8926,25.7883,306.492],[-99.9047,25.7903,307.9055],[-99.9011,25.8033,317.1767],[-99.9101,25.8063,326.9299],[-99.919,25.8054,333.0989],[-99.9268,25.8148,342.4547],[-99.9281,25.8192,339.0753],[-99.9323,25.8211,341.9101],[-99.9327,25.824,348.2326],[-99.9315,25.8245,348.2326],[-99.9349,25.8273,359.3758],[-99.9401,25.8273,372.6775],[-99.9471,25.8327,373.4152],[-99.9655,25.8348,350.0805],[-99.9692,25.8383,338.6817],[-99.9767,25.8687,368.5738],[-99.979,25.8914,423.7003],[-99.9814,25.8914,420.3042],[-99.9831,25.9039,434.1818],[-99.9783,25.8951,418.6659],[-99.9713,25.8911,414.3984],[-99.9706,25.8888,409.471],[-99.945,25.8836,395.6437],[-99.9454,25.8854,400.5509],[-99.9515,25.8879,407.6956],[-99.953,25.8911,415.0851],[-99.9517,25.8943,418.9835],[-99.9442,25.8915,427.793],[-99.8023,25.9957,494.1224],[-99.8037,25.9963,545.1453],[-99.803,25.9985,502.0423],[-99.8057,25.9988,505.2047],[-99.8036,26.0015,514.0205],[-99.8006,26.002,524.703],[-99.8023,26.0035,519.6228],[-99.8052,26.0019,514.3398],[-99.8039,26.0067,525.9956],[-99.8086,26.0047,544.1693],[-99.8107,26.0057,577.1729],[-99.8081,26.0075,546.0142],[-99.8108,26.0074,547.9644],[-99.8137,26.0111,560.1979],[-99.8133,26.0154,583.0668],[-99.8157,26.0145,564.4156],[-99.8186,26.0159,642.6781],[-99.816,26.0165,571.3978],[-99.8162,26.0182,573.4643],[-99.8292,26.0181,645.7115],[-99.8411,26.0151,1075.5104],[-99.838,26.0188,989.1947],[-99.8355,26.0187,913.0568],[-99.8359,26.0203,962.1214],[-99.8403,26.0213,968.6147],[-99.8447,26.0201,1073.3904],[-99.8437,26.0234,1006.0038],[-99.8456,26.0244,1004.4526],[-99.8487,26.0216,1115.1348],[-99.8505,26.0221,986.3032],[-99.8546,26.0144,1216.6274],[-99.8563,26.0153,1171.1532],[-99.8575,26.0116,1243.6892],[-99.8615,26.0089,1138.7681],[-99.8649,26.0091,1132.246],[-99.8666,26.0129,1130.1036],[-99.8706,26.0154,1229.0627],[-99.8678,26.0174,1179.0453],[-99.8685,26.0185,1179.0453],[-99.8713,26.0178,1164.9292],[-99.8722,26.0151,1238.1211],[-99.8764,26.0183,1189.4314],[-99.8784,26.0179,1202.2188],[-99.8799,26.0203,1242.781],[-99.882,26.0193,1277.2119],[-99.8841,26.0219,1195.1998],[-99.8846,26.0185,1347.7585],[-99.8881,26.016,1250.734],[-99.8901,26.0169,1252.7489],[-99.889,26.0152,1356.1891],[-99.8906,26.0143,1296.9364]]]]}}