{"type":"Feature","properties":{"GID_2":"MEX.14.51_2","GID_0":"MEX","country":"México","GID_1":"MEX.14_1","province":"Jalisco","NL_NAME_1":"NA","county":"Juanacatlán","VARNAME_2":"NA","NL_NAME_2":"NA","TYPE_2":"Município","ENGTYPE_2":"Municipality","CC_2":"NA","HASC_2":"NA","name":"Juanacatlán.county"},
"geometry":{"type": "MultiPolygon","coordinates": [[[[-103.0843,20.4004,1522.83],[-103.085,20.4054,1537.1526],[-103.0893,20.41,1581.4207],[-103.0913,20.4161,1688.1479],[-103.0883,20.4241,1917.5558],[-103.0889,20.4313,2136.3455],[-103.086,20.4408,2037.5471],[-103.0813,20.4829,1650.6176],[-103.0826,20.4846,1649.3429],[-103.081,20.4877,1630.7377],[-103.085,20.4878,1643.4581],[-103.0859,20.4855,1652.0684],[-103.0945,20.4833,1691.9885],[-103.0919,20.4874,1675.0686],[-103.089,20.5182,1543.557],[-103.093,20.5186,1555.4988],[-103.099,20.5135,1603.4281],[-103.0988,20.515,1604.1567],[-103.1023,20.5145,1637.665],[-103.109,20.518,1654.3826],[-103.1048,20.5244,1582.8049],[-103.0965,20.5302,1517.478],[-103.0981,20.5324,1515.2745],[-103.1179,20.5441,1514.9009],[-103.1322,20.5468,1506.4097],[-103.1311,20.5517,1487.157],[-103.1352,20.5563,1464.5623],[-103.1331,20.5581,1464.8162],[-103.1303,20.5684,1479.4963],[-103.137,20.5718,1484.3977],[-103.1429,20.5691,1463.3687],[-103.1481,20.5698,1449.767],[-103.1492,20.5673,1447.9365],[-103.1481,20.5577,1448.531],[-103.1619,20.5529,1452.1332],[-103.162,20.5487,1450.4683],[-103.1648,20.5488,1453.9247],[-103.1657,20.5391,1469.3308],[-103.1704,20.5326,1484.3397],[-103.1688,20.5299,1495.2087],[-103.1703,20.5262,1512.8135],[-103.1695,20.523,1493.17],[-103.1761,20.5134,1506.0962],[-103.1734,20.5125,1510.4055],[-103.1761,20.5029,1509.6425],[-103.182,20.5018,1510.2761],[-103.1878,20.504,1508.4348],[-103.1923,20.5016,1509.2982],[-103.2032,20.4887,1508.9421],[-103.2092,20.4838,1508.7372],[-103.21,20.4787,1508.658],[-103.2064,20.4735,1508.3785],[-103.2032,20.4623,1508.8584],[-103.1996,20.4589,1509.3735],[-103.191,20.4556,1509.9908],[-103.1721,20.4531,1508.8156],[-103.1632,20.4551,1508.0918],[-103.1447,20.4437,1508.6274],[-103.1435,20.4393,1509.2793],[-103.1453,20.4285,1508.7635],[-103.1432,20.4229,1509.1768],[-103.1397,20.4186,1509.1492],[-103.1288,20.4127,1513.3879],[-103.1216,20.4055,1509.5542],[-103.1211,20.4066,1509.5542],[-103.1092,20.4019,1510.649],[-103.1002,20.4026,1516.931],[-103.0959,20.4001,1522.5791],[-103.0843,20.4004,1522.83]]]]}}