{"type": "Feature","bbox": [-87.9627,20.3569,-86.9153,20.8121],"geometry": {"type": "MultiPolygon","coordinates": [[[[-87.3047,20.4111,1.1788],[-87.3036,20.4106,1.1788],[-87.3032,20.411,1.1788],[-87.3041,20.4111,1.1788],[-87.3047,20.4111,1.1788]]],
[[[-87.1919,20.7628,19.6743],[-87.197,20.766,20.3395],[-87.236,20.7655,20.6689],[-87.2358,20.7597,19.5884],[-87.3202,20.7467,14.8661],[-87.3024,20.7465,16.0412],[-87.3023,20.7062,14.3738],[-87.3558,20.7057,16.394],[-87.3511,20.7242,18.8938],[-87.4033,20.7273,17.9467],[-87.3788,20.6585,12.2242],[-87.5238,20.6606,26.0583],[-87.522,20.5928,27.8857],[-87.6136,20.5999,19.6326],[-87.6112,20.6543,8.3885],[-87.7443,20.6538,29.6721],[-87.9627,20.4467,25.6716],[-87.8793,20.4447,25.4575],[-87.8463,20.4413,28.5202],[-87.7705,20.5161,28.1886],[-87.6356,20.5158,28.4564],[-87.5895,20.4692,27.3008],[-87.581,20.442,30.0045],[-87.5253,20.3741,25.8482],[-87.4484,20.3941,17.1297],[-87.3778,20.3569,17.8408],[-87.3648,20.3815,16.1994],[-87.4081,20.4045,18.7809],[-87.3816,20.4467,19.4039],[-87.3637,20.4384,18.1595],[-87.3573,20.4485,17.8262],[-87.3483,20.442,17.891],[-87.3296,20.4123,13.958],[-87.3217,20.4167,13.7158],[-87.312,20.4117,6.6365],[-87.3109,20.4137,5.726],[-87.3052,20.4112,2.3918],[-87.3041,20.4133,0.5417],[-87.3017,20.4112,0.1939],[-87.3019,20.4141,0.1714],[-87.2981,20.416,0.8405],[-87.2923,20.4251,0.0],[-87.2918,20.4303,1.2037],[-87.2884,20.431,0.0],[-87.2891,20.4334,4.5103],[-87.2841,20.4376,0.0],[-87.2854,20.4398,0.7631],[-87.2846,20.4431,0.8796],[-87.2777,20.4505,2.1229],[-87.2657,20.459,0.4923],[-87.2529,20.4775,1.3967],[-87.2502,20.4793,2.1816],[-87.2488,20.4781,0.842],[-87.245,20.4797,0.0],[-87.247,20.4831,0.4908],[-87.2463,20.4849,0.7742],[-87.2389,20.4892,2.259],[-87.2357,20.4894,5.92],[-87.2344,20.4945,1.1335],[-87.2329,20.4929,1.0878],[-87.2313,20.4974,3.1928],[-87.2277,20.499,3.7113],[-87.2246,20.4985,2.0341],[-87.2263,20.5008,3.9108],[-87.2237,20.5018,4.1608],[-87.2237,20.4997,4.7146],[-87.2222,20.5008,5.2497],[-87.2248,20.4976,0.0],[-87.2236,20.497,0.0],[-87.2192,20.5036,1.6747],[-87.2174,20.5031,0.6943],[-87.1936,20.5189,0.0595],[-87.1929,20.5219,0.0],[-87.1889,20.5227,0.0],[-87.1877,20.5278,1.3239],[-87.1838,20.5313,1.0084],[-87.1762,20.5319,0.0],[-87.1691,20.5359,3.1019],[-87.1464,20.556,0.5254],[-87.1428,20.5624,1.06],[-87.1379,20.5649,0.0],[-87.1322,20.5653,0.0],[-87.1288,20.5691,6.0207],[-87.1408,20.5823,8.8322],[-87.1568,20.57,8.9781],[-87.1901,20.5847,20.7386],[-87.1814,20.5977,-0.2303],[-87.1358,20.5862,8.297],[-87.1257,20.5769,8.6487],[-87.1242,20.5774,12.0293],[-87.122,20.5756,6.8464],[-87.1021,20.5899,3.0148],[-87.0791,20.6142,3.5416],[-87.0717,20.6252,0.0],[-87.0671,20.6276,3.8926],[-87.0593,20.6362,2.1692],[-87.0533,20.647,0.0],[-87.0474,20.6479,0.0],[-87.0452,20.6523,1.5933],[-87.0333,20.661,3.9466],[-87.0218,20.6745,0.0],[-87.0184,20.6907,0.463],[-87.0102,20.7024,0.7999],[-87.0058,20.7052,0.2053],[-87.0027,20.7052,0.0],[-86.9977,20.7107,0.6648],[-86.9627,20.7301,0.0],[-86.9652,20.7369,0.0],[-86.9642,20.7478,1.9822],[-86.9614,20.7495,2.0819],[-86.9571,20.759,0.9164],[-86.9476,20.7666,1.2704],[-86.9405,20.7823,2.0604],[-86.9349,20.7874,3.4139],[-86.9246,20.803,0.3368],[-86.9202,20.808,1.5556],[-86.9153,20.8105,1.4263],[-86.9207,20.8121,6.0307],[-87.0797,20.8114,14.9537],[-87.0801,20.8066,15.4063],[-87.0895,20.8063,16.4791],[-87.0893,20.7974,14.9665],[-87.094,20.7971,16.216],[-87.0943,20.8063,17.6277],[-87.099,20.8063,17.0683],[-87.099,20.797,15.9509],[-87.1089,20.7966,17.3448],[-87.1089,20.7881,17.0402],[-87.1179,20.7878,16.7207],[-87.1178,20.7785,17.9631],[-87.1226,20.7781,17.3308],[-87.1228,20.7602,18.2702],[-87.1179,20.7601,18.5572],[-87.1178,20.7693,17.882],[-87.0952,20.7698,13.0607],[-87.0951,20.7656,13.3727],[-87.0927,20.7657,9.7794],[-87.1017,20.7537,15.649],[-87.1112,20.7587,14.981],[-87.1375,20.7284,16.641],[-87.1919,20.7628,19.6743]]]]}
,"properties": {"GID_2": "MEX.23.9_2","GID_0": "MEX","country": "México","GID_1": "MEX.23_1","province": "QuintanaRoo","NL_NAME_1": "NA","county": "Solidaridad","VARNAME_2": "NA","NL_NAME_2": "NA","TYPE_2": "Município","ENGTYPE_2": "Municipality","CC_2": "NA","HASC_2": "NA","name": "Solidaridad.county","area_km2": 2121.295,"hist_schema_id": "Elevation0-9000","hist_area_km2": {"0": 374.963,"25": 1746.332}}}