{"type": "Feature","bbox": [-96.2119,17.3256,-96.1539,17.375],"geometry": {"type": "MultiPolygon","coordinates": [[[[-96.1565,17.3606,632.9387],[-96.1565,17.3661,632.903],[-96.1703,17.3726,660.6162],[-96.176,17.3687,576.2446],[-96.1825,17.375,556.7875],[-96.1826,17.3732,474.8615],[-96.1854,17.3731,453.2567],[-96.1835,17.3698,477.6242],[-96.1858,17.3659,500.5912],[-96.1899,17.3658,498.5599],[-96.189,17.3621,469.1159],[-96.1923,17.3632,500.3057],[-96.196,17.3597,490.1136],[-96.2095,17.3616,1624.5681],[-96.2119,17.3663,1554.103],[-96.2099,17.3614,1624.5681],[-96.2009,17.3548,954.7811],[-96.1981,17.3445,524.3236],[-96.1927,17.3424,532.5577],[-96.1864,17.3432,640.9103],[-96.1817,17.3411,852.2971],[-96.1731,17.328,1381.0303],[-96.1743,17.3274,1364.2961],[-96.1648,17.3256,1667.9028],[-96.1617,17.3264,1618.4597],[-96.1617,17.3341,1255.6272],[-96.1572,17.334,1277.2565],[-96.1562,17.3392,1186.774],[-96.1541,17.3381,1218.8484],[-96.1539,17.3475,926.8792],[-96.1547,17.3503,901.4539],[-96.1553,17.3492,848.653],[-96.1569,17.3504,848.653],[-96.1553,17.3536,736.0189],[-96.1565,17.3527,736.0189],[-96.1553,17.3571,680.2412],[-96.1565,17.3606,632.9387]]]]}
,"properties": {"GID_2": "MEX.20.130_2","GID_0": "MEX","country": "México","GID_1": "MEX.20_1","province": "Oaxaca","NL_NAME_1": "NA","county": "SanCristóbalLachirioag","VARNAME_2": "NA","NL_NAME_2": "NA","TYPE_2": "Município","ENGTYPE_2": "Municipality","CC_2": "NA","HASC_2": "NA","name": "San_Cristóbal_Lachirioag.county","area_km2": 17.06011,"hist_schema_id": "Elevation0-9000","hist_area_km2": {"450": 0.10118,"475": 0.38449,"500": 0.24284,"525": 0.38449,"550": 0.36425,"575": 0.42497,"600": 0.5059,"625": 0.3845,"650": 0.4452,"675": 0.42497,"700": 0.3845,"725": 0.58686,"750": 0.36426,"775": 0.48569,"800": 0.5464,"825": 0.36427,"850": 0.48569,"875": 0.50593,"900": 0.5464,"925": 0.42499,"950": 0.36428,"975": 0.38451,"1000": 0.40475,"1025": 0.62736,"1050": 0.46547,"1075": 0.60713,"1100": 0.44523,"1125": 0.5869,"1150": 0.54642,"1175": 0.44523,"1200": 0.38452,"1225": 0.32382,"1250": 0.56667,"1275": 0.42499,"1300": 0.36429,"1325": 0.28334,"1350": 0.2631,"1375": 0.2631,"1400": 0.24287,"1425": 0.18215,"1450": 0.14167,"1475": 0.1012,"1500": 0.04048,"1525": 0.02024,"1550": 0.06072,"1575": 0.04048,"1600": 0.02024,"1625": 0.04048,"1650": 0.04048,"1700": 0.02024}}}