{"type": "Feature","bbox": [-98.8767,18.586,-98.7477,18.7272],"geometry": {"type": "MultiPolygon","coordinates": [[[[-98.7483,18.5879,1120.6792],[-98.7477,18.5902,1126.9624],[-98.7504,18.592,1131.6423],[-98.7518,18.5904,1125.3356],[-98.7552,18.5936,1132.4297],[-98.7561,18.6007,1148.6777],[-98.76,18.6017,1143.8848],[-98.7612,18.6048,1148.5273],[-98.7596,18.6068,1152.844],[-98.7607,18.6103,1157.5657],[-98.7567,18.6149,1169.136],[-98.7571,18.6173,1177.9977],[-98.7545,18.6171,1177.3247],[-98.7566,18.6195,1183.5603],[-98.753,18.6214,1184.2654],[-98.7548,18.6234,1186.6238],[-98.7545,18.6264,1192.8738],[-98.7529,18.6269,1192.0532],[-98.7547,18.6291,1198.7695],[-98.7538,18.6303,1204.134],[-98.7627,18.6341,1205.1349],[-98.7609,18.6428,1248.6321],[-98.7669,18.6443,1418.9905],[-98.7682,18.65,1589.4756],[-98.7676,18.6545,1459.688],[-98.7657,18.6556,1365.1934],[-98.7645,18.6541,1434.0284],[-98.7596,18.6539,1272.9299],[-98.7536,18.6496,1240.0],[-98.7523,18.6522,1253.6953],[-98.7549,18.6588,1273.4706],[-98.7477,18.6582,1276.8461],[-98.7479,18.6655,1293.6313],[-98.7809,18.6675,1285.8025],[-98.7841,18.671,1296.0278],[-98.7875,18.672,1294.816],[-98.7852,18.6795,1353.3699],[-98.7865,18.6857,1366.351],[-98.7839,18.693,1385.4452],[-98.7894,18.6912,1374.3346],[-98.7992,18.7,1383.7039],[-98.8035,18.6994,1376.9268],[-98.8068,18.7133,1398.8669],[-98.8114,18.7139,1397.3251],[-98.8123,18.7128,1395.6088],[-98.8359,18.721,1400.1218],[-98.8399,18.7144,1386.8845],[-98.8546,18.7217,1406.651],[-98.8705,18.7272,1620.2067],[-98.8764,18.7058,1283.9622],[-98.8708,18.7023,1316.4001],[-98.8669,18.6943,1269.5232],[-98.8661,18.6883,1257.6211],[-98.8704,18.6847,1248.2725],[-98.8754,18.685,1259.3035],[-98.8767,18.6834,1244.5961],[-98.8761,18.6721,1237.5179],[-98.8734,18.6741,1246.6309],[-98.8706,18.6718,1256.5002],[-98.8675,18.6738,1250.8962],[-98.8614,18.6729,1259.4126],[-98.8579,18.6745,1269.506],[-98.8571,18.6724,1270.4753],[-98.8543,18.6733,1274.9404],[-98.8525,18.6721,1285.6492],[-98.8523,18.6742,1284.6074],[-98.8507,18.6728,1292.7241],[-98.8505,18.6744,1281.2114],[-98.8489,18.674,1281.2114],[-98.8494,18.6752,1281.2114],[-98.848,18.6751,1296.142],[-98.8479,18.6777,1302.8694],[-98.8461,18.6778,1301.1191],[-98.8449,18.6814,1316.588],[-98.8416,18.6811,1320.0447],[-98.8199,18.6527,1263.2223],[-98.8194,18.6485,1255.8566],[-98.8181,18.648,1255.8566],[-98.8211,18.644,1246.9048],[-98.82,18.6422,1242.1147],[-98.822,18.6412,1237.4949],[-98.828,18.6416,1241.6238],[-98.8284,18.6403,1236.2971],[-98.8319,18.6421,1238.9351],[-98.8347,18.6323,1217.3533],[-98.7805,18.6049,1159.3463],[-98.7649,18.5926,1139.4211],[-98.7606,18.5863,1128.7893],[-98.7524,18.586,1127.9419],[-98.7483,18.5879,1120.6792]]]]}
,"properties": {"GID_2": "MEX.17.13_2","GID_0": "MEX","country": "México","GID_1": "MEX.17_1","province": "Morelos","NL_NAME_1": "NA","county": "Jonacatepec","VARNAME_2": "NA","NL_NAME_2": "NA","TYPE_2": "Município","ENGTYPE_2": "Municipality","CC_2": "NA","HASC_2": "NA","name": "Jonacatepec.county","area_km2": 90.41264,"hist_schema_id": "Elevation0-9000","hist_area_km2": {"1125": 1.06509,"1150": 2.85344,"1175": 5.10365,"1200": 8.41846,"1225": 9.30198,"1250": 8.25636,"1275": 7.97477,"1300": 5.80507,"1325": 8.43596,"1350": 11.1066,"1375": 11.00551,"1400": 4.7997,"1425": 1.40583,"1450": 1.32551,"1475": 0.68282,"1500": 0.76319,"1525": 0.74313,"1550": 0.52214,"1575": 0.42172,"1600": 0.20082,"1625": 0.18075,"1650": 0.04016}}}