{"type":"Feature","properties":{"GID_2":"MEX.30.7_2","GID_0":"MEX","country":"México","GID_1":"MEX.30_1","province":"Veracruz","NL_NAME_1":"NA","county":"AguaDulce","VARNAME_2":"NA","NL_NAME_2":"NA","TYPE_2":"Município","ENGTYPE_2":"Municipality","CC_2":"NA","HASC_2":"NA","name":"Agua_Dulce.county"},
"geometry":{"type": "MultiPolygon","coordinates": [[[[-94.1306,18.1716,2.785],[-94.1338,18.1783,0.0],[-94.1316,18.1832,0.0],[-94.1319,18.1929,1.0158],[-94.1384,18.2007,0.0],[-94.1359,18.1944,0.0],[-94.1379,18.1932,8.6693],[-94.1412,18.2036,3.1955],[-94.1375,18.2077,3.9718],[-94.131,18.2104,0.0],[-94.1324,18.2133,0.0],[-94.2401,18.188,0.0],[-94.2423,18.1831,13.9906],[-94.24,18.1775,7.9864],[-94.2407,18.1758,4.7521],[-94.237799999999993,18.1728,1.7802],[-94.236,18.1744,1.5],[-94.2345,18.1726,1.6061],[-94.2332,18.1672,1.5],[-94.2353,18.1664,2.2031],[-94.2355,18.1623,6.6006],[-94.2283,18.153,14.0588],[-94.2235,18.1358,18.6867],[-94.2329,18.1288,43.1301],[-94.238,18.1277,36.9569],[-94.2361,18.1237,44.5783],[-94.2389,18.1188,54.3058],[-94.2414,18.118,63.6899],[-94.2402,18.0869,29.6759],[-94.2592,18.0674,59.6059],[-94.2651,18.0654,75.5549],[-94.2764,18.0697,55.3037],[-94.2771,18.0671,49.6691],[-94.2735,18.0631,41.1283],[-94.2811,18.0635,32.2404],[-94.2824,18.062,32.541],[-94.2793,18.0586,37.2065],[-94.2787,18.0552,37.6598],[-94.2737,18.0536,46.2159],[-94.2751,18.051,50.6227],[-94.2721,18.0494,57.5207],[-94.2589,18.0474,89.1675],[-94.2513,18.0511,102.1898],[-94.2472,18.0492,76.9741],[-94.2421,18.0519,64.6046],[-94.2392,18.05,55.4007],[-94.2353,18.0507,53.5647],[-94.2326,18.045,70.6337],[-94.2248,18.0445,62.3242],[-94.2179,18.0404,83.4854],[-94.2194,18.0355,74.5385],[-94.2185,18.0311,76.4038],[-94.2209,18.0295,69.118],[-94.2189,18.0241,63.4878],[-94.2207,18.0203,58.7969],[-94.2116,18.0183,58.5251],[-94.2124,18.0156,53.9709],[-94.2177,18.0125,55.6894],[-94.2203,18.0034,42.0806],[-94.2192,18.0002,46.3645],[-94.2139,17.9971,39.7785],[-94.2079,17.9981,36.1813],[-94.2043,17.991,33.3413],[-94.1998,17.9918,32.4464],[-94.1962,17.989,28.1686],[-94.1809,17.9895,22.3011],[-94.1796,17.9835,21.1906],[-94.1761,17.9787,28.4342],[-94.1548,17.9839,15.5862],[-94.1402,17.9778,10.1837],[-94.1334,17.9787,6.8604],[-94.1302,17.9773,5.8728],[-94.1293,17.9749,7.3755],[-94.1188,17.9698,4.0019],[-94.118,17.9678,6.1204],[-94.1124,17.966,3.8449],[-94.1039,17.9669,1.2333],[-94.0993,17.9701,2.714],[-94.0929,17.9676,1.3683],[-94.0887,17.9715,0.6351],[-94.082,17.9681,1.7752],[-94.0809,17.9726,0.7993],[-94.0827,17.9787,0.7237],[-94.0765,17.9826,0.1594],[-94.0741,17.988,0.8892],[-94.0713,17.9875,0.6519],[-94.0714,17.982,0.2205],[-94.0698,17.9802,0.0],[-94.062,17.9875,0.1987],[-94.0674,17.9925,0.9489],[-94.0645,18.0024,4.0973],[-94.0671,18.0089,1.5388],[-94.0699,18.0102,1.1384],[-94.0734,18.0091,0.3228],[-94.0804,18.0036,0.6826],[-94.0842,18.0062,4.2623],[-94.0806,18.0226,0.0],[-94.0842,18.0341,0.2061],[-94.0786,18.0437,0.2785],[-94.0759,18.057,0.4539],[-94.0844,18.0683,2.9024],[-94.094,18.0721,1.3808],[-94.0979,18.0778,2.6527],[-94.0979,18.0823,3.6419],[-94.0856,18.0905,1.022],[-94.0825,18.0982,0.0],[-94.0857,18.1033,8.3262],[-94.0948,18.1097,1.8203],[-94.0991,18.115,0.0],[-94.103,18.1336,3.3894],[-94.0974,18.1574,0.0],[-94.1016,18.1708,0.0],[-94.108,18.1731,4.0799],[-94.115,18.1663,9.6548],[-94.1213,18.1638,0.0],[-94.1285,18.1671,1.6947],[-94.1296,18.1663,5.1014],[-94.1306,18.1716,2.785]]]]}}