{"type": "Feature","bbox": [-98.225,19.2465,-98.1887,19.2807],"geometry": {"type": "MultiPolygon","coordinates": [[[[-98.2153,19.2784,2289.3013],[-98.2237,19.2807,2280.3191],[-98.225,19.2788,2274.4666],[-98.2203,19.2766,2284.3208],[-98.2212,19.2735,2278.812],[-98.2192,19.2718,2276.9922],[-98.2202,19.2695,2276.0457],[-98.218,19.2654,2275.6228],[-98.2191,19.2612,2273.9639],[-98.2153,19.2599,2276.0054],[-98.2166,19.2574,2276.9375],[-98.2074,19.2549,2289.5618],[-98.2061,19.2526,2290.2122],[-98.2073,19.2465,2280.4766],[-98.2027,19.2479,2297.207],[-98.2042,19.25,2293.5325],[-98.1989,19.2485,2301.2817],[-98.1924,19.249,2324.0789],[-98.1891,19.2523,2331.8218],[-98.1887,19.258,2332.8147],[-98.1949,19.2584,2315.0029],[-98.1966,19.2595,2311.4756],[-98.1951,19.2624,2318.3999],[-98.1961,19.2652,2320.6909],[-98.1984,19.2641,2316.0786],[-98.1981,19.2653,2316.0786],[-98.2034,19.2662,2304.7327],[-98.2031,19.2675,2307.6985],[-98.2088,19.2695,2298.9736],[-98.2072,19.2714,2300.1624],[-98.2097,19.2754,2299.5071],[-98.207,19.2744,2301.605],[-98.206,19.2759,2304.3723],[-98.2153,19.2784,2289.3013]]]]}
,"properties": {"GID_2": "MEX.29.42_2","GID_0": "MEX","country": "México","GID_1": "MEX.29_1","province": "Tlaxcala","NL_NAME_1": "NA","county": "SantaIsabelXiloxoxtla","VARNAME_2": "NA","NL_NAME_2": "NA","TYPE_2": "Município","ENGTYPE_2": "Municipality","CC_2": "NA","HASC_2": "NA","name": "Santa_Isabel_Xiloxoxtla.county","area_km2": 6.10465,"hist_schema_id": "Elevation0-9000","hist_area_km2": {"2275": 1.761306,"2300": 3.362557,"2325": 0.980787}}}