{"type": "Feature","bbox": [-95.4122,18.0622,-94.9582,18.328],"geometry": {"type": "MultiPolygon","coordinates": [[[[-94.9919,18.1274,196.1138],[-94.9913,18.1281,196.1138],[-94.9923,18.1298,194.0962],[-94.9871,18.132,209.8172],[-94.987799999999993,18.134,204.3016],[-94.9858,18.1334,205.1514],[-94.9833,18.1361,217.6871],[-94.9795,18.1369,231.7588],[-94.9799,18.1421,240.9506],[-94.9771,18.1423,233.6936],[-94.978,18.1436,233.6936],[-94.9763,18.1453,249.1929],[-94.9743,18.1441,247.397],[-94.9709,18.1489,266.5109],[-94.969,18.1481,275.2186],[-94.966,18.1495,259.5192],[-94.9655,18.1549,304.6099],[-94.9617,18.1607,304.4486],[-94.9647,18.1646,282.4986],[-94.9647,18.1689,301.0721],[-94.9674,18.1683,281.4734],[-94.9643,18.1727,296.5621],[-94.9674,18.1742,295.556],[-94.9634,18.1763,329.3261],[-94.9651,18.1782,308.473],[-94.9653,18.1821,320.8374],[-94.96,18.1867,337.9089],[-94.9582,18.1939,385.0418],[-94.9594,18.196,384.2901],[-94.9639,18.1957,396.1083],[-94.9641,18.2027,425.7902],[-94.9615,18.2045,429.8488],[-94.9649,18.2041,430.6306],[-94.9621,18.2153,430.7216],[-94.9619,18.2171,448.4783],[-94.9636,18.2172,448.4783],[-94.9627,18.2267,544.0551],[-94.9595,18.2322,575.4622],[-94.964,18.2338,446.2538],[-94.9641,18.2325,472.2161],[-94.9675,18.2328,444.9832],[-94.9736,18.23,414.5438],[-94.9763,18.2257,353.3362],[-94.9791,18.228,348.0487],[-94.9778,18.2292,350.2911],[-94.9819,18.232,364.9326],[-94.9802,18.234,385.1449],[-94.9814,18.2353,391.3279],[-94.9799,18.2356,400.8661],[-94.9798,18.2391,435.1971],[-94.9812,18.2389,438.809],[-94.9805,18.2468,484.4721],[-94.9867,18.2455,559.2861],[-94.9877,18.2477,575.7683],[-94.9859,18.2481,532.419],[-94.9869,18.2494,583.9104],[-94.9858,18.2545,604.6497],[-94.9881,18.2544,591.7589],[-94.9877,18.2583,662.6289],[-94.9851,18.2614,679.4264],[-94.9868,18.2617,664.8964],[-94.9849,18.2632,661.1364],[-94.9854,18.2672,691.2289],[-94.9817,18.2673,691.6307],[-94.9806,18.2738,687.5662],[-94.9848,18.273,694.7031],[-94.9882,18.2672,676.2671],[-94.9911,18.2672,674.8498],[-94.9916,18.2636,686.6389],[-94.9944,18.2636,678.9482],[-94.9957,18.261,633.1719],[-94.9934,18.2607,690.8443],[-94.9939,18.259,679.3532],[-94.9975,18.2593,646.4817],[-94.9971,18.2611,624.3427],[-94.999,18.2612,615.5956],[-94.9983,18.2637,654.7377],[-94.9953,18.2636,653.4448],[-94.9958,18.2735,691.7154],[-94.9941,18.2736,662.9199],[-94.992,18.2842,715.0378],[-94.9957,18.284,670.1866],[-94.9953,18.2856,673.6957],[-94.9975,18.2856,677.0035],[-94.9978,18.2942,738.6181],[-94.995,18.2936,744.6401],[-94.9957,18.2985,743.1857],[-95.0012,18.2984,779.7902],[-95.0019,18.3064,774.4475],[-94.9992,18.3067,781.4534],[-94.9994,18.3081,757.9008],[-94.9895,18.3084,825.6827],[-94.9872,18.3116,837.2863],[-94.994,18.3178,778.3643],[-94.9953,18.3255,776.9749],[-94.9972,18.328,757.8738],[-95.0032,18.3238,727.8784],[-95.0105,18.3241,702.1735],[-95.0157,18.3197,684.9735],[-95.02,18.3195,685.4515],[-95.0211,18.3142,700.9716],[-95.0199,18.3118,701.3439],[-95.0259,18.3126,720.1581],[-95.0256,18.3091,681.4478],[-95.0303,18.3097,658.9548],[-95.0303,18.2992,741.6396],[-95.023,18.2981,712.1698],[-95.021,18.2844,676.2518],[-95.0283,18.2851,720.9628],[-95.0284,18.2836,713.7614],[-95.0319,18.2829,689.7182],[-95.0318,18.2806,696.6277],[-95.0352,18.2811,695.5247],[-95.0343,18.2766,720.6683],[-95.0362,18.2769,718.8644],[-95.0359,18.2741,738.3814],[-95.0378,18.2744,738.3814],[-95.0412,18.2711,712.3341],[-95.0632,18.277,612.0011],[-95.0693,18.2857,566.5635],[-95.0702,18.2905,448.267],[-95.0676,18.2994,609.4481],[-95.0732,18.2998,582.1782],[-95.0749,18.298,556.9139],[-95.0766,18.2992,582.813],[-95.0787,18.3094,658.8845],[-95.0781,18.3153,691.3241],[-95.0819,18.3128,635.9833],[-95.082,18.3105,637.1138],[-95.0846,18.3095,625.9785],[-95.0857,18.3071,623.8599],[-95.0943,18.3048,548.7435],[-95.0953,18.3059,568.6506],[-95.0981,18.3037,566.7961],[-95.1015,18.3062,551.6384],[-95.103,18.3052,538.8801],[-95.1153,18.3105,418.3134],[-95.1218,18.3059,350.5431],[-95.1224,18.2987,330.4316],[-95.1335,18.2916,253.4325],[-95.139,18.2913,222.842],[-95.1407,18.2897,222.5433],[-95.1416,18.2907,221.465],[-95.1436,18.2891,208.1109],[-95.1488,18.2937,298.3525],[-95.1478,18.2955,378.1469],[-95.1438,18.2944,286.0524],[-95.144,18.2972,348.7428],[-95.1416,18.2968,368.7696],[-95.1456,18.3001,391.4351],[-95.1443,18.3012,401.4676],[-95.1461,18.3042,428.3683],[-95.1494,18.3001,394.344],[-95.1544,18.3031,341.79],[-95.1575,18.2982,294.0972],[-95.1561,18.3017,301.5108],[-95.1613,18.304,362.0756],[-95.1645,18.3001,319.2408],[-95.1668,18.3016,346.261],[-95.1695,18.2981,323.9516],[-95.1733,18.3,311.217],[-95.1729,18.3021,332.2598],[-95.1757,18.3012,329.3972],[-95.1757,18.2979,239.5702],[-95.1793,18.298,258.4974],[-95.1795,18.3009,291.0947],[-95.1831,18.3006,274.7081],[-95.183,18.2964,202.2931],[-95.19,18.2942,149.1284],[-95.191,18.2866,192.6577],[-95.1881,18.2855,118.9439],[-95.1955,18.2689,53.0837],[-95.1989,18.2668,51.7316],[-95.199,18.2624,41.671],[-95.2049,18.2564,35.7806],[-95.2229,18.2586,35.9334],[-95.2226,18.2603,36.6388],[-95.2245,18.2617,33.4332],[-95.2212,18.261,34.9207],[-95.221,18.2621,37.983],[-95.2249,18.2627,34.8813],[-95.2268,18.2691,37.5104],[-95.2288,18.2691,36.9452],[-95.2314,18.2748,40.3691],[-95.2304,18.2766,41.9923],[-95.237,18.276,42.4152],[-95.2354,18.2771,49.027],[-95.2355,18.2817,51.3548],[-95.2374,18.2815,51.3548],[-95.2374,18.2793,48.455],[-95.2412,18.2791,46.6725],[-95.2411,18.2768,44.8928],[-95.2431,18.2769,43.9775],[-95.2431,18.2719,40.5559],[-95.245,18.272,38.3618],[-95.2463,18.2694,38.0881],[-95.2448,18.2683,36.6202],[-95.245,18.2635,31.8774],[-95.237,18.2634,31.4088],[-95.2367,18.2599,29.4461],[-95.2336,18.2599,29.348],[-95.2336,18.2572,28.8103],[-95.226,18.2562,31.3217],[-95.2265,18.255,29.4052],[-95.2226,18.2537,30.6825],[-95.2229,18.2526,30.6825],[-95.2183,18.2531,29.991],[-95.219,18.2509,29.1274],[-95.2129,18.2506,30.0872],[-95.2126,18.2524,33.2365],[-95.2073,18.2517,38.3995],[-95.2099,18.2445,32.2751],[-95.2157,18.2395,27.9303],[-95.2153,18.2382,28.1708],[-95.2185,18.2366,26.2725],[-95.2232,18.2394,26.4933],[-95.2247,18.2391,26.4933],[-95.2237,18.2367,23.4785],[-95.2309,18.2356,20.7134],[-95.2312,18.2284,20.4097],[-95.2384,18.2266,19.6874],[-95.2397,18.2328,21.9413],[-95.2504,18.2322,23.067],[-95.2507,18.2382,22.1511],[-95.2615,18.2377,24.9732],[-95.263,18.2426,26.0562],[-95.2854,18.2433,19.026],[-95.2908,18.2448,23.533],[-95.291,18.2472,30.7809],[-95.2943,18.2477,28.7371],[-95.2936,18.2454,19.9843],[-95.2919,18.2451,27.4885],[-95.2862,18.2224,18.4627],[-95.2825,18.2171,19.654],[-95.2886,18.2141,18.864],[-95.289,18.2125,22.2259],[-95.2934,18.2129,18.3426],[-95.2926,18.211,21.1899],[-95.3023,18.2179,16.7821],[-95.306,18.2152,19.9132],[-95.3039,18.2192,17.1037],[-95.3055,18.2204,15.2202],[-95.312,18.2155,18.0344],[-95.3152,18.2185,17.0962],[-95.3197,18.2192,21.9899],[-95.3221,18.2214,17.9124],[-95.3144,18.2301,16.353],[-95.318,18.2312,14.5661],[-95.319,18.2288,13.6968],[-95.3198,18.2325,16.8078],[-95.3184,18.2337,16.8078],[-95.3207,18.2355,14.3258],[-95.3243,18.2358,13.9381],[-95.3275,18.2385,14.825],[-95.3289,18.2364,14.9943],[-95.3306,18.2386,14.8674],[-95.3321,18.2374,14.8674],[-95.3305,18.2333,14.3969],[-95.333,18.2348,15.4434],[-95.3344,18.2328,17.6905],[-95.3359,18.2346,15.9191],[-95.3351,18.2365,16.2911],[-95.3377,18.238,18.1162],[-95.3417,18.235,20.0777],[-95.3513,18.2406,16.7916],[-95.3581,18.2372,14.9461],[-95.3537,18.2306,15.505],[-95.3585,18.228,13.136],[-95.3574,18.2249,14.3233],[-95.3586,18.2232,13.7062],[-95.3611,18.2231,14.251],[-95.3587,18.2279,13.136],[-95.3601,18.2304,11.5732],[-95.3655,18.2293,11.7582],[-95.3676,18.2313,11.4494],[-95.3733,18.2281,10.8958],[-95.3775,18.2228,10.9482],[-95.3817,18.2264,11.5175],[-95.3802,18.2227,12.6919],[-95.3816,18.2203,10.8834],[-95.3841,18.2232,10.3821],[-95.3881,18.2224,11.2789],[-95.3855,18.2154,11.2111],[-95.3889,18.2192,11.3436],[-95.3878,18.2138,11.5023],[-95.3929,18.2117,14.3307],[-95.4024,18.2149,14.3123],[-95.4065,18.2116,15.2452],[-95.4043,18.207,15.411],[-95.4075,18.2058,7.4007],[-95.4122,18.2,11.1072],[-95.412,18.1965,8.4723],[-95.4098,18.1939,8.8454],[-95.4027,18.1956,7.5276],[-95.4051,18.1867,8.2888],[-95.4028,18.1828,7.5128],[-95.3986,18.1841,11.259],[-95.3936,18.1902,8.7967],[-95.3889,18.1925,8.495],[-95.3867,18.1914,8.5806],[-95.3906,18.1853,7.4719],[-95.3908,18.1821,7.0],[-95.3807,18.1659,8.4948],[-95.3788,18.167,9.3632],[-95.3767,18.1761,10.2964],[-95.3748,18.1767,9.6897],[-95.3678,18.1691,9.5775],[-95.3602,18.1711,9.8683],[-95.3575,18.1701,9.1833],[-95.3537,18.161,9.3415],[-95.3455,18.1546,9.7075],[-95.3422,18.1536,10.5414],[-95.3367,18.1581,9.5215],[-95.3338,18.1581,9.6593],[-95.3332,18.1556,8.9872],[-95.3385,18.1518,11.0253],[-95.3388,18.1484,9.2459],[-95.3365,18.1463,10.006],[-95.3297,18.1476,8.5],[-95.3252,18.1455,10.5197],[-95.3235,18.1417,10.3218],[-95.3248,18.1331,10.2378],[-95.3227,18.1307,10.5388],[-95.3164,18.1318,11.5319],[-95.313,18.1385,10.3902],[-95.3095,18.1342,10.2874],[-95.3103,18.1262,11.1017],[-95.3088,18.1246,9.9062],[-95.3027,18.1237,11.18],[-95.2818,18.1278,10.8393],[-95.2741,18.1269,11.4933],[-95.2735,18.1248,11.4316],[-95.2839,18.1172,11.7298],[-95.2824,18.1147,10.6357],[-95.2764,18.112,10.8054],[-95.2711,18.1126,12.3156],[-95.2638,18.1223,11.334],[-95.2588,18.1242,19.4405],[-95.2553,18.1215,13.9954],[-95.2528,18.1215,15.0405],[-95.2521,18.1232,14.3694],[-95.2515,18.1203,13.7542],[-95.2499,18.1202,13.7542],[-95.2507,18.1186,15.3162],[-95.248,18.1175,14.3758],[-95.2434,18.1087,14.7741],[-95.2328,18.1128,16.4579],[-95.2269,18.1134,13.4858],[-95.2249,18.1102,13.6292],[-95.2261,18.1071,14.4546],[-95.2237,18.1044,15.5642],[-95.2266,18.0984,15.1217],[-95.2213,18.0946,16.5322],[-95.2193,18.0965,14.5667],[-95.2128,18.0924,28.3038],[-95.2133,18.0897,13.4925],[-95.2121,18.0887,14.4061],[-95.206,18.0869,15.4277],[-95.2044,18.0846,12.9395],[-95.2057,18.084,15.6232],[-95.2036,18.0833,14.8643],[-95.2044,18.0812,12.9793],[-95.203,18.0795,18.6271],[-95.2011,18.0804,16.7908],[-95.2011,18.0779,17.0362],[-95.1921,18.0765,17.5694],[-95.191,18.0744,17.6771],[-95.193,18.0717,15.7456],[-95.1925,18.0685,17.5875],[-95.1879,18.0655,17.8523],[-95.186,18.0622,15.1292],[-95.1828,18.0744,18.9807],[-95.1804,18.0749,19.1752],[-95.1779,18.0733,19.1405],[-95.1731,18.0744,23.1859],[-95.1679,18.0792,26.2862],[-95.162,18.0789,46.8789],[-95.1599,18.0767,55.9398],[-95.1555,18.0852,58.4819],[-95.1577,18.0853,58.1257],[-95.1597,18.0891,30.9697],[-95.1526,18.0949,37.0955],[-95.1529,18.0969,34.2972],[-95.15,18.0975,37.7015],[-95.1463,18.1044,39.0064],[-95.1414,18.1058,44.0147],[-95.1411,18.1097,43.539],[-95.1388,18.1086,43.3308],[-95.137,18.1121,43.1337],[-95.139,18.113,48.663],[-95.1374,18.1163,47.1059],[-95.135,18.1153,43.276],[-95.1287,18.1223,54.9238],[-95.1302,18.1235,54.9238],[-95.1278,18.1278,45.7419],[-95.1287,18.1287,45.5731],[-95.1227,18.1288,47.2199],[-95.1205,18.1334,46.0885],[-95.1116,18.1313,51.5818],[-95.1068,18.1284,62.6288],[-95.106,18.1298,62.8672],[-95.1028,18.1276,70.2756],[-95.0991,18.1284,67.5962],[-95.0869,18.1424,126.7752],[-95.0792,18.1404,135.9629],[-95.0777,18.1358,107.683],[-95.0737,18.1354,120.1566],[-95.0621,18.1433,145.6168],[-95.0566,18.1399,104.9507],[-95.0662,18.1325,96.0843],[-95.0596,18.1325,130.8594],[-95.0598,18.1287,100.0859],[-95.0567,18.1269,88.2715],[-95.0568,18.1295,100.7849],[-95.0504,18.1257,93.1949],[-95.050299999999993,18.1181,85.0924],[-95.0445,18.111,82.1676],[-95.0418,18.1153,98.9199],[-95.0383,18.1149,103.1242],[-95.0375,18.1177,107.4265],[-95.0331,18.1175,130.3421],[-95.0338,18.122,123.7366],[-95.0283,18.1221,155.8448],[-95.0246,18.1204,169.2082],[-95.0243,18.122,153.9205],[-95.0206,18.1216,175.4819],[-95.0218,18.1269,191.4793],[-95.0204,18.1362,216.3998],[-95.0166,18.1367,223.4834],[-95.0171,18.141,221.459],[-95.0114,18.138,246.9828],[-95.0126,18.136,238.5337],[-95.007,18.1362,250.0509],[-95.0065,18.1257,199.87],[-95.0024,18.1259,213.0803],[-95.004,18.1443,289.3544],[-95.0009,18.1411,282.0886],[-95.0012,18.1449,315.191],[-95.0032,18.1452,289.3544],[-95.0005,18.1484,337.0146],[-94.9959,18.1479,298.89],[-94.9965,18.1461,290.5564],[-94.9934,18.1455,292.8354],[-94.9939,18.142,250.9834],[-94.9978,18.1385,236.2311],[-94.9963,18.1311,220.5845],[-94.9986,18.131,225.4139],[-94.9985,18.1286,216.5106],[-94.992,18.1288,194.0962],[-94.9919,18.1274,196.1138]]]]}
,"properties": {"GID_2": "MEX.30.74_2","GID_0": "MEX","country": "México","GID_1": "MEX.30_1","province": "Veracruz","NL_NAME_1": "NA","county": "HueyapandeOcampo","VARNAME_2": "NA","NL_NAME_2": "NA","TYPE_2": "Município","ENGTYPE_2": "Municipality","CC_2": "NA","HASC_2": "NA","name": "Hueyapande_Ocampo.county","area_km2": 712.658,"hist_schema_id": "Elevation0-9000","hist_area_km2": {"0": 49.5745,"25": 223.4955,"50": 75.2709,"75": 31.8068,"100": 29.0058,"125": 24.2718,"150": 24.4324,"175": 20.685,"200": 17.5828,"225": 15.6486,"250": 14.4405,"275": 14.2393,"300": 12.8293,"325": 13.4535,"350": 14.2785,"375": 15.99,"400": 16.8955,"425": 12.1223,"450": 11.9608,"475": 10.3693,"500": 8.5772,"525": 6.3826,"550": 6.1609,"575": 5.7784,"600": 5.4363,"625": 4.4697,"650": 3.9261,"675": 5.5568,"700": 4.9928,"725": 3.3618,"750": 4.9922,"775": 4.3278,"800": 0.2617,"825": 0.0403,"850": 0.0403}}}