{"type": "Feature","bbox": [-98.9291,18.7623,-98.7921,18.9567],"geometry": {"type": "MultiPolygon","coordinates": [[[[-98.8242,18.9549,1910.905],[-98.8266,18.9567,1964.5558],[-98.8306,18.9553,1972.835],[-98.8359,18.9502,1885.8135],[-98.8399,18.9354,1850.5709],[-98.8451,18.9322,1789.3606],[-98.8504,18.9187,1737.6049],[-98.8565,18.9168,1669.5371],[-98.8571,18.9131,1655.455],[-98.8606,18.9092,1642.0984],[-98.8606,18.9135,1645.2808],[-98.8734,18.9069,1607.8752],[-98.8813,18.9075,1590.228],[-98.887,18.9049,1570.4731],[-98.8913,18.9072,1569.0242],[-98.9001,18.8985,1531.7764],[-98.9051,18.891,1505.3838],[-98.9153,18.8887,1478.5388],[-98.9173,18.8866,1471.7695],[-98.9185,18.8878,1473.6814],[-98.9284,18.882,1441.0522],[-98.9238,18.8831,1451.6475],[-98.9118,18.8731,1452.5167],[-98.915,18.871,1450.4153],[-98.9149,18.8692,1441.2687],[-98.9227,18.8608,1419.5741],[-98.9249,18.861,1414.4274],[-98.9254,18.8585,1401.7534],[-98.9289,18.8602,1410.7954],[-98.9291,18.8569,1405.9031],[-98.9269,18.8545,1398.5139],[-98.928,18.8523,1389.5551],[-98.9245,18.8502,1388.5354],[-98.9255,18.8406,1367.9363],[-98.9229,18.8337,1357.3978],[-98.926,18.8313,1345.8263],[-98.9266,18.8296,1345.0984],[-98.9248,18.8269,1345.2423],[-98.9272,18.8251,1339.417],[-98.9262,18.807,1337.9902],[-98.9175,18.8046,1375.953],[-98.9021,18.8035,1404.8629],[-98.8873,18.7986,1409.4268],[-98.8882,18.796,1400.3896],[-98.8823,18.7907,1393.7837],[-98.8854,18.7874,1383.1583],[-98.8849,18.7858,1387.9012],[-98.8816,18.7829,1388.9294],[-98.879,18.7814,1399.0731],[-98.8758,18.7862,1427.0917],[-98.8672,18.781,1397.5601],[-98.8661,18.7827,1408.8115],[-98.8542,18.771,1425.7787],[-98.858,18.7703,1418.3403],[-98.8611,18.766,1416.717],[-98.8667,18.7649,1383.634],[-98.864,18.7631,1396.3008],[-98.8587,18.7646,1413.1299],[-98.8546,18.7623,1426.5562],[-98.8505,18.7635,1436.7148],[-98.8413,18.7624,1445.4396],[-98.8365,18.7652,1452.8251],[-98.8324,18.7636,1468.4773],[-98.8319,18.7661,1471.4738],[-98.8237,18.7681,1487.0676],[-98.8169,18.7804,1530.4039],[-98.8049,18.7889,1563.6406],[-98.8041,18.7921,1571.3392],[-98.801,18.7952,1570.9188],[-98.8017,18.797,1579.6318],[-98.7995,18.7983,1580.3187],[-98.7977,18.805,1594.8534],[-98.8024,18.813,1629.5405],[-98.8021,18.8252,1668.6622],[-98.8154,18.8125,1605.2891],[-98.8217,18.8173,1628.5945],[-98.8206,18.8212,1646.9379],[-98.8271,18.8258,1670.3234],[-98.8317,18.8328,1707.0078],[-98.8279,18.8384,1722.673],[-98.8244,18.8398,1701.0791],[-98.8259,18.8399,1701.0791],[-98.8257,18.8416,1701.2972],[-98.8214,18.8429,1693.1572],[-98.819,18.8473,1699.3452],[-98.8124,18.8522,1717.024],[-98.8144,18.8596,1709.0024],[-98.8236,18.8594,1684.2097],[-98.827,18.8695,1703.8973],[-98.8252,18.8709,1717.0806],[-98.8249,18.8789,1688.7954],[-98.819,18.8789,1701.2839],[-98.8172,18.8808,1715.3484],[-98.8129,18.8813,1734.3962],[-98.8127,18.8844,1738.0986],[-98.8089,18.8885,1764.3806],[-98.8089,18.8927,1773.7778],[-98.8063,18.8953,1786.3801],[-98.8072,18.9004,1804.2336],[-98.8059,18.9048,1818.3506],[-98.802,18.9073,1851.2908],[-98.8027,18.9126,1873.8268],[-98.7974,18.9195,1921.4196],[-98.7974,18.9244,1947.9786],[-98.7921,18.9346,2006.6184],[-98.795,18.9385,2034.9067],[-98.7985,18.94,2026.4031],[-98.8094,18.943,2035.3881],[-98.8169,18.9433,1995.161],[-98.8208,18.9472,1977.0309],[-98.8215,18.9528,1989.3287],[-98.8242,18.9549,1910.905]]]]}
,"properties": {"GID_2": "MEX.17.31_2","GID_0": "MEX","country": "México","GID_1": "MEX.17_1","province": "Morelos","NL_NAME_1": "NA","county": "Yecapixtla","VARNAME_2": "NA","NL_NAME_2": "NA","TYPE_2": "Município","ENGTYPE_2": "Municipality","CC_2": "NA","HASC_2": "NA","name": "Yecapixtla.county","area_km2": 177.4932,"hist_schema_id": "Elevation0-9000","hist_area_km2": {"1325": 0.3813,"1350": 1.9868,"1375": 2.2476,"1400": 6.4221,"1425": 12.2826,"1450": 13.7274,"1475": 12.7231,"1500": 11.0973,"1525": 10.0935,"1550": 13.1028,"1575": 13.5439,"1600": 14.9284,"1625": 11.7377,"1650": 9.8716,"1675": 6.7614,"1700": 5.9789,"1725": 2.3872,"1750": 1.9658,"1775": 2.2867,"1800": 1.9055,"1825": 1.725,"1850": 2.0258,"1875": 1.8653,"1900": 2.4869,"1925": 2.8479,"1950": 3.59,"1975": 3.7503,"2000": 2.1459,"2025": 1.0028,"2050": 0.4011,"2075": 0.0602,"2100": 0.1604}}}