{"type":"Feature","properties":{"GID_2":"MEX.20.38_2","GID_0":"MEX","country":"México","GID_1":"MEX.20_1","province":"Oaxaca","NL_NAME_1":"NA","county":"HeroicaCiudaddeHuajuapandeL","VARNAME_2":"NA","NL_NAME_2":"NA","TYPE_2":"Município","ENGTYPE_2":"Municipality","CC_2":"NA","HASC_2":"NA","name":"Heroica_Ciudadde_Huajuapande_L.county"},
"geometry":{"type": "MultiPolygon","coordinates": [[[[-97.7453,17.9562,2196.7412],[-97.752,17.9729,1813.0665],[-97.7729,17.9773,1667.3767],[-97.7744,17.9749,1688.1837],[-97.7727,17.9706,1683.9897],[-97.775,17.9707,1683.9609],[-97.7762,17.9688,1705.1832],[-97.7835,17.9663,1748.5278],[-97.7896,17.9618,1683.3855],[-97.7961,17.9621,1680.1602],[-97.8018,17.9593,1646.2554],[-97.8034,17.9605,1652.241],[-97.8035,17.9538,1655.6981],[-97.8094,17.9511,1675.2971],[-97.8128,17.9465,1705.0818],[-97.813,17.9413,1728.3416],[-97.8112,17.9381,1755.6598],[-97.8193,17.9147,1856.7997],[-97.8126,17.9117,1976.334],[-97.804,17.9025,2157.5271],[-97.807,17.9019,2162.6245],[-97.8081,17.8997,2133.386],[-97.8081,17.8903,2162.0525],[-97.8107,17.8847,2090.7971],[-97.8042,17.8648,1795.5807],[-97.7976,17.8614,1749.6985],[-97.7904,17.852,1685.9689],[-97.7916,17.8453,1715.019],[-97.8047,17.8465,1887.7106],[-97.8308,17.8571,2005.4119],[-97.8437,17.8446,2100.332],[-97.8516,17.8521,2054.6328],[-97.8582,17.8645,2020.0951],[-97.8621,17.8867,1835.9417],[-97.8742,17.9,1902.61],[-97.8794,17.9147,1877.9412],[-97.8791,17.9179,1802.7861],[-97.8847,17.9137,1730.2247],[-97.8978,17.9125,1673.2859],[-97.9031,17.9092,1655.4259],[-97.9069,17.8994,1720.4805],[-97.9066,17.8598,1905.4996],[-97.9088,17.8422,2069.3833],[-97.9078,17.8354,2104.7671],[-97.8837,17.8422,1975.4133],[-97.8589,17.8443,1834.9221],[-97.8536,17.8469,1896.2239],[-97.8475,17.8404,2012.2084],[-97.8448,17.8325,1978.4087],[-97.8338,17.8235,1861.4294],[-97.8305,17.8029,1833.2733],[-97.8266,17.7907,1762.7493],[-97.8259,17.7706,1709.7406],[-97.8294,17.7662,1678.6019],[-97.8306,17.7708,1695.1121],[-97.8348,17.7763,1651.2657],[-97.8338,17.7773,1644.7598],[-97.837,17.7809,1688.0884],[-97.8392,17.7779,1709.1716],[-97.8438,17.7759,1739.0917],[-97.8473,17.7768,1818.7916],[-97.8481,17.781,1794.5159],[-97.8563,17.7707,1936.2714],[-97.8741,17.7714,2042.3196],[-97.8808,17.7696,2029.4663],[-97.897,17.7815,2057.2622],[-97.9026,17.7702,1967.2727],[-97.9103,17.7695,1891.2161],[-97.9117,17.7578,1833.3527],[-97.9022,17.7584,1815.1272],[-97.8927,17.749,1767.451],[-97.8806,17.7436,1639.6821],[-97.878,17.7407,1624.6021],[-97.8732,17.7395,1619.1599],[-97.871,17.7368,1597.5131],[-97.8699,17.7389,1612.5297],[-97.8684,17.7362,1570.8069],[-97.8594,17.7348,1518.8362],[-97.8564,17.733,1515.4261],[-97.857,17.7306,1509.882],[-97.8543,17.7292,1501.0714],[-97.8455,17.7358,1571.9351],[-97.8361,17.733,1667.3596],[-97.8345,17.7306,1642.7534],[-97.8327,17.7333,1656.9618],[-97.834,17.736,1674.463],[-97.8306,17.7345,1635.2542],[-97.8302,17.737,1607.1516],[-97.8222,17.7385,1562.0817],[-97.8253,17.7399,1564.5066],[-97.8233,17.7422,1560.0193],[-97.8199,17.7419,1527.5392],[-97.8231,17.7502,1570.4733],[-97.8273,17.7508,1621.53],[-97.8298,17.753,1649.2721],[-97.8404,17.7545,2065.8335],[-97.8358,17.7569,1906.2522],[-97.822,17.7545,1566.3131],[-97.8177,17.7501,1558.9905],[-97.8147,17.7518,1573.0203],[-97.8169,17.7561,1600.3362],[-97.7999,17.749,1559.3135],[-97.7939,17.7535,1543.5078],[-97.7907,17.739,1574.7073],[-97.7943,17.7368,1560.7391],[-97.7919,17.7368,1558.0704],[-97.793,17.735,1574.6519],[-97.7915,17.7339,1574.6519],[-97.7885,17.7341,1598.5916],[-97.7882,17.7329,1580.7759],[-97.787,17.7341,1600.8168],[-97.7806,17.7311,1610.8492],[-97.7778,17.7364,1620.7606],[-97.7734,17.7285,1655.5062],[-97.7721,17.7181,1741.2911],[-97.7666,17.7258,1658.6899],[-97.7507,17.7392,1708.5072],[-97.7536,17.7529,1711.8534],[-97.7464,17.7536,1789.7129],[-97.7349,17.7654,2063.9556],[-97.7229,17.7685,2185.0903],[-97.7275,17.7738,2061.8855],[-97.7321,17.7837,1840.9065],[-97.7257,17.7874,1963.5344],[-97.7339,17.79,1899.931],[-97.7298,17.7928,2079.5979],[-97.7273,17.7981,1970.8013],[-97.728,17.7995,1957.0941],[-97.7303,17.8031,1985.046],[-97.7364,17.8037,1884.1709],[-97.7392,17.8056,1859.7162],[-97.7446,17.8032,1749.6116],[-97.7457,17.8042,1797.8069],[-97.7341,17.8119,1738.9651],[-97.7355,17.8169,1640.1248],[-97.7411,17.8196,1615.3448],[-97.7432,17.8179,1615.6586],[-97.7467,17.8193,1616.183],[-97.748,17.8174,1622.7728],[-97.7499,17.8192,1615.5729],[-97.7468,17.8225,1606.316],[-97.7447,17.8198,1613.7874],[-97.7429,17.8219,1620.676],[-97.7397,17.8308,1724.6237],[-97.7418,17.8363,1655.0955],[-97.7362,17.840699999999998,1758.4065],[-97.7341,17.854,1886.6797],[-97.7309,17.8577,2036.7725],[-97.7276,17.8581,1852.5615],[-97.7302,17.8607,2049.0686],[-97.7185,17.8729,1720.1096],[-97.7134,17.8752,1736.1573],[-97.7171,17.8759,1869.0061],[-97.7153,17.8863,1912.9419],[-97.7212,17.8947,1936.6731],[-97.7188,17.9048,2015.6642],[-97.7129,17.9104,2134.9575],[-97.7217,17.919,2168.0986],[-97.745,17.948,2057.2771],[-97.7453,17.9562,2196.7412]]],
[[[-97.8356,17.9835,1649.4146],[-97.8263,17.9727,1640.1385],[-97.8214,17.9882,1594.0692],[-97.8162,17.992,1539.5093],[-97.8166,17.9935,1535.7123],[-97.8124,17.9945,1548.7897],[-97.8099,17.9983,1568.6215],[-97.8028,17.9984,1596.5295],[-97.7909,18.0042,1770.111],[-97.789,18.0096,1867.549],[-97.79,18.0133,1796.0686],[-97.7968,18.0162,1672.4457],[-97.7993,18.0485,1618.9436],[-97.8031,18.0404,1624.7319],[-97.8048,18.0416,1577.9336],[-97.807,18.0395,1576.2936],[-97.8138,18.0384,1558.7977],[-97.8125,18.0366,1560.5474],[-97.8125,18.0289,1698.2148],[-97.8324,18.0297,1476.108],[-97.8334,18.0316,1476.4629],[-97.8365,18.0312,1477.073],[-97.8369,18.0326,1477.3506],[-97.8427,18.0189,1579.3417],[-97.8426,17.9961,1615.9871],[-97.8356,17.9835,1649.4146]]]]}}