{"type":"Feature","properties":{"GID_1":"MEX.18_1","GID_0":"MEX","country":"México","province":"Nayarit","VARNAME_1":"NA","NL_NAME_1":"NA","TYPE_1":"Estado","ENGTYPE_1":"State","CC_1":"NA","HASC_1":"MX.NA","ISO_1":"MX-NAY","name":"Nayarit.province"},
"geometry":{"type": "MultiPolygon","coordinates": [[[[-104.2477,20.6869,993.2794],[-104.248,20.6897,1040.9365],[-104.2433,20.6917,1084.3638],[-104.2429,20.6934,1123.708],[-104.2481,20.6996,1202.6399],[-104.2474,20.7056,1259.4971],[-104.2414,20.71,1404.1709],[-104.2422,20.7152,1416.8665],[-104.2466,20.7183,1501.0687],[-104.2476,20.7263,1654.645],[-104.2599,20.7353,1698.8451],[-104.2745,20.77,1626.79],[-104.28,20.7689,1658.4901],[-104.2829,20.7835,1688.0319],[-104.2899,20.7813,1722.759],[-104.2922,20.7771,1758.5422],[-104.2902,20.773,1673.1936],[-104.2915,20.7706,1624.2439],[-104.2976,20.7708,1573.6851],[-104.3283,20.7981,1621.4764],[-104.3358,20.7899,1489.5735],[-104.3453,20.7908,1286.999],[-104.3464,20.7932,1253.9243],[-104.3582,20.7905,1080.1117],[-104.3614,20.7854,978.6403],[-104.3664,20.7831,915.7441],[-104.3752,20.7754,815.6005],[-104.3759,20.7841,923.0939],[-104.3504,20.8116,1638.8562],[-104.3641,20.8139,1462.0228],[-104.3603,20.8198,1285.9176],[-104.3571,20.8199,1311.4851],[-104.3589,20.824,1162.0242],[-104.3584,20.8343,1022.0732],[-104.3617,20.8385,949.6038],[-104.3618,20.8409,984.3635],[-104.3593,20.8401,980.4549],[-104.36,20.8419,909.5148],[-104.3563,20.8437,922.6795],[-104.3536,20.8428,906.4636],[-104.35,20.8457,962.9041],[-104.3473,20.8448,935.0023],[-104.3452,20.8464,920.7476],[-104.3419,20.8442,958.012],[-104.3343,20.8467,965.5995],[-104.3317,20.8427,965.3132],[-104.3225,20.8413,991.3592],[-104.3184,20.8386,1002.2717],[-104.3157,20.840699999999998,1024.1958],[-104.3126,20.8404,1026.9872],[-104.3127,20.843,1055.9766],[-104.3088,20.8468,1122.1897],[-104.3021,20.8457,1065.2877],[-104.2982,20.8474,1077.8724],[-104.2954,20.8455,1092.7686],[-104.2951,20.8479,1083.4663],[-104.2902,20.849,1123.8481],[-104.2907,20.8623,1230.4469],[-104.2791,20.8645,1298.9302],[-104.2854,20.875,1366.4933],[-104.2884,20.8853,1487.7253],[-104.2909,20.8878,1499.0239],[-104.2679,20.8875,1474.5844],[-104.2562,20.8969,1504.0315],[-104.2489,20.9058,1831.2197],[-104.2471,20.9099,1863.0498],[-104.2465,20.9212,1878.2302],[-104.2365,20.9262,1922.4641],[-104.2301,20.932,1909.7969],[-104.2288,20.9356,1882.4634],[-104.2211,20.9415,1960.4866],[-104.2066,20.9364,2141.2012],[-104.208,20.9511,2040.9346],[-104.2046,20.952,2099.8303],[-104.2045,20.9549,1995.6378],[-104.2011,20.9573,1956.2928],[-104.2013,20.9592,1990.1855],[-104.2186,20.9603,1772.8961],[-104.2271,20.965,1731.4467],[-104.2279,20.9672,1688.627],[-104.2331,20.9687,1643.9697],[-104.2365,20.9773,1638.9373],[-104.236,20.9807,1583.8248],[-104.2381,20.9842,1645.3744],[-104.2367,20.9903,1619.8013],[-104.2385,20.9922,1615.4852],[-104.2355,20.9942,1563.9078],[-104.2339,20.9983,1499.9144],[-104.225,20.9961,1512.9552],[-104.2232,21.0013,1543.3582],[-104.2253,21.0057,1556.5159],[-104.2243,21.0076,1560.5465],[-104.2296,21.0163,1517.3679],[-104.2371,21.0215,1399.5],[-104.2407,21.0217,1316.4795],[-104.2427,21.0273,1329.8341],[-104.2418,21.0286,1281.0305],[-104.2397,21.0279,1330.8611],[-104.236,21.0315,1246.3405],[-104.2346,21.035,1039.5645],[-104.2358,21.0401,1149.1677],[-104.2266,21.0443,1198.8323],[-104.2274,21.0457,1165.4243],[-104.2252,21.0505,1134.2177],[-104.2308,21.051,1376.2251],[-104.2311,21.0492,1345.3829],[-104.2316,21.0506,1376.2251],[-104.2384,21.0523,1464.4636],[-104.2378,21.0561,1346.926],[-104.2392,21.0571,1417.8538],[-104.2348,21.0677,1037.2474],[-104.2291,21.0662,996.4785],[-104.2218,21.07,1082.313],[-104.2226,21.0735,983.7756],[-104.2187,21.0786,860.9428],[-104.2199,21.0801,844.56],[-104.2167,21.0858,757.7147],[-104.2183,21.0878,689.5182],[-104.2181,21.0929,630.2572],[-104.2214,21.0979,616.9663],[-104.2208,21.1014,620.9845],[-104.2146,21.1077,604.9595],[-104.2155,21.114,642.9934],[-104.2121,21.1145,566.0863],[-104.2148,21.1168,595.652],[-104.2109,21.1186,644.1697],[-104.2127,21.1204,587.8585],[-104.2111,21.1211,587.1729],[-104.2123,21.1246,610.5778],[-104.2106,21.1309,561.7207],[-104.2127,21.134,528.8459],[-104.215,21.134,503.9489],[-104.2151,21.1391,531.0793],[-104.219,21.1376,474.3668],[-104.2191,21.1409,494.2423],[-104.2215,21.1407,466.4686],[-104.2212,21.1444,465.1005],[-104.2228,21.1452,479.1073],[-104.2221,21.1467,457.0605],[-104.2252,21.1512,436.7937],[-104.222,21.1533,432.2686],[-104.2249,21.1577,433.0289],[-104.2217,21.159,418.7777],[-104.2242,21.1605,456.2459],[-104.2215,21.1658,417.0505],[-104.2236,21.1692,412.6512],[-104.2205,21.1698,389.1441],[-104.2205,21.1733,419.0561],[-104.2179,21.1727,380.5],[-104.2187,21.1743,380.5],[-104.2173,21.1747,435.1267],[-104.2194,21.1766,380.5],[-104.2142,21.1796,388.1413],[-104.2087,21.1893,381.0],[-104.2028,21.1928,381.0],[-104.1964,21.1936,395.0526],[-104.1772,21.1882,393.8631],[-104.1658,21.1889,462.0149],[-104.1595,21.1846,382.0],[-104.1473,21.1916,382.5],[-104.1387,21.1887,394.8787],[-104.1286,21.191,385.9139],[-104.124,21.1963,387.4661],[-104.1108,21.1886,398.6341],[-104.1091,21.1901,404.8766],[-104.1088,21.1956,458.3249],[-104.1,21.2009,539.5],[-104.0942,21.1958,539.5],[-104.0888,21.1961,539.5],[-104.0885,21.2036,539.5],[-104.0857,21.2054,539.5],[-104.0824,21.2043,539.5],[-104.0809,21.2018,539.5],[-104.081,21.1897,539.5],[-104.0728,21.1902,539.5],[-104.0686,21.1868,539.5],[-104.0661,21.1897,539.5],[-104.0694,21.1945,539.5],[-104.0679,21.1982,539.5],[-104.0619,21.2001,539.5],[-104.0595,21.1939,539.5],[-104.0563,21.1941,539.5],[-104.0548,21.1965,539.5],[-104.055,21.2046,539.5],[-104.0528,21.2054,539.5],[-104.0452,21.1992,539.5],[-104.0384,21.2044,539.5],[-104.0357,21.2012,539.5],[-104.0353,21.196,539.5],[-104.028,21.1947,539.5],[-104.0264,21.2005,539.5],[-104.0329,21.2027,539.5],[-104.0294,21.2087,539.5],[-104.025,21.2129,539.5],[-104.0223,21.2108,539.5],[-104.0223,21.2051,559.7323],[-104.0186,21.2051,539.5],[-104.016,21.2075,539.5],[-104.0172,21.2119,539.5],[-104.0151,21.2138,539.5],[-104.0168,21.2186,539.5],[-104.0146,21.2207,540.4888],[-104.0175,21.2272,539.5],[-104.0061,21.228,539.5],[-104.0036,21.2365,578.6076],[-103.9879,21.2443,571.4916],[-103.9853,21.2492,621.8416],[-103.9745,21.2518,642.011],[-103.9735,21.2563,589.7225],[-103.9693,21.2569,629.0807],[-103.9693,21.2557,629.0807],[-103.9635,21.2541,848.7922],[-103.9606,21.2512,916.3601],[-103.9584,21.2528,961.9097],[-103.9523,21.2478,1049.4709],[-103.9517,21.2446,1116.6216],[-103.9459,21.238,1270.397],[-103.9366,21.2385,1422.3472],[-103.9304,21.2353,1675.0032],[-103.924,21.2346,1851.1722],[-103.9286,21.2498,1564.1921],[-103.9355,21.2542,1115.7864],[-103.9338,21.2609,908.5002],[-103.9311,21.2625,971.3656],[-103.9186,21.2456,1356.2733],[-103.9176,21.2413,1406.955],[-103.9197,21.2342,1617.6714],[-103.9179,21.231,1724.3445],[-103.9031,21.2334,2408.0254],[-103.8984,21.2265,2515.3777],[-103.8969,21.2268,2515.3777],[-103.8923,21.2384,2285.4602],[-103.8869,21.2392,2264.4863],[-103.8826,21.2419,2285.1514],[-103.8752,21.2386,2206.0967],[-103.8741,21.2423,2238.5427],[-103.8639,21.2463,2252.5388],[-103.8619,21.2489,2321.3027],[-103.853,21.2461,2188.9878],[-103.845,21.2403,2046.1582],[-103.84,21.2398,1955.6287],[-103.8194,21.2484,1798.4934],[-103.8172,21.2511,1848.8633],[-103.817,21.2561,2016.7994],[-103.821,21.2617,2221.1934],[-103.8211,21.2665,2214.4824],[-103.825,21.2713,2287.0989],[-103.8201,21.2765,2299.009],[-103.8203,21.281,2254.2051],[-103.8147,21.2871,2238.1128],[-103.8121,21.2866,2128.8455],[-103.8078,21.2889,2120.5706],[-103.8036,21.3003,2184.1423],[-103.7991,21.3033,2221.3865],[-103.792,21.3056,2165.1243],[-103.7855,21.3057,2175.0862],[-103.7848,21.3073,2150.072],[-103.7806,21.3085,2158.0796],[-103.7777,21.3115,2161.74],[-103.7761,21.3217,2201.8997],[-103.7725,21.3203,2109.2957],[-103.7683,21.3224,2145.2371],[-103.7668,21.3265,2172.5142],[-103.7642,21.3285,2146.9592],[-103.7574,21.3298,2109.4429],[-103.7574,21.3355,2055.8364],[-103.7556,21.3377,2066.5493],[-103.7531,21.3358,2054.6409],[-103.7494,21.3367,2072.1606],[-103.7496,21.3415,2111.4343],[-103.7524,21.3411,2129.0132],[-103.7523,21.3433,2153.0676],[-103.7483,21.3451,2152.8479],[-103.7443,21.3523,2145.1992],[-103.7471,21.3598,2182.0605],[-103.7413,21.3741,2277.1057],[-103.7498,21.3821,2260.3313],[-103.7654,21.386,2174.2117],[-103.7673,21.3884,2108.8652],[-103.7661,21.3934,2077.5056],[-103.7596,21.3994,2029.9467],[-103.7569,21.3999,2032.8158],[-103.7644,21.4079,2107.946],[-103.7644,21.4103,2083.897],[-103.7564,21.4101,1973.7173],[-103.7548,21.4157,1978.7534],[-103.7513,21.4175,1970.7871],[-103.7313,21.4159,2350.2261],[-103.7276,21.421,2212.1113],[-103.7234,21.4212,2169.1716],[-103.721,21.426,2086.0215],[-103.7284,21.4357,1924.417],[-103.7337,21.4369,1924.2847],[-103.7395,21.4417,1851.3264],[-103.742,21.4416,1826.6995],[-103.7453,21.4517,1725.9073],[-103.7445,21.4541,1683.5717],[-103.7484,21.4623,1488.8422],[-103.7529,21.4661,1441.3184],[-103.7482,21.4709,1639.7815],[-103.7494,21.4745,1698.0304],[-103.7613,21.4817,1489.0182],[-103.7691,21.483,1371.9081],[-103.7703,21.4884,1396.4323],[-103.7782,21.4921,1431.1887],[-103.7777,21.4949,1338.3961],[-103.7739,21.4962,1246.4573],[-103.7741,21.4984,1234.4271],[-103.7786,21.4983,1255.4884],[-103.7775,21.499,1338.4207],[-103.7801,21.5,1301.124],[-103.7834,21.4973,1155.5297],[-103.7848,21.4985,1155.5297],[-103.7899,21.4968,1109.3979],[-103.7911,21.4977,1137.0697],[-103.7927,21.4927,1143.2668],[-103.7912,21.4918,1103.3462],[-103.793,21.4887,1134.769],[-103.8016,21.4898,1111.5957],[-103.8004,21.4872,1072.002],[-103.814,21.4945,1279.808],[-103.8237,21.493,1274.8586],[-103.8282,21.4982,1428.0719],[-103.8279,21.5053,1433.8741],[-103.832,21.5095,1402.3539],[-103.8321,21.5134,1351.3083],[-103.8366,21.5127,1325.386],[-103.8493,21.5145,1120.4539],[-103.8599,21.5247,1084.7974],[-103.858,21.5313,959.5302],[-103.854,21.5332,895.4536],[-103.8559,21.5387,867.4626],[-103.8534,21.542,844.0012],[-103.8551,21.5429,831.8066],[-103.854,21.5435,831.8066],[-103.8558,21.546,874.9384],[-103.8545,21.547,837.5325],[-103.8563,21.5524,770.5804],[-103.8594,21.5503,829.5599],[-103.8687,21.5503,748.3771],[-103.8708,21.5487,739.1251],[-103.8816,21.5521,823.4841],[-103.881,21.5531,823.4841],[-103.8871,21.5554,950.6825],[-103.8861,21.5564,970.1775],[-103.8918,21.5625,904.955],[-103.8911,21.5638,922.7908],[-103.8927,21.566,946.068],[-103.8902,21.5716,999.874],[-103.8926,21.5741,1037.0103],[-103.8959,21.5753,1078.3922],[-103.903,21.5744,1161.4331],[-103.904,21.5775,1279.7347],[-103.9174,21.5798,1741.083],[-103.9192,21.582,1813.7319],[-103.9197,21.5858,1687.6985],[-103.9232,21.5906,1561.9033],[-103.9172,21.5979,1410.2832],[-103.9165,21.6025,1574.2961],[-103.9124,21.608,1343.6953],[-103.9148,21.6114,1707.0054],[-103.9188,21.6134,1710.5016],[-103.9191,21.6162,1548.7128],[-103.9165,21.6183,1431.5653],[-103.9148,21.6161,1418.8267],[-103.9098,21.6148,1323.764],[-103.9077,21.6187,1401.4238],[-103.9118,21.6298,1949.6415],[-103.9302,21.6419,2290.7842],[-103.9213,21.6684,2375.1592],[-103.9153,21.6708,2585.6838],[-103.9124,21.669,2524.0703],[-103.9088,21.6738,2507.6228],[-103.9062,21.6824,2418.8315],[-103.9026,21.6829,2222.1289],[-103.9033,21.6858,2324.9553],[-103.8986,21.6874,2325.4583],[-103.894,21.6938,2494.3308],[-103.8877,21.6978,2484.8091],[-103.8904,21.6994,2544.7576],[-103.8914,21.7057,2220.0659],[-103.8966,21.7127,2456.459],[-103.8959,21.7277,2469.3838],[-103.8988,21.7277,2471.6873],[-103.9007,21.7191,2554.9255],[-103.9028,21.7163,2560.6562],[-103.9042,21.7185,2589.8857],[-103.9075,21.7184,2456.6665],[-103.9108,21.7254,2361.6313],[-103.9176,21.7294,2226.3523],[-103.9213,21.7346,2161.769],[-103.9277,21.737,2147.8066],[-103.9318,21.7434,1879.1671],[-103.9336,21.7484,1793.5457],[-103.9317,21.7513,1788.9866],[-103.9201,21.7509,2232.3262],[-103.9161,21.7558,2296.793],[-103.9196,21.7593,2260.0054],[-103.9186,21.7662,2222.0029],[-103.9235,21.7718,2075.418],[-103.9275,21.7743,1771.2371],[-103.9314,21.7736,1712.8207],[-103.9345,21.7759,1612.1088],[-103.9408,21.7754,1589.9065],[-103.9445,21.7768,1564.2458],[-103.9511,21.7739,1546.574],[-103.9529,21.776,1550.9304],[-103.9536,21.7737,1560.3203],[-103.9574,21.7735,1531.5961],[-103.9581,21.772,1554.1843],[-103.961,21.7729,1525.5917],[-103.974,21.7708,1511.0361],[-103.9753,21.7725,1533.1492],[-103.9778,21.7713,1511.3582],[-103.9809,21.7743,1512.9684],[-103.9846,21.7727,1490.3951],[-103.9849,21.7752,1493.2856],[-103.9891,21.7799,1469.158],[-103.9971,21.7793,1471.0844],[-104.0026,21.783,1396.7463],[-104.0107,21.7819,1278.9473],[-104.0209,21.7871,1135.9519],[-104.028,21.7876,1090.6685],[-104.0337,21.7907,1095.3674],[-104.0392,21.7891,1058.0562],[-104.0523,21.7948,1045.261],[-104.0566,21.7923,1040.7606],[-104.0653,21.7942,1065.3208],[-104.0662,21.7898,1031.5149],[-104.0762,21.7897,1042.283],[-104.0772,21.7871,1068.761],[-104.08,21.7856,1106.1553],[-104.0799,21.7824,1057.2239],[-104.084,21.7858,1089.3116],[-104.0933,21.7846,1080.7075],[-104.0933,21.7912,1085.7552],[-104.0984,21.7928,1103.3453],[-104.1017,21.7903,1149.1367],[-104.1066,21.7909,1159.7671],[-104.1095,21.7873,1108.9536],[-104.1215,21.7905,1168.3369],[-104.1304,21.7905,1203.6838],[-104.1346,21.7937,1206.358],[-104.1388,21.8003,1240.2856],[-104.1438,21.8023,1343.4966],[-104.1465,21.8064,1384.7067],[-104.1541,21.8076,1420.7776],[-104.1562,21.8108,1433.1951],[-104.1617,21.8098,1438.507],[-104.162,21.8125,1436.4386],[-104.1638,21.8123,1436.4386],[-104.1646,21.816,1461.8728],[-104.17,21.8205,1532.926],[-104.1766,21.8322,1612.4987],[-104.1807,21.8342,1639.4166],[-104.1821,21.8371,1733.5447],[-104.1872,21.8379,1699.3308],[-104.1907,21.8511,1900.6509],[-104.197,21.8508,1891.5944],[-104.1796,21.8601,1889.8481],[-104.1778,21.8651,1864.8708],[-104.1722,21.8713,1815.541],[-104.1756,21.8719,1873.1028],[-104.1788,21.8676,1842.4189],[-104.1864,21.868,1757.3245],[-104.1909,21.8772,1618.589],[-104.196,21.8795,1544.9039],[-104.1987,21.889,1494.4771],[-104.201,21.8915,1445.4126],[-104.2002,21.9095,1259.4468],[-104.1888,21.919,1196.8954],[-104.1884,21.9282,1150.3888],[-104.1787,21.939,1021.5912],[-104.1794,21.9456,944.9744],[-104.1769,21.9489,958.0261],[-104.1764,21.9571,896.8331],[-104.1737,21.9634,748.231],[-104.1737,21.9709,610.1442],[-104.1797,21.9771,642.4287],[-104.1933,21.9854,625.8815],[-104.1973,21.9859,585.9543],[-104.2027,21.9828,547.89],[-104.2127,21.9829,521.7153],[-104.2339,21.9692,504.8064],[-104.2413,21.97,517.3215],[-104.246,21.9669,527.5237],[-104.2585,21.9722,516.5325],[-104.262,21.9769,553.5614],[-104.266,21.9769,513.3823],[-104.2754,21.9806,430.5336],[-104.2778,21.9836,443.2992],[-104.2762,21.9877,437.5031],[-104.2814,21.9997,405.5974],[-104.2856,22.0,384.7451],[-104.2894,21.9984,393.8987],[-104.2917,22.002,468.8094],[-104.2941,22.0028,389.579],[-104.3023,21.9982,385.3392],[-104.3081,21.9886,398.4],[-104.3151,21.9908,384.5082],[-104.3198,21.9842,364.9332],[-104.3249,21.9841,412.9131],[-104.3251,21.9776,413.628],[-104.3269,21.9754,370.7047],[-104.3359,21.9798,349.6873],[-104.3409,21.9778,360.3538],[-104.3436,21.9747,380.4022],[-104.3571,21.9721,395.5206],[-104.3651,21.9744,356.8704],[-104.3671,21.9728,340.1622],[-104.3699,21.9748,466.3387],[-104.3711,21.98,475.1541],[-104.3694,21.982,537.1804],[-104.3701,21.9838,539.2259],[-104.367,21.9868,611.946],[-104.3687,21.9928,585.1525],[-104.3676,21.9974,695.0742],[-104.3625,22.0062,836.8118],[-104.3622,22.0097,949.4885],[-104.36,22.0104,913.0707],[-104.36,22.0151,1088.0413],[-104.3613,22.0194,1112.9762],[-104.3666,22.02,1175.3988],[-104.368,22.0214,1240.2909],[-104.3673,22.024,1351.3748],[-104.369,22.0246,1305.626],[-104.3679,22.0256,1334.9155],[-104.3689,22.0286,1352.8364],[-104.366,22.0296,1349.0784],[-104.3666,22.0344,1406.5004],[-104.365,22.0363,1471.0061],[-104.3678,22.0452,1536.8593],[-104.3615,22.0529,1976.9673],[-104.3635,22.06,2022.3275],[-104.3635,22.0741,2109.1699],[-104.3682,22.083,2083.1506],[-104.3666,22.0875,2085.5776],[-104.3692,22.0965,2125.626],[-104.3732,22.1026,2125.4895],[-104.3698,22.1081,2153.9294],[-104.3647,22.1124,2145.385],[-104.3639,22.1221,2162.8999],[-104.3611,22.1279,2188.8516],[-104.3616,22.1367,2227.6494],[-104.3546,22.1512,2012.2053],[-104.3541,22.1567,1993.4224],[-104.3563,22.1654,2068.0542],[-104.3494,22.1698,1983.1525],[-104.3506,22.1759,2108.6768],[-104.3483,22.1763,2068.2361],[-104.3461,22.1803,2050.7026],[-104.3366,22.1867,1916.1621],[-104.3361,22.1942,1674.7723],[-104.3318,22.1998,1653.6748],[-104.3403,22.2059,1442.9402],[-104.3414,22.2096,1524.5891],[-104.3398,22.2132,1672.6653],[-104.3339,22.2158,1625.1143],[-104.332,22.2284,1677.5962],[-104.3259,22.2318,1692.3346],[-104.3285,22.2386,1732.8259],[-104.3287,22.2454,1787.5129],[-104.3238,22.2503,1833.6499],[-104.3224,22.2538,1843.2434],[-104.3191,22.2566,1853.1052],[-104.3155,22.2567,1953.6542],[-104.3108,22.2633,1982.7544],[-104.3067,22.265,2018.2611],[-104.3028,22.2717,2059.6599],[-104.3003,22.2729,2118.522],[-104.3001,22.2759,2144.448],[-104.2956,22.2769,2139.7234],[-104.2924,22.285,2172.4175],[-104.2888,22.2856,2194.168],[-104.2903,22.2868,2223.0225],[-104.2898,22.2936,2257.0378],[-104.2849,22.2971,2305.8879],[-104.2848,22.3027,2316.158],[-104.2893,22.307,2285.7065],[-104.2926,22.3074,2270.8872],[-104.2946,22.3141,2282.9431],[-104.2927,22.32,2274.1782],[-104.2978,22.3234,2179.7988],[-104.2995,22.3271,2217.5862],[-104.2972,22.3288,2202.2271],[-104.2946,22.3283,2238.6211],[-104.293,22.3307,2188.5459],[-104.2984,22.3478,2095.2319],[-104.2953,22.3475,2118.5376],[-104.2927,22.344,2083.7358],[-104.289,22.3488,1903.3472],[-104.2893,22.3521,1831.8782],[-104.2857,22.3564,1751.1841],[-104.29,22.3581,1800.1376],[-104.2931,22.3651,1787.9778],[-104.3253,22.3807,2254.7024],[-104.35,22.3864,2305.2671],[-104.3535,22.4013,2446.075],[-104.3518,22.4078,2375.6663],[-104.3488,22.4097,2428.1167],[-104.3715,22.4217,2203.7473],[-104.4592,22.3868,660.0307],[-104.4954,22.3763,520.3856],[-104.4948,22.372,488.221],[-104.4911,22.3723,602.6184],[-104.4879,22.3689,508.8083],[-104.4889,22.3654,575.3467],[-104.4948,22.3627,502.3642],[-104.495,22.3605,478.5583],[-104.4925,22.3608,487.0994],[-104.4873,22.3532,509.6194],[-104.4812,22.3527,489.7629],[-104.4812,22.3516,498.1656],[-104.4846,22.3493,548.5837],[-104.4876,22.3514,604.9429],[-104.4939,22.3512,687.2944],[-104.4996,22.3462,667.7375],[-104.5065,22.3452,624.7936],[-104.5187,22.3606,845.8464],[-104.5272,22.3614,938.5946],[-104.5305,22.3639,972.2366],[-104.5359,22.3648,990.0811],[-104.5399,22.3717,1028.9491],[-104.5479,22.3765,1028.9189],[-104.5513,22.3889,877.6386],[-104.5574,22.3858,854.3995],[-104.5586,22.3933,853.5446],[-104.5609,22.3948,787.0172],[-104.5748,22.3949,696.9615],[-104.5821,22.4004,809.2095],[-104.5838,22.4061,779.5723],[-104.5868,22.4065,792.7683],[-104.5885,22.4127,874.9501],[-104.5931,22.412,889.6562],[-104.5941,22.415,937.8301],[-104.5931,22.42,1039.8417],[-104.5946,22.423,1029.1807],[-104.5935,22.4256,1056.8311],[-104.5988,22.4317,1072.752],[-104.5972,22.4368,1078.7195],[-104.6015,22.4392,1086.5049],[-104.6054,22.4455,1095.3193],[-104.6021,22.4554,1152.1676],[-104.6026,22.4605,1171.6204],[-104.6384,22.4634,1875.9349],[-104.6553,22.4622,1848.2277],[-104.6537,22.5242,1469.1843],[-104.6557,22.5265,1457.1733],[-104.6568,22.5332,1482.6036],[-104.6556,22.5342,1578.5779],[-104.6571,22.5358,1501.2596],[-104.6558,22.5401,1529.6621],[-104.659,22.5423,1602.2852],[-104.6592,22.546,1640.2708],[-104.6631,22.5477,1731.2272],[-104.6637,22.5493,1718.4849],[-104.6623,22.5507,1744.0122],[-104.6662,22.5554,1903.3961],[-104.6676,22.5625,1885.375],[-104.67,22.5653,1906.332],[-104.681,22.5591,2165.6052],[-104.7087,22.5546,2130.9746],[-104.7111,22.5566,2143.1028],[-104.7152,22.5559,2137.0667],[-104.7198,22.569,2166.063],[-104.7232,22.567,2140.0293],[-104.7252,22.5615,2105.3901],[-104.7282,22.5589,2150.0898],[-104.7371,22.5581,2087.8459],[-104.7457,22.5635,2023.9595],[-104.7598,22.5687,1915.3881],[-104.7676,22.5814,1772.1935],[-104.7754,22.5842,1717.9187],[-104.7726,22.5919,1713.6833],[-104.7754,22.5935,1677.748],[-104.776,22.5976,1617.6481],[-104.7785,22.5995,1595.4948],[-104.7777,22.6015,1608.4128],[-104.7798,22.6033,1605.3428],[-104.7762,22.6102,1602.4792],[-104.7756,22.6172,1566.1064],[-104.7771,22.625,1546.3396],[-104.7761,22.6305,1526.6616],[-104.7741,22.6325,1485.0789],[-104.7788,22.6369,1476.8478],[-104.7776,22.6403,1464.6547],[-104.7794,22.6432,1442.3359],[-104.7889,22.648,1394.4497],[-104.8043,22.6487,1347.9066],[-104.8051,22.6458,1345.8688],[-104.8027,22.6428,1305.3207],[-104.804,22.6403,1310.2577],[-104.8078,22.6398,1298.1207],[-104.8111,22.6379,1252.3054],[-104.8113,22.6348,1167.3815],[-104.8147,22.6342,1038.8285],[-104.8165,22.6361,1190.3179],[-104.8152,22.6372,1081.5944],[-104.8167,22.6397,1003.6958],[-104.8294,22.6402,879.3163],[-104.8372,22.646,828.9579],[-104.84,22.6459,795.3511],[-104.8411,22.6494,776.1963],[-104.8401,22.6511,827.162],[-104.8584,22.6483,1542.5312],[-104.8625,22.6071,1436.4683],[-104.9605,22.5053,773.6242],[-104.9879,22.4987,594.704],[-105.0076,22.5857,1597.0388],[-105.0724,22.6565,1716.5312],[-105.0684,22.6784,1826.1647],[-105.0573,22.6881,1769.5081],[-104.8927,22.7374,864.9668],[-104.913,22.7456,486.6588],[-104.9156,22.7485,460.7375],[-104.9143,22.7603,434.4693],[-104.9115,22.7692,414.9421],[-104.9134,22.7753,535.7089],[-104.9097,22.7844,431.2224],[-104.9134,22.7905,489.7573],[-104.9104,22.7952,414.6702],[-104.9066,22.7962,432.0136],[-104.9056,22.7996,413.8812],[-104.911,22.8013,461.2816],[-104.9113,22.8034,438.1723],[-104.9084,22.8054,454.0164],[-104.9083,22.8076,421.1534],[-104.9115,22.8093,421.9998],[-104.912,22.8122,468.9514],[-104.9184,22.8198,424.5382],[-104.9298,22.8264,449.7336],[-104.9342,22.8273,470.8811],[-104.936,22.8265,458.2039],[-104.9405,22.8162,451.3587],[-104.9517,22.8218,470.7942],[-104.955,22.8162,533.618],[-104.959,22.8136,491.4945],[-104.965,22.8156,479.363],[-104.9674,22.8193,451.6332],[-104.9711,22.8206,448.3038],[-104.9717,22.8247,473.7762],[-104.9783,22.8262,478.8359],[-104.9815,22.8324,497.635],[-104.9884,22.836,469.5649],[-104.9896,22.8396,480.991],[-104.9875,22.8462,478.4265],[-104.9906,22.8521,485.377],[-104.9879,22.8555,480.6801],[-104.9885,22.875,478.8503],[-104.9897,22.8761,468.1551],[-104.987,22.8808,499.3385],[-104.98779999999999,22.8883,509.1552],[-104.9896,22.8914,480.796],[-104.9943,22.8923,486.041],[-105.0004,22.9003,500.0039],[-105.0051,22.9036,489.24],[-105.0055,22.9071,510.9705],[-105.0014,22.906,482.9224],[-105.0001,22.9089,536.1013],[-105.01,22.9224,541.5267],[-105.0099,22.9265,534.3026],[-105.0042,22.932,540.7856],[-105.004,22.9407,612.2427],[-104.9969,22.952,614.4963],[-104.998,22.9572,542.1559],[-105.0032,22.9601,622.0796],[-105.0083,22.9685,594.2378],[-105.0082,22.9715,604.4731],[-105.0031,22.977,554.5573],[-105.0138,22.9777,1061.8142],[-105.076,22.9596,1676.6974],[-105.1636,22.9539,1352.7838],[-105.2541,22.9563,237.6424],[-105.2977,22.9542,1006.1395],[-105.3236,22.9413,393.591],[-105.3283,22.943,514.0417],[-105.3284,22.947,480.3533],[-105.3304,22.9477,474.583],[-105.3282,22.9526,436.6397],[-105.332,22.9517,446.634],[-105.3341,22.9534,449.3189],[-105.3308,22.9632,436.988],[-105.3357,22.9626,451.5594],[-105.3373,22.9641,470.9998],[-105.3371,22.9677,448.6149],[-105.339,22.9664,452.7033],[-105.343,22.9682,472.6533],[-105.3425,22.9704,472.6845],[-105.3384,22.9697,476.5112],[-105.3368,22.9712,477.4845],[-105.3395,22.9761,497.5023],[-105.3363,22.9805,498.9713],[-105.3401,22.9825,498.7511],[-105.3367,22.9847,502.2513],[-105.3351,22.9888,511.8028],[-105.339,22.9929,533.8113],[-105.3337,22.9947,537.8014],[-105.3386,22.9996,546.9746],[-105.341,23.0084,603.6567],[-105.3441,23.0078,587.1492],[-105.345,23.0099,589.4907],[-105.3431,23.0123,618.9529],[-105.3494,23.0149,634.5151],[-105.3495,23.0172,627.0159],[-105.3537,23.0194,688.5697],[-105.3525,23.0248,694.1592],[-105.3533,23.0285,697.5886],[-105.3508,23.0356,814.5365],[-105.3552,23.0385,858.9069],[-105.3561,23.0442,877.1316],[-105.3588,23.0463,882.0103],[-105.3551,23.0471,899.9712],[-105.354,23.0503,928.2407],[-105.3509,23.0509,923.0835],[-105.3529,23.0553,912.9595],[-105.3503,23.0602,917.808],[-105.3581,23.0635,964.1145],[-105.3561,23.0651,966.723],[-105.359,23.0671,971.7972],[-105.3573,23.0719,1035.3064],[-105.3583,23.0739,993.1887],[-105.3613,23.0734,1005.2421],[-105.3645,23.0752,1012.8295],[-105.3679,23.0741,1027.7784],[-105.3754,23.079,1091.2681],[-105.3779,23.0778,1075.1554],[-105.3804,23.0789,1120.709],[-105.3812,23.0822,1126.7631],[-105.3833,23.0816,1112.7594],[-105.387,23.0837,1153.9891],[-105.3897,23.0823,1149.5686],[-105.3922,23.0841,1153.9869],[-105.413,23.0741,1650.4255],[-105.4131,23.0643,1497.4691],[-105.4104,23.0601,1387.8688],[-105.412,23.0483,1258.0203],[-105.4099,23.0444,1238.0846],[-105.4116,23.0412,1123.088],[-105.4101,23.0391,1091.4919],[-105.4132,23.0371,1172.0938],[-105.409,23.0236,958.6363],[-105.4326,23.024,1583.626],[-105.4533,22.9774,1045.5226],[-105.5013,22.9586,895.6523],[-105.4961,22.9342,1060.7324],[-105.4987,22.9336,1188.8545],[-105.4712,22.8833,773.8056],[-105.4753,22.8806,674.9637],[-105.4842,22.8587,498.4452],[-105.4746,22.8514,497.6346],[-105.4769,22.85,418.2694],[-105.4792,22.842,379.4922],[-105.482,22.8421,380.4958],[-105.4872,22.8391,385.9768],[-105.4857,22.8353,348.6152],[-105.4883,22.8323,331.9911],[-105.4877,22.831,328.4218],[-105.4866,22.8316,334.7898],[-105.4888,22.8296,324.6119],[-105.4877,22.826,319.9348],[-105.4902,22.8244,318.1821],[-105.4934,22.8262,343.1361],[-105.4929,22.8214,303.1966],[-105.4959,22.8174,308.8318],[-105.4934,22.8152,294.2343],[-105.4965,22.814,295.165],[-105.4949,22.813,292.701],[-105.495,22.8105,274.9656],[-105.4989,22.8111,275.1431],[-105.5005,22.8094,272.6213],[-105.5024,22.8098,277.3332],[-105.5028,22.8063,261.5011],[-105.505,22.8065,253.6881],[-105.5062,22.8046,252.426],[-105.5052,22.8031,255.716],[-105.5065,22.7977,243.6021],[-105.5112,22.7969,232.7959],[-105.5113,22.794,227.3671],[-105.509,22.7944,247.2229],[-105.5092,22.7922,247.7232],[-105.5114,22.7909,223.291],[-105.5116,22.7891,242.0863],[-105.515,22.7879,220.8367],[-105.5149,22.7857,223.5486],[-105.5191,22.7839,219.6753],[-105.5165,22.7806,220.7554],[-105.5199,22.7728,216.1438],[-105.5226,22.7756,208.3928],[-105.5248,22.7748,192.6722],[-105.5194,22.759,323.7662],[-105.5141,22.7593,310.2625],[-105.5153,22.7395,199.275],[-105.5229,22.7243,126.9123],[-105.5115,22.6852,187.8286],[-105.4981,22.6514,264.5427],[-105.464,22.6592,52.9458],[-105.4604,22.6475,80.2667],[-105.4649,22.6461,52.5363],[-105.4702,22.6401,45.8757],[-105.4742,22.6328,44.648],[-105.4727,22.6272,42.9063],[-105.4687,22.6251,53.948],[-105.451,22.627,38.3428],[-105.4496,22.6246,35.8841],[-105.4502,22.6201,35.2845],[-105.4481,22.6101,39.2731],[-105.4544,22.6052,32.3681],[-105.456,22.5987,28.0043],[-105.4391,22.5879,24.896],[-105.4369,22.5819,23.4157],[-105.4387,22.5652,20.9314],[-105.4353,22.5597,25.2822],[-105.4377,22.5557,18.7019],[-105.4346,22.55,18.9936],[-105.4366,22.5375,16.0059],[-105.4401,22.5317,14.5407],[-105.4442,22.5294,14.9984],[-105.4417,22.5243,15.2577],[-105.4449,22.5216,15.1879],[-105.4545,22.5188,13.0835],[-105.4608,22.5086,11.7125],[-105.4632,22.5106,10.8491],[-105.4664,22.5054,11.1657],[-105.4711,22.5056,10.563],[-105.4741,22.5029,10.227],[-105.4749,22.5055,10.5779],[-105.4783,22.505,9.4893],[-105.4793,22.5078,8.771],[-105.4816,22.5088,8.5935],[-105.4807,22.5139,9.5222],[-105.4838,22.5177,7.5709],[-105.492,22.5194,12.1455],[-105.4932,22.5234,8.7887],[-105.5021,22.5251,5.7357],[-105.5032,22.5277,5.9986],[-105.5096,22.517,5.6864],[-105.5132,22.517,3.2753],[-105.5134,22.5185,4.4781],[-105.5158,22.518,3.7949],[-105.5173,22.5202,3.8497],[-105.5219,22.521,3.6094],[-105.5294,22.5189,2.4721],[-105.5296,22.516,2.6907],[-105.5336,22.515,2.1919],[-105.5384,22.5304,2.153],[-105.54,22.5313,1.6871],[-105.5399,22.5356,4.7432],[-105.5417,22.5365,3.0743],[-105.5525,22.5391,0.3827],[-105.5604,22.5373,1.051],[-105.5736,22.5393,0.0],[-105.5762,22.538,0.0],[-105.576,22.5351,0.0],[-105.5839,22.5335,0.0],[-105.5973,22.5363,0.0],[-105.6017,22.5422,0.0],[-105.5999,22.5444,0.0977],[-105.6005,22.5589,0.0],[-105.6054,22.5612,0.0],[-105.6063,22.564,0.0],[-105.6121,22.5682,0.0],[-105.6177,22.5682,0.1123],[-105.622,22.5714,0.1813],[-105.6314,22.5888,0.0],[-105.6309,22.593,0.175],[-105.6422,22.5939,0.1382],[-105.6427,22.5856,0.0],[-105.6392,22.577,3.4553],[-105.654,22.5808,1.2449],[-105.6549,22.5835,2.1426],[-105.6573,22.5835,2.1576],[-105.6606,22.5864,2.9842],[-105.6643,22.5848,1.614],[-105.6698,22.5777,1.5535],[-105.6764,22.5772,0.5],[-105.6796,22.5748,0.9275],[-105.6805,22.5728,1.669],[-105.6793,22.5699,1.5897],[-105.6836,22.5697,0.5],[-105.6863,22.5727,0.5],[-105.6913,22.5689,0.5],[-105.6981,22.5694,0.5],[-105.7007,22.5634,6.3085],[-105.6999,22.5561,3.7961],[-105.6924,22.5441,1.7325],[-105.6754,22.5081,2.9812],[-105.6716,22.479,2.781],[-105.6769,22.4694,0.5],[-105.6894,22.4679,0.5],[-105.7015,22.4685,5.1847],[-105.7139,22.4756,0.9153],[-105.7267,22.4915,0.5],[-105.748,22.5373,0.5],[-105.7518,22.5408,0.5],[-105.7557,22.5409,0.9011],[-105.7599,22.532,0.0],[-105.7586,22.5271,0.0],[-105.747,22.5093,0.0],[-105.7144,22.4477,1.6322],[-105.6863,22.379,1.7635],[-105.6765,22.3487,0.0],[-105.6641,22.3006,1.2531],[-105.649,22.2123,0.0],[-105.6431,22.192,0.0],[-105.6381,22.1875,0.0],[-105.6171,22.1893,2.9698],[-105.6157,22.1912,3.3704],[-105.6141,22.1847,0.0],[-105.6161,22.1863,0.0],[-105.6277,22.1837,0.0],[-105.637,22.1834,0.0],[-105.6366,22.1819,2.0087],[-105.6391,22.1819,1.8393],[-105.6432,22.1787,1.9706],[-105.646,22.172,3.2967],[-105.6476,22.1242,1.9307],[-105.6539,22.0539,0.0],[-105.6515,22.0226,2.3066],[-105.6463,22.0001,0.7017],[-105.6388,21.9793,3.0596],[-105.6279,21.9571,2.1496],[-105.5942,21.9007,0.509],[-105.5316,21.8092,0.0],[-105.525,21.809,2.132],[-105.5281,21.8169,2.5929],[-105.5259,21.8182,4.9297],[-105.5236,21.8087,0.0],[-105.5303,21.8076,0.0],[-105.5302,21.8041,2.2407],[-105.5001,21.7474,0.0],[-105.4857,21.715,0.0],[-105.4797,21.7086,4.1295],[-105.4817,21.7079,0.816],[-105.4803,21.7043,3.1434],[-105.4557,21.6578,1.8048],[-105.4472,21.6386,5.8823],[-105.4473,21.6339,0.0],[-105.4449,21.6366,0.0],[-105.4446,21.6247,0.0],[-105.4162,21.6042,0.0],[-105.4139,21.6063,1.0528],[-105.4122,21.6053,2.1157],[-105.411,21.6011,0.4639],[-105.4133,21.6037,0.0],[-105.414,21.6026,0.0],[-105.4106,21.6,0.0],[-105.3261,21.5533,1.7169],[-105.2903,21.5279,0.372],[-105.2904,21.5324,4.814],[-105.286,21.5316,0.4707],[-105.2869,21.5295,0.7435],[-105.2802,21.5259,1.705],[-105.2678,21.5156,1.1016],[-105.2678,21.5184,3.494],[-105.2634,21.5162,0.0],[-105.2655,21.5144,0.7912],[-105.265,21.5121,0.0],[-105.2573,21.5158,7.0908],[-105.2522,21.5132,2.5922],[-105.2491,21.5134,0.4855],[-105.2473,21.5153,2.5725],[-105.2493,21.5189,3.0631],[-105.2485,21.5235,10.1944],[-105.2437,21.5275,2.8803],[-105.2488,21.5246,22.9565],[-105.2473,21.5282,4.4967],[-105.2329,21.5279,3.1517],[-105.2321,21.5267,0.859],[-105.2388,21.527,0.0],[-105.2319,21.5259,2.5451],[-105.2252,21.5219,0.6034],[-105.1973,21.4921,2.907],[-105.1964,21.49,25.4981],[-105.2007,21.4805,4.4567],[-105.1923,21.4698,9.7414],[-105.1878,21.4597,8.4429],[-105.1885,21.4449,13.021],[-105.1945,21.4365,4.3406],[-105.202,21.4361,0.262],[-105.2055,21.4299,0.0],[-105.2049,21.4262,21.0247],[-105.2084,21.4185,29.6627],[-105.2135,21.4154,0.0],[-105.2178,21.4103,34.3917],[-105.2197,21.405,0.0],[-105.2182,21.3949,2.3621],[-105.22,21.3879,0.0],[-105.2229,21.385,22.895],[-105.2307,21.3864,0.0],[-105.229,21.3834,0.0],[-105.2305,21.3743,0.0],[-105.2324,21.3719,39.3907],[-105.2385,21.3721,0.0],[-105.2371,21.3708,27.033],[-105.2369,21.3653,0.0],[-105.2386,21.3622,0.0],[-105.2392,21.3537,5.9762],[-105.2414,21.3516,18.8574],[-105.2436,21.353,3.1913],[-105.2442,21.3504,37.5275],[-105.2477,21.3476,0.9849],[-105.2376,21.3486,1.3263],[-105.2418,21.344,4.3724],[-105.2415,21.3469,4.7194],[-105.2443,21.3465,4.5432],[-105.2335,21.3157,4.9924],[-105.226,21.285,1.3525],[-105.2196,21.2445,7.6937],[-105.2164,21.205,0.8154],[-105.218,21.1995,1.4809],[-105.2239,21.1963,0.0],[-105.2275,21.1879,31.5253],[-105.2312,21.1865,3.0955],[-105.2332,21.1809,6.9599],[-105.2324,21.177,0.0],[-105.2284,21.1724,0.0],[-105.2298,21.1701,14.1764],[-105.2319,21.1708,0.0],[-105.2322,21.165,0.0],[-105.2258,21.1652,0.0],[-105.2237,21.159,7.9393],[-105.2258,21.1534,36.2222],[-105.2314,21.1492,4.6107],[-105.2321,21.1462,4.0137],[-105.2353,21.1453,20.9537],[-105.2361,21.1402,0.0],[-105.2311,21.1399,29.4135],[-105.2313,21.1388,29.4135],[-105.239,21.1323,0.0],[-105.2376,21.1221,12.706],[-105.2332,21.121,24.228],[-105.2299,21.1178,0.0],[-105.2283,21.1036,0.0],[-105.2312,21.0794,0.7116],[-105.2388,21.0564,0.0],[-105.2436,21.0482,6.7681],[-105.2585,21.0361,0.9638],[-105.2693,21.0251,4.3712],[-105.2734,21.023,2.9428],[-105.2781,21.0237,8.6821],[-105.2783,21.0274,0.0],[-105.2828,21.0281,7.4026],[-105.2873,21.0255,1.4194],[-105.2952,21.0255,0.0],[-105.298,21.0279,111.9058],[-105.299,21.0317,79.4246],[-105.3029,21.0327,34.4501],[-105.3041,21.0351,42.6181],[-105.3087,21.0366,12.826],[-105.3131,21.0349,5.6579],[-105.3143,21.0226,0.0],[-105.3183,21.0065,10.1251],[-105.3214,21.0007,6.4822],[-105.3267,20.9965,0.0],[-105.3316,20.9857,1.3219],[-105.3406,20.9787,51.2616],[-105.3452,20.9791,0.0],[-105.3591,20.9553,6.1941],[-105.362,20.9539,23.4053],[-105.3673,20.9552,4.6832],[-105.3763,20.9457,0.0],[-105.3835,20.9442,10.5723],[-105.3883,20.9366,27.2694],[-105.3908,20.9372,0.0],[-105.393,20.934,2.7226],[-105.4017,20.9314,12.0368],[-105.4159,20.9018,1.9584],[-105.4191,20.8972,6.3325],[-105.4211,20.8979,0.0],[-105.4256,20.8868,0.0],[-105.4357,20.8736,7.3116],[-105.4442,20.8699,29.2561],[-105.446,20.8729,1.8028],[-105.4499,20.8736,22.5979],[-105.4509,20.876,2.3571],[-105.4529,20.8742,4.3936],[-105.4563,20.8586,3.1006],[-105.4624,20.8516,18.7676],[-105.4617,20.8496,29.3894],[-105.4655,20.8406,0.0],[-105.4655,20.8363,1.5955],[-105.4697,20.8312,0.0],[-105.4688,20.8302,10.0264],[-105.4733,20.8246,23.5006],[-105.4735,20.8223,32.6297],[-105.4772,20.8189,0.0],[-105.4773,20.8145,2.6619],[-105.4873,20.7965,0.5522],[-105.4942,20.7893,1.8641],[-105.5073,20.7823,1.4206],[-105.5122,20.7835,25.5593],[-105.5183,20.7888,43.2979],[-105.5196,20.7918,25.6318],[-105.5285,20.7879,0.0],[-105.5313,20.7793,3.0579],[-105.5393,20.7708,0.312],[-105.5376,20.766,1.8319],[-105.5381,20.762,1.3999],[-105.5364,20.7614,6.9067],[-105.5349,20.7576,0.0],[-105.5331,20.7575,6.186],[-105.5288,20.7647,11.2994],[-105.5205,20.771,12.1469],[-105.511,20.7723,11.2574],[-105.4987,20.7671,10.8564],[-105.4759,20.7524,3.1136],[-105.4728,20.7548,8.4637],[-105.4659,20.7558,12.7294],[-105.4599,20.7517,0.0],[-105.4571,20.7527,4.8041],[-105.4448,20.748,2.0873],[-105.4403,20.7491,18.9141],[-105.4331,20.7476,6.4416],[-105.4121,20.7355,16.2661],[-105.4059,20.7371,34.0627],[-105.3994,20.7354,0.0],[-105.3889,20.7408,10.7561],[-105.3871,20.7439,18.8072],[-105.3814,20.7469,1.4478],[-105.3805,20.7506,10.1419],[-105.3715,20.7513,0.9673],[-105.3699,20.7565,9.9625],[-105.3663,20.7582,1.4293],[-105.366,20.7606,20.9569],[-105.3632,20.7626,13.9963],[-105.3589,20.7629,7.8364],[-105.3481,20.7599,2.2068],[-105.3327,20.7496,6.6277],[-105.3151,20.7316,4.0191],[-105.3066,20.7179,4.5578],[-105.2953,20.6895,0.0],[-105.2936,20.6929,2.1633],[-105.2898,20.6916,0.0],[-105.2869,20.6864,4.7794],[-105.2896,20.6856,7.3208],[-105.2885,20.6874,2.7262],[-105.2903,20.6893,0.0],[-105.2939,20.6899,0.0],[-105.2945,20.6884,0.0],[-105.2895,20.6809,4.4888],[-105.2841,20.6735,1.8059],[-105.2763,20.672,1.5491],[-105.2742,20.6754,8.6775],[-105.2784,20.6759,2.3246],[-105.2784,20.682,0.0],[-105.2724,20.6838,3.2152],[-105.2657,20.6789,4.451],[-105.2613,20.6798,4.442],[-105.2603,20.6856,3.8727],[-105.2627,20.6892,2.9895],[-105.2606,20.6924,2.3829],[-105.2565,20.6946,1.6074],[-105.2559,20.7028,2.7234],[-105.2519,20.705,3.2334],[-105.2426,20.7042,3.6109],[-105.2422,20.7078,5.7244],[-105.2462,20.7129,5.802],[-105.2437,20.7197,3.9976],[-105.2456,20.7241,7.7425],[-105.2447,20.7266,4.6353],[-105.2391,20.7259,7.0094],[-105.2369,20.7275,7.8292],[-105.2399,20.7474,9.3528],[-105.2342,20.7476,9.3606],[-105.2229,20.7562,8.7425],[-105.2203,20.7612,12.1666],[-105.2114,20.7659,15.2942],[-105.2094,20.7665,16.8796],[-105.2058,20.7641,15.3982],[-105.2019,20.7672,15.4914],[-105.201,20.7726,15.0433],[-105.197,20.7772,18.844],[-105.1734,20.7677,19.9243],[-105.1623,20.7925,24.6665],[-105.171,20.7961,24.6695],[-105.1676,20.8037,26.6257],[-105.1728,20.806,26.7689],[-105.1711,20.8112,28.3961],[-105.1741,20.8133,27.8459],[-105.1712,20.8168,29.0045],[-105.1713,20.8211,29.809],[-105.1657,20.8205,30.7367],[-105.1651,20.8289,31.6663],[-105.1616,20.8311,33.9592],[-105.1638,20.8343,33.4496],[-105.1612,20.84,34.1622],[-105.1628,20.8487,36.774],[-105.1578,20.8501,37.3565],[-105.1554,20.8531,40.0084],[-105.1606,20.8574,39.6487],[-105.1527,20.8619,41.4723],[-105.1539,20.867,40.297],[-105.153,20.8689,43.9558],[-105.1482,20.8687,43.1525],[-105.1412,20.8756,46.1888],[-105.1391,20.8819,56.4244],[-105.1425,20.8838,46.0072],[-105.1419,20.8872,53.7747],[-105.1281,20.8892,50.3708],[-105.1171,20.897,55.556399999999996],[-105.1172,20.9008,55.246],[-105.112,20.9004,73.2855],[-105.1122,20.9048,54.6531],[-105.1045,20.9078,60.2858],[-105.1045,20.9123,56.9697],[-105.0974,20.9159,59.8329],[-105.0994,20.9181,60.8094],[-105.0986,20.9194,74.3322],[-105.0945,20.9195,60.8161],[-105.0855,20.9239,64.1293],[-105.0807,20.9314,69.4104],[-105.0728,20.928,67.0086],[-105.0682,20.9318,70.515],[-105.0652,20.9313,69.751],[-105.0605,20.9335,72.1584],[-105.0581,20.9309,74.4027],[-105.0544,20.9328,75.3848],[-105.0502,20.9317,76.1177],[-105.0474,20.9344,77.6495],[-105.0446,20.9314,76.2289],[-105.0397,20.9302,79.2802],[-105.0363,20.9249,80.3223],[-105.0389,20.9185,109.1314],[-105.0391,20.9131,131.3789],[-105.0316,20.9092,86.3095],[-105.0293,20.9093,86.9864],[-105.0276,20.9114,88.9617],[-105.0212,20.9115,92.6304],[-105.0202,20.9181,109.1194],[-105.0121,20.9186,92.326],[-105.0063,20.9225,126.3067],[-105.0022,20.9159,103.9702],[-105.0034,20.9109,105.2266],[-105.0002,20.9117,101.5],[-104.9974,20.9195,119.6998],[-104.9904,20.9216,120.3499],[-104.9872,20.9204,108.6803],[-104.9819,20.9147,115.5252],[-104.9698,20.9091,118.5007],[-104.9672,20.9095,118.0635],[-104.9639,20.9191,125.1517],[-104.9605,20.9199,124.0185],[-104.9585,20.9247,150.2388],[-104.9532,20.9301,129.3148],[-104.9431,20.9327,144.5772],[-104.9412,20.9351,137.9277],[-104.9343,20.9345,149.3519],[-104.9283,20.9395,151.0586],[-104.9134,20.9442,230.4927],[-104.9065,20.9422,152.7355],[-104.9047,20.9454,157.8903],[-104.9005,20.9463,189.417],[-104.8986,20.9524,164.7743],[-104.9023,20.9561,164.1446],[-104.9006,20.9627,174.4952],[-104.8934,20.9671,181.6833],[-104.8895,20.9738,262.2789],[-104.8827,20.9737,287.6135],[-104.881,20.976,233.2995],[-104.8823,20.9789,245.282],[-104.8808,20.9809,260.6082],[-104.8735,20.9824,234.2582],[-104.8669,20.9952,243.835],[-104.8634,20.9959,270.4116],[-104.8579,20.9944,252.6881],[-104.8513,21.0002,266.9365],[-104.8537,21.005,291.4911],[-104.8412,21.0067,288.93],[-104.8374,21.0157,282.1354],[-104.8381,21.02,280.2893],[-104.8354,21.0194,286.0651],[-104.8325,21.0141,285.3907],[-104.8277,21.0181,294.23],[-104.821,21.0148,319.7797],[-104.815,21.0153,309.9274],[-104.8102,21.012,348.714],[-104.8032,21.0165,315.5931],[-104.7954,21.0141,322.4867],[-104.7902,21.015,346.1499],[-104.7836,21.0202,351.1225],[-104.7825,21.0234,323.443],[-104.7794,21.0212,328.6686],[-104.7778,21.0175,332.9849],[-104.7751,21.0175,361.0605],[-104.7717,21.0086,385.1983],[-104.7669,21.0106,369.8104],[-104.7626,21.0089,348.9603],[-104.7603,21.0119,399.5501],[-104.7525,21.0123,374.3483],[-104.7499,21.009,356.6223],[-104.7392,21.0061,356.9685],[-104.7342,21.008,361.1366],[-104.7314,21.0125,386.5369],[-104.7285,21.0114,358.47],[-104.7282,21.0075,438.5779],[-104.7253,21.0056,442.5957],[-104.727,21.0029,371.3372],[-104.7251,20.9994,386.7706],[-104.728,20.9951,434.8475],[-104.7262,20.9914,387.4584],[-104.7294,20.9832,370.2025],[-104.7216,20.9827,378.7282],[-104.7158,20.9805,402.6157],[-104.7142,20.9778,376.5093],[-104.7162,20.9749,386.3347],[-104.7134,20.9733,399.5552],[-104.7089,20.9744,444.3806],[-104.7071,20.9724,409.5614],[-104.7083,20.9696,383.2948],[-104.7057,20.9669,434.5463],[-104.6977,20.9654,388.4844],[-104.6926,20.9617,393.9221],[-104.6811,20.9607,398.5933],[-104.6787,20.9547,403.7042],[-104.6827,20.9492,409.1395],[-104.681,20.9438,409.4429],[-104.6691,20.9413,415.9291],[-104.6614,20.944,440.7232],[-104.6621,20.9387,426.7588],[-104.6564,20.9324,428.9227],[-104.6496,20.9331,435.6052],[-104.647,20.9354,434.9106],[-104.6381,20.9341,439.8423],[-104.6346,20.9319,453.2899],[-104.6333,20.9281,491.7596],[-104.6285,20.9239,451.9711],[-104.6227,20.9263,455.9665],[-104.619,20.9238,456.8042],[-104.6136,20.923,466.127],[-104.601,20.9314,474.5189],[-104.5917,20.9314,491.2975],[-104.5907,20.9346,515.6382],[-104.5835,20.9344,509.6057],[-104.5782,20.934,561.2971],[-104.5742,20.93,536.588],[-104.5693,20.9309,532.3729],[-104.5645,20.9263,520.7474],[-104.5602,20.9262,516.5865],[-104.5569,20.9242,518.834],[-104.5575,20.9208,532.3302],[-104.5557,20.9181,520.5013],[-104.5511,20.9171,521.5728],[-104.5429,20.9119,529.6046],[-104.5447,20.9011,570.1116],[-104.5433,20.8976,537.1475],[-104.5357,20.8959,545.1355],[-104.536,20.8939,542.6432],[-104.5333,20.8897,546.0746],[-104.5349,20.8878,545.1382],[-104.5346,20.884,547.3588],[-104.5311,20.8827,550.1505],[-104.529,20.8856,558.0093],[-104.5244,20.8858,554.7072],[-104.5232,20.8829,556.643],[-104.5248,20.8805,562.4929],[-104.5226,20.8797,558.7756],[-104.5195,20.8692,578.801],[-104.514,20.8665,571.7045],[-104.5106,20.8597,611.3243],[-104.5064,20.8608,602.4633],[-104.5043,20.8468,632.8088],[-104.5016,20.8454,611.2366],[-104.5032,20.8418,652.7648],[-104.4999,20.8382,671.9146],[-104.4932,20.8388,661.5861],[-104.4901,20.835,642.595],[-104.4853,20.8333,665.59],[-104.4836,20.8274,679.5007],[-104.4802,20.825,672.3664],[-104.4803,20.8233,677.286],[-104.4755,20.8227,663.4886],[-104.4769,20.8196,720.2862],[-104.4742,20.8199,674.2623],[-104.4643,20.814,676.6995],[-104.46,20.8131,688.6513],[-104.463,20.8108,701.2798],[-104.4584,20.809,697.5894],[-104.4584,20.8065,725.6293],[-104.4555,20.8068,685.2526],[-104.4493,20.8035,707.693],[-104.441,20.8077,714.1832],[-104.4386,20.8053,699.4576],[-104.4357,20.8058,698.1443],[-104.4343,20.8004,712.74],[-104.4293,20.7968,710.0417],[-104.4291,20.7924,710.4091],[-104.4273,20.791,713.1747],[-104.4234,20.7913,714.7812],[-104.4191,20.7962,732.0947],[-104.4141,20.7938,738.3362],[-104.4125,20.79,726.0906],[-104.4036,20.7861,760.565],[-104.4018,20.7832,736.3755],[-104.3966,20.7808,740.0263],[-104.395,20.7744,779.2638],[-104.3914,20.7726,765.4119],[-104.3887,20.768,780.1221],[-104.3842,20.7665,760.0097],[-104.386,20.7632,769.7083],[-104.3789,20.7552,814.493],[-104.3765,20.7476,805.2191],[-104.3775,20.7424,786.3365],[-104.3723,20.7413,794.8221],[-104.3671,20.7447,797.3701],[-104.3637,20.7444,799.0648],[-104.359,20.7371,809.6209],[-104.3534,20.7359,814.5533],[-104.3508,20.7253,884.2271],[-104.3359,20.7215,834.1598],[-104.3319,20.7167,834.7061],[-104.3241,20.7175,860.3596],[-104.3229,20.714,846.3737],[-104.3185,20.7135,846.3096],[-104.3164,20.707,887.2092],[-104.309,20.7037,855.1257],[-104.3072,20.6998,860.1262],[-104.308,20.6968,865.0918],[-104.3056,20.6942,868.3113],[-104.2979,20.6916,889.7542],[-104.2949,20.6925,874.478],[-104.2885,20.6892,883.0123],[-104.287,20.6865,886.3995],[-104.2891,20.6829,887.9893],[-104.2884,20.6754,897.8574],[-104.2846,20.6706,909.4333],[-104.2864,20.6683,938.0214],[-104.288,20.6604,926.439],[-104.287,20.6586,945.0621],[-104.2834,20.6576,921.7659],[-104.2848,20.6529,938.3995],[-104.2806,20.6464,1001.1124],[-104.2826,20.6427,986.0347],[-104.2815,20.6412,977.8826],[-104.2828,20.6362,973.6715],[-104.2808,20.6354,978.3314],[-104.282,20.629,988.5743],[-104.2801,20.6282,981.6887],[-104.2788,20.6238,970.2044],[-104.275,20.6222,1012.7798],[-104.2745,20.6166,1014.943],[-104.267,20.6142,989.2167],[-104.2569,20.6035,1003.8436],[-104.2536,20.6034,1002.5195],[-104.2529,20.6076,1038.0984],[-104.2515,20.6083,1034.4427],[-104.2554,20.6108,1094.7589],[-104.2553,20.6125,1132.7532],[-104.2519,20.6145,1086.6913],[-104.253,20.6182,1092.687],[-104.2547,20.6184,1109.7126],[-104.2538,20.6306,1298.1021],[-104.248,20.6294,1290.7399],[-104.2469,20.6315,1344.2947],[-104.2602,20.6413,1403.9075],[-104.2604,20.6428,1342.8248],[-104.2571,20.6459,1389.8846],[-104.2553,20.6533,1367.1895],[-104.2387,20.6603,1571.5698],[-104.2365,20.6629,1570.3163],[-104.2379,20.6658,1499.6591],[-104.2458,20.6696,1366.0494],[-104.2472,20.6717,1357.9905],[-104.2458,20.6738,1305.876],[-104.2528,20.6813,989.2123],[-104.2524,20.6836,983.0088],[-104.2477,20.6869,993.2794]]],
[[[-105.2744,21.047,0.0],[-105.2721,21.0469,0.0],[-105.2719,21.0494,5.056],[-105.275,21.0498,12.0736],[-105.2744,21.047,0.0]]],
[[[-106.2473,21.3318,88.3745],[-106.2574,21.3335,46.992],[-106.2597,21.3309,63.6137],[-106.2566,21.3262,129.4372],[-106.2513,21.3247,205.7368],[-106.2413,21.326,101.9355],[-106.2387,21.3319,47.0532],[-106.2473,21.3318,88.3745]]],
[[[-106.2321,21.3278,26.5803],[-106.2291,21.3251,19.8201],[-106.2283,21.33,13.0079],[-106.2301,21.3344,0.6712],[-106.2331,21.3317,12.7626],[-106.2321,21.3278,26.5803]]],
[[[-106.445,21.4357,6.2603],[-106.445,21.4355,6.2603],[-106.4449,21.4355,6.2603],[-106.445,21.4357,6.2603]]],
[[[-106.4795,21.4505,4.2646],[-106.4798,21.4504,0.0],[-106.4799,21.45,0.0],[-106.4795,21.4505,4.2646]]],
[[[-106.4286,21.4907,0.0],[-106.4336,21.4925,0.0],[-106.4373,21.4974,0.0],[-106.4433,21.4939,6.8932],[-106.4493,21.4929,10.6082],[-106.4605,21.4944,1.1948],[-106.4718,21.4831,39.8652],[-106.4778,21.4814,16.3991],[-106.481,21.4784,68.263],[-106.484,21.4795,0.6681],[-106.4859,21.4745,8.6532],[-106.492,21.4699,0.8063],[-106.4914,21.4686,8.139],[-106.4939,21.4661,2.1649],[-106.4902,21.465699999999998,15.1063],[-106.4891,21.4617,0.0],[-106.4852,21.4601,0.0],[-106.4828,21.4537,0.0],[-106.4803,21.4534,20.3639],[-106.4793,21.45,0.0],[-106.4779,21.4515,5.7124],[-106.4688,21.4513,1.3638],[-106.462,21.4487,12.1935],[-106.4599,21.4458,8.5228],[-106.4568,21.4457,7.4947],[-106.4555,21.4434,0.0],[-106.4488,21.4429,7.878],[-106.4454,21.4397,36.9224],[-106.4443,21.436,6.2603],[-106.442,21.4375,32.1383],[-106.4361,21.4372,50.1495],[-106.4251,21.4328,0.8438],[-106.4221,21.4329,6.4858],[-106.4181,21.4305,66.607],[-106.4173,21.4272,8.9663],[-106.4143,21.4273,50.2758],[-106.4126,21.4228,1.7102],[-106.4088,21.4248,15.4561],[-106.3967,21.4199,1.3435],[-106.3924,21.4214,47.8158],[-106.3921,21.4197,1.7059],[-106.3864,21.4198,8.8606],[-106.3855,21.421,0.0],[-106.3874,21.4211,38.732],[-106.3883,21.4242,1.1089],[-106.3854,21.4282,0.0],[-106.3865,21.4315,30.6337],[-106.3831,21.4363,0.4501],[-106.3837,21.4386,0.354],[-106.3803,21.4484,13.3439],[-106.3667,21.4556,29.9723],[-106.3586,21.4553,0.0],[-106.3617,21.4635,13.7103],[-106.3698,21.4735,1.2966],[-106.3712,21.4807,0.0],[-106.3755,21.4826,0.0],[-106.4014,21.4829,4.4512],[-106.4046,21.4856,0.7577],[-106.4115,21.4858,3.8006],[-106.4144,21.4883,10.2291],[-106.4228,21.488,7.6945],[-106.4244,21.4905,0.0],[-106.4286,21.4907,0.0]]],
[[[-106.6508,21.6937,22.7498],[-106.6548,21.6936,23.8585],[-106.6549,21.6953,13.834],[-106.6605,21.6936,0.0],[-106.6503,21.6822,0.0],[-106.6473,21.6745,22.1405],[-106.648,21.6615,19.4427],[-106.6561,21.6559,2.1688],[-106.6545,21.6558,7.3897],[-106.6439,21.644,0.0],[-106.6413,21.635,0.0],[-106.6366,21.6287,22.1868],[-106.6372,21.6269,0.0],[-106.6295,21.6185,0.0],[-106.6277,21.609,2.9896],[-106.6307,21.6024,52.7552],[-106.629,21.5986,0.0],[-106.5915,21.5784,0.0],[-106.5609,21.5677,4.8303],[-106.5589,21.5646,0.0],[-106.558,21.5663,0.0],[-106.5529,21.5653,68.3002],[-106.5522,21.5617,0.0],[-106.5488,21.564,27.1298],[-106.5462,21.5632,0.0],[-106.5373,21.5546,0.0],[-106.5376,21.5518,36.4664],[-106.5408,21.5508,0.0],[-106.5417,21.5443,4.9823],[-106.5322,21.5448,0.0],[-106.5335,21.5509,1.6819],[-106.527,21.5583,10.9157],[-106.5213,21.5609,2.485],[-106.5211,21.567,3.5228],[-106.5158,21.5709,3.3855],[-106.5118,21.5705,0.0],[-106.5155,21.5801,0.0],[-106.5156,21.5859,0.0],[-106.5121,21.5975,3.1292],[-106.5057,21.6033,1.1427],[-106.5136,21.6061,3.715],[-106.5175,21.6131,0.0],[-106.5374,21.6328,9.4419],[-106.5394,21.6443,3.705],[-106.5349,21.653199999999998,5.2643],[-106.5363,21.6581,2.955],[-106.5505,21.6698,12.1803],[-106.5663,21.6753,103.7556],[-106.5751,21.6819,13.7935],[-106.5961,21.6862,18.2943],[-106.5982,21.6903,32.367],[-106.606,21.69,30.1775],[-106.6079,21.6917,12.3557],[-106.6234,21.6888,12.6452],[-106.6266,21.6919,26.5566],[-106.6438,21.6943,11.5029],[-106.6508,21.6937,22.7498]]],
[[[-106.671,21.7702,16.6916],[-106.6712,21.7726,21.5267],[-106.6732,21.7726,44.8913],[-106.6737,21.7746,18.6374],[-106.6782,21.7735,15.479],[-106.6784,21.7676,16.7619],[-106.6817,21.7587,23.4984],[-106.6873,21.7587,0.0],[-106.6857,21.7565,3.3024],[-106.6875,21.7458,0.0],[-106.678,21.7287,0.0],[-106.6734,21.7291,1.7527],[-106.6589,21.7395,4.8593],[-106.6623,21.7419,28.7288],[-106.6665,21.7485,36.2805],[-106.668,21.7563,39.0909],[-106.6656,21.7575,0.0],[-106.6671,21.761,25.6074],[-106.6711,21.7587,44.7147],[-106.6753,21.7614,40.4662],[-106.6733,21.7645,47.802],[-106.67,21.7652,16.0789],[-106.6716,21.7679,27.6531],[-106.671,21.7702,16.6916]]],
[[[-105.8799,21.8444,0.0],[-105.8813,21.8502,4.7726],[-105.8845,21.8529,9.0194],[-105.8887,21.8536,3.4187],[-105.889,21.8497,9.1364],[-105.8859,21.8489,48.908],[-105.8873,21.8415,9.702],[-105.8853,21.8411,0.5915],[-105.8851,21.8435,4.7374],[-105.8828,21.8453,14.5133],[-105.8799,21.8444,0.0]]],
[[[-105.267,21.5144,0.0],[-105.2673,21.5136,0.0],[-105.2662,21.5141,0.7912],[-105.2663,21.5148,0.7912],[-105.267,21.5144,0.0]]]]}}