{"type":"Feature","properties":{"GID_2":"MEX.32.32_2","GID_0":"MEX","country":"México","GID_1":"MEX.32_1","province":"Zacatecas","NL_NAME_1":"NA","county":"Morelos","VARNAME_2":"NA","NL_NAME_2":"NA","TYPE_2":"Município","ENGTYPE_2":"Municipality","CC_2":"NA","HASC_2":"NA","name":"Morelos.county"},
"geometry":{"type": "MultiPolygon","coordinates": [[[[-102.795,22.8356,2317.5444],[-102.7889,22.8367,2358.2197],[-102.7854,22.8354,2369.9033],[-102.7839,22.8378,2353.6907],[-102.7774,22.8377,2333.7256],[-102.7727,22.841,2299.3623],[-102.7669,22.8415,2288.2898],[-102.7651,22.8412,2282.7766],[-102.7683,22.8372,2292.7166],[-102.767,22.8363,2299.8501],[-102.7664,22.8374,2293.5994],[-102.7528,22.8371,2282.7646],[-102.7528,22.8348,2293.6572],[-102.7465,22.8351,2283.1729],[-102.7454,22.8298,2278.5269],[-102.7474,22.8311,2289.8232],[-102.7469,22.8289,2288.1914],[-102.7454,22.8283,2274.3013],[-102.7451,22.8178,2272.7729],[-102.7473,22.8047,2252.1641],[-102.7425,22.8065,2244.3066],[-102.7415,22.8055,2242.3813],[-102.7414,22.8068,2242.3813],[-102.7342,22.8101,2235.0366],[-102.7266,22.8066,2226.0112],[-102.7245,22.8091,2223.2363],[-102.7144,22.8115,2211.041],[-102.7063,22.8113,2203.6672],[-102.7065,22.8098,2204.9404],[-102.7033,22.8087,2203.9082],[-102.6995,22.8111,2206.4133],[-102.6911,22.8115,2210.7979],[-102.6907,22.8135,2209.6726],[-102.6882,22.8124,2211.981],[-102.6854,22.8144,2211.7764],[-102.6848,22.8171,2209.9556],[-102.678,22.8162,2221.9521],[-102.6777,22.8176,2221.5916],[-102.6724,22.8179,2229.416],[-102.6597,22.8165,2252.6499],[-102.6573,22.8177,2255.1221],[-102.6489,22.8185,2268.3486],[-102.6424,22.8173,2276.2305],[-102.638,22.8185,2284.6824],[-102.6286,22.8153,2310.2021],[-102.6258,22.8091,2316.1348],[-102.6234,22.792,2336.7378],[-102.6137,22.7883,2353.8169],[-102.6115,22.7862,2361.9395],[-102.6112,22.7828,2363.1421],[-102.6051,22.7768,2393.833],[-102.6056,22.7895,2456.8564],[-102.6105,22.7896,2364.1042],[-102.6085,22.7924,2428.6199],[-102.604,22.7894,2414.4631],[-102.602,22.7926,2424.1152],[-102.5995,22.7914,2427.228],[-102.5919,22.7937,2462.824],[-102.5919,22.7967,2499.5518],[-102.5886,22.8023,2459.3496],[-102.5888,22.8057,2445.3379],[-102.5852,22.8105,2497.6746],[-102.5859,22.8193,2412.0264],[-102.5918,22.8274,2409.7393],[-102.5858,22.8279,2421.0212],[-102.5696,22.8331,2509.6179],[-102.5687,22.8355,2510.4683],[-102.5714,22.8355,2481.8018],[-102.577,22.8388,2452.8948],[-102.5866,22.839,2426.4229],[-102.5827,22.8467,2383.6943],[-102.5781,22.8514,2429.0601],[-102.5706,22.8519,2461.7693],[-102.573,22.8544,2447.8101],[-102.5774,22.8663,2410.6133],[-102.5931,22.8767,2397.0234],[-102.592,22.8843,2355.5752],[-102.6021,22.8933,2296.6558],[-102.614,22.8769,2302.1211],[-102.6223,22.8823,2264.0256],[-102.6289,22.892,2238.6028],[-102.6412,22.9019,2221.5122],[-102.6406,22.9043,2221.0576],[-102.6569,22.9069,2198.4851],[-102.6536,22.934,2180.4358],[-102.6605,22.9325,2174.127],[-102.6616,22.926,2180.2988],[-102.6606,22.9248,2182.0547],[-102.6637,22.9129,2185.2788],[-102.6681,22.9104,2179.5823],[-102.6754,22.9188,2170.0032],[-102.6844,22.9192,2161.5444],[-102.6847,22.9144,2162.6338],[-102.6865,22.913,2163.437],[-102.6861,22.9005,2167.55],[-102.6879,22.8973,2168.3921],[-102.7085,22.8963,2177.9717],[-102.712,22.8775,2178.1018],[-102.7794,22.8795,2293.5156],[-102.7822,22.866,2295.2827],[-102.7965,22.8664,2280.958],[-102.791,22.8573,2295.0981],[-102.7926,22.8467,2310.0315],[-102.7916,22.8397,2317.0881],[-102.7931,22.84,2317.0881],[-102.795,22.8356,2317.5444]]]]}}