{"type": "Feature","bbox": [-96.6884,17.0859,-96.6501,17.1764],"geometry": {"type": "MultiPolygon","coordinates": [[[[-96.688,17.090699999999998,1604.8433],[-96.6883,17.0871,1599.7701],[-96.6834,17.0859,1584.7545],[-96.6734,17.0892,1626.7075],[-96.6608,17.0903,1658.632],[-96.6551,17.0938,1637.0746],[-96.6545,17.1152,1865.2542],[-96.651,17.1328,2431.1145],[-96.6501,17.1521,2978.1895],[-96.6533,17.1737,3264.3694],[-96.6589,17.1711,3249.9387],[-96.6634,17.1764,3213.6685],[-96.6724,17.1657,3151.6479],[-96.6839,17.1244,2171.8938],[-96.6829,17.1203,2036.6803],[-96.6858,17.0998,1631.5975],[-96.6873,17.1018,1642.2788],[-96.6884,17.0964,1624.5316],[-96.688,17.090699999999998,1604.8433]]]]}
,"properties": {"GID_2": "MEX.20.93_2","GID_0": "MEX","country": "México","GID_1": "MEX.20_1","province": "Oaxaca","NL_NAME_1": "NA","county": "SanAndrésHuayápam","VARNAME_2": "NA","NL_NAME_2": "NA","TYPE_2": "Município","ENGTYPE_2": "Municipality","CC_2": "NA","HASC_2": "NA","name": "San_Andrés_Huayápam.county","area_km2": 27.47517,"hist_schema_id": "Elevation0-9000","hist_area_km2": {"1575": 0.0608,"1600": 0.93223,"1625": 1.33752,"1650": 1.35778,"1675": 1.58067,"1700": 0.81058,"1725": 0.60793,"1750": 0.5066,"1775": 0.42554,"1800": 0.4458,"1825": 0.38501,"1850": 0.385,"1875": 0.40527,"1900": 0.52684,"1925": 0.56737,"1950": 0.52684,"1975": 0.36473,"2000": 0.46604,"2025": 0.42551,"2050": 0.44578,"2075": 0.42551,"2100": 0.36472,"2125": 0.38498,"2150": 0.36472,"2175": 0.46602,"2200": 0.58759,"2225": 0.32418,"2250": 0.30393,"2275": 0.42549,"2300": 0.38497,"2325": 0.32418,"2350": 0.20261,"2375": 0.22287,"2400": 0.24313,"2425": 0.24313,"2450": 0.20261,"2475": 0.18235,"2500": 0.24313,"2525": 0.16208,"2550": 0.20261,"2575": 0.32416,"2600": 0.28364,"2625": 0.28364,"2650": 0.18234,"2675": 0.1013,"2700": 0.28364,"2725": 0.22286,"2750": 0.34441,"2775": 0.30389,"2800": 0.34441,"2825": 0.44571,"2850": 0.24311,"2875": 0.42545,"2900": 0.28363,"2925": 0.4457,"2950": 0.24311,"2975": 0.2431,"3000": 0.26336,"3025": 0.26336,"3050": 0.32414,"3075": 0.20258,"3100": 0.20258,"3125": 0.58748,"3150": 0.42541,"3175": 0.56721,"3200": 0.34438,"3225": 0.34438,"3250": 0.06077,"3275": 0.06077}}}