{"type": "Feature","bbox": [-96.9804,18.7707,-96.9242,18.8254],"geometry": {"type": "MultiPolygon","coordinates": [[[[-96.9264,18.8022,658.0172],[-96.9307,18.8013,633.2127],[-96.9372,18.8036,651.3708],[-96.9413,18.8023,649.8795],[-96.9491,18.804,668.9491],[-96.9515,18.8077,671.0085],[-96.9514,18.8105,714.235],[-96.9558,18.8104,691.2312],[-96.9625,18.8139,701.7764],[-96.964,18.8205,731.1103],[-96.9667,18.8203,708.6338],[-96.9716,18.8254,717.7771],[-96.9771,18.8205,838.1745],[-96.976,18.8204,920.6126],[-96.9771,18.8186,906.5966],[-96.9749,18.8128,1116.563],[-96.9766,18.8052,1185.7751],[-96.9748,18.7988,1470.3293],[-96.9804,18.7934,1105.6869],[-96.9751,18.7797,1003.2415],[-96.9698,18.7733,971.4378],[-96.9628,18.7707,787.9722],[-96.9549,18.7771,820.1315],[-96.9496,18.7765,797.6492],[-96.9406,18.7784,905.563],[-96.937,18.7816,1006.0673],[-96.9324,18.7897,1097.9786],[-96.9242,18.7949,631.4718],[-96.9264,18.8022,658.0172]]]]}
,"properties": {"GID_2": "MEX.30.119_2","GID_0": "MEX","country": "México","GID_1": "MEX.30_1","province": "Veracruz","NL_NAME_1": "NA","county": "Naranjal","VARNAME_2": "NA","NL_NAME_2": "NA","TYPE_2": "Município","ENGTYPE_2": "Municipality","CC_2": "NA","HASC_2": "NA","name": "Naranjal.county","area_km2": 18.72689,"hist_schema_id": "Elevation0-9000","hist_area_km2": {"625": 0.1405,"650": 0.62221,"675": 1.02362,"700": 1.26444,"725": 0.90315,"750": 1.26454,"775": 0.90324,"800": 0.72259,"825": 0.66238,"850": 0.6423,"875": 0.54194,"900": 0.74265,"925": 0.76273,"950": 0.68245,"975": 1.0237,"1000": 0.78282,"1025": 0.5018,"1050": 0.80288,"1075": 0.60216,"1100": 0.50179,"1125": 0.60217,"1150": 0.48173,"1175": 0.36129,"1200": 0.24086,"1225": 0.2208,"1250": 0.22079,"1275": 0.20072,"1300": 0.40144,"1325": 0.18065,"1350": 0.20072,"1375": 0.10036,"1400": 0.10036,"1425": 0.12043,"1450": 0.1405,"1475": 0.04014,"1525": 0.02007}}}