{"type": "Feature","bbox": [-99.3543,19.5159,-99.2118,19.6122],"geometry": {"type": "MultiPolygon","coordinates": [[[[-99.2118,19.5956,2317.1221],[-99.2171,19.6042,2302.2417],[-99.2415,19.6122,2339.0188],[-99.2472,19.6068,2366.2246],[-99.2581,19.6086,2386.967],[-99.2661,19.6076,2384.7422],[-99.2693,19.5992,2395.5713],[-99.2904,19.5823,2441.5471],[-99.3007,19.5888,2402.8882],[-99.3045,19.5893,2387.5151],[-99.3051,19.591,2398.9763],[-99.3053,19.5894,2387.5151],[-99.3111,19.593,2449.0566],[-99.3165,19.592,2465.4407],[-99.3168,19.5949,2434.6951],[-99.3202,19.5956,2395.6902],[-99.3295,19.5884,2429.9473],[-99.3307,19.5849,2441.3777],[-99.3339,19.583,2449.9985],[-99.3346,19.5791,2476.7629],[-99.3313,19.5765,2510.8042],[-99.3362,19.5689,2503.8062],[-99.3467,19.5599,2562.7578],[-99.354,19.5563,2584.3945],[-99.3543,19.5543,2547.3057],[-99.3488,19.5515,2540.7642],[-99.3494,19.554,2528.5449],[-99.3453,19.5551,2501.7981],[-99.3444,19.5571,2497.5056],[-99.3361,19.5506,2598.0891],[-99.3262,19.5482,2591.1016],[-99.3237,19.5303,2841.6338],[-99.3207,19.5244,2642.106],[-99.3191,19.5159,2477.4534],[-99.3166,19.5182,2456.2004],[-99.31,19.5169,2463.3511],[-99.3065,19.5204,2446.5732],[-99.3044,19.52,2454.4268],[-99.3041,19.5213,2433.5564],[-99.3029,19.5202,2480.2073],[-99.3032,19.5226,2428.5935],[-99.2996,19.5264,2447.0889],[-99.2983,19.5315,2405.1323],[-99.2958,19.5307,2398.064],[-99.295,19.5343,2392.8267],[-99.2922,19.5334,2422.0708],[-99.2921,19.5349,2384.2488],[-99.2862,19.5367,2357.1199],[-99.2777,19.5341,2366.6035],[-99.2788,19.5329,2342.9958],[-99.2742,19.5334,2339.572],[-99.2667,19.531,2334.0],[-99.2597,19.527,2340.2976],[-99.2621,19.5263,2335.7131],[-99.2631,19.5275,2344.3115],[-99.2621,19.5228,2351.7949],[-99.2634,19.5217,2357.3384],[-99.2589,19.5221,2304.1226],[-99.2569,19.5196,2320.9873],[-99.2483,19.5181,2326.6084],[-99.2479,19.5214,2323.1543],[-99.2495,19.5216,2308.6611],[-99.2477,19.5217,2323.1543],[-99.2456,19.5252,2307.6162],[-99.2418,19.5245,2303.3752],[-99.2413,19.5276,2285.4155],[-99.2371,19.5257,2286.0061],[-99.2345,19.5303,2276.4578],[-99.2361,19.538,2273.9177],[-99.2324,19.5413,2269.7844],[-99.2312,19.545,2274.4399],[-99.2248,19.5456,2317.1636],[-99.2284,19.556,2435.5142],[-99.2242,19.5585,2385.0515],[-99.22,19.5571,2273.7861],[-99.2194,19.5581,2273.7861],[-99.2218,19.5593,2298.0103],[-99.2207,19.5599,2261.5281],[-99.2171,19.5576,2260.2043],[-99.2145,19.5605,2269.9395],[-99.218,19.5666,2267.8606],[-99.2125,19.5663,2331.499],[-99.2148,19.5735,2327.4211],[-99.2122,19.5741,2276.199],[-99.2175,19.5862,2357.9021],[-99.2118,19.5956,2317.1221]]]]}
,"properties": {"GID_2": "MEX.15.13_2","GID_0": "MEX","country": "México","GID_1": "MEX.15_1","province": "México","NL_NAME_1": "NA","county": "AtizapándeZaragoza","VARNAME_2": "NA","NL_NAME_2": "NA","TYPE_2": "Município","ENGTYPE_2": "Municipality","CC_2": "NA","HASC_2": "NA","name": "Atizapánde_Zaragoza.county","area_km2": 93.07781,"hist_schema_id": "Elevation0-9000","hist_area_km2": {"2250": 0.25972,"2275": 9.46999,"2300": 8.81012,"2325": 8.82981,"2350": 8.90968,"2375": 8.8696,"2400": 6.45266,"2425": 6.11326,"2450": 7.51186,"2475": 7.21228,"2500": 6.35325,"2525": 4.73513,"2550": 2.87709,"2575": 1.89808,"2600": 1.69831,"2625": 1.25873,"2650": 0.77923,"2675": 0.4995,"2700": 0.21979,"2725": 0.03996,"2750": 0.13987,"2775": 0.03996,"2825": 0.01998,"2850": 0.01998,"2875": 0.01998,"2900": 0.03996}}}