{"type": "Feature","bbox": [-97.8119,19.0603,-97.6821,19.1855],"geometry": {"type": "MultiPolygon","coordinates": [[[[-97.6861,19.0904,2502.7832],[-97.6821,19.0936,2511.7363],[-97.6927,19.1045,2507.7739],[-97.7018,19.1072,2487.7678],[-97.7108,19.1123,2466.5415],[-97.6992,19.1256,2367.2798],[-97.6962,19.1238,2363.8274],[-97.691,19.1285,2354.8926],[-97.6871,19.1402,2347.8193],[-97.6922,19.1446,2348.7622],[-97.6979,19.1464,2346.7114],[-97.7005,19.1429,2347.0259],[-97.7096,19.1426,2351.5918],[-97.7067,19.1438,2348.3596],[-97.7124,19.1508,2348.9221],[-97.7078,19.1576,2347.3203],[-97.6939,19.1595,2347.0669],[-97.7076,19.1829,2348.3691],[-97.7119,19.1675,2347.1785],[-97.7101,19.1668,2347.2395],[-97.7127,19.1634,2347.1489],[-97.7132,19.1648,2346.7197],[-97.7167,19.1652,2346.5608],[-97.7149,19.1622,2346.3481],[-97.7188,19.1584,2346.5515],[-97.7299,19.1722,2346.4189],[-97.7469,19.1855,2348.4829],[-97.7515,19.1756,2347.1121],[-97.7561,19.1781,2346.53],[-97.7637,19.1474,2364.2063],[-97.7688,19.1491,2399.5122],[-97.7692,19.1517,2391.989],[-97.765,19.158,2349.2266],[-97.7707,19.1641,2350.4421],[-97.7798,19.1578,2363.4685],[-97.7832,19.1602,2371.5164],[-97.7875,19.1591,2379.5864],[-97.7957,19.164,2384.0537],[-97.8005,19.1558,2433.2732],[-97.81,19.1536,2575.9177],[-97.8119,19.1496,2584.1636],[-97.8047,19.1413,2588.2461],[-97.8084,19.1311,2532.437],[-97.8044,19.1174,2477.0806],[-97.8053,19.1127,2458.8311],[-97.8025,19.1123,2440.248],[-97.8018,19.1098,2430.4121],[-97.7964,19.1092,2349.1077],[-97.7938,19.1048,2354.7214],[-97.7937,19.1015,2346.9973],[-97.7847,19.0868,2281.7573],[-97.7775,19.0834,2272.3481],[-97.7673,19.0736,2260.7905],[-97.7619,19.066,2232.9094],[-97.7499,19.0644,2266.5139],[-97.7434,19.0603,2273.1616],[-97.7341,19.0616,2300.5693],[-97.7225,19.0697,2361.2834],[-97.7202,19.0761,2410.937],[-97.718,19.0772,2442.2114],[-97.7142,19.0755,2454.4255],[-97.7151,19.0701,2382.802],[-97.7132,19.068,2369.1624],[-97.699,19.0782,2587.7454],[-97.7013,19.0829,2628.9272],[-97.6939,19.08,2453.5269],[-97.6927,19.0836,2443.6099],[-97.6903,19.0851,2467.9363],[-97.6903,19.0879,2519.7336],[-97.6861,19.0904,2502.7832]]]]}
,"properties": {"GID_2": "MEX.21.152_2","GID_0": "MEX","country": "México","GID_1": "MEX.21_1","province": "Puebla","NL_NAME_1": "NA","county": "Soltepec","VARNAME_2": "NA","NL_NAME_2": "NA","TYPE_2": "Município","ENGTYPE_2": "Municipality","CC_2": "NA","HASC_2": "NA","name": "Soltepec.county","area_km2": 115.18691,"hist_schema_id": "Elevation0-9000","hist_area_km2": {"2225": 0.14027,"2250": 0.82157,"2275": 2.1441,"2300": 2.88539,"2325": 3.26596,"2350": 28.26155,"2375": 14.50284,"2400": 11.41803,"2425": 8.45357,"2450": 7.09155,"2475": 5.72944,"2500": 4.88821,"2525": 4.22721,"2550": 3.70633,"2575": 3.10531,"2600": 2.38415,"2625": 2.38418,"2650": 1.86328,"2675": 1.60282,"2700": 1.16207,"2725": 0.88156,"2750": 0.80142,"2775": 0.52092,"2800": 0.64113,"2825": 0.54095,"2850": 0.54095,"2875": 0.44077,"2900": 0.56098,"2925": 0.22039}}}