{"type": "Feature","bbox": [-104.5474,25.2653,-104.1199,25.5112],"geometry": {"type": "MultiPolygon","coordinates": [[[[-104.174,25.4898,1560.4567],[-104.1763,25.4774,1528.3811],[-104.1937,25.4681,1500.986],[-104.1876,25.4591,1485.0713],[-104.2078,25.4415,1450.9152],[-104.2217,25.4611,1480.7172],[-104.2794,25.4224,1506.5829],[-104.2809,25.4292,1543.6367],[-104.2797,25.4326,1519.342],[-104.281,25.4341,1539.9692],[-104.2895,25.4407,1538.949],[-104.2939,25.4476,1521.2784],[-104.305,25.4484,1536.595],[-104.3073,25.4524,1542.4052],[-104.3151,25.4492,1543.7267],[-104.3241,25.4516,1550.0817],[-104.3327,25.4458,1561.4369],[-104.3469,25.4493,1592.5281],[-104.3538,25.439,1644.9209],[-104.368,25.4406,1676.1611],[-104.3711,25.4832,1738.7939],[-104.3662,25.4755,1633.9648],[-104.3666,25.4822,1631.3188],[-104.3723,25.4874,1646.7991],[-104.3832,25.4826,1664.3259],[-104.3913,25.4829,1680.9863],[-104.3923,25.4785,1704.467],[-104.4133,25.4803,1757.6439],[-104.4406,25.4611,1851.2817],[-104.4239,25.4412,1875.645],[-104.4351,25.4206,1873.3331],[-104.4329,25.4181,1858.4003],[-104.4472,25.3995,1891.7108],[-104.4617,25.4,1817.098],[-104.4612,25.4065,1822.3119],[-104.4645,25.4127,1835.6459],[-104.4687,25.4138,1840.542],[-104.4719,25.4118,1846.6453],[-104.4766,25.4118,1863.162],[-104.4904,25.4131,1880.9209],[-104.4935,25.4129,1888.1913],[-104.5059,25.407,1915.7076],[-104.5216,25.4035,1946.7023],[-104.5238,25.4041,1948.5656],[-104.5258,25.408,1965.874],[-104.5474,25.3952,2184.9749],[-104.4968,25.3658,2014.7805],[-104.4152,25.3098,1965.9969],[-104.4024,25.3146,1899.181],[-104.374,25.2658,1782.1614],[-104.3652,25.2672,1735.683],[-104.3639,25.2714,1727.8215],[-104.3593,25.2681,1719.8785],[-104.3513,25.279,1917.3435],[-104.3324,25.2733,1853.9792],[-104.3341,25.2682,1764.9602],[-104.3128,25.2653,1713.1843],[-104.3095,25.2697,1725.1689],[-104.2008,25.3094,1401.7333],[-104.1994,25.3162,1499.5698],[-104.1859,25.3249,1373.0771],[-104.1688,25.3105,1329.0117],[-104.1199,25.3224,1298.1594],[-104.138,25.3647,1341.1992],[-104.1324,25.3677,1346.6484],[-104.1243,25.3667,1341.021],[-104.1278,25.3776,1429.4706],[-104.1283,25.3982,1489.2853],[-104.1379,25.4128,1558.226],[-104.145,25.4171,1437.0221],[-104.1518,25.4255,1450.3805],[-104.1602,25.4225,1426.4246],[-104.164,25.4244,1428.8523],[-104.1633,25.4445,1462.5181],[-104.1677,25.4483,1477.0126],[-104.1685,25.4518,1482.9517],[-104.1679,25.4586,1499.0986],[-104.1653,25.4647,1510.2333],[-104.1621,25.4674,1517.0697],[-104.1558,25.4679,1526.3696],[-104.1526,25.471,1535.724],[-104.1463,25.4699,1540.4807],[-104.1372,25.4596,1512.913],[-104.1345,25.4606,1517.1232],[-104.1336,25.4678,1537.6061],[-104.1265,25.4725,1555.9139],[-104.1277,25.48,1583.9805],[-104.1309,25.4848,1583.5763],[-104.1275,25.4861,1589.3767],[-104.1283,25.4894,1599.5923],[-104.1415,25.5112,1794.3478],[-104.163,25.4827,1557.9795],[-104.174,25.4898,1560.4567]]]]}
,"properties": {"GID_2": "MEX.10.30_2","GID_0": "MEX","country": "México","GID_1": "MEX.10_1","province": "Durango","NL_NAME_1": "NA","county": "SanLuisdelCordero","VARNAME_2": "NA","NL_NAME_2": "NA","TYPE_2": "Município","ENGTYPE_2": "Municipality","CC_2": "NA","HASC_2": "NA","name": "San_Luisdel_Cordero.county","area_km2": 605.7091,"hist_schema_id": "Elevation0-9000","hist_area_km2": {"1300": 4.1012,"1325": 7.6078,"1350": 7.7597,"1375": 18.6979,"1400": 30.7841,"1425": 37.9067,"1450": 35.394,"1475": 27.9629,"1500": 21.0891,"1525": 28.1202,"1550": 27.8712,"1575": 21.7021,"1600": 19.8442,"1625": 18.0642,"1650": 22.6221,"1675": 21.8747,"1700": 20.5161,"1725": 21.475,"1750": 25.4043,"1775": 27.3399,"1800": 30.7106,"1825": 32.6079,"1850": 29.1414,"1875": 21.1909,"1900": 18.5657,"1925": 10.2112,"1950": 7.2791,"1975": 4.4631,"2000": 2.5093,"2025": 1.8197,"2050": 0.7087,"2075": 0.3065,"2100": 0.0192,"2150": 0.0383}}}