{"type":"Feature","properties":{"GID_2":"MEX.22.18_2","GID_0":"MEX","country":"México","GID_1":"MEX.22_1","province":"Querétaro","NL_NAME_1":"NA","county":"Tolimán","VARNAME_2":"NA","NL_NAME_2":"NA","TYPE_2":"Município","ENGTYPE_2":"Municipality","CC_2":"NA","HASC_2":"NA","name":"Tolimán.county"},
"geometry":{"type": "MultiPolygon","coordinates": [[[[-100.0923,20.9317,2515.656],[-100.09,20.9055,2409.157],[-100.0815,20.8886,2088.666],[-100.061,20.8915,2004.4917],[-100.0528,20.8879,1816.3879],[-100.0514,20.8815,1838.8337],[-100.0444,20.8797,1760.1096],[-100.0373,20.8734,1732.6962],[-100.0365,20.8709,1733.4136],[-100.0278,20.8737,1720.7822],[-100.0268,20.8678,1734.1826],[-100.0316,20.8624,1735.8893],[-100.0316,20.856,1741.2421],[-100.0248,20.8484,1769.2507],[-100.0229,20.8509,1787.0272],[-100.0176,20.8504,1799.7603],[-100.011,20.8451,1856.1017],[-100.0068,20.8456,1853.319],[-100.0159,20.8278,1917.54],[-99.9475,20.8142,1844.4297],[-99.9465,20.7935,1966.1666],[-99.9523,20.7944,2094.082],[-99.9642,20.779,2294.1931],[-99.9632,20.7734,2218.9692],[-99.9592,20.7718,2179.71],[-99.9656,20.7622,2531.812],[-99.9662,20.7574,2406.0532],[-99.9511,20.755,2076.2769],[-99.9294,20.7559,2013.9204],[-99.9141,20.7585,2057.5439],[-99.8993,20.764,2181.8354],[-99.898,20.7672,2153.2478],[-99.8942,20.7654,2213.3252],[-99.9002,20.7586,2164.1482],[-99.8978,20.7565,2134.7007],[-99.8977,20.7531,2130.696],[-99.8795,20.7634,2274.0444],[-99.874,20.7641,2254.2795],[-99.8671,20.7713,2019.5597],[-99.861,20.7861,1964.2255],[-99.8589,20.7883,1921.137],[-99.8332,20.7882,2239.9819],[-99.8173,20.801,1904.9299],[-99.8111,20.8035,1928.3438],[-99.8063,20.8035,1933.9303],[-99.8048,20.8074,1951.9888],[-99.7986,20.8116,2018.2466],[-99.7981,20.814,1995.3685],[-99.8004,20.8164,2039.0028],[-99.8056,20.8327,2088.8892],[-99.8076,20.8317,2067.7778],[-99.8135,20.8347,2000.3278],[-99.8224,20.8416,2074.0962],[-99.8062,20.8649,2105.0066],[-99.8246,20.8744,2320.5698],[-99.8437,20.8721,2012.891],[-99.8817,20.905,1903.5681],[-99.8694,20.9058,1803.7642],[-99.8739,20.9237,1715.1858],[-99.8321,20.925,2095.6389],[-99.7903,20.9177,1647.8114],[-99.7956,20.9244,1746.7102],[-99.7958,20.9287,1784.6296],[-99.8018,20.9377,1880.6619],[-99.8059,20.9498,1747.8141],[-99.7891,20.9547,1700.1035],[-99.818,21.0236,1832.6469],[-99.8176,21.0281,1763.4722],[-99.8339,21.0008,1646.803],[-99.8424,21.0127,1820.0525],[-99.8489,21.0156,1653.614],[-99.8571,21.0255,1779.7362],[-99.862,21.0404,1364.9465],[-99.8635,21.0359,1369.292],[-99.8687,21.0335,1448.6086],[-99.8719,21.03,1383.9961],[-99.8779,21.0317,1548.7898],[-99.8825,21.0358,1488.5476],[-99.8808,21.0362,1522.2178],[-99.8798,21.0408,1455.6417],[-99.8779,21.0412,1493.1143],[-99.8785,21.0436,1446.2173],[-99.8905,21.0461,1389.8358],[-99.8965,21.053,1408.3436],[-99.9028,21.0568,1388.675],[-99.9018,21.0529,1516.2225],[-99.908,21.0504,1570.2964],[-99.9074,21.0529,1432.054],[-99.9113,21.0552,1403.5918],[-99.9114,21.0599,1412.634],[-99.9156,21.0624,1403.1252],[-99.9174,21.067,1409.0466],[-99.9225,21.0692,1470.082],[-99.9204,21.0634,1470.0988],[-99.9212,21.0569,1533.6095],[-99.9251,21.0515,1635.1549],[-99.9353,21.0467,1719.5806],[-99.9366,21.0611,1531.8848],[-99.9388,21.0638,1501.8433],[-99.9408,21.0722,1547.0737],[-99.946,21.066,1634.7825],[-99.947,21.0674,1630.2356],[-99.957,21.054,1625.9637],[-99.963,21.0524,1631.2832],[-99.9671,21.0479,1714.7996],[-99.9699,21.0478,1709.9918],[-99.9767,21.044,1811.9585],[-100.0113,21.0408,2378.0364],[-100.0122,21.036,2441.9121],[-100.0111,21.0285,2478.3953],[-100.0166,21.0235,2561.3816],[-100.0186,21.0176,2594.7825],[-100.0226,21.0146,2476.2207],[-100.0291,21.0151,2494.3491],[-100.0406,21.0222,2554.5674],[-100.0484,21.025,2505.6841],[-100.0485,21.0232,2362.4084],[-100.0545,21.0278,2445.4246],[-100.0612,21.0285,2270.1958],[-100.0682,21.0237,2180.3608],[-100.0692,21.0212,2244.1479],[-100.0648,21.0172,2452.3608],[-100.0607,21.0058,2557.8728],[-100.0714,20.9923,2378.7886],[-100.0728,20.9932,2378.7886],[-100.0738,20.9918,2382.5259],[-100.0732,20.9877,2387.4473],[-100.0699,20.9835,2406.2212],[-100.0764,20.9781,2432.9312],[-100.078,20.9727,2449.145],[-100.0698,20.9648,2331.9141],[-100.0688,20.9579,2221.6609],[-100.0807,20.9499,2330.54],[-100.0737,20.9477,2342.1475],[-100.0721,20.9448,2300.6528],[-100.0669,20.9422,2250.1914],[-100.0642,20.9363,2317.5269],[-100.0923,20.9317,2515.656]]]]}}