{"type":"Feature","properties":{"GID_2":"MEX.30.60_2","GID_0":"MEX","country":"México","GID_1":"MEX.30_1","province":"Veracruz","NL_NAME_1":"NA","county":"Cotaxtla","VARNAME_2":"NA","NL_NAME_2":"NA","TYPE_2":"Município","ENGTYPE_2":"Municipality","CC_2":"NA","HASC_2":"NA","name":"Cotaxtla.county"},
"geometry":{"type": "MultiPolygon","coordinates": [[[[-96.4738,18.7771,60.863],[-96.4759,18.7726,123.27],[-96.4825,18.7689,126.7053],[-96.4826,18.7651,121.0513],[-96.4791,18.763,129.8123],[-96.4783,18.7606,131.939],[-96.4758,18.7603,127.5859],[-96.4754,18.757,118.1873],[-96.4675,18.7528,110.3442],[-96.4745,18.7521,116.3869],[-96.4755,18.7364,105.3935],[-96.4729,18.7381,101.2124],[-96.4701,18.7368,98.8952],[-96.4686,18.7404,93.6816],[-96.4663,18.7398,99.1447],[-96.4655,18.7377,91.5851],[-96.4619,18.7375,93.581],[-96.4606,18.738,93.5762],[-96.4611,18.741,100.6954],[-96.4558,18.7421,95.2827],[-96.4486,18.7396,88.7032],[-96.4381,18.7414,84.1182],[-96.4362,18.7406,90.8199],[-96.435,18.7367,80.6203],[-96.4306,18.7389,92.6788],[-96.4276,18.7364,81.5483],[-96.425,18.7397,87.875],[-96.4211,18.7362,75.9159],[-96.4191,18.7377,73.4722],[-96.42,18.7402,70.9436],[-96.4182,18.7434,72.4988],[-96.4244,18.7449,82.7923],[-96.4243,18.7477,93.2661],[-96.4227,18.7482,90.0574],[-96.4236,18.7501,94.8451],[-96.4198,18.7502,91.0229],[-96.4139,18.7466,83.3131],[-96.41,18.7477,88.4031],[-96.4055,18.7461,83.6662],[-96.4007,18.7491,80.2516],[-96.3991,18.7552,78.8148],[-96.4002,18.7574,78.6825],[-96.4108,18.7587,79.4323],[-96.4152,18.7612,83.4298],[-96.4163,18.7678,96.8828],[-96.4206,18.7689,104.322],[-96.4218,18.7708,95.7508],[-96.3941,18.7834,80.3882],[-96.3816,18.7841,74.3011],[-96.3759,18.787,72.1569],[-96.3728,18.7863,71.2768],[-96.3717,18.7877,67.5275],[-96.3663,18.7856,68.1902],[-96.3632,18.7889,71.7712],[-96.3601,18.7885,68.0656],[-96.3594,18.7915,61.9332],[-96.3565,18.793,61.0822],[-96.3448,18.7876,57.2709],[-96.3436,18.7892,55.9456],[-96.3399,18.7878,54.7686],[-96.3408,18.7987,60.241],[-96.3375,18.7953,57.1523],[-96.3314,18.7967,55.1163],[-96.3281,18.7948,55.3166],[-96.3273,18.79,49.6197],[-96.3185,18.7924,46.7651],[-96.3055,18.7842,44.3477],[-96.2971,18.7861,45.5853],[-96.2869,18.7824,40.8441],[-96.2827,18.7839,37.4639],[-96.279,18.7824,38.4612],[-96.2773,18.7859,35.0524],[-96.2714,18.7884,40.6843],[-96.2703,18.7929,37.8189],[-96.2673,18.7952,42.4593],[-96.2686,18.7973,42.3394],[-96.267,18.8007,49.6127],[-96.27,18.8048,45.5577],[-96.2696,18.8098,44.2149],[-96.2628,18.8147,41.8172],[-96.2605,18.8132,38.8544],[-96.2585,18.8138,38.6628],[-96.2576,18.8168,37.9202],[-96.2514,18.8202,34.9728],[-96.249,18.8186,37.3617],[-96.2482,18.821,35.8538],[-96.2455,18.8217,36.4125],[-96.2435,18.8274,33.1395],[-96.2352,18.8282,32.7867],[-96.2343,18.8297,30.4199],[-96.2329,18.8288,30.5725],[-96.2286,18.8309,29.7832],[-96.224,18.8276,28.4863],[-96.2203,18.8283,28.7556],[-96.2175,18.8298,28.4581],[-96.2168,18.8361,26.7431],[-96.2124,18.8395,24.2041],[-96.2031,18.8378,26.2296],[-96.2043,18.8334,22.9911],[-96.196,18.8325,26.0373],[-96.1906,18.8399,21.0452],[-96.1923,18.8452,22.7578],[-96.19,18.846,20.5944],[-96.188,18.8406,19.5304],[-96.1864,18.840699999999998,19.5304],[-96.1868,18.8426,17.9835],[-96.1839,18.8425,19.5827],[-96.1934,18.9023,13.6402],[-96.1976,18.903,21.7312],[-96.2013,18.897,20.0723],[-96.2083,18.8961,19.7552],[-96.2075,18.8918,15.6241],[-96.2115,18.8869,15.9006],[-96.2145,18.8962,15.3342],[-96.2178,18.8973,16.3394],[-96.2187,18.9008,14.1854],[-96.2167,18.9022,14.5903],[-96.216,18.9004,15.3227],[-96.2128,18.9015,14.7918],[-96.2154,18.9077,17.2218],[-96.2185,18.9068,17.1351],[-96.219,18.908,16.5795],[-96.2151,18.9103,15.9075],[-96.2152,18.9138,16.1887],[-96.2131,18.9154,17.465],[-96.2159,18.92,18.0935],[-96.2185,18.9205,17.5335],[-96.2275,18.9149,17.208],[-96.2324,18.9142,17.0705],[-96.2318,18.9105,16.078],[-96.2329,18.9095,18.9234],[-96.243,18.9082,15.8553],[-96.2471,18.9019,23.2201],[-96.2589,18.9036,24.4071],[-96.263,18.9073,20.4352],[-96.2635,18.9173,27.6758],[-96.2684,18.9183,29.6018],[-96.2741,18.9165,33.1414],[-96.2793,18.9192,36.4652],[-96.2803,18.9222,31.6877],[-96.2777,18.9252,28.8788],[-96.2829,18.9288,28.853],[-96.2834,18.9319,29.2033],[-96.2814,18.9377,21.9222],[-96.2845,18.9432,25.6037],[-96.286,18.9443,23.1423],[-96.2895,18.9419,21.014],[-96.2921,18.943,19.9744],[-96.2937,18.9411,20.3357],[-96.2932,18.9382,22.68],[-96.295,18.9382,22.68],[-96.2944,18.9351,25.0643],[-96.3008,18.9351,30.4419],[-96.3026,18.9415,25.8605],[-96.2988,18.9505,22.4254],[-96.2967,18.9612,23.6846],[-96.2975,18.9662,26.1566],[-96.3015,18.9684,25.8033],[-96.3039,18.9731,24.1624],[-96.3075,18.9749,24.6598],[-96.3101,18.9792,28.5961],[-96.3144,18.9782,27.0765],[-96.3147,18.9726,26.587],[-96.3177,18.9703,31.2778],[-96.3211,18.9709,30.3872],[-96.3233,18.967,35.3432],[-96.3228,18.9641,35.6865],[-96.326,18.9633,33.4965],[-96.3267,18.967,38.7092],[-96.334,18.9665,30.7528],[-96.336,18.9692,38.5128],[-96.3432,18.9695,37.7597],[-96.3433,18.9754,45.3995],[-96.3501,18.9746,56.117],[-96.3499,18.9705,47.6443],[-96.3568,18.9584,37.5813],[-96.3644,18.9536,38.1227],[-96.3693,18.9481,41.9174],[-96.3716,18.948,40.1658],[-96.3727,18.9458,43.5702],[-96.374,18.9486,42.1606],[-96.3789,18.9475,44.6899],[-96.3787,18.9441,43.9638],[-96.3872,18.9425,50.6171],[-96.3929,18.9435,45.1038],[-96.3926,18.939,49.3965],[-96.3961,18.9357,47.0497],[-96.3998,18.9376,53.1119],[-96.4046,18.9355,53.1456],[-96.4071,18.9373,50.6086],[-96.4094,18.9363,56.0225],[-96.4107,18.94,68.8306],[-96.4134,18.937,55.4484],[-96.4184,18.939,78.3368],[-96.4199,18.9415,85.9143],[-96.4212,18.941,85.1522],[-96.421,18.9432,57.3903],[-96.4226,18.9442,55.2524],[-96.4232,18.9415,80.6337],[-96.4265,18.9445,57.3646],[-96.4295,18.9419,59.5645],[-96.4291,18.9379,60.8126],[-96.434,18.937,81.9622],[-96.4363,18.9408,65.0924],[-96.4395,18.941,74.898],[-96.4401,18.944,76.5148],[-96.4427,18.9443,64.7617],[-96.4438,18.9468,66.4437],[-96.4472,18.9457,68.6639],[-96.4483,18.9488,86.96],[-96.45,18.9493,74.4845],[-96.4517,18.9455,70.5568],[-96.4539,18.9469,71.4918],[-96.456,18.9452,89.5457],[-96.4595,18.9463,73.8779],[-96.4622,18.9391,82.032],[-96.4666,18.9395,82.689],[-96.4681,18.9342,155.5414],[-96.4666,18.9307,150.9393],[-96.4677,18.93,155.8915],[-96.4811,18.9277,167.0004],[-96.5,18.9286,180.2388],[-96.5011,18.9241,160.3395],[-96.4978,18.9227,133.2475],[-96.4954,18.9155,101.0016],[-96.5037,18.9173,123.6855],[-96.5034,18.9193,121.7924],[-96.5067,18.919,123.9778],[-96.5091,18.9224,160.3357],[-96.5203,18.9192,198.4762],[-96.5198,18.9158,199.7541],[-96.5163,18.9125,189.1228],[-96.5115,18.9147,177.3488],[-96.5072,18.9113,161.3722],[-96.5038,18.9113,142.7336],[-96.5022,18.9135,133.9909],[-96.4999,18.9129,127.2647],[-96.5004,18.9113,113.3406],[-96.4989,18.9107,113.3406],[-96.494,18.9112,108.7248],[-96.4974,18.9055,165.7604],[-96.4958,18.9052,175.3729],[-96.4974,18.9014,123.0863],[-96.5065,18.8995,139.3231],[-96.5069,18.9012,136.5872],[-96.5105,18.9007,129.1588],[-96.5128,18.902,156.8574],[-96.515,18.9041,138.0415],[-96.5147,18.9062,150.9949],[-96.5189,18.9042,158.4526],[-96.5226,18.9055,151.4154],[-96.5217,18.9066,151.4154],[-96.5231,18.9075,166.6068],[-96.5295,18.9059,160.383],[-96.5288,18.9087,169.8733],[-96.5326,18.907,183.3718],[-96.5389,18.9067,193.8122],[-96.5356,18.9054,199.6263],[-96.5364,18.9021,215.9344],[-96.5317,18.8973,193.2531],[-96.5317,18.8921,177.2908],[-96.526,18.8871,176.0749],[-96.5264,18.8853,173.3134],[-96.5241,18.8824,169.4004],[-96.5127,18.8769,127.5471],[-96.5165,18.8701,180.4215],[-96.5267,18.8666,154.4797],[-96.528,18.8634,135.2883],[-96.5258,18.8647,113.7344],[-96.5248,18.8612,125.407],[-96.5212,18.8624,115.3731],[-96.5204,18.8605,129.2746],[-96.5177,18.8607,114.4314],[-96.5187,18.8589,107.8602],[-96.516,18.8586,111.3091],[-96.5154,18.8537,139.4603],[-96.5142,18.8547,102.1884],[-96.5124,18.8531,123.1855],[-96.511,18.8542,106.8686],[-96.5068,18.8527,100.7519],[-96.506,18.8467,98.5226],[-96.5041,18.8463,75.1962],[-96.5023,18.8479,112.9344],[-96.4991,18.8432,114.5213],[-96.4966,18.8427,88.2903],[-96.4968,18.8409,65.5661],[-96.4875,18.8371,66.9331],[-96.4874,18.8326,73.352],[-96.4842,18.8309,80.6685],[-96.484,18.827,55.7598],[-96.4808,18.8248,54.8771],[-96.4805,18.8215,90.1857],[-96.4728,18.8171,46.4987],[-96.4691,18.8184,43.6777],[-96.4659,18.8136,74.1365],[-96.4681,18.8105,96.463],[-96.4678,18.8077,78.5963],[-96.4709,18.8073,79.5219],[-96.4724,18.8047,98.8373],[-96.4718,18.802,99.6298],[-96.4647,18.7971,66.9703],[-96.4646,18.7904,85.3717],[-96.4658,18.786,56.4496],[-96.4712,18.7848,58.5366],[-96.4692,18.7819,64.013],[-96.4738,18.7771,60.863]]]]}}