{"type": "Feature","bbox": [-96.2068,17.8199,-96.0266,18.0074],"geometry": {"type": "MultiPolygon","coordinates": [[[[-96.0305,17.8901,93.1478],[-96.0288,17.8914,113.3242],[-96.0266,17.8999,85.1484],[-96.0453,17.9097,120.1051],[-96.0417,17.9171,130.7158],[-96.055,17.9287,59.8521],[-96.0648,17.9251,58.0208],[-96.0699,17.933,55.4595],[-96.091,17.9201,98.2721],[-96.0934,17.9325,52.4795],[-96.0958,17.934,51.0767],[-96.0963,17.9314,50.5741],[-96.101,17.9319,110.0736],[-96.101,17.9441,46.1186],[-96.0936,17.9413,47.6674],[-96.1038,17.9497,44.8274],[-96.1012,17.9636,44.5425],[-96.1299,17.9875,64.4002],[-96.1296,17.9941,94.7606],[-96.1322,17.9979,55.6022],[-96.1316,18.0043,34.8704],[-96.143,18.0055,27.8563],[-96.1424,18.007,31.0055],[-96.144,18.0074,29.9455],[-96.157,18.0063,49.2019],[-96.1779,17.9945,49.423],[-96.1948,18.0069,133.0562],[-96.2016,17.9942,27.3929],[-96.1963,17.9914,24.1688],[-96.1928,17.9921,49.1425],[-96.2023,17.9837,25.8344],[-96.1959,17.9753,24.6077],[-96.2022,17.9712,29.6808],[-96.201,17.9657,56.3303],[-96.202,17.9588,39.6176],[-96.2047,17.9587,146.2648],[-96.2054,17.9483,84.6003],[-96.2021,17.9409,43.3786],[-96.2037,17.9368,44.0319],[-96.2063,17.9373,94.0552],[-96.2068,17.9362,81.7056],[-96.2039,17.9357,44.0319],[-96.2055,17.9292,49.1251],[-96.19,17.9217,67.5308],[-96.1892,17.9232,64.4441],[-96.1853,17.9214,57.928],[-96.1784,17.9292,58.4654],[-96.1728,17.9316,41.8552],[-96.174,17.9238,46.9244],[-96.173,17.9173,55.6759],[-96.1751,17.9156,73.8311],[-96.1744,17.9121,60.2054],[-96.1649,17.9121,29.1725],[-96.1622,17.9148,29.7825],[-96.161,17.9173,95.2179],[-96.1623,17.9254,33.498],[-96.16,17.9223,76.8836],[-96.1482,17.9178,64.4422],[-96.1517,17.9125,152.1719],[-96.1519,17.9095,166.4459],[-96.1435,17.8928,149.179],[-96.1407,17.8932,69.4633],[-96.1412,17.887,119.6999],[-96.1395,17.8879,74.0478],[-96.1397,17.8846,90.0631],[-96.148,17.8831,452.1073],[-96.1483,17.879,467.0621],[-96.1441,17.8284,1035.2555],[-96.1423,17.8244,934.5068],[-96.1213,17.8234,899.1927],[-96.1054,17.8199,659.1006],[-96.0853,17.8258,665.931],[-96.0818,17.8235,620.0302],[-96.0694,17.8368,112.739],[-96.0771,17.8783,67.5752],[-96.0618,17.8832,114.6538],[-96.0537,17.8897,83.3283],[-96.0513,17.877,129.6357],[-96.0421,17.8618,134.7469],[-96.0305,17.8901,93.1478]]]]}
,"properties": {"GID_2": "MEX.20.169_2","GID_0": "MEX","country": "México","GID_1": "MEX.20_1","province": "Oaxaca","NL_NAME_1": "NA","county": "SanJoséChiltepec","VARNAME_2": "NA","NL_NAME_2": "NA","TYPE_2": "Município","ENGTYPE_2": "Municipality","CC_2": "NA","HASC_2": "NA","name": "San_José_Chiltepec.county","area_km2": 194.0358,"hist_schema_id": "Elevation0-9000","hist_area_km2": {"25": 26.7423,"50": 39.07,"75": 21.9899,"100": 14.1627,"125": 10.7533,"150": 5.7697,"175": 4.7005,"200": 3.954,"225": 4.0349,"250": 4.0351,"275": 3.6317,"300": 2.9054,"325": 3.2484,"350": 3.087,"375": 3.0669,"400": 3.4302,"425": 3.2891,"450": 3.4505,"475": 3.5918,"500": 3.8543,"525": 3.4105,"550": 2.4217,"575": 1.9577,"600": 2.2402,"625": 1.6751,"650": 1.7962,"675": 1.3926,"700": 1.6146,"725": 1.1302,"750": 1.2514,"775": 1.3926,"800": 0.7266,"825": 0.9082,"850": 0.8275,"875": 0.5046,"900": 0.5046,"925": 0.3229,"950": 0.4239,"975": 0.3028,"1000": 0.1413,"1025": 0.2018,"1050": 0.1211}}}