{"type":"Feature","properties":{"GID_2":"MEX.26.61_2","GID_0":"MEX","country":"México","GID_1":"MEX.26_1","province":"Sonora","NL_NAME_1":"NA","county":"SantaAna","VARNAME_2":"NA","NL_NAME_2":"NA","TYPE_2":"Município","ENGTYPE_2":"Municipality","CC_2":"NA","HASC_2":"NA","name":"Santa_Ana.county"},
"geometry":{"type": "MultiPolygon","coordinates": [[[[-110.9501,30.1998,770.7021],[-110.95,30.2077,779.2128],[-110.9516,30.2102,778.0203],[-110.9493,30.214,783.3361],[-110.9446,30.2153,791.1741],[-110.9421,30.2113,786.5808],[-110.9338,30.2093,786.8699],[-110.9195,30.2243,812.2865],[-110.9078,30.2258,809.2542],[-110.9117,30.2198,816.94],[-110.891,30.2084,861.304],[-110.8904,30.2026,933.0788],[-110.8818,30.1877,1006.22],[-110.8695,30.1866,948.8901],[-110.8742,30.1905,959.4331],[-110.8707,30.2109,922.5181],[-110.8323,30.2065,948.2301],[-110.8292,30.2142,926.9864],[-110.8261,30.2309,932.2846],[-110.8314,30.2496,960.2003],[-110.8307,30.2554,958.5305],[-110.8337,30.2601,912.5684],[-110.7949,30.2909,1377.7817],[-110.7968,30.2996,1408.5486],[-110.8235,30.3595,1420.6736],[-110.8398,30.4333,1119.8043],[-110.8398,30.4351,1132.5642],[-110.8341,30.441,1199.6719],[-110.8369,30.4445,1369.0088],[-110.8424,30.4457,1483.0057],[-110.8427,30.4504,1554.1289],[-110.8465,30.4567,1498.8478],[-110.8468,30.4662,1211.7928],[-110.8486,30.4666,1256.5352],[-110.8494,30.4772,1028.0894],[-110.8632,30.4778,1005.2449],[-110.8635,30.5114,951.5706],[-110.8688,30.5116,930.7336],[-110.868,30.4752,1007.2572],[-110.8716,30.4828,979.9341],[-110.8782,30.4883,948.8337],[-110.881,30.497,930.8934],[-110.8832,30.4959,931.1376],[-110.883,30.4933,935.7546],[-110.8897,30.4921,989.8458],[-110.8958,30.4872,1001.8934],[-110.9128,30.4946,1314.687],[-110.9317,30.5057,1155.5555],[-110.9381,30.523,1137.2633],[-110.9515,30.5228,990.2294],[-110.9518,30.5314,1118.6002],[-110.9505,30.5351,1119.5455],[-110.9803,30.5622,1256.8079],[-111.0006,30.5726,1078.623],[-111.0041,30.5763,999.5474],[-111.0264,30.5845,851.3638],[-111.0168,30.6016,763.9536],[-111.0228,30.6014,808.4164],[-111.033,30.5658,826.1268],[-111.0711,30.5679,765.908],[-111.0702,30.5783,744.5787],[-111.0498,30.587,768.0258],[-111.0524,30.5943,714.0846],[-111.0511,30.5963,714.6425],[-111.0575,30.6053,723.0809],[-111.0972,30.5888,714.0151],[-111.0987,30.6122,766.5917],[-111.1093,30.6336,765.7723],[-111.0812,30.6536,764.0083],[-111.1054,30.6708,742.8458],[-111.1203,30.6698,728.5782],[-111.127,30.6659,724.9701],[-111.1261,30.6653,729.7657],[-111.1388,30.6549,723.5747],[-111.1412,30.6572,715.0406],[-111.1456,30.6543,716.4534],[-111.1613,30.6608,716.7372],[-111.1616,30.6739,722.2555],[-111.1587,30.676,720.9742],[-111.1543,30.6761,716.8466],[-111.155,30.6785,716.1622],[-111.1767,30.6908,743.7084],[-111.1697,30.6968,732.4122],[-111.1865,30.7123,756.389],[-111.1862,30.7141,755.6541],[-111.2095,30.7261,818.2035],[-111.211,30.7247,837.3287],[-111.2132,30.7036,828.1004],[-111.2428,30.729,985.3491],[-111.245,30.7212,984.6121],[-111.256,30.7127,938.1332],[-111.2685,30.6659,916.7893],[-111.2821,30.6648,975.4795],[-111.3014,30.6408,870.4411],[-111.3015,30.6386,975.4869],[-111.333,30.5877,666.1091],[-111.3192,30.5866,685.1105],[-111.3212,30.5808,680.176],[-111.3052,30.5787,685.2454],[-111.2782,30.5612,676.9852],[-111.2897,30.5476,659.0902],[-111.2835,30.5473,661.4468],[-111.2856,30.5438,659.3016],[-111.2836,30.5435,660.2726],[-111.2871,30.5423,656.4141],[-111.2987,30.5247,638.1647],[-111.296,30.5224,640.2198],[-111.2973,30.5142,631.9299],[-111.3012,30.5048,625.0382],[-111.2849,30.4837,610.0372],[-111.2776,30.4847,613.2957],[-111.2733,30.4887,614.7413],[-111.2552,30.4777,633.71],[-111.2365,30.4727,646.4171],[-111.2229,30.4666,629.0351],[-111.2209,30.4599,625.8707],[-111.2316,30.4594,621.2328],[-111.2384,30.4478,616.6836],[-111.2479,30.4449,611.8741],[-111.2541,30.4387,608.1808],[-111.2579,30.4383,606.8386],[-111.2599,30.4363,605.8239],[-111.262,30.4305,603.9087],[-111.2588,30.4273,605.6135],[-111.2646,30.4253,602.0901],[-111.262,30.4217,605.7325],[-111.2563,30.424,605.3088],[-111.2545,30.4185,611.335],[-111.2489,30.4189,614.3939],[-111.2444,30.4236,622.5714],[-111.2273,30.4323,629.1399],[-111.2134,30.4195,647.842],[-111.2107,30.4108,644.4558],[-111.1979,30.4114,658.4529],[-111.1975,30.4059,656.1501],[-111.1923,30.4062,661.4783],[-111.1915,30.3947,658.9324],[-111.181,30.3952,669.5421],[-111.1804,30.3869,667.4299],[-111.1857,30.3866,662.6582],[-111.1851,30.3794,659.5987],[-111.1827,30.3795,662.3125],[-111.1841,30.3819,660.7753],[-111.1726,30.3875,674.3172],[-111.1692,30.3841,671.7353],[-111.1704,30.3777,671.3588],[-111.1641,30.3668,667.9269],[-111.2156,30.3667,635.3632],[-111.2157,30.3387,632.68],[-111.2057,30.3394,635.5836],[-111.1964,30.342,641.9213],[-111.1912,30.337,643.2122],[-111.1868,30.3362,646.5504],[-111.1934,30.3322,642.576],[-111.1926,30.3277,643.2728],[-111.1883,30.3247,644.7223],[-111.1643,30.3299,657.227],[-111.1627,30.3256,657.3893],[-111.1571,30.3289,660.6845],[-111.1471,30.3285,666.1577],[-111.1451,30.3237,667.0272],[-111.118,30.3395,693.7086],[-111.1088,30.3472,695.0854],[-111.0935,30.3442,701.6157],[-111.0755,30.3458,714.8055],[-111.0663,30.3422,716.2598],[-111.0664,30.3383,710.5565],[-111.0788,30.3389,702.5327],[-111.0816,30.3377,700.046],[-111.0907,30.3168,707.6575],[-111.0245,30.2715,874.8335],[-111.0081,30.2628,895.1378],[-111.0008,30.2677,877.1321],[-110.9752,30.2929,801.9344],[-110.9524,30.2796,829.3135],[-110.9643,30.2678,849.7566],[-110.9766,30.2473,845.5693],[-110.9925,30.2446,913.8651],[-110.9976,30.224,891.6858],[-110.9968,30.218,956.1541],[-110.9781,30.2128,827.7761],[-110.9501,30.1998,770.7021]]]]}}