{"type":"Feature","properties":{"GID_2":"MEX.19.11_2","GID_0":"MEX","country":"México","GID_1":"MEX.19_1","province":"NuevoLeón","NL_NAME_1":"NA","county":"CiénegadeFlores","VARNAME_2":"NA","NL_NAME_2":"NA","TYPE_2":"Município","ENGTYPE_2":"Municipality","CC_2":"NA","HASC_2":"NA","name":"Ciénegade_Flores.county"},
"geometry":{"type": "MultiPolygon","coordinates": [[[[-100.1181,26.0381,479.5701],[-100.1442,26.0142,445.9413],[-100.1503,26.0329,479.1884],[-100.1581,26.0439,498.1425],[-100.1759,26.0337,450.1815],[-100.1863,26.0215,428.134],[-100.1959,26.0184,425.6089],[-100.2025,26.023,425.8751],[-100.2047,26.0304,433.5043],[-100.2337,26.0207,433.1082],[-100.2296,26.0082,425.2472],[-100.2302,26.0019,422.3745],[-100.2731,26.0217,444.0933],[-100.2738,26.0163,437.9587],[-100.2794,26.0125,434.6671],[-100.2795,26.0106,430.9878],[-100.271,26.0091,428.8301],[-100.2616,26.0031,423.6559],[-100.2524,26.0029,419.1469],[-100.2507,26.0012,417.521],[-100.2501,25.9959,417.8064],[-100.2427,25.9844,411.6295],[-100.2341,25.9793,405.6396],[-100.2378,25.9609,429.0804],[-100.2322,25.9611,427.2243],[-100.2301,25.9518,422.6566],[-100.2387,25.9473,428.4719],[-100.2443,25.9345,429.8821],[-100.2446,25.9284,436.7899],[-100.2415,25.927,436.1718],[-100.2363,25.9146,429.5325],[-100.2231,25.9079,426.4363],[-100.2179,25.9141,418.9044],[-100.2105,25.8987,419.7107],[-100.1976,25.9172,408.2733],[-100.1904,25.915,407.3752],[-100.1857,25.9207,394.5423],[-100.1799,25.9211,392.0963],[-100.1767,25.9146,394.1786],[-100.1827,25.9127,399.6287],[-100.1741,25.91,393.2013],[-100.1579,25.9235,372.7728],[-100.1673,25.9321,375.6694],[-100.1633,25.9396,380.7662],[-100.1583,25.9428,385.6686],[-100.1531,25.9429,391.2745],[-100.1494,25.9448,394.3355],[-100.1444,25.9525,399.9183],[-100.1438,25.9565,411.0994],[-100.1393,25.9619,406.76],[-100.1346,25.9622,417.4858],[-100.1203,25.9684,428.1225],[-100.1232,25.9739,430.7912],[-100.1247,25.9728,428.6827],[-100.1262,25.9745,428.822],[-100.1259,25.9781,425.0118],[-100.1223,25.9819,428.9939],[-100.125,25.9838,435.3199],[-100.1263,25.9825,432.7988],[-100.1259,25.9848,435.3199],[-100.1206,25.9886,438.8549],[-100.1113,25.9903,443.6154],[-100.1044,25.9965,465.6025],[-100.1107,26.0127,474.0936],[-100.1137,26.0134,470.5797],[-100.1135,26.0252,480.3661],[-100.1152,26.0251,469.29],[-100.1174,26.029,483.9779],[-100.1161,26.0333,476.2567],[-100.1181,26.0381,479.5701]]]]}}