{"type":"Feature","properties":{"GID_2":"MEX.29.31_2","GID_0":"MEX","country":"México","GID_1":"MEX.29_1","province":"Tlaxcala","NL_NAME_1":"NA","county":"SanJoséTeacalco","VARNAME_2":"NA","NL_NAME_2":"NA","TYPE_2":"Município","ENGTYPE_2":"Municipality","CC_2":"NA","HASC_2":"NA","name":"San_José_Teacalco.county"},
"geometry":{"type": "MultiPolygon","coordinates": [[[[-98.0442,19.2905,2985.5754],[-98.041,19.2883,3015.6562],[-98.0427,19.285,3047.6343],[-98.0312,19.2896,3008.8193],[-98.0164,19.2894,2990.55],[-98.0198,19.2962,2926.5398],[-98.0178,19.2964,2928.3906],[-98.0205,19.3075,2829.3867],[-98.0189,19.3153,2776.7488],[-98.016,19.3199,2733.9978],[-98.0169,19.3282,2679.8972],[-98.0346,19.3313,2676.9836],[-98.0335,19.3403,2639.7307],[-98.0352,19.3457,2613.6619],[-98.0337,19.3555,2582.3892],[-98.038,19.3544,2592.3899],[-98.0372,19.356,2600.9138],[-98.0469,19.3604,2564.9546],[-98.0467,19.3576,2572.0286],[-98.0509,19.3611,2558.3901],[-98.0531,19.3588,2555.8369],[-98.0585,19.3587,2539.9834],[-98.0604,19.3602,2535.7788],[-98.0616,19.3594,2528.7312],[-98.0597,19.3577,2532.3823],[-98.0602,19.3505,2561.9775],[-98.056,19.3443,2589.2661],[-98.0607,19.341,2589.2927],[-98.0738,19.3502,2516.3457],[-98.0768,19.3509,2502.748],[-98.079,19.3497,2524.8198],[-98.077,19.3396,2579.7869],[-98.0783,19.338,2608.8423],[-98.0813,19.3404,2648.4363],[-98.0871,19.3365,2870.0813],[-98.0887,19.3306,2585.7432],[-98.0868,19.3296,2587.5771],[-98.0905,19.3228,2589.6321],[-98.0825,19.3172,2632.9258],[-98.0795,19.3126,2674.3481],[-98.0739,19.3182,2670.3027],[-98.0688,19.3123,2719.7981],[-98.061,19.3077,2775.4578],[-98.0531,19.2967,2891.6694],[-98.0466,19.2993,2881.8379],[-98.0442,19.2905,2985.5754]]]]}}