{"type":"Feature","properties":{"GID_2":"MEX.21.4_2","GID_0":"MEX","country":"México","GID_1":"MEX.21_1","province":"Puebla","NL_NAME_1":"NA","county":"Acatzingo","VARNAME_2":"NA","NL_NAME_2":"NA","TYPE_2":"Município","ENGTYPE_2":"Municipality","CC_2":"NA","HASC_2":"NA","name":"Acatzingo.county"},
"geometry":{"type": "MultiPolygon","coordinates": [[[[-97.6861,19.0904,2502.7832],[-97.6903,19.0879,2519.7336],[-97.6903,19.0851,2467.9363],[-97.6927,19.0836,2443.6099],[-97.6939,19.08,2453.5269],[-97.7013,19.0829,2628.9272],[-97.699,19.0782,2587.7454],[-97.7101,19.0713,2444.0173],[-97.7122,19.0684,2380.5725],[-97.7135,19.0679,2369.1624],[-97.7151,19.0701,2382.802],[-97.7142,19.0755,2454.4255],[-97.7189,19.0771,2442.2114],[-97.7225,19.0697,2361.2834],[-97.726,19.0664,2341.3569],[-97.7341,19.0616,2300.5693],[-97.7434,19.0603,2273.1616],[-97.7499,19.0644,2266.5139],[-97.7619,19.066,2232.9094],[-97.7673,19.0736,2260.7905],[-97.7775,19.0834,2272.3481],[-97.7847,19.0868,2281.7573],[-97.7937,19.1015,2346.9973],[-97.7938,19.1048,2354.7214],[-97.7964,19.1092,2349.1077],[-97.8018,19.1098,2430.4121],[-97.8025,19.1123,2440.248],[-97.8053,19.1127,2458.8311],[-97.804,19.1046,2449.2324],[-97.8062,19.1025,2441.9912],[-97.8125,19.101,2424.166],[-97.814,19.0984,2407.3408],[-97.8174,19.1002,2418.0142],[-97.817,19.1016,2428.8838],[-97.8196,19.1041,2409.0654],[-97.8167,19.0909,2361.5918],[-97.8117,19.0922,2380.5322],[-97.8116,19.0876,2366.98],[-97.8098,19.0848,2358.8784],[-97.8105,19.0818,2347.8862],[-97.8072,19.0813,2339.1499],[-97.81,19.0682,2295.5518],[-97.8081,19.0659,2300.5867],[-97.8106,19.064,2288.6118],[-97.8079,19.0615,2282.1372],[-97.8121,19.06,2274.0613],[-97.8137,19.0547,2264.9307],[-97.8163,19.0402,2243.6658],[-97.8159,19.0316,2230.2964],[-97.8146,19.0295,2226.1548],[-97.8083,19.0286,2223.9028],[-97.8091,19.0262,2219.9883],[-97.8009,19.0127,2187.9578],[-97.8013,19.0098,2185.7246],[-97.802,19.0074,2187.4097],[-97.8106,19.0126,2201.804],[-97.8134,19.0163,2206.4131],[-97.8142,19.021,2214.1121],[-97.8179,19.0218,2217.5447],[-97.8262,19.0285,2250.9663],[-97.8236,19.0205,2232.7686],[-97.8278,19.0153,2230.2466],[-97.8146,19.0099,2211.5713],[-97.8105,19.0039,2210.8772],[-97.8112,18.9967,2216.5103],[-97.8132,18.9972,2222.8235],[-97.8135,18.984,2212.915],[-97.8161,18.9788,2205.2451],[-97.806,18.9754,2183.3845],[-97.8123,18.9715,2198.3105],[-97.8101,18.9643,2191.395],[-97.8062,18.9618,2174.6084],[-97.8074,18.9589,2172.3828],[-97.8049,18.9563,2165.3496],[-97.7965,18.9526,2123.054],[-97.7958,18.9541,2123.4697],[-97.7736,18.9475,2077.2905],[-97.7764,18.9552,2088.1853],[-97.7697,18.9545,2087.3557],[-97.7614,18.9578,2093.4226],[-97.7461,18.953,2085.1655],[-97.7469,18.9567,2088.9316],[-97.7456,18.9621,2097.6787],[-97.7473,18.9752,2110.4961],[-97.7446,18.9731,2109.5239],[-97.7361,18.9712,2110.6255],[-97.731,18.9864,2135.7551],[-97.7278,18.9895,2143.6235],[-97.7317,18.9914,2143.021],[-97.7277,18.9938,2152.1216],[-97.7278,18.9992,2160.7363],[-97.717,19.0201,2208.8237],[-97.7166,19.024,2214.783],[-97.7139,19.0262,2219.573],[-97.7106,19.0387,2255.3672],[-97.7018,19.0494,2296.1116],[-97.6974,19.0627,2332.6604],[-97.696,19.0647,2341.9609],[-97.6949,19.064,2341.9609],[-97.6959,19.0567,2324.562],[-97.6902,19.0525,2327.1401],[-97.6911,19.0505,2315.5918],[-97.686,19.0575,2379.5845],[-97.6815,19.0683,2598.8203],[-97.6765,19.0713,2646.7668],[-97.6758,19.0807,2472.4622],[-97.6822,19.0817,2431.7463],[-97.6798,19.0856,2446.8511],[-97.6861,19.0904,2502.7832]]]]}}