{"type": "Feature","bbox": [-93.3905,17.5555,-93.0119,17.8458],"geometry": {"type": "MultiPolygon","coordinates": [[[[-93.0418,17.6873,20.1042],[-93.0391,17.692,16.18],[-93.0379,17.6884,22.2304],[-93.0384,17.6925,18.7598],[-93.0371,17.6937,13.2628],[-93.0403,17.6926,13.5478],[-93.0408,17.6936,13.5478],[-93.0399,17.6981,15.251],[-93.0379,17.6986,16.58],[-93.0402,17.701,13.0618],[-93.0372,17.7018,13.5579],[-93.0378,17.7049,15.5728],[-93.0395,17.7047,15.5728],[-93.0383,17.7066,14.8622],[-93.0405,17.7061,13.2539],[-93.0408,17.7041,13.577],[-93.043,17.7042,13.2905],[-93.0415,17.7075,13.2295],[-93.0448,17.708,12.7043],[-93.0448,17.7111,12.087],[-93.0433,17.7088,11.7608],[-93.0421,17.7103,11.7608],[-93.0444,17.7134,11.8888],[-93.048,17.7111,10.8204],[-93.0498,17.7142,14.0489],[-93.0538,17.7114,11.2146],[-93.0548,17.7132,10.4682],[-93.0536,17.7161,12.305],[-93.055,17.7171,12.5041],[-93.0535,17.7188,11.3351],[-93.0577,17.7202,11.1252],[-93.0554,17.7218,13.9903],[-93.0572,17.7234,11.1004],[-93.0541,17.7293,10.6731],[-93.0554,17.7304,10.8767],[-93.0541,17.732,10.1128],[-93.0552,17.7347,12.1828],[-93.053,17.7369,11.7113],[-93.0542,17.7383,10.9409],[-93.0523,17.7417,10.8983],[-93.0543,17.7424,10.666],[-93.0528,17.7439,11.5767],[-93.0514,17.7431,10.9604],[-93.052,17.7456,10.1624],[-93.05,17.7452,9.822],[-93.0495,17.7475,11.3283],[-93.0469,17.7484,10.6037],[-93.0466,17.7501,12.2142],[-93.0487,17.7511,11.0238],[-93.0461,17.7531,11.6367],[-93.0457,17.756,13.1926],[-93.0478,17.7584,10.1433],[-93.0444,17.7605,11.8704],[-93.0453,17.7622,11.9491],[-93.0432,17.7639,10.2098],[-93.0426,17.7684,11.1308],[-93.0399,17.7699,11.557],[-93.0395,17.7667,9.4627],[-93.0366,17.7664,10.5454],[-93.0372,17.769,13.2928],[-93.0278,17.7716,10.888],[-93.026,17.7746,10.3115],[-93.0266,17.7764,11.1878],[-93.0234,17.7766,11.1066],[-93.0239,17.7791,9.1249],[-93.02,17.7807,10.1248],[-93.0189,17.7841,13.7195],[-93.0159,17.7853,11.1979],[-93.0184,17.7871,12.2085],[-93.0173,17.7894,11.8703],[-93.0187,17.7907,9.4629],[-93.0148,17.7922,9.0916],[-93.0139,17.7943,8.8409],[-93.012,17.7936,7.3816],[-93.014,17.7949,8.8409],[-93.0119,17.7977,10.6319],[-93.0129,17.7989,19.5787],[-93.0157,17.7981,9.0097],[-93.0159,17.8011,8.8646],[-93.0196,17.8031,9.7819],[-93.0164,17.8081,11.5207],[-93.0195,17.8094,11.7462],[-93.0205,17.8142,9.8228],[-93.0273,17.8203,10.4944],[-93.0254,17.8254,9.1023],[-93.0403,17.8409,4.7546],[-93.0413,17.8383,4.6237],[-93.0445,17.8406,6.809],[-93.0431,17.8426,3.8668],[-93.0587,17.8442,21.6839],[-93.0941,17.8412,18.9352],[-93.1016,17.8458,20.9721],[-93.1161,17.8213,39.2581],[-93.1021,17.8132,36.8815],[-93.1053,17.7918,19.4765],[-93.1236,17.7968,34.8316],[-93.1335,17.7915,38.7002],[-93.1323,17.7897,39.0538],[-93.1311,17.7906,44.2891],[-93.1313,17.7879,36.4692],[-93.1331,17.7652,24.0534],[-93.1358,17.7522,19.0645],[-93.1504,17.7631,28.6713],[-93.1469,17.7775,35.3549],[-93.1536,17.7795,44.7929],[-93.1544,17.7772,44.3826],[-93.165,17.78,22.6441],[-93.1705,17.7775,29.2991],[-93.1739,17.7842,43.4449],[-93.1797,17.7864,40.93],[-93.1826,17.781,47.8644],[-93.179,17.7799,41.6194],[-93.1807,17.7756,36.3838],[-93.1879,17.7781,47.2731],[-93.1887,17.7758,57.5842],[-93.1912,17.777,60.0792],[-93.1937,17.7714,57.5647],[-93.2444,17.7866,57.9103],[-93.2435,17.791,52.5865],[-93.2508,17.7933,47.0835],[-93.2527,17.7954,47.498],[-93.2534,17.8016,42.7636],[-93.249,17.8053,43.412],[-93.2492,17.811,42.7763],[-93.2584,17.8095,50.212],[-93.2634,17.8063,48.2161],[-93.2739,17.7721,58.5388],[-93.3052,17.7818,60.2687],[-93.3112,17.7887,46.7596],[-93.3112,17.7932,44.8876],[-93.3202,17.796,38.8873],[-93.3143,17.8129,36.8216],[-93.3334,17.8184,25.7098],[-93.3462,17.7756,45.8117],[-93.3516,17.764,37.7317],[-93.3754,17.7668,38.9464],[-93.3773,17.7715,31.9903],[-93.3811,17.7745,35.1239],[-93.3844,17.7731,30.6744],[-93.3866,17.7776,28.546],[-93.3897,17.776,29.5099],[-93.3905,17.7734,31.6012],[-93.3816,17.7485,33.0113],[-93.3698,17.7374,42.7869],[-93.3707,17.7347,33.092],[-93.3739,17.733,28.5989],[-93.3695,17.733,34.091],[-93.3696,17.7292,29.2904],[-93.3681,17.7276,28.2186],[-93.3626,17.7287,26.189],[-93.3645,17.7267,30.9446],[-93.3624,17.7234,29.0683],[-93.364,17.7235,28.9125],[-93.3627,17.722,29.0969],[-93.3616,17.7235,29.0683],[-93.3601,17.7225,28.8254],[-93.3587,17.7169,32.7411],[-93.3543,17.7129,30.5497],[-93.3565,17.7106,30.8635],[-93.3552,17.7064,30.1662],[-93.3538,17.7074,31.5183],[-93.3529,17.7058,30.2143],[-93.354,17.7062,30.2143],[-93.3532,17.7047,32.8328],[-93.3544,17.704,32.8328],[-93.3536,17.7017,32.7884],[-93.3558,17.6998,39.0281],[-93.3532,17.6968,36.0504],[-93.3559,17.6929,34.2446],[-93.3567,17.6872,31.8329],[-93.3538,17.6811,34.6091],[-93.3605,17.6651,51.1229],[-93.3484,17.6688,37.6657],[-93.346,17.6681,31.1486],[-93.3461,17.6667,32.4786],[-93.3371,17.6652,33.9711],[-93.3279,17.6598,36.0339],[-93.326,17.6533,37.3937],[-93.3173,17.6396,47.565],[-93.3277,17.6162,41.0361],[-93.3225,17.6157,37.8722],[-93.3072,17.5998,54.9969],[-93.2979,17.6059,53.6838],[-93.2874,17.6084,59.1094],[-93.2888,17.598,51.7007],[-93.28,17.6005,59.4404],[-93.2794,17.5958,56.4345],[-93.2815,17.5881,64.2257],[-93.2779,17.5809,72.8553],[-93.2732,17.5789,70.6667],[-93.2682,17.5819,70.5357],[-93.2683,17.5791,69.4969],[-93.2756,17.5736,75.9608],[-93.2714,17.5722,74.8886],[-93.2714,17.5689,79.3346],[-93.2697,17.5676,83.3636],[-93.2613,17.5713,116.0481],[-93.2553,17.5555,155.1742],[-93.2432,17.5603,63.1191],[-93.2436,17.5627,59.3696],[-93.2409,17.5639,62.9492],[-93.2388,17.5681,66.906],[-93.2341,17.5677,69.0433],[-93.2337,17.5738,74.2047],[-93.2309,17.5775,65.2305],[-93.231,17.5839,89.2875],[-93.2347,17.5839,64.4485],[-93.2368,17.5868,57.339],[-93.2356,17.5879,59.543],[-93.237799999999993,17.5898,63.0377],[-93.2462,17.5924,57.7009],[-93.2385,17.5984,113.2702],[-93.2312,17.5974,123.3136],[-93.2292,17.5955,132.0331],[-93.2245,17.5972,121.4324],[-93.219,17.5917,150.6882],[-93.22,17.5895,159.685],[-93.2168,17.5851,160.2235],[-93.2134,17.5891,117.6469],[-93.2111,17.587,164.914],[-93.2115,17.5852,170.249],[-93.2176,17.581,131.1535],[-93.2184,17.578,118.037],[-93.2128,17.5666,129.4163],[-93.2112,17.5651,146.3562],[-93.2093,17.5659,155.6951],[-93.207,17.5628,175.4462],[-93.2061,17.5645,190.8129],[-93.19,17.561,180.6473],[-93.1858,17.563,227.4633],[-93.1846,17.5615,211.637],[-93.1786,17.5611,249.0773],[-93.1786,17.5646,234.4004],[-93.1747,17.5635,251.6453],[-93.1695,17.5668,185.2205],[-93.1706,17.5683,167.2511],[-93.1663,17.5717,219.4057],[-93.1696,17.5763,194.134],[-93.1663,17.5805,187.0854],[-93.1633,17.5794,186.0895],[-93.1625,17.5892,142.2552],[-93.1592,17.5873,150.72],[-93.1591,17.5847,160.56],[-93.1569,17.5848,146.4903],[-93.1564,17.5833,162.1884],[-93.153,17.5842,132.5108],[-93.1495,17.5804,152.7946],[-93.142,17.5811,108.492],[-93.1376,17.5837,94.6172],[-93.1378,17.5871,65.4989],[-93.1324,17.5847,70.136],[-93.131,17.5814,57.4069],[-93.1291,17.5829,63.6002],[-93.1248,17.581,72.3555],[-93.1237,17.5887,47.268],[-93.1198,17.5879,36.1361],[-93.1188,17.5832,43.4865],[-93.1131,17.5837,23.5133],[-93.1117,17.5815,28.6918],[-93.1088,17.5834,25.7635],[-93.1081,17.5804,27.4329],[-93.1031,17.5783,20.6645],[-93.1013,17.5749,21.934],[-93.0974,17.581,20.1359],[-93.0971,17.5845,21.353],[-93.0947,17.5854,25.5174],[-93.081,17.5733,26.5623],[-93.0776,17.5727,22.9839],[-93.0756,17.5783,21.78],[-93.078,17.5833,21.9039],[-93.0798,17.6101,15.2644],[-93.0846,17.6102,18.9001],[-93.0854,17.6072,20.6066],[-93.0943,17.6092,18.5616],[-93.0902,17.6149,19.9197],[-93.076,17.6516,19.8068],[-93.0744,17.661,12.3476],[-93.0719,17.6618,12.1552],[-93.0707,17.6662,12.0331],[-93.0691,17.6662,12.9193],[-93.069,17.6636,13.5936],[-93.0654,17.6638,18.1851],[-93.065,17.667,17.9136],[-93.0598,17.6649,11.2134],[-93.0622,17.6698,14.3231],[-93.0611,17.6719,13.0826],[-93.067,17.6717,14.6282],[-93.0418,17.6873,20.1042]]]]}
,"properties": {"GID_2": "MEX.5.48_2","GID_0": "MEX","country": "México","GID_1": "MEX.5_1","province": "Chiapas","NL_NAME_1": "NA","county": "Juárez","VARNAME_2": "NA","NL_NAME_2": "NA","TYPE_2": "Município","ENGTYPE_2": "Municipality","CC_2": "NA","HASC_2": "NA","name": "Juárez.county","area_km2": 745.9129,"hist_schema_id": "Elevation0-9000","hist_area_km2": {"0": 96.8233,"25": 254.5143,"50": 261.4026,"75": 78.2019,"100": 21.9868,"125": 13.7426,"150": 8.5492,"175": 6.0636,"200": 3.3957,"225": 0.95,"250": 0.283}}}