{"type":"Feature","properties":{"GID_2":"MEX.20.375_2","GID_0":"MEX","country":"México","GID_1":"MEX.20_1","province":"Oaxaca","NL_NAME_1":"NA","county":"SantaCatarinaTicuá","VARNAME_2":"NA","NL_NAME_2":"NA","TYPE_2":"Município","ENGTYPE_2":"Municipality","CC_2":"NA","HASC_2":"NA","name":"Santa_Catarina_Ticuá.county"},
"geometry":{"type": "MultiPolygon","coordinates": [[[[-97.5274,17.0179,2757.3599],[-97.52,17.0337,2603.8696],[-97.5129,17.0679,2227.9189],[-97.5048,17.0691,2153.7937],[-97.5148,17.0924,2001.634],[-97.5297,17.0912,1999.4424],[-97.5459,17.0852,2274.7686],[-97.5491,17.0855,2318.3811],[-97.5543,17.0829,2316.8203],[-97.5659,17.0723,2434.6687],[-97.5534,17.0464,2659.8057],[-97.5274,17.0179,2757.3599]]]]}}