{"type": "Feature","bbox": [-105.9782,26.8624,-105.3974,27.3682],"geometry": {"type": "MultiPolygon","coordinates": [[[[-105.4271,27.347,1386.6611],[-105.4306,27.3435,1393.0828],[-105.5188,27.357,1508.1772],[-105.4923,27.3091,1475.5],[-105.4953,27.308,1479.3967],[-105.5097,27.3096,1489.6406],[-105.517,27.3133,1499.2181],[-105.5299,27.3106,1521.2208],[-105.5467,27.3021,1554.6888],[-105.5497,27.2957,1575.5345],[-105.5533,27.2949,1607.2313],[-105.5541,27.2892,1617.0952],[-105.5738,27.2943,1616.0969],[-105.6221,27.311,1666.3511],[-105.6101,27.3419,1656.9823],[-105.63,27.3682,1591.2192],[-105.72,27.3222,1751.3213],[-105.7162,27.3158,1755.3901],[-105.7068,27.2789,1689.3003],[-105.7201,27.2738,1705.8604],[-105.7191,27.2603,1704.8646],[-105.7275,27.2561,1701.1501],[-105.7314,27.2422,1652.0784],[-105.7305,27.2407,1651.0205],[-105.7371,27.2328,1684.5552],[-105.746,27.2297,1675.7803],[-105.7521,27.2255,1670.6187],[-105.7575,27.2313,1693.8082],[-105.764,27.2324,1705.1801],[-105.7702,27.2363,1697.6329],[-105.7743,27.2407,1709.3053],[-105.7772,27.251,1714.5571],[-105.783,27.254,1721.9908],[-105.7863,27.2584,1732.2643],[-105.7778,27.2739,1710.5071],[-105.7859,27.2804,1682.9207],[-105.8001,27.2862,1659.3711],[-105.8043,27.292,1650.2051],[-105.8107,27.2915,1687.3469],[-105.816,27.2884,1692.4769],[-105.8187,27.2885,1694.7197],[-105.8217,27.2861,1703.2897],[-105.8213,27.2841,1715.4576],[-105.8267,27.2843,1712.882],[-105.8372,27.2807,1652.4574],[-105.8402,27.2755,1637.6433],[-105.8531,27.2828,1591.6093],[-105.8553,27.2862,1573.5913],[-105.8572,27.2962,1567.2744],[-105.8611,27.299,1588.2627],[-105.8613,27.3061,1564.2335],[-105.8817,27.2933,1497.5557],[-105.8828,27.295,1494.2438],[-105.8854,27.2948,1491.3506],[-105.8863,27.2981,1502.0044],[-105.89,27.3004,1487.6499],[-105.8901,27.3043,1477.0952],[-105.8995,27.3104,1474.6399],[-105.8993,27.312,1456.687],[-105.9027,27.3122,1455.1099],[-105.9039,27.3152,1447.1658],[-105.9089,27.3147,1441.991],[-105.9117,27.3188,1440.7535],[-105.9145,27.3182,1444.1283],[-105.9152,27.3265,1458.6858],[-105.9239,27.3331,1435.1714],[-105.9282,27.3336,1411.5017],[-105.9308,27.3361,1369.2643],[-105.9319,27.335,1373.0259],[-105.9401,27.3367,1407.2202],[-105.9431,27.3387,1417.8279],[-105.9541,27.3367,1440.9749],[-105.9564,27.3344,1412.5129],[-105.9561,27.3314,1434.2526],[-105.9529,27.3288,1443.6639],[-105.9516,27.3248,1444.809],[-105.9535,27.3205,1443.9473],[-105.9522,27.319,1438.2954],[-105.9517,27.3096,1430.0756],[-105.9534,27.2981,1438.2673],[-105.952,27.2979,1432.8792],[-105.9548,27.2927,1436.2385],[-105.953,27.2855,1442.4922],[-105.9562,27.2822,1447.3258],[-105.9562,27.2797,1450.8612],[-105.9523,27.2663,1481.0583],[-105.9515,27.2568,1493.6243],[-105.9455,27.2482,1494.6357],[-105.9351,27.2499,1469.3621],[-105.9287,27.2475,1460.249],[-105.9384,27.2398,1482.0791],[-105.9485,27.2389,1499.0059],[-105.9569,27.2333,1528.4351],[-105.9484,27.2369,1505.9484],[-105.9446,27.2359,1494.7599],[-105.9352,27.2283,1528.1282],[-105.9263,27.2245,1518.9835],[-105.9214,27.2171,1498.8892],[-105.918,27.2153,1465.8671],[-105.9199,27.213,1468.3088],[-105.9192,27.2074,1483.5378],[-105.9155,27.2014,1477.5159],[-105.9174,27.2,1488.8848],[-105.9219,27.2007,1487.2821],[-105.9259,27.1938,1517.1239],[-105.9343,27.1913,1540.6538],[-105.9373,27.188,1544.2164],[-105.9381,27.1813,1574.531],[-105.9407,27.1793,1585.6354],[-105.9444,27.1776,1599.2698],[-105.9565,27.1808,1624.1797],[-105.9635,27.1297,1703.162],[-105.966,27.1274,1725.3362],[-105.9762,27.124,1759.636],[-105.9782,27.1181,1715.2458],[-105.9703,27.1085,1662.8588],[-105.965,27.1055,1657.1917],[-105.9632,27.106,1664.5708],[-105.9643,27.1037,1646.4711],[-105.9598,27.102,1650.762],[-105.9595,27.0977,1633.9967],[-105.9552,27.0954,1634.4707],[-105.9519,27.0985,1638.1084],[-105.9518,27.0931,1632.0929],[-105.9476,27.0873,1651.8785],[-105.9491,27.0863,1645.5581],[-105.9483,27.0838,1647.059],[-105.9503,27.083,1652.092],[-105.9501,27.0791,1654.0227],[-105.9474,27.0777,1669.3047],[-105.9484,27.0699,1674.3782],[-105.9507,27.0678,1668.8663],[-105.9519,27.0617,1704.7723],[-105.9347,27.06,1645.9417],[-105.9335,27.0559,1654.9271],[-105.9423,27.0538,1665.3843],[-105.948,27.0453,1689.0696],[-105.9455,27.0423,1719.7622],[-105.9478,27.0352,1679.9514],[-105.9432,27.0337,1682.3188],[-105.9433,27.0256,1689.2305],[-105.9398,27.0251,1689.8318],[-105.9406,27.0224,1703.1396],[-105.947,27.0185,1771.2592],[-105.9488,27.0119,1767.6177],[-105.9473,27.007,1782.1437],[-105.9438,27.0069,1814.8331],[-105.9416,27.0042,1845.4177],[-105.941,26.9981,1829.8512],[-105.9389,26.9951,1795.3525],[-105.9291,26.9871,1745.6624],[-105.9249,26.9872,1740.5092],[-105.9193,26.9909,1727.0193],[-105.9174,26.9906,1726.9479],[-105.9187,26.9931,1732.0759],[-105.9172,26.9957,1736.7059],[-105.9137,26.9972,1749.3508],[-105.9069,27.0041,1832.6504],[-105.9066,27.0078,1882.7151],[-105.9084,27.008,1867.6168],[-105.9094,27.0108,1852.418],[-105.9046,27.0163,1960.3376],[-105.8949,27.009,1984.7404],[-105.8812,27.0063,1828.0297],[-105.8813,27.0032,1811.7706],[-105.8772,26.9991,1802.6414],[-105.8678,27.0063,1876.9034],[-105.8615,27.0061,1944.9666],[-105.8585,27.0034,1877.3212],[-105.8607,26.9995,1855.6799],[-105.8625,26.9993,1860.6716],[-105.8625,26.9965,1853.2317],[-105.8653,26.9963,1839.0303],[-105.8658,26.9943,1829.1398],[-105.8676,26.994,1829.1398],[-105.8674,26.991,1832.3618],[-105.8694,26.9889,1815.1868],[-105.8684,26.9873,1821.3286],[-105.8516,26.9857,1961.274],[-105.8473,26.9823,1985.2556],[-105.8422,26.9824,1958.842],[-105.8412,26.9777,1950.0758],[-105.8331,26.9726,1941.9019],[-105.8355,26.9699,1917.6898],[-105.8345,26.9668,1914.8892],[-105.8308,26.9642,1903.7786],[-105.8305,26.9618,1896.7664],[-105.8288,26.9612,1896.7664],[-105.8281,26.9639,1915.7876],[-105.825,26.9664,1932.0077],[-105.8187,26.9496,1984.5697],[-105.8115,26.9533,1895.3059],[-105.7962,26.9364,1877.199],[-105.7843,26.9338,1818.9369],[-105.7709,26.9348,1837.8651],[-105.7699,26.9332,1839.6172],[-105.7789,26.9297,1812.3523],[-105.7325,26.9118,1819.4098],[-105.6908,26.8624,1802.246],[-105.6869,26.8783,1850.0311],[-105.6748,26.8782,1844.5042],[-105.6294,26.8936,1886.8995],[-105.6248,26.8817,1819.6614],[-105.6239,26.8834,1810.631],[-105.6191,26.8811,1791.1587],[-105.618,26.8783,1788.527],[-105.6147,26.8762,1790.3977],[-105.6146,26.8738,1774.9757],[-105.6116,26.8732,1768.495],[-105.6124,26.8719,1761.0989],[-105.6108,26.8703,1774.9078],[-105.6027,26.8715,1761.1702],[-105.6006,26.8794,1761.9697],[-105.5872,26.8728,1740.2336],[-105.5862,26.8771,1753.8088],[-105.581,26.873,1740.7444],[-105.5724,26.8696,1720.759],[-105.5747,26.8762,1729.2601],[-105.5734,26.881,1735.7559],[-105.5707,26.8819,1739.0844],[-105.5689,26.885,1765.5186],[-105.5687,26.8973,1772.4552],[-105.5513,26.9077,1771.3151],[-105.5497,26.9139,1786.7151],[-105.5428,26.9246,1759.635],[-105.5423,26.9296,1759.9352],[-105.5367,26.9343,1735.335],[-105.5378,26.9371,1730.7539],[-105.5347,26.9393,1739.0627],[-105.5327,26.9388,1723.1763],[-105.5295,26.9438,1715.4121],[-105.5265,26.9453,1710.5947],[-105.5246,26.9507,1701.0953],[-105.5257,26.9575,1689.5708],[-105.5223,26.9594,1688.6738],[-105.5193,26.9582,1688.572],[-105.5194,26.9605,1686.0957],[-105.5171,26.9604,1696.3557],[-105.5179,26.9619,1682.5874],[-105.5082,26.9696,1680.3085],[-105.508,26.9728,1667.7861],[-105.5112,26.9714,1678.24],[-105.5139,26.9774,1699.616],[-105.5134,26.9831,1687.1798],[-105.5104,26.9874,1664.576],[-105.5133,26.9965,1658.1248],[-105.51,27.0096,1598.8955],[-105.5022,27.0175,1592.5763],[-105.5113,27.0407,1644.985],[-105.517,27.0399,1643.6685],[-105.5189,27.0417,1646.2993],[-105.5183,27.0456,1653.292],[-105.5202,27.0481,1656.4834],[-105.5212,27.0547,1657.5227],[-105.5411,27.0464,1661.9388],[-105.5402,27.0411,1655.313],[-105.5534,27.0411,1678.1531],[-105.5615,27.0373,1682.9087],[-105.5632,27.054,1671.6627],[-105.5659,27.0578,1653.2667],[-105.564,27.0585,1655.1646],[-105.5645,27.0606,1650.1853],[-105.5627,27.0628,1648.9768],[-105.5643,27.0661,1651.7877],[-105.5636,27.071,1655.1844],[-105.5722,27.0806,1665.4851],[-105.5631,27.0913,1666.8591],[-105.5602,27.0983,1697.8784],[-105.5495,27.1086,1711.3582],[-105.5531,27.1162,1656.621],[-105.5525,27.1279,1632.7236],[-105.55,27.1341,1616.2812],[-105.5462,27.1391,1607.3064],[-105.5391,27.1419,1596.6355],[-105.5347,27.1409,1591.1597],[-105.5284,27.1429,1582.7355],[-105.5187,27.1405,1571.1943],[-105.5088,27.1442,1558.3342],[-105.5045,27.1431,1554.7545],[-105.4996,27.1452,1550.8406],[-105.4945,27.1439,1545.2227],[-105.4913,27.148,1541.4515],[-105.4909,27.1521,1545.6527],[-105.4948,27.1565,1534.5546],[-105.4916,27.1597,1531.6982],[-105.4932,27.1616,1529.4235],[-105.4942,27.1695,1521.821],[-105.4551,27.1556,1527.6406],[-105.4617,27.1683,1517.7559],[-105.4601,27.1694,1517.4884],[-105.4614,27.1698,1515.8309],[-105.4608,27.1767,1512.1857],[-105.4586,27.1789,1510.2058],[-105.4567,27.1779,1509.8058],[-105.4551,27.1804,1508.1559],[-105.4572,27.1839,1506.3585],[-105.4555,27.1893,1512.6155],[-105.4178,27.1788,1524.499],[-105.4214,27.183,1518.4139],[-105.4166,27.1844,1536.0184],[-105.4066,27.1952,1545.7272],[-105.4077,27.2028,1524.2191],[-105.4057,27.2054,1521.2754],[-105.4065,27.2122,1514.824],[-105.4027,27.215,1520.7714],[-105.4002,27.2245,1504.7573],[-105.3974,27.2285,1501.1282],[-105.4056,27.2403,1492.0642],[-105.4054,27.2421,1490.9662],[-105.4041,27.2414,1481.2336],[-105.4041,27.2448,1477.0499],[-105.4065,27.2516,1470.5543],[-105.4092,27.2552,1465.0468],[-105.4135,27.2568,1476.4924],[-105.4121,27.2599,1463.6917],[-105.4143,27.2624,1454.45],[-105.4115,27.2668,1448.1313],[-105.4117,27.2711,1441.7203],[-105.4194,27.2794,1429.9674],[-105.4223,27.2868,1422.1879],[-105.4268,27.2867,1420.2018],[-105.4292,27.2916,1417.2719],[-105.429,27.295,1417.0619],[-105.4336,27.2955,1412.0443],[-105.4353,27.2982,1410.0515],[-105.432,27.3028,1408.793],[-105.4301,27.31,1406.2433],[-105.4359,27.3181,1401.7848],[-105.4374,27.328,1396.1539],[-105.4266,27.3357,1396.646],[-105.4267,27.3375,1404.7625],[-105.4315,27.3393,1390.429],[-105.4261,27.344,1387.2908],[-105.4255,27.3459,1386.6611],[-105.4271,27.347,1386.6611]]]]}
,"properties": {"GID_2": "MEX.6.31_2","GID_0": "MEX","country": "México","GID_1": "MEX.6_1","province": "Chihuahua","NL_NAME_1": "NA","county": "HidalgodelParral","VARNAME_2": "NA","NL_NAME_2": "NA","TYPE_2": "Município","ENGTYPE_2": "Municipality","CC_2": "NA","HASC_2": "NA","name": "Hidalgodel_Parral.county","area_km2": 1926.429,"hist_schema_id": "Elevation0-9000","hist_area_km2": {"1375": 1.017,"1400": 10.512,"1425": 30.672,"1450": 40.268,"1475": 51.206,"1500": 73.84,"1525": 89.122,"1550": 81.695,"1575": 88.846,"1600": 102.454,"1625": 134.866,"1650": 167.427,"1675": 168.364,"1700": 153.877,"1725": 127.594,"1750": 107.023,"1775": 97.228,"1800": 83.794,"1825": 68.272,"1850": 44.077,"1875": 31.591,"1900": 25.034,"1925": 21.254,"1950": 19.478,"1975": 18.155,"2000": 18.494,"2025": 17.058,"2050": 15.716,"2075": 11.825,"2100": 9.086,"2125": 6.006,"2150": 3.778,"2175": 2.512,"2200": 1.87,"2225": 0.925,"2250": 0.661,"2275": 0.567,"2300": 0.094,"2325": 0.17}}}