{"type":"Feature","properties":{"GID_2":"MEX.5.54_2","GID_0":"MEX","country":"México","GID_1":"MEX.5_1","province":"Chiapas","NL_NAME_1":"NA","county":"Larráinzar","VARNAME_2":"NA","NL_NAME_2":"NA","TYPE_2":"Município","ENGTYPE_2":"Municipality","CC_2":"NA","HASC_2":"NA","name":"Larráinzar.county"},
"geometry":{"type": "MultiPolygon","coordinates": [[[[-92.7216,16.916,2035.3738],[-92.7258,16.9286,1978.3134],[-92.731,16.9339,1972.9543],[-92.7433,16.9366,1859.9399],[-92.7417,16.9409,1637.2185],[-92.7421,16.9477,1410.3922],[-92.7377,16.9506,1602.699],[-92.7354,16.9547,1555.9323],[-92.7264,16.9595,1511.8729],[-92.7375,16.9696,1038.9545],[-92.7238,16.9791,990.5724],[-92.7233,16.9766,1178.0042],[-92.7142,16.9809,829.5306],[-92.712,16.9786,894.3061],[-92.7135,16.9754,1047.0559],[-92.7163,16.9745,1075.0792],[-92.7143,16.9725,1105.5538],[-92.7128,16.9732,1105.5538],[-92.709,16.9813,786.5198],[-92.7154,16.987,765.4128],[-92.7213,16.988,769.5759],[-92.7214,16.9862,824.578],[-92.7244,16.9862,804.5449],[-92.7239,16.9887,763.454],[-92.7351,16.9844,784.957],[-92.7384,16.9775,894.5205],[-92.7385,16.9663,1092.2219],[-92.7422,16.9622,1115.6765],[-92.7427,16.9565,1229.0022],[-92.7469,16.9545,1246.4833],[-92.7502,16.9559,1338.1547],[-92.76,16.9538,1665.0265],[-92.7717,16.9723,1254.5059],[-92.763,16.9762,1150.9438],[-92.7609,16.9827,991.2083],[-92.7679,16.9887,974.16],[-92.7788,16.9863,958.7666],[-92.7793,16.9777,1033.0232],[-92.7853,16.965,1293.2029],[-92.7913,16.9661,1479.5104],[-92.8044,16.9849,1427.1367],[-92.8156,16.9857,1571.2378],[-92.8088,16.9908,1279.0911],[-92.8198,16.9961,1491.7299],[-92.8189,16.9981,1368.844],[-92.8252,16.9983,1449.6104],[-92.8374,16.9923,1563.8813],[-92.8389,16.9848,1596.2939],[-92.8454,16.9834,1713.5892],[-92.8446,16.9787,1534.781],[-92.8494,16.9742,1585.5499],[-92.8497,16.9704,1598.7581],[-92.8446,16.9699,1687.9336],[-92.8378,16.9613,1882.5393],[-92.845,16.9469,2042.2197],[-92.8479,16.9341,1881.6108],[-92.8513,16.9307,1846.1487],[-92.8399,16.9202,1610.6289],[-92.8399,16.9163,1577.4928],[-92.8426,16.9134,1524.1006],[-92.8304,16.9114,1727.5575],[-92.8023,16.8828,1933.1017],[-92.7871,16.8718,2226.4365],[-92.7818,16.87,2284.8533],[-92.7786,16.8657,2303.2114],[-92.7737,16.8659,2352.4504],[-92.7711,16.863,2321.4802],[-92.7654,16.8668,2182.176],[-92.7639,16.8654,2212.2583],[-92.7637,16.8602,2260.3369],[-92.761,16.8607,2200.6516],[-92.7541,16.8576,2370.7185],[-92.7518,16.8585,2403.4573],[-92.7502,16.8644,2181.0305],[-92.7458,16.8671,2146.2288],[-92.7436,16.8652,2225.4414],[-92.7422,16.8599,2347.157],[-92.7391,16.8579,2386.1067],[-92.7331,16.8622,2278.7712],[-92.7251,16.8646,2109.7454],[-92.722,16.8681,2032.5228],[-92.7129,16.8697,2034.9673],[-92.7116,16.8681,2038.7627],[-92.7104,16.87,1971.7717],[-92.706,16.8704,1943.3669],[-92.702,16.875,1783.222],[-92.6968,16.8773,1755.3547],[-92.6946,16.8856,1714.0002],[-92.6988,16.8935,1720.0796],[-92.6975,16.8966,1714.1497],[-92.6915,16.8979,1802.1104],[-92.6952,16.9053,1787.6761],[-92.7149,16.9052,1920.146],[-92.7191,16.9082,1992.9462],[-92.7216,16.916,2035.3738]]]]}}