{"type":"Feature","properties":{"GID_2":"MEX.30.70_2","GID_0":"MEX","country":"México","GID_1":"MEX.30_1","province":"Veracruz","NL_NAME_1":"NA","county":"GutiérrezZamora","VARNAME_2":"NA","NL_NAME_2":"NA","TYPE_2":"Município","ENGTYPE_2":"Municipality","CC_2":"NA","HASC_2":"NA","name":"Gutiérrez_Zamora.county"},
"geometry":{"type": "MultiPolygon","coordinates": [[[[-97.1417,20.3761,45.2988],[-97.1379,20.3768,49.9392],[-97.1382,20.3747,45.6338],[-97.1303,20.3719,63.9361],[-97.129,20.3721,63.2255],[-97.1282,20.3784,52.6896],[-97.1226,20.3752,67.5478],[-97.1223,20.3775,129.7915],[-97.1195,20.3778,114.7414],[-97.1196,20.3757,95.5916],[-97.1175,20.3752,153.6412],[-97.1178,20.3786,118.87],[-97.1155,20.378,166.0883],[-97.1114,20.3797,103.9522],[-97.1092,20.3786,155.3732],[-97.1078,20.3817,93.5758],[-97.1048,20.3815,90.1689],[-97.1062,20.3846,113.6203],[-97.1047,20.3898,109.6952],[-97.1061,20.3905,95.9733],[-97.1065,20.3949,83.0704],[-97.1037,20.3973,74.8614],[-97.1014,20.3958,75.3415],[-97.0961,20.3963,72.0127],[-97.0865,20.3872,72.3033],[-97.0837,20.3864,87.9986],[-97.0824,20.3923,51.5676],[-97.0797,20.3916,51.7403],[-97.0765,20.3932,43.7509],[-97.0802,20.3942,45.8349],[-97.0813,20.4013,60.9563],[-97.0737,20.4018,51.4099],[-97.0715,20.4047,38.7091],[-97.0738,20.4082,25.9139],[-97.0725,20.4088,25.0606],[-97.0696,20.407,33.6233],[-97.066,20.4078,15.6813],[-97.0633,20.4061,18.4724],[-97.0579,20.4071,15.9157],[-97.0565,20.406,9.9896],[-97.0505,20.407,9.6379],[-97.0477,20.4091,9.1896],[-97.0382,20.4087,5.3422],[-97.0373,20.4099,9.842],[-97.0387,20.4114,4.958],[-97.0361,20.4126,5.3018],[-97.0375,20.4169,4.1067],[-97.0313,20.4169,3.8668],[-97.0315,20.4187,3.7685],[-97.0352,20.4205,4.7502],[-97.034,20.4245,2.5327],[-97.0266,20.4233,2.9682],[-97.0276,20.4257,3.1456],[-97.0339,20.4293,2.6195],[-97.0346,20.4314,2.3637],[-97.0325,20.4331,2.0418],[-97.0288,20.433,2.7439],[-97.0276,20.4378,2.2807],[-97.0239,20.4374,2.1071],[-97.0225,20.441,1.8841],[-97.023,20.4435,1.3811],[-97.0305,20.4498,1.0979],[-97.0285,20.4559,0.9095],[-97.0292,20.4599,0.2214],[-97.0165,20.4638,0.3005],[-97.0204,20.4676,1.8446],[-97.0149,20.4702,0.1913],[-97.0175,20.4711,0.087],[-97.0165,20.4747,0.292],[-97.031,20.4735,2.0641],[-97.0444,20.4693,0.502],[-97.053,20.4693,0.5872],[-97.0623,20.4744,4.3773],[-97.0629,20.4787,0.0],[-97.0678,20.4811,2.3625],[-97.0739,20.4784,3.6244],[-97.0778,20.474,4.9907],[-97.079,20.4746,4.9907],[-97.0731,20.4796,4.8069],[-97.077,20.4823,5.547],[-97.0814,20.4828,2.5077],[-97.0707,20.4895,2.2377],[-97.0657,20.4899,2.8333],[-97.0639,20.4933,0.9412],[-97.1042,20.5307,3.8102],[-97.1107,20.5274,1.1265],[-97.1136,20.521,2.378],[-97.121,20.5224,7.2795],[-97.1232,20.5257,9.027],[-97.1268,20.5254,12.3998],[-97.1275,20.5215,17.3238],[-97.1333,20.515,19.7892],[-97.1343,20.5116,21.6262],[-97.1402,20.5096,41.2102],[-97.1472,20.5096,47.5919],[-97.1513,20.507,61.16],[-97.1531,20.4956,64.1798],[-97.1487,20.4971,59.3342],[-97.1456,20.4965,46.2171],[-97.1506,20.4832,85.3139],[-97.1523,20.4834,107.6546],[-97.1526,20.4813,93.5931],[-97.1595,20.4799,127.3589],[-97.1599,20.4679,82.8637],[-97.1584,20.4651,58.7841],[-97.1648,20.4592,81.3602],[-97.1745,20.4625,132.2271],[-97.1817,20.4603,123.6042],[-97.177,20.4553,99.862],[-97.1763,20.4466,5.9025],[-97.1795,20.4487,6.8559],[-97.185,20.4474,7.8787],[-97.1885,20.4489,6.818],[-97.1916,20.4468,15.3336],[-97.1905,20.4347,13.4535],[-97.1831,20.434,13.4837],[-97.1853,20.4225,13.0711],[-97.1836,20.4202,28.5873],[-97.1865,20.4147,34.2414],[-97.1846,20.4121,30.9666],[-97.1819,20.4118,28.1836],[-97.1814,20.4147,27.0263],[-97.1786,20.4108,29.227],[-97.1773,20.4031,27.5782],[-97.1732,20.3965,34.1658],[-97.1674,20.3983,26.137],[-97.1668,20.3956,27.3123],[-97.1631,20.3974,22.5614],[-97.1644,20.3886,42.0291],[-97.1542,20.3882,22.8493],[-97.1502,20.3861,26.3723],[-97.1443,20.3765,52.1198],[-97.1417,20.3761,45.2988]]]]}}