{"type": "Feature","bbox": [-96.2304,16.8568,-96.09,16.9372],"geometry": {"type": "MultiPolygon","coordinates": [[[[-96.09,16.8983,2507.6753],[-96.0947,16.9022,2457.6062],[-96.0995,16.903,2433.5005],[-96.1044,16.9082,2348.3855],[-96.1117,16.9076,2113.1016],[-96.1179,16.9151,1925.762],[-96.1247,16.9192,1882.2465],[-96.1405,16.9206,1848.5559],[-96.1535,16.9319,1526.7812],[-96.1565,16.9372,1813.049],[-96.1659,16.9244,1372.5262],[-96.1795,16.9222,1295.1661],[-96.1916,16.9157,1346.2057],[-96.1984,16.9087,1445.5122],[-96.2039,16.8952,1602.1747],[-96.2054,16.8943,1568.4644],[-96.2127,16.8996,1514.4924],[-96.2178,16.8975,1490.8333],[-96.2304,16.8778,1185.2111],[-96.2256,16.8766,1202.3003],[-96.224,16.8743,1170.9154],[-96.2162,16.8737,1165.3568],[-96.2089,16.8677,1151.3713],[-96.2045,16.868,1144.6139],[-96.2024,16.8649,1105.2507],[-96.1946,16.8651,1096.7457],[-96.1922,16.8627,1084.9502],[-96.1899,16.8638,1125.8711],[-96.1894,16.8615,1099.0507],[-96.1829,16.8578,1070.1532],[-96.1714,16.8568,1370.4788],[-96.1363,16.8648,1688.1217],[-96.09,16.8983,2507.6753]]]]}
,"properties": {"GID_2": "MEX.20.199_2","GID_0": "MEX","country": "México","GID_1": "MEX.20_1","province": "Oaxaca","NL_NAME_1": "NA","county": "SanJuandelRío","VARNAME_2": "NA","NL_NAME_2": "NA","TYPE_2": "Município","ENGTYPE_2": "Municipality","CC_2": "NA","HASC_2": "NA","name": "San_Juandel_Río.county","area_km2": 71.08715,"hist_schema_id": "Elevation0-9000","hist_area_km2": {"1050": 0.02029,"1075": 0.50726,"1100": 0.58841,"1125": 1.05506,"1150": 1.84632,"1175": 2.02889,"1200": 2.6578,"1225": 3.04319,"1250": 4.21992,"1275": 4.97043,"1300": 5.70078,"1325": 5.09212,"1350": 4.23992,"1375": 3.34731,"1400": 2.69817,"1425": 2.57646,"1450": 2.06928,"1475": 1.86644,"1500": 1.86644,"1525": 1.37955,"1550": 1.52152,"1575": 1.46067,"1600": 1.44039,"1625": 1.13608,"1650": 1.05494,"1675": 0.9738,"1700": 1.01436,"1725": 0.77091,"1750": 0.9535,"1775": 0.91291,"1800": 0.75061,"1825": 0.87234,"1850": 0.54774,"1875": 0.48687,"1900": 0.56802,"1925": 0.46659,"1950": 0.38544,"1975": 0.36516,"2000": 0.34487,"2025": 0.32458,"2050": 0.34487,"2075": 0.24344,"2100": 0.12172,"2125": 0.24344,"2150": 0.24344,"2175": 0.14201,"2200": 0.1623,"2225": 0.20287,"2250": 0.08114,"2275": 0.24344,"2300": 0.08115,"2325": 0.16229,"2350": 0.16229,"2375": 0.14201,"2400": 0.08115,"2425": 0.04057,"2450": 0.12172,"2475": 0.06086,"2500": 0.06086,"2525": 0.02029}}}