{"type":"Feature","properties":{"GID_2":"MEX.12.53_2","GID_0":"MEX","country":"México","GID_1":"MEX.12_1","province":"Guerrero","NL_NAME_1":"NA","county":"Ometepec","VARNAME_2":"NA","NL_NAME_2":"NA","TYPE_2":"Município","ENGTYPE_2":"Municipality","CC_2":"NA","HASC_2":"NA","name":"Ometepec.county"},
"geometry":{"type": "MultiPolygon","coordinates": [[[[-98.4851,16.5894,17.0],[-98.4825,16.5932,17.5],[-98.4812,16.593,17.5],[-98.4769,16.5865,22.0541],[-98.4712,16.5825,23.7252],[-98.4689,16.5789,31.1967],[-98.4581,16.5751,22.2406],[-98.4536,16.5762,20.8674],[-98.452,16.5716,22.3578],[-98.4479,16.5677,22.418],[-98.4449,16.5671,23.1745],[-98.4405,16.5689,22.5],[-98.4365,16.5718,24.0048],[-98.4357,16.5774,24.892],[-98.4319,16.5769,25.4529],[-98.4369,16.5648,23.2984],[-98.3951,16.5468,56.654],[-98.3837,16.5452,82.3745],[-98.3834,16.5496,80.7125],[-98.3761,16.5523,90.3832],[-98.3714,16.552,57.3734],[-98.3403,16.5582,161.7916],[-98.33,16.5727,176.6708],[-98.3166,16.5699,79.2416],[-98.2917,16.5701,210.1285],[-98.2928,16.5578,66.3174],[-98.2694,16.5585,75.8759],[-98.2603,16.563,87.5347],[-98.2499,16.5635,119.9457],[-98.2415,16.5678,168.6173],[-98.241,16.5728,243.6069],[-98.2293,16.5809,277.5342],[-98.2073,16.5899,270.3522],[-98.2085,16.5846,201.0166],[-98.2041,16.5864,233.4479],[-98.2047,16.5911,242.975],[-98.1938,16.6215,302.1247],[-98.1967,16.6234,358.6551],[-98.2142,16.6188,391.9413],[-98.2158,16.625,387.1795],[-98.22,16.632,504.8102],[-98.2285,16.6395,717.8606],[-98.2315,16.6535,815.3713],[-98.2343,16.6564,849.8597],[-98.2325,16.6565,841.1586],[-98.2323,16.6584,831.2028],[-98.2331,16.6706,679.5436],[-98.2459,16.6707,745.6403],[-98.2463,16.6724,753.8369],[-98.2456,16.6777,765.9323],[-98.2435,16.68,756.2581],[-98.2434,16.6967,374.7544],[-98.238,16.7074,81.0318],[-98.2408,16.7104,116.119],[-98.2471,16.7117,87.0722],[-98.2514,16.7159,79.5947],[-98.246,16.7151,79.6197],[-98.2435,16.7175,80.8538],[-98.2404,16.7264,97.242],[-98.2342,16.7258,91.4053],[-98.2305,16.7289,106.3434],[-98.2324,16.7323,111.7869],[-98.2308,16.736,115.4092],[-98.2345,16.7379,124.9217],[-98.234,16.7406,123.6681],[-98.2366,16.7434,128.0445],[-98.239,16.7408,132.5906],[-98.2474,16.7464,142.8177],[-98.2562,16.7457,159.2233],[-98.2535,16.7487,182.0894],[-98.2521,16.7574,179.8146],[-98.2501,16.7583,166.6428],[-98.2507,16.763,179.4122],[-98.2474,16.771,187.1011],[-98.2546,16.7716,205.1768],[-98.2538,16.7765,229.2866],[-98.2581,16.78,200.0718],[-98.2604,16.7788,215.5868],[-98.2644,16.7807,233.1249],[-98.279,16.7804,289.9427],[-98.2796,16.777,392.0085],[-98.278,16.7751,383.5232],[-98.2833,16.7688,406.6978],[-98.2811,16.7649,383.0405],[-98.2823,16.7626,368.9949],[-98.2794,16.7599,322.93],[-98.2814,16.7595,333.683],[-98.2806,16.7567,304.8414],[-98.2779,16.7583,292.1928],[-98.2727,16.7572,268.3373],[-98.274,16.7555,265.8912],[-98.273,16.7515,274.72],[-98.2803,16.7491,300.5912],[-98.2845,16.7508,244.3064],[-98.2879,16.7471,219.7645],[-98.2908,16.747,238.6628],[-98.2995,16.7524,280.5233],[-98.3036,16.7525,296.5711],[-98.3184,16.7625,340.3419],[-98.3207,16.7699,410.999],[-98.3193,16.7715,443.5343],[-98.3322,16.7759,486.4996],[-98.3344,16.782,373.8547],[-98.3478,16.7772,291.9815],[-98.3581,16.778,520.8217],[-98.3809,16.7849,455.1488],[-98.4173,16.7999,747.9189],[-98.4169,16.7944,841.4928],[-98.4184,16.7923,871.5139],[-98.4343,16.7817,924.2347],[-98.4278,16.7722,789.3778],[-98.4259,16.7617,775.47],[-98.4375,16.7537,686.6442],[-98.4429,16.744,570.6117],[-98.4458,16.7447,508.8513],[-98.4468,16.7435,495.696],[-98.446,16.731,435.0273],[-98.4537,16.7317,420.1728],[-98.453,16.7256,406.399],[-98.4592,16.7252,382.1846],[-98.4539,16.7224,381.4428],[-98.4575,16.7156,354.0912],[-98.4516,16.712,347.5985],[-98.4471,16.7171,411.2837],[-98.4429,16.7134,364.6073],[-98.4547,16.7065,275.396],[-98.4577,16.6995,193.688],[-98.4567,16.6954,257.4873],[-98.4666,16.6815,308.6982],[-98.4832,16.6887,88.7564],[-98.4814,16.6851,87.3765],[-98.4859,16.683,53.092],[-98.4823,16.6753,62.997],[-98.4798,16.6767,51.8263],[-98.4782,16.676,62.0011],[-98.4806,16.6712,41.1717],[-98.4784,16.6634,132.0281],[-98.4842,16.6561,203.3078],[-98.5002,16.6458,22.5],[-98.498,16.6417,23.154],[-98.4974,16.6336,25.3046],[-98.4944,16.6279,21.5958],[-98.5018,16.6227,28.5087],[-98.5034,16.6178,29.4472],[-98.5026,16.6132,21.1455],[-98.4971,16.6105,21.1592],[-98.4961,16.6086,20.5927],[-98.4967,16.6039,21.9478],[-98.5006,16.6004,22.3514],[-98.5,16.5925,19.8071],[-98.4976,16.5903,71.2371],[-98.4912,16.592,28.2451],[-98.4886,16.5888,17.0],[-98.4851,16.5894,17.0]]]]}}