{"type": "Feature","bbox": [-96.1208,18.5553,-95.5099,19.1021],"geometry": {"type": "MultiPolygon","coordinates": [[[[-95.5507,18.6534,0.2614],[-95.5439,18.6536,1.109],[-95.5238,18.6583,1.2264],[-95.5119,18.6649,1.2087],[-95.5136,18.6745,1.3584],[-95.512,18.6742,1.6425],[-95.5106,18.682,0.6987],[-95.5136,18.6827,1.1707],[-95.5099,18.689,1.0589],[-95.5154,18.7009,16.8872],[-95.5181,18.6982,4.0988],[-95.5199,18.7042,43.6026],[-95.5217,18.7038,44.7241],[-95.5253,18.7148,6.2746],[-95.5887,18.7222,0.0],[-95.6461,18.7359,0.5947],[-95.6834,18.7499,2.575],[-95.7192,18.7676,0.9409],[-95.7339,18.7796,1.4645],[-95.7428,18.7905,0.0],[-95.7435,18.7859,0.913],[-95.7476,18.785,0.0],[-95.7514,18.7677,1.2526],[-95.748,18.763,0.0],[-95.7476,18.7593,4.6739],[-95.7492,18.7557,0.0],[-95.7437,18.7466,0.9441],[-95.7301,18.7407,0.772],[-95.7137,18.7393,7.8334],[-95.7042,18.7358,0.7714],[-95.6985,18.7363,1.1334],[-95.6904,18.7316,0.0],[-95.6884,18.7326,1.3876],[-95.6846,18.731,12.76],[-95.6827,18.7286,0.0],[-95.6544,18.7227,43.5086],[-95.6382,18.7118,1.5121],[-95.6268,18.7063,-0.5],[-95.6214,18.7015,0.734],[-95.6143,18.7,0.008],[-95.6123,18.6962,-0.2962],[-95.5962,18.6945,-0.0665],[-95.5904,18.687,0.0123],[-95.5832,18.681,-0.1564],[-95.5791,18.6736,0.4385],[-95.58,18.671,0.8897],[-95.5754,18.6662,1.1801],[-95.5705,18.6631,0.6409],[-95.5655,18.6653,0.7428],[-95.5621,18.6621,0.8725],[-95.5577,18.662,0.6298],[-95.5507,18.6534,0.2614]]],
[[[-95.7578,18.5553,1.0954],[-95.7544,18.5607,1.3336],[-95.7544,18.5659,3.3903],[-95.7516,18.5661,2.1986],[-95.7536,18.5684,3.4791],[-95.7508,18.5738,2.1567],[-95.7506,18.578,1.7041],[-95.7488,18.5797,2.3866],[-95.7512,18.5833,1.408],[-95.7491,18.5853,1.8765],[-95.7501,18.5878,0.9378],[-95.7483,18.5887,2.2255],[-95.7521,18.5971,0.7941],[-95.7505,18.6001,1.6524],[-95.7468,18.6011,1.5548],[-95.7453,18.6035,1.7803],[-95.7362,18.5996,2.8373],[-95.7203,18.6175,0.8168],[-95.7246,18.6221,1.3542],[-95.7241,18.6242,3.4959],[-95.7207,18.6247,0.8287],[-95.7206,18.6265,2.5849],[-95.7215,18.6334,2.7447],[-95.7252,18.6369,0.0],[-95.7249,18.6565,0.4878],[-95.7233,18.6591,4.8882],[-95.726,18.666,0.0519],[-95.7176,18.6696,1.3159],[-95.7149,18.6743,2.0667],[-95.7169,18.677,0.2808],[-95.716,18.6778,0.7002],[-95.696,18.6741,0.3722],[-95.6891,18.6761,0.9387],[-95.6787,18.6833,0.6374],[-95.671,18.6822,1.0126],[-95.6669,18.683,0.4234],[-95.6622,18.6872,-0.5],[-95.6562,18.6869,2.6346],[-95.6517,18.6934,-0.5],[-95.6469,18.6959,1.0171],[-95.6392,18.6956,2.7862],[-95.6376,18.7022,0.3726],[-95.639,18.7093,0.2642],[-95.6526,18.7169,0.4525],[-95.6742,18.7238,0.0],[-95.6916,18.7273,0.0],[-95.7144,18.7294,0.3022],[-95.7212,18.7295,0.0],[-95.7218,18.728,0.4551],[-95.7408,18.7355,0.9848],[-95.7509,18.7439,0.0],[-95.7643,18.7464,6.2113],[-95.7749,18.7554,1.2976],[-95.7806,18.7491,4.9435],[-95.7835,18.7506,11.1796],[-95.783,18.7523,1.6],[-95.7905,18.7535,5.2722],[-95.8039,18.7515,0.0],[-95.8109,18.747,5.3938],[-95.8125,18.7448,0.0],[-95.8133,18.7359,2.2339],[-95.8103,18.7336,0.4636],[-95.8083,18.7244,3.7193],[-95.8052,18.7234,4.3721],[-95.8116,18.7191,0.823],[-95.8446,18.7144,1.4703],[-95.8573,18.7146,0.9137],[-95.862,18.7161,1.5781],[-95.864,18.723,3.0267],[-95.8632,18.7342,2.7652],[-95.859,18.7402,4.1782],[-95.8495,18.7452,2.7129],[-95.8469,18.7429,0.0],[-95.8437,18.7436,5.8568],[-95.8366,18.7215,0.0],[-95.834,18.7211,0.0],[-95.8277,18.7239,0.0],[-95.8263,18.7279,0.0],[-95.8307,18.7299,0.0],[-95.8225,18.7322,0.0],[-95.8269,18.7341,4.1512],[-95.8216,18.7335,0.0],[-95.822,18.7381,10.0672],[-95.8187,18.7409,10.626],[-95.819,18.7494,1.6851],[-95.8207,18.7534,3.9655],[-95.8313,18.7648,1.4105],[-95.8503,18.7717,1.8127],[-95.8657,18.7824,3.7538],[-95.867,18.7874,0.9503],[-95.8657,18.7972,2.2047],[-95.8626,18.8003,0.0],[-95.8573,18.8014,1.0674],[-95.8544,18.8052,2.61],[-95.8557,18.8061,0.0],[-95.8574,18.8041,0.0],[-95.8706,18.8036,2.2955],[-95.8703,18.8025,2.2955],[-95.8761,18.8024,3.1985],[-95.8777,18.8008,2.0591],[-95.8789,18.8022,1.0022],[-95.8809,18.8117,1.9318],[-95.8791,18.8175,2.0458],[-95.8734,18.8208,9.9748],[-95.8631,18.822,3.8036],[-95.8682,18.8266,5.4862],[-95.8842,18.8326,1.063],[-95.8888,18.8297,0.0],[-95.8926,18.8308,0.0],[-95.8947,18.8285,3.1424],[-95.9082,18.8265,2.1757],[-95.9134,18.8285,1.4015],[-95.9303,18.8298,1.5496],[-95.9418,18.8342,2.3752],[-95.9507,18.8405,3.4236],[-95.9519,18.8511,5.7522],[-95.9489,18.8567,0.0],[-95.9455,18.858,4.7211],[-95.9435,18.8648,5.0528],[-95.9443,18.8677,4.499],[-95.9416,18.8704,3.8725],[-95.9319,18.8734,3.4975],[-95.9293,18.8701,1.3923],[-95.9276,18.8637,0.0],[-95.9251,18.8653,2.456],[-95.9268,18.8721,8.2049],[-95.9223,18.8762,3.0243],[-95.9224,18.8711,7.9811],[-95.9145,18.8608,0.0],[-95.9092,18.8601,0.0],[-95.9034,18.853,4.8405],[-95.8943,18.8367,1.8686],[-95.8931,18.8362,1.2225],[-95.8924,18.8389,3.8784],[-95.8901,18.8401,2.6921],[-95.8866,18.8345,1.6176],[-95.867,18.8272,2.2637],[-95.862,18.8231,4.9991],[-95.8614,18.82,0.0],[-95.8583,18.8179,3.4981],[-95.8536,18.8101,0.0],[-95.8471,18.8141,3.6884],[-95.8397,18.816,6.3],[-95.8352,18.8056,1.3052],[-95.8302,18.8075,2.3074],[-95.8194,18.8036,0.6777],[-95.8109,18.7885,0.0],[-95.8034,18.7916,6.4811],[-95.7984,18.7909,3.0359],[-95.7854,18.7788,2.4121],[-95.7674,18.7693,0.5763],[-95.7661,18.7711,10.6139],[-95.7666,18.7687,0.0],[-95.7654,18.7684,0.3554],[-95.7652,18.7704,3.056],[-95.7639,18.768,4.1061],[-95.7584,18.7651,0.0],[-95.7553,18.7678,0.0],[-95.7519,18.7843,0.0],[-95.7546,18.7893,1.2967],[-95.7522,18.7922,0.0],[-95.7781,18.7982,4.4255],[-95.8023,18.8067,16.8834],[-95.8623,18.8325,0.0],[-95.8849,18.8472,0.0],[-95.9041,18.8635,0.0],[-95.9056,18.8633,3.8469],[-95.9051,18.8645,0.3833],[-95.9282,18.8867,2.7835],[-95.9409,18.9054,0.0],[-95.9434,18.9139,10.219],[-95.9414,18.9215,9.8287],[-95.9419,18.9272,3.3236],[-95.9511,18.9404,11.2151],[-95.9596,18.9611,0.0],[-95.9652,18.996,0.0],[-95.9699,19.0487,0.0],[-95.9736,19.0575,0.1491],[-95.9826,19.0611,4.4819],[-95.9826,19.064,0.0],[-95.9926,19.0629,1.4342],[-96.0054,19.0575,0.0],[-96.0232,19.0556,0.5061],[-96.0366,19.057,5.3999],[-96.0537,19.0614,2.2451],[-96.0732,19.0708,3.2691],[-96.0863,19.0801,4.0881],[-96.0984,19.0949,0.2833],[-96.1003,19.0996,0.9958],[-96.0988,19.1021,0.0],[-96.1015,19.1004,0.9958],[-96.1017,19.0971,0.39],[-96.099,19.0944,0.2833],[-96.1021,19.0921,3.9587],[-96.1066,19.0919,3.3953],[-96.1057,19.0832,10.1612],[-96.1103,19.0863,0.396],[-96.1169,19.0842,7.3234],[-96.1148,19.0828,2.3751],[-96.1139,19.0726,0.9273],[-96.1171,19.0588,3.7662],[-96.1208,19.0614,2.2659],[-96.1174,19.0557,2.8957],[-96.1155,19.0575,2.0016],[-96.1098,19.058,0.8647],[-96.1065,19.0546,0.584],[-96.1044,19.0471,0.1793],[-96.1009,19.0459,0.1051],[-96.0968,19.0467,4.6084],[-96.0982,19.0438,3.3131],[-96.0956,19.0361,0.4025],[-96.1023,19.0342,2.1805],[-96.1008,19.0293,2.3328],[-96.1026,19.0267,3.3717],[-96.1096,19.0269,1.4482],[-96.1111,19.0105,12.9773],[-96.0921,18.9947,7.9216],[-96.0908,19.0019,4.7142],[-96.0902,18.9991,1.2305],[-96.0756,18.9976,0.6155],[-96.0749,18.9917,2.5027],[-96.0704,18.9866,1.1453],[-96.0692,18.9866,1.1453],[-96.0688,18.9891,0.0],[-96.0665,18.9873,3.2037],[-96.0661,18.989,0.0],[-96.0651,18.9876,3.2037],[-96.0532,18.9906,0.0],[-96.0502,18.9874,0.6073],[-96.0439,18.9866,2.9655],[-96.0432,18.9835,2.3215],[-96.037,18.976,0.952],[-96.0342,18.9661,3.2728],[-96.0317,18.9654,5.2349],[-96.031,18.9619,3.526],[-96.029,18.9602,1.6101],[-96.0266,18.9434,4.6184],[-96.0205,18.9393,3.15],[-96.0193,18.9344,3.2739],[-96.0284,18.9251,29.3347],[-96.0288,18.9235,35.2427],[-96.0271,18.9235,27.9307],[-96.0318,18.9126,33.6236],[-96.0329,18.9,21.357],[-96.0316,18.8975,22.359],[-96.0284,18.8943,17.192],[-96.0265,18.8967,17.7168],[-96.0274,18.8926,19.3642],[-96.0226,18.8926,17.9808],[-96.0226,18.8856,16.1429],[-96.0037,18.8858,23.2577],[-96.0035,18.8814,19.4906],[-96.0014,18.8814,28.364],[-96.001,18.8841,25.9494],[-95.9863,18.8851,11.6443],[-95.986,18.8751,17.9244],[-95.9845,18.8748,17.9244],[-95.9823,18.8673,16.0538],[-95.9817,18.8567,13.933],[-95.985,18.8365,5.7994],[-95.9825,18.8337,5.8091],[-95.9985,18.8268,4.7742],[-95.996,18.8023,3.1751],[-95.9866,18.8014,1.0484],[-95.9805,18.7986,1.0221],[-95.9764,18.7997,1.981],[-95.9759,18.8011,0.9437],[-95.9747,18.7979,0.9445],[-95.9767,18.7931,1.1002],[-95.9733,18.7894,0.6672],[-95.9705,18.7915,0.4849],[-95.9681,18.7899,0.5288],[-95.9659,18.7907,0.647],[-95.9646,18.7932,0.6396],[-95.9591,18.7921,0.5107],[-95.9568,18.7934,0.6604],[-95.9541,18.7923,0.594],[-95.9491,18.7953,0.8413],[-95.9372,18.7944,0.4893],[-95.9341,18.7919,0.3843],[-95.931,18.7916,0.4068],[-95.9304,18.7881,0.7919],[-95.926,18.7882,0.5171],[-95.9186,18.7839,0.3823],[-95.9167,18.7808,0.329],[-95.9102,18.7765,0.4379],[-95.9076,18.7714,0.5365],[-95.9089,18.7675,0.0],[-95.9072,18.7534,0.805],[-95.9041,18.7544,0.5489],[-95.8976,18.7509,0.5739],[-95.895,18.7525,0.7101],[-95.8931,18.7564,0.3993],[-95.8834,18.7606,0.4354],[-95.8793,18.7582,0.72],[-95.8801,18.7544,1.2071],[-95.8778,18.7473,0.2142],[-95.8758,18.7455,0.3121],[-95.8744,18.7462,0.1776],[-95.8742,18.7501,0.3449],[-95.8711,18.7525,0.3612],[-95.8687,18.7528,1.631],[-95.867,18.751,0.0],[-95.8677,18.7446,0.6329],[-95.8725,18.7362,2.4592],[-95.8732,18.731,0.4707],[-95.8717,18.7268,0.5747],[-95.8817,18.724,1.3422],[-95.8848,18.7169,0.9096],[-95.8851,18.7145,0.5462],[-95.8823,18.7116,0.4903],[-95.8836,18.704,0.6915],[-95.882,18.703,1.1637],[-95.8804,18.6949,0.0],[-95.8832,18.6894,0.2184],[-95.8839,18.6786,0.0],[-95.8824,18.6739,0.3617],[-95.8844,18.6731,0.3008],[-95.884,18.672,0.0],[-95.8784,18.6752,0.2791],[-95.8761,18.6739,0.8732],[-95.8838,18.6711,0.0],[-95.8827,18.6624,0.0617],[-95.8849,18.654,0.2465],[-95.8842,18.6517,0.4597],[-95.886,18.6488,0.0],[-95.8853,18.6469,0.2394],[-95.8875,18.6448,0.6288],[-95.8889,18.6345,0.0776],[-95.8916,18.6325,0.1317],[-95.8933,18.6273,0.2844],[-95.8975,18.6251,0.0],[-95.8927,18.6232,0.2716],[-95.8873,18.6235,0.0],[-95.8839,18.6281,0.6017],[-95.8869,18.6273,0.7265],[-95.8885,18.6285,1.3077],[-95.8881,18.63,1.1094],[-95.8854,18.6312,0.7645],[-95.8811,18.6285,0.0],[-95.8661,18.6441,0.411],[-95.8632,18.6435,0.3774],[-95.8548,18.6482,1.2958],[-95.8505,18.6458,0.7051],[-95.8491,18.6466,0.7051],[-95.8457,18.6521,0.0],[-95.8469,18.6604,0.4667],[-95.8423,18.6585,0.0],[-95.8408,18.6552,3.3129],[-95.8343,18.6541,2.4243],[-95.8305,18.6566,2.7106],[-95.8306,18.6581,0.7392],[-95.8248,18.6565,3.1215],[-95.8244,18.6537,2.1981],[-95.8112,18.6522,0.0],[-95.8034,18.6466,1.1781],[-95.8025,18.6396,0.0],[-95.8115,18.6162,1.6099],[-95.8082,18.6128,1.2338],[-95.8055,18.6153,2.0161],[-95.7984,18.6167,1.331],[-95.7923,18.6155,1.3873],[-95.7894,18.606,0.9701],[-95.7898,18.597,0.8737],[-95.783,18.5909,1.7624],[-95.7851,18.5818,1.789],[-95.7789,18.5774,0.6163],[-95.7757,18.5695,2.6426],[-95.7721,18.569,0.8316],[-95.766,18.5715,-0.1641],[-95.7647,18.5656,0.2473],[-95.7622,18.5645,0.5358],[-95.7578,18.5553,1.0954]]]]}
,"properties": {"GID_2": "MEX.30.12_2","GID_0": "MEX","country": "México","GID_1": "MEX.30_1","province": "Veracruz","NL_NAME_1": "NA","county": "Alvarado","VARNAME_2": "NA","NL_NAME_2": "NA","TYPE_2": "Município","ENGTYPE_2": "Municipality","CC_2": "NA","HASC_2": "NA","name": "Alvarado.county","area_km2": 727.5989,"hist_schema_id": "Elevation0-9000","hist_area_km2": {"0": 539.1904,"25": 151.5995,"50": 34.5605,"75": 1.7466,"100": 0.4015,"125": 0.1004}}}