{"type":"Feature","properties":{"GID_2":"MEX.21.79_2","GID_0":"MEX","country":"México","GID_1":"MEX.21_1","province":"Puebla","NL_NAME_1":"NA","county":"Hueytamalco","VARNAME_2":"NA","NL_NAME_2":"NA","TYPE_2":"Município","ENGTYPE_2":"Municipality","CC_2":"NA","HASC_2":"NA","name":"Hueytamalco.county"},
"geometry":{"type": "MultiPolygon","coordinates": [[[[-97.2868,20.1912,81.3629],[-97.3155,20.2006,113.6996],[-97.316,20.1964,154.8351],[-97.3171,20.1971,130.7738],[-97.3193,20.1927,142.8422],[-97.3203,20.1823,136.1563],[-97.3271,20.1569,156.1213],[-97.3304,20.1522,188.3223],[-97.333,20.1515,176.8854],[-97.3346,20.1534,211.2139],[-97.3378,20.1519,211.565],[-97.3395,20.1476,242.5323],[-97.3453,20.1472,322.0995],[-97.348,20.1437,291.7338],[-97.365,20.1489,354.5486],[-97.3695,20.1537,282.7682],[-97.3696,20.1512,292.7109],[-97.3753,20.1513,309.2861],[-97.3766,20.1471,228.7439],[-97.3804,20.146,213.5104],[-97.3824,20.1398,373.4265],[-97.3752,20.1322,375.8296],[-97.3775,20.1212,350.1288],[-97.3734,20.1168,359.573],[-97.3737,20.1148,394.9916],[-97.3716,20.1145,370.1349],[-97.372,20.1123,384.6056],[-97.3694,20.1073,388.9762],[-97.3713,20.1061,384.0445],[-97.3732,20.107,403.1751],[-97.3725,20.0953,390.1899],[-97.378,20.0955,376.5257],[-97.3747,20.0872,411.2056],[-97.3796,20.0811,291.1495],[-97.3765,20.0791,304.2269],[-97.3768,20.0737,352.3639],[-97.3728,20.0721,361.8654],[-97.3719,20.0701,418.0167],[-97.3741,20.0615,441.3781],[-97.3768,20.0577,466.3773],[-97.3718,20.0369,447.0578],[-97.3755,20.0364,391.5315],[-97.3752,20.0349,364.6357],[-97.3692,20.0316,513.9022],[-97.3684,20.0276,515.2328],[-97.3658,20.0272,512.7427],[-97.367,20.0242,520.0289],[-97.3661,20.0199,529.7039],[-97.3677,20.0201,530.3473],[-97.3664,20.0179,534.7306],[-97.368,20.0178,538.7914],[-97.3701,20.0076,503.5239],[-97.367,20.0005,587.5955],[-97.368,19.998,586.5161],[-97.3712,19.9962,612.4468],[-97.3715,19.9935,671.1202],[-97.3655,19.9902,651.5308],[-97.3581,19.9898,574.6334],[-97.3593,19.986,590.9959],[-97.3623,19.9849,608.4993],[-97.3618,19.9809,628.5663],[-97.3599,19.9798,602.4485],[-97.3614,19.9727,683.311],[-97.3533,19.9714,692.6155],[-97.3532,19.9741,685.243],[-97.3581,19.9781,633.6183],[-97.3474,19.9791,601.9978],[-97.3499,19.9744,693.2677],[-97.3458,19.9711,755.5526],[-97.3454,19.9649,816.9904],[-97.3388,19.9631,817.5378],[-97.3395,19.9601,859.3787],[-97.3357,19.9585,812.2817],[-97.3356,19.949,939.9812],[-97.339,19.9479,963.7325],[-97.3437,19.9393,1004.2805],[-97.3422,19.9369,1036.0911],[-97.3444,19.9349,1087.8542],[-97.3445,19.9246,1211.9316],[-97.3392,19.9315,1110.7084],[-97.335,19.9281,1128.4421],[-97.3327,19.9292,1111.8284],[-97.3315,19.9274,1068.4805],[-97.3379,19.9173,1179.9106],[-97.3413,19.9147,1227.6372],[-97.339,19.9123,1255.917],[-97.3396,19.9109,1254.0737],[-97.3414,19.9111,1242.8503],[-97.3436,19.9067,1377.1631],[-97.3471,19.9052,1391.2501],[-97.3465,19.8998,1432.2556],[-97.3551,19.8864,1623.8668],[-97.3539,19.884,1679.803],[-97.3511,19.8831,1764.8245],[-97.349,19.8769,1855.3733],[-97.3458,19.8778,1794.813],[-97.3459,19.8764,1869.7051],[-97.3405,19.8721,1751.8914],[-97.336,19.8705,1659.2382],[-97.3346,19.8735,1639.575],[-97.3283,19.87,1540.6022],[-97.3205,19.873,1458.5641],[-97.3198,19.8715,1483.9456],[-97.3222,19.868,1525.8259],[-97.311,19.8756,1448.6927],[-97.3019,19.8767,1307.7986],[-97.2999,19.8815,1244.0229],[-97.2906,19.8866,1104.9772],[-97.2904,19.8906,1048.5127],[-97.2953,19.8934,1224.25],[-97.2934,19.8968,1197.4814],[-97.2918,19.8967,1196.6047],[-97.2918,19.9003,1151.6295],[-97.2898,19.8994,1130.8956],[-97.2887,19.9038,1060.4794],[-97.2864,19.9016,1089.1824],[-97.2863,19.9052,1058.9006],[-97.2816,19.9071,1032.2041],[-97.281,19.9123,1027.2469],[-97.2769,19.9162,1024.9551],[-97.2746,19.9148,997.0486],[-97.273,19.9176,984.0361],[-97.2714,19.9153,990.1652],[-97.2701,19.9207,916.5186],[-97.2667,19.9204,960.525],[-97.2632,19.9225,863.2844],[-97.2558,19.9325,804.5905],[-97.2606,19.9352,889.5449],[-97.2598,19.9372,890.9194],[-97.2622,19.9386,933.5355],[-97.2636,19.9444,867.7714],[-97.2692,19.947,760.9196],[-97.2675,19.956,654.0633],[-97.2687,19.9592,625.5513],[-97.2634,19.9678,555.6083],[-97.2637,19.9705,511.6109],[-97.2616,19.9714,515.2136],[-97.2607,19.9773,507.7713],[-97.2528,19.9837,419.4733],[-97.245,19.9874,369.0161],[-97.24,19.9873,339.3616],[-97.2382,19.9887,343.8738],[-97.2347,19.9967,304.0743],[-97.2253,20.0021,289.5299],[-97.2234,20.0073,280.5434],[-97.2251,20.0095,272.4571],[-97.2072,20.0145,219.9688],[-97.2078,20.0187,218.7191],[-97.2036,20.0253,203.0162],[-97.2045,20.0299,195.653],[-97.2107,20.0412,197.9292],[-97.2141,20.04,188.5027],[-97.2325,20.0445,357.8589],[-97.239,20.0482,325.2079],[-97.2431,20.0529,307.183],[-97.2483,20.0537,318.1888],[-97.2486,20.0553,295.2372],[-97.2508,20.0558,287.909],[-97.2504,20.0571,309.4092],[-97.2551,20.0547,303.9861],[-97.2656,20.0585,349.204],[-97.265,20.0565,352.6079],[-97.2701,20.051,405.6475],[-97.2748,20.0385,427.0433],[-97.28,20.0357,445.2269],[-97.2819,20.0314,451.6326],[-97.29,20.0291,465.2061],[-97.2924,20.0212,491.1776],[-97.2947,20.0199,489.6216],[-97.2971,20.0137,493.0364],[-97.3036,20.0095,512.6433],[-97.3044,20.0163,491.8222],[-97.3073,20.0188,496.4073],[-97.3076,20.0222,478.5804],[-97.3096,20.0232,478.5804],[-97.3074,20.0249,479.0067],[-97.3071,20.0293,463.4142],[-97.3103,20.0348,414.2204],[-97.3018,20.0538,330.0711],[-97.3041,20.0549,344.5118],[-97.3059,20.0594,306.4745],[-97.3054,20.0684,313.5486],[-97.3033,20.0703,289.0003],[-97.3037,20.0728,305.4008],[-97.2962,20.076,268.557],[-97.2952,20.0794,273.1325],[-97.2904,20.0819,265.2511],[-97.2864,20.0833,249.1851],[-97.2773,20.0829,239.9909],[-97.2736,20.0866,232.519],[-97.2676,20.0871,230.3865],[-97.2635,20.0943,201.9478],[-97.2667,20.1047,204.3788],[-97.2745,20.1133,183.3658],[-97.2758,20.1184,158.704],[-97.2807,20.1208,160.818],[-97.2805,20.1229,170.0137],[-97.2874,20.1251,137.5106],[-97.2864,20.1277,141.9964],[-97.2877,20.132,143.1816],[-97.2841,20.1406,124.8914],[-97.2895,20.1462,119.1958],[-97.2867,20.1544,110.3213],[-97.2824,20.157,130.3602],[-97.2891,20.163,113.1857],[-97.2824,20.1746,108.3817],[-97.2852,20.1776,92.6284],[-97.2888,20.1775,87.3307],[-97.2896,20.1844,88.6762],[-97.2917,20.1865,87.3266],[-97.2896,20.1906,75.0804],[-97.2868,20.1912,81.3629]]]]}}