{"type":"Feature","properties":{"GID_2":"MEX.21.159_2","GID_0":"MEX","country":"México","GID_1":"MEX.21_1","province":"Puebla","NL_NAME_1":"NA","county":"Teopantlán","VARNAME_2":"NA","NL_NAME_2":"NA","TYPE_2":"Município","ENGTYPE_2":"Municipality","CC_2":"NA","HASC_2":"NA","name":"Teopantlán.county"},
"geometry":{"type": "MultiPolygon","coordinates": [[[[-98.2161,18.6094,1199.3103],[-98.2146,18.6103,1210.1447],[-98.2147,18.613,1251.3961],[-98.208,18.62,1337.4503],[-98.2021,18.6205,1271.4471],[-98.1962,18.6174,1234.1013],[-98.1923,18.6171,1215.3092],[-98.1904,18.6241,1270.4435],[-98.1932,18.6262,1259.1112],[-98.1885,18.6306,1242.8246],[-98.1882,18.6335,1230.9036],[-98.1854,18.6368,1224.4883],[-98.1781,18.6384,1206.8416],[-98.1778,18.6419,1212.2809],[-98.1732,18.6446,1208.4778],[-98.1759,18.654,1210.979],[-98.1685,18.6652,1223.95],[-98.1719,18.6676,1226.8383],[-98.1702,18.6727,1231.2863],[-98.1711,18.6704,1229.0328],[-98.1737,18.6703,1227.974],[-98.1742,18.6723,1241.002],[-98.1758,18.6715,1235.3975],[-98.1822,18.677,1290.8867],[-98.1887,18.679,1323.0955],[-98.1895,18.6749,1259.1179],[-98.1926,18.6727,1277.6793],[-98.1946,18.678,1271.39],[-98.1973,18.6798,1279.2737],[-98.199,18.6791,1275.0913],[-98.1988,18.6814,1281.1333],[-98.2006,18.6825,1292.5801],[-98.1992,18.6931,1349.8889],[-98.202,18.6995,1418.4648],[-98.2146,18.711,1525.4309],[-98.2196,18.7211,1611.2472],[-98.1899,18.7262,1329.6755],[-98.1905,18.7296,1334.0699],[-98.1954,18.733,1355.0985],[-98.2031,18.7348,1359.3542],[-98.206,18.7405,1371.5049],[-98.2101,18.7423,1380.306],[-98.2084,18.7447,1406.3348],[-98.2103,18.7475,1390.8588],[-98.2114,18.7466,1433.0049],[-98.2134,18.7469,1476.4438],[-98.2136,18.7489,1445.6091],[-98.2215,18.7488,1521.0688],[-98.2239,18.7467,1460.1763],[-98.2256,18.7504,1493.6707],[-98.2301,18.7513,1536.4414],[-98.2318,18.754,1514.0759],[-98.237,18.7512,1597.2112],[-98.2409,18.7538,1549.7872],[-98.2407,18.7554,1549.7872],[-98.2354,18.757,1538.9719],[-98.2356,18.7594,1571.0928],[-98.2336,18.7611,1566.4579],[-98.2296,18.7601,1607.1257],[-98.2229,18.7623,1527.5596],[-98.2194,18.7597,1466.2003],[-98.2178,18.7618,1488.9133],[-98.2197,18.7651,1488.6946],[-98.2187,18.7678,1511.0315],[-98.2154,18.7682,1522.6138],[-98.2162,18.77,1543.2061],[-98.2142,18.7731,1564.204],[-98.2028,18.7822,1640.9143],[-98.2028,18.788,1676.4409],[-98.2044,18.791,1700.655],[-98.2013,18.7925,1691.1276],[-98.2037,18.7935,1704.0797],[-98.2073,18.809,2114.0239],[-98.206,18.8116,2158.7593],[-98.2094,18.8158,2045.278],[-98.2064,18.8188,2023.0671],[-98.2074,18.8234,2014.0273],[-98.2092,18.8248,1993.1729],[-98.2095,18.83,1968.9305],[-98.2079,18.8355,1940.0388],[-98.2092,18.8389,1925.6954],[-98.2073,18.8417,1910.0757],[-98.2105,18.8401,1925.6954],[-98.216,18.8425,1933.6456],[-98.2253,18.8429,1964.3621],[-98.2339,18.845,1974.5809],[-98.2346,18.8466,1978.718],[-98.2374,18.8464,1978.8508],[-98.2383,18.8486,1983.9324],[-98.2441,18.8502,2023.9218],[-98.2585,18.8477,2015.718],[-98.2612,18.85,2025.5522],[-98.2646,18.8505,2040.5818],[-98.2654,18.8491,2055.3557],[-98.2695,18.8513,2051.8574],[-98.2802,18.8499,2094.8567],[-98.2852,18.8535,2202.4917],[-98.2868,18.8581,2293.321],[-98.2882,18.8543,2280.1526],[-98.2921,18.8521,2188.5249],[-98.3034,18.855,2028.7006],[-98.306,18.8539,1987.6963],[-98.3074,18.8604,2049.5049],[-98.3128,18.8589,1925.338],[-98.324,18.8603,1831.178],[-98.3287,18.8594,1809.199],[-98.3267,18.8566,1882.8118],[-98.3304,18.8529,1792.1097],[-98.3263,18.8507,1815.9353],[-98.3237,18.8498,1829.4841],[-98.3204,18.8523,1855.155],[-98.3098,18.8495,1909.2059],[-98.311,18.8467,1918.5314],[-98.3079,18.8439,1932.0504],[-98.3075,18.8406,1983.3608],[-98.3097,18.8402,1997.3948],[-98.3138,18.8429,1962.2667],[-98.3165,18.8419,1948.7495],[-98.3108,18.8382,2049.4768],[-98.3085,18.8346,2048.4163],[-98.3072,18.8261,1911.7578],[-98.302,18.8318,1942.3262],[-98.2999,18.8278,1969.3702],[-98.2933,18.8339,2048.7104],[-98.2795,18.8358,2015.8545],[-98.2712,18.8307,1942.1512],[-98.2693,18.8322,1950.2295],[-98.2654,18.8293,1944.5372],[-98.2571,18.8308,1965.7404],[-98.2558,18.8266,1943.3496],[-98.2535,18.826,1959.9561],[-98.2544,18.8239,1940.7238],[-98.2485,18.8157,1939.8019],[-98.2493,18.8142,1922.9382],[-98.251,18.8147,1949.8914],[-98.2503,18.812,1925.0742],[-98.2525,18.8071,1910.3909],[-98.2578,18.8067,1894.9912],[-98.2585,18.802,1881.0361],[-98.2621,18.7995,1869.9746],[-98.2617,18.7946,1892.0897],[-98.2681,18.797,1852.6951],[-98.2759,18.7973,1860.2343],[-98.2865,18.8038,1863.1709],[-98.2916,18.7965,1818.7524],[-98.2979,18.7978,1835.7642],[-98.3016,18.7952,1832.3252],[-98.3055,18.795,1809.5255],[-98.3053,18.7914,1835.7443],[-98.3033,18.7891,1843.092],[-98.3057,18.7862,1882.4688],[-98.3059,18.7831,1920.6864],[-98.2999,18.7705,2048.073],[-98.3122,18.759,2015.0623],[-98.318,18.7468,1909.8181],[-98.3135,18.7416,1659.9233],[-98.3177,18.7301,1577.5344],[-98.3107,18.7227,1703.8014],[-98.3136,18.721,1694.6527],[-98.3169,18.7119,1729.5942],[-98.3163,18.7093,1713.3511],[-98.3109,18.7052,1681.6222],[-98.3083,18.6967,1497.3009],[-98.3013,18.6939,1452.5808],[-98.2982,18.6885,1424.2198],[-98.3083,18.6836,1402.6244],[-98.316,18.6769,1388.3066],[-98.3161,18.6661,1369.4252],[-98.3114,18.6657,1386.3414],[-98.3085,18.6625,1458.1628],[-98.3094,18.661,1464.3542],[-98.3059,18.6563,1386.0146],[-98.3083,18.6514,1372.4062],[-98.3026,18.6519,1382.868],[-98.2993,18.6553,1396.1147],[-98.2923,18.6564,1428.7607],[-98.2834,18.6606,1487.1245],[-98.2812,18.6599,1526.012],[-98.2779,18.6525,1565.0903],[-98.2711,18.6503,1486.6437],[-98.2645,18.6429,1409.778],[-98.2569,18.6389,1382.769],[-98.2546,18.6384,1378.1093],[-98.2539,18.6419,1389.6063],[-98.2448,18.6424,1369.4845],[-98.2429,18.64,1340.9597],[-98.243,18.6345,1328.4852],[-98.2403,18.6284,1327.8303],[-98.2442,18.6262,1381.3553],[-98.239,18.619,1367.069],[-98.2382,18.6155,1362.1526],[-98.2352,18.6154,1310.1077],[-98.2299,18.6182,1314.0983],[-98.227,18.6169,1225.9255],[-98.224,18.6177,1221.3627],[-98.2161,18.6094,1199.3103]]]]}}