{"type":"Feature","properties":{"GID_2":"MEX.20.487_2","GID_0":"MEX","country":"México","GID_1":"MEX.20_1","province":"Oaxaca","NL_NAME_1":"NA","county":"SantiagoSuchilquitongo","VARNAME_2":"NA","NL_NAME_2":"NA","TYPE_2":"Município","ENGTYPE_2":"Municipality","CC_2":"NA","HASC_2":"NA","name":"Santiago_Suchilquitongo.county"},
"geometry":{"type": "MultiPolygon","coordinates": [[[[-96.833,17.2842,2054.3081],[-96.8343,17.2857,2096.5901],[-96.8529,17.2636,1818.2174],[-96.8503,17.2616,1796.856],[-96.8505,17.2552,1766.0505],[-96.8598,17.26,1728.2407],[-96.8621,17.257,1671.9421],[-96.8598,17.2537,1672.0479],[-96.8616,17.2555,1671.9421],[-96.8648,17.2607,1681.8268],[-96.8684,17.2603,1697.5457],[-96.8687,17.2625,1725.1393],[-96.8755,17.2676,1691.1353],[-96.8783,17.266,1673.6036],[-96.8822,17.267,1670.6654],[-96.8864,17.2659,1676.9778],[-96.8876,17.2676,1673.5958],[-96.9008,17.2624,1716.4845],[-96.903,17.2651,1717.8136],[-96.9192,17.2645,1853.771],[-96.9235,17.2608,1866.5695],[-96.943,17.2571,1995.6521],[-96.9494,17.2525,2056.8792],[-96.9563,17.2517,2140.9365],[-96.9656,17.2471,2256.7461],[-96.9685,17.2244,2456.4766],[-96.9754,17.2235,2423.2292],[-96.9953,17.2072,2343.0088],[-96.9839,17.1955,2433.5042],[-96.9836,17.178,2228.416],[-96.9791,17.1769,2236.1426],[-96.9353,17.2031,2047.2815],[-96.9239,17.2033,1942.587],[-96.9078,17.214,1847.7087],[-96.8768,17.2087,1837.1965],[-96.8738,17.2063,1815.3718],[-96.8643,17.2035,1730.1809],[-96.8641,17.2098,1722.4993],[-96.8505,17.214,1653.4856],[-96.8526,17.2174,1646.8669],[-96.8476,17.2174,1634.7694],[-96.8458,17.223,1635.8235],[-96.8481,17.2289,1636.465],[-96.8465,17.2288,1635.1123],[-96.8463,17.2307,1634.916],[-96.8447,17.2301,1635.1123],[-96.842,17.2385,1645.0819],[-96.8365,17.2393,1643.3971],[-96.8358,17.2434,1649.557],[-96.8311,17.2427,1652.2142],[-96.8273,17.2486,1668.5364],[-96.83,17.25,1667.9152],[-96.8328,17.2688,1885.5273],[-96.833,17.2842,2054.3081]]]]}}