{"type": "Feature","bbox": [-96.3784,16.1246,-96.2501,16.2269],"geometry": {"type": "MultiPolygon","coordinates": [[[[-96.3572,16.213,3138.1304],[-96.3569,16.2103,3114.229],[-96.3596,16.2056,3105.2231],[-96.3542,16.2002,3006.8542],[-96.3588,16.1952,2922.3049],[-96.362799999999993,16.1943,2928.8647],[-96.3733,16.1856,2851.7703],[-96.3784,16.1758,2794.2092],[-96.3772,16.168,2797.8264],[-96.3695,16.1707,2519.6602],[-96.3636,16.1679,2485.5898],[-96.3515,16.1678,2340.967],[-96.3485,16.1645,2322.1621],[-96.3461,16.1653,2312.1245],[-96.3348,16.1534,2235.0698],[-96.3286,16.1533,2216.0229],[-96.3232,16.1481,2124.8184],[-96.3184,16.1506,2255.5417],[-96.3196,16.1453,2114.105],[-96.3207,16.1446,2068.1479],[-96.322,16.1468,2071.022],[-96.3226,16.141,2183.0811],[-96.3138,16.1398,2042.1423],[-96.3101,16.1361,2074.7356],[-96.307,16.1363,1920.8442],[-96.304,16.1301,1993.3752],[-96.2984,16.1303,2062.6055],[-96.2941,16.1246,2063.5254],[-96.2744,16.1649,3222.658],[-96.2546,16.1869,3649.5491],[-96.2501,16.1867,3524.2478],[-96.2541,16.1929,3655.4485],[-96.2648,16.1963,3509.3616],[-96.2683,16.2137,2921.7832],[-96.2733,16.1982,3416.1843],[-96.2782,16.1976,3380.6982],[-96.2799,16.1998,3476.522],[-96.287,16.2011,3541.0127],[-96.2878,16.199,3424.7217],[-96.2934,16.1993,3323.7573],[-96.2973,16.197,3120.3699],[-96.308,16.1978,3033.281],[-96.3214,16.1932,2933.8391],[-96.3372,16.1959,2921.4233],[-96.3426,16.1996,2931.0266],[-96.3467,16.1994,2924.0425],[-96.3469,16.2006,2964.2856],[-96.3379,16.2074,2837.4348],[-96.3351,16.2065,2787.4292],[-96.3399,16.2206,2879.3101],[-96.3441,16.2269,2907.1938],[-96.3572,16.213,3138.1304]]]]}
,"properties": {"GID_2": "MEX.20.514_2","GID_0": "MEX","country": "México","GID_1": "MEX.20_1","province": "Oaxaca","NL_NAME_1": "NA","county": "SantoDomingoOzolotepec","VARNAME_2": "NA","NL_NAME_2": "NA","TYPE_2": "Município","ENGTYPE_2": "Municipality","CC_2": "NA","HASC_2": "NA","name": "Santo_Domingo_Ozolotepec.county","area_km2": 64.30584,"hist_schema_id": "Elevation0-9000","hist_area_km2": {"1775": 0.02037,"1800": 0.0611,"1825": 0.02037,"1850": 0.0611,"1875": 0.04073,"1900": 0.10184,"1925": 0.02037,"1950": 0.1222,"1975": 0.14257,"2000": 0.14257,"2025": 0.14257,"2050": 0.20366,"2075": 0.16293,"2100": 0.1833,"2125": 0.20367,"2150": 0.32586,"2175": 0.34622,"2200": 0.24439,"2225": 0.42768,"2250": 0.36658,"2275": 0.54987,"2300": 0.63132,"2325": 0.73314,"2350": 0.79423,"2375": 1.0386,"2400": 0.83494,"2425": 0.91638,"2450": 1.22184,"2475": 1.18112,"2500": 1.09964,"2525": 1.30327,"2550": 1.42546,"2575": 1.09964,"2600": 1.42543,"2625": 1.28291,"2650": 1.28289,"2675": 1.46615,"2700": 1.64943,"2725": 1.75121,"2750": 1.40502,"2775": 1.89373,"2800": 1.83266,"2825": 2.30095,"2850": 2.87105,"2875": 3.01348,"2900": 2.68772,"2925": 2.07689,"2950": 1.99545,"2975": 1.60856,"3000": 1.38464,"3025": 1.42534,"3050": 1.14026,"3075": 0.95702,"3100": 1.16063,"3125": 1.03847,"3150": 0.93666,"3175": 0.85522,"3200": 0.89593,"3225": 0.73303,"3250": 0.69231,"3275": 0.73304,"3300": 0.71267,"3325": 0.69232,"3350": 0.5905,"3375": 0.48869,"3400": 0.46833,"3425": 0.40723,"3450": 0.42759,"3475": 0.24434,"3500": 0.24434,"3525": 0.22398,"3550": 0.30543,"3575": 0.14253,"3600": 0.10181,"3625": 0.24435,"3650": 0.20362,"3675": 0.12217,"3700": 0.02036}}}