{"type":"Feature","properties":{"GID_2":"MEX.30.16_2","GID_0":"MEX","country":"México","GID_1":"MEX.30_1","province":"Veracruz","NL_NAME_1":"NA","county":"Apazapan","VARNAME_2":"NA","NL_NAME_2":"NA","TYPE_2":"Município","ENGTYPE_2":"Municipality","CC_2":"NA","HASC_2":"NA","name":"Apazapan.county"},
"geometry":{"type": "MultiPolygon","coordinates": [[[[-96.5624,19.3419,182.5802],[-96.5825,19.3414,228.2978],[-96.584,19.3444,231.2137],[-96.5851,19.3427,213.8986],[-96.5877,19.344,226.9437],[-96.5864,19.3461,229.4727],[-96.5956,19.347,265.7242],[-96.5947,19.3479,241.098],[-96.5968,19.3496,262.5897],[-96.6037,19.3461,272.0273],[-96.6045,19.3438,272.4265],[-96.6067,19.3474,289.7863],[-96.6104,19.3463,292.5089],[-96.6108,19.3494,295.0656],[-96.612799999999993,19.3503,293.233],[-96.6143,19.3482,310.2856],[-96.62,19.3463,326.3741],[-96.6225,19.3477,338.3355],[-96.626,19.3466,366.153],[-96.6295,19.3477,370.916],[-96.6306,19.3509,382.5751],[-96.6319,19.3506,382.5751],[-96.6308,19.3482,379.1603],[-96.633,19.3471,381.0219],[-96.635,19.3492,387.9943],[-96.6365,19.3482,391.1144],[-96.6366,19.3486,391.1144],[-96.6358,19.351,385.942],[-96.636,19.3514,385.942],[-96.6406,19.3523,392.532],[-96.6398,19.3471,395.4177],[-96.6414,19.3452,371.3046],[-96.6426,19.3462,396.3246],[-96.6424,19.3448,371.3046],[-96.6471,19.3438,405.9559],[-96.6478,19.3449,405.9559],[-96.6473,19.3423,401.1341],[-96.6541,19.3378,421.9474],[-96.657,19.3395,432.7725],[-96.6589,19.351,429.6701],[-96.6621,19.351,448.0146],[-96.6636,19.3609,431.3981],[-96.6668,19.3612,435.9418],[-96.6656,19.3633,429.8093],[-96.6679,19.3646,431.9475],[-96.6794,19.3691,469.9556],[-96.6788,19.3727,463.571],[-96.6758,19.3749,441.4561],[-96.6755,19.3831,383.5548],[-96.678,19.3808,412.5199],[-96.6787,19.3776,410.5322],[-96.6808,19.3781,421.2514],[-96.6829,19.3747,441.9562],[-96.6844,19.3762,438.6213],[-96.6886,19.3752,458.9242],[-96.6956,19.3703,492.8778],[-96.697,19.3708,490.1895],[-96.6978,19.3665,489.7408],[-96.7023,19.3662,497.9272],[-96.7066,19.3612,502.0083],[-96.7069,19.3577,506.6468],[-96.7142,19.3581,521.9595],[-96.7154,19.3617,531.747],[-96.7193,19.3616,543.8109],[-96.7219,19.3668,573.3678],[-96.729,19.3667,579.4323],[-96.7371,19.3724,617.1319],[-96.7385,19.3705,582.1268],[-96.7363,19.3679,517.7163],[-96.7368,19.3634,427.3031],[-96.7397,19.363,408.899],[-96.7375,19.3618,393.838],[-96.7328,19.3515,355.3502],[-96.7342,19.3467,354.8375],[-96.7302,19.3414,345.0424],[-96.7307,19.3352,324.8055],[-96.7289,19.3344,342.7629],[-96.729,19.3313,315.6191],[-96.7255,19.3252,295.6316],[-96.7218,19.324,296.4344],[-96.7188,19.3156,287.6667],[-96.7052,19.3108,275.0839],[-96.6986,19.316,280.3223],[-96.6959,19.3125,304.6037],[-96.6956,19.3082,264.3693],[-96.6914,19.3048,270.382],[-96.6899,19.305,297.7899],[-96.6889,19.3088,272.6395],[-96.6866,19.3094,257.8129],[-96.6843,19.3061,269.6314],[-96.676,19.3037,266.7097],[-96.6707,19.3058,236.9766],[-96.6649,19.3145,241.5893],[-96.6582,19.3111,240.0401],[-96.6574,19.3158,232.0482],[-96.6509,19.3172,226.7062],[-96.6453,19.3163,220.5665],[-96.6382,19.3209,214.8076],[-96.6302,19.3199,206.8004],[-96.6282,19.3209,207.1779],[-96.6273,19.3256,219.6716],[-96.622,19.3281,200.8951],[-96.6173,19.3344,190.9369],[-96.6117,19.3366,187.5024],[-96.608,19.3363,187.6253],[-96.6025,19.3329,178.1445],[-96.602,19.3262,205.605],[-96.5991,19.3221,172.8984],[-96.5911,19.3198,171.853],[-96.5902,19.3233,167.4547],[-96.5867,19.3265,163.2843],[-96.5764,19.3255,157.0292],[-96.5712,19.336,151.112],[-96.5604,19.3394,144.2115],[-96.5624,19.3419,182.5802]]]]}}