{"type": "Feature","bbox": [-98.6407,19.0208,-98.4522,19.1538],"geometry": {"type": "MultiPolygon","coordinates": [[[[-98.6393,19.0774,3722.925],[-98.6302,19.0678,3916.0767],[-98.6276,19.0694,3881.5273],[-98.6235,19.0664,3742.4277],[-98.6312,19.059,3869.9932],[-98.6275,19.0544,3932.2007],[-98.627,19.0498,4033.5125],[-98.6298,19.0436,4218.6426],[-98.6199,19.0351,4623.7041],[-98.6275,19.0224,5378.5107],[-98.6104,19.028,4575.6899],[-98.6025,19.0283,4153.4932],[-98.5842,19.0253,3498.9202],[-98.5765,19.0208,3242.3896],[-98.5749,19.0209,3217.0264],[-98.5748,19.0264,3346.5874],[-98.5806,19.0336,3459.073],[-98.5819,19.0388,3545.8584],[-98.5605,19.0341,2976.9858],[-98.5538,19.0314,2894.5303],[-98.5508,19.0282,2862.1221],[-98.5376,19.0252,2711.7769],[-98.5339,19.0227,2661.8525],[-98.5308,19.0226,2652.2363],[-98.5204,19.027,2602.6411],[-98.5124,19.0258,2547.1282],[-98.5003,19.0267,2485.5669],[-98.4985,19.0346,2494.0444],[-98.497,19.0343,2494.0444],[-98.4949,19.0402,2514.8643],[-98.4916,19.0428,2501.7241],[-98.4911,19.0456,2524.2886],[-98.4928,19.0481,2529.686],[-98.4899,19.0483,2509.9253],[-98.489,19.0527,2513.9771],[-98.4846,19.0565,2489.8848],[-98.4855,19.0656,2428.8284],[-98.4769,19.0632,2399.5864],[-98.4795,19.0696,2421.4028],[-98.478,19.0717,2428.5281],[-98.4802,19.0755,2441.6799],[-98.4608,19.0822,2435.3323],[-98.4542,19.0793,2374.3235],[-98.4522,19.0817,2348.8501],[-98.4632,19.0869,2395.1431],[-98.4681,19.0873,2414.1973],[-98.4706,19.0851,2441.4817],[-98.4759,19.0862,2446.2373],[-98.4875,19.0941,2513.9783],[-98.4941,19.0918,2507.2031],[-98.5035,19.095,2596.7759],[-98.5034,19.0923,2599.6885],[-98.5086,19.0947,2624.2263],[-98.5095,19.0934,2625.5378],[-98.5068,19.0912,2601.3921],[-98.5098,19.0914,2587.7778],[-98.5204,19.1006,2682.2236],[-98.5345,19.1056,2713.8721],[-98.5405,19.1129,2731.1616],[-98.5502,19.1152,2815.3916],[-98.5628,19.1281,2925.5146],[-98.5763,19.1314,3116.1567],[-98.5722,19.137,3091.0044],[-98.5743,19.1413,3097.415],[-98.5799,19.1464,3222.0759],[-98.5847,19.1451,3349.3872],[-98.588,19.1466,3335.8955],[-98.5912,19.1433,3575.4929],[-98.5933,19.1447,3594.7349],[-98.6034,19.1403,3777.8955],[-98.6046,19.1432,3637.2349],[-98.6098,19.1438,3679.0129],[-98.6159,19.1486,3861.282],[-98.6305,19.1514,4345.3174],[-98.6344,19.1538,4527.8662],[-98.6362,19.1536,4599.7603],[-98.6353,19.147,4549.0737],[-98.6389,19.1506,4519.1538],[-98.6407,19.1255,3857.918],[-98.6396,19.1232,3790.7529],[-98.627,19.1248,3929.7573],[-98.6255,19.1196,3811.4399],[-98.6263,19.1172,3771.5823],[-98.6288,19.1163,3679.8394],[-98.6308,19.1024,3677.9285],[-98.6326,19.1006,3666.8179],[-98.6325,19.0987,3643.5117],[-98.6261,19.0922,3550.3884],[-98.6259,19.0894,3574.104],[-98.6311,19.088,3615.0586],[-98.6393,19.0774,3722.925]]]]}
,"properties": {"GID_2": "MEX.21.139_2","GID_0": "MEX","country": "México","GID_1": "MEX.21_1","province": "Puebla","NL_NAME_1": "NA","county": "SanNicolásdelosRanchos","VARNAME_2": "NA","NL_NAME_2": "NA","TYPE_2": "Município","ENGTYPE_2": "Municipality","CC_2": "NA","HASC_2": "NA","name": "San_Nicolásdelos_Ranchos.county","area_km2": 162.5641,"hist_schema_id": "Elevation0-9000","hist_area_km2": {"2325": 0.02,"2350": 0.02,"2375": 0.1403,"2400": 0.2805,"2425": 1.4628,"2450": 2.7852,"2475": 2.3845,"2500": 2.6451,"2525": 3.4268,"2550": 3.7073,"2575": 3.567,"2600": 3.2063,"2625": 2.5451,"2650": 2.5851,"2675": 3.7474,"2700": 3.627,"2725": 3.8675,"2750": 3.6671,"2775": 4.0878,"2800": 2.9657,"2825": 3.2262,"2850": 3.9876,"2875": 4.0477,"2900": 2.4046,"2925": 2.2644,"2950": 2.064,"2975": 2.3044,"3000": 2.4245,"3025": 2.2241,"3050": 2.745,"3075": 2.9454,"3100": 3.0855,"3125": 2.8651,"3150": 2.9654,"3175": 2.3442,"3200": 2.1839,"3225": 1.9636,"3250": 2.0036,"3275": 1.5628,"3300": 1.7031,"3325": 1.8433,"3350": 1.6229,"3375": 1.4426,"3400": 1.5028,"3425": 1.5829,"3450": 1.4627,"3475": 1.9436,"3500": 2.0838,"3525": 2.3442,"3550": 2.6047,"3575": 2.9253,"3600": 2.3442,"3625": 2.0437,"3650": 2.5646,"3675": 1.8834,"3700": 1.9436,"3725": 1.7832,"3750": 2.0037,"3775": 1.7432,"3800": 1.8834,"3825": 1.7431,"3850": 1.8433,"3875": 1.3625,"3900": 0.9818,"3925": 1.4226,"3950": 0.9617,"3975": 0.8816,"4000": 0.7614,"4025": 0.7013,"4050": 0.7013,"4075": 0.6212,"4100": 0.7214,"4125": 0.6812,"4150": 0.6612,"4175": 0.4208,"4200": 0.6011,"4225": 0.4809,"4250": 0.4809,"4275": 0.4007,"4300": 0.3607,"4325": 0.541,"4350": 0.2204,"4375": 0.3406,"4400": 0.3005,"4425": 0.2204,"4450": 0.2805,"4475": 0.2805,"4500": 0.2204,"4525": 0.1202,"4550": 0.1803,"4575": 0.1803,"4600": 0.1202,"4625": 0.0801,"4650": 0.0601,"4675": 0.0802,"4700": 0.0802,"4725": 0.0401,"4750": 0.0401,"4775": 0.0401,"4800": 0.1203,"4825": 0.02,"4850": 0.0401,"4875": 0.02,"4900": 0.0401,"4925": 0.02,"4950": 0.0601,"4975": 0.02,"5000": 0.0601,"5050": 0.0401,"5075": 0.0401,"5100": 0.02,"5125": 0.0601,"5150": 0.0401,"5175": 0.0802,"5200": 0.0401,"5250": 0.02}}}