{"type": "Feature","bbox": [-97.8675,18.0688,-97.7261,18.2162],"geometry": {"type": "MultiPolygon","coordinates": [[[[-97.7661,18.1336,1663.5474],[-97.7681,18.1382,1654.655],[-97.7456,18.1496,1637.7122],[-97.7396,18.1552,1674.0939],[-97.7319,18.167,1751.7585],[-97.7267,18.1688,1619.3518],[-97.7279,18.1694,1608.895],[-97.7261,18.1716,1594.1809],[-97.7289,18.1733,1586.1113],[-97.7301,18.17,1635.623],[-97.7373,18.1764,1573.6515],[-97.7417,18.1746,1570.7218],[-97.7408,18.1771,1577.9124],[-97.7447,18.1789,1562.4777],[-97.7426,18.1808,1550.7513],[-97.744,18.1823,1554.1199],[-97.7487,18.1817,1563.2493],[-97.7504,18.184,1591.719],[-97.7492,18.1859,1538.5701],[-97.7519,18.1877,1540.6307],[-97.7464,18.2078,1916.1016],[-97.7561,18.2082,1899.4077],[-97.7709,18.2162,1716.1592],[-97.7724,18.1892,1625.678],[-97.7861,18.186,1639.7142],[-97.7877,18.1731,1522.6274],[-97.8054,18.1703,1541.9651],[-97.8209,18.1717,1432.2844],[-97.8246,18.1693,1424.5823],[-97.8254,18.1705,1447.3783],[-97.8296,18.1698,1422.8605],[-97.8306,18.1713,1423.0803],[-97.8331,18.1685,1415.1125],[-97.8347,18.1689,1416.6187],[-97.8346,18.167,1421.9437],[-97.8392,18.1713,1403.515],[-97.8445,18.1697,1403.3994],[-97.8442,18.171,1431.7456],[-97.8479,18.1725,1401.2188],[-97.8536,18.1679,1506.634],[-97.8573,18.1556,1535.9749],[-97.8675,18.1446,1512.7919],[-97.8672,18.1149,1505.4508],[-97.862799999999993,18.1103,1470.7233],[-97.8606,18.1027,1528.8979],[-97.8398,18.1074,1587.7267],[-97.8358,18.1042,1630.6093],[-97.8266,18.1038,1663.3723],[-97.8263,18.0984,1643.2268],[-97.8215,18.0912,1641.8645],[-97.8285,18.0863,1646.3918],[-97.828,18.0853,1617.6688],[-97.8241,18.0818,1512.0233],[-97.817,18.083,1525.075],[-97.8129,18.0789,1538.098],[-97.8112,18.0799,1541.056],[-97.8108,18.078,1556.5881],[-97.809,18.0781,1550.865],[-97.8073,18.0715,1608.728],[-97.8013,18.0688,1617.4933],[-97.797,18.0706,1597.0553],[-97.7964,18.0729,1591.4751],[-97.7941,18.0692,1600.6588],[-97.7836,18.0702,1659.2606],[-97.7792,18.0751,1651.8435],[-97.7731,18.0748,1677.3303],[-97.7735,18.0765,1682.929],[-97.7709,18.0785,1703.8757],[-97.7687,18.097,1770.5759],[-97.7777,18.1054,1740.2854],[-97.7886,18.1242,1664.1599],[-97.7774,18.1336,1787.7371],[-97.7661,18.1336,1663.5474]]]]}
,"properties": {"GID_2": "MEX.20.26_2","GID_0": "MEX","country": "México","GID_1": "MEX.20_1","province": "Oaxaca","NL_NAME_1": "NA","county": "Cosoltepec","VARNAME_2": "NA","NL_NAME_2": "NA","TYPE_2": "Município","ENGTYPE_2": "Municipality","CC_2": "NA","HASC_2": "NA","name": "Cosoltepec.county","area_km2": 112.48987,"hist_schema_id": "Elevation0-9000","hist_area_km2": {"1400": 0.32232,"1425": 0.78567,"1450": 0.78568,"1475": 2.7602,"1500": 4.69442,"1525": 6.26603,"1550": 8.52278,"1575": 10.25565,"1600": 12.311,"1625": 13.53977,"1650": 12.49228,"1675": 9.53067,"1700": 8.16048,"1725": 5.84323,"1750": 4.71492,"1775": 3.70746,"1800": 3.26413,"1825": 2.15599,"1850": 1.00734,"1875": 0.46332,"1900": 0.40289,"1925": 0.40291,"1950": 0.08059,"1975": 0.02015}}}