{"type":"Feature","properties":{"GID_2":"MEX.30.78_2","GID_0":"MEX","country":"México","GID_1":"MEX.30_1","province":"Veracruz","NL_NAME_1":"NA","county":"Isla","VARNAME_2":"NA","NL_NAME_2":"NA","TYPE_2":"Município","ENGTYPE_2":"Municipality","CC_2":"NA","HASC_2":"NA","name":"Isla.county"},
"geometry":{"type": "MultiPolygon","coordinates": [[[[-95.3817,18.2264,11.5175],[-95.3829,18.2272,11.8757],[-95.3841,18.2252,11.5795],[-95.3905,18.2263,11.0939],[-95.392,18.2247,11.3984],[-95.3961,18.2291,10.2942],[-95.4035,18.2333,9.7299],[-95.4143,18.2294,9.9537],[-95.4167,18.2298,8.7359],[-95.4214,18.2342,8.6085],[-95.4218,18.239,8.1225],[-95.4247,18.2439,9.0191],[-95.429,18.2409,10.3517],[-95.4318,18.2362,10.694],[-95.4301,18.2228,8.1419],[-95.4392,18.2201,7.3783],[-95.4431,18.2205,8.0913],[-95.4457,18.2257,6.0],[-95.4443,18.2305,6.0],[-95.4448,18.2415,6.8971],[-95.4412,18.2444,7.4877],[-95.4343,18.2449,6.7904],[-95.4334,18.2467,7.3857],[-95.4365,18.2482,7.0881],[-95.4477,18.2455,5.5],[-95.4584,18.2518,7.5222],[-95.4587,18.2572,6.6793],[-95.4507,18.2608,6.4643],[-95.451,18.2624,6.2102],[-95.4571,18.2646,6.653],[-95.4638,18.261,5.3868],[-95.4636,18.2681,6.3586],[-95.471,18.2618,5.7329],[-95.4727,18.2557,5.0],[-95.4723,18.25,6.3992],[-95.4965,18.2444,5.8806],[-95.5024,18.2375,5.2365],[-95.5051,18.2454,8.5789],[-95.5137,18.2507,8.1754],[-95.5156,18.2539,12.5441],[-95.5146,18.2599,5.8995],[-95.5093,18.2673,7.7706],[-95.4973,18.2708,6.4866],[-95.4947,18.2734,5.9092],[-95.4979,18.2784,4.446],[-95.5053,18.2817,5.7903],[-95.5073,18.2843,6.4288],[-95.5069,18.2885,4.3318],[-95.5029,18.2924,4.7695],[-95.5074,18.3003,7.2772],[-95.5045,18.3074,4.8163],[-95.5065,18.3137,5.0021],[-95.5056,18.3179,3.6699],[-95.5158,18.3171,4.4528],[-95.5258,18.3239,4.5684],[-95.5335,18.3222,4.0602],[-95.5354,18.3283,3.8115],[-95.5421,18.3321,5.3887],[-95.5426,18.335,5.205],[-95.5408,18.3366,3.854],[-95.5441,18.3386,4.2545],[-95.5459,18.3502,3.2867],[-95.5465,18.3517,3.3402],[-95.5497,18.3521,2.8197],[-95.5488,18.3569,3.3425],[-95.5523,18.3641,4.2448],[-95.5652,18.3598,4.2846],[-95.5773,18.3632,4.8385],[-95.5856,18.3607,4.245],[-95.5941,18.3544,5.2135],[-95.5958,18.3492,4.9341],[-95.6047,18.3418,6.0715],[-95.6048,18.3402,5.1436],[-95.5981,18.3345,4.8758],[-95.5955,18.3352,5.0701],[-95.5919,18.3396,5.7344],[-95.5897,18.3393,5.0674],[-95.5844,18.3298,3.8828],[-95.5861,18.3288,4.8027],[-95.593,18.3306,5.3062],[-95.599,18.3291,5.3517],[-95.592,18.3245,5.6262],[-95.5972,18.3158,5.4827],[-95.5974,18.3108,6.3177],[-95.5929,18.3038,5.0408],[-95.5825,18.3026,6.0777],[-95.5794,18.2983,5.2368],[-95.5827,18.2942,6.0478],[-95.5902,18.2949,5.0805],[-95.5906,18.2909,6.5782],[-95.5872,18.2887,6.5517],[-95.5786,18.2909,4.5],[-95.5718,18.2892,7.0856],[-95.5625,18.2838,6.7421],[-95.5587,18.2739,6.3689],[-95.5624,18.2685,7.1175],[-95.5675,18.2675,5.1269],[-95.5713,18.2686,5.0],[-95.5728,18.2604,6.363],[-95.5802,18.2589,5.9677],[-95.5779,18.254,6.2777],[-95.5803,18.2476,6.2237],[-95.5795,18.2425,6.0882],[-95.5737,18.2448,6.4721],[-95.5682,18.2423,6.0978],[-95.5702,18.2347,5.8839],[-95.5755,18.2344,5.8036],[-95.5811,18.2429,6.0882],[-95.5853,18.2436,5.4164],[-95.5851,18.2399,5.3896],[-95.5902,18.2392,6.4902],[-95.5961,18.236,5.5118],[-95.5963,18.2338,5.6033],[-95.5917,18.2292,5.0],[-95.5922,18.228,6.4059],[-95.5997,18.2321,7.5466],[-95.6069,18.2308,7.3944],[-95.609,18.2217,6.8977],[-95.6068,18.2169,6.4332],[-95.6097,18.2136,6.3983],[-95.612799999999993,18.214,7.8605],[-95.6218,18.223,6.9496],[-95.6289,18.2228,7.9017],[-95.633,18.2196,6.807],[-95.6311,18.2102,7.7909],[-95.6335,18.2051,6.7117],[-95.64,18.2064,7.598],[-95.6457,18.2048,7.9797],[-95.6443,18.1996,8.3891],[-95.6468,18.1941,7.1225],[-95.6447,18.1876,8.3627],[-95.6464,18.1823,7.7909],[-95.6484,18.1829,7.5804],[-95.6517,18.19,8.3727],[-95.6553,18.1906,7.6226],[-95.658,18.1891,8.03],[-95.6573,18.1875,7.9691],[-95.6531,18.1867,8.0866],[-95.6539,18.1805,7.8242],[-95.6477,18.1778,7.5208],[-95.6464,18.1743,8.1489],[-95.6478,18.1717,10.0222],[-95.6587,18.1714,9.6131],[-95.6616,18.1681,9.3675],[-95.6591,18.1664,9.4183],[-95.6543,18.169,10.3643],[-95.6505,18.1689,10.6789],[-95.6482,18.1645,7.674],[-95.6511,18.1586,8.2304],[-95.6416,18.1562,8.8108],[-95.6388,18.153199999999998,8.9177],[-95.6489,18.1494,9.3776],[-95.6537,18.1438,13.65],[-95.6545,18.137,11.1876],[-95.6488,18.1299,9.7743],[-95.6509,18.123,9.9083],[-95.6563,18.1203,9.1074],[-95.6649,18.1257,12.4854],[-95.6673,18.1229,9.012],[-95.6622,18.1142,8.5],[-95.6648,18.1112,9.8161],[-95.6613,18.1031,9.4539],[-95.6619,18.0945,9.986],[-95.6389,18.0914,12.9395],[-95.639,18.0899,13.8202],[-95.6326,18.089,10.4306],[-95.6329,18.0874,11.3033],[-95.6254,18.0855,13.0926],[-95.6267,18.0845,12.9413],[-95.6266,18.0803,11.599],[-95.629,18.0776,10.6717],[-95.6299,18.0709,12.7121],[-95.6347,18.07,15.2424],[-95.635,18.0685,13.6509],[-95.6361,18.0698,15.2424],[-95.6369,18.0687,12.5827],[-95.6378,18.071,13.5488],[-95.6412,18.0706,13.1895],[-95.6416,18.068,13.0968],[-95.6456,18.0684,12.8371],[-95.6476,18.0556,13.8094],[-95.6491,18.0558,13.0147],[-95.6497,18.0517,16.0322],[-95.6442,18.0458,15.2705],[-95.6477,18.042,15.3292],[-95.6466,18.0349,16.0688],[-95.6486,18.0319,17.048],[-95.6463,18.0295,17.3895],[-95.6485,18.0251,16.1632],[-95.6491,18.0215,15.9384],[-95.6479,18.021,15.5824],[-95.6493,18.0207,15.9384],[-95.6513,18.0153,17.0682],[-95.6561,18.0131,16.285],[-95.6594,18.0089,17.0478],[-95.6561,18.0032,16.4315],[-95.6602,17.9923,17.6377],[-95.6653,17.9932,16.8263],[-95.6645,17.9953,16.9525],[-95.6691,17.9983,16.8476],[-95.6714,17.9925,16.318],[-95.6745,17.9952,17.4266],[-95.6745,17.9923,17.6031],[-95.6781,17.9928,16.5548],[-95.6777,17.9959,17.2861],[-95.6829,17.9962,16.1334],[-95.6838,17.9975,13.375],[-95.6854,17.9952,18.4396],[-95.6926,17.9923,18.3949],[-95.6998,17.9821,16.6492],[-95.6979,17.9795,18.934],[-95.7003,17.9746,17.7866],[-95.6998,17.9639,16.2816],[-95.6979,17.9587,16.9415],[-95.7001,17.956,16.0],[-95.7173,17.9535,19.5453],[-95.7159,17.9495,18.95],[-95.7127,17.9466,16.5],[-95.7206,17.9376,18.4545],[-95.7196,17.9337,22.1201],[-95.7251,17.9302,17.0],[-95.729,17.9213,17.5],[-95.7272,17.9192,25.0391],[-95.729,17.9157,26.9238],[-95.7261,17.9182,26.9241],[-95.7152,17.9178,29.7386],[-95.7096,17.9124,30.1833],[-95.7063,17.9129,31.4566],[-95.7009,17.9089,47.4975],[-95.7037,17.9027,42.9338],[-95.698,17.8967,59.795],[-95.7003,17.8908,48.1422],[-95.6968,17.8815,38.8688],[-95.6909,17.8853,58.292],[-95.687,17.8821,56.601],[-95.6847,17.8839,64.3938],[-95.6715,17.8851,132.2573],[-95.6662,17.8893,128.2917],[-95.6571,17.8922,107.2084],[-95.6547,17.9058,91.6933],[-95.6515,17.9097,67.7442],[-95.6435,17.9061,111.7657],[-95.6367,17.9005,114.2101],[-95.6341,17.9003,121.7347],[-95.6343,17.893,122.8541],[-95.6317,17.8915,123.6529],[-95.569,17.8837,68.2561],[-95.5657,17.8848,67.9124],[-95.5642,17.8834,64.909],[-95.5638,17.885,66.6461],[-95.5627,17.8833,64.909],[-95.5622,17.8859,63.2007],[-95.559,17.8866,62.808],[-95.5621,17.8914,67.3663],[-95.567,17.8928,76.1894],[-95.5658,17.9022,93.6029],[-95.5565,17.9013,80.2748],[-95.552,17.8993,58.0676],[-95.544,17.9019,58.2015],[-95.5402,17.9006,53.8006],[-95.5355,17.9037,52.8474],[-95.5347,17.9061,51.9331],[-95.5314,17.9058,56.93],[-95.5277,17.9004,55.0245],[-95.5236,17.9004,57.6877],[-95.5229,17.8984,59.565],[-95.5187,17.8987,66.4394],[-95.5158,17.9019,63.1472],[-95.511,17.8997,72.4452],[-95.508,17.9001,78.8606],[-95.5066,17.9021,82.9902],[-95.5042,17.9017,87.238],[-95.5043,17.9053,94.9567],[-95.4996,17.9044,103.9024],[-95.4998,17.908,117.2803],[-95.4906,17.9064,125.4914],[-95.4915,17.9101,113.4944],[-95.4777,17.907,92.3447],[-95.4793,17.9087,92.3814],[-95.4749,17.9134,87.2806],[-95.4769,17.9193,88.8925],[-95.4748,17.9225,80.6957],[-95.4701,17.9206,81.786],[-95.4703,17.9248,78.4017],[-95.4671,17.9288,83.0282],[-95.4652,17.9232,98.784],[-95.4635,17.9241,89.9579],[-95.4625,17.9222,95.7761],[-95.4591,17.9215,102.9389],[-95.4435,17.9406,98.3344],[-95.4467,17.9414,93.7371],[-95.4506,17.94,86.4965],[-95.4515,17.9492,111.7063],[-95.4429,17.9497,113.3941],[-95.4381,17.9547,115.644],[-95.4343,17.9533,107.0541],[-95.4336,17.9598,90.1059],[-95.4323,17.9583,108.633],[-95.431,17.9593,105.2587],[-95.4344,17.9604,90.1059],[-95.4348,17.9631,87.451],[-95.4361,17.9606,98.1137],[-95.4362,17.9637,86.9367],[-95.4381,17.9646,93.2315],[-95.4355,17.9649,84.7847],[-95.4394,17.9712,70.3462],[-95.4473,17.9698,71.0138],[-95.4428,17.9779,79.2937],[-95.4273,17.9886,117.9932],[-95.4274,17.9907,120.27],[-95.4345,17.9898,106.4594],[-95.4381,17.991,98.4586],[-95.4414,17.9933,92.2673],[-95.4423,17.9961,81.6652],[-95.4409,17.9988,86.4331],[-95.4382,17.9998,86.9551],[-95.439,18.0055,106.7929],[-95.4326,18.0099,106.0965],[-95.4354,18.0136,100.0756],[-95.4339,18.0157,110.539],[-95.4284,18.0175,131.4417],[-95.4307,18.0204,133.6177],[-95.447,18.0281,123.0064],[-95.4498,18.0339,120.7465],[-95.4527,18.0354,120.3443],[-95.4693,18.0587,85.9701],[-95.4986,18.0904,72.9525],[-95.5006,18.0938,70.95],[-95.5017,18.1035,60.8606],[-95.5053,18.1045,60.0628],[-95.5069,18.1077,55.1202],[-95.5137,18.1117,50.3655],[-95.5181,18.1177,40.3957],[-95.5185,18.1212,38.0262],[-95.5162,18.126,35.9618],[-95.5173,18.128,35.9515],[-95.5109,18.1429,37.3512],[-95.5118,18.1481,24.8625],[-95.506,18.1591,18.8533],[-95.5026,18.1629,16.6724],[-95.4944,18.167,15.6274],[-95.4945,18.1712,14.9901],[-95.4905,18.1741,15.2554],[-95.4879,18.1856,13.2008],[-95.4806,18.1913,16.2168],[-95.48,18.1933,14.7426],[-95.4591,18.1752,24.6064],[-95.459,18.1699,28.5419],[-95.4527,18.1656,28.7971],[-95.4492,18.1541,28.9366],[-95.4467,18.1559,30.3665],[-95.4387,18.155,32.0918],[-95.4391,18.1571,33.5894],[-95.4354,18.1577,33.9303],[-95.4352,18.1595,33.6531],[-95.4317,18.1591,34.893],[-95.4312,18.1637,36.3608],[-95.4231,18.1629,35.1596],[-95.423,18.1674,35.4586],[-95.417,18.1668,33.4831],[-95.4165,18.1714,31.0268],[-95.4045,18.1699,16.5192],[-95.4057,18.1749,13.648],[-95.3986,18.1741,16.394],[-95.3984,18.1788,10.9292],[-95.3887,18.1779,9.2317],[-95.3907,18.184,7.4719],[-95.3866,18.19,9.7384],[-95.3879,18.1924,8.495],[-95.3936,18.1902,8.7967],[-95.3986,18.1841,11.259],[-95.4028,18.1828,7.5128],[-95.4051,18.1867,8.2888],[-95.4027,18.1956,7.5276],[-95.4085,18.1935,11.6712],[-95.411,18.1949,8.0497],[-95.4124,18.1986,10.4407],[-95.4099,18.2034,7.8912],[-95.404,18.2075,14.8982],[-95.4067,18.2107,15.2452],[-95.406,18.2122,13.722],[-95.4021,18.2151,12.6293],[-95.394,18.2117,16.8296],[-95.3881,18.2135,12.9712],[-95.3889,18.2192,11.3436],[-95.3858,18.2153,10.257],[-95.3853,18.2177,10.494],[-95.3881,18.2224,11.2789],[-95.3841,18.2232,10.3821],[-95.3816,18.2203,10.8834],[-95.3802,18.2227,12.6919],[-95.3817,18.2264,11.5175]]]]}}