{"type": "Feature","bbox": [-99.647,19.215699999999998,-99.5128,19.2872],"geometry": {"type": "MultiPolygon","coordinates": [[[[-99.6082,19.2159,2639.019],[-99.6026,19.216,2626.1846],[-99.5982,19.2186,2618.5068],[-99.6007,19.2198,2620.4207],[-99.6014,19.2234,2623.0601],[-99.5901,19.2203,2608.0466],[-99.5135,19.2232,2569.8638],[-99.5128,19.2251,2569.4805],[-99.5133,19.2287,2569.5312],[-99.5199,19.239,2569.3872],[-99.5401,19.2378,2574.9746],[-99.5386,19.2488,2575.3594],[-99.5524,19.2483,2579.4907],[-99.556,19.2708,2581.7852],[-99.5681,19.2652,2587.8345],[-99.5681,19.2777,2586.6636],[-99.5632,19.2779,2585.4006],[-99.5638,19.286,2584.7925],[-99.606,19.2872,2609.2007],[-99.607,19.2756,2617.2551],[-99.6324,19.272,2648.0552],[-99.6327,19.2683,2649.7837],[-99.6364,19.2707,2655.6477],[-99.6367,19.2662,2658.9238],[-99.6345,19.2648,2657.6836],[-99.6455,19.2647,2675.5762],[-99.6435,19.2594,2675.3938],[-99.6357,19.2528,2665.5916],[-99.6305,19.2454,2661.5098],[-99.6347,19.2381,2699.9785],[-99.633,19.2381,2699.9785],[-99.633,19.2341,2715.3506],[-99.6351,19.234,2719.7803],[-99.6357,19.2301,2721.8728],[-99.6411,19.2303,2724.3442],[-99.6434,19.2288,2725.4988],[-99.6436,19.2262,2722.3215],[-99.6459,19.226,2724.281],[-99.647,19.2211,2732.946],[-99.6451,19.2212,2729.5093],[-99.6452,19.218,2737.363],[-99.6407,19.2182,2711.7095],[-99.6387,19.2161,2714.0469],[-99.6353,19.2163,2712.272],[-99.6342,19.218,2701.2537],[-99.6308,19.2168,2706.0007],[-99.6271,19.2201,2681.9558],[-99.6167,19.2194,2657.7993],[-99.6165,19.2172,2661.0613],[-99.6118,19.2175,2643.2891],[-99.6117,19.215699999999998,2642.7703],[-99.6082,19.2159,2639.019]]]]}
,"properties": {"GID_2": "MEX.15.57_2","GID_0": "MEX","country": "México","GID_1": "MEX.15_1","province": "México","NL_NAME_1": "NA","county": "Metepec","VARNAME_2": "NA","NL_NAME_2": "NA","TYPE_2": "Município","ENGTYPE_2": "Municipality","CC_2": "NA","HASC_2": "NA","name": "Metepec.county","area_km2": 67.23746,"hist_schema_id": "Elevation0-9000","hist_area_km2": {"2575": 19.15735,"2600": 20.93657,"2625": 12.73075,"2650": 9.16783,"2675": 2.62238,"2700": 1.76172,"2725": 0.86085}}}