{"type":"Feature","properties":{"GID_2":"MEX.22.7_2","GID_0":"MEX","country":"México","GID_1":"MEX.22_1","province":"Querétaro","NL_NAME_1":"NA","county":"EzequielMontes","VARNAME_2":"NA","NL_NAME_2":"NA","TYPE_2":"Município","ENGTYPE_2":"Municipality","CC_2":"NA","HASC_2":"NA","name":"Ezequiel_Montes.county"},
"geometry":{"type": "MultiPolygon","coordinates": [[[[-99.7353,20.5649,1726.5925],[-99.7404,20.5639,1769.0195],[-99.741,20.5667,1773.877],[-99.7463,20.5705,1777.2572],[-99.7612,20.573,1859.2712],[-99.7598,20.5794,1841.0317],[-99.7611,20.5858,1838.4695],[-99.7663,20.5928,1847.2798],[-99.7435,20.5979,1935.1902],[-99.7484,20.6017,1939.925],[-99.7645,20.6392,2094.418],[-99.7888,20.6386,2005.8514],[-99.7895,20.6501,2007.0649],[-99.7875,20.6631,2032.0842],[-99.7905,20.6597,2042.3055],[-99.8083,20.6573,2179.4392],[-99.8113,20.6598,2176.3298],[-99.8141,20.6667,2190.1472],[-99.8203,20.6633,2159.7056],[-99.8213,20.6649,2164.6516],[-99.8249,20.6649,2146.7617],[-99.8273,20.6681,2145.4949],[-99.8265,20.6692,2147.5061],[-99.8287,20.6701,2144.0227],[-99.8321,20.6653,2130.3953],[-99.8466,20.6527,2103.2119],[-99.8538,20.6543,2057.1643],[-99.8532,20.6681,2055.6816],[-99.8513,20.6738,2053.8765],[-99.8582,20.6767,2037.9216],[-99.8552,20.6776,2036.1427],[-99.8605,20.6808,2023.1298],[-99.861,20.6822,2027.324],[-99.8581,20.6821,2032.7871],[-99.8562,20.6921,2040.7675],[-99.8654,20.693,2006.9014],[-99.8614,20.6957,2017.4064],[-99.8611,20.7047,2024.2373],[-99.8678,20.7083,2017.8461],[-99.8625,20.7074,2019.5454],[-99.8526,20.7106,2037.446],[-99.843,20.7089,2051.0298],[-99.8496,20.7183,2049.4739],[-99.8671,20.7258,2251.7043],[-99.8657,20.742,2333.8376],[-99.8452,20.751,2154.1907],[-99.8437,20.7606,2097.8279],[-99.8521,20.7634,2120.8232],[-99.8611,20.7602,2164.3843],[-99.8626,20.7584,2185.0898],[-99.8666,20.7627,2223.5044],[-99.874,20.7641,2254.2795],[-99.8795,20.7634,2274.0444],[-99.8977,20.7531,2130.696],[-99.8978,20.7565,2134.7007],[-99.9002,20.7586,2164.1482],[-99.8942,20.7654,2213.3252],[-99.898,20.7672,2153.2478],[-99.8993,20.764,2181.8354],[-99.9141,20.7585,2057.5439],[-99.9294,20.7559,2013.9204],[-99.9511,20.755,2076.2769],[-99.9662,20.7574,2406.0532],[-99.9653,20.7548,2467.3789],[-99.9698,20.752,2407.762],[-99.968,20.7409,2568.5989],[-99.9684,20.7256,2199.1887],[-99.9634,20.7202,2061.3513],[-99.9505,20.7196,2053.2217],[-99.9545,20.7097,2016.3439],[-99.9506,20.7093,2020.462],[-99.9461,20.7186,2044.9966],[-99.944,20.7188,2048.0427],[-99.9421,20.7168,2038.8311],[-99.9386,20.699,2010.5559],[-99.928,20.6993,2002.9578],[-99.9275,20.6967,1998.3651],[-99.9382,20.6966,2002.1956],[-99.9362,20.6861,1983.5581],[-99.9428,20.6856,1979.8656],[-99.9468,20.6807,1966.9193],[-99.9472,20.685,1972.8517],[-99.9428,20.6857,1979.8656],[-99.9434,20.6991,2005.3943],[-99.9472,20.6991,1996.8647],[-99.9504,20.6892,1972.4866],[-99.9524,20.6875,1967.92],[-99.9546,20.6723,1946.1086],[-99.9521,20.6711,1945.6204],[-99.9535,20.6596,1933.2592],[-99.9652,20.6619,1926.6869],[-99.9739,20.6589,1926.7098],[-99.9692,20.6526,1926.4502],[-99.9703,20.6526,1926.4502],[-99.9689,20.6497,1928.8181],[-99.9892,20.6522,1997.616],[-99.9916,20.636,1987.5057],[-99.9758,20.6333,1940.1781],[-99.9747,20.6364,1942.7007],[-99.9544,20.6351,1918.3794],[-99.9493,20.6332,1916.0767],[-99.9483,20.635,1917.6143],[-99.9467,20.625,1907.5],[-99.9389,20.6192,1908.0325],[-99.9335,20.6273,1923.6855],[-99.9323,20.6246,1919.6687],[-99.928,20.6255,1921.3242],[-99.9302,20.6314,1926.2471],[-99.9187,20.6323,1935.2175],[-99.9063,20.6122,1964.2312],[-99.9006,20.6095,1992.0723],[-99.9016,20.6049,1935.583],[-99.8943,20.6018,1937.464],[-99.8965,20.5971,1932.0049],[-99.8939,20.5957,1933.2775],[-99.897,20.5832,1920.5206],[-99.8865,20.5859,1919.0146],[-99.8826,20.5964,1932.4988],[-99.8761,20.5944,1975.2466],[-99.8751,20.59,1980.4758],[-99.8561,20.5898,2018.0164],[-99.8565,20.5884,2028.8186],[-99.8512,20.5845,2016.1573],[-99.8448,20.5737,2159.4514],[-99.8489,20.5723,2078.1418],[-99.8526,20.5737,2048.1335],[-99.8547,20.5693,2028.9727],[-99.8606,20.5666,1978.0922],[-99.8693,20.5685,1940.4746],[-99.8706,20.5568,1902.28],[-99.8559,20.5503,1914.4468],[-99.851,20.5526,1882.1847],[-99.8545,20.5439,1890.3792],[-99.8614,20.5424,1882.2346],[-99.8608,20.5386,1868.7413],[-99.8543,20.5428,1865.8049],[-99.8484,20.5393,1870.051],[-99.8417,20.5455,1871.5046],[-99.8403,20.5439,1872.7159],[-99.8358,20.5452,1893.4368],[-99.8218,20.5407,1858.606],[-99.8153,20.5417,1874.1462],[-99.8035,20.5452,1900.2205],[-99.7945,20.5513,1839.5168],[-99.7868,20.5526,1817.9512],[-99.7793,20.5593,1810.4983],[-99.7775,20.5585,1783.1772],[-99.7739,20.56,1793.3546],[-99.7697,20.5575,1832.1648],[-99.7684,20.5598,1844.3352],[-99.7563,20.5614,1819.0563],[-99.7534,20.563,1747.9092],[-99.7457,20.5593,1724.1313],[-99.7384,20.5606,1718.5377],[-99.7353,20.5649,1726.5925]]]]}}