{"type": "Feature","bbox": [-99.0194,21.5515,-98.8808,21.7296],"geometry": {"type": "MultiPolygon","coordinates": [[[[-99.0015,21.5708,97.2075],[-98.9993,21.575,89.2746],[-98.9968,21.576,120.1706],[-98.9971,21.5741,115.6419],[-98.9875,21.5802,383.6882],[-98.9866,21.5788,361.4185],[-98.9676,21.5804,229.4608],[-98.964,21.5794,302.6431],[-98.9638,21.5752,271.3041],[-98.9496,21.5677,559.8083],[-98.9494,21.5611,519.1803],[-98.9441,21.5528,524.9223],[-98.9401,21.552,443.8026],[-98.9317,21.5537,242.3102],[-98.9256,21.5515,218.1557],[-98.9201,21.5528,191.0254],[-98.9194,21.5555,211.6983],[-98.9172,21.5544,170.2825],[-98.9145,21.5558,163.5893],[-98.9049,21.5554,155.106],[-98.8957,21.5628,119.9595],[-98.8933,21.5624,139.5794],[-98.8953,21.5684,114.7303],[-98.8901,21.5685,109.9475],[-98.8814,21.573,131.1273],[-98.8828,21.575,141.9392],[-98.8808,21.5785,137.7858],[-98.8831,21.5794,138.4909],[-98.885,21.5835,186.462],[-98.8903,21.5814,205.2704],[-98.8907,21.584,197.6526],[-98.8938,21.5834,185.7125],[-98.8944,21.5854,187.0829],[-98.8966,21.5842,201.3926],[-98.9002,21.5856,196.5156],[-98.8998,21.5884,212.9868],[-98.9022,21.5882,216.8568],[-98.9038,21.5984,223.7646],[-98.9076,21.6029,234.5519],[-98.913,21.6063,259.1815],[-98.9189,21.6054,284.4972],[-98.9221,21.6067,271.3638],[-98.9318,21.6143,359.1345],[-98.9228,21.6177,418.986],[-98.9222,21.6272,346.8402],[-98.9181,21.6318,322.7798],[-98.9201,21.6367,294.6448],[-98.9188,21.6402,372.8108],[-98.9234,21.6419,302.9963],[-98.9295,21.6486,323.1552],[-98.9309,21.6551,331.469],[-98.9287,21.6613,322.3453],[-98.9339,21.6702,228.0301],[-98.9401,21.6681,83.6141],[-98.9455,21.6833,54.4431],[-98.9416,21.6841,58.5896],[-98.9418,21.6854,58.5896],[-98.9478,21.6929,49.0228],[-98.9492,21.6928,49.0228],[-98.9519,21.7021,45.5864],[-98.9635,21.7029,43.3865],[-98.9624,21.7094,48.957],[-98.9677,21.7122,81.6998],[-98.9815,21.7266,57.2115],[-98.9823,21.7296,38.544],[-98.9836,21.7267,42.8795],[-98.9903,21.7243,38.9925],[-98.9932,21.7208,37.4798],[-98.9927,21.715,54.6568],[-98.9952,21.7134,37.8074],[-98.9941,21.7109,40.8515],[-98.9961,21.7083,41.3371],[-99.0007,21.708,41.6764],[-99.0026,21.7053,39.3294],[-99.0044,21.7064,40.5068],[-99.0085,21.7032,41.7915],[-99.0101,21.699,43.0286],[-99.0086,21.6972,41.1412],[-99.0117,21.6965,40.2001],[-99.0102,21.6963,41.8171],[-99.0104,21.6949,41.0966],[-99.0121,21.6943,41.5099],[-99.0132,21.6901,43.4421],[-99.0176,21.689,50.0903],[-99.019,21.6843,47.5104],[-99.0174,21.6838,43.3257],[-99.0164,21.6807,45.134],[-99.0176,21.6782,44.4491],[-99.0151,21.6766,47.3684],[-99.0148,21.6727,48.0765],[-99.0194,21.6683,47.5843],[-99.0194,21.6644,54.4502],[-99.0157,21.6604,50.3302],[-99.0145,21.6608,49.4598],[-99.0124,21.657,51.3842],[-99.0129,21.6543,53.4524],[-99.008,21.6502,52.5052],[-99.0078,21.6472,57.6397],[-99.0054,21.6482,53.8268],[-98.9994,21.6423,56.4221],[-98.9989,21.6365,58.418],[-98.9951,21.6349,60.1353],[-98.9964,21.634,60.1353],[-98.9955,21.6293,58.586],[-98.9904,21.6171,64.4946],[-98.9907,21.6111,64.4307],[-98.9941,21.606,68.8208],[-98.9976,21.5937,74.9035],[-98.9994,21.5923,73.1029],[-98.9981,21.5874,75.4708],[-99.0,21.5837,78.7297],[-99.005,21.5805,90.6545],[-99.0079,21.5711,88.9098],[-99.0015,21.5708,97.2075]]]]}
,"properties": {"GID_2": "MEX.24.43_2","GID_0": "MEX","country": "México","GID_1": "MEX.24_1","province": "SanLuisPotosí","NL_NAME_1": "NA","county": "Tancanhuitz","VARNAME_2": "NA","NL_NAME_2": "NA","TYPE_2": "Município","ENGTYPE_2": "Municipality","CC_2": "NA","HASC_2": "NA","name": "Tancanhuitz.county","area_km2": 137.5884,"hist_schema_id": "Elevation0-9000","hist_area_km2": {"25": 0.7091,"50": 44.9034,"75": 24.6145,"100": 6.3856,"125": 3.863,"150": 3.4497,"175": 4.4551,"200": 4.0414,"225": 5.0073,"250": 5.5594,"275": 5.9931,"300": 5.6186,"325": 5.5595,"350": 4.909,"375": 3.3516,"400": 2.6221,"425": 1.5773,"450": 1.0647,"475": 0.8873,"500": 0.7887,"525": 0.6704,"550": 0.5718,"575": 0.4929,"600": 0.2366,"625": 0.1775,"650": 0.0592,"675": 0.0197}}}