{"type": "Feature","bbox": [-100.214,17.3991,-99.8047,18.0411],"geometry": {"type": "MultiPolygon","coordinates": [[[[-100.1029,18.0212,339.9757],[-100.1828,18.0008,1292.7957],[-100.1784,17.9884,1420.2318],[-100.1652,17.9718,1102.6752],[-100.1649,17.9495,991.8199],[-100.1591,17.9013,1406.7603],[-100.1591,17.884,1422.1257],[-100.1289,17.8465,544.6166],[-100.1333,17.8433,630.3612],[-100.1317,17.8423,557.9994],[-100.1318,17.8403,586.2981],[-100.1394,17.8366,564.3156],[-100.1423,17.8361,552.4662],[-100.1428,17.8391,564.042],[-100.1455,17.8401,554.4129],[-100.1483,17.8395,558.3458],[-100.1516,17.8311,568.3782],[-100.156,17.8301,568.8358],[-100.1558,17.8257,573.6398],[-100.1575,17.822,583.1732],[-100.1539,17.8153,647.3789],[-100.1504,17.8137,600.7914],[-100.1503,17.8112,588.9475],[-100.1527,17.8096,617.114],[-100.1547,17.8124,634.329],[-100.1571,17.8115,601.5289],[-100.158,17.8074,615.4144],[-100.1554,17.8019,668.8736],[-100.1615,17.8036,644.8329],[-100.163,17.8062,654.6119],[-100.1641,17.8047,622.9205],[-100.1596,17.7982,656.6489],[-100.1536,17.7954,721.1585],[-100.1478,17.788,719.6447],[-100.1459,17.7877,715.0366],[-100.1428,17.7802,761.3602],[-100.142,17.7424,920.0647],[-100.1539,17.6684,1347.0771],[-100.1368,17.6304,1616.6473],[-100.1418,17.5968,2255.4431],[-100.1535,17.6114,2248.3472],[-100.166,17.6179,2194.7646],[-100.1806,17.6101,1760.4314],[-100.214,17.6029,1808.5856],[-100.2077,17.5751,2202.825],[-100.2126,17.5639,2353.6746],[-100.2063,17.5396,2571.1274],[-100.214,17.5233,2871.9175],[-100.199,17.5069,2912.7981],[-100.1875,17.4887,2777.7021],[-100.1768,17.4827,2545.4126],[-100.1769,17.48,2602.7292],[-100.1794,17.4796,2622.5947],[-100.1795,17.4741,2595.3381],[-100.1391,17.4613,3384.2939],[-100.13,17.4546,3118.1929],[-100.1154,17.4544,3147.106],[-100.0985,17.4384,2201.9531],[-100.0965,17.4273,1861.6541],[-100.0937,17.4273,1849.9001],[-100.0891,17.424,2020.7448],[-100.0849,17.4247,2061.5176],[-100.0848,17.4224,2036.1658],[-100.081,17.4207,2190.7131],[-100.0826,17.4203,2091.7263],[-100.0771,17.4122,2530.8875],[-100.0721,17.3996,3229.5171],[-100.0636,17.3991,2965.4446],[-100.048,17.4031,2578.6873],[-100.061,17.4127,2205.8618],[-100.0549,17.4211,2010.8871],[-100.0492,17.4246,1886.5624],[-100.0494,17.4273,1896.3098],[-100.0556,17.4354,2008.574],[-100.0505,17.445,2319.9932],[-100.0341,17.4451,2263.2705],[-100.0269,17.4509,2395.8965],[-100.0236,17.4542,2265.519],[-100.0194,17.474,2181.8833],[-100.015,17.476,2241.4211],[-100.0112,17.4822,2526.0732],[-100.0077,17.478,2492.8909],[-100.0008,17.4764,2507.3777],[-99.9982,17.48,2502.5525],[-99.9946,17.4811,2558.2744],[-99.9766,17.4752,2743.8018],[-99.9715,17.4805,2498.1641],[-99.9652,17.4785,2120.5947],[-99.9522,17.5012,1878.9921],[-99.9441,17.506,1693.5779],[-99.9381,17.5058,1540.2753],[-99.9367,17.5024,1482.8667],[-99.9324,17.5026,1470.8291],[-99.93,17.5004,1467.2859],[-99.929,17.5026,1372.6699],[-99.9198,17.5045,1270.5618],[-99.9136,17.5,1192.8533],[-99.9057,17.5026,1313.8203],[-99.9027,17.5053,1339.6401],[-99.8922,17.504,1572.8757],[-99.8918,17.5097,1685.0547],[-99.8915,17.5093,1685.0547],[-99.8917,17.5076,1677.0043],[-99.8912,17.5075,1677.0043],[-99.8905,17.5138,1705.5706],[-99.887,17.5205,1893.4114],[-99.8919,17.5266,1953.3608],[-99.8899,17.5273,1960.7754],[-99.8904,17.5307,1899.431],[-99.8965,17.535,1824.1816],[-99.8953,17.5367,1830.363],[-99.9015,17.5395,1868.8748],[-99.9004,17.5418,1897.7494],[-99.898,17.5424,1911.6226],[-99.8978,17.5448,1932.9498],[-99.9196,17.5426,2035.0081],[-99.9214,17.5407,2024.9003],[-99.9289,17.5487,1654.6652],[-99.9322,17.5557,1511.6814],[-99.9385,17.5575,1452.0103],[-99.9436,17.5617,1443.8667],[-99.9433,17.5656,1417.0321],[-99.949,17.5712,1384.2949],[-99.9495,17.5748,1399.4874],[-99.9559,17.5787,1349.1421],[-99.9518,17.5881,1324.3975],[-99.9543,17.592,1309.2606],[-99.9565,17.5918,1338.5538],[-99.9561,17.5954,1310.887],[-99.9545,17.5961,1310.2151],[-99.9568,17.5985,1290.8431],[-99.9545,17.6001,1292.4126],[-99.9574,17.6014,1289.7145],[-99.9538,17.6044,1293.1863],[-99.9556,17.611,1302.4612],[-99.9577,17.6131,1265.8857],[-99.9554,17.6142,1284.446],[-99.9558,17.6162,1253.4915],[-99.9577,17.6188,1289.7186],[-99.959,17.6175,1256.7181],[-99.9591,17.6202,1234.2937],[-99.952,17.6229,1234.6621],[-99.9469,17.6228,1181.0593],[-99.9465,17.6244,1189.6688],[-99.9112,17.6467,2505.0825],[-99.9112,17.6524,2408.4604],[-99.9297,17.6545,1782.5355],[-99.9362,17.6452,1479.5559],[-99.94,17.6533,1741.7477],[-99.9463,17.6531,1852.3784],[-99.9492,17.6611,1593.6171],[-99.9522,17.6641,1497.4897],[-99.9466,17.6662,1444.9244],[-99.9484,17.6675,1415.114],[-99.9434,17.667,1413.8966],[-99.944,17.6682,1393.1758],[-99.9401,17.6735,1451.458],[-99.9304,17.681,1545.1879],[-99.928,17.6883,1584.1421],[-99.925,17.6911,1624.3907],[-99.9184,17.6904,1822.6975],[-99.9144,17.6931,1869.9922],[-99.9051,17.6936,1937.548],[-99.8983,17.6976,2042.0922],[-99.8969,17.6995,2110.6562],[-99.8983,17.7019,2187.5059],[-99.8802,17.696,2193.3455],[-99.8816,17.7059,2010.4985],[-99.8908,17.7126,2045.033],[-99.8908,17.7145,2039.272],[-99.9005,17.7194,2153.8108],[-99.902,17.7218,2117.9126],[-99.8975,17.7277,2200.0176],[-99.8905,17.7272,2219.2427],[-99.8894,17.7252,2268.6169],[-99.8878,17.7272,2229.1335],[-99.8875,17.7435,2316.6699],[-99.883,17.7466,2338.9641],[-99.8795,17.7553,2209.6724],[-99.8711,17.7542,2071.4021],[-99.8571,17.758,1670.7823],[-99.8574,17.7608,1659.672],[-99.8534,17.7634,1574.8325],[-99.8598,17.7652,1729.7432],[-99.8618,17.7685,1776.1725],[-99.8598,17.7718,1629.6593],[-99.8541,17.7728,1530.6243],[-99.8495,17.7809,1384.2847],[-99.8402,17.7832,1315.8246],[-99.8382,17.7897,1292.5601],[-99.8334,17.7899,1340.3257],[-99.8276,17.7929,1212.4111],[-99.8267,17.7959,1295.3766],[-99.8242,17.7955,1215.4014],[-99.8223,17.7993,1216.5588],[-99.8191,17.8011,1165.4299],[-99.8207,17.8014,1203.1245],[-99.8207,17.8031,1216.2639],[-99.8188,17.8034,1160.4756],[-99.8177,17.8061,1214.062],[-99.8177,17.8122,1171.0608],[-99.8144,17.812,1157.981],[-99.8146,17.8149,1126.0037],[-99.8127,17.8152,1137.5649],[-99.8138,17.817,1122.7207],[-99.8128,17.8204,1114.627],[-99.8095,17.8202,1139.9883],[-99.8075,17.8226,1097.8214],[-99.8052,17.8229,1091.8564],[-99.8047,17.8295,1049.8386],[-99.8072,17.8315,1032.2087],[-99.8061,17.8343,1037.3461],[-99.8131,17.8374,1010.7306],[-99.8128,17.8403,1007.874],[-99.8164,17.8419,1002.6815],[-99.814,17.8468,996.4709],[-99.8163,17.8526,993.5049],[-99.8144,17.8523,962.7476],[-99.813,17.8542,962.8102],[-99.8162,17.8546,971.5422],[-99.8151,17.8617,929.136],[-99.8139,17.8651,917.976],[-99.8115,17.8637,987.9276],[-99.8111,17.8669,929.4849],[-99.8093,17.8682,912.2704],[-99.8104,17.8704,959.4702],[-99.8077,17.8774,925.8224],[-99.8087,17.8806,871.8535],[-99.8106,17.881,911.0895],[-99.8082,17.8879,871.5597],[-99.8091,17.8915,856.5994],[-99.813,17.8916,922.4873],[-99.8209,17.8954,899.6404],[-99.8223,17.8984,769.6971],[-99.825,17.8982,774.0025],[-99.824,17.9003,809.9745],[-99.8254,17.9029,745.1232],[-99.8237,17.9031,766.7948],[-99.823,17.9103,723.0631],[-99.8182,17.9152,747.1404],[-99.8176,17.9178,758.8525],[-99.8203,17.9171,849.6615],[-99.8285,17.9194,973.3782],[-99.8435,17.9139,1289.9762],[-99.8475,17.914,1304.3972],[-99.8563,17.9187,1587.2129],[-99.8549,17.9259,1623.9236],[-99.8614,17.9362,1408.7322],[-99.8617,17.9398,1333.058],[-99.8579,17.9644,734.4883],[-99.8607,17.9776,464.0],[-99.8709,17.9708,464.0],[-99.8831,17.9731,464.0],[-99.8922,17.9707,464.0],[-99.8947,17.9661,464.0],[-99.8955,17.9583,464.0],[-99.9057,17.9484,464.0],[-99.9071,17.9386,464.0],[-99.9325,17.942,464.0],[-99.9341,17.9445,464.0],[-99.9305,17.9504,467.3434],[-99.9464,17.9531,464.0],[-99.9484,17.9607,464.0],[-99.9519,17.9649,464.0],[-99.954,17.9644,464.0],[-99.957,17.9588,464.0],[-99.9611,17.9566,464.0],[-99.9647,17.9578,464.0],[-99.969,17.9637,464.0],[-99.9737,17.9632,464.0],[-99.9775,17.9597,464.0],[-99.9804,17.9517,468.7486],[-99.9931,17.9482,464.0],[-100.0015,17.9517,432.1313],[-99.9999,17.9541,417.0719],[-99.9926,17.9541,421.7147],[-99.991,17.9581,367.6913],[-99.991,17.9615,370.4165],[-99.9927,17.9634,378.0569],[-99.9989,17.9641,370.493],[-100.0055,17.9568,361.7042],[-100.0113,17.9551,361.2603],[-100.0186,17.9497,357.75],[-100.0205,17.952,413.274],[-100.0213,17.9615,361.7152],[-100.0266,17.9597,355.567],[-100.0281,17.9547,357.6877],[-100.0311,17.9543,355.1409],[-100.0332,17.9565,360.8301],[-100.0333,17.964,361.0501],[-100.0371,17.9721,356.9755],[-100.04,17.9724,359.8157],[-100.0496,17.9628,353.1795],[-100.0522,17.9639,358.1967],[-100.0517,17.9677,385.3294],[-100.0535,17.973,599.3698],[-100.0477,17.9757,625.5665],[-100.0453,17.9822,719.064],[-100.0406,17.9875,877.861],[-100.0248,17.9781,463.4044],[-100.022,17.9811,473.6282],[-100.0222,17.9929,517.8265],[-100.0245,17.9978,570.941],[-100.0274,18.0,679.7469],[-100.0242,18.0032,653.7925],[-100.024,18.0078,804.1493],[-100.0274,18.0129,903.3757],[-100.0284,18.0193,1279.2964],[-100.0327,18.0229,1235.3048],[-100.0324,18.024,1175.1075],[-100.0294,18.0233,1178.5011],[-100.023,18.0257,1184.3253],[-100.0206,18.0299,1314.2729],[-100.0302,18.0375,1102.9941],[-100.0313,18.0401,1034.5155],[-100.0334,18.0411,936.0457],[-100.0357,18.0383,963.3332],[-100.0376,18.0394,858.3796],[-100.0498,18.0372,685.1482],[-100.0536,18.029,559.8887],[-100.0536,18.0243,526.2637],[-100.0561,18.0205,479.5587],[-100.0602,18.0196,446.3674],[-100.0555,18.0155,666.2763],[-100.0569,18.0127,702.1083],[-100.054,18.0132,710.354],[-100.0512,18.0091,594.3339],[-100.0447,18.0163,797.3266],[-100.0434,18.016,855.7212],[-100.042,18.0113,823.9466],[-100.0384,18.0095,801.6124],[-100.0375,18.0058,846.9168],[-100.0318,18.0013,696.6295],[-100.038,18.004,814.4705],[-100.0398,18.0022,816.7244],[-100.0401,17.9966,867.3896],[-100.0456,18.0005,599.0509],[-100.0506,18.0003,469.4493],[-100.0566,17.9923,422.5568],[-100.0655,17.9862,351.2292],[-100.0702,17.9862,347.5],[-100.0784,17.9906,389.561],[-100.0889,17.9893,346.7771],[-100.0894,17.9926,353.4247],[-100.0868,17.9969,361.9151],[-100.087,18.0005,374.1758],[-100.0915,18.0048,341.875],[-100.0921,18.0097,357.3811],[-100.1004,18.0168,369.2698],[-100.1029,18.0212,339.9757]]]]}
,"properties": {"GID_2": "MEX.12.35_2","GID_0": "MEX","country": "México","GID_1": "MEX.12_1","province": "Guerrero","NL_NAME_1": "NA","county": "GeneralHeliodoroCastillo","VARNAME_2": "NA","NL_NAME_2": "NA","TYPE_2": "Município","ENGTYPE_2": "Municipality","CC_2": "NA","HASC_2": "NA","name": "General_Heliodoro_Castillo.county","area_km2": 1731.953,"hist_schema_id": "Elevation0-9000","hist_area_km2": {"350": 3.166,"375": 4.719,"400": 5.143,"425": 5.628,"450": 5.567,"475": 17.589,"500": 11.055,"525": 11.862,"550": 13.213,"575": 13.213,"600": 14.081,"625": 14.605,"650": 15.312,"675": 15.13,"700": 14.909,"725": 16.12,"750": 17.23,"775": 17.472,"800": 18.824,"825": 20.217,"850": 20.519,"875": 20.399,"900": 21.57,"925": 20.501,"950": 22.136,"975": 21.168,"1000": 21.471,"1025": 23.066,"1050": 21.876,"1075": 22.401,"1100": 23.23,"1125": 22.201,"1150": 23.675,"1175": 22.324,"1200": 22.99,"1225": 24.162,"1250": 24.143,"1275": 23.397,"1300": 25.377,"1325": 25.641,"1350": 27.721,"1375": 26.168,"1400": 27.219,"1425": 27.219,"1450": 27.666,"1475": 25.95,"1500": 24.901,"1525": 25.427,"1550": 27.064,"1575": 25.995,"1600": 25.633,"1625": 24.582,"1650": 23.15,"1675": 23.171,"1700": 22.505,"1725": 22.526,"1750": 22.062,"1775": 20.668,"1800": 21.578,"1825": 20.387,"1850": 19.64,"1875": 19.499,"1900": 18.549,"1925": 19.843,"1950": 18.187,"1975": 16.773,"2000": 17.319,"2025": 17.642,"2050": 16.572,"2075": 16.652,"2100": 16.693,"2125": 17.32,"2150": 15.582,"2175": 16.795,"2200": 16.411,"2225": 15.543,"2250": 15.968,"2275": 15.341,"2300": 14.937,"2325": 14.654,"2350": 13.988,"2375": 13.464,"2400": 12.594,"2425": 11.766,"2450": 11.462,"2475": 11.16,"2500": 10.816,"2525": 9.441,"2550": 9.159,"2575": 8.047,"2600": 7.38,"2625": 7.238,"2650": 5.904,"2675": 6.652,"2700": 5.418,"2725": 5.135,"2750": 4.974,"2775": 4.367,"2800": 3.761,"2825": 2.993,"2850": 2.912,"2875": 2.589,"2900": 1.941,"2925": 1.8,"2950": 1.921,"2975": 1.759,"3000": 1.557,"3025": 1.234,"3050": 1.173,"3075": 1.193,"3100": 1.072,"3125": 1.416,"3150": 1.052,"3175": 0.971,"3200": 0.748,"3225": 0.587,"3250": 0.546,"3275": 0.566,"3300": 0.384,"3325": 0.364,"3350": 0.485,"3375": 0.243,"3400": 0.243,"3425": 0.142,"3450": 0.101,"3475": 0.202,"3500": 0.04,"3525": 0.182}}}