{"type": "Feature","bbox": [-104.2929,19.6902,-104.1092,19.9011],"geometry": {"type": "MultiPolygon","coordinates": [[[[-104.1364,19.6922,876.3701],[-104.1203,19.6915,859.2657],[-104.1103,19.6941,893.5021],[-104.1092,19.6977,920.0466],[-104.1105,19.7016,961.8612],[-104.1151,19.7039,1028.0646],[-104.1143,19.7086,1078.9773],[-104.1161,19.7101,1031.962],[-104.1169,19.7148,1075.2904],[-104.113,19.7191,1216.3043],[-104.1169,19.7267,1115.5249],[-104.1145,19.7317,1076.8209],[-104.1149,19.7357,1048.0698],[-104.1137,19.7362,1075.8292],[-104.118,19.7413,1029.2242],[-104.1236,19.7439,922.3983],[-104.123,19.7453,922.3983],[-104.1144,19.7484,1035.8224],[-104.1163,19.7522,1054.0486],[-104.1145,19.7588,1060.4043],[-104.1211,19.7635,1016.9323],[-104.1202,19.7662,1090.8918],[-104.1271,19.7668,952.7191],[-104.1271,19.7695,910.7617],[-104.1289,19.7696,910.7617],[-104.1321,19.7756,881.3284],[-104.128,19.7952,858.6142],[-104.1235,19.7954,856.8649],[-104.1218,19.8034,840.7225],[-104.1162,19.8063,827.1714],[-104.1167,19.8113,813.8076],[-104.1232,19.8107,817.4938],[-104.1256,19.8129,820.0259],[-104.1349,19.8084,831.2881],[-104.1387,19.8082,836.2689],[-104.1432,19.809,838.9713],[-104.1466,19.8119,845.8491],[-104.1578,19.8133,885.3442],[-104.1678,19.8088,903.6028],[-104.1857,19.8061,897.1708],[-104.1843,19.8085,899.1011],[-104.1859,19.8104,922.8508],[-104.1872,19.8095,932.6769],[-104.1919,19.8149,1134.9436],[-104.1883,19.8159,1169.0807],[-104.1826,19.8271,1315.2522],[-104.1757,19.8328,1205.8414],[-104.1769,19.8395,1401.8466],[-104.1728,19.845,1437.823],[-104.1751,19.8531,1449.5374],[-104.199,19.8611,1199.1763],[-104.2015,19.8632,1153.4032],[-104.2067,19.8621,1127.0717],[-104.2077,19.8648,1137.0851],[-104.2118,19.8629,1199.088],[-104.2129,19.866,1218.0499],[-104.215,19.8632,1200.6926],[-104.2371,19.875,1693.1221],[-104.2298,19.8869,1667.2217],[-104.2312,19.8885,1658.7229],[-104.2323,19.8875,1683.0599],[-104.2375,19.8929,1585.7124],[-104.2476,19.8947,1542.7166],[-104.2532,19.9002,1457.6863],[-104.2568,19.9011,1435.8113],[-104.257,19.8953,1558.2],[-104.2597,19.8917,1601.6604],[-104.2576,19.8905,1581.2207],[-104.2613,19.8865,1605.7612],[-104.2702,19.8946,1574.3037],[-104.2708,19.8934,1577.6735],[-104.2788,19.8929,1514.2302],[-104.2837,19.8952,1500.4265],[-104.2881,19.8922,1496.8363],[-104.2903,19.8928,1501.0591],[-104.2929,19.889,1497.4872],[-104.2901,19.8837,1481.9648],[-104.2913,19.8815,1487.8567],[-104.2844,19.8775,1494.6938],[-104.2879,19.8603,973.0181],[-104.2903,19.8579,913.8372],[-104.2827,19.8489,901.2324],[-104.2819,19.839,890.8472],[-104.2833,19.8344,887.2672],[-104.281,19.8283,884.0219],[-104.2746,19.8234,884.0543],[-104.2571,19.8275,881.8109],[-104.249,19.823,874.3563],[-104.2437,19.8245,873.6657],[-104.2419,19.8236,872.2203],[-104.2409,19.8205,871.3406],[-104.2433,19.8197,871.2537],[-104.241,19.8156,870.8408],[-104.2392,19.8021,868.8716],[-104.2359,19.7976,867.7416],[-104.23,19.7947,866.4121],[-104.2316,19.7916,866.0803],[-104.2255,19.79,867.5787],[-104.2257,19.7773,864.5231],[-104.2275,19.7752,863.9977],[-104.2228,19.7729,863.2046],[-104.2217,19.774,863.8022],[-104.2222,19.7726,863.2046],[-104.2191,19.7729,863.84],[-104.2188,19.7742,865.0414],[-104.2174,19.7733,864.2661],[-104.2173,19.7681,864.0055],[-104.2152,19.7638,864.1269],[-104.2157,19.7589,860.2679],[-104.2106,19.7563,859.4033],[-104.2103,19.7532,861.9674],[-104.2063,19.7543,859.3541],[-104.2024,19.7527,859.3646],[-104.2009,19.7501,858.5344],[-104.1965,19.7518,857.4093],[-104.1932,19.7498,857.0856],[-104.1929,19.7468,858.6799],[-104.1913,19.7461,857.7207],[-104.1905,19.7481,857.7975],[-104.1874,19.7476,856.4094],[-104.187,19.7426,856.4114],[-104.185,19.7396,856.8353],[-104.18,19.7393,855.5779],[-104.1811,19.7442,858.4292],[-104.1747,19.7411,855.8157],[-104.1738,19.7391,856.1423],[-104.1752,19.7349,856.8359],[-104.1721,19.7326,854.4066],[-104.1669,19.732,856.0087],[-104.1636,19.7366,856.3553],[-104.1584,19.7277,853.874],[-104.1595,19.7215,857.8521],[-104.1562,19.716,855.0217],[-104.1532,19.7165,858.5231],[-104.1541,19.7144,852.4524],[-104.1521,19.7103,853.8506],[-104.1541,19.7061,851.5165],[-104.1457,19.7072,853.6555],[-104.1424,19.702,851.8109],[-104.1429,19.6986,865.0323],[-104.1499,19.6956,855.9661],[-104.1484,19.6915,865.4993],[-104.1472,19.6902,850.5809],[-104.1364,19.6922,876.3701]]]]}
,"properties": {"GID_2": "MEX.14.33_2","GID_0": "MEX","country": "México","GID_1": "MEX.14_1","province": "Jalisco","NL_NAME_1": "NA","county": "ElGrullo","VARNAME_2": "NA","NL_NAME_2": "NA","TYPE_2": "Município","ENGTYPE_2": "Municipality","CC_2": "NA","HASC_2": "NA","name": "El_Grullo.county","area_km2": 177.3433,"hist_schema_id": "Elevation0-9000","hist_area_km2": {"800": 0.0199,"825": 1.0773,"850": 27.6754,"875": 45.8633,"900": 13.9246,"925": 8.0997,"950": 7.2022,"975": 6.1049,"1000": 6.0852,"1025": 5.8258,"1050": 5.1073,"1075": 4.4689,"1100": 3.7506,"1125": 3.0123,"1150": 2.653,"1175": 2.7127,"1200": 2.174,"1225": 2.7723,"1250": 2.6126,"1275": 2.433,"1300": 2.0541,"1325": 1.735,"1350": 1.3162,"1375": 1.0968,"1400": 1.1167,"1425": 0.8575,"1450": 0.7976,"1475": 0.7976,"1500": 1.8144,"1525": 2.1334,"1550": 2.1733,"1575": 2.0935,"1600": 1.5951,"1625": 0.9172,"1650": 0.7377,"1675": 1.0368,"1700": 0.8574,"1725": 0.2791,"1750": 0.2791,"1775": 0.0798}}}