{"type":"Feature","properties":{"GID_2":"MEX.20.376_2","GID_0":"MEX","country":"México","GID_1":"MEX.20_1","province":"Oaxaca","NL_NAME_1":"NA","county":"SantaCatarinaYosonotú","VARNAME_2":"NA","NL_NAME_2":"NA","TYPE_2":"Município","ENGTYPE_2":"Municipality","CC_2":"NA","HASC_2":"NA","name":"Santa_Catarina_Yosonotú.county"},
"geometry":{"type": "MultiPolygon","coordinates": [[[[-97.6297,16.9886,2205.2205],[-97.6433,16.983,2204.2854],[-97.6406,17.0034,2463.4912],[-97.651,17.0092,2341.354],[-97.6457,17.0249,2502.1421],[-97.6429,17.0239,2474.7395],[-97.6501,17.0345,2516.343],[-97.6502,17.0381,2496.2051],[-97.6476,17.0398,2535.8003],[-97.646,17.0436,2449.9836],[-97.6632,17.04,2408.1455],[-97.6892,17.0279,2802.1084],[-97.6955,17.0222,3088.8252],[-97.7179,17.0235,2163.7627],[-97.7301,17.0187,1738.6342],[-97.7258,17.0054,2530.9861],[-97.722,17.0,2631.1262],[-97.7203,17.0014,2669.8916],[-97.7225,17.0046,2514.5554],[-97.7196,17.006,2615.9419],[-97.7105,17.0061,2787.4868],[-97.7052,17.0104,2706.1333],[-97.6974,17.0018,2578.0835],[-97.696,16.9963,2578.2803],[-97.6932,16.9968,2644.1082],[-97.6906,17.0003,2657.0854],[-97.6862,16.9983,2530.0696],[-97.6812,16.988,2403.5173],[-97.6758,16.9837,2387.3259],[-97.6669,16.9804,2357.7163],[-97.6611,16.9747,2346.4788],[-97.6462,16.983,2141.2144],[-97.645,16.9719,2142.0444],[-97.6431,16.9718,2142.0444],[-97.643,16.9693,2207.8584],[-97.6405,16.9698,2138.562],[-97.6399,16.9673,2130.1782],[-97.6372,16.9657,2116.4678],[-97.6339,16.9673,2181.3621],[-97.6334,16.9811,2181.9817],[-97.6297,16.9886,2205.2205]]]]}}