{"type":"Feature","properties":{"GID_2":"MEX.20.39_2","GID_0":"MEX","country":"México","GID_1":"MEX.20_1","province":"Oaxaca","NL_NAME_1":"NA","county":"HeroicaCiudaddeJuchitándeZa","VARNAME_2":"NA","NL_NAME_2":"NA","TYPE_2":"Município","ENGTYPE_2":"Municipality","CC_2":"NA","HASC_2":"NA","name":"Heroica_Ciudadde_Juchitánde_Za.county"},
"geometry":{"type": "MultiPolygon","coordinates": [[[[-94.9401,16.2238,3.7127],[-94.9355,16.2162,0.0],[-94.9035,16.2205,2.7601],[-94.8886,16.2208,2.3595],[-94.928,16.2151,2.3303],[-94.9291,16.2137,0.0],[-94.9264,16.2074,1.5465],[-94.8728,16.2141,2.9934],[-94.8308,16.2157,2.7579],[-94.7736,16.212,0.0],[-94.7461,16.2085,0.0],[-94.7447,16.2095,0.0],[-94.7647,16.214,1.0881],[-94.7712,16.2184,1.3383],[-94.7792,16.2203,0.7965],[-94.7616,16.2203,0.0],[-94.7656,16.2229,0.7721],[-94.8163,16.2229,1.1878],[-94.8238,16.2276,0.0],[-94.8367,16.2272,2.1319],[-94.8412,16.2322,0.0],[-94.8666,16.2338,0.0],[-94.8746,16.2365,0.4237],[-94.9232,16.235,1.1727],[-94.9409,16.233,1.239],[-94.9401,16.2238,3.7127]]],
[[[-94.8228,16.3539,7.877],[-94.8228,16.3565,3.8005],[-94.8275,16.3565,5.3348],[-94.8297,16.3538,0.0],[-94.8327,16.3533,2.1996],[-94.8325,16.3505,0.0],[-94.8295,16.3484,0.0],[-94.8312,16.3451,2.607],[-94.8286,16.3424,3.0939],[-94.8236,16.3409,5.0118],[-94.8165,16.3421,9.7357],[-94.8156,16.3444,0.0],[-94.8227,16.35,5.6284],[-94.8228,16.3539,7.877]]],
[[[-94.8486,16.3515,0.9416],[-94.8468,16.3515,6.8511],[-94.846,16.3532,6.0524],[-94.8508,16.352,0.0],[-94.8486,16.3515,0.9416]]],
[[[-94.8222,16.3642,13.1753],[-94.8205,16.3657,6.5407],[-94.8222,16.368,1.4088],[-94.8269,16.3659,0.5982],[-94.8254,16.3649,4.4699],[-94.8222,16.3642,13.1753]]],
[[[-95.0401,16.3161,0.0],[-95.0391,16.3193,0.0],[-95.0415,16.3224,1.2414],[-95.0684,16.3259,5.9885],[-95.0735,16.3316,5.953],[-95.0969,16.3068,9.126],[-95.1042,16.3068,9.3802],[-95.1076,16.3036,9.1299],[-95.1113,16.3057,9.9987],[-95.122,16.3071,12.0362],[-95.1184,16.3023,11.5741],[-95.1191,16.2926,11.4357],[-95.1243,16.2835,11.3391],[-95.1242,16.2779,15.5429],[-95.1216,16.2722,10.0183],[-95.1236,16.2651,7.0803],[-95.1176,16.2558,6.8864],[-95.1193,16.2453,4.5767],[-95.1167,16.2348,6.2137],[-95.1021,16.2333,4.0913],[-95.1055,16.2363,0.0],[-95.1052,16.2383,0.9071],[-95.0941,16.2457,0.6792],[-95.0913,16.2559,0.0],[-95.0866,16.2585,0.0],[-95.0829,16.2638,1.9234],[-95.0744,16.2663,0.0],[-95.0535,16.2639,0.0],[-95.042,16.2585,0.0],[-95.0223,16.2539,0.4464],[-94.9862,16.2413,0.0],[-94.9649,16.239,0.0],[-94.9097,16.2427,0.0],[-94.8975,16.2459,1.8164],[-94.8919,16.2451,0.0],[-94.8556,16.2559,2.7336],[-94.8497,16.2561,0.4244],[-94.8535,16.2569,0.4734],[-94.8559,16.2615,1.9954],[-94.8515,16.2649,4.1723],[-94.8598,16.2592,0.8364],[-94.8804,16.2514,0.8148],[-94.9077,16.2461,0.0],[-94.9318,16.2438,0.0],[-94.9723,16.2454,2.5633],[-95.0064,16.2508,1.2985],[-95.0393,16.2618,1.4709],[-95.0587,16.2728,0.0],[-95.0661,16.2806,0.541],[-95.0645,16.2882,0.0],[-95.0674,16.2959,0.9412],[-95.0653,16.3012,0.0],[-95.0565,16.3049,0.0],[-95.0551,16.3006,0.0],[-95.0473,16.3074,0.0],[-95.0465,16.3108,0.0],[-95.0486,16.3119,0.64],[-95.0401,16.3161,0.0]]],
[[[-94.9037,16.3369,8.5274],[-94.901,16.336,15.808],[-94.8997,16.3394,1.3826],[-94.8958,16.3412,0.0],[-94.8966,16.345,12.4448],[-94.8989,16.3462,0.0],[-94.8998,16.3428,23.06],[-94.906,16.3405,0.0],[-94.9037,16.3369,8.5274]]],
[[[-94.9174,16.3408,7.9026],[-94.916,16.3407,5.9732],[-94.9178,16.3426,2.5581],[-94.9198,16.3418,3.4558],[-94.9192,16.3409,3.4558],[-94.9174,16.3408,7.9026]]],
[[[-94.8691,16.3511,14.5645],[-94.8729,16.3509,2.2362],[-94.8795,16.3535,6.216],[-94.8822,16.3516,0.0],[-94.8821,16.349,0.0],[-94.8737,16.338,0.0],[-94.8757,16.3469,25.0057],[-94.8727,16.3491,5.3303],[-94.869,16.3471,22.0466],[-94.8533,16.3453,0.0],[-94.8539,16.3473,0.0],[-94.8596,16.3507,0.0],[-94.8635,16.3508,27.1389],[-94.8655,16.3525,0.0],[-94.8691,16.3511,14.5645]]],
[[[-94.8692,16.3781,0.0],[-94.8643,16.3796,2.3961],[-94.8643,16.3829,22.0621],[-94.8659,16.3834,11.9562],[-94.8692,16.3781,0.0]]],
[[[-94.9795,16.5283,23.1051],[-94.9738,16.5179,20.6471],[-94.9686,16.5154,19.1877],[-94.9892,16.4779,25.4039],[-94.9955,16.4808,25.0581],[-94.9994,16.4808,27.706],[-94.9993,16.4765,26.1925],[-95.0075,16.477,27.4974],[-95.0075,16.478,27.1235],[-95.0114,16.478,25.8053],[-95.0149,16.4836,28.288],[-95.024,16.4808,30.1661],[-95.0235,16.4727,26.5715],[-95.0447,16.4591,27.6719],[-95.0381,16.4549,24.6456],[-95.0353,16.4497,23.4615],[-95.0402,16.4497,22.8371],[-95.0399,16.432,18.6908],[-95.1006,16.4017,14.2043],[-95.1019,16.3979,15.6013],[-95.0916,16.3883,12.4708],[-95.0956,16.3798,11.1064],[-95.0886,16.3679,11.8786],[-95.083,16.367,13.5351],[-95.0636,16.3683,7.6599],[-95.0636,16.401,16.1814],[-95.0623,16.403,15.0168],[-95.0569,16.4084,15.4526],[-95.047,16.412,15.3682],[-95.045,16.4113,15.1321],[-95.0478,16.404,14.2572],[-95.0461,16.4031,14.6385],[-95.0448,16.4063,14.6001],[-95.0402,16.4092,15.2295],[-95.0269,16.405,14.6418],[-95.0274,16.4092,16.9991],[-95.0249,16.4127,17.1449],[-95.0246,16.4176,18.7873],[-95.022,16.4173,18.6928],[-95.0204,16.4203,18.2276],[-95.0188,16.4155,16.8913],[-95.0149,16.4163,15.6708],[-95.0144,16.4125,16.3275],[-95.0041,16.403,13.9918],[-95.0034,16.3947,16.3629],[-95.0015,16.3943,14.8119],[-95.0017,16.3862,12.7017],[-94.9947,16.3778,7.9168],[-94.9767,16.3711,7.4838],[-94.9767,16.3695,7.1743],[-94.9713,16.366,6.3974],[-94.9658,16.3665,5.7943],[-94.9639,16.3686,4.484],[-94.9595,16.3664,0.0],[-94.9597,16.3708,3.6839],[-94.955,16.3841,2.2154],[-94.9367,16.4014,0.0],[-94.9308,16.4128,0.0],[-94.9243,16.4191,0.0],[-94.9155,16.4221,0.0],[-94.8956,16.4254,0.0],[-94.8888,16.4251,0.0],[-94.8832,16.4221,0.0],[-94.8842,16.4289,0.4038],[-94.8779,16.4404,1.7236],[-94.878,16.4497,2.18],[-94.8764,16.4462,3.5362],[-94.8772,16.4407,3.0852],[-94.8822,16.4302,0.0],[-94.8828,16.4252,0.0],[-94.8759,16.4298,0.0],[-94.8662,16.4326,0.0],[-94.844,16.4307,2.8471],[-94.8398,16.4261,1.0894],[-94.8412,16.4132,0.0],[-94.8362,16.404,0.0],[-94.8366,16.4072,0.0],[-94.8348,16.4084,0.0],[-94.8259,16.4078,0.0],[-94.823,16.4057,0.0],[-94.8203,16.4079,0.4652],[-94.8132,16.4048,0.3568],[-94.8096,16.4082,0.3063],[-94.8102,16.4135,2.2357],[-94.8065,16.4163,2.1555],[-94.8074,16.4195,2.6664],[-94.8046,16.4246,2.0274],[-94.8064,16.4299,2.1986],[-94.8024,16.4389,4.4956],[-94.7978,16.4395,4.1255],[-94.7982,16.443,2.5187],[-94.7928,16.4455,4.444],[-94.7877,16.4444,2.8681],[-94.8247,16.4682,9.9901],[-94.8255,16.4643,10.7589],[-94.8292,16.4629,10.1562],[-94.8264,16.462,8.8859],[-94.8255,16.459,9.0694],[-94.8363,16.4593,6.6805],[-94.8377,16.4578,6.2397],[-94.8362,16.4414,4.0051],[-94.8385,16.4406,4.0376],[-94.8698,16.4632,5.5526],[-94.8867,16.4596,3.8753],[-94.887,16.4647,5.1703],[-94.8922,16.4721,7.2171],[-94.8927,16.4776,7.2595],[-94.8982,16.482,7.3679],[-94.8979,16.4872,7.1095],[-94.904,16.4964,10.0412],[-94.903,16.5182,11.3895],[-94.9015,16.521,11.3876],[-94.8954,16.5235,12.9713],[-94.893,16.5266,14.4811],[-94.882,16.5261,14.3738],[-94.88,16.5245,16.237],[-94.8735,16.5329,15.7418],[-94.8638,16.5291,14.9792],[-94.872,16.516,13.236],[-94.8723,16.5089,12.3572],[-94.8686,16.5082,10.8409],[-94.8662,16.5111,12.1351],[-94.8646,16.5106,12.9488],[-94.8579,16.519,15.7853],[-94.8532,16.518,13.3561],[-94.8526,16.5157,14.5478],[-94.8494,16.5154,13.5253],[-94.8385,16.5196,15.5851],[-94.8376,16.5237,16.1769],[-94.8393,16.5339,18.9091],[-94.8267,16.5268,21.9611],[-94.8225,16.5271,19.5197],[-94.8144,16.5193,16.4788],[-94.812,16.5356,22.2184],[-94.8041,16.5631,29.6311],[-94.8033,16.571,31.7333],[-94.8063,16.5929,43.1351],[-94.7951,16.6087,56.7678],[-94.800299999999993,16.6093,60.8853],[-94.7981,16.6158,79.7232],[-94.8343,16.619,268.6069],[-94.8575,16.6163,446.4039],[-94.8766,16.6093,338.5739],[-94.8764,16.5764,28.0469],[-94.882,16.5808,29.9728],[-94.8861,16.5819,27.8009],[-94.8948,16.5803,28.2199],[-94.914,16.5907,45.3118],[-94.9186,16.5914,38.0192],[-94.9193,16.5882,35.3492],[-94.9288,16.5828,36.1468],[-94.9296,16.5785,35.509],[-94.9531,16.5827,41.5595],[-94.9536,16.5708,40.2294],[-94.9696,16.5683,40.157],[-94.9744,16.5622,39.797],[-94.9729,16.5587,38.8076],[-94.9761,16.5545,38.1232],[-94.9731,16.5489,34.0618],[-94.9694,16.546,29.0832],[-94.9692,16.5386,24.7316],[-94.9795,16.5283,23.1051]]]]}}