{"type":"Feature","properties":{"GID_2":"MEX.30.152_2","GID_0":"MEX","country":"México","GID_1":"MEX.30_1","province":"Veracruz","NL_NAME_1":"NA","county":"Soconusco","VARNAME_2":"NA","NL_NAME_2":"NA","TYPE_2":"Município","ENGTYPE_2":"Municipality","CC_2":"NA","HASC_2":"NA","name":"Soconusco.county"},
"geometry":{"type": "MultiPolygon","coordinates": [[[[-94.8905,17.9525,60.6108],[-94.851,17.9556,46.0212],[-94.8508,17.9585,43.8199],[-94.8407,17.9622,43.6106],[-94.8351,17.9672,39.6085],[-94.8286,17.9652,49.4789],[-94.8212,17.9733,47.4025],[-94.8156,17.9729,41.0014],[-94.8142,17.968,48.0592],[-94.7966,17.9785,31.5397],[-94.7934,17.9778,28.9468],[-94.7875,17.983,29.6492],[-94.7818,17.9853,23.7264],[-94.7805,17.9908,25.7086],[-94.782,17.9941,26.9481],[-94.7813,17.9996,25.0048],[-94.7718,18.0007,22.066],[-94.7627,17.9969,21.0133],[-94.7629,18.0022,22.49],[-94.7616,18.0031,20.2954],[-94.7658,18.006,21.6392],[-94.7644,18.0065,21.6392],[-94.7642,18.0092,26.6874],[-94.7623,18.0088,26.6874],[-94.7643,18.01,22.248],[-94.7637,18.0128,32.0402],[-94.7649,18.0127,23.6695],[-94.7657,18.016,25.0164],[-94.7644,18.016,25.0164],[-94.7633,18.0194,30.6865],[-94.766,18.0206,23.8886],[-94.7698,18.0268,26.3781],[-94.7761,18.0255,26.9659],[-94.7779,18.0268,28.5938],[-94.7782,18.025,36.434],[-94.7821,18.0233,58.3864],[-94.7825,18.0249,39.221],[-94.7846,18.0236,38.745],[-94.788,18.026,30.2742],[-94.7882,18.0246,30.0644],[-94.7913,18.0251,32.0751],[-94.7903,18.0264,31.4512],[-94.7939,18.0282,35.0847],[-94.7919,18.0282,33.4057],[-94.7951,18.0298,34.579],[-94.7944,18.0307,34.1343],[-94.7964,18.0317,35.3099],[-94.7953,18.0324,35.1145],[-94.8,18.0354,36.9341],[-94.8018,18.0387,49.4564],[-94.800299999999993,18.0401,42.2876],[-94.8011,18.0416,46.4888],[-94.8017,18.0398,40.7279],[-94.8043,18.0397,45.4822],[-94.8041,18.0424,41.585],[-94.8082,18.0411,40.4344],[-94.8084,18.043,38.1028],[-94.8124,18.0445,39.9368],[-94.814,18.0421,40.0717],[-94.8165,18.0427,40.7851],[-94.8182,18.0414,52.784],[-94.8196,18.0433,41.0987],[-94.8122,18.0509,57.0244],[-94.8162,18.0531,59.1342],[-94.8205,18.0611,44.3966],[-94.8275,18.0588,43.738],[-94.8389,18.0603,54.0218],[-94.8494,18.0537,68.5891],[-94.8513,18.0559,64.5337],[-94.8558,18.0559,70.8067],[-94.8598,18.0526,53.7771],[-94.8597,18.0507,53.7214],[-94.8571,18.0494,51.9358],[-94.8574,18.0426,52.0885],[-94.8545,18.0397,61.5724],[-94.8682,18.0419,76.7897],[-94.872,18.035,63.591],[-94.8701,18.03,58.8736],[-94.8646,18.0273,66.3739],[-94.8643,18.0211,58.4554],[-94.8622,18.0199,54.326],[-94.8561,18.0091,50.5684],[-94.856,18.0053,48.4258],[-94.8528,18.005,47.9588],[-94.8501,18.0017,46.2524],[-94.8502,17.9931,42.7131],[-94.8534,17.9938,46.0087],[-94.8538,17.9919,44.0428],[-94.8618,17.9946,45.0267],[-94.8659,17.9937,44.3046],[-94.8723,17.987,47.5744],[-94.8809,17.9935,65.9725],[-94.8851,17.9952,63.4626],[-94.8906,17.9949,77.0429],[-94.8941,17.9986,102.9533],[-94.8957,17.9973,102.9533],[-94.895,17.9918,85.9254],[-94.8997,17.9795,88.3957],[-94.8992,17.9715,92.2277],[-94.9119,17.9713,82.0294],[-94.9075,17.9589,90.8264],[-94.8999,17.9571,71.7974],[-94.8985,17.9594,78.2368],[-94.8943,17.9547,71.5636],[-94.8907,17.9541,68.9815],[-94.8905,17.9525,60.6108]]]]}}