{"type": "Feature","bbox": [-97.6321,17.312,-97.5799,17.3732],"geometry": {"type": "MultiPolygon","coordinates": [[[[-97.5854,17.3196,2522.0454],[-97.591,17.3277,2358.8271],[-97.586,17.3299,2246.0115],[-97.5799,17.3381,2136.1101],[-97.5807,17.3588,2146.0217],[-97.5897,17.3683,2233.0974],[-97.6012,17.3732,2331.6013],[-97.6048,17.3653,2383.0918],[-97.6118,17.3624,2366.3506],[-97.6194,17.3628,2309.1091],[-97.6212,17.3668,2307.092],[-97.6259,17.3692,2233.2739],[-97.6321,17.3474,2492.0337],[-97.6321,17.3391,2287.9116],[-97.6288,17.3308,2260.5593],[-97.6244,17.3326,2278.4048],[-97.6218,17.3316,2293.4797],[-97.6154,17.3236,2357.1738],[-97.6146,17.3198,2310.8337],[-97.6166,17.3125,2237.106],[-97.6113,17.312,2295.1523],[-97.6065,17.3167,2281.231],[-97.5854,17.3196,2522.0454]]]]}
,"properties": {"GID_2": "MEX.20.410_2","GID_0": "MEX","country": "México","GID_1": "MEX.20_1","province": "Oaxaca","NL_NAME_1": "NA","county": "SantaMaríadelRosario","VARNAME_2": "NA","NL_NAME_2": "NA","TYPE_2": "Município","ENGTYPE_2": "Municipality","CC_2": "NA","HASC_2": "NA","name": "Santa_Maríadel_Rosario.county","area_km2": 25.54061,"hist_schema_id": "Elevation0-9000","hist_area_km2": {"2125": 0.06071,"2150": 0.66784,"2175": 0.89045,"2200": 1.07258,"2225": 1.45712,"2250": 1.67974,"2275": 2.65123,"2300": 2.77264,"2325": 3.2584,"2350": 3.42033,"2375": 3.25837,"2400": 1.82143,"2425": 1.19406,"2450": 0.66785,"2475": 0.40476,"2500": 0.12143,"2525": 0.10119,"2550": 0.04048}}}