{"type": "Feature","bbox": [-102.5005,19.173,-102.193,19.5341],"geometry": {"type": "MultiPolygon","coordinates": [[[[-102.2115,19.2155,975.4878],[-102.2038,19.2202,1006.7018],[-102.2029,19.2294,1083.9209],[-102.1968,19.2306,1065.9373],[-102.1962,19.2342,1066.4761],[-102.1941,19.2349,1019.6917],[-102.1942,19.24,1028.2087],[-102.1967,19.2429,1038.7644],[-102.196,19.2512,1037.0968],[-102.194,19.2526,1084.5168],[-102.1942,19.263,1152.4578],[-102.193,19.2649,1155.1692],[-102.1948,19.2751,1111.9556],[-102.1998,19.2806,1139.5287],[-102.1992,19.2835,1142.9124],[-102.2027,19.2858,1193.6053],[-102.2029,19.2881,1257.884],[-102.2059,19.2882,1213.1742],[-102.2049,19.2936,1259.4692],[-102.2124,19.2947,1295.6243],[-102.217,19.3056,1412.3011],[-102.2202,19.3056,1408.3513],[-102.2207,19.3126,1407.0608],[-102.2236,19.3127,1450.2264],[-102.2288,19.3183,1478.3025],[-102.2281,19.321,1546.5364],[-102.2323,19.321,1578.8799],[-102.2325,19.3227,1609.5358],[-102.2356,19.3232,1612.0948],[-102.2338,19.3311,1648.2189],[-102.2378,19.3426,1805.3722],[-102.2405,19.3442,1817.985],[-102.2503,19.3565,1979.3413],[-102.254,19.3579,2036.7529],[-102.2584,19.3635,2139.6799],[-102.2624,19.3656,2234.6555],[-102.2634,19.3848,2596.186],[-102.2617,19.3899,2817.8506],[-102.2607,19.4076,3128.9756],[-102.2651,19.4059,2837.2585],[-102.267,19.4066,2853.3027],[-102.2686,19.4201,2922.4109],[-102.2729,19.4241,2994.7529],[-102.2726,19.4265,3003.3694],[-102.276,19.4291,3070.219],[-102.282,19.4395,3247.4905],[-102.2746,19.4565,3193.6506],[-102.2676,19.4588,3033.0781],[-102.2587,19.4677,2743.0037],[-102.2579,19.4755,2670.1182],[-102.261,19.4797,2596.1826],[-102.2518,19.4933,2758.7437],[-102.2657,19.498,2614.0298],[-102.2766,19.5075,2484.9858],[-102.3283,19.5066,2206.0896],[-102.3316,19.5105,2150.0564],[-102.3314,19.5174,2096.5955],[-102.3287,19.5253,2055.3987],[-102.3295,19.5291,2022.6029],[-102.3335,19.5341,2026.509],[-102.3404,19.5325,1960.5627],[-102.3366,19.523,2070.0281],[-102.3367,19.5175,2105.6602],[-102.3426,19.5076,2283.9768],[-102.3444,19.5072,2207.2512],[-102.3473,19.5004,2160.0312],[-102.3566,19.502,2075.0374],[-102.3544,19.4994,2095.7686],[-102.3558,19.4953,2107.6458],[-102.3506,19.4889,2177.6562],[-102.3476,19.4875,2188.4004],[-102.3472,19.4848,2225.1392],[-102.338,19.4742,2390.4836],[-102.3385,19.4713,2419.5637],[-102.3349,19.4653,2519.1853],[-102.3439,19.4601,2618.8716],[-102.3444,19.4573,2624.9663],[-102.343,19.4424,3074.0652],[-102.3394,19.4381,3159.8574],[-102.3359,19.4293,3315.3813],[-102.3415,19.429,3442.061],[-102.3531,19.4315,2909.6125],[-102.362,19.4382,2714.4924],[-102.362,19.4414,2630.9709],[-102.37,19.4398,2515.2944],[-102.3863,19.4442,2302.9995],[-102.3937,19.4494,2235.5789],[-102.3984,19.4501,2194.6384],[-102.4162,19.4468,2012.8159],[-102.4191,19.4424,1995.2465],[-102.417,19.4387,2063.2891],[-102.4219,19.4423,1970.4617],[-102.4239,19.4406,1953.5746],[-102.4278,19.4404,1880.677],[-102.4353,19.4345,1846.5507],[-102.4399,19.438,1798.4846],[-102.4425,19.4347,1769.8115],[-102.4457,19.4357,1752.5339],[-102.451,19.4249,1847.6099],[-102.4634,19.4199,1726.6711],[-102.4663,19.4174,1702.2383],[-102.4713,19.4179,1605.6229],[-102.4831,19.4092,1542.4244],[-102.4793,19.4063,1500.2045],[-102.4808,19.4024,1486.8],[-102.4801,19.394,1449.3848],[-102.4856,19.3849,1390.2225],[-102.4857,19.3823,1356.8584],[-102.4915,19.3794,1285.2705],[-102.5002,19.3695,1169.4661],[-102.4999,19.3677,1166.27],[-102.4959,19.3669,1174.0394],[-102.4957,19.3584,1171.6072],[-102.4914,19.3533,1172.8708],[-102.4919,19.3489,1152.667],[-102.5005,19.3426,1050.118],[-102.4971,19.3415,1065.6129],[-102.4931,19.3434,1085.1445],[-102.4919,19.341,1101.4692],[-102.4996,19.3374,1046.4884],[-102.4912,19.335,1120.3518],[-102.4857,19.3313,1177.6261],[-102.4829,19.3315,1193.6226],[-102.4763,19.3266,1294.6322],[-102.4651,19.3233,1432.8833],[-102.4675,19.3214,1404.2295],[-102.4665,19.3195,1419.4388],[-102.4675,19.3132,1446.7059],[-102.4695,19.311,1426.3827],[-102.4685,19.3082,1424.7368],[-102.473,19.2935,1529.9967],[-102.4675,19.2816,1392.568],[-102.4567,19.2761,1519.7871],[-102.4563,19.2728,1547.8635],[-102.453,19.2713,1555.2422],[-102.4522,19.2585,1767.7643],[-102.4559,19.2531,1775.9526],[-102.4564,19.2458,1750.9512],[-102.443,19.2374,1410.5253],[-102.4389,19.2253,1202.1724],[-102.4385,19.2206,1161.8438],[-102.4405,19.2141,1046.5665],[-102.4271,19.214,1278.2334],[-102.4113,19.2017,1175.5903],[-102.4156,19.1934,1055.679],[-102.4162,19.1878,973.8712],[-102.4132,19.1799,827.1941],[-102.3931,19.173,1058.9078],[-102.3871,19.1824,1128.0063],[-102.3868,19.1856,1153.1465],[-102.3675,19.1829,1461.2615],[-102.3527,19.1958,1558.2812],[-102.3429,19.2132,1815.4891],[-102.3337,19.219,1733.3236],[-102.3258,19.2189,1605.1292],[-102.322,19.2169,1543.4836],[-102.3141,19.2044,1416.603],[-102.3146,19.2006,1394.5463],[-102.3121,19.201,1395.6945],[-102.3077,19.2066,1398.3621],[-102.3002,19.208,1414.3784],[-102.2916,19.1988,1481.4723],[-102.2813,19.2011,1614.8252],[-102.253,19.228,1625.4833],[-102.248,19.225,1560.2542],[-102.2398,19.2159,1395.1389],[-102.2328,19.2135,1284.3003],[-102.2269,19.2136,1204.986],[-102.2239,19.2155,1178.8335],[-102.221,19.2135,1089.1385],[-102.2169,19.2134,1013.0063],[-102.2115,19.2155,975.4878]]]]}
,"properties": {"GID_2": "MEX.16.84_2","GID_0": "MEX","country": "México","GID_1": "MEX.16_1","province": "Michoacán","NL_NAME_1": "NA","county": "Tancítaro","VARNAME_2": "NA","NL_NAME_2": "NA","TYPE_2": "Município","ENGTYPE_2": "Municipality","CC_2": "NA","HASC_2": "NA","name": "Tancítaro.county","area_km2": 716.5441,"hist_schema_id": "Elevation0-9000","hist_area_km2": {"850": 0.0601,"875": 0.3204,"900": 0.4005,"925": 0.3204,"950": 0.3604,"975": 0.841,"1000": 0.9611,"1025": 0.9411,"1050": 1.1011,"1075": 1.8418,"1100": 2.1619,"1125": 2.6423,"1150": 3.5026,"1175": 3.2423,"1200": 3.8828,"1225": 4.5433,"1250": 4.543,"1275": 4.5831,"1300": 4.6833,"1325": 5.1236,"1350": 5.2635,"1375": 5.8236,"1400": 7.2045,"1425": 8.446,"1450": 9.4863,"1475": 8.6856,"1500": 9.8466,"1525": 11.6075,"1550": 15.0107,"1575": 15.1904,"1600": 14.5298,"1625": 15.1302,"1650": 17.3323,"1675": 16.011,"1700": 16.311,"1725": 14.2697,"1750": 14.4294,"1775": 14.3091,"1800": 15.0098,"1825": 15.8095,"1850": 14.8883,"1875": 15.4877,"1900": 13.8073,"1925": 14.767,"1950": 21.1303,"1975": 21.1095,"2000": 21.9887,"2025": 18.847,"2050": 16.0247,"2075": 14.644,"2100": 13.1027,"2125": 10.7814,"2150": 9.6408,"2175": 8.4603,"2200": 7.04,"2225": 7.2799,"2250": 7.2996,"2275": 7.4993,"2300": 7.3992,"2325": 6.6593,"2350": 6.1994,"2375": 6.1394,"2400": 5.4992,"2425": 5.179,"2450": 5.2386,"2475": 4.7988,"2500": 4.4189,"2525": 4.3791,"2550": 3.7993,"2575": 5.1584,"2600": 4.6785,"2625": 4.9786,"2650": 3.4792,"2675": 3.6389,"2700": 3.639,"2725": 3.5392,"2750": 3.3193,"2775": 2.8194,"2800": 3.4191,"2825": 3.2993,"2850": 2.4795,"2875": 2.6594,"2900": 2.9993,"2925": 2.8394,"2950": 2.8194,"2975": 3.0793,"3000": 2.6995,"3025": 2.6795,"3050": 2.4795,"3075": 2.3795,"3100": 2.1796,"3125": 2.4395,"3150": 2.3795,"3175": 2.6794,"3200": 2.4994,"3225": 2.3395,"3250": 2.4194,"3275": 2.4595,"3300": 2.2195,"3325": 2.0795,"3350": 2.1195,"3375": 1.8796,"3400": 1.8596,"3425": 1.8996,"3450": 1.9596,"3475": 1.4197,"3500": 2.2595,"3525": 1.8196,"3550": 1.7396,"3575": 1.3997,"3600": 1.1998,"3625": 1.1798,"3650": 1.1798,"3675": 0.6999,"3700": 0.7399,"3725": 0.4999,"3750": 0.3599,"3775": 0.14,"3800": 0.12,"3825": 0.02}}}