{"type": "Feature","bbox": [-98.8707,17.9332,-98.5518,18.1232],"geometry": {"type": "MultiPolygon","coordinates": [[[[-98.8698,18.0572,1889.1826],[-98.8307,18.0644,652.5771],[-98.8219,18.0631,666.9582],[-98.8168,18.0652,647.7993],[-98.8123,18.0636,719.8811],[-98.8141,18.0564,963.1554],[-98.8113,18.0506,1233.5641],[-98.8063,18.0542,1073.6979],[-98.800299999999993,18.0531,875.705],[-98.7971,18.0626,674.7065],[-98.7919,18.0608,682.6385],[-98.7911,18.0585,671.5388],[-98.7851,18.0593,684.1682],[-98.779,18.057,723.8773],[-98.7726,18.0489,691.4921],[-98.7642,18.0503,683.0335],[-98.7591,18.0447,696.1617],[-98.7555,18.0472,735.1648],[-98.7509,18.0458,701.1251],[-98.7465,18.0466,692.3021],[-98.7435,18.0444,691.4276],[-98.7357,18.0456,737.7559],[-98.7379,18.04,764.9027],[-98.7402,18.0401,820.1921],[-98.7413,18.0376,788.6174],[-98.744,18.0369,851.2243],[-98.7441,18.0333,859.8754],[-98.7557,18.0266,946.114],[-98.7588,18.0274,979.4536],[-98.7623,18.0243,958.3222],[-98.7643,18.0252,967.9521],[-98.766,18.0226,1017.9307],[-98.7642,18.0218,1034.8802],[-98.7671,18.0196,1045.8226],[-98.7778,18.0196,1093.819],[-98.7819,18.0214,1099.3472],[-98.7857,18.0206,1143.0535],[-98.7941,18.024,1160.2386],[-98.8013,18.0221,1229.9393],[-98.8066,18.0168,1223.7921],[-98.8059,18.0151,1227.9086],[-98.8087,18.0152,1238.9189],[-98.8091,18.0134,1255.0471],[-98.8109,18.0138,1268.4275],[-98.8131,18.0115,1281.424],[-98.8128,18.0095,1290.2272],[-98.8161,18.0072,1328.3711],[-98.8159,18.003,1409.5852],[-98.8136,18.0009,1506.1185],[-98.811,18.0008,1528.0312],[-98.808,18.003,1535.2355],[-98.8017,18.003,1462.2802],[-98.7669,17.9893,1039.5068],[-98.7626,17.9909,988.2371],[-98.7588,17.9908,968.5067],[-98.7585,17.9896,975.7597],[-98.7546,17.9907,978.5848],[-98.7548,17.9871,915.0043],[-98.7507,17.9868,891.2043],[-98.7498,17.9835,896.8553],[-98.7481,17.9841,875.6515],[-98.7489,17.9857,896.0986],[-98.746,17.9861,891.9058],[-98.7353,17.9818,887.8274],[-98.7318,17.9826,895.7388],[-98.717,17.9736,941.404],[-98.7134,17.9666,1043.9517],[-98.712,17.9692,1002.5212],[-98.7088,17.9675,975.192],[-98.7071,17.9656,959.6376],[-98.7095,17.9595,924.7054],[-98.7059,17.9556,858.9241],[-98.7001,17.9545,792.1],[-98.6984,17.9561,808.1521],[-98.6991,17.9573,834.8919],[-98.698,17.9566,808.1521],[-98.6952,17.9594,802.4406],[-98.6933,17.9592,748.7794],[-98.6929,17.9609,735.039],[-98.6881,17.9619,729.0665],[-98.6851,17.9559,747.3489],[-98.6825,17.9563,750.189],[-98.6731,17.9503,753.8429],[-98.6744,17.9459,760.616],[-98.673,17.9433,763.4006],[-98.6662,17.9448,772.6808],[-98.662,17.9432,784.322],[-98.6567,17.9403,781.5773],[-98.654,17.9364,790.5253],[-98.6512,17.9362,887.7885],[-98.6522,17.9338,811.09],[-98.6505,17.9332,786.7695],[-98.6477,17.9348,780.8449],[-98.6446,17.9336,806.8304],[-98.643,17.9353,919.3379],[-98.6403,17.9353,987.7421],[-98.6382,17.9395,1029.8276],[-98.633,17.9435,1078.8882],[-98.6261,17.9449,1191.0234],[-98.6272,17.9433,1238.2007],[-98.6257,17.9431,1247.0878],[-98.6235,17.9447,1275.245],[-98.6223,17.9439,1332.0444],[-98.6237,17.9418,1356.7236],[-98.6221,17.9417,1329.8365],[-98.6181,17.9468,1385.8167],[-98.6134,17.9499,1412.7986],[-98.6105,17.9581,1491.5016],[-98.6072,17.9584,1467.2123],[-98.6067,17.9602,1483.1821],[-98.5999,17.9611,1469.8718],[-98.5978,17.9632,1503.451],[-98.5958,17.9628,1460.9559],[-98.5963,17.9591,1474.4951],[-98.5945,17.9612,1509.7932],[-98.5932,17.9604,1477.0245],[-98.5952,17.9656,1581.5762],[-98.5879,17.9703,1548.7627],[-98.5885,17.972,1565.7147],[-98.586,17.9747,1608.4261],[-98.5846,17.9741,1603.61],[-98.5844,17.9779,1676.1055],[-98.5825,17.9805,1648.4097],[-98.5836,17.9826,1666.1676],[-98.5897,17.9836,1770.9841],[-98.5822,17.9903,1604.6042],[-98.5806,17.9949,1512.207],[-98.5817,17.9996,1457.0629],[-98.5912,17.9929,1502.2368],[-98.6024,17.9967,1444.8022],[-98.6085,17.9968,1333.4043],[-98.611,17.9935,1286.4518],[-98.6086,17.9874,1354.751],[-98.6104,17.9841,1367.6594],[-98.609,17.9798,1394.4292],[-98.6115,17.9737,1482.955],[-98.6096,17.9732,1513.5599],[-98.6115,17.9725,1482.955],[-98.6126,17.9733,1457.8276],[-98.6151,17.9711,1403.38],[-98.6137,17.9742,1507.5764],[-98.6167,17.976,1530.7152],[-98.6155,17.9771,1565.3071],[-98.6224,17.9802,1486.0621],[-98.6206,17.9848,1451.5464],[-98.6153,17.9856,1398.3789],[-98.6167,17.9912,1340.2783],[-98.614,17.9935,1281.7817],[-98.6189,17.9955,1373.9993],[-98.6158,18.0041,1266.6796],[-98.6185,18.0071,1209.1083],[-98.625,18.0077,1123.0723],[-98.6282,18.0136,1163.5468],[-98.627,18.0226,1035.7822],[-98.6196,18.0222,1162.1084],[-98.6212,18.0271,1134.1045],[-98.617,18.0244,1048.4297],[-98.6154,18.0289,951.6536],[-98.6163,18.031,995.1633],[-98.6139,18.0293,966.5322],[-98.6106,18.0297,981.4995],[-98.6069,18.0243,1081.4834],[-98.6029,18.0226,1163.6554],[-98.601,18.0237,1217.4625],[-98.596,18.0133,1352.208],[-98.5895,18.0095,1467.7833],[-98.5842,18.0131,1449.062],[-98.5813,18.0132,1433.6611],[-98.5807,18.0244,1431.4552],[-98.5741,18.0235,1367.9263],[-98.5712,18.0273,1331.9229],[-98.5632,18.0237,1245.3782],[-98.5621,18.0251,1284.2959],[-98.556,18.025,1224.8645],[-98.5551,18.0273,1217.9111],[-98.5568,18.0288,1235.6393],[-98.555,18.0286,1217.9111],[-98.555,18.0361,1322.5115],[-98.5523,18.0379,1332.9592],[-98.5539,18.0398,1305.3481],[-98.5518,18.0418,1245.394],[-98.5561,18.047,1191.0613],[-98.5549,18.0467,1191.0613],[-98.5554,18.0495,1096.7034],[-98.5638,18.0491,1047.674],[-98.5667,18.0524,1059.2863],[-98.5658,18.054,1053.1445],[-98.575,18.0529,1252.4747],[-98.5782,18.0504,1236.6818],[-98.5798,18.0458,1229.3656],[-98.5832,18.0447,1249.4167],[-98.5843,18.0458,1270.4983],[-98.5906,18.0408,1307.4242],[-98.5989,18.0418,1248.2031],[-98.5992,18.0395,1245.2449],[-98.6015,18.0405,1217.396],[-98.6065,18.0383,1225.5126],[-98.6116,18.0436,1270.7471],[-98.6185,18.0429,1238.8438],[-98.6246,18.05,1288.4969],[-98.631,18.051,1389.0542],[-98.6342,18.0481,1257.5288],[-98.6347,18.0455,1215.2708],[-98.6329,18.0428,1160.5151],[-98.636,18.0366,883.3004],[-98.647,18.0364,831.8578],[-98.6509,18.0408,832.9674],[-98.6544,18.0408,792.0457],[-98.6616,18.0444,799.1801],[-98.6614,18.0496,796.2246],[-98.6632,18.0483,790.2537],[-98.6656,18.0533,753.8334],[-98.663,18.055,742.655],[-98.6654,18.0571,736.2764],[-98.6658,18.0636,715.3909],[-98.6734,18.063,799.6273],[-98.6776,18.0542,828.1125],[-98.6772,18.0639,772.4183],[-98.6838,18.0718,832.4734],[-98.6957,18.0716,902.8022],[-98.6977,18.0765,820.2094],[-98.6951,18.0792,795.6071],[-98.6956,18.083,711.3746],[-98.6927,18.0873,706.4667],[-98.6953,18.0909,739.5385],[-98.6959,18.0992,701.4214],[-98.6995,18.1071,701.9637],[-98.7001,18.113,721.7136],[-98.704,18.1132,703.2026],[-98.7054,18.1067,693.4539],[-98.7069,18.1056,690.048],[-98.7142,18.1109,694.8642],[-98.7185,18.1185,687.6453],[-98.7245,18.1178,696.295],[-98.73,18.1148,700.5535],[-98.737,18.1155,697.1844],[-98.7418,18.113,687.6714],[-98.756,18.1232,683.5616],[-98.7671,18.1206,681.6801],[-98.7668,18.1177,687.4319],[-98.7704,18.1134,715.1736],[-98.7753,18.1132,705.6857],[-98.78,18.1097,733.3248],[-98.7863,18.1149,956.7067],[-98.7998,18.1172,1748.3993],[-98.8062,18.1225,1831.3573],[-98.8233,18.1183,1812.2437],[-98.83,18.1218,1565.4529],[-98.8305,18.1181,1656.8065],[-98.8286,18.1167,1670.64],[-98.8298,18.1145,1693.1138],[-98.8334,18.1127,1738.4822],[-98.8357,18.1087,1787.738],[-98.8485,18.1017,1827.6194],[-98.8602,18.0923,1881.9814],[-98.8707,18.0582,1889.1826],[-98.8698,18.0572,1889.1826]]]]}
,"properties": {"GID_2": "MEX.21.83_2","GID_0": "MEX","country": "México","GID_1": "MEX.21_1","province": "Puebla","NL_NAME_1": "NA","county": "IxcamilpadeGuerrero","VARNAME_2": "NA","NL_NAME_2": "NA","TYPE_2": "Município","ENGTYPE_2": "Municipality","CC_2": "NA","HASC_2": "NA","name": "Ixcamilpade_Guerrero.county","area_km2": 308.7789,"hist_schema_id": "Elevation0-9000","hist_area_km2": {"650": 1.1489,"675": 2.7814,"700": 8.0235,"725": 8.0236,"750": 7.7412,"775": 8.0033,"800": 11.1281,"825": 11.4709,"850": 13.0033,"875": 12.9428,"900": 13.0639,"925": 12.5203,"950": 13.6091,"975": 13.3671,"1000": 11.7538,"1025": 11.0482,"1050": 9.9393,"1075": 9.4148,"1100": 9.173,"1125": 9.1932,"1150": 8.6689,"1175": 8.427,"1200": 8.6288,"1225": 8.0241,"1250": 7.9032,"1275": 7.2985,"1300": 6.5929,"1325": 6.452,"1350": 5.424,"1375": 4.6174,"1400": 3.8111,"1425": 3.2263,"1450": 2.5609,"1475": 2.218,"1500": 2.0164,"1525": 1.3308,"1550": 1.0082,"1575": 0.9879,"1600": 0.7259,"1625": 0.9879,"1650": 0.9073,"1675": 0.9879,"1700": 1.2701,"1725": 1.1896,"1750": 1.3507,"1775": 1.6125,"1800": 1.6124,"1825": 1.5116,"1850": 1.4309,"1875": 1.4914,"1900": 1.6123,"1925": 1.5115,"1950": 1.431,"1975": 0.8062,"2000": 0.7054,"2025": 0.4031,"2050": 0.262,"2075": 0.3225,"2100": 0.1008}}}