{"type":"Feature","properties":{"GID_2":"MEX.23.10_2","GID_0":"MEX","country":"México","GID_1":"MEX.23_1","province":"QuintanaRoo","NL_NAME_1":"NA","county":"Tulum","VARNAME_2":"NA","NL_NAME_2":"NA","TYPE_2":"Município","ENGTYPE_2":"Municipality","CC_2":"NA","HASC_2":"NA","name":"Tulum.county"},
"geometry":{"type": "MultiPolygon","coordinates": [[[[-87.5,20.0288,-0.4786],[-87.5,19.8073,0.6896],[-87.4975,19.8072,0.2716],[-87.4943,19.8111,0.5987],[-87.4908,19.8244,0.2545],[-87.4874,19.8248,0.0],[-87.4863,19.8269,0.1682],[-87.4886,19.8291,0.1677],[-87.4876,19.8331,0.0],[-87.4845,19.8373,0.8538],[-87.4798,19.84,0.0882],[-87.4778,19.8491,0.0689],[-87.4739,19.8561,0.3602],[-87.4647,19.8612,0.1775],[-87.4619,19.8611,0.1019],[-87.4595,19.8585,0.0],[-87.4596,19.8677,0.273],[-87.4553,19.8744,-0.1993],[-87.4567,19.8811,0.143],[-87.454,19.8854,0.1486],[-87.4507,19.8856,0.032],[-87.4475,19.8902,0.0],[-87.45,19.8907,0.0],[-87.4574,19.8872,-0.0457],[-87.4608,19.8807,0.079],[-87.4581,19.8736,0.0379],[-87.4611,19.871,0.0656],[-87.461,19.866,0.1437],[-87.4634,19.8651,-0.5446],[-87.4643,19.8663,0.3629],[-87.462,19.8732,-0.7535],[-87.4651,19.8716,-0.2062],[-87.4678,19.873,0.0427],[-87.4597,19.8882,0.0179],[-87.4599,19.8913,0.05],[-87.4622,19.8918,-0.071],[-87.4642,19.8947,-0.5926],[-87.4649,19.9022,0.1037],[-87.4632,19.9089,0.355],[-87.4578,19.9171,0.2276],[-87.4594,19.9177,0.0],[-87.4593,19.9158,0.0],[-87.4609,19.9153,0.567],[-87.4637,19.918,0.374],[-87.4662,19.9255,0.1663],[-87.465,19.9283,0.0457],[-87.4735,19.9381,1.4875],[-87.472,19.9436,0.9823],[-87.4671,19.9455,1.2373],[-87.4577,19.9383,0.7024],[-87.4559,19.9299,0.216],[-87.4601,19.9269,0.1573],[-87.4577,19.9241,0.1006],[-87.4502,19.9216,0.5673],[-87.4397,19.911,0.5537],[-87.4374,19.9104,0.0],[-87.4383,19.9141,1.0767],[-87.4362,19.9121,0.1533],[-87.4365,19.9149,0.1883],[-87.4353,19.9152,0.1883],[-87.433,19.9093,0.0],[-87.4312,19.8953,0.6193],[-87.4313,19.8871,1.1203],[-87.4385,19.8874,0.0],[-87.438,19.8855,0.0686],[-87.4375,19.8866,0.0686],[-87.4334,19.8861,0.2534],[-87.4419,19.8754,1.2267],[-87.4385,19.8664,5.1242],[-87.4492,19.8496,0.0],[-87.4487,19.8466,5.7458],[-87.452,19.837,3.0588],[-87.4653,19.8367,0.6548],[-87.4662,19.8378,0.0],[-87.4725,19.8307,0.5175],[-87.4726,19.8326,0.7325],[-87.4695,19.8353,1.4006],[-87.47,19.8365,0.3237],[-87.4759,19.8316,0.2766],[-87.4752,19.8289,0.9898],[-87.4765,19.8279,0.2206],[-87.4742,19.827,0.6468],[-87.4746,19.8259,0.6468],[-87.4725,19.8261,1.3795],[-87.475,19.8245,0.3771],[-87.4742,19.8215,1.008],[-87.476,19.82,0.2854],[-87.4782,19.8123,0.0],[-87.4827,19.8106,0.3869],[-87.4809,19.8089,0.4945],[-87.481,19.8034,0.73],[-87.4873,19.8009,0.7315],[-87.4853,19.7955,0.5046],[-87.4859,19.7868,0.3593],[-87.4756,19.784,1.7601],[-87.4757,19.7815,0.9196],[-87.4809,19.781,0.0],[-87.4762,19.7774,2.8149],[-87.4711,19.7793,2.8452],[-87.4687,19.783,0.0],[-87.4769,19.8036,0.0],[-87.4771,19.8087,0.0],[-87.4739,19.8188,3.4796],[-87.4673,19.8287,0.0],[-87.4599,19.8331,1.5823],[-87.4525,19.8344,0.0],[-87.4489,19.8392,0.0],[-87.4437,19.8554,6.5199],[-87.4382,19.8636,0.7865],[-87.4356,19.8653,0.9438],[-87.4369,19.8707,6.5509],[-87.4301,19.886,0.0],[-87.4308,19.8969,0.4817],[-87.4328,19.9108,1.0741],[-87.4375,19.9298,1.7172],[-87.4407,19.9307,0.0],[-87.4461,19.9288,0.0],[-87.4514,19.9315,1.9118],[-87.4556,19.9386,3.3181],[-87.4579,19.9478,0.7294],[-87.4637,19.9544,5.0911],[-87.4652,19.9583,0.8218],[-87.465,19.9667,0.0],[-87.4673,19.9711,0.0],[-87.4684,19.9805,2.3425],[-87.4641,19.9858,2.6033],[-87.4649,19.994,0.1389],[-87.4694,19.992,1.3487],[-87.4727,19.9932,0.4267],[-87.4763,19.999,2.0587],[-87.4774,20.0049,0.0],[-87.4806,20.0073,0.8698],[-87.4837,20.0015,-0.377],[-87.4822,19.9993,-1.5],[-87.4835,19.9958,-0.9576],[-87.4778,19.9982,-0.5263],[-87.4731,19.9927,0.4267],[-87.468,19.9898,-0.1646],[-87.4721,19.9845,-1.5],[-87.468,19.9663,1.2323],[-87.469,19.957,3.7496],[-87.4731,19.9572,-1.5],[-87.476,19.955,0.4858],[-87.4852,19.9566,-0.5512],[-87.4894,19.9599,0.0258],[-87.4897,19.9732,-0.44],[-87.4866,19.9757,-0.1946],[-87.4844,19.9754,-1.5],[-87.4838,19.9818,-1.5],[-87.4798,19.9848,-0.6376],[-87.4719,19.9856,1.577],[-87.4732,19.9881,-0.8976],[-87.4788,19.9888,-0.8561],[-87.4804,19.9914,0.2759],[-87.4833,19.9915,0.973],[-87.4841,19.994,-1.0448],[-87.4887,19.996,0.24],[-87.4882,19.9988,0.1565],[-87.4907,20.0033,0.6502],[-87.4916,20.0101,-1.5],[-87.4959,20.011,-1.5],[-87.497,20.0154,-0.3912],[-87.4965,20.0217,-0.0181],[-87.4912,20.0293,-1.2081],[-87.4968,20.0265,-0.4989],[-87.5,20.0288,-0.4786]]],
[[[-87.489,20.0307,-1.5],[-87.4867,20.0314,-1.219],[-87.4822,20.0369,-0.9678],[-87.4839,20.0399,-1.1665],[-87.4859,20.0385,0.0888],[-87.4869,20.0323,-0.7674],[-87.4918,20.0302,-1.2081],[-87.489,20.0307,-1.5]]],
[[[-87.4998,20.0423,-1.5],[-87.5,20.0354,0.0619],[-87.4955,20.036,-0.6716],[-87.4913,20.0324,-0.939],[-87.4948,20.0372,0.1701],[-87.4938,20.0384,-1.5],[-87.4998,20.0423,-1.5]]],
[[[-87.3585,20.3248,6.0232],[-87.3525,20.323,2.8825],[-87.3542,20.3256,0.0],[-87.354,20.3298,0.0],[-87.3486,20.3339,4.4516],[-87.3474,20.3393,1.5018],[-87.3412,20.3435,1.6074],[-87.339,20.3479,3.4901],[-87.3399,20.352,1.7403],[-87.3364,20.3534,0.4937],[-87.3381,20.3568,3.8448],[-87.3336,20.3572,1.3075],[-87.3315,20.3614,1.0761],[-87.3316,20.3668,0.4981],[-87.3281,20.3726,4.0193],[-87.3228,20.3767,1.1589],[-87.3242,20.3837,2.0732],[-87.3227,20.387,1.7668],[-87.3147,20.3954,0.0],[-87.3106,20.3959,0.3441],[-87.308,20.4004,1.1428],[-87.3088,20.4054,0.0],[-87.3031,20.4079,4.0265],[-87.3036,20.4106,1.1788],[-87.3109,20.4137,5.726],[-87.312,20.4117,6.6365],[-87.3217,20.4167,13.7158],[-87.3296,20.4123,13.958],[-87.3483,20.442,17.891],[-87.3573,20.4485,17.8262],[-87.3637,20.4384,18.1595],[-87.3816,20.4467,19.4039],[-87.4081,20.4045,18.7809],[-87.3648,20.3815,16.1994],[-87.3778,20.3569,17.8408],[-87.4484,20.3941,17.1297],[-87.5253,20.3741,25.8482],[-87.581,20.442,30.0045],[-87.5895,20.4692,27.3008],[-87.6356,20.5158,28.4564],[-87.7705,20.5161,28.1886],[-87.8463,20.4413,28.5202],[-87.8793,20.4447,25.4575],[-87.9951,20.4473,27.3845],[-87.9735,20.2096,30.3576],[-87.628,20.2065,27.008],[-87.628,20.1346,22.5968],[-87.5,20.1345,2.7704],[-87.5,20.1171,-0.4933],[-87.4972,20.1204,-0.8104],[-87.4915,20.1196,-0.9013],[-87.49,20.1216,-0.8051],[-87.4889,20.1198,-1.5],[-87.49,20.1172,-0.614],[-87.4862,20.1158,-0.628],[-87.485,20.1185,-1.5],[-87.4809,20.1198,-1.2898],[-87.4814,20.1179,-0.9923],[-87.4791,20.1168,-1.3157],[-87.4797,20.1124,-1.5],[-87.481,20.1098,-1.1229],[-87.4855,20.1092,-1.5],[-87.4844,20.1079,-1.0021],[-87.4862,20.1053,-1.5],[-87.4814,20.1046,-1.2555],[-87.4807,20.1063,-0.2842],[-87.4777,20.1069,-0.9033],[-87.4753,20.103,3.0667],[-87.4761,20.0924,-0.1049],[-87.4808,20.0749,-1.5],[-87.4797,20.0704,0.721],[-87.4835,20.0595,1.4029],[-87.4842,20.0434,-1.5],[-87.4814,20.0386,-0.0312],[-87.4819,20.0362,-0.9678],[-87.4789,20.0304,-1.5],[-87.4777,20.0198,2.3214],[-87.4819,20.015,-1.5],[-87.4794,20.0127,-0.8969],[-87.4798,20.0111,0.5204],[-87.4849,20.0098,-0.4868],[-87.4852,20.0059,0.7269],[-87.4841,20.0056,0.7269],[-87.4821,20.0078,2.2622],[-87.478,20.0065,1.7106],[-87.476,20.0203,2.3214],[-87.4778,20.0366,3.5004],[-87.4797,20.0417,2.9331],[-87.4773,20.0579,0.0],[-87.4782,20.0787,-1.5],[-87.4736,20.1008,1.0755],[-87.4529,20.1641,0.0],[-87.4494,20.169,3.1695],[-87.4396,20.1926,1.0187],[-87.4317,20.2039,2.0502],[-87.4307,20.2097,8.6648],[-87.4235,20.2262,2.0868],[-87.3899,20.2673,1.9551],[-87.3863,20.2695,2.5623],[-87.3835,20.2677,0.8109],[-87.382,20.2684,0.2949],[-87.3787,20.2746,0.1168],[-87.3814,20.2779,1.3936],[-87.3794,20.2832,2.4423],[-87.376,20.2861,2.4418],[-87.3712,20.2846,0.7285],[-87.3696,20.2861,1.5141],[-87.3726,20.2862,1.0192],[-87.3747,20.2886,1.1137],[-87.3712,20.2956,3.773],[-87.3684,20.2962,3.1019],[-87.3647,20.2943,0.8931],[-87.3623,20.298,0.2243],[-87.3562,20.3117,0.0],[-87.3634,20.3144,12.0116],[-87.3585,20.3248,6.0232]]]]}}