{"type":"Feature","properties":{"GID_2":"MEX.21.81_2","GID_0":"MEX","country":"México","GID_1":"MEX.21_1","province":"Puebla","NL_NAME_1":"NA","county":"HuitzilandeSerdán","VARNAME_2":"NA","NL_NAME_2":"NA","TYPE_2":"Município","ENGTYPE_2":"Municipality","CC_2":"NA","HASC_2":"NA","name":"Huitzilande_Serdán.county"},
"geometry":{"type": "MultiPolygon","coordinates": [[[[-97.7503,19.8977,1889.6866],[-97.7477,19.8968,1799.3817],[-97.7467,19.8945,1884.4214],[-97.7405,19.899,1539.255],[-97.7327,19.9002,1271.375],[-97.731,19.8923,1368.438],[-97.7284,19.8904,1601.2565],[-97.7248,19.8903,1673.5184],[-97.7175,19.8936,2052.3818],[-97.71,19.8914,2140.6655],[-97.7078,19.9017,1490.9639],[-97.7031,19.9058,1254.8094],[-97.7001,19.9126,1088.6178],[-97.695,19.9101,1134.9673],[-97.6861,19.9146,1559.7543],[-97.6864,19.9267,1012.6942],[-97.6894,19.9279,939.4123],[-97.6905,19.9321,858.6548],[-97.6903,19.9428,794.0138],[-97.6877,19.9475,835.5885],[-97.6883,19.9499,875.4462],[-97.6873,19.9525,772.3502],[-97.6824,19.956,787.4812],[-97.6805,19.9555,730.118],[-97.6793,19.96,698.9736],[-97.6742,19.9619,699.6271],[-97.6734,19.9646,702.881],[-97.6673,19.969,661.5631],[-97.6661,19.9719,647.0936],[-97.6604,19.9742,618.2368],[-97.664,19.9823,1020.4547],[-97.6579,19.9937,633.7808],[-97.6607,19.9965,593.5508],[-97.6678,19.9979,619.7535],[-97.6708,19.9952,652.984],[-97.6772,19.9941,611.9941],[-97.6829,19.9979,631.5261],[-97.6876,19.9981,744.7207],[-97.6986,19.9951,788.9375],[-97.7078,19.9973,713.3456],[-97.7086,19.994,716.9119],[-97.7117,19.9919,732.5717],[-97.7108,19.986,833.3767],[-97.7254,19.9712,1048.9551],[-97.7261,19.9649,1110.8984],[-97.7245,19.9626,1120.6003],[-97.7269,19.9582,1199.1824],[-97.7307,19.9535,1332.6139],[-97.7377,19.9489,1639.4603],[-97.7334,19.9445,1961.6727],[-97.7347,19.9433,2069.6743],[-97.7457,19.9395,1879.7354],[-97.7494,19.9433,1641.8652],[-97.7576,19.9462,1351.4126],[-97.7684,19.9449,1227.1423],[-97.7722,19.9468,1175.1851],[-97.7741,19.9462,1155.7749],[-97.7728,19.9442,1155.0098],[-97.7703,19.9442,1185.7393],[-97.7707,19.9416,1231.5272],[-97.7652,19.9397,1255.502],[-97.7612,19.9302,1499.2012],[-97.7654,19.9262,1266.6394],[-97.7644,19.9218,1373.4635],[-97.7661,19.9175,1348.5162],[-97.7637,19.9126,1437.1677],[-97.7646,19.9088,1491.125],[-97.7508,19.9042,1974.4736],[-97.7519,19.9015,1947.2346],[-97.7503,19.8977,1889.6866]]]]}}