{"type": "Feature","bbox": [-97.83,19.9395,-97.7069,20.0018],"geometry": {"type": "MultiPolygon","coordinates": [[[[-97.83,19.9903,1611.4633],[-97.8217,19.9841,1356.032],[-97.8179,19.9835,1438.2349],[-97.8153,19.9851,1354.1818],[-97.7987,19.9793,1404.4348],[-97.7984,19.9745,1512.229],[-97.7949,19.9731,1415.0708],[-97.7963,19.9711,1403.5491],[-97.7992,19.9706,1443.3173],[-97.7991,19.9683,1414.2731],[-97.7886,19.966,1269.6324],[-97.7812,19.9599,1009.9586],[-97.7796,19.9677,999.8297],[-97.7756,19.9675,972.8147],[-97.7738,19.9713,941.0405],[-97.7683,19.9755,978.2146],[-97.764,19.975,894.9305],[-97.7607,19.9718,1106.1025],[-97.7573,19.9634,1691.2798],[-97.7646,19.9596,1514.2156],[-97.7615,19.9555,1672.6907],[-97.7568,19.9546,1775.1038],[-97.7617,19.9463,1306.2246],[-97.7506,19.9438,1546.4363],[-97.7449,19.9395,1879.7354],[-97.7381,19.9413,2251.7764],[-97.7334,19.9445,1961.6727],[-97.7377,19.9489,1639.4603],[-97.7307,19.9535,1332.6139],[-97.7269,19.9582,1199.1824],[-97.7245,19.9626,1120.6003],[-97.7261,19.9649,1110.8984],[-97.7254,19.9712,1048.9551],[-97.7108,19.986,833.3767],[-97.7117,19.9919,732.5717],[-97.7086,19.994,716.9119],[-97.7069,19.9993,709.7708],[-97.7114,19.9996,668.024],[-97.7114,19.9965,772.2466],[-97.7264,19.991,1029.0265],[-97.7308,19.9911,1057.2029],[-97.7307,19.9892,1070.6565],[-97.7348,19.9871,896.2258],[-97.7383,19.9931,781.7023],[-97.737799999999993,19.9962,731.9569],[-97.7428,19.9928,764.7186],[-97.7425,19.9904,765.3218],[-97.7471,19.9897,755.2663],[-97.751,19.9835,799.8199],[-97.7537,19.9829,806.296],[-97.756,19.9834,808.9012],[-97.7613,19.9987,1417.1187],[-97.7635,20.0004,1610.6047],[-97.7669,19.9997,1721.5869],[-97.7676,20.0012,1660.1917],[-97.7797,19.9992,1584.2876],[-97.7849,20.0018,1563.9253],[-97.7848,20.0,1570.0201],[-97.7894,19.9987,1463.1759],[-97.7909,19.9943,1396.5736],[-97.7894,19.9899,1360.5791],[-97.792,19.9878,1261.8],[-97.7989,19.9922,1398.387],[-97.8014,19.9986,1440.3361],[-97.8064,19.9997,1548.9624],[-97.8098,19.9949,1846.7227],[-97.8083,19.9905,1742.4559],[-97.8152,19.9932,1800.2299],[-97.8212,19.992,1755.2102],[-97.8207,19.9902,1672.0623],[-97.8258,19.9916,1668.2012],[-97.83,19.9903,1611.4633]]]]}
,"properties": {"GID_2": "MEX.21.215_2","GID_0": "MEX","country": "México","GID_1": "MEX.21_1","province": "Puebla","NL_NAME_1": "NA","county": "Zongozotla","VARNAME_2": "NA","NL_NAME_2": "NA","TYPE_2": "Município","ENGTYPE_2": "Municipality","CC_2": "NA","HASC_2": "NA","name": "Zongozotla.county","area_km2": 36.7445,"hist_schema_id": "Elevation0-9000","hist_area_km2": {"675": 0.01992,"700": 0.0797,"725": 0.13947,"750": 0.21917,"775": 0.29887,"800": 0.3188,"825": 0.29887,"850": 0.33873,"875": 0.23911,"900": 0.31881,"925": 0.65755,"950": 0.63762,"975": 0.55793,"1000": 0.81697,"1025": 0.85682,"1050": 0.85682,"1075": 0.95645,"1100": 0.97639,"1125": 0.87676,"1150": 0.6775,"1175": 0.75721,"1200": 0.69742,"1225": 0.95647,"1250": 0.93655,"1275": 0.93655,"1300": 1.09596,"1325": 1.11589,"1350": 1.19559,"1375": 1.19557,"1400": 1.49448,"1425": 1.63396,"1450": 1.01624,"1475": 1.11586,"1500": 1.13579,"1525": 1.23543,"1550": 0.89668,"1575": 0.95645,"1600": 0.93653,"1625": 0.83687,"1650": 0.73728,"1675": 0.67749,"1700": 0.61772,"1725": 0.59782,"1750": 0.55798,"1775": 0.279,"1800": 0.35873,"1825": 0.21923,"1850": 0.3388,"1875": 0.35873,"1900": 0.35873,"1925": 0.45837,"1950": 0.23915,"1975": 0.21923,"2000": 0.23916,"2025": 0.01993,"2050": 0.03986,"2075": 0.01993,"2100": 0.01993,"2125": 0.03986,"2175": 0.01993,"2200": 0.01993,"2225": 0.01993}}}