{"type": "Feature","bbox": [-95.1793,16.2175,-95.1167,16.273],"geometry": {"type": "MultiPolygon","coordinates": [[[[-95.1235,16.2649,7.0803],[-95.1332,16.2661,11.0775],[-95.1358,16.2646,9.6502],[-95.1495,16.2637,13.6573],[-95.152,16.2671,16.9282],[-95.1547,16.2664,15.5731],[-95.1539,16.2689,15.7014],[-95.1608,16.273,16.9219],[-95.1617,16.27,16.3827],[-95.1601,16.2686,15.5572],[-95.1617,16.2647,16.4195],[-95.1741,16.2633,16.5218],[-95.1644,16.249,13.7877],[-95.1634,16.2419,11.0079],[-95.1618,16.24,12.6989],[-95.1729,16.2353,20.0505],[-95.1793,16.2308,10.3242],[-95.1791,16.2189,11.3588],[-95.1435,16.2175,2.5],[-95.1393,16.2201,7.0711],[-95.14,16.2252,10.8843],[-95.1275,16.2279,8.1237],[-95.1254,16.2359,8.1148],[-95.1167,16.2348,6.2137],[-95.1193,16.2453,4.5767],[-95.1176,16.2558,6.8864],[-95.1235,16.2649,7.0803]]]]}
,"properties": {"GID_2": "MEX.20.310_2","GID_0": "MEX","country": "México","GID_1": "MEX.20_1","province": "Oaxaca","NL_NAME_1": "NA","county": "SanPedroHuilotepec","VARNAME_2": "NA","NL_NAME_2": "NA","TYPE_2": "Município","ENGTYPE_2": "Municipality","CC_2": "NA","HASC_2": "NA","name": "San_Pedro_Huilotepec.county","area_km2": 26.7477,"hist_schema_id": "Elevation0-9000","hist_area_km2": {"0": 14.55446,"25": 7.63332,"50": 1.38427,"75": 0.95678,"100": 0.73285,"125": 0.59035,"150": 0.24428,"175": 0.24428,"200": 0.12214,"225": 0.14249,"250": 0.12214,"275": 0.02036}}}