{"type": "Feature","bbox": [-98.3784,18.4832,-98.1933,18.6603],"geometry": {"type": "MultiPolygon","coordinates": [[[[-98.2161,18.6094,1199.3103],[-98.224,18.6177,1221.3627],[-98.227,18.6169,1225.9255],[-98.2299,18.6182,1314.0983],[-98.237799999999993,18.6151,1344.1499],[-98.2442,18.6262,1381.3553],[-98.2403,18.6284,1327.8303],[-98.243,18.6345,1328.4852],[-98.2429,18.64,1340.9597],[-98.2447,18.6423,1369.4845],[-98.2539,18.6419,1389.6063],[-98.2546,18.6384,1378.1093],[-98.2569,18.6389,1382.769],[-98.2645,18.6429,1409.778],[-98.2711,18.6503,1486.6437],[-98.2779,18.6525,1565.0903],[-98.2815,18.6603,1526.012],[-98.2993,18.6553,1396.1147],[-98.3026,18.6519,1382.868],[-98.3199,18.648,1358.115],[-98.3142,18.639,1386.1052],[-98.3188,18.6351,1445.8569],[-98.3201,18.6301,1471.7913],[-98.3156,18.6276,1549.8235],[-98.3166,18.6196,1612.0741],[-98.3188,18.6153,1592.2369],[-98.3163,18.6123,1574.6423],[-98.3223,18.6092,1489.4602],[-98.3229,18.6051,1596.2264],[-98.3257,18.6025,1585.2686],[-98.3315,18.6033,1594.7231],[-98.3373,18.5991,1598.1837],[-98.337,18.5924,1517.2467],[-98.3389,18.5899,1478.4744],[-98.3529,18.5843,1426.2015],[-98.355,18.5798,1392.6912],[-98.359,18.5788,1383.9948],[-98.3583,18.5762,1376.6246],[-98.3622,18.5757,1377.4116],[-98.3635,18.5733,1370.2032],[-98.3627,18.5686,1358.8755],[-98.3595,18.5654,1399.8711],[-98.3593,18.5624,1417.7002],[-98.3681,18.5533,1424.7129],[-98.3705,18.5537,1446.4631],[-98.3726,18.5521,1394.2316],[-98.376,18.5454,1424.4495],[-98.3784,18.5443,1421.4417],[-98.3551,18.5426,1332.4515],[-98.3534,18.5389,1375.6111],[-98.3502,18.5364,1353.6096],[-98.3484,18.5368,1328.6288],[-98.3494,18.535,1363.0123],[-98.3452,18.5341,1367.0814],[-98.3309,18.5355,1233.2864],[-98.3287,18.5337,1241.4202],[-98.3278,18.5363,1216.7046],[-98.3246,18.5339,1231.6157],[-98.323,18.535,1265.958],[-98.3256,18.5316,1206.0824],[-98.3253,18.5304,1192.7758],[-98.3236,18.5326,1254.157],[-98.3231,18.531,1228.2808],[-98.3255,18.5261,1189.0518],[-98.3222,18.522,1182.6061],[-98.3239,18.5209,1182.6061],[-98.3234,18.5189,1193.2083],[-98.3189,18.5198,1172.7609],[-98.3176,18.5173,1153.3683],[-98.3152,18.5203,1172.293],[-98.3102,18.5192,1131.6511],[-98.3105,18.5223,1162.0635],[-98.304,18.5215,1115.592],[-98.3054,18.5191,1111.5891],[-98.303,18.5188,1121.4709],[-98.3012,18.5149,1115.7627],[-98.2991,18.5144,1125.8787],[-98.2996,18.5102,1098.7607],[-98.3059,18.509,1122.9062],[-98.3081,18.5045,1122.854],[-98.3108,18.504,1125.5006],[-98.303,18.4992,1139.3091],[-98.2994,18.4994,1140.9921],[-98.2974,18.4974,1118.0454],[-98.2896,18.4967,1077.8394],[-98.2877,18.4952,1070.6517],[-98.2905,18.4926,1107.4198],[-98.2883,18.4923,1105.9598],[-98.2914,18.4915,1126.3229],[-98.2962,18.4847,1122.8333],[-98.2874,18.4868,1087.4142],[-98.2823,18.4832,1071.6906],[-98.2795,18.486,1063.7302],[-98.2816,18.4931,1049.0375],[-98.2783,18.4918,1068.6691],[-98.2756,18.4928,1064.9436],[-98.2742,18.496,1098.6399],[-98.2755,18.4998,1074.0594],[-98.2718,18.501,1072.2173],[-98.2683,18.5063,1089.3303],[-98.2705,18.5087,1064.4058],[-98.2663,18.5094,1076.7261],[-98.2599,18.5076,1114.0997],[-98.2642,18.5158,1095.613],[-98.2638,18.5177,1077.8282],[-98.2604,18.5171,1075.0928],[-98.2598,18.5202,1082.0026],[-98.255,18.521,1092.5322],[-98.2545,18.523,1081.3287],[-98.2443,18.5178,1093.8228],[-98.2429,18.5193,1104.2963],[-98.2465,18.5229,1087.0955],[-98.2461,18.525,1087.1586],[-98.2408,18.5217,1139.371],[-98.2386,18.528,1104.436],[-98.2421,18.5309,1098.4683],[-98.2401,18.5351,1093.186],[-98.2426,18.5361,1097.9526],[-98.2349,18.5421,1106.9073],[-98.2376,18.5447,1102.7167],[-98.2368,18.5455,1109.3177],[-98.2331,18.5434,1107.2795],[-98.2326,18.5398,1151.217],[-98.2302,18.5385,1146.6095],[-98.2271,18.541,1158.5327],[-98.2307,18.5448,1116.5684],[-98.2268,18.5436,1115.0632],[-98.2235,18.5399,1126.3439],[-98.2219,18.5402,1116.2402],[-98.2246,18.5456,1123.8181],[-98.2247,18.5501,1113.4683],[-98.2225,18.5479,1124.5012],[-98.221,18.5519,1124.2964],[-98.2163,18.5527,1119.6377],[-98.2148,18.5559,1117.5667],[-98.2115,18.5557,1160.21],[-98.2121,18.558,1159.7072],[-98.2149,18.5594,1120.0303],[-98.2108,18.5612,1126.4177],[-98.2097,18.5641,1130.6385],[-98.2133,18.564,1125.8245],[-98.216,18.566,1128.1501],[-98.2154,18.5673,1133.2056],[-98.2122,18.5663,1133.3433],[-98.2108,18.5695,1159.4734],[-98.2119,18.572,1133.0222],[-98.2151,18.5736,1153.8992],[-98.2147,18.5756,1129.2954],[-98.2107,18.5826,1136.778],[-98.2056,18.5863,1135.1289],[-98.2027,18.5857,1154.761],[-98.2007,18.5904,1139.2495],[-98.1969,18.5915,1142.1536],[-98.1939,18.5899,1168.0621],[-98.1933,18.5966,1146.0458],[-98.1952,18.5981,1164.9844],[-98.1981,18.5964,1168.8032],[-98.204,18.5969,1174.1786],[-98.2046,18.5999,1218.5808],[-98.2124,18.6063,1256.7412],[-98.2126,18.6082,1278.7369],[-98.2161,18.6094,1199.3103]]]]}
,"properties": {"GID_2": "MEX.21.7_2","GID_0": "MEX","country": "México","GID_1": "MEX.21_1","province": "Puebla","NL_NAME_1": "NA","county": "Ahuatlán","VARNAME_2": "NA","NL_NAME_2": "NA","TYPE_2": "Município","ENGTYPE_2": "Municipality","CC_2": "NA","HASC_2": "NA","name": "Ahuatlán.county","area_km2": 185.24,"hist_schema_id": "Elevation0-9000","hist_area_km2": {"1050": 0.4222,"1075": 2.1915,"1100": 3.3776,"1125": 5.7294,"1150": 7.739,"1175": 8.2211,"1200": 8.2414,"1225": 7.8191,"1250": 9.7887,"1275": 12.6425,"1300": 13.7272,"1325": 14.2894,"1350": 13.9472,"1375": 12.9219,"1400": 12.7205,"1425": 11.6754,"1450": 9.9468,"1475": 9.625,"1500": 7.8967,"1525": 6.209,"1550": 3.6772,"1575": 1.7281,"1600": 0.643,"1625": 0.0603}}}