{"type": "Feature","bbox": [-96.118,16.2215,-95.9865,16.3916],"geometry": {"type": "MultiPolygon","coordinates": [[[[-96.0275,16.224,1498.7572],[-96.0236,16.2299,1673.9213],[-96.022,16.2375,1822.5884],[-96.0185,16.2407,1915.8988],[-96.0177,16.2474,2024.8623],[-96.019,16.2495,2110.5637],[-96.016,16.2577,1971.8018],[-96.0183,16.2627,1864.0182],[-96.0232,16.2581,2022.3649],[-96.024,16.254,2133.0359],[-96.0299,16.257,2239.8748],[-96.03,16.2601,2128.0269],[-96.0329,16.2644,1869.2422],[-96.0337,16.2739,1600.9491],[-96.0235,16.2742,1989.8112],[-96.0229,16.2768,1920.3035],[-96.0065,16.2809,1474.6516],[-96.0,16.2894,1449.3081],[-95.9947,16.3035,1359.1882],[-95.9971,16.304,1341.6718],[-95.9982,16.3087,1224.9155],[-96.0027,16.3115,1193.0225],[-96.0018,16.3151,1069.6587],[-96.0033,16.3215,905.2151],[-96.0019,16.3237,860.0299],[-95.9981,16.3227,863.8612],[-95.9978,16.3255,872.1539],[-95.9947,16.3273,875.6022],[-95.9935,16.3301,831.7866],[-95.9906,16.3288,830.3068],[-95.9885,16.3315,820.3338],[-95.9865,16.3315,812.7789],[-95.9914,16.3365,901.8344],[-95.9995,16.3393,1015.5414],[-95.9976,16.3451,1149.6571],[-95.9925,16.3448,1026.5895],[-95.9871,16.3538,1174.105],[-95.9935,16.3572,1144.0007],[-95.9991,16.3644,1213.8362],[-95.9944,16.3702,1136.1765],[-96.0105,16.3758,1339.2634],[-96.0423,16.3916,1927.2397],[-96.0599,16.3683,1695.2998],[-96.0631,16.3698,1698.2731],[-96.0644,16.3685,1655.0225],[-96.0683,16.369,1636.7168],[-96.0712,16.3658,1724.9839],[-96.0791,16.3664,1774.1406],[-96.0876,16.3561,2082.4409],[-96.0898,16.3505,2109.2866],[-96.0935,16.3502,2135.6382],[-96.0992,16.3419,1769.6171],[-96.089,16.3011,2009.9861],[-96.0935,16.2881,2386.3037],[-96.112799999999993,16.2709,2600.2031],[-96.118,16.2473,2661.6343],[-96.1147,16.2505,2839.1379],[-96.1134,16.2486,2789.2004],[-96.1141,16.2449,2589.21],[-96.1124,16.2337,2294.8132],[-96.1143,16.2286,2099.0874],[-96.1096,16.2247,2015.2957],[-96.1099,16.2227,1994.3514],[-96.1043,16.225,1963.1226],[-96.0998,16.2219,1979.3368],[-96.0934,16.2215,1897.1729],[-96.0922,16.2235,1843.1901],[-96.0894,16.223,1885.775],[-96.0853,16.2279,1817.4598],[-96.0853,16.2319,1799.2297],[-96.0798,16.2335,1796.5713],[-96.0756,16.2378,1742.7645],[-96.0722,16.2357,1683.0676],[-96.0689,16.2404,1647.5562],[-96.0654,16.2406,1651.0613],[-96.0644,16.238,1606.6272],[-96.0563,16.2388,1620.95],[-96.0448,16.2358,1541.6545],[-96.0414,16.2316,1509.5487],[-96.0352,16.23,1472.1252],[-96.0275,16.224,1498.7572]]]]}
,"properties": {"GID_2": "MEX.20.431_2","GID_0": "MEX","country": "México","GID_1": "MEX.20_1","province": "Oaxaca","NL_NAME_1": "NA","county": "SantaMaríaQuiegolani","VARNAME_2": "NA","NL_NAME_2": "NA","TYPE_2": "Município","ENGTYPE_2": "Municipality","CC_2": "NA","HASC_2": "NA","name": "Santa_María_Quiegolani.county","area_km2": 160.8629,"hist_schema_id": "Elevation0-9000","hist_area_km2": {"800": 0.0203,"825": 0.0814,"850": 0.061,"875": 0.0814,"900": 0.2238,"925": 0.5901,"950": 0.7935,"975": 1.2412,"1000": 1.5667,"1025": 1.5871,"1050": 2.1975,"1075": 2.523,"1100": 2.7264,"1125": 2.7671,"1150": 2.8078,"1175": 3.1333,"1200": 3.3978,"1225": 3.1333,"1250": 3.3571,"1275": 3.2351,"1300": 3.3571,"1325": 3.1945,"1350": 2.7671,"1375": 3.3979,"1400": 3.4386,"1425": 3.0928,"1450": 3.3166,"1475": 3.1946,"1500": 2.6045,"1525": 3.2963,"1550": 3.2963,"1575": 3.4998,"1600": 3.9474,"1625": 3.6423,"1650": 3.4999,"1675": 3.6424,"1700": 3.2152,"1725": 3.2356,"1750": 3.0728,"1775": 3.0526,"1800": 2.5642,"1825": 3.2561,"1850": 2.5643,"1875": 3.0731,"1900": 2.3608,"1925": 2.1369,"1950": 2.3202,"1975": 2.4016,"2000": 2.076,"2025": 2.0964,"2050": 2.0963,"2075": 1.8115,"2100": 1.8318,"2125": 1.9133,"2150": 1.669,"2175": 1.8319,"2200": 1.3027,"2225": 1.5062,"2250": 1.7505,"2275": 1.7301,"2300": 1.2823,"2325": 1.323,"2350": 1.1805,"2375": 1.323,"2400": 1.3027,"2425": 1.2416,"2450": 1.0788,"2475": 0.6921,"2500": 0.5903,"2525": 0.6513,"2550": 0.3664,"2575": 0.4071,"2600": 0.3867,"2625": 0.4885,"2650": 0.4682,"2675": 0.5496,"2700": 0.3867,"2725": 0.3257,"2750": 0.4885,"2775": 0.4274,"2800": 0.5496,"2825": 0.4885,"2850": 0.3257,"2875": 0.4071,"2900": 0.2035,"2925": 0.1628,"2950": 0.0204,"2975": 0.0204,"3000": 0.0814,"3025": 0.0204,"3050": 0.0407}}}