{"type":"Feature","properties":{"GID_2":"MEX.31.65_2","GID_0":"MEX","country":"México","GID_1":"MEX.31_1","province":"Yucatán","NL_NAME_1":"NA","county":"Sanahcat","VARNAME_2":"NA","NL_NAME_2":"NA","TYPE_2":"Município","ENGTYPE_2":"Municipality","CC_2":"NA","HASC_2":"NA","name":"Sanahcat.county"},
"geometry":{"type": "MultiPolygon","coordinates": [[[[-89.2578,20.773,24.3704],[-89.2501,20.7712,21.6076],[-89.2495,20.7735,23.2755],[-89.2437,20.775,24.5591],[-89.2415,20.7743,24.6869],[-89.2412,20.771,21.5362],[-89.2391,20.7703,21.3548],[-89.2393,20.7676,22.5841],[-89.2355,20.7672,21.1731],[-89.2353,20.7699,21.511],[-89.225,20.7692,19.6044],[-89.2248,20.7714,22.5999],[-89.2274,20.7717,21.5527],[-89.2272,20.7731,22.739],[-89.2245,20.7723,20.9058],[-89.2241,20.7742,22.6232],[-89.2198,20.7732,20.1483],[-89.2231,20.7649,17.7729],[-89.2269,20.7608,18.2761],[-89.2291,20.7618,17.7435],[-89.231,20.7595,20.0204],[-89.2268,20.7575,17.5143],[-89.2318,20.7521,19.9693],[-89.2331,20.7411,18.7824],[-89.2305,20.738,19.3697],[-89.2329,20.7344,17.9894],[-89.2221,20.7346,17.1126],[-89.2204,20.7428,19.0767],[-89.2009,20.7399,18.7558],[-89.2018,20.7528,19.1738],[-89.1995,20.7537,17.9908],[-89.1931,20.7532,18.4448],[-89.1811,20.744,18.8096],[-89.1777,20.7438,19.8456],[-89.1796,20.7571,20.2681],[-89.1742,20.7616,18.7175],[-89.1666,20.7651,19.6051],[-89.1716,20.7666,19.6533],[-89.172,20.7692,17.2514],[-89.1841,20.77,18.8207],[-89.1838,20.7721,17.8802],[-89.192,20.775,21.5799],[-89.1919,20.7786,18.5918],[-89.1947,20.7791,18.9493],[-89.1923,20.7823,17.7387],[-89.1927,20.7861,17.5615],[-89.2168,20.7884,23.9809],[-89.2193,20.7878,24.6418],[-89.2195,20.7848,23.7199],[-89.232,20.7842,23.1514],[-89.2325,20.7797,22.5774],[-89.2433,20.7799,20.5192],[-89.2494,20.7822,20.3616],[-89.2503,20.7795,23.7624],[-89.2551,20.781,24.6102],[-89.2578,20.773,24.3704]]]]}}