{"type": "Feature","bbox": [-98.3063,19.1608,-98.2302,19.2327],"geometry": {"type": "MultiPolygon","coordinates": [[[[-98.2622,19.1608,2179.7537],[-98.2596,19.1707,2181.9773],[-98.2571,19.1692,2180.1641],[-98.256,19.1709,2180.0649],[-98.2514,19.1703,2179.4365],[-98.2499,19.1714,2183.02],[-98.2506,19.1748,2182.1262],[-98.2405,19.1854,2194.8337],[-98.2364,19.187,2203.1841],[-98.2306,19.1866,2210.3794],[-98.2319,19.1932,2213.9243],[-98.2302,19.2101,2224.197],[-98.2304,19.216,2225.2642],[-98.2316,19.2167,2222.377],[-98.2305,19.2191,2227.0444],[-98.2325,19.2202,2223.9858],[-98.2306,19.222,2227.6975],[-98.2334,19.2247,2224.7517],[-98.2306,19.2256,2227.9387],[-98.2306,19.2271,2229.0579],[-98.2408,19.2327,2219.7595],[-98.2448,19.2255,2212.0496],[-98.2445,19.222,2209.8088],[-98.2463,19.2228,2207.4131],[-98.2473,19.2199,2207.0645],[-98.2525,19.2195,2202.3762],[-98.26,19.209,2193.5024],[-98.2625,19.2111,2190.5405],[-98.2692,19.1992,2187.8826],[-98.2736,19.2116,2187.6589],[-98.2801,19.2082,2187.1001],[-98.2847,19.2135,2187.8779],[-98.2887,19.2062,2186.7178],[-98.2919,19.2043,2189.459],[-98.2824,19.1978,2184.7534],[-98.2915,19.1843,2185.6816],[-98.2956,19.1893,2186.6475],[-98.3063,19.1888,2189.8232],[-98.3024,19.1868,2189.1074],[-98.2917,19.1761,2185.6973],[-98.2794,19.168,2183.7754],[-98.2724,19.1652,2181.8232],[-98.2697,19.1624,2182.6824],[-98.2622,19.1608,2179.7537]]]]}
,"properties": {"GID_2": "MEX.29.59_2","GID_0": "MEX","country": "México","GID_1": "MEX.29_1","province": "Tlaxcala","NL_NAME_1": "NA","county": "Zacatelco","VARNAME_2": "NA","NL_NAME_2": "NA","TYPE_2": "Município","ENGTYPE_2": "Municipality","CC_2": "NA","HASC_2": "NA","name": "Zacatelco.county","area_km2": 29.87523,"hist_schema_id": "Elevation0-9000","hist_area_km2": {"2175": 17.16114,"2200": 9.17038,"2225": 3.54371}}}