{"type": "Feature","bbox": [-98.5965,19.2045,-98.4682,19.262],"geometry": {"type": "MultiPolygon","coordinates": [[[[-98.4791,19.2385,2377.2192],[-98.4781,19.2413,2366.9805],[-98.4701,19.2442,2343.6289],[-98.4682,19.262,2313.5122],[-98.4766,19.2577,2329.605],[-98.4903,19.2566,2354.4275],[-98.5004,19.2523,2381.6995],[-98.5065,19.2582,2395.5261],[-98.5146,19.2578,2416.0103],[-98.5227,19.2502,2458.3149],[-98.5304,19.2484,2491.1646],[-98.5483,19.2396,2587.0557],[-98.5531,19.2346,2628.1689],[-98.5629,19.2333,2770.8364],[-98.5682,19.2351,2887.5806],[-98.5714,19.2278,2986.114],[-98.5848,19.2238,3302.0229],[-98.5856,19.2225,3323.7324],[-98.576,19.2152,3066.7957],[-98.5884,19.2185,3268.8093],[-98.5922,19.2175,3376.7197],[-98.5965,19.2126,3521.6992],[-98.5958,19.2111,3486.4446],[-98.5877,19.2105,3257.2844],[-98.582,19.2083,3172.7737],[-98.5681,19.2099,2955.4001],[-98.5653,19.2127,2891.6318],[-98.5615,19.2134,2786.7085],[-98.561,19.2119,2827.1707],[-98.5636,19.2103,2886.7981],[-98.5582,19.209,2781.0469],[-98.5406,19.215699999999998,2631.2004],[-98.5462,19.2085,2723.1968],[-98.5465,19.2069,2747.7678],[-98.5433,19.2067,2727.6003],[-98.5453,19.2045,2785.7903],[-98.5357,19.2079,2660.9512],[-98.5224,19.2083,2571.6294],[-98.5082,19.2225,2467.4373],[-98.507,19.2202,2475.1396],[-98.5021,19.2219,2460.4927],[-98.5004,19.2194,2461.3799],[-98.4967,19.2235,2445.2856],[-98.4953,19.2211,2449.2576],[-98.4791,19.2385,2377.2192]]]]}
,"properties": {"GID_2": "MEX.21.123_2","GID_0": "MEX","country": "México","GID_1": "MEX.21_1","province": "Puebla","NL_NAME_1": "NA","county": "SanFelipeTeotlalcingo","VARNAME_2": "NA","NL_NAME_2": "NA","TYPE_2": "Município","ENGTYPE_2": "Municipality","CC_2": "NA","HASC_2": "NA","name": "San_Felipe_Teotlalcingo.county","area_km2": 39.63766,"hist_schema_id": "Elevation0-9000","hist_area_km2": {"2325": 1.0008,"2350": 2.18183,"2375": 2.60226,"2400": 3.40301,"2425": 3.06275,"2450": 2.74253,"2475": 2.14198,"2500": 2.22208,"2525": 1.96188,"2550": 1.96191,"2575": 1.78176,"2600": 1.68168,"2625": 1.38139,"2650": 1.30132,"2675": 1.14117,"2700": 0.88091,"2725": 0.74076,"2750": 0.36037,"2775": 0.44045,"2800": 0.36037,"2825": 0.4004,"2850": 0.26027,"2875": 0.22023,"2900": 0.26026,"2925": 0.46047,"2950": 0.56056,"2975": 0.58059,"3000": 0.26027,"3025": 0.32033,"3050": 0.32034,"3075": 0.26027,"3100": 0.24025,"3125": 0.14015,"3150": 0.26027,"3175": 0.24025,"3200": 0.30031,"3225": 0.32033,"3250": 0.12012,"3275": 0.22023,"3300": 0.08008,"3325": 0.10011,"3350": 0.04004,"3375": 0.02002,"3400": 0.04004,"3425": 0.04004,"3450": 0.08008,"3475": 0.10011,"3500": 0.04004}}}