{"type":"Feature","properties":{"GID_2":"MEX.20.11_2","GID_0":"MEX","country":"México","GID_1":"MEX.20_1","province":"Oaxaca","NL_NAME_1":"NA","county":"Ayotzintepec","VARNAME_2":"NA","NL_NAME_2":"NA","TYPE_2":"Município","ENGTYPE_2":"Municipality","CC_2":"NA","HASC_2":"NA","name":"Ayotzintepec.county"},
"geometry":{"type": "MultiPolygon","coordinates": [[[[-96.0882,17.7424,82.1022],[-96.0963,17.7506,125.80029999999999],[-96.0906,17.7568,139.7949],[-96.0896,17.7636,189.3333],[-96.0952,17.7812,557.3331],[-96.1144,17.8021,962.0076],[-96.1669,17.7946,902.5593],[-96.168,17.7828,797.9006],[-96.1701,17.7805,654.807],[-96.1707,17.7754,644.3333],[-96.1674,17.7698,770.1314],[-96.1622,17.7666,845.2118],[-96.1673,17.7615,665.1769],[-96.1654,17.753,589.5402],[-96.1792,17.7388,458.2034],[-96.1685,17.7241,514.102],[-96.178,17.6917,473.2712],[-96.1811,17.6867,172.2679],[-96.1889,17.6839,146.6068],[-96.1912,17.6851,149.9198],[-96.2015,17.6838,200.3704],[-96.2097,17.6856,270.1855],[-96.217,17.681,413.1356],[-96.2169,17.6837,422.0133],[-96.2191,17.6868,473.1138],[-96.2288,17.6884,596.5311],[-96.2297,17.6851,519.3777],[-96.2329,17.6888,429.4694],[-96.2391,17.6894,384.0778],[-96.249,17.6952,357.1488],[-96.2512,17.6911,254.7964],[-96.2537,17.6912,237.303],[-96.2625,17.6957,157.487],[-96.2666,17.7008,125.4004],[-96.2682,17.7074,112.8859],[-96.2676,17.7111,107.5543],[-96.2731,17.7088,121.688],[-96.2776,17.6978,120.253],[-96.2856,17.6936,181.2687],[-96.2866,17.687,169.0692],[-96.2922,17.6853,176.4986],[-96.2909,17.6824,182.2758],[-96.2941,17.6802,179.9192],[-96.2917,17.6772,196.3645],[-96.294,17.6742,199.0464],[-96.2866,17.6741,213.7495],[-96.288,17.6651,208.9984],[-96.2908,17.6643,208.4906],[-96.292,17.6611,220.9078],[-96.2867,17.6573,224.0787],[-96.2786,17.6586,495.5396],[-96.2596,17.6543,766.8389],[-96.2542,17.6546,1015.8186],[-96.2524,17.6564,1069.4541],[-96.2503,17.6503,881.4225],[-96.248,17.6496,852.0627],[-96.2382,17.6525,623.5814],[-96.2361,17.65,593.7972],[-96.1654,17.6645,384.4761],[-96.136,17.6614,97.3393],[-96.1093,17.6712,92.4681],[-96.1051,17.6936,88.5],[-96.1029,17.695,88.46],[-96.1038,17.6996,88.8161],[-96.1024,17.7033,91.3832],[-96.1088,17.7113,86.5908],[-96.1152,17.7153,87.1033],[-96.1163,17.725,90.5876],[-96.1079,17.7311,100.0902],[-96.0982,17.7296,83.4835],[-96.091,17.7313,82.7074],[-96.0912,17.7366,87.7144],[-96.0882,17.7424,82.1022]]]]}}