{"type":"Feature","properties":{"GID_2":"MEX.30.150_2","GID_0":"MEX","country":"México","GID_1":"MEX.30_1","province":"Veracruz","NL_NAME_1":"NA","county":"SayuladeAlemán","VARNAME_2":"NA","NL_NAME_2":"NA","TYPE_2":"Município","ENGTYPE_2":"Municipality","CC_2":"NA","HASC_2":"NA","name":"Sayulade_Alemán.county"},
"geometry":{"type": "MultiPolygon","coordinates": [[[[-95.0075,17.9299,64.3202],[-95.0077,17.927,68.3487],[-95.0105,17.9271,72.6348],[-95.0114,17.9217,76.642],[-95.014,17.9215,84.2118],[-95.0139,17.9186,84.2296],[-95.0168,17.9185,91.1499],[-95.0166,17.9156,88.6235],[-95.0208,17.9159,105.328],[-95.021,17.9182,106.6384],[-95.0227,17.9182,109.6667],[-95.0224,17.9141,112.2021],[-95.019,17.9125,123.3894],[-95.0188,17.9092,132.6555],[-95.0219,17.9036,112.5208],[-95.0196,17.8987,86.1558],[-95.0341,17.8888,75.2916],[-95.0324,17.8837,91.3016],[-95.0332,17.8756,101.5781],[-95.0295,17.8711,111.3726],[-95.0289,17.8638,92.9735],[-95.0259,17.8606,85.2988],[-95.0286,17.8521,82.8039],[-95.0351,17.846,74.7048],[-95.037,17.8406,71.1115],[-95.0305,17.8377,75.3092],[-95.0278,17.8336,91.1168],[-95.0277,17.825,90.6474],[-95.0329,17.8255,115.088],[-95.0329,17.8224,97.5079],[-95.0369,17.8203,111.0778],[-95.0391,17.8232,127.5583],[-95.0419,17.824,130.3615],[-95.0446,17.8222,137.9496],[-95.0441,17.8198,126.57],[-95.0483,17.8206,129.8945],[-95.0478,17.8143,98.3261],[-95.049,17.814,102.7443],[-95.0471,17.8047,80.9699],[-95.0522,17.8037,82.2439],[-95.0515,17.8006,73.539],[-95.0555,17.7997,70.3027],[-95.0546,17.7953,70.7472],[-95.0565,17.7949,65.9476],[-95.061,17.7884,58.8465],[-95.0633,17.7885,55.8021],[-95.0637,17.7864,53.0878],[-95.0728,17.7864,50.6569],[-95.0774,17.7819,52.2324],[-95.0692,17.7793,48.1574],[-95.0627,17.7724,51.0049],[-95.0574,17.7738,54.0788],[-95.0506,17.7726,58.1435],[-95.0479,17.7638,56.9183],[-95.0456,17.7633,59.2097],[-95.0362,17.7683,62.4082],[-95.0378,17.7728,81.0543],[-95.0324,17.7798,84.984],[-95.0294,17.7816,83.6691],[-95.0265,17.7799,73.9263],[-95.0238,17.7761,58.7278],[-95.0383,17.7515,73.2705],[-95.0049,17.7332,31.3491],[-95.0024,17.7351,31.7588],[-95.0029,17.7313,29.9701],[-94.9937,17.7299,34.8837],[-94.9944,17.7264,27.0213],[-94.9851,17.725,34.6926],[-94.9857,17.7215,37.5041],[-94.9722,17.7207,30.5991],[-94.9724,17.7162,29.7926],[-94.9613,17.7157,24.8689],[-94.9616,17.7117,36.7002],[-94.9525,17.712,31.4203],[-94.9526,17.7084,25.719],[-94.9419,17.7086,22.533],[-94.9419,17.7066,18.9392],[-94.9378,17.7054,22.5255],[-94.9381,17.699,20.7532],[-94.9469,17.6966,19.3126],[-94.9442,17.6862,26.8895],[-94.9483,17.6912,22.905],[-94.9522,17.6904,20.9649],[-94.9538,17.688,22.4733],[-94.9536,17.6866,24.4882],[-94.9492,17.6871,21.725],[-94.9486,17.679,36.9907],[-94.946,17.6764,55.4298],[-94.941,17.6762,50.9084],[-94.9392,17.6812,50.39],[-94.9338,17.6799,53.504],[-94.93,17.6844,51.0287],[-94.9161,17.6895,41.738],[-94.9088,17.6867,37.3969],[-94.9051,17.6878,40.1106],[-94.9039,17.6831,26.3055],[-94.9074,17.6769,15.4967],[-94.9051,17.6768,15.3186],[-94.905,17.6751,11.6395],[-94.9082,17.6479,24.8556],[-94.9117,17.641,43.4638],[-94.9143,17.6396,42.6006],[-94.9128,17.6358,37.6457],[-94.915,17.6333,33.7159],[-94.913,17.6325,41.9937],[-94.9134,17.6301,48.7789],[-94.9116,17.627,47.9986],[-94.9068,17.6289,48.9159],[-94.9062,17.6212,54.8533],[-94.9024,17.6196,45.682],[-94.9006,17.6193,47.5344],[-94.8959,17.6234,38.5194],[-94.8943,17.6224,38.5194],[-94.888,17.6233,34.2507],[-94.8885,17.6181,33.8612],[-94.8865,17.6148,31.1213],[-94.8789,17.6145,31.3087],[-94.88,17.6031,26.1788],[-94.8868,17.6036,27.5146],[-94.8862,17.5974,38.4889],[-94.8901,17.5938,33.5703],[-94.8993,17.5961,28.2631],[-94.9034,17.6008,36.1374],[-94.9028,17.6049,36.2716],[-94.9075,17.6056,49.7234],[-94.9064,17.6141,52.8483],[-94.9111,17.6179,52.8643],[-94.9105,17.62,52.2886],[-94.914,17.6215,53.9563],[-94.921,17.6201,48.1709],[-94.9222,17.6222,43.2033],[-94.9263,17.6199,50.0803],[-94.9256,17.6249,36.0219],[-94.9286,17.6294,31.5928],[-94.9348,17.6268,46.096],[-94.9345,17.6312,23.0624],[-94.9621,17.6352,26.7575],[-94.9652,17.6438,42.7933],[-94.9703,17.6507,50.1918],[-94.9696,17.6547,49.3473],[-94.9979,17.6582,59.4139],[-94.9979,17.6718,37.7939],[-94.9989,17.6722,55.2062],[-94.9993,17.6689,55.6595],[-95.0038,17.6696,48.5321],[-95.0038,17.6678,49.5714],[-95.0081,17.6687,48.4258],[-95.0079,17.6708,48.6288],[-95.0117,17.6713,38.3245],[-95.011,17.6759,31.9441],[-95.0145,17.6763,34.8917],[-95.0131,17.6907,29.6672],[-95.0196,17.6907,33.2735],[-95.0232,17.6856,35.3092],[-95.0289,17.7158,67.1268],[-95.0584,17.7198,74.2723],[-95.0647,17.7013,80.9696],[-95.0563,17.7004,70.4378],[-95.0583,17.6917,53.5096],[-95.057,17.6915,53.5096],[-95.0575,17.688,53.9209],[-95.0533,17.6875,57.7345],[-95.0538,17.6837,64.2515],[-95.0486,17.683,60.3967],[-95.0495,17.6755,46.5057],[-95.0446,17.6749,43.1116],[-95.0463,17.6643,48.495],[-95.0369,17.6631,46.6829],[-95.0364,17.6667,45.4482],[-95.0308,17.666,43.9666],[-95.0327,17.6633,51.6322],[-95.0307,17.663,43.1307],[-95.0306,17.6609,46.6703],[-95.0276,17.6607,51.6866],[-95.0262,17.6583,46.2709],[-95.0271,17.6548,51.9695],[-95.022,17.655,48.9566],[-95.0218,17.6564,53.1817],[-95.0197,17.6535,61.8829],[-95.0066,17.6518,59.4382],[-95.0079,17.6451,69.7767],[-95.01,17.6431,67.6067],[-95.0097,17.6416,56.1178],[-95.0063,17.6414,62.6505],[-95.0078,17.6377,55.2334],[-95.0059,17.6375,52.9595],[-95.0068,17.6339,60.7365],[-95.0086,17.6344,58.5319],[-95.0088,17.6328,53.7087],[-95.0123,17.6372,53.5116],[-95.0156,17.6367,57.7525],[-95.0352,17.6459,49.0481],[-95.0342,17.6493,46.7509],[-95.0527,17.6519,54.1631],[-95.0526,17.6532,58.1603],[-95.056,17.6537,56.3768],[-95.057,17.6477,54.8456],[-95.0616,17.6484,57.4403],[-95.0621,17.6453,57.6471],[-95.0669,17.646,58.6975],[-95.0686,17.6352,76.1681],[-95.0699,17.6354,80.5152],[-95.0709,17.6319,77.1683],[-95.0737,17.6118,64.6189],[-95.0761,17.5785,43.5251],[-95.0658,17.576,42.9035],[-95.0606,17.5732,40.4089],[-95.0604,17.5717,42.4352],[-95.0501,17.575,38.696],[-95.0463,17.5731,38.5666],[-95.0454,17.5703,37.2097],[-95.0427,17.5685,36.3257],[-95.0278,17.5632,38.742],[-95.024,17.5637,32.6792],[-95.0131,17.5723,33.4727],[-95.0078,17.573,33.9254],[-95.0053,17.5764,33.7066],[-95.0002,17.5794,30.2855],[-94.9926,17.5731,29.6463],[-94.981,17.5772,26.7682],[-94.9763,17.5759,30.5335],[-94.9751,17.5773,27.13],[-94.9639,17.5745,25.5753],[-94.9595,17.5779,25.6487],[-94.9545,17.5773,25.7077],[-94.9489,17.5793,23.2324],[-94.9395,17.5785,26.8971],[-94.9353,17.5761,27.3069],[-94.9341,17.5723,24.2656],[-94.9312,17.5699,22.4964],[-94.9266,17.571,24.4462],[-94.9236,17.5686,26.1905],[-94.9155,17.5719,24.8449],[-94.9138,17.5712,23.6942],[-94.9135,17.5749,23.1509],[-94.9103,17.5756,21.3729],[-94.9078,17.5784,19.793],[-94.9059,17.5771,19.9445],[-94.8996,17.5792,18.5373],[-94.8932,17.5773,21.318],[-94.8909,17.5816,19.7357],[-94.8878,17.5834,21.7809],[-94.8849,17.5803,18.7552],[-94.8812,17.5804,24.4096],[-94.8729,17.584,16.3157],[-94.8653,17.5795,16.1662],[-94.8639,17.5829,16.8699],[-94.8586,17.5845,18.8329],[-94.8558,17.5822,16.5627],[-94.8542,17.5847,19.2504],[-94.8513,17.584,18.4463],[-94.8492,17.5884,17.3209],[-94.8477,17.5876,16.1498],[-94.8417,17.5905,13.2956],[-94.8395,17.588,13.769],[-94.839,17.5897,13.3681],[-94.8346,17.5886,19.789],[-94.8329,17.5907,13.2779],[-94.8279,17.5867,13.1207],[-94.8241,17.5878,16.5785],[-94.8229,17.5909,12.4296],[-94.8209,17.589,14.2638],[-94.8186,17.5893,16.1105],[-94.8169,17.5858,12.3919],[-94.8115,17.5887,15.0067],[-94.8085,17.5868,11.8584],[-94.8096,17.585,11.822],[-94.8058,17.5859,12.1882],[-94.8049,17.5834,14.857],[-94.8004,17.618,34.8571],[-94.8065,17.6187,32.3115],[-94.8042,17.6384,36.5119],[-94.812,17.6407,34.4819],[-94.8115,17.6441,35.4992],[-94.8061,17.6434,32.331],[-94.8069,17.6488,33.7943],[-94.8036,17.6491,37.8526],[-94.8035,17.6634,22.8467],[-94.8087,17.6694,9.925],[-94.8099,17.6855,4.8253],[-94.8146,17.6857,7.2676],[-94.8171,17.6915,8.212],[-94.8243,17.6944,5.6744],[-94.8246,17.6988,6.1976],[-94.8266,17.6968,5.6747],[-94.8283,17.6975,6.6045],[-94.8241,17.703,5.4717],[-94.8295,17.7059,4.7926],[-94.8261,17.7097,6.1457],[-94.8313,17.7141,4.9614],[-94.827,17.7168,7.4608],[-94.8261,17.7236,4.6448],[-94.8196,17.7271,4.4644],[-94.8191,17.73,4.867],[-94.8277,17.7337,7.0572],[-94.8313,17.7382,6.1899],[-94.8453,17.7379,8.1461],[-94.8517,17.7412,7.5175],[-94.855,17.7409,11.4204],[-94.8559,17.7431,10.8475],[-94.8583,17.7437,7.8982],[-94.862,17.7437,8.0853],[-94.8656,17.7397,9.922],[-94.8704,17.7473,26.347],[-94.8762,17.7472,28.1362],[-94.8798,17.7507,26.57],[-94.8771,17.7568,17.4738],[-94.8769,17.7629,16.398],[-94.8719,17.7623,14.147],[-94.8689,17.7648,11.8064],[-94.8613,17.7603,10.0277],[-94.8521,17.7582,7.3407],[-94.8392,17.7638,7.0882],[-94.8396,17.7702,8.5902],[-94.8417,17.7716,8.5829],[-94.8406,17.7774,10.9545],[-94.852,17.7787,11.9697],[-94.8546,17.7746,24.6329],[-94.857,17.7743,16.3443],[-94.8631,17.7765,27.0344],[-94.8674,17.7759,21.2923],[-94.8755,17.7803,22.995],[-94.8784,17.7894,20.4259],[-94.8822,17.7912,21.6879],[-94.8823,17.7933,18.5557],[-94.8905,17.7971,26.8374],[-94.8913,17.7999,20.0192],[-94.8904,17.808,22.129],[-94.8925,17.8161,28.0844],[-94.884,17.8307,42.413],[-94.881,17.8308,36.2208],[-94.8839,17.8369,38.0099],[-94.894,17.8368,47.1079],[-94.8945,17.8404,54.0203],[-94.8999,17.8403,65.1376],[-94.9,17.8435,69.6603],[-94.8968,17.8435,64.8764],[-94.8975,17.8455,63.0495],[-94.8955,17.8474,47.922],[-94.9,17.8518,57.5135],[-94.9024,17.8495,61.5896],[-94.903,17.8517,42.1641],[-94.9115,17.8512,59.8682],[-94.9107,17.8602,35.3318],[-94.9139,17.8616,35.1518],[-94.915,17.8646,44.7399],[-94.9178,17.8623,40.8793],[-94.925,17.8651,52.5282],[-94.9297,17.8701,64.5205],[-94.9297,17.873,60.413],[-94.9327,17.8739,65.9337],[-94.9314,17.876,65.9454],[-94.9351,17.8793,65.6804],[-94.932,17.8807,55.1303],[-94.932,17.8883,54.2009],[-94.9285,17.8878,61.9264],[-94.9292,17.8905,67.329],[-94.9464,17.8928,82.2338],[-94.9496,17.8965,85.362],[-94.9448,17.903,66.8741],[-94.92,17.9023,45.176],[-94.9175,17.9056,54.461],[-94.917,17.9113,57.3241],[-94.9392,17.91,72.4063],[-94.9303,17.9214,76.3902],[-94.9485,17.9214,65.5849],[-94.9514,17.9227,70.4759],[-94.9485,17.9266,64.8975],[-94.9563,17.9221,73.9619],[-94.9544,17.9271,75.7448],[-94.9555,17.9288,71.799],[-94.9563,17.927,72.6676],[-94.9578,17.9268,74.8365],[-94.9574,17.9284,76.1443],[-94.9602,17.9283,71.7487],[-94.9619,17.9252,77.8997],[-94.9647,17.9252,74.0002],[-94.9662,17.921,80.0223],[-94.963,17.92,78.8205],[-94.9664,17.9173,75.072],[-94.9681,17.9192,72.9635],[-94.9717,17.9163,79.1977],[-94.9701,17.9143,74.612],[-94.9735,17.9114,85.0806],[-94.9765,17.9126,86.1656],[-94.9825,17.9077,80.5666],[-94.9847,17.91,91.0033],[-94.9863,17.9089,91.0033],[-94.9874,17.9103,89.3914],[-94.9828,17.9147,86.1058],[-94.9858,17.9174,97.9856],[-94.9862,17.9258,86.1873],[-94.989,17.9257,83.1073],[-94.9892,17.929,76.984],[-94.9971,17.9302,90.0203],[-94.9963,17.9321,79.328],[-94.9987,17.9321,83.0376],[-94.9987,17.9298,90.0203],[-95.0075,17.9299,64.3202]]]]}}