{"type": "Feature","bbox": [-98.7995,18.9353,-98.6663,19.0013],"geometry": {"type": "MultiPolygon","coordinates": [[[[-98.7995,18.9403,2047.046],[-98.7921,18.9353,2006.6184],[-98.7861,18.9429,2091.833],[-98.7853,18.9412,2075.7861],[-98.7809,18.9398,2113.7209],[-98.775,18.9435,2124.9814],[-98.7728,18.9419,2165.3857],[-98.7669,18.9427,2183.0151],[-98.7631,18.9404,2282.4233],[-98.7564,18.9409,2271.2749],[-98.7556,18.9428,2298.9658],[-98.753,18.9423,2295.4368],[-98.7475,18.9443,2362.5146],[-98.7371,18.9439,2442.4062],[-98.7334,18.9457,2482.8909],[-98.7148,18.9426,2729.2393],[-98.7078,18.9506,2735.4971],[-98.7015,18.9548,2793.1697],[-98.7006,18.9593,2831.187],[-98.6964,18.9642,2889.4319],[-98.6902,18.9666,3006.1941],[-98.6909,18.9676,2984.0515],[-98.6663,19.0013,3737.3469],[-98.6911,18.9969,3309.3481],[-98.7209,18.9876,2900.1104],[-98.7224,18.9905,2810.877],[-98.7311,18.9886,2694.8477],[-98.7362,18.9921,2599.967],[-98.7436,18.9878,2494.8933],[-98.7483,18.9893,2440.3882],[-98.7557,18.9879,2398.5017],[-98.7627,18.9922,2362.2732],[-98.7644,18.9949,2355.3408],[-98.7679,18.9956,2326.1855],[-98.7698,18.9918,2334.5435],[-98.7668,18.9891,2348.2656],[-98.7689,18.9865,2352.3733],[-98.7676,18.9857,2361.6797],[-98.7691,18.9859,2352.3733],[-98.7726,18.9806,2351.1318],[-98.7729,18.9773,2347.363],[-98.776,18.9786,2306.4543],[-98.7764,18.9742,2322.7126],[-98.7843,18.9723,2190.1575],[-98.7888,18.9695,2249.2026],[-98.7885,18.9616,2248.6196],[-98.7995,18.9403,2047.046]]]]}
,"properties": {"GID_2": "MEX.15.35_2","GID_0": "MEX","country": "México","GID_1": "MEX.15_1","province": "México","NL_NAME_1": "NA","county": "Ecatzingo","VARNAME_2": "NA","NL_NAME_2": "NA","TYPE_2": "Município","ENGTYPE_2": "Municipality","CC_2": "NA","HASC_2": "NA","name": "Ecatzingo.county","area_km2": 53.8568,"hist_schema_id": "Elevation0-9000","hist_area_km2": {"2000": 0.02005,"2025": 0.16044,"2050": 0.28076,"2075": 0.44119,"2100": 0.34092,"2125": 0.2607,"2150": 0.46123,"2175": 0.66176,"2200": 0.84223,"2225": 1.0628,"2250": 1.28335,"2275": 1.56406,"2300": 1.36356,"2325": 2.00519,"2350": 2.04523,"2375": 2.14544,"2400": 2.88731,"2425": 1.74441,"2450": 1.62411,"2475": 1.84468,"2500": 1.5239,"2525": 1.94498,"2550": 1.14292,"2575": 1.04266,"2600": 1.04266,"2625": 1.02259,"2650": 0.90228,"2675": 0.94242,"2700": 1.2432,"2725": 1.50387,"2750": 1.32339,"2775": 1.28329,"2800": 1.44368,"2825": 0.80202,"2850": 0.98248,"2875": 0.68171,"2900": 0.76191,"2925": 0.58145,"2950": 0.82204,"2975": 0.78194,"3000": 0.72177,"3025": 0.60148,"3050": 0.44109,"3075": 0.66162,"3100": 0.28069,"3125": 0.52128,"3150": 0.48118,"3175": 0.28068,"3200": 0.56138,"3225": 0.26063,"3250": 0.34083,"3275": 0.24058,"3300": 0.38092,"3325": 0.26063,"3350": 0.28068,"3375": 0.34082,"3400": 0.30072,"3425": 0.36087,"3450": 0.32077,"3475": 0.16038,"3500": 0.22053,"3525": 0.12029,"3550": 0.26062,"3575": 0.24057,"3600": 0.06014,"3625": 0.06014,"3650": 0.10024,"3675": 0.04009,"3700": 0.06014,"3725": 0.08019}}}