{"type":"Feature","properties":{"GID_2":"MEX.1.5_2","GID_0":"MEX","country":"México","GID_1":"MEX.1_1","province":"Aguascalientes","NL_NAME_1":"NA","county":"ElLlano","VARNAME_2":"NA","NL_NAME_2":"NA","TYPE_2":"Município","ENGTYPE_2":"Municipality","CC_2":"NA","HASC_2":"NA","name":"El_Llano.county"},
"geometry":{"type": "MultiPolygon","coordinates": [[[[-102.0645,21.7962,1979.6121],[-102.058,21.8019,1980.266],[-102.0529,21.8133,1981.7177],[-102.0551,21.8164,1984.3468],[-102.0417,21.8231,1984.2396],[-102.0411,21.8358,1986.4359],[-102.0386,21.8356,1986.9307],[-102.0384,21.8532,1990.7544],[-102.0208,21.8512,1991.5806],[-102.02,21.8625,1991.4857],[-101.8802,21.9101,2392.5466],[-101.838,21.9073,2431.0125],[-101.8353,21.9418,2388.6191],[-101.8451,21.9442,2337.2805],[-101.8566,21.9431,2357.0718],[-101.8653,21.9475,2383.147],[-101.8676,21.9451,2409.2688],[-101.8727,21.9465,2415.0784],[-101.8797,21.9439,2390.4504],[-101.8846,21.9392,2373.7776],[-101.8818,21.9381,2417.0286],[-101.8858,21.9326,2433.25],[-101.8904,21.951,2292.9995],[-101.9481,22.0088,2078.8254],[-101.9532,22.0091,2085.281],[-101.953,22.0114,2080.4976],[-101.9614,22.0181,2063.4292],[-101.9574,22.0096,2085.0454],[-101.9919,22.0079,2029.7361],[-101.9875,22.0392,2004.5433],[-102.0076,22.0399,2012.1914],[-102.0114,22.0337,2034.9617],[-102.0179,22.038,2040.4458],[-102.0171,22.0391,2032.2507],[-102.0228,22.0443,2001.9487],[-102.024,22.0507,2004.9865],[-102.0221,22.0527,1989.0166],[-102.0343,22.0694,1997.21],[-102.05,22.0611,1995.8977],[-102.0432,22.0566,1973.9143],[-102.0423,22.0585,1981.0404],[-102.0406,22.0583,1981.0404],[-102.0341,22.052,2006.3928],[-102.0454,22.0491,1970.7919],[-102.0508,22.042,1969.6498],[-102.0548,22.0459,1978.0977],[-102.057,22.0442,1980.4364],[-102.0601,22.0444,1984.9785],[-102.0649,22.0174,1989.7231],[-102.0978,22.0232,1954.9646],[-102.0986,22.014,1985.4402],[-102.0974,22.0128,1985.0605],[-102.0972,21.9961,2032.3547],[-102.0847,21.986,2056.7925],[-102.0687,21.9779,2053.2993],[-102.0709,21.974,2057.6907],[-102.0682,21.971,2057.823],[-102.0694,21.969,2060.6743],[-102.0943,21.9723,2066.9946],[-102.0924,21.9611,2069.5981],[-102.0973,21.9609,2067.0649],[-102.1009,21.9649,2057.0308],[-102.1005,21.9727,2046.5754],[-102.1319,21.9768,1999.4958],[-102.138,21.9432,2062.7891],[-102.1349,21.9404,2060.5483],[-102.131,21.9397,2054.7061],[-102.1313,21.9372,2053.4414],[-102.1642,21.9371,2060.4414],[-102.1661,21.9195,2051.1602],[-102.162,21.9196,2051.9673],[-102.1621,21.9078,2035.7839],[-102.1554,21.9108,2039.9468],[-102.1571,21.8692,1997.6825],[-102.1751,21.8705,2025.1353],[-102.176,21.8438,1956.0955],[-102.1676,21.8429,2006.9415],[-102.1698,21.8395,1998.6575],[-102.1708,21.832,2008.1038],[-102.1579,21.8297,2004.7527],[-102.1604,21.8113,1994.4652],[-102.1505,21.8096,1974.75],[-102.1535,21.7889,2003.709],[-102.146,21.7878,2003.4557],[-102.1454,21.7917,2003.9543],[-102.1428,21.7913,2003.8555],[-102.1425,21.7955,2003.131],[-102.1406,21.797,2002.752],[-102.1408,21.7945,2002.0109],[-102.1326,21.7932,2001.1924],[-102.132,21.7966,2002.422],[-102.1173,21.7941,1998.2301],[-102.115,21.8002,2000.7251],[-102.1076,21.7991,1999.6377],[-102.105,21.803,2000.1216],[-102.0922,21.7988,1997.6552],[-102.0717,21.7947,1982.3665],[-102.0688,21.7989,1983.6018],[-102.0645,21.7962,1979.6121]]]]}}