{"type": "Feature","bbox": [-101.6461,20.298,-101.367,20.7768],"geometry": {"type": "MultiPolygon","coordinates": [[[[-101.5271,20.7491,1803.0422],[-101.5575,20.7599,1829.974],[-101.5573,20.7428,1908.4675],[-101.567,20.7408,1910.2612],[-101.5705,20.7538,1889.4508],[-101.5893,20.7547,1865.8956],[-101.593,20.7618,1873.0087],[-101.587,20.7637,1878.6935],[-101.5945,20.7745,1875.1831],[-101.6005,20.7768,1858.5374],[-101.6338,20.762,1799.9114],[-101.6391,20.7571,1818.5575],[-101.6411,20.75,1806.4333],[-101.6448,20.7476,1810.1099],[-101.6452,20.7435,1787.8961],[-101.6386,20.7313,1736.2043],[-101.6376,20.7226,1733.1946],[-101.6278,20.7227,1739.7578],[-101.6236,20.7212,1726.2601],[-101.6269,20.7132,1718.9348],[-101.626,20.7094,1712.8413],[-101.6356,20.7101,1735.365],[-101.6372,20.6946,1698.2184],[-101.6353,20.6895,1698.2784],[-101.6366,20.687,1698.63],[-101.6308,20.6854,1698.4807],[-101.6292,20.6822,1697.6514],[-101.6236,20.679,1698.1948],[-101.6239,20.6724,1696.7484],[-101.6203,20.6708,1697.2091],[-101.6209,20.6674,1697.5181],[-101.6184,20.6643,1698.1771],[-101.6216,20.6608,1696.8999],[-101.6176,20.6564,1696.4307],[-101.6126,20.6577,1696.8826],[-101.6103,20.6552,1696.2087],[-101.6088,20.6587,1696.1542],[-101.6022,20.6536,1696.3693],[-101.5992,20.6544,1695.6266],[-101.5923,20.6479,1696.478],[-101.5905,20.6424,1695.3516],[-101.5861,20.6397,1695.3505],[-101.5802,20.6389,1694.3467],[-101.5804,20.6328,1695.3055],[-101.5835,20.6332,1693.5732],[-101.5847,20.63,1694.0845],[-101.5865,20.6303,1694.0305],[-101.5874,20.6351,1693.922],[-101.5904,20.6296,1693.6338],[-101.5893,20.6252,1692.5503],[-101.5866,20.6249,1692.0706],[-101.5852,20.6229,1692.1844],[-101.5837,20.6237,1692.1844],[-101.5825,20.6213,1691.9268],[-101.5809,20.6217,1692.0662],[-101.5778,20.6195,1692.1],[-101.5787,20.6164,1692.6956],[-101.5776,20.6118,1691.4036],[-101.5796,20.6107,1692.6272],[-101.5816,20.6057,1691.6018],[-101.5805,20.602,1689.6548],[-101.5824,20.5994,1689.5205],[-101.5815,20.595,1688.7397],[-101.5835,20.590699999999998,1688.4236],[-101.5791,20.5831,1689.33],[-101.5842,20.5803,1688.7871],[-101.5865,20.5808,1688.2722],[-101.5877,20.5782,1688.135],[-101.5901,20.5778,1688.6415],[-101.5921,20.5794,1688.7003],[-101.5924,20.5752,1688.3627],[-101.5946,20.573,1688.5726],[-101.5937,20.5701,1688.8854],[-101.5952,20.5698,1688.1504],[-101.5954,20.5656,1689.2644],[-101.5937,20.5626,1688.5692],[-101.5913,20.5625,1689.603],[-101.5892,20.5587,1689.4888],[-101.5874,20.5596,1689.7313],[-101.5864,20.5583,1689.8892],[-101.5882,20.5577,1689.4888],[-101.5879,20.5553,1689.6727],[-101.59,20.5565,1689.3022],[-101.589,20.5522,1689.5588],[-101.5904,20.5502,1689.6421],[-101.5889,20.5465,1689.0165],[-101.5867,20.548,1689.1294],[-101.5848,20.5461,1689.161],[-101.5871,20.5412,1688.8724],[-101.5855,20.5354,1689.9141],[-101.5899,20.5335,1690.4309],[-101.5909,20.5346,1690.1683],[-101.593,20.5321,1690.4414],[-101.5994,20.5302,1690.2798],[-101.6005,20.528199999999998,1690.7195],[-101.6035,20.5281,1690.4136],[-101.605,20.5268,1690.8662],[-101.6047,20.5222,1690.1062],[-101.6077,20.5215,1690.3992],[-101.6084,20.5139,1690.826],[-101.606,20.5091,1689.9921],[-101.6079,20.5079,1689.4595],[-101.6019,20.5054,1687.2798],[-101.6008,20.5023,1686.9569],[-101.6018,20.4896,1687.6367],[-101.6046,20.4828,1686.9041],[-101.6028,20.4754,1686.3711],[-101.6042,20.4748,1687.2432],[-101.6038,20.4715,1688.4735],[-101.6117,20.4721,1687.6305],[-101.6147,20.4699,1690.5935],[-101.6142,20.4676,1687.1875],[-101.6103,20.4674,1688.394],[-101.6113,20.4624,1686.9786],[-101.6094,20.4611,1686.9287],[-101.6109,20.4549,1687.4519],[-101.6074,20.4534,1686.9543],[-101.6069,20.4511,1688.6266],[-101.6104,20.4495,1687.9396],[-101.6098,20.4463,1688.0153],[-101.6055,20.4413,1689.3124],[-101.6047,20.4374,1686.3942],[-101.6015,20.4379,1687.0676],[-101.6014,20.436,1686.1914],[-101.599,20.4353,1687.4855],[-101.5997,20.4329,1686.4922],[-101.595,20.4317,1686.1499],[-101.5963,20.4278,1685.5381],[-101.5951,20.4267,1685.8003],[-101.5966,20.4256,1685.5969],[-101.5954,20.4249,1687.2321],[-101.5989,20.4233,1686.5137],[-101.6006,20.4243,1687.3411],[-101.5996,20.4215,1687.0521],[-101.6027,20.4215,1686.8831],[-101.5977,20.4174,1687.4283],[-101.5982,20.4151,1686.0062],[-101.6009,20.4148,1686.3582],[-101.6012,20.4131,1686.5922],[-101.6038,20.4137,1686.2278],[-101.6039,20.4118,1685.2871],[-101.602,20.4115,1687.2412],[-101.6033,20.4076,1685.4224],[-101.6005,20.4073,1686.1016],[-101.6001,20.403199999999998,1685.9449],[-101.6036,20.4013,1685.8738],[-101.6014,20.3998,1685.9484],[-101.6064,20.3992,1691.533],[-101.6108,20.3952,1686.241],[-101.6133,20.3871,1685.8674],[-101.6166,20.3839,1685.6804],[-101.6195,20.3835,1685.5563],[-101.6205,20.3797,1686.0031],[-101.6186,20.3774,1685.5342],[-101.6229,20.3732,1685.7556],[-101.6285,20.3733,1685.9197],[-101.6334,20.3694,1686.4078],[-101.638,20.3728,1684.5637],[-101.6382,20.3683,1686.2102],[-101.6424,20.3684,1684.89],[-101.6414,20.3601,1685.0],[-101.6447,20.3558,1684.208],[-101.6421,20.3561,1684.818],[-101.6418,20.3536,1685.5811],[-101.645,20.3535,1684.8661],[-101.6461,20.3507,1684.7253],[-101.6402,20.3496,1684.8979],[-101.6412,20.3468,1684.3923],[-101.6363,20.3425,1683.9937],[-101.6357,20.3396,1684.1396],[-101.6392,20.3379,1687.486],[-101.6362,20.3341,1684.228],[-101.6286,20.3338,1685.6504],[-101.6298,20.3376,1683.9037],[-101.6275,20.3395,1683.8745],[-101.6225,20.3402,1682.9395],[-101.6201,20.3383,1683.1019],[-101.6212,20.3359,1683.0813],[-101.6275,20.333,1683.9954],[-101.6266,20.3293,1683.1013],[-101.6213,20.326,1682.7777],[-101.6251,20.3243,1683.4689],[-101.6253,20.3227,1682.5887],[-101.6292,20.3222,1683.0386],[-101.6291,20.3184,1683.4808],[-101.6271,20.3166,1682.6304],[-101.6307,20.3149,1684.4631],[-101.6317,20.3157,1683.1152],[-101.6327,20.3137,1682.8845],[-101.6309,20.3116,1686.9867],[-101.6336,20.309,1684.2551],[-101.6282,20.3085,1683.8025],[-101.6271,20.3034,1684.6017],[-101.6258,20.3056,1684.8994],[-101.6275,20.3096,1685.364],[-101.6247,20.3146,1685.5679],[-101.6199,20.3155,1687.2736],[-101.6178,20.3124,1685.0466],[-101.6113,20.3127,1686.0692],[-101.6085,20.3097,1687.108],[-101.6047,20.3094,1686.3121],[-101.6059,20.3027,1688.0737],[-101.604,20.298,1686.1279],[-101.6003,20.2984,1687.0853],[-101.5991,20.3066,1685.3915],[-101.6007,20.3104,1686.907],[-101.596,20.3118,1686.6929],[-101.5914,20.3095,1687.7018],[-101.589,20.31,1691.2904],[-101.5888,20.3133,1687.1632],[-101.5844,20.3167,1687.9543],[-101.5836,20.3272,1689.0122],[-101.5778,20.3264,1686.0139],[-101.5757,20.3213,1686.7274],[-101.5716,20.3207,1687.2996],[-101.5708,20.3159,1687.2408],[-101.5612,20.317,1686.8341],[-101.564,20.3201,1688.726],[-101.5624,20.3255,1686.891],[-101.566,20.3272,1686.6306],[-101.5668,20.3291,1686.9298],[-101.5667,20.3416,1687.7612],[-101.5681,20.3415,1690.2297],[-101.5706,20.3558,1689.8408],[-101.5694,20.3592,1690.9166],[-101.5711,20.363,1692.4749],[-101.5699,20.3634,1692.4749],[-101.5735,20.3643,1692.7229],[-101.5749,20.3633,1692.7207],[-101.5768,20.368,1694.0659],[-101.5775,20.3826,1701.0474],[-101.5729,20.3945,1715.2478],[-101.571,20.3945,1718.4713],[-101.5726,20.3924,1708.5354],[-101.5675,20.3918,1741.9991],[-101.5647,20.3929,1756.9847],[-101.5647,20.3956,1744.064],[-101.5597,20.3941,1802.1422],[-101.5561,20.4017,1736.7424],[-101.5491,20.401,1770.2791],[-101.5476,20.3995,1767.4622],[-101.5306,20.3985,2044.3911],[-101.5266,20.3962,2111.1431],[-101.5239,20.4023,2181.9001],[-101.5128,20.3978,2142.2744],[-101.5133,20.4015,2157.8782],[-101.5085,20.4065,2152.5842],[-101.4915,20.4052,1942.2872],[-101.4882,20.4079,1928.3865],[-101.4893,20.4109,1920.7848],[-101.4863,20.4149,1896.9972],[-101.4824,20.4104,1882.2805],[-101.473,20.4123,1858.6643],[-101.4665,20.4111,1843.3956],[-101.4578,20.418,1794.2837],[-101.4553,20.4152,1798.7349],[-101.453,20.4157,1790.9222],[-101.4527,20.4138,1793.405],[-101.4472,20.4126,1771.3188],[-101.4467,20.4112,1763.9058],[-101.4408,20.4109,1742.0195],[-101.4422,20.4084,1749.8811],[-101.4266,20.3985,1697.5942],[-101.4121,20.3857,1695.3989],[-101.4109,20.3876,1694.8536],[-101.4126,20.3928,1695.3844],[-101.4099,20.3943,1696.061],[-101.4052,20.3941,1695.4926],[-101.4036,20.3976,1696.5526],[-101.4072,20.4039,1697.3009],[-101.4069,20.4073,1701.3853],[-101.4013,20.4069,1698.6279],[-101.3972,20.4133,1696.1681],[-101.3926,20.4155,1696.6981],[-101.389,20.416,1696.3772],[-101.3843,20.4128,1696.4401],[-101.38,20.4158,1697.4663],[-101.3808,20.4269,1696.5996],[-101.3844,20.4303,1697.1986],[-101.3839,20.4343,1697.6285],[-101.3886,20.4422,1697.6912],[-101.3871,20.4482,1698.0983],[-101.39,20.4528,1696.7247],[-101.3897,20.4579,1697.0361],[-101.3988,20.4728,1697.782],[-101.4027,20.4766,1698.2098],[-101.403,20.4792,1697.3918],[-101.4015,20.4826,1697.4934],[-101.3987,20.4829,1697.543],[-101.3974,20.477,1699.5718],[-101.3948,20.4754,1699.9883],[-101.3903,20.4806,1699.4961],[-101.3908,20.4857,1699.4945],[-101.3862,20.4822,1698.9165],[-101.3792,20.4859,1698.8203],[-101.3728,20.487,1699.0732],[-101.3698,20.4915,1699.2092],[-101.367,20.5042,1700.2173],[-101.3912,20.5017,1701.0686],[-101.3979,20.5034,1701.2915],[-101.4005,20.5158,1702.652],[-101.4444,20.5011,1702.1866],[-101.4478,20.5055,1700.858],[-101.4473,20.5071,1700.7568],[-101.4723,20.5025,1698.9344],[-101.4936,20.5088,1695.8345],[-101.4946,20.5125,1695.4543],[-101.4964,20.5125,1696.698],[-101.4961,20.5148,1696.6753],[-101.501,20.5197,1693.9189],[-101.505,20.5349,1696.2006],[-101.5048,20.5438,1695.7615],[-101.5078,20.5521,1695.8035],[-101.5076,20.5616,1696.7063],[-101.4978,20.5614,1702.0576],[-101.4936,20.5659,1708.5153],[-101.4845,20.5649,1707.2913],[-101.4723,20.5727,1711.2184],[-101.4747,20.5885,1702.3596],[-101.4734,20.5935,1701.7927],[-101.478,20.5905,1701.219],[-101.4974,20.5961,1697.8262],[-101.4957,20.6399,1710.8226],[-101.4904,20.6406,1711.1768],[-101.4903,20.6438,1714.3505],[-101.4872,20.6444,1712.6289],[-101.4857,20.6443,1711.8767],[-101.4841,20.6398,1708.5142],[-101.48,20.6396,1708.5435],[-101.479,20.6468,1710.7991],[-101.4776,20.6464,1710.7203],[-101.4772,20.6507,1713.3735],[-101.4751,20.6515,1712.7061],[-101.4759,20.6526,1714.0884],[-101.4817,20.6496,1713.1824],[-101.49,20.6488,1724.6588],[-101.4986,20.6595,1764.0729],[-101.5003,20.6598,1768.5153],[-101.4989,20.6662,1802.3558],[-101.503,20.6801,1935.717],[-101.5111,20.6798,1971.1727],[-101.5269,20.7058,2226.532],[-101.5401,20.7028,2128.8662],[-101.5382,20.7093,2092.4917],[-101.5283,20.7178,2007.1924],[-101.5415,20.7316,1851.509],[-101.5313,20.7458,1801.8003],[-101.532,20.7474,1826.7068],[-101.5281,20.7477,1806.0693],[-101.5271,20.7491,1803.0422]]]]}
,"properties": {"GID_2": "MEX.11.1_2","GID_0": "MEX","country": "México","GID_1": "MEX.11_1","province": "Guanajuato","NL_NAME_1": "NA","county": "Abasolo","VARNAME_2": "NA","NL_NAME_2": "NA","TYPE_2": "Município","ENGTYPE_2": "Municipality","CC_2": "NA","HASC_2": "NA","name": "Abasolo.county","area_km2": 616.8004,"hist_schema_id": "Elevation0-9000","hist_area_km2": {"1675": 29.7423,"1700": 365.8237,"1725": 39.0224,"1750": 34.6119,"1775": 19.651,"1800": 16.6727,"1825": 16.2349,"1850": 19.8333,"1875": 15.1285,"1900": 11.0377,"1925": 8.0386,"1950": 8.1764,"1975": 7.3232,"2000": 5.0809,"2025": 3.8899,"2050": 2.8977,"2075": 2.5799,"2100": 2.3419,"2125": 1.9448,"2150": 2.422,"2175": 1.8068,"2200": 1.092,"2225": 0.4562,"2250": 0.2578,"2275": 0.238,"2300": 0.2182,"2325": 0.1785,"2350": 0.0992}}}