{"type": "Feature","bbox": [-105.7974,22.9413,-104.7552,23.9677],"geometry": {"type": "MultiPolygon","coordinates": [[[[-105.5722,23.9677,2505.0461],[-105.6935,23.912,1574.7307],[-105.6919,23.9042,1764.5148],[-105.7021,23.8291,2015.7913],[-105.6699,23.8241,2161.7151],[-105.6916,23.7728,2107.7412],[-105.7014,23.7895,2468.1553],[-105.7067,23.7846,2636.314],[-105.7012,23.7766,2642.0593],[-105.7023,23.7728,2615.0034],[-105.7235,23.7561,2657.0994],[-105.7301,23.7538,2743.8618],[-105.7276,23.7347,2728.2942],[-105.7315,23.7209,2742.7349],[-105.7314,23.7043,2747.5381],[-105.7379,23.6784,2753.8171],[-105.7591,23.6614,2630.1797],[-105.7767,23.6567,2476.5942],[-105.7968,23.6461,2378.3218],[-105.7897,23.638,2214.6953],[-105.7961,23.6318,1831.4797],[-105.7974,23.625,1735.7825],[-105.7929,23.6166,1608.8525],[-105.7931,23.6121,1578.6141],[-105.791,23.6078,1509.4342],[-105.7946,23.5992,1415.36],[-105.7909,23.5864,1231.7832],[-105.7949,23.5801,1148.0941],[-105.7934,23.578,1119.6257],[-105.7898,23.5785,1112.8677],[-105.7854,23.575,1113.1232],[-105.7843,23.5732,1050.3086],[-105.7859,23.5695,1025.1631],[-105.7797,23.5668,938.7538],[-105.7783,23.5641,923.7958],[-105.7729,23.561,903.4673],[-105.7727,23.5579,892.461],[-105.7703,23.5577,908.9343],[-105.7688,23.5557,900.7007],[-105.7676,23.5515,834.2928],[-105.7693,23.5485,811.9916],[-105.768,23.5457,807.9574],[-105.7691,23.5419,809.4227],[-105.7604,23.5351,842.6874],[-105.7589,23.532,829.9089],[-105.7597,23.5269,740.9608],[-105.7568,23.5245,771.741],[-105.7566,23.5155,710.6691],[-105.7601,23.5091,682.1454],[-105.76,23.5025,642.1827],[-105.751,23.5003,628.1224],[-105.7486,23.4937,665.8854],[-105.7405,23.4893,586.7669],[-105.7394,23.4853,605.9836],[-105.7342,23.4824,572.5397],[-105.7298,23.4823,636.7961],[-105.7234,23.4748,478.4833],[-105.7281,23.4668,520.9365],[-105.7247,23.4608,475.3922],[-105.7293,23.4579,474.5331],[-105.7301,23.4528,467.0587],[-105.7339,23.4522,477.535],[-105.7383,23.4484,489.1634],[-105.7389,23.4452,503.1628],[-105.7284,23.4396,453.1645],[-105.7306,23.434,488.5076],[-105.7283,23.429,441.6563],[-105.722,23.4264,419.6093],[-105.7071,23.4259,437.2657],[-105.7003,23.4202,431.6],[-105.704,23.4113,379.8047],[-105.7103,23.4081,406.9449],[-105.7086,23.4039,425.7346],[-105.7118,23.3978,442.5212],[-105.7121,23.3926,370.1153],[-105.7171,23.3927,371.9317],[-105.7224,23.386,400.7519],[-105.7225,23.3838,370.7898],[-105.7173,23.38,357.9819],[-105.7173,23.3786,426.2842],[-105.7233,23.3766,352.3786],[-105.7292,23.3781,352.7342],[-105.7307,23.3749,352.0569],[-105.7232,23.3721,403.3399],[-105.7122,23.3643,321.1265],[-105.7119,23.356,334.9059],[-105.7154,23.3526,319.3558],[-105.7152,23.3502,346.0409],[-105.7084,23.3504,317.8868],[-105.7052,23.3487,312.5601],[-105.7035,23.3401,374.9919],[-105.6971,23.3418,309.3713],[-105.694,23.3406,311.2509],[-105.7022,23.3327,343.6603],[-105.6988,23.3282,329.1615],[-105.7008,23.3242,305.7759],[-105.6937,23.3204,302.9876],[-105.6923,23.311,304.2626],[-105.693,23.3098,310.5969],[-105.6983,23.3102,283.007],[-105.6995,23.3077,289.9387],[-105.6917,23.3051,289.9938],[-105.6874,23.3071,278.1318],[-105.694,23.3013,296.4449],[-105.6902,23.2978,294.9695],[-105.6908,23.2946,307.3117],[-105.6871,23.2875,276.1934],[-105.6848,23.2857,271.194],[-105.677,23.2858,259.5712],[-105.6751,23.2822,273.2002],[-105.6726,23.2816,257.7835],[-105.6648,23.2827,247.4614],[-105.6636,23.2839,267.5797],[-105.6654,23.2863,264.1202],[-105.6637,23.2874,270.6693],[-105.6583,23.2822,244.3032],[-105.6537,23.2817,234.9184],[-105.6432,23.2765,231.8463],[-105.6455,23.2694,250.9478],[-105.6428,23.266,224.7887],[-105.6463,23.2637,230.4778],[-105.6477,23.2603,224.082],[-105.6461,23.2518,215.1793],[-105.6392,23.245,265.0001],[-105.6426,23.239,205.8894],[-105.6407,23.2375,200.9653],[-105.6344,23.2381,202.5193],[-105.6303,23.2356,203.1302],[-105.6316,23.225,314.2387],[-105.6297,23.2192,233.3689],[-105.6357,23.2147,173.6505],[-105.6303,23.2075,215.3198],[-105.6297,23.2023,165.4408],[-105.6337,23.1999,246.6173],[-105.6352,23.1969,211.6694],[-105.6343,23.1898,185.2077],[-105.6407,23.1855,163.0276],[-105.633,23.1734,140.6787],[-105.6338,23.171,147.3651],[-105.6389,23.1676,144.0096],[-105.6369,23.1559,147.6581],[-105.6458,23.1515,130.3975],[-105.644,23.1418,410.7657],[-105.6299,23.1309,437.2998],[-105.624,23.1224,180.5161],[-105.6188,23.1263,187.5974],[-105.6164,23.1256,212.5298],[-105.617,23.122,279.6629],[-105.607,23.1218,241.552],[-105.6058,23.1182,241.3104],[-105.6082,23.1184,242.5598],[-105.609,23.1166,296.468],[-105.6058,23.116,256.4218],[-105.6038,23.1129,263.9864],[-105.6014,23.1141,300.6307],[-105.5976,23.1091,282.1137],[-105.5946,23.1112,306.2535],[-105.5903,23.1093,313.5813],[-105.5842,23.1129,347.1171],[-105.5804,23.1094,390.8397],[-105.5747,23.1101,366.5396],[-105.5762,23.1076,388.0738],[-105.5754,23.105,400.0782],[-105.5702,23.1067,397.139],[-105.571,23.1087,404.1361],[-105.5693,23.1101,414.1862],[-105.5617,23.1041,442.5364],[-105.5589,23.1037,494.6696],[-105.5543,23.0989,490.4158],[-105.5493,23.1004,493.3622],[-105.5486,23.1044,546.8165],[-105.5462,23.1033,565.0291],[-105.5371,23.1045,577.6423],[-105.5374,23.1076,606.431],[-105.5316,23.1134,676.2111],[-105.5312,23.1181,704.9905],[-105.5251,23.1199,775.0712],[-105.5179,23.1249,983.9011],[-105.5078,23.1251,1199.6865],[-105.502,23.128,1515.1812],[-105.4553,23.1173,1818.4475],[-105.4462,23.1196,1849.8206],[-105.4404,23.1167,1826.7115],[-105.4315,23.1206,1883.521],[-105.4244,23.1203,2054.6941],[-105.4159,23.1169,1752.8872],[-105.413,23.1125,1758.7603],[-105.4131,23.1095,1656.3879],[-105.4085,23.1032,1479.0535],[-105.3988,23.1022,1451.4995],[-105.4012,23.0957,1358.0964],[-105.3983,23.0882,1190.4344],[-105.3923,23.0853,1153.9869],[-105.3904,23.0825,1150.9867],[-105.387,23.0837,1153.9891],[-105.3833,23.0816,1112.7594],[-105.3808,23.082,1095.5078],[-105.3804,23.0789,1120.709],[-105.3779,23.0778,1075.1554],[-105.3754,23.079,1091.2681],[-105.3707,23.0749,1058.4922],[-105.3583,23.0739,993.1887],[-105.3573,23.0719,1035.3064],[-105.359,23.0671,971.7972],[-105.3561,23.0651,966.723],[-105.3579,23.0632,964.1145],[-105.3505,23.0606,947.9225],[-105.3529,23.0553,912.9595],[-105.3509,23.0509,923.0835],[-105.354,23.0503,928.2407],[-105.3551,23.0471,899.9712],[-105.3588,23.0463,882.0103],[-105.3561,23.0442,877.1316],[-105.3552,23.0385,858.9069],[-105.3508,23.0356,814.5365],[-105.3533,23.0285,697.5886],[-105.3525,23.0248,694.1592],[-105.3539,23.0198,688.5697],[-105.3495,23.0172,627.0159],[-105.3497,23.0151,634.5151],[-105.3431,23.0123,618.9529],[-105.345,23.0099,589.4907],[-105.3441,23.0078,587.1492],[-105.341,23.0084,603.6567],[-105.3386,22.9996,546.9746],[-105.3337,22.9947,537.8014],[-105.339,22.9929,533.8113],[-105.3351,22.9888,511.8028],[-105.3367,22.9847,502.2513],[-105.3401,22.9825,498.7511],[-105.3363,22.9805,498.9713],[-105.3395,22.9761,497.5023],[-105.3368,22.9712,477.4845],[-105.3384,22.9697,476.5112],[-105.3425,22.9704,472.6845],[-105.343,22.9682,472.6533],[-105.339,22.9664,452.7033],[-105.3371,22.9677,448.6149],[-105.3373,22.9641,470.9998],[-105.3357,22.9626,451.5594],[-105.3308,22.9632,436.988],[-105.3341,22.9534,449.3189],[-105.332,22.9517,446.634],[-105.3282,22.9526,436.6397],[-105.3304,22.9477,474.583],[-105.3284,22.947,480.3533],[-105.3283,22.943,514.0417],[-105.3236,22.9413,393.591],[-105.2977,22.9542,1006.1395],[-105.2541,22.9563,237.6424],[-105.1636,22.9539,1352.7838],[-105.076,22.9596,1676.6974],[-105.0138,22.9777,1061.8142],[-105.0033,22.977,554.5573],[-105.0054,22.9833,583.9969],[-105.0117,22.9872,581.8473],[-105.0119,22.9932,653.4185],[-105.0102,22.9946,580.9842],[-105.0019,22.9929,567.6871],[-104.9988,23.0016,581.2184],[-104.995,23.002,659.1564],[-104.9952,23.0078,582.2954],[-104.9984,23.0087,561.3139],[-104.999,23.0104,572.424],[-104.9984,23.0133,595.8542],[-104.9932,23.0161,581.2545],[-104.986,23.0156,599.7369],[-104.9824,23.0211,595.4681],[-104.9758,23.0248,583.5721],[-104.9734,23.0292,587.8301],[-104.9693,23.03,599.5019],[-104.9649,23.0337,585.6748],[-104.9499,23.0373,621.4067],[-104.9458,23.0441,616.9665],[-104.9365,23.048,618.1583],[-104.9307,23.0426,652.925],[-104.9224,23.044,648.1105],[-104.9138,23.0516,645.3555],[-104.9005,23.0586,681.4503],[-104.8942,23.0597,663.4211],[-104.8898,23.0665,647.8912],[-104.8746,23.0692,662.0269],[-104.8738,23.0709,728.3999],[-104.8778,23.0745,695.8187],[-104.8778,23.0769,680.7328],[-104.8708,23.0775,661.2407],[-104.8693,23.0835,693.9734],[-104.8669,23.0856,660.2029],[-104.8636,23.0862,672.4255],[-104.8595,23.0812,698.3474],[-104.8587,23.0845,674.776],[-104.8544,23.0859,670.1915],[-104.8531,23.0886,676.3594],[-104.8478,23.0881,686.2189],[-104.8446,23.0936,709.1678],[-104.8308,23.0943,703.6657],[-104.8102,23.1237,1804.8763],[-104.7938,23.133,856.2759],[-104.7946,23.1365,824.7766],[-104.7928,23.1398,841.676],[-104.8007,23.1468,910.3257],[-104.8024,23.1542,945.7413],[-104.7965,23.1618,871.5184],[-104.7923,23.1634,892.0035],[-104.7912,23.1673,909.0056],[-104.7907,23.1742,933.9116],[-104.7946,23.1842,956.541],[-104.7899,23.1949,1022.8773],[-104.7916,23.1979,1058.2457],[-104.7915,23.2057,1007.3617],[-104.7971,23.2102,1006.3449],[-104.8001,23.2099,1091.141],[-104.8013,23.2124,1080.0922],[-104.8037,23.2117,1058.7073],[-104.805,23.2133,1053.135],[-104.8084,23.2133,1159.7098],[-104.8116,23.2208,1174.1063],[-104.8169,23.2244,1363.666],[-104.8123,23.2315,1476.2122],[-104.8071,23.2335,1491.1975],[-104.8067,23.2373,1392.7456],[-104.81,23.2448,1431.0392],[-104.8185,23.2539,1549.4062],[-104.8197,23.2666,1528.2073],[-104.8149,23.2902,1596.8104],[-104.8087,23.2964,1613.8843],[-104.8034,23.2971,1666.942],[-104.8014,23.2989,1661.6302],[-104.8011,23.302,1644.34],[-104.8042,23.3078,1768.3889],[-104.8043,23.3151,1667.2006],[-104.8075,23.3185,1756.5187],[-104.8021,23.3251,1681.9745],[-104.7994,23.3381,1737.8894],[-104.8002,23.3494,1827.9862],[-104.7962,23.35,1809.1544],[-104.7954,23.3542,1788.3597],[-104.7878,23.3556,1800.9968],[-104.7786,23.3606,1876.0752],[-104.7747,23.3662,1903.0983],[-104.7746,23.3722,1979.6914],[-104.7705,23.3841,2066.6917],[-104.7711,23.3896,2037.0358],[-104.7674,23.391,2061.7905],[-104.7662,23.3965,2075.8428],[-104.7609,23.3965,2091.9351],[-104.7552,23.4064,2133.4939],[-104.7569,23.4116,2211.7615],[-104.7645,23.4223,2258.7444],[-104.8079,23.3709,2609.7041],[-104.8098,23.3975,2671.8887],[-104.832,23.405,2717.4429],[-104.823,23.4799,2788.0605],[-104.8389,23.482,2793.8047],[-104.8612,23.4969,2634.3254],[-104.8501,23.5473,2712.2695],[-104.9013,23.5389,2715.0227],[-104.9783,23.5135,2539.0122],[-105.0003,23.5016,2319.97],[-105.1407,23.5695,1545.0726],[-105.1427,23.5638,1549.9045],[-105.1408,23.5579,1582.5439],[-105.1414,23.5463,1462.6133],[-105.1477,23.5406,1396.6252],[-105.1557,23.5379,1350.4771],[-105.1566,23.5349,1358.1003],[-105.1617,23.5321,1401.818],[-105.1674,23.5316,1319.3958],[-105.1736,23.5396,1453.8241],[-105.1863,23.5433,1511.6437],[-105.19,23.5484,1589.0557],[-105.1893,23.552,1651.2427],[-105.1971,23.5541,1980.4587],[-105.1975,23.5573,2053.6782],[-105.1922,23.5681,2128.7795],[-105.2021,23.5724,2394.7051],[-105.197,23.5746,2379.8735],[-105.1972,23.5758,2412.0459],[-105.2035,23.5735,2356.3987],[-105.2039,23.5793,2286.843],[-105.2093,23.5815,2183.4209],[-105.2128,23.5819,1804.3118],[-105.2139,23.5767,1784.0686],[-105.2209,23.5768,1705.7998],[-105.2388,23.5713,1525.7849],[-105.2389,23.5678,1499.1703],[-105.237,23.5643,1467.1018],[-105.2398,23.5618,1360.1189],[-105.2405,23.554,1333.8228],[-105.2436,23.5516,1191.8021],[-105.2477,23.5561,1258.843],[-105.2505,23.5566,1274.9637],[-105.2573,23.5618,1277.7534],[-105.275,23.5594,1309.5909],[-105.2772,23.5681,1425.342],[-105.2744,23.5723,1351.5461],[-105.2745,23.5756,1371.269],[-105.2658,23.5781,1345.4951],[-105.2652,23.590699999999998,1469.1566],[-105.2612,23.596,1355.9592],[-105.2622,23.6041,1540.0959],[-105.2749,23.6136,1463.2003],[-105.2784,23.6145,1515.1117],[-105.2799,23.6168,1474.1388],[-105.2796,23.6212,1503.4385],[-105.276,23.6216,1746.3423],[-105.2657,23.6177,2061.8987],[-105.2759,23.6887,1619.4901],[-105.2733,23.6906,1636.4053],[-105.2355,23.7594,1837.66],[-105.2461,23.7654,1892.0375],[-105.2594,23.7928,1948.2688],[-105.2597,23.8024,2005.8313],[-105.2493,23.8262,2219.6987],[-105.2682,23.8365,2439.7505],[-105.2703,23.839,2380.1218],[-105.2678,23.8414,2390.3616],[-105.2744,23.8474,2426.7834],[-105.2798,23.8485,2437.1396],[-105.2888,23.858,2460.2739],[-105.2899,23.8751,2419.4346],[-105.3125,23.8685,2474.6067],[-105.3165,23.8766,2489.7012],[-105.3223,23.8761,2488.5364],[-105.3224,23.8637,2466.8647],[-105.3732,23.8618,2286.499],[-105.3805,23.8595,2334.0195],[-105.4313,23.9068,2446.905],[-105.4497,23.9161,2425.0522],[-105.4759,23.912,2497.063],[-105.4723,23.9265,2045.2341],[-105.5722,23.9677,2505.0461]]]]}
,"properties": {"GID_2": "MEX.10.24_2","GID_0": "MEX","country": "México","GID_1": "MEX.10_1","province": "Durango","NL_NAME_1": "NA","county": "PuebloNuevo","VARNAME_2": "NA","NL_NAME_2": "NA","TYPE_2": "Município","ENGTYPE_2": "Municipality","CC_2": "NA","HASC_2": "NA","name": "Pueblo_Nuevo.county","area_km2": 6960.781,"hist_schema_id": "Elevation0-9000","hist_area_km2": {"125": 0.273,"150": 0.39,"175": 0.682,"200": 1.716,"225": 3.471,"250": 4.661,"275": 6.512,"300": 8.443,"325": 10.235,"350": 11.346,"375": 13.275,"400": 14.776,"425": 16.764,"450": 18.069,"475": 18.809,"500": 22.455,"525": 23.624,"550": 25.065,"575": 28.475,"600": 29.995,"625": 31.827,"650": 33.813,"675": 34.008,"700": 37.847,"725": 37.904,"750": 38.896,"775": 43.669,"800": 45.069,"825": 47.405,"850": 50.443,"875": 52.044,"900": 54.069,"925": 56.266,"950": 58.332,"975": 59.224,"1000": 61.734,"1025": 61.484,"1050": 65.142,"1075": 64.891,"1100": 65.354,"1125": 66.426,"1150": 65.624,"1175": 67.435,"1200": 66.398,"1225": 64.878,"1250": 68.03,"1275": 66.37,"1300": 67.731,"1325": 67.242,"1350": 68.349,"1375": 66.267,"1400": 65.947,"1425": 66.101,"1450": 67.441,"1475": 67.908,"1500": 67.282,"1525": 68.584,"1550": 69.848,"1575": 70.877,"1600": 69.512,"1625": 72.137,"1650": 70.672,"1675": 69.325,"1700": 70.877,"1725": 71.888,"1750": 73.053,"1775": 71.902,"1800": 75.145,"1825": 76.019,"1850": 79.795,"1875": 80.179,"1900": 84.222,"1925": 93.104,"1950": 104.777,"1975": 101.348,"2000": 104.577,"2025": 107.417,"2050": 107.643,"2075": 103.155,"2100": 100.429,"2125": 94.65,"2150": 91.806,"2175": 91.257,"2200": 87.973,"2225": 84.331,"2250": 82.048,"2275": 77.739,"2300": 75.945,"2325": 76.629,"2350": 80.827,"2375": 83.993,"2400": 87.801,"2425": 92.511,"2450": 104.697,"2475": 103.155,"2500": 103.621,"2525": 94.333,"2550": 108.144,"2575": 123.332,"2600": 112.871,"2625": 104.546,"2650": 101.99,"2675": 97.698,"2700": 90.259,"2725": 88.506,"2750": 79.669,"2775": 69.861,"2800": 55.436,"2825": 35.401,"2850": 19.591,"2875": 11.745,"2900": 5.934,"2925": 4.184,"2950": 2.687,"2975": 2.162,"3000": 1.909,"3025": 1.441,"3050": 1.13,"3075": 1.149,"3100": 0.838,"3125": 0.663,"3150": 0.663,"3175": 0.487,"3200": 0.273,"3225": 0.195,"3250": 0.175,"3275": 0.156}}}