{"type": "Feature","bbox": [-97.4322,17.6833,-97.3449,17.7693],"geometry": {"type": "MultiPolygon","coordinates": [[[[-97.3451,17.7638,2008.4761],[-97.3449,17.7653,2008.4761],[-97.3681,17.7693,2014.9543],[-97.3813,17.7596,2150.6145],[-97.3846,17.7553,2166.0752],[-97.4023,17.7457,2097.7358],[-97.4073,17.7437,2141.0808],[-97.4136,17.7438,2145.2017],[-97.4162,17.7407,2156.9949],[-97.4206,17.7426,2144.043],[-97.4211,17.7394,2142.2915],[-97.4184,17.7369,2145.9773],[-97.4085,17.7388,2119.0522],[-97.4322,17.7135,2640.9409],[-97.4021,17.6833,2466.3887],[-97.39,17.6872,2321.7588],[-97.3797,17.6938,2173.8352],[-97.3749,17.7007,2241.1177],[-97.3621,17.7053,2104.3845],[-97.3457,17.7022,2311.7173],[-97.3465,17.7267,2110.3745],[-97.3519,17.7414,2032.0764],[-97.3502,17.7533,2018.4812],[-97.3451,17.7638,2008.4761]]]]}
,"properties": {"GID_2": "MEX.20.131_2","GID_0": "MEX","country": "México","GID_1": "MEX.20_1","province": "Oaxaca","NL_NAME_1": "NA","county": "SanCristóbalSuchixtlahuaca","VARNAME_2": "NA","NL_NAME_2": "NA","TYPE_2": "Município","ENGTYPE_2": "Municipality","CC_2": "NA","HASC_2": "NA","name": "San_Cristóbal_Suchixtlahuaca.county","area_km2": 52.67026,"hist_schema_id": "Elevation0-9000","hist_area_km2": {"2000": 0.66631,"2025": 2.44328,"2050": 4.483,"2075": 5.39198,"2100": 5.89694,"2125": 5.39214,"2150": 4.44292,"2175": 3.85737,"2200": 3.35254,"2225": 2.70639,"2250": 2.40348,"2275": 2.03994,"2300": 1.65621,"2325": 1.31284,"2350": 1.15126,"2375": 1.29266,"2400": 0.8887,"2425": 0.9493,"2450": 0.94932,"2475": 0.50495,"2500": 0.28278,"2525": 0.12119,"2550": 0.14139,"2575": 0.28278,"2600": 0.0404,"2625": 0.0202}}}