{"type": "Feature","bbox": [-98.3155,16.3407,-98.1978,16.4111],"geometry": {"type": "MultiPolygon","coordinates": [[[[-98.2203,16.4057,143.6083],[-98.2569,16.4111,126.9606],[-98.2661,16.4023,98.2147],[-98.2961,16.3976,100.4315],[-98.3155,16.3929,98.2289],[-98.3094,16.3528,58.7535],[-98.2957,16.3574,66.0296],[-98.2382,16.3407,31.8527],[-98.2376,16.3474,35.496],[-98.2334,16.3479,38.7674],[-98.2327,16.3497,38.1461],[-98.2008,16.373,193.86],[-98.1978,16.3874,253.2838],[-98.2124,16.4046,110.9922],[-98.2203,16.4057,143.6083]]]]}
,"properties": {"GID_2": "MEX.20.172_2","GID_0": "MEX","country": "México","GID_1": "MEX.20_1","province": "Oaxaca","NL_NAME_1": "NA","county": "SanJoséEstanciaGrande","VARNAME_2": "NA","NL_NAME_2": "NA","TYPE_2": "Município","ENGTYPE_2": "Municipality","CC_2": "NA","HASC_2": "NA","name": "San_José_Estancia_Grande.county","area_km2": 65.8263,"hist_schema_id": "Elevation0-9000","hist_area_km2": {"25": 0.71207,"50": 13.52858,"75": 20.64731,"100": 19.52712,"125": 6.91588,"150": 2.92907,"175": 1.17979,"200": 0.22375,"225": 0.12205,"250": 0.04068}}}