{"type":"Feature","properties":{"GID_2":"MEX.31.61_2","GID_0":"MEX","country":"México","GID_1":"MEX.31_1","province":"Yucatán","NL_NAME_1":"NA","county":"RíoLagartos","VARNAME_2":"NA","NL_NAME_2":"NA","TYPE_2":"Município","ENGTYPE_2":"Municipality","CC_2":"NA","HASC_2":"NA","name":"Río_Lagartos.county"},
"geometry":{"type": "MultiPolygon","coordinates": [[[[-88.0981,21.4142,5.2085],[-88.0985,21.4116,6.8354],[-88.0746,21.4098,5.2769],[-88.0728,21.4267,5.7063],[-88.0791,21.4297,6.6079],[-88.0749,21.4625,4.283],[-88.0846,21.4635,5.3439],[-88.0813,21.4793,4.4642],[-88.0911,21.4803,3.6772],[-88.0831,21.4987,4.0693],[-88.0814,21.5123,4.6407],[-88.0828,21.5157,3.3239],[-88.0828,21.5251,3.4184],[-88.0969,21.5238,3.7124],[-88.0992,21.5323,3.0695],[-88.0718,21.532,2.5079],[-88.0704,21.5358,2.8637],[-88.0169,21.5318,2.267],[-88.013,21.5334,2.9128],[-87.9996,21.5328,2.233],[-87.9969,21.558,5.2812],[-87.9945,21.5687,2.1822],[-87.9927,21.5703,0.8645],[-87.9769,21.5674,0.0],[-87.974,21.5655,0.0663],[-87.9654,21.5657,0.0],[-87.9621,21.5638,0.0],[-87.9572,21.5652,0.0056],[-87.953,21.5632,0.0],[-87.9543,21.5648,0.0],[-87.9488,21.5614,-0.1452],[-87.9448,21.563,-0.2779],[-87.9438,21.5669,0.0],[-87.9409,21.5619,-0.1742],[-87.9364,21.5635,1.1857],[-87.9276,21.5578,0.064],[-87.9186,21.5587,-0.5],[-87.916,21.5627,0.0713],[-87.9076,21.5678,0.1012],[-87.8983,21.5683,0.2191],[-87.8949,21.5667,1.885],[-87.883,21.5686,-1.3407],[-87.8836,21.5665,0.0],[-87.8804,21.5652,-0.3946],[-87.8787,21.5662,0.9399],[-87.882,21.5695,0.0011],[-87.8801,21.569,0.0],[-87.8786,21.5667,0.9399],[-87.8749,21.5669,0.0],[-87.8647,21.5684,0.0],[-87.8617,21.5716,0.1937],[-87.8892,21.5844,0.0],[-87.9224,21.5958,0.0753],[-87.9341,21.6014,0.1382],[-87.9638,21.6096,0.5979],[-87.9894,21.6107,0.0],[-88.0255,21.6094,1.0983],[-88.0414,21.6106,0.0],[-88.0743,21.6137,1.8328],[-88.1037,21.6205,0.0],[-88.1288,21.6243,0.3175],[-88.1498,21.6221,0.1368],[-88.1713,21.6144,0.0],[-88.1736,21.6116,0.3056],[-88.1762,21.6128,0.1979],[-88.1697,21.6065,0.351],[-88.1602,21.6007,0.0],[-88.16,21.6031,0.791],[-88.1535,21.6039,0.2118],[-88.151,21.6075,1.0914],[-88.1447,21.6078,-0.3686],[-88.1421,21.6104,0.1197],[-88.141,21.6089,0.1197],[-88.1401,21.611,0.5991],[-88.1389,21.6109,0.5991],[-88.1383,21.6075,0.0],[-88.1346,21.6062,0.0],[-88.1327,21.6078,0.0],[-88.1349,21.6084,0.0],[-88.1338,21.6101,0.0],[-88.1293,21.6092,0.5953],[-88.126,21.6113,0.2485],[-88.1269,21.6128,0.6987],[-88.1183,21.6117,0.8317],[-88.1151,21.6136,0.0],[-88.1103,21.61,0.6641],[-88.1033,21.6091,1.3493],[-88.0944,21.603,0.6028],[-88.0855,21.5999,0.0],[-88.0845,21.5972,0.0],[-88.0819,21.5988,0.4565],[-88.0698,21.5957,0.0121],[-88.0679,21.5975,0.5779],[-88.0673,21.5963,1.5146],[-88.0698,21.5936,2.6491],[-88.0716,21.5952,0.9067],[-88.0872,21.5948,3.6431],[-88.0927,21.6012,4.0314],[-88.0987,21.6024,0.5367],[-88.1087,21.6089,1.2318],[-88.1117,21.6089,1.5466],[-88.1145,21.6118,1.5687],[-88.1282,21.6086,0.9064],[-88.1389,21.599,0.5041],[-88.1459,21.5956,0.2873],[-88.1518,21.595,1.5648],[-88.1584,21.5994,0.8062],[-88.1611,21.5946,0.4651],[-88.1585,21.5942,1.4957],[-88.1646,21.5912,1.0232],[-88.1707,21.5921,0.0],[-88.1752,21.5883,0.6936],[-88.1824,21.5885,0.1478],[-88.1855,21.5835,0.1701],[-88.1886,21.5815,0.8144],[-88.1886,21.5607,2.066],[-88.1922,21.5412,6.5901],[-88.1842,21.5347,2.2992],[-88.1803,21.5266,3.1138],[-88.1846,21.527,2.5248],[-88.1817,21.5097,3.0446],[-88.1856,21.4802,8.4997],[-88.2068,21.4823,5.101],[-88.2089,21.4562,4.4391],[-88.1667,21.4527,4.5414],[-88.1636,21.478,4.1701],[-88.1309,21.4751,2.7914],[-88.1322,21.4459,6.1082],[-88.1413,21.4469,6.0004],[-88.1441,21.4287,9.0332],[-88.1422,21.4286,7.2276],[-88.1426,21.4253,5.8851],[-88.1245,21.4233,9.922],[-88.1221,21.4421,10.3526],[-88.1156,21.444,9.6837],[-88.114,21.4567,6.1377],[-88.1104,21.4566,7.9878],[-88.0878,21.4437,6.0757],[-88.0885,21.4423,6.0757],[-88.1032,21.4436,5.7066],[-88.105,21.4283,8.9367],[-88.0925,21.4264,4.663],[-88.0981,21.4142,5.2085]]],
[[[-88.1703,21.5968,0.0],[-88.1661,21.5989,0.2355],[-88.1652,21.6011,0.23],[-88.176,21.5968,0.0],[-88.1716,21.5984,0.1576],[-88.1703,21.5968,0.0]]],
[[[-88.1703,21.6051,0.04],[-88.1727,21.6063,0.2942],[-88.1741,21.6035,1.3199],[-88.1792,21.6034,0.6012],[-88.1845,21.5988,-0.0594],[-88.1761,21.5993,0.0933],[-88.1728,21.6018,0.2411],[-88.1729,21.5996,0.041],[-88.1702,21.6011,0.0],[-88.1731,21.6045,0.6459],[-88.1703,21.6051,0.04]]],
[[[-88.1839,21.6056,0.0],[-88.1889,21.6044,0.0],[-88.1888,21.5973,0.0875],[-88.1829,21.6015,0.1574],[-88.1821,21.6037,0.0369],[-88.1817,21.6025,0.0369],[-88.1795,21.6042,0.1879],[-88.1763,21.6041,0.387],[-88.1729,21.6084,0.0971],[-88.175299999999993,21.609,0.0],[-88.1839,21.6056,0.0]]]]}}