{"type":"Feature","properties":{"GID_2":"MEX.30.199_2","GID_0":"MEX","country":"México","GID_1":"MEX.30_1","province":"Veracruz","NL_NAME_1":"NA","county":"VegadeAlatorre","VARNAME_2":"NA","NL_NAME_2":"NA","TYPE_2":"Município","ENGTYPE_2":"Municipality","CC_2":"NA","HASC_2":"NA","name":"Vegade_Alatorre.county"},
"geometry":{"type": "MultiPolygon","coordinates": [[[[-96.5266,19.9244,0.0],[-96.5539,19.9562,1.0949],[-96.5652,19.9721,6.2737],[-96.5739,19.9898,7.7967],[-96.5737,19.9989,1.5483],[-96.5759,20.0057,0.5322],[-96.6035,20.0356,0.0],[-96.7064,20.1563,2.5492],[-96.7155,20.1497,11.1932],[-96.7121,20.1444,3.3451],[-96.7047,20.1236,5.3814],[-96.6937,20.1076,1.994],[-96.7089,20.0946,3.7659],[-96.7071,20.0929,3.7924],[-96.7017,20.0932,1.1855],[-96.7009,20.0885,0.1926],[-96.699,20.0873,0.1318],[-96.6926,20.0863,1.6301],[-96.6897,20.0835,0.3858],[-96.6848,20.0843,1.3007],[-96.6807,20.0824,3.0565],[-96.6958,20.0675,9.9436],[-96.6973,20.0636,13.0092],[-96.6997,20.0662,11.1711],[-96.7119,20.0555,46.9453],[-96.7068,20.0499,39.2371],[-96.712,20.0462,46.2629],[-96.7177,20.0465,85.232],[-96.7185,20.0436,108.5675],[-96.7286,20.0329,142.4196],[-96.739,20.0272,228.7438],[-96.737,20.0242,217.2919],[-96.7429,20.0212,277.6399],[-96.7616,20.022,112.3685],[-96.7614,20.0236,111.8491],[-96.7629,20.0238,105.125],[-96.764,20.0179,115.6677],[-96.7595,20.0118,124.733],[-96.7623,19.9994,138.3926],[-96.767,19.9994,143.8214],[-96.7671,19.994,148.6261],[-96.7681,19.9949,148.6261],[-96.7702,19.9936,151.6856],[-96.776,19.9838,165.2599],[-96.7724,19.9817,163.4526],[-96.764,19.9856,149.5872],[-96.7646,19.9816,176.7035],[-96.7664,19.9799,161.3015],[-96.7647,19.9736,176.4281],[-96.7589,19.9787,261.5025],[-96.7569,19.9785,304.675],[-96.756,19.9712,306.5524],[-96.7504,19.9667,317.7178],[-96.7383,19.977,497.02],[-96.7344,19.9881,318.3965],[-96.73,19.9867,439.3359],[-96.7314,19.9855,439.3359],[-96.7298,19.9852,448.0265],[-96.7311,19.9836,389.6603],[-96.7287,19.9777,335.6376],[-96.7302,19.9781,314.1736],[-96.7316,19.9757,474.5487],[-96.7282,19.9739,338.5091],[-96.73,19.9714,365.3129],[-96.7265,19.9693,489.8389],[-96.7232,19.9736,480.7342],[-96.725,19.9753,461.2655],[-96.7203,19.9788,375.5025],[-96.7191,19.9759,426.5748],[-96.7157,19.9755,314.4678],[-96.7092,19.9691,120.4272],[-96.7053,19.9725,118.764],[-96.7034,19.9715,86.5734],[-96.7032,19.9691,85.9199],[-96.6996,19.9708,81.1477],[-96.6982,19.9734,79.4092],[-96.6952,19.9721,79.5106],[-96.6902,19.9777,73.0428],[-96.6923,19.9794,76.7735],[-96.6888,19.9817,82.5529],[-96.6826,19.9787,71.9871],[-96.678,19.9873,51.694],[-96.6726,19.9892,46.0314],[-96.6676,19.9955,36.0632],[-96.6625,19.9985,34.0783],[-96.6606,19.998,31.3659],[-96.6599,19.9925,47.2167],[-96.6617,19.9896,54.757],[-96.6591,19.9857,90.9893],[-96.6564,19.9854,119.6063],[-96.6534,19.9894,124.5766],[-96.6499,19.9884,103.4786],[-96.6451,19.9908,88.4121],[-96.6456,19.9761,105.2342],[-96.6414,19.9703,233.6348],[-96.6418,19.9604,212.4532],[-96.6442,19.9577,204.9821],[-96.647,19.9573,230.4952],[-96.6542,19.9488,361.4087],[-96.6543,19.9469,383.3282],[-96.6451,19.948,188.5299],[-96.6402,19.9462,91.2733],[-96.6374,19.9477,87.4521],[-96.6376,19.9419,97.0654],[-96.6395,19.9382,112.9326],[-96.6438,19.9355,135.0158],[-96.6434,19.9248,118.0227],[-96.6447,19.9216,127.258],[-96.6503,19.9205,144.0217],[-96.6548,19.9149,142.9801],[-96.6543,19.9112,145.2767],[-96.6509,19.908,195.0981],[-96.6492,19.9005,162.5875],[-96.651,19.8971,194.8831],[-96.6499,19.8924,355.9077],[-96.6417,19.8919,501.986],[-96.643,19.8878,511.5698],[-96.6305,19.8791,726.3113],[-96.6313,19.8765,765.6761],[-96.6242,19.867,871.0215],[-96.6237,19.8641,905.1916],[-96.599,19.8485,626.8703],[-96.5874,19.8444,607.3941],[-96.5792,19.8438,578.8155],[-96.5717,19.8314,446.2596],[-96.5639,19.8307,355.4474],[-96.5605,19.8334,302.4517],[-96.5578,19.8284,133.3046],[-96.5537,19.8355,127.5139],[-96.5492,19.8364,120.3271],[-96.546,19.8459,80.7908],[-96.5416,19.8488,102.897],[-96.5433,19.8553,78.1763],[-96.5366,19.8661,257.45],[-96.5453,19.8761,231.7838],[-96.5417,19.8796,182.6166],[-96.538,19.8874,61.3437],[-96.5336,19.8903,70.9692],[-96.532,19.8976,37.1976],[-96.5299,19.8984,29.8186],[-96.5318,19.902,38.1669],[-96.5276,19.9023,16.2864],[-96.5259,19.9049,14.8814],[-96.528,19.9103,3.3705],[-96.5365,19.9166,8.7474],[-96.5318,19.9168,6.428],[-96.5266,19.9244,0.0]]]]}}