{"type":"Feature","properties":{"GID_2":"MEX.26.10_2","GID_0":"MEX","country":"México","GID_1":"MEX.26_1","province":"Sonora","NL_NAME_1":"NA","county":"Bacerac","VARNAME_2":"NA","NL_NAME_2":"NA","TYPE_2":"Município","ENGTYPE_2":"Municipality","CC_2":"NA","HASC_2":"NA","name":"Bacerac.county"},
"geometry":{"type": "MultiPolygon","coordinates": [[[[-108.6176,30.236,2360.5146],[-108.6202,30.2982,1958.9022],[-108.5835,30.2854,2012.9573],[-108.5831,30.2814,1979.0808],[-108.5732,30.2769,2018.7966],[-108.5729,30.2743,2015.6063],[-108.5672,30.2729,2013.7332],[-108.565,30.2697,2021.0496],[-108.56,30.2699,2034.6226],[-108.5505,30.2666,2140.0957],[-108.5422,30.2835,2098.561],[-108.5658,30.3082,2254.1243],[-108.5715,30.3277,2107.1387],[-108.5749,30.3275,2102.0293],[-108.58,30.3375,2370.4619],[-108.6221,30.3403,2342.1597],[-108.6198,30.3748,2505.5159],[-108.6487,30.4169,2009.8804],[-108.6136,30.4357,2144.4722],[-108.6038,30.4651,1671.4944],[-108.661,30.4667,1614.6062],[-108.6648,30.4682,1738.0444],[-108.6667,30.4627,1805.2072],[-108.6818,30.4531,1831.5938],[-108.6889,30.4436,1587.0723],[-108.7413,30.4599,1326.2842],[-108.744,30.4549,1394.528],[-108.7536,30.4586,1335.0789],[-108.7696,30.4562,1275.2285],[-108.7813,30.4584,1252.4562],[-108.8493,30.4585,1467.5859],[-108.8507,30.4514,1479.3153],[-108.8832,30.4513,1146.6938],[-108.8889,30.4043,1119.4241],[-108.905,30.4077,1048.7423],[-108.9157,30.4084,1005.8541],[-108.9162,30.4068,1006.6903],[-108.9217,30.4111,1000.8578],[-108.9283,30.4126,1005.6718],[-108.9259,30.424,1008.254],[-108.9276,30.4317,1002.9849],[-108.9466,30.435,1056.6714],[-108.9557,30.4096,1089.8043],[-109.0417,30.431,1757.2388],[-109.0477,30.4357,1738.3979],[-109.0541,30.4338,1870.918],[-109.06,30.4286,1738.4906],[-109.0856,30.424,2229.7942],[-109.0924,30.4277,2195.5879],[-109.0936,30.4321,2106.5757],[-109.1034,30.4333,2322.906],[-109.1094,30.4371,2202.7185],[-109.1176,30.4381,2252.9231],[-109.1227,30.4436,2219.4287],[-109.1444,30.4423,2199.437],[-109.1565,30.4367,1466.8716],[-109.1555,30.4505,1924.2495],[-109.1706,30.4413,1177.3251],[-109.173,30.395,1275.2546],[-109.2074,30.4151,1244.871],[-109.2256,30.3942,1212.1877],[-109.226,30.3826,1255.2747],[-109.2067,30.377,1289.3514],[-109.2026,30.374,1414.3887],[-109.1973,30.3856,1102.7347],[-109.1768,30.378,1268.0425],[-109.1797,30.3617,1288.6052],[-109.1648,30.3579,1586.5522],[-109.163,30.3671,1613.1837],[-109.1398,30.3504,2053.5647],[-109.1274,30.3527,2026.9167],[-109.1191,30.3445,2038.1545],[-109.0953,30.333,2003.0427],[-109.0879,30.3156,1924.123],[-109.0654,30.2922,1826.0371],[-109.064,30.286,1843.7031],[-109.0714,30.277,1810.6487],[-108.9863,30.2561,1207.2144],[-108.9833,30.2682,1178.3977],[-108.9487,30.2628,1058.656],[-108.9461,30.2731,1076.0264],[-108.9366,30.2733,1056.8368],[-108.9364,30.2704,1055.3068],[-108.9313,30.2661,1059.3737],[-108.9221,30.2657,1070.7001],[-108.9234,30.2588,1137.2822],[-108.9177,30.258,1139.6783],[-108.9199,30.2459,1155.2334],[-108.8814,30.2367,1199.6378],[-108.8447,30.2567,1491.3208],[-108.8417,30.2407,1606.0476],[-108.8058,30.24,1690.0425],[-108.8068,30.2228,1735.4467],[-108.8018,30.2128,1878.9434],[-108.7752,30.1918,1704.0355],[-108.7687,30.1919,1850.5791],[-108.732,30.1562,2256.6184],[-108.7292,30.1517,2296.916],[-108.7329,30.113,2278.9045],[-108.7249,30.086,2240.5154],[-108.7161,30.0802,2227.7649],[-108.7026,30.0772,2007.6235],[-108.6956,30.0575,2060.8328],[-108.6882,30.0579,1910.3022],[-108.6866,30.0456,1946.2051],[-108.6841,30.0457,1890.9014],[-108.6776,30.0395,1798.4222],[-108.6106,30.0424,2065.741],[-108.6147,30.0578,2003.0186],[-108.6145,30.0893,2155.2852],[-108.6182,30.0895,2165.1924],[-108.6117,30.1023,2147.4736],[-108.6176,30.236,2360.5146]]]]}}