{"type":"Feature","properties":{"GID_2":"MEX.20.477_2","GID_0":"MEX","country":"México","GID_1":"MEX.20_1","province":"Oaxaca","NL_NAME_1":"NA","county":"SantiagoLlanoGrande","VARNAME_2":"NA","NL_NAME_2":"NA","TYPE_2":"Município","ENGTYPE_2":"Municipality","CC_2":"NA","HASC_2":"NA","name":"Santiago_Llano_Grande.county"},
"geometry":{"type": "MultiPolygon","coordinates": [[[[-98.3166,16.5699,79.2416],[-98.3177,16.5625,80.6052],[-98.3155,16.5615,64.5062],[-98.3186,16.539,79.2552],[-98.3161,16.5178,73.3049],[-98.3122,16.509,65.2031],[-98.3133,16.4911,67.3192],[-98.3122,16.4853,49.0047],[-98.3085,16.4832,50.6453],[-98.3087,16.4807,50.9889],[-98.3137,16.4767,51.3681],[-98.3123,16.4727,54.2451],[-98.3087,16.4705,51.9733],[-98.2981,16.4746,52.9269],[-98.2897,16.467,64.267],[-98.2839,16.468,55.4058],[-98.2826,16.4634,55.9674],[-98.2793,16.4618,55.9698],[-98.2823,16.4622,55.9674],[-98.2839,16.4609,57.2052],[-98.2834,16.4588,59.0449],[-98.2786,16.4553,59.1638],[-98.2653,16.4528,61.226],[-98.2628,16.4565,57.9472],[-98.2565,16.4545,59.0677],[-98.2547,16.4598,60.0298],[-98.2546,16.4521,62.2211],[-98.2565,16.4458,106.6816],[-98.2569,16.4111,126.9606],[-98.2203,16.4057,143.6083],[-98.2166,16.4366,131.528],[-98.2069,16.4393,158.2515],[-98.2067,16.4528,142.8577],[-98.2105,16.455,142.0254],[-98.2126,16.4591,116.1153],[-98.2102,16.4694,77.6182],[-98.2079,16.4759,69.3787],[-98.1972,16.4773,69.7535],[-98.2115,16.48,67.5],[-98.21,16.4902,73.0838],[-98.2046,16.4938,101.1105],[-98.2052,16.4967,105.1868],[-98.2017,16.4959,100.7243],[-98.2012,16.4971,86.0194],[-98.2015,16.5042,119.1035],[-98.2039,16.5029,96.0211],[-98.2023,16.5103,130.2154],[-98.2777,16.5128,70.6601],[-98.2822,16.5464,155.3739],[-98.2928,16.5578,66.3174],[-98.2917,16.5701,210.1285],[-98.3166,16.5699,79.2416]]]]}}