{"type":"Feature","properties":{"GID_2":"MEX.14.38_2","GID_0":"MEX","country":"México","GID_1":"MEX.14_1","province":"Jalisco","NL_NAME_1":"NA","county":"GómezFarías","VARNAME_2":"NA","NL_NAME_2":"NA","TYPE_2":"Município","ENGTYPE_2":"Municipality","CC_2":"NA","HASC_2":"NA","name":"Gómez_Farías.county"},
"geometry":{"type": "MultiPolygon","coordinates": [[[[-103.4993,19.8975,1399.9285],[-103.5002,19.8922,1407.1841],[-103.5025,19.8917,1385.5354],[-103.5046,19.8869,1377.2656],[-103.509,19.8852,1369.9879],[-103.5095,19.8764,1374.4904],[-103.515,19.8757,1379.925],[-103.5125,19.8681,1383.2007],[-103.5141,19.8624,1381.8438],[-103.5119,19.8541,1441.121],[-103.5414,19.864,1371.0676],[-103.542,19.8545,1387.7552],[-103.5446,19.8511,1397.9973],[-103.5443,19.8485,1418.8022],[-103.5474,19.8462,1489.9927],[-103.546,19.840699999999998,1497.0236],[-103.5514,19.8397,1434.9926],[-103.5517,19.8374,1437.1874],[-103.5553,19.8361,1461.9805],[-103.5579,19.837,1474.8044],[-103.5594,19.83,1511.3884],[-103.5577,19.8293,1501.4327],[-103.5584,19.8249,1537.8947],[-103.5635,19.8228,1557.5739],[-103.565,19.8249,1545.7732],[-103.5658,19.8188,1579.4536],[-103.5681,19.8168,1608.6897],[-103.5642,19.8153,1572.937],[-103.5601,19.8033,1801.1262],[-103.5532,19.7963,1722.5891],[-103.5538,19.7952,1731.0962],[-103.5529,19.796,1722.5891],[-103.5506,19.794,1675.9954],[-103.5436,19.7743,1666.478],[-103.528,19.7718,1603.5059],[-103.5273,19.7744,1563.4082],[-103.5247,19.7749,1540.3315],[-103.5163,19.7698,1517.9187],[-103.5056,19.7688,1504.9775],[-103.5008,19.7651,1497.3462],[-103.5003,19.7597,1497.0148],[-103.4979,19.7587,1497.0278],[-103.4967,19.7592,1497.1416],[-103.4972,19.7622,1497.1802],[-103.4895,19.7653,1496.5],[-103.4877,19.7671,1496.5],[-103.4885,19.7692,1496.5],[-103.4835,19.7722,1497.9185],[-103.4752,19.7724,1497.5013],[-103.4725,19.7711,1497.2834],[-103.4752,19.7772,1519.5183],[-103.4675,19.772,1506.4713],[-103.4671,19.7703,1502.9893],[-103.4644,19.7707,1514.4468],[-103.4605,19.7678,1511.6196],[-103.4602,19.7699,1554.9749],[-103.4618,19.771,1555.2947],[-103.4537,19.7769,1668.9905],[-103.4538,19.7798,1691.786],[-103.4572,19.78,1652.5952],[-103.4584,19.7835,1666.0295],[-103.4527,19.7877,1767.5104],[-103.4472,19.7845,1829.5547],[-103.4465,19.7894,1878.2754],[-103.4465,19.7867,1881.0319],[-103.4424,19.7855,1913.4069],[-103.4413,19.7812,1906.1221],[-103.4373,19.7821,1917.4426],[-103.4386,19.7808,1915.4619],[-103.4361,19.7816,1953.0845],[-103.4348,19.7796,2023.7228],[-103.4321,19.7801,2048.2231],[-103.4279,19.7887,2081.3867],[-103.428,19.7922,2104.625],[-103.4246,19.7916,2120.1592],[-103.4268,19.7957,2144.458],[-103.4267,19.8009,2114.3884],[-103.4225,19.7982,2096.9978],[-103.4208,19.8018,2132.5073],[-103.4182,19.8019,2121.1887],[-103.4162,19.8072,2133.0156],[-103.4133,19.809,2148.6516],[-103.4136,19.8161,2232.8755],[-103.4086,19.8128,2293.5278],[-103.4091,19.8103,2250.3896],[-103.4044,19.8111,2202.7246],[-103.4055,19.8124,2262.1211],[-103.403,19.8144,2209.8499],[-103.3972,19.8119,2158.8862],[-103.3895,19.8135,2013.7268],[-103.3866,19.8114,2009.7693],[-103.3791,19.8107,1910.1902],[-103.3735,19.8136,1866.1782],[-103.3678,19.81,1825.1038],[-103.3639,19.8108,1802.071],[-103.3597,19.8084,1780.9688],[-103.3593,19.8061,1748.2717],[-103.3526,19.8035,1702.516],[-103.3494,19.7982,1679.6862],[-103.3471,19.7983,1666.6631],[-103.3406,19.7935,1632.7197],[-103.339,19.8003,1669.0],[-103.3366,19.8021,1669.0],[-103.3345,19.7963,1661.5043],[-103.3282,19.8021,1719.8004],[-103.3293,19.8051,1734.5811],[-103.3275,19.8112,1739.1084],[-103.33,19.8145,1762.4592],[-103.3259,19.8157,1778.1444],[-103.3248,19.8194,1785.9266],[-103.3214,19.8202,1802.0585],[-103.3235,19.8222,1794.8223],[-103.3209,19.8244,1800.4639],[-103.3209,19.8268,1815.4629],[-103.3165,19.829,1879.3928],[-103.3154,19.8324,1862.1471],[-103.3126,19.8325,1878.4449],[-103.3112,19.8359,1899.3271],[-103.3141,19.840699999999998,1935.0167],[-103.3118,19.8379,1905.3386],[-103.3086,19.8371,1907.9308],[-103.2996,19.8396,1849.6163],[-103.2978,19.8429,1869.4363],[-103.2978,19.8454,1878.0029],[-103.3012,19.8469,1883.8308],[-103.3028,19.8545,1923.4769],[-103.3076,19.8595,1955.916],[-103.3098,19.8647,2032.0997],[-103.318,19.8694,2002.6393],[-103.3169,19.8706,1989.4264],[-103.3217,19.8726,1931.1936],[-103.322,19.8778,1925.1497],[-103.3197,19.8794,1921.2603],[-103.314,19.8792,1947.6533],[-103.314,19.8813,1927.8506],[-103.31,19.8828,1934.1349],[-103.3076,19.886,1942.9888],[-103.301,19.886,1954.3154],[-103.2996,19.8877,1958.3713],[-103.2914,19.8842,1970.4092],[-103.2809,19.8858,2000.816],[-103.2793,19.8822,1992.3737],[-103.2694,19.8845,2021.7384],[-103.2735,19.885,1989.1858],[-103.2772,19.897,2015.5773],[-103.2811,19.8994,2021.9718],[-103.2793,19.9069,2032.0222],[-103.2802,19.9154,2058.946],[-103.2857,19.9166,2093.5393],[-103.2921,19.9264,2115.0356],[-103.3016,19.9304,2150.373],[-103.306,19.9376,2172.085],[-103.3145,19.9399,2253.6699],[-103.3168,19.9452,2181.709],[-103.3255,19.9427,2113.3901],[-103.3331,19.944,1974.9248],[-103.3316,19.9495,2012.5054],[-103.3327,19.9608,2110.4136],[-103.3669,19.955,2252.5884],[-103.3755,19.9469,1994.9016],[-103.3778,19.9409,1971.0909],[-103.3801,19.9389,1965.8755],[-103.3796,19.935,1950.7761],[-103.3766,19.9341,1949.72],[-103.3744,19.93,1942.975],[-103.3806,19.9322,1959.7598],[-103.3906,19.9329,1987.183],[-103.404,19.9413,2015.7443],[-103.4109,19.9339,2071.5012],[-103.4188,19.9325,2069.3291],[-103.4258,19.9334,2028.1198],[-103.4273,19.9349,2055.3027],[-103.4277,19.926,1963.1075],[-103.432,19.9225,1954.5736],[-103.4227,19.9149,2123.8872],[-103.428,19.9125,2039.0016],[-103.4293,19.9095,2004.8745],[-103.4302,19.904,2003.0906],[-103.4285,19.9038,2043.7915],[-103.4275,19.9014,2088.7107],[-103.4262,19.8871,2148.1873],[-103.4285,19.8827,2076.9663],[-103.4328,19.883,2033.8578],[-103.437,19.8807,2047.8071],[-103.4392,19.8849,2024.9292],[-103.4419,19.8839,2007.2465],[-103.4447,19.8883,1978.5151],[-103.4484,19.8854,1929.9801],[-103.4466,19.8929,1921.0641],[-103.4502,19.8883,1939.8656],[-103.4532,19.8872,1963.8065],[-103.4993,19.8975,1399.9285]]]]}}