{"type":"Feature","properties":{"GID_2":"MEX.15.1_2","GID_0":"MEX","country":"México","GID_1":"MEX.15_1","province":"México","NL_NAME_1":"NA","county":"AcambaydeRuízCastañeda","VARNAME_2":"NA","NL_NAME_2":"NA","TYPE_2":"Município","ENGTYPE_2":"Municipality","CC_2":"NA","HASC_2":"NA","name":"Acambayde_Ruíz_Castañeda.county"},
"geometry":{"type": "MultiPolygon","coordinates": [[[[-99.9263,20.0643,3295.8916],[-99.957,20.061,3044.9065],[-99.9615,20.0623,3024.0698],[-99.9641,20.0604,3056.7886],[-99.9691,20.0619,2969.6143],[-99.9802,20.0591,2786.552],[-99.9785,20.074,2780.0681],[-100.0004,20.0775,2535.3865],[-100.0056,20.0642,2571.5],[-100.0141,20.0593,2529.3999],[-100.0203,20.0597,2508.7964],[-100.0276,20.0566,2519.0095],[-100.0442,20.0363,2461.0544],[-100.0581,20.0399,2440.3706],[-100.0662,20.0362,2447.0737],[-100.0656,20.0314,2406.02],[-100.0722,20.0312,2379.2266],[-100.0724,20.0292,2405.7361],[-100.0769,20.0295,2386.959],[-100.0769,20.028,2385.2942],[-100.0733,20.0184,2381.4399],[-100.0715,20.0185,2389.2058],[-100.0689,20.0144,2403.4241],[-100.0653,20.0137,2396.0222],[-100.066,20.0123,2396.0222],[-100.0641,20.0093,2423.4438],[-100.0571,20.0045,2433.8757],[-100.0328,19.995,2425.1155],[-100.0275,19.9975,2538.0034],[-100.0226,19.9957,2481.2446],[-100.0108,19.9905,2499.3721],[-100.0126,19.9888,2422.7993],[-99.9743,19.9713,2479.8064],[-99.9774,19.9673,2423.1987],[-99.9729,19.9541,2584.314],[-99.9674,19.946,2770.2456],[-99.9679,19.9304,3052.3843],[-99.961,19.9317,2992.3911],[-99.9549,19.9291,2824.2817],[-99.9506,19.9291,2792.156],[-99.9447,19.9359,2696.519],[-99.9322,19.9394,2756.4048],[-99.9223,19.928,2710.3628],[-99.8909,19.9057,2511.0862],[-99.8988,19.8988,2521.5566],[-99.9062,19.903199999999998,2545.8679],[-99.9165,19.906,2638.2539],[-99.9232,19.896,2787.9297],[-99.9252,19.8953,2658.3271],[-99.9262,19.8906,2656.1729],[-99.8972,19.8836,2684.5742],[-99.8893,19.8871,2606.21],[-99.8865,19.8859,2573.1956],[-99.8849,19.8889,2567.5178],[-99.8933,19.8898,2554.2886],[-99.8906,19.8952,2525.1189],[-99.8844,19.9016,2508.2725],[-99.8695,19.8923,2502.6509],[-99.8478,19.8746,2643.366],[-99.8499,19.8562,2597.5432],[-99.8473,19.8563,2603.4504],[-99.8443,19.859,2637.2678],[-99.8393,19.8679,2674.6719],[-99.8355,19.8627,2686.7666],[-99.8211,19.8546,2701.1394],[-99.8157,19.8542,2743.1777],[-99.8146,19.8517,2736.9219],[-99.7991,19.8405,2833.7715],[-99.7895,19.846,2699.6467],[-99.7788,19.8481,2951.8728],[-99.7758,19.8528,2886.3958],[-99.7679,19.8529,3033.771],[-99.7685,19.8557,3021.5542],[-99.7667,19.8574,2964.8513],[-99.7679,19.8628,2940.9011],[-99.7751,19.8795,2982.4368],[-99.7742,19.8863,2913.4512],[-99.7658,19.89,2849.6404],[-99.7691,19.8953,2727.0852],[-99.7681,19.897,2685.3997],[-99.7718,19.8945,2685.3618],[-99.7742,19.896,2711.0635],[-99.7746,19.8993,2655.7397],[-99.7776,19.9008,2672.5],[-99.7747,19.9068,2623.8142],[-99.7671,19.914,2617.1538],[-99.7709,19.9191,2617.2512],[-99.7681,19.9222,2617.1411],[-99.7644,19.9329,2616.0757],[-99.7664,19.9351,2618.4775],[-99.76,19.9396,2617.9001],[-99.7578,19.9377,2617.0913],[-99.7488,19.9365,2616.4189],[-99.7431,19.9384,2616.0381],[-99.7393,19.943,2618.3877],[-99.7287,19.9459,2616.4023],[-99.7282,19.9485,2616.4229],[-99.7302,19.9497,2618.6538],[-99.727,19.9497,2615.6404],[-99.7224,19.9546,2616.8594],[-99.7204,19.9542,2615.9285],[-99.7217,19.9585,2619.4238],[-99.7203,19.9686,2615.5],[-99.7227,19.9738,2615.9983],[-99.7261,19.9764,2617.2061],[-99.7238,19.9785,2616.78],[-99.7173,19.9777,2618.731],[-99.7151,19.9864,2616.8184],[-99.7121,19.988,2615.5],[-99.7103,19.9954,2615.5],[-99.7139,20.0001,2621.1562],[-99.7078,20.0097,2616.8037],[-99.7069,20.0152,2615.5],[-99.6999,20.0188,2615.5],[-99.7103,20.0202,2618.6047],[-99.7128,20.0163,2619.6201],[-99.7198,20.0164,2618.707],[-99.7232,20.0185,2617.5964],[-99.7339,20.0168,2620.605],[-99.7425,20.0289,2649.457],[-99.7458,20.0313,2652.9155],[-99.746,20.0333,2657.3042],[-99.7557,20.0289,2627.8359],[-99.7613,20.0321,2654.4568],[-99.764,20.0301,2626.4563],[-99.7675,20.033,2644.8508],[-99.773,20.0317,2594.2991],[-99.7785,20.0332,2621.7231],[-99.7813,20.0366,2588.3511],[-99.7796,20.0391,2589.4241],[-99.784,20.0452,2541.1775],[-99.7828,20.054,2589.967],[-99.787,20.0531,2535.7332],[-99.7884,20.0454,2566.615],[-99.8204,20.0547,2728.1951],[-99.8198,20.0513,2700.2021],[-99.822,20.0428,2650.5732],[-99.831,20.0468,2767.4683],[-99.835,20.0459,2783.7607],[-99.8389,20.0416,2867.4026],[-99.8383,20.0394,2834.3989],[-99.8293,20.0418,2662.8394],[-99.8265,20.0162,2691.0015],[-99.8367,20.0141,2716.2183],[-99.8364,20.0119,2714.6309],[-99.8466,20.0071,2806.8706],[-99.8627,20.0068,2807.0127],[-99.8694,19.999,2712.0063],[-99.8771,19.9996,2665.5266],[-99.8794,20.0051,2650.9297],[-99.8723,20.0103,2644.8933],[-99.8736,20.0117,2640.1768],[-99.8732,20.016,2632.8545],[-99.8864,20.016,2770.3164],[-99.8853,20.0197,2703.7231],[-99.8881,20.0189,2723.8145],[-99.8919,20.0211,2704.1082],[-99.8961,20.0198,2729.1169],[-99.9006,20.0227,2778.084],[-99.9051,20.0313,2837.3472],[-99.8979,20.0347,2772.5669],[-99.9011,20.0361,2762.2427],[-99.9006,20.0384,2781.4329],[-99.9025,20.04,2842.7505],[-99.9129,20.0403,2878.8325],[-99.9169,20.0384,2924.7346],[-99.9189,20.0573,3152.7498],[-99.9227,20.0562,3138.8936],[-99.9221,20.0577,3183.3796],[-99.9263,20.0643,3295.8916]]]]}}