{"type": "Feature","bbox": [-96.7736,15.9933,-96.6503,16.1405],"geometry": {"type": "MultiPolygon","coordinates": [[[[-96.6503,16.0858,681.88],[-96.6655,16.0994,1170.7682],[-96.7336,16.1405,1940.4974],[-96.762,16.1275,1562.4724],[-96.756,16.1099,1613.8945],[-96.7537,16.109,1597.3867],[-96.7511,16.1033,1456.6255],[-96.7595,16.1038,1589.6431],[-96.7601,16.0837,1133.1877],[-96.7658,16.0806,1065.5482],[-96.7679,16.0824,1046.8514],[-96.7687,16.0793,1030.3302],[-96.7665,16.0751,991.3726],[-96.7693,16.0733,983.597],[-96.7713,16.0693,965.264],[-96.7736,16.0689,947.3494],[-96.7717,16.0676,963.7574],[-96.7712,16.0623,923.3574],[-96.7697,16.0615,927.7787],[-96.7712,16.0591,913.9081],[-96.7695,16.0582,899.4579],[-96.7711,16.0541,846.1923],[-96.7674,16.0461,677.6565],[-96.7706,16.0463,672.5909],[-96.7733,16.0394,618.3082],[-96.7728,16.0358,600.4056],[-96.7704,16.0349,609.6244],[-96.7691,16.0323,578.59],[-96.7673,16.0338,601.2769],[-96.7661,16.0315,576.4865],[-96.7642,16.034,584.7884],[-96.7603,16.0289,509.6312],[-96.7574,16.0292,493.5363],[-96.7546,16.0231,456.4862],[-96.7544,16.0211,445.7079],[-96.7562,16.0218,473.2928],[-96.7568,16.018,421.72],[-96.7588,16.0178,441.2227],[-96.7568,16.0151,428.0501],[-96.7591,16.0128,434.4046],[-96.759,16.0097,414.5148],[-96.7564,16.0102,390.3851],[-96.7536,16.0075,400.7473],[-96.7561,16.0064,370.0503],[-96.7552,16.0039,386.4506],[-96.7569,15.9981,342.1236],[-96.7531,15.9943,299.4347],[-96.7488,15.9933,271.9436],[-96.741,16.009,303.1229],[-96.738,16.0052,307.234],[-96.7331,16.0061,328.2022],[-96.7313,16.0092,345.4566],[-96.7258,16.0112,335.8661],[-96.7261,16.0158,331.9447],[-96.723,16.0167,343.9522],[-96.7207,16.0116,382.6348],[-96.7136,16.0128,366.4108],[-96.7103,16.0152,434.6975],[-96.7121,16.0201,386.546],[-96.7087,16.0189,451.9753],[-96.7085,16.0264,401.0116],[-96.7053,16.0252,456.2994],[-96.7048,16.0224,509.0207],[-96.7031,16.0214,444.6578],[-96.6995,16.0225,430.9877],[-96.6988,16.0258,492.5895],[-96.6964,16.0259,554.224],[-96.6956,16.0286,488.5305],[-96.69,16.0282,504.5394],[-96.6902,16.0353,477.5168],[-96.6879,16.0342,469.6919],[-96.6849,16.0374,496.9398],[-96.6855,16.0407,567.8525],[-96.6891,16.0412,527.702],[-96.6889,16.0422,558.2213],[-96.6853,16.0433,512.0443],[-96.6805,16.0409,507.6924],[-96.675299999999993,16.045,528.3425],[-96.6716,16.0428,524.6593],[-96.6698,16.0473,628.9466],[-96.6661,16.0478,563.3918],[-96.6619,16.051,564.9635],[-96.6649,16.0545,573.1811],[-96.6634,16.058,577.1729],[-96.6556,16.0551,612.425],[-96.6544,16.058,607.4897],[-96.6555,16.0608,655.6976],[-96.6512,16.0618,631.1163],[-96.651,16.0634,690.2903],[-96.6543,16.0658,657.344],[-96.6537,16.0682,667.7122],[-96.6574,16.0722,707.4935],[-96.6529,16.0718,687.9637],[-96.6531,16.0746,666.4362],[-96.6556,16.0752,698.9114],[-96.6547,16.0788,694.8845],[-96.6516,16.0795,685.8508],[-96.6503,16.0858,681.88]]]]}
,"properties": {"GID_2": "MEX.20.369_2","GID_0": "MEX","country": "México","GID_1": "MEX.20_1","province": "Oaxaca","NL_NAME_1": "NA","county": "SantaCatarinaLoxicha","VARNAME_2": "NA","NL_NAME_2": "NA","TYPE_2": "Município","ENGTYPE_2": "Municipality","CC_2": "NA","HASC_2": "NA","name": "Santa_Catarina_Loxicha.county","area_km2": 126.86647,"hist_schema_id": "Elevation0-9000","hist_area_km2": {"275": 0.22419,"300": 0.42799,"325": 0.42798,"350": 0.67253,"375": 0.89671,"400": 1.08011,"425": 1.50807,"450": 1.69147,"475": 1.85445,"500": 1.89518,"525": 1.87478,"550": 2.34342,"575": 2.54719,"600": 2.62865,"625": 2.83235,"650": 3.01569,"675": 3.15827,"700": 3.36197,"725": 3.66758,"750": 3.54527,"775": 3.87124,"800": 3.3618,"825": 3.85078,"850": 3.19876,"875": 3.23948,"900": 3.42278,"925": 3.62647,"950": 3.89129,"975": 3.89124,"1000": 3.80968,"1025": 3.0966,"1050": 3.09658,"1075": 2.87247,"1100": 2.36315,"1125": 2.17976,"1150": 2.05752,"1175": 2.40385,"1200": 2.0168,"1225": 2.07787,"1250": 2.11862,"1275": 2.0575,"1300": 1.87413,"1325": 1.91485,"1350": 1.50742,"1375": 2.05743,"1400": 1.62963,"1425": 1.18148,"1450": 1.40556,"1475": 1.34441,"1500": 0.91666,"1525": 1.2018,"1550": 0.67219,"1575": 0.65181,"1600": 0.83512,"1625": 0.69254,"1650": 0.7129,"1675": 0.65179,"1700": 0.63142,"1725": 0.54995,"1750": 0.48883,"1775": 0.46847,"1800": 0.44811,"1825": 0.34626,"1850": 0.46847,"1875": 0.32589,"1900": 0.4481,"1925": 0.28515,"1950": 0.26478,"1975": 0.24442,"2000": 0.24442,"2025": 0.04073,"2050": 0.12221,"2075": 0.08147}}}