{"type": "Feature","bbox": [-94.373,17.8878,-94.1973,18.0973],"geometry": {"type": "MultiPolygon","coordinates": [[[[-94.2574,18.0698,60.1391],[-94.2681,18.0762,77.6214],[-94.2859,18.0735,41.8852],[-94.2904,18.0763,31.713],[-94.289,18.0806,25.4959],[-94.291,18.0835,39.4235],[-94.2995,18.0882,18.0],[-94.3012,18.0958,21.9968],[-94.3108,18.0973,34.6913],[-94.3149,18.0928,20.0226],[-94.3144,18.0871,21.4105],[-94.3195,18.0823,20.8406],[-94.3216,18.0753,32.1082],[-94.3232,18.0758,27.5208],[-94.3332,18.0682,44.2072],[-94.3347,18.0686,29.4711],[-94.3374,18.065,24.9085],[-94.3275,18.0597,32.6675],[-94.3184,18.0576,96.9352],[-94.3204,18.0475,116.6507],[-94.3231,18.0479,134.398],[-94.3258,18.0401,121.8759],[-94.3299,18.0361,53.3667],[-94.3326,18.0354,37.4839],[-94.3356,18.0276,40.6394],[-94.3368,18.0219,49.665],[-94.333,18.0094,88.7675],[-94.3368,18.007,73.0233],[-94.3404,18.0095,43.7836],[-94.3454,18.005,48.3259],[-94.3452,18.0029,63.7403],[-94.347,18.0054,52.2451],[-94.3521,18.0061,41.3748],[-94.3518,18.0032,39.1378],[-94.3547,18.0044,33.4642],[-94.3552,17.9989,56.8807],[-94.3596,17.9946,38.4922],[-94.3592,17.9914,60.134],[-94.3662,17.9901,57.2769],[-94.373,17.986,33.3899],[-94.3724,17.9834,37.6306],[-94.3695,17.9818,33.9964],[-94.37,17.9795,36.2944],[-94.367,17.978,42.8087],[-94.3672,17.9737,63.5245],[-94.3641,17.9737,55.5312],[-94.3635,17.9584,20.8043],[-94.3607,17.9584,28.4865],[-94.3607,17.9495,22.4357],[-94.3579,17.9495,24.1453],[-94.3559,17.9368,52.9298],[-94.3541,17.9368,55.3987],[-94.3538,17.9271,38.14],[-94.3504,17.9271,9.549],[-94.3497,17.916,5.1016],[-94.3528,17.917,5.3935],[-94.3538,17.9145,5.017],[-94.3397,17.9083,6.8505],[-94.3399,17.9045,7.8625],[-94.3021,17.9109,36.7184],[-94.2988,17.903,33.2682],[-94.2937,17.9047,31.3011],[-94.2907,17.8971,23.0349],[-94.2889,17.8991,24.9978],[-94.287,17.8943,25.01],[-94.2792,17.8928,22.2963],[-94.2773,17.8903,13.5288],[-94.2672,17.8878,19.4708],[-94.2668,17.8902,27.0706],[-94.2635,17.8907,20.2843],[-94.2589,17.8889,7.5059],[-94.2554,17.8942,24.3838],[-94.2511,17.8969,36.6036],[-94.2504,17.902,14.1446],[-94.2417,17.9091,19.6008],[-94.241,17.9162,13.0871],[-94.2347,17.9166,15.3461],[-94.232,17.9214,15.6319],[-94.2315,17.9286,19.1427],[-94.2292,17.9287,18.8798],[-94.2292,17.9329,18.6988],[-94.2263,17.9308,20.511],[-94.2264,17.9379,20.9564],[-94.2228,17.9378,29.1824],[-94.2228,17.9424,21.1049],[-94.2192,17.9425,26.2741],[-94.2192,17.9404,23.4233],[-94.2146,17.9416,26.9966],[-94.2113,17.9439,29.5137],[-94.208,17.95,43.6233],[-94.2094,17.9588,46.3097],[-94.2178,17.9642,27.9547],[-94.2171,17.9696,31.1136],[-94.2146,17.9724,33.1796],[-94.2089,17.9732,35.8725],[-94.1973,17.9897,29.7283],[-94.1998,17.9918,32.4464],[-94.2047,17.9914,31.8249],[-94.2084,17.9984,36.1813],[-94.2129,17.9967,40.1034],[-94.2192,18.0002,46.3645],[-94.2204,18.0039,43.6939],[-94.2177,18.0125,55.6894],[-94.2124,18.0156,53.9709],[-94.2116,18.0183,58.5251],[-94.2207,18.0203,58.7969],[-94.2189,18.0241,63.4878],[-94.2209,18.0295,69.118],[-94.2185,18.0311,76.4038],[-94.2194,18.0355,74.5385],[-94.2174,18.0398,83.4854],[-94.2248,18.0445,62.3242],[-94.2326,18.045,70.6337],[-94.2353,18.0507,53.5647],[-94.2392,18.05,55.4007],[-94.2421,18.0519,64.6046],[-94.2472,18.0492,76.9741],[-94.2513,18.0511,102.1898],[-94.2589,18.0474,89.1675],[-94.2721,18.0494,57.5207],[-94.2751,18.051,50.6227],[-94.2737,18.0536,46.2159],[-94.2787,18.0552,37.6598],[-94.2793,18.0586,37.2065],[-94.2824,18.062,32.541],[-94.2811,18.0635,32.2404],[-94.2735,18.0631,41.1283],[-94.2771,18.0671,49.6691],[-94.2764,18.0697,55.3037],[-94.2651,18.0654,75.5549],[-94.2563,18.0692,60.1391],[-94.2574,18.0698,60.1391]]]]}
,"properties": {"GID_2": "MEX.30.116_2","GID_0": "MEX","country": "México","GID_1": "MEX.30_1","province": "Veracruz","NL_NAME_1": "NA","county": "Moloacán","VARNAME_2": "NA","NL_NAME_2": "NA","TYPE_2": "Município","ENGTYPE_2": "Municipality","CC_2": "NA","HASC_2": "NA","name": "Moloacán.county","area_km2": 250.266,"hist_schema_id": "Elevation0-9000","hist_area_km2": {"0": 9.8243,"25": 112.499,"50": 81.4059,"75": 29.963,"100": 12.763,"125": 3.1857,"150": 0.5848,"175": 0.0403}}}