{"type":"Feature","properties":{"GID_2":"MEX.30.154_2","GID_0":"MEX","country":"México","GID_1":"MEX.30_1","province":"Veracruz","NL_NAME_1":"NA","county":"SoledaddeDoblado","VARNAME_2":"NA","NL_NAME_2":"NA","TYPE_2":"Município","ENGTYPE_2":"Municipality","CC_2":"NA","HASC_2":"NA","name":"Soledadde_Doblado.county"},
"geometry":{"type": "MultiPolygon","coordinates": [[[[-96.5399,18.9578,188.7667],[-96.5391,18.9599,191.1107],[-96.5368,18.9599,202.6621],[-96.5353,18.9551,198.8545],[-96.5314,18.9561,186.5297],[-96.5336,18.9539,179.0361],[-96.533,18.9524,176.7954],[-96.5302,18.9525,175.7599],[-96.53,18.9537,175.7599],[-96.5238,18.9505,171.3646],[-96.5197,18.952,188.5172],[-96.5196,18.95,207.7656],[-96.5118,18.9475,192.6165],[-96.5098,18.9444,184.9699],[-96.5058,18.9435,163.1861],[-96.5003,18.939,151.3251],[-96.4954,18.9387,132.8],[-96.492,18.934,117.0906],[-96.4851,18.937,120.6671],[-96.4849,18.9355,120.6671],[-96.4839,18.9365,110.842],[-96.4783,18.9353,137.2951],[-96.4721,18.9389,105.612],[-96.4653,18.9402,81.0902],[-96.4622,18.9391,82.032],[-96.4595,18.9463,73.8779],[-96.456,18.9452,89.5457],[-96.4539,18.9469,71.4918],[-96.4517,18.9455,70.5568],[-96.45,18.9493,74.4845],[-96.4483,18.9488,86.96],[-96.4472,18.9457,68.6639],[-96.4438,18.9468,66.4437],[-96.4427,18.9443,64.7617],[-96.4401,18.944,76.5148],[-96.4395,18.941,74.898],[-96.4363,18.9408,65.0924],[-96.434,18.937,81.9622],[-96.4291,18.9379,60.8126],[-96.4295,18.9419,59.5645],[-96.4265,18.9445,57.3646],[-96.4232,18.9415,80.6337],[-96.4226,18.9442,55.2524],[-96.421,18.9432,57.3903],[-96.4212,18.941,85.1522],[-96.4199,18.9415,85.9143],[-96.4184,18.939,78.3368],[-96.4134,18.937,55.4484],[-96.4107,18.94,68.8306],[-96.4094,18.9363,56.0225],[-96.4071,18.9373,50.6086],[-96.4046,18.9355,53.1456],[-96.3998,18.9376,53.1119],[-96.3961,18.9357,47.0497],[-96.3926,18.939,49.3965],[-96.3929,18.9435,45.1038],[-96.3872,18.9425,50.6171],[-96.3787,18.9441,43.9638],[-96.3789,18.9475,44.6899],[-96.374,18.9486,42.1606],[-96.3727,18.9458,43.5702],[-96.3716,18.948,40.1658],[-96.3693,18.9481,41.9174],[-96.3644,18.9536,38.1227],[-96.3568,18.9584,37.5813],[-96.3499,18.9705,47.6443],[-96.3501,18.9746,56.117],[-96.3433,18.9754,45.3995],[-96.3432,18.9695,37.7597],[-96.336,18.9692,38.5128],[-96.334,18.9665,30.7528],[-96.3267,18.967,38.7092],[-96.326,18.9633,33.4965],[-96.3228,18.9641,35.6865],[-96.3233,18.967,35.3432],[-96.3211,18.9709,30.3872],[-96.3177,18.9703,31.2778],[-96.3147,18.9726,26.587],[-96.3145,18.979,27.9848],[-96.3182,18.9769,26.4717],[-96.3246,18.978,35.1918],[-96.3252,18.9819,32.7324],[-96.323,18.9828,26.7655],[-96.3245,18.9865,33.6239],[-96.3213,18.9857,32.9096],[-96.3229,18.9925,29.5519],[-96.3199,18.9994,28.4375],[-96.3247,19.0006,37.4987],[-96.3248,18.9987,28.3011],[-96.3267,18.9988,27.0159],[-96.3324,19.0034,29.6994],[-96.3344,19.0029,34.1822],[-96.3371,19.0128,49.2938],[-96.342,19.0145,42.261],[-96.3417,19.0167,50.9447],[-96.3466,19.0166,51.7455],[-96.3466,19.015,57.0195],[-96.3522,19.0153,52.7671],[-96.3521,19.0182,61.089],[-96.3539,19.0179,62.2157],[-96.3539,19.0205,51.8428],[-96.3606,19.0216,52.1032],[-96.3625,19.0192,59.1134],[-96.3666,19.0189,59.4917],[-96.3833,19.0252,67.3252],[-96.3899,19.0251,67.7712],[-96.3992,19.0323,60.8234],[-96.3995,19.0347,59.6895],[-96.3963,19.0356,49.93],[-96.396,19.0379,62.6121],[-96.4022,19.0406,70.973],[-96.4026,19.0375,54.2681],[-96.4058,19.037,68.7006],[-96.4111,19.0397,57.9686],[-96.4029,19.0431,85.1319],[-96.4035,19.0454,75.0537],[-96.3998,19.0447,71.7568],[-96.3906,19.0477,80.0536],[-96.3812,19.0656,59.4458],[-96.3783,19.0651,57.05],[-96.377,19.0716,49.3559],[-96.3719,19.0756,48.8589],[-96.3798,19.081,46.2511],[-96.381,19.0836,50.1569],[-96.3796,19.0908,42.9409],[-96.3751,19.0936,42.0905],[-96.38,19.0943,39.3808],[-96.3807,19.0956,39.7717],[-96.3807,19.0942,39.3808],[-96.3862,19.0911,69.23],[-96.3923,19.0904,71.78],[-96.394,19.0936,45.722],[-96.3972,19.0929,46.9805],[-96.3962,19.103,51.8763],[-96.3993,19.1087,48.5],[-96.3959,19.1085,49.1804],[-96.3952,19.1107,38.0652],[-96.3965,19.1124,43.2264],[-96.3986,19.1353,36.5281],[-96.4016,19.1366,37.0614],[-96.4074,19.1339,39.5913],[-96.4077,19.143,90.4681],[-96.4051,19.1422,93.6458],[-96.4043,19.144,81.3687],[-96.4155,19.1495,98.8492],[-96.4138,19.1573,99.0323],[-96.4122,19.1589,95.7497],[-96.4094,19.1589,95.8495],[-96.4098,19.1618,88.251],[-96.4072,19.1633,80.7241],[-96.4063,19.1676,62.5017],[-96.4005,19.1724,46.7155],[-96.4022,19.1744,35.9115],[-96.4055,19.1712,43.4124],[-96.4096,19.1718,41.3143],[-96.411,19.1692,44.7571],[-96.4142,19.1709,48.5068],[-96.4153,19.1682,43.7244],[-96.4182,19.1688,61.6419],[-96.4188,19.1664,75.6777],[-96.4187,19.1689,62.2792],[-96.426,19.1688,100.8314],[-96.4275,19.1673,102.844],[-96.4282,19.1688,109.8292],[-96.4258,19.1704,100.8314],[-96.4287,19.1731,66.4662],[-96.4333,19.1714,63.8552],[-96.4302,19.1693,112.2517],[-96.4337,19.1702,73.0152],[-96.4339,19.1722,58.6494],[-96.4384,19.17,82.4591],[-96.4436,19.172,73.1328],[-96.4482,19.1718,77.5256],[-96.448,19.1744,137.794],[-96.4439,19.1765,131.1936],[-96.4438,19.1798,81.1739],[-96.447,19.1801,71.0069],[-96.4445,19.1863,49.434],[-96.4462,19.1879,48.3],[-96.4494,19.1874,49.3748],[-96.4492,19.1861,50.8719],[-96.4548,19.1871,70.125],[-96.4559,19.185,55.0673],[-96.4608,19.183,66.2189],[-96.4654,19.1845,71.9335],[-96.4648,19.1817,69.3991],[-96.4635,19.1815,67.7789],[-96.4638,19.1787,79.4211],[-96.4671,19.1812,75.3689],[-96.4669,19.1839,90.131],[-96.4681,19.1837,96.4335],[-96.4679,19.1779,133.8715],[-96.4756,19.1812,92.9114],[-96.4742,19.179,92.1893],[-96.476,19.1768,92.3252],[-96.4793,19.1818,96.4001],[-96.4832,19.1813,101.4793],[-96.4896,19.1782,128.3098],[-96.4914,19.1755,180.7201],[-96.4917,19.1739,185.0453],[-96.487799999999993,19.1748,167.1758],[-96.4877,19.1729,174.7216],[-96.4905,19.1701,137.8574],[-96.4978,19.1684,155.7745],[-96.4966,19.166,172.567],[-96.4982,19.1623,198.9785],[-96.4975,19.159,136.4254],[-96.4987,19.1568,125.9982],[-96.5012,19.158,123.9676],[-96.503,19.1557,100.5706],[-96.4988,19.1496,107.074],[-96.5022,19.1466,87.2598],[-96.502,19.1437,93.086],[-96.5007,19.1432,88.4315],[-96.4976,19.1468,82.1947],[-96.495,19.1473,119.3022],[-96.4937,19.1459,133.5567],[-96.4928,19.1397,75.1126],[-96.4946,19.1361,95.0966],[-96.5013,19.1381,97.5898],[-96.5152,19.1345,133.8677],[-96.516,19.1369,129.4387],[-96.518,19.1356,135.8153],[-96.5213,19.1372,170.8706],[-96.5283,19.1362,169.2767],[-96.5299,19.1349,181.5437],[-96.5327,19.1348,180.6898],[-96.5327,19.136,189.4839],[-96.5343,19.1353,183.7538],[-96.5342,19.1335,186.9257],[-96.5372,19.1336,193.6889],[-96.5372,19.1317,232.0853],[-96.5398,19.1323,204.1552],[-96.5409,19.1305,202.2773],[-96.5412,19.1324,222.8224],[-96.5445,19.1305,211.3516],[-96.548,19.1315,228.0941],[-96.5517,19.1295,228.5145],[-96.5508,19.1319,237.066],[-96.5543,19.1313,242.6038],[-96.5594,19.1329,264.7379],[-96.5651,19.1314,276.6726],[-96.5678,19.133,279.3525],[-96.5703,19.1318,283.4225],[-96.5725,19.1344,298.9926],[-96.5738,19.133,296.5563],[-96.5703,19.1189,266.8499],[-96.5605,19.1192,253.3043],[-96.5591,19.1175,237.8273],[-96.5617,19.1155,240.7489],[-96.5616,19.1121,226.8313],[-96.5598,19.1112,227.6583],[-96.5586,19.114,255.9566],[-96.555,19.1112,215.7279],[-96.5536,19.1135,209.8596],[-96.5501,19.1123,254.115],[-96.5507,19.1096,204.9911],[-96.5477,19.1093,183.5924],[-96.5488,19.1064,196.6523],[-96.5462,19.1057,189.4859],[-96.5493,19.1045,187.5918],[-96.5484,19.1024,189.3596],[-96.5515,19.1007,195.2672],[-96.5516,19.1034,203.5921],[-96.5549,19.1009,229.1588],[-96.5563,19.1011,229.1588],[-96.5558,19.1028,219.0001],[-96.5573,19.1017,235.7586],[-96.5588,19.1033,230.5729],[-96.5597,19.0989,242.8685],[-96.5618,19.098,255.6623],[-96.5677,19.1008,251.2248],[-96.5695,19.0928,275.2497],[-96.5655,19.0884,259.2478],[-96.5658,19.0868,251.1947],[-96.5644,19.0871,266.3852],[-96.5655,19.0846,220.6594],[-96.5633,19.082,217.4559],[-96.564,19.0804,216.1145],[-96.5599,19.0809,224.7216],[-96.5572,19.0789,215.1264],[-96.5597,19.0782,208.0386],[-96.5614,19.074,223.7033],[-96.5686,19.073,253.9525],[-96.5704,19.0694,282.4119],[-96.5831,19.0731,283.9156],[-96.5843,19.0716,227.4031],[-96.5661,19.0565,246.7283],[-96.5654,19.06,238.9524],[-96.5542,19.0584,224.645],[-96.5518,19.0556,207.8409],[-96.5494,19.0582,202.2643],[-96.5452,19.0517,226.0415],[-96.544,19.0533,225.2444],[-96.5457,19.0565,190.9455],[-96.5423,19.0571,202.5118],[-96.5402,19.0535,183.0168],[-96.5412,19.0522,183.0168],[-96.5386,19.0491,202.2586],[-96.5364,19.0502,207.6158],[-96.5362,19.0472,186.7969],[-96.5334,19.048,199.7707],[-96.5345,19.0454,205.8297],[-96.5294,19.0438,171.2303],[-96.5258,19.0457,185.2423],[-96.518,19.0437,186.6519],[-96.5161,19.0472,180.0947],[-96.5141,19.0475,170.0968],[-96.5139,19.041,170.5542],[-96.504,19.0389,142.8266],[-96.5015,19.0428,143.9603],[-96.5061,19.0477,131.2652],[-96.5034,19.0509,140.9511],[-96.4997,19.0455,127.5997],[-96.4972,19.0455,128.1403],[-96.4948,19.048,127.76],[-96.4903,19.0461,128.9249],[-96.4872,19.0481,118.7404],[-96.4866,19.0427,148.2506],[-96.4825,19.0449,127.9629],[-96.4849,19.0378,157.1143],[-96.4825,19.0297,152.718],[-96.4903,19.0298,158.4167],[-96.4919,19.0186,176.6107],[-96.4918,19.0137,164.2493],[-96.4904,19.0122,160.6017],[-96.4917,19.0122,164.2493],[-96.4914,19.0078,169.3039],[-96.4897,19.0073,168.8961],[-96.4889,19.0039,164.6853],[-96.4913,19.0014,169.1363],[-96.4904,18.9936,159.086],[-96.4896,18.9887,121.0757],[-96.4875,18.9867,107.6666],[-96.4938,18.989,128.4205],[-96.4942,18.9933,138.3616],[-96.497,18.992,162.577],[-96.5016,18.9959,163.2561],[-96.5052,18.994,160.6525],[-96.5052,18.9972,173.9939],[-96.5073,18.9955,154.9971],[-96.5099,18.9971,163.4183],[-96.5103,18.9943,178.2852],[-96.5123,18.9953,171.9702],[-96.5179,18.9926,174.3409],[-96.5178,18.9938,189.5031],[-96.5203,18.9941,186.9001],[-96.5207,18.9909,195.1295],[-96.5249,18.9913,185.1691],[-96.5249,18.9895,198.9503],[-96.5264,18.9896,204.0208],[-96.5268,18.9799,172.6849],[-96.5286,18.9783,194.294],[-96.5297,18.9796,197.7622],[-96.5358,18.9799,184.576],[-96.5408,18.9787,204.0828],[-96.5408,18.976,209.2493],[-96.550299999999993,18.9741,227.3682],[-96.5512,18.9758,239.133],[-96.559,18.9764,244.4027],[-96.5597,18.9701,246.2431],[-96.5572,18.9655,242.7516],[-96.5552,18.9674,247.0763],[-96.5546,18.9645,247.8827],[-96.55,18.9655,240.9216],[-96.5507,18.9628,232.231],[-96.546,18.9595,224.392],[-96.5441,18.9625,218.126],[-96.5382,18.962,213.6566],[-96.5411,18.9589,214.2206],[-96.5399,18.9578,188.7667]]]]}}