{"type": "Feature","bbox": [-110.4379,29.8194,-110.2175,29.9211],"geometry": {"type": "MultiPolygon","coordinates": [[[[-110.2268,29.8542,599.3994],[-110.2234,29.8585,616.1382],[-110.2175,29.8782,636.8366],[-110.22,29.8782,608.3732],[-110.2244,29.8951,613.6169],[-110.2229,29.8958,614.8679],[-110.2235,29.9001,615.8185],[-110.2269,29.8975,614.4004],[-110.2273,29.8922,613.1623],[-110.298,29.9211,1214.386],[-110.4379,29.9056,1637.5674],[-110.3937,29.8194,1765.0585],[-110.3706,29.8248,1764.7257],[-110.374,29.8347,1529.0103],[-110.2492,29.8513,618.4908],[-110.2479,29.8504,616.1707],[-110.251,29.8492,635.1464],[-110.2472,29.8468,615.4857],[-110.2482,29.8439,610.1235],[-110.2385,29.8431,597.3186],[-110.2368,29.8413,593.7742],[-110.2316,29.8417,600.0598],[-110.2268,29.8542,599.3994]]]]}
,"properties": {"GID_2": "MEX.26.55_2","GID_0": "MEX","country": "México","GID_1": "MEX.26_1","province": "Sonora","NL_NAME_1": "NA","county": "SanFelipedeJesús","VARNAME_2": "NA","NL_NAME_2": "NA","TYPE_2": "Município","ENGTYPE_2": "Municipality","CC_2": "NA","HASC_2": "NA","name": "San_Felipede_Jesús.county","area_km2": 151.4329,"hist_schema_id": "Elevation0-9000","hist_area_km2": {"600": 7.7225,"625": 3.2176,"650": 4.0999,"675": 5.35,"700": 5.1109,"725": 5.258,"750": 5.4418,"775": 5.4965,"800": 5.8824,"825": 6.1212,"850": 6.213,"875": 6.8195,"900": 6.6356,"925": 5.4041,"950": 3.8417,"975": 3.1616,"1000": 2.8124,"1025": 2.3345,"1050": 2.2059,"1075": 2.2061,"1100": 1.82,"1125": 1.8753,"1150": 1.6179,"1175": 1.9857,"1200": 2.2982,"1225": 2.4454,"1250": 2.6477,"1275": 2.758,"1300": 3.9531,"1325": 3.7508,"1350": 3.052,"1375": 2.7396,"1400": 2.7027,"1425": 3.1072,"1450": 3.0887,"1475": 4.0817,"1500": 2.9971,"1525": 2.1514,"1550": 1.8021,"1575": 1.0115,"1600": 0.9379,"1625": 0.6989,"1650": 0.6989,"1675": 0.423,"1700": 0.3678,"1725": 0.3678,"1750": 0.3862,"1775": 0.1471,"1800": 0.1287,"1825": 0.0552}}}