{"type": "Feature","bbox": [-96.9821,16.7433,-96.8102,16.819],"geometry": {"type": "MultiPolygon","coordinates": [[[[-96.9821,16.7935,2644.4482],[-96.9681,16.7815,2250.6973],[-96.9584,16.7794,1934.119],[-96.9499,16.7831,1892.5637],[-96.9347,16.7839,1771.7261],[-96.9295,16.7879,1748.6453],[-96.9275,16.7873,1740.0952],[-96.9196,16.7904,1700.0767],[-96.9145,16.7889,1664.131],[-96.8977,16.7912,1599.774],[-96.8763,16.7886,1547.6406],[-96.8699,16.7692,1505.199],[-96.865,16.7633,1496.6489],[-96.8629,16.7631,1489.8975],[-96.8516,16.7529,1473.5137],[-96.8497,16.7548,1480.1365],[-96.8526,16.7557,1480.4728],[-96.8517,16.7585,1491.1262],[-96.8353,16.7463,1471.9886],[-96.8279,16.7433,1458.8296],[-96.8226,16.7483,1457.7758],[-96.8185,16.7462,1471.4813],[-96.8102,16.7503,1476.7715],[-96.8141,16.7549,1455.0063],[-96.8186,16.7513,1455.254],[-96.8269,16.7591,1467.9971],[-96.8246,16.7621,1466.8433],[-96.828,16.7624,1471.7206],[-96.8303,16.7666,1482.9685],[-96.8361,16.7693,1498.6707],[-96.8426,16.7609,1489.0842],[-96.8474,16.7614,1503.4348],[-96.8509,16.7693,1534.4685],[-96.8537,16.7697,1557.875],[-96.854,16.7658,1538.2429],[-96.8577,16.7672,1555.6415],[-96.8641,16.7661,1509.007],[-96.8652,16.771,1556.4755],[-96.8675,16.7683,1500.3269],[-96.8684,16.773,1541.7594],[-96.8571,16.7743,1645.7755],[-96.8403,16.7721,1529.5485],[-96.842,16.7749,1557.0356],[-96.8374,16.78,1615.8314],[-96.8389,16.7843,1723.9702],[-96.8474,16.7903,2045.0477],[-96.8479,16.7972,2014.3157],[-96.8776,16.801,1586.2927],[-96.8833,16.8038,1561.5554],[-96.8846,16.8067,1579.8018],[-96.8903,16.8072,1734.5747],[-96.895,16.8037,1973.1255],[-96.8975,16.8059,1936.3342],[-96.9176,16.8071,2079.3076],[-96.9205,16.8081,2089.9509],[-96.9302,16.8173,2312.0747],[-96.943,16.819,2586.7463],[-96.9498,16.8182,2522.8052],[-96.9541,16.8147,2600.2666],[-96.9717,16.8164,2807.6279],[-96.9757,16.8149,2851.0894],[-96.9759,16.805,2801.106],[-96.9821,16.7935,2644.4482]]]]}
,"properties": {"GID_2": "MEX.20.382_2","GID_0": "MEX","country": "México","GID_1": "MEX.20_1","province": "Oaxaca","NL_NAME_1": "NA","county": "SantaCruzMixtepec","VARNAME_2": "NA","NL_NAME_2": "NA","TYPE_2": "Município","ENGTYPE_2": "Municipality","CC_2": "NA","HASC_2": "NA","name": "Santa_Cruz_Mixtepec.county","area_km2": 47.13278,"hist_schema_id": "Elevation0-9000","hist_area_km2": {"1450": 0.91361,"1475": 4.24314,"1500": 1.8474,"1525": 1.21799,"1550": 1.48179,"1575": 1.3397,"1600": 1.27881,"1625": 1.11643,"1650": 1.19763,"1675": 1.2788,"1700": 1.01491,"1725": 1.21788,"1750": 1.17728,"1775": 1.25848,"1800": 0.9743,"1825": 1.23817,"1850": 1.07579,"1875": 0.99459,"1900": 0.99459,"1925": 1.17727,"1950": 0.79161,"1975": 1.03519,"2000": 0.97429,"2025": 0.73072,"2050": 0.83221,"2075": 0.97428,"2100": 0.8322,"2125": 0.66981,"2150": 0.71041,"2175": 0.95397,"2200": 0.83219,"2225": 0.62921,"2250": 0.7104,"2275": 0.69009,"2300": 0.66982,"2325": 0.89307,"2350": 0.73068,"2375": 0.77128,"2400": 0.66979,"2425": 0.58861,"2450": 0.58861,"2475": 0.46682,"2500": 0.38563,"2525": 0.36535,"2550": 0.38564,"2575": 0.40594,"2600": 0.24356,"2625": 0.22327,"2650": 0.20297,"2675": 0.30446,"2700": 0.16238,"2725": 0.18267,"2750": 0.20296,"2775": 0.12178,"2800": 0.06089,"2825": 0.04059,"2850": 0.0203,"2875": 0.04059}}}