{"type":"Feature","properties":{"GID_2":"MEX.30.52_2","GID_0":"MEX","country":"México","GID_1":"MEX.30_1","province":"Veracruz","NL_NAME_1":"NA","county":"Coetzala","VARNAME_2":"NA","NL_NAME_2":"NA","TYPE_2":"Município","ENGTYPE_2":"Municipality","CC_2":"NA","HASC_2":"NA","name":"Coetzala.county"},
"geometry":{"type": "MultiPolygon","coordinates": [[[[-96.9242,18.7949,631.4718],[-96.9324,18.7897,1097.9786],[-96.937,18.7816,1006.0673],[-96.9281,18.7807,1134.7388],[-96.9278,18.7739,700.2523],[-96.9312,18.766,965.5169],[-96.9374,18.7667,1484.1273],[-96.9375,18.7551,1281.4246],[-96.9259,18.7567,1380.1116],[-96.9153,18.761,1570.6648],[-96.9063,18.7725,1058.1987],[-96.9061,18.7755,948.5778],[-96.9086,18.781,622.3804],[-96.9043,18.7861,583.0148],[-96.9072,18.7889,610.9439],[-96.9168,18.7912,605.6],[-96.9218,18.7953,615.3141],[-96.9242,18.7949,631.4718]]]]}}