{"type": "Feature","bbox": [-103.6842,19.9086,-103.5444,20.0685],"geometry": {"type": "MultiPolygon","coordinates": [[[[-103.5527,20.0387],[-103.5554,20.0426],[-103.5602,20.0453],[-103.5651,20.0443],[-103.5809,20.0494],[-103.5838,20.0433],[-103.5874,20.0428],[-103.5912,20.0445],[-103.6055,20.0602],[-103.6076,20.0654],[-103.611,20.0674],[-103.6132,20.0667],[-103.619,20.0685],[-103.6205,20.068],[-103.6215,20.0638],[-103.6309,20.0624],[-103.6319,20.0508],[-103.6543,20.0554],[-103.6581,20.0522],[-103.6635,20.0433],[-103.6602,20.0387],[-103.6611,20.0327],[-103.663,20.0327],[-103.6648,20.0188],[-103.6691,20.0191],[-103.6686,20.0155],[-103.672,20.0151],[-103.6703,20.0128],[-103.6717,20.0079],[-103.6745,20.0068],[-103.6739,19.9917],[-103.6754,19.9854],[-103.6733,19.9748],[-103.68,19.9566],[-103.6842,19.9524],[-103.6696,19.9544],[-103.6667,19.9577],[-103.6642,19.9555],[-103.6572,19.9581],[-103.6556,19.9501],[-103.6528,19.9479],[-103.6538,19.946],[-103.6558,19.9476],[-103.656,19.9452],[-103.6525,19.9405],[-103.6576,19.9404],[-103.6613,19.9386],[-103.6615,19.936],[-103.6581,19.9343],[-103.6538,19.9361],[-103.6476,19.9352],[-103.6456,19.9346],[-103.6463,19.931],[-103.6324,19.9276],[-103.6345,19.9252],[-103.6217,19.9212],[-103.6197,19.9172],[-103.6095,19.9086],[-103.6134,19.9297],[-103.609,19.9291],[-103.6082,19.9313],[-103.6065,19.9288],[-103.6086,19.9332],[-103.6119,19.9577],[-103.6088,19.962],[-103.5934,19.9742],[-103.5824,19.9939],[-103.5678,20.0153],[-103.5657,20.0143],[-103.5575,20.0197],[-103.548,20.0225],[-103.5448,20.0256],[-103.5444,20.0314],[-103.5527,20.0387]]]]}
,"properties": {"GID_2": "MEX.14.4_2","GID_0": "MEX","country": "México","GID_1": "MEX.14_1","province": "Jalisco","NL_NAME_1": "NA","county": "Amacueca","VARNAME_2": "NA","NL_NAME_2": "NA","TYPE_2": "Município","ENGTYPE_2": "Municipality","CC_2": "NA","HASC_2": "NA","name": "Amacueca.county","area_km2": 125.04032,"hist_schema_id": "Elevation0-9000","hist_area_km2": {"1350": 20.06445,"1375": 8.16958,"1400": 4.56287,"1425": 4.62242,"1450": 3.46684,"1475": 3.90516,"1500": 3.60626,"1525": 3.68587,"1550": 2.92872,"1575": 2.94858,"1600": 3.12791,"1625": 2.21142,"1650": 2.41072,"1675": 2.47051,"1700": 2.1717,"1725": 2.01231,"1750": 2.29125,"1775": 1.7334,"1800": 1.67361,"1825": 1.69349,"1850": 1.7533,"1875": 1.5939,"1900": 1.61388,"1925": 1.97254,"1950": 1.6736,"1975": 1.73347,"2000": 1.53421,"2025": 1.85303,"2050": 1.45441,"2075": 1.55415,"2100": 1.79323,"2125": 1.07587,"2150": 1.03596,"2175": 1.25507,"2200": 1.51425,"2225": 0.91644,"2250": 0.81678,"2275": 0.77693,"2300": 0.89645,"2325": 0.91642,"2350": 1.295,"2375": 1.2751,"2400": 1.33488,"2425": 0.67735,"2450": 0.61752,"2475": 0.71712,"2500": 0.79682,"2525": 0.61753,"2550": 0.9761,"2575": 0.63745,"2600": 0.63743,"2625": 0.67726,"2650": 0.93617,"2675": 1.2947,"2700": 1.37432,"2725": 1.27467,"2750": 0.81659,"2775": 0.49792,"2800": 0.21909,"2825": 0.53776,"2850": 0.25892,"2875": 0.07967}}}