{"type":"Feature","properties":{"GID_2":"MEX.20.226_2","GID_0":"MEX","country":"México","GID_1":"MEX.20_1","province":"Oaxaca","NL_NAME_1":"NA","county":"SanJuanYaeé","VARNAME_2":"NA","NL_NAME_2":"NA","TYPE_2":"Município","ENGTYPE_2":"Municipality","CC_2":"NA","HASC_2":"NA","name":"San_Juan_Yaeé.county"},
"geometry":{"type": "MultiPolygon","coordinates": [[[[-96.3111,17.4076,969.8],[-96.2924,17.4071,1342.9949],[-96.2904,17.4133,1501.467],[-96.2876,17.4121,1592.8086],[-96.2859,17.4093,1687.7941],[-96.2705,17.4146,1136.9545],[-96.2687,17.4169,1074.4972],[-96.2699,17.4199,989.5788],[-96.269,17.4224,961.7142],[-96.2642,17.4273,786.7383],[-96.2607,17.4274,743.4069],[-96.2571,17.4362,604.6075],[-96.2518,17.4423,492.3855],[-96.2471,17.4435,468.0401],[-96.2425,17.4482,367.3065],[-96.2399,17.4484,369.1555],[-96.2433,17.449,377.7943],[-96.2484,17.4678,413.1881],[-96.2471,17.4689,429.2184],[-96.2476,17.4721,380.6644],[-96.2532,17.4726,359.9859],[-96.2589,17.476,371.6245],[-96.2588,17.4788,348.6253],[-96.2683,17.484,391.9752],[-96.2699,17.4748,418.0368],[-96.2719,17.4729,400.8158],[-96.2777,17.4698,399.2552],[-96.2783,17.4679,406.3477],[-96.2944,17.4619,490.2032],[-96.3037,17.455,530.2094],[-96.3069,17.4498,643.1559],[-96.3076,17.4453,541.2041],[-96.3061,17.441,525.4121],[-96.3128,17.4359,579.434],[-96.3154,17.4293,591.6747],[-96.3133,17.4251,605.5773],[-96.3152,17.423,731.2858],[-96.3105,17.412,872.8041],[-96.3111,17.4076,969.8]]]]}}