{"type":"Feature","properties":{"GID_2":"MEX.10.26_2","GID_0":"MEX","country":"México","GID_1":"MEX.10_1","province":"Durango","NL_NAME_1":"NA","county":"SanBernardo","VARNAME_2":"NA","NL_NAME_2":"NA","TYPE_2":"Município","ENGTYPE_2":"Municipality","CC_2":"NA","HASC_2":"NA","name":"San_Bernardo.county"},
"geometry":{"type": "MultiPolygon","coordinates": [[[[-105.3839,26.113,2072.5437],[-105.411,26.1561,2030.1104],[-105.419,26.1579,2031.9902],[-105.4775,26.2336,2355.1902],[-105.5164,26.2386,2253.0698],[-105.5137,26.2547,2182.6497],[-105.5173,26.2704,2088.9219],[-105.5254,26.2811,2110.5056],[-105.5096,26.2963,2289.4358],[-105.5073,26.3099,2114.7886],[-105.5083,26.3217,2135.8047],[-105.5295,26.3254,2037.2549],[-105.5388,26.3353,2097.5442],[-105.5402,26.3437,1910.3571],[-105.5456,26.3479,1915.1445],[-105.5451,26.353,1875.0305],[-105.5536,26.358,1863.6406],[-105.5536,26.3608,1850.5602],[-105.556,26.3611,1851.8179],[-105.5599,26.3661,1839.3658],[-105.5598,26.3703,1836.3767],[-105.562,26.3696,1850.6602],[-105.5652,26.3771,1821.5613],[-105.6065,26.3491,1876.1063],[-105.6227,26.36,1966.5798],[-105.6294,26.3711,1892.962],[-105.6629,26.3513,1788.7471],[-105.6803,26.4045,1888.7151],[-105.6938,26.4028,1838.2959],[-105.6965,26.4077,1861.0469],[-105.6816,26.422,2059.2551],[-105.6865,26.4258,2103.4709],[-105.6885,26.4607,1946.1328],[-105.7009,26.4622,2000.0997],[-105.7092,26.4731,1996.6853],[-105.7152,26.477,1963.8646],[-105.7196,26.4981,2051.9883],[-105.7326,26.5061,2023.0093],[-105.7797,26.5072,2109.5798],[-105.7662,26.516,1912.4833],[-105.7664,26.5189,1906.7761],[-105.771,26.5233,1899.2458],[-105.7715,26.529,1887.5876],[-105.778,26.5295,1896.9574],[-105.7785,26.5344,1883.9108],[-105.7848,26.5423,1865.4238],[-105.7997,26.5405,1950.0861],[-105.8025,26.5373,1983.0823],[-105.8139,26.5335,2031.2935],[-105.8164,26.5278,1972.8972],[-105.8192,26.5287,1991.8198],[-105.8114,26.5104,2153.4043],[-105.8794,26.4756,2507.1929],[-105.8742,26.4715,2705.4905],[-105.8794,26.465,2824.8875],[-105.8753,26.4562,2887.8408],[-105.8823,26.408,2449.3091],[-105.8795,26.3986,2398.4507],[-105.9077,26.3576,2586.4834],[-105.9292,26.3786,2556.3457],[-105.9449,26.3795,2757.2896],[-105.944,26.3726,2704.5115],[-105.9517,26.3669,2601.3403],[-105.929,26.3429,2488.8721],[-105.9314,26.3396,2502.3882],[-105.9321,26.3338,2545.9436],[-105.9306,26.3312,2542.7959],[-105.933,26.3249,2563.0581],[-105.9416,26.3201,2642.7957],[-105.9379,26.3101,2570.7808],[-105.9426,26.2943,2316.7617],[-105.9429,26.2874,2257.0935],[-105.9353,26.278,2251.0298],[-105.9538,26.2827,2196.156],[-105.9563,26.2745,2201.053],[-105.918,26.2632,2174.3713],[-105.9023,26.2403,2171.981],[-105.9159,26.2363,2385.2104],[-105.9149,26.2343,2323.0327],[-105.9178,26.2242,2226.5039],[-105.9214,26.2235,2239.9458],[-105.9213,26.2214,2203.0093],[-105.9248,26.217,2169.0522],[-105.9221,26.2136,2180.064],[-105.9331,26.2152,2225.3987],[-105.9366,26.2139,2264.5549],[-105.9374,26.2119,2320.6733],[-105.942,26.2116,2427.4429],[-105.9457,26.2083,2557.1763],[-105.9491,26.2078,2561.9912],[-105.9536,26.2029,2627.1904],[-105.9537,26.1997,2706.4573],[-105.9487,26.1966,2851.5295],[-105.947,26.1909,2813.2141],[-105.9295,26.195,2391.3833],[-105.926,26.1945,2366.5337],[-105.9224,26.1971,2329.2185],[-105.9181,26.1952,2279.9661],[-105.9224,26.1943,2369.708],[-105.9259,26.1884,2564.9802],[-105.9211,26.1842,2372.4102],[-105.9189,26.185,2353.1558],[-105.9164,26.1832,2339.3191],[-105.9223,26.1817,2400.5791],[-105.9242,26.1766,2442.2024],[-105.9281,26.173,2549.9229],[-105.9232,26.1745,2478.5171],[-105.922,26.167,2421.5669],[-105.9201,26.1662,2417.6343],[-105.9169,26.1601,2377.2363],[-105.9101,26.1577,2266.0044],[-105.907,26.1598,2244.1196],[-105.9033,26.16,2208.2683],[-105.9001,26.1573,2184.3416],[-105.8957,26.1479,2153.127],[-105.8951,26.1397,2108.9709],[-105.8926,26.1348,2038.5497],[-105.8837,26.133,1964.8708],[-105.8918,26.1461,2244.5354],[-105.867,26.1497,2282.3569],[-105.8187,26.1153,1952.9008],[-105.7737,26.0744,2494.1011],[-105.774,26.0253,2430.6799],[-105.7671,26.0133,2349.0334],[-105.7527,26.0012,2371.1812],[-105.7235,26.0051,2491.7759],[-105.7272,26.0072,2584.3552],[-105.691,26.0547,2056.0049],[-105.6906,26.0513,1989.4642],[-105.6802,26.0531,1888.5289],[-105.6709,26.0358,1980.3268],[-105.6796,26.0374,2161.7793],[-105.6685,26.0126,2232.5295],[-105.6758,26.01,2244.7295],[-105.6745,25.9983,2356.1643],[-105.6775,25.9966,2342.4446],[-105.6807,25.9887,2395.0635],[-105.7064,25.9989,2247.8064],[-105.7238,25.993,2632.6323],[-105.7237,25.9903,2529.2236],[-105.7216,25.9881,2447.7029],[-105.7225,25.9434,2459.2817],[-105.7085,25.9188,2461.98],[-105.7094,25.8986,2612.1062],[-105.7015,25.8632,2527.7644],[-105.6977,25.869,2549.9785],[-105.6862,25.8686,2510.4668],[-105.6473,25.8329,2417.6025],[-105.6282,25.8251,2491.1497],[-105.6529,25.9006,2183.7524],[-105.589,25.8405,2150.2129],[-105.5517,25.8768,1744.9598],[-105.5848,25.8982,1938.193],[-105.5819,25.9051,1938.6912],[-105.556,25.903,1819.4237],[-105.5576,25.907,1808.4225],[-105.5616,25.9083,1850.897],[-105.5645,25.9221,1731.2051],[-105.5607,25.9239,1744.4072],[-105.5577,25.9229,1723.5295],[-105.5533,25.9241,1708.2874],[-105.5508,25.9199,1703.0569],[-105.5474,25.9225,1702.3091],[-105.5478,25.924,1713.8916],[-105.5427,25.9235,1706.4822],[-105.5334,25.9261,1678.2407],[-105.5315,25.9221,1670.5125],[-105.5255,25.9249,1666.822],[-105.5142,25.9217,1656.7196],[-105.5103,25.9187,1657.1892],[-105.506,25.9216,1648.239],[-105.5038,25.9211,1645.5225],[-105.4979,25.9266,1652.2412],[-105.4965,25.9258,1651.9894],[-105.4896,25.9301,1656.7236],[-105.4888,25.9292,1654.9666],[-105.4816,25.9326,1634.3922],[-105.4685,25.9445,1597.4677],[-105.4662,25.944,1594.1536],[-105.4639,25.9459,1590.438],[-105.4597,25.9403,1591.3993],[-105.4512,25.9377,1588.7688],[-105.4365,25.9705,1648.8334],[-105.4376,25.9748,1654.5443],[-105.4355,25.9834,1646.4557],[-105.4372,25.9848,1649.9706],[-105.4009,26.0251,1748.2695],[-105.4098,26.0382,2053.2925],[-105.3939,26.0379,1794.4576],[-105.3928,26.0455,1824.042],[-105.3788,26.0543,1835.5657],[-105.4166,26.0927,1949.5621],[-105.3984,26.1087,1959.4788],[-105.3839,26.113,2072.5437]]]]}}