{"type": "Feature","bbox": [-96.4888,16.6569,-96.4049,16.7599],"geometry": {"type": "MultiPolygon","coordinates": [[[[-96.4763,16.6696,1518.759],[-96.4752,16.6663,1490.6959],[-96.4722,16.6639,1508.1324],[-96.4722,16.6569,1495.0225],[-96.4376,16.6659,2336.0457],[-96.4287,16.6663,2411.6475],[-96.4228,16.6686,2350.4539],[-96.4049,16.6934,1846.0417],[-96.418,16.6898,1727.7148],[-96.4151,16.6944,1704.7542],[-96.4176,16.6994,1683.6987],[-96.4138,16.7051,1693.3479],[-96.4122,16.7225,1727.1495],[-96.4153,16.7233,1731.3256],[-96.4155,16.7293,1692.2731],[-96.4189,16.7362,1633.0809],[-96.4326,16.7397,1622.6027],[-96.4666,16.7599,1539.9723],[-96.4714,16.7497,1588.9624],[-96.4784,16.7433,1545.0403],[-96.4888,16.7483,1517.806],[-96.4882,16.7433,1510.3206],[-96.4859,16.7412,1508.5509],[-96.4852,16.7344,1501.2097],[-96.4887,16.7184,1496.4536],[-96.4756,16.7085,1572.0072],[-96.4715,16.702,1657.9664],[-96.4621,16.6635,1654.1454],[-96.4763,16.6696,1518.759]]]]}
,"properties": {"GID_2": "MEX.20.565_2","GID_0": "MEX","country": "México","GID_1": "MEX.20_1","province": "Oaxaca","NL_NAME_1": "NA","county": "Yaxe","VARNAME_2": "NA","NL_NAME_2": "NA","TYPE_2": "Município","ENGTYPE_2": "Municipality","CC_2": "NA","HASC_2": "NA","name": "Yaxe.county","area_km2": 60.21033,"hist_schema_id": "Elevation0-9000","hist_area_km2": {"1450": 0.02031,"1475": 0.40615,"1500": 4.44683,"1525": 6.25387,"1550": 6.49765,"1575": 5.90895,"1600": 5.03597,"1625": 4.79243,"1650": 4.5082,"1675": 4.02091,"1700": 3.35078,"1725": 2.90406,"1750": 1.34039,"1775": 1.34039,"1800": 1.0358,"1825": 1.07644,"1850": 0.83272,"1875": 0.87334,"1900": 0.54838,"1925": 0.56869,"1950": 0.52808,"1975": 0.48745,"2000": 0.44683,"2025": 0.20311,"2050": 0.30466,"2075": 0.30466,"2100": 0.30466,"2125": 0.22342,"2150": 0.1828,"2175": 0.22342,"2200": 0.22342,"2225": 0.20311,"2250": 0.24373,"2275": 0.16249,"2300": 0.12187,"2325": 0.1828,"2350": 0.08125,"2400": 0.02031}}}