{"type": "Feature","bbox": [-96.8189,19.1887,-96.3723,19.4383],"geometry": {"type": "MultiPolygon","coordinates": [[[[-96.5407,19.3976,124.2483],[-96.5438,19.3909,173.2198],[-96.542,19.3843,176.7742],[-96.5443,19.3807,214.9489],[-96.543,19.3694,204.896],[-96.5473,19.365,235.5978],[-96.550299999999993,19.3661,237.3107],[-96.564,19.3601,256.0005],[-96.5615,19.36,253.0666],[-96.5631,19.3565,255.2602],[-96.5595,19.3556,251.932],[-96.5631,19.3514,257.8365],[-96.5609,19.3455,193.9252],[-96.5626,19.3406,182.5802],[-96.5604,19.3394,144.2115],[-96.5712,19.336,151.112],[-96.5764,19.3255,157.0292],[-96.5867,19.3265,163.2843],[-96.5923,19.3195,171.5161],[-96.5976,19.3211,169.8538],[-96.5984,19.3188,202.5969],[-96.6006,19.321,221.854],[-96.6008,19.3176,277.3389],[-96.6031,19.3176,280.7498],[-96.6038,19.316,297.2635],[-96.6043,19.3094,286.4456],[-96.6148,19.3025,326.2965],[-96.6111,19.2996,213.0121],[-96.6093,19.2931,172.406],[-96.6145,19.2925,174.5434],[-96.6195,19.2872,180.8403],[-96.6269,19.2846,191.9584],[-96.6353,19.2776,196.3584],[-96.6511,19.2779,212.0391],[-96.6544,19.277,228.2865],[-96.6558,19.2716,213.1611],[-96.663,19.2718,231.1829],[-96.6672,19.2749,247.1846],[-96.6682,19.2716,240.3476],[-96.6729,19.2698,242.7667],[-96.6759,19.2711,233.5044],[-96.681,19.2695,246.9988],[-96.6818,19.2656,266.4766],[-96.6874,19.2625,284.416],[-96.6884,19.2594,294.9717],[-96.6948,19.2543,333.2499],[-96.7016,19.2554,446.813],[-96.7058,19.253,463.299],[-96.7078,19.2534,471.0634],[-96.7114,19.2502,522.2218],[-96.7144,19.2507,516.3047],[-96.7159,19.2488,505.3209],[-96.7209,19.2507,538.6868],[-96.7237,19.2499,533.1708],[-96.7288,19.2479,538.764],[-96.7296,19.2455,546.7306],[-96.735,19.2451,555.2787],[-96.7679,19.2297,664.7838],[-96.7688,19.2332,641.2536],[-96.7714,19.2328,650.4985],[-96.7742,19.2313,660.5027],[-96.7748,19.2286,681.2159],[-96.7797,19.2288,696.7005],[-96.8006,19.2201,776.4412],[-96.8073,19.2196,796.5693],[-96.8067,19.21,785.4452],[-96.8131,19.2088,805.9456],[-96.8137,19.2067,786.5045],[-96.8155,19.2075,811.4698],[-96.8189,19.2028,787.2426],[-96.8108,19.2011,745.9213],[-96.8082,19.2025,760.642],[-96.8055,19.2011,747.3552],[-96.7937,19.2042,707.273],[-96.7911,19.2028,708.1713],[-96.7868,19.2035,690.8259],[-96.7802,19.1991,664.9953],[-96.7701,19.1968,665.4543],[-96.7545,19.1969,620.9172],[-96.744,19.2036,563.8279],[-96.7292,19.2036,523.0502],[-96.7265,19.2053,499.4322],[-96.7205,19.2017,515.0013],[-96.7144,19.2029,466.3448],[-96.7115,19.2014,497.527],[-96.71,19.2029,476.0769],[-96.7087,19.2014,464.5981],[-96.7035,19.2025,475.6778],[-96.703,19.201,436.6988],[-96.6954,19.2011,450.0952],[-96.6955,19.1991,413.7896],[-96.7003,19.1967,487.5968],[-96.7063,19.1969,533.6899],[-96.7166,19.1943,563.4056],[-96.7213,19.1913,580.8229],[-96.7204,19.1888,573.4917],[-96.7093,19.1911,535.0312],[-96.7054,19.1887,482.7964],[-96.6951,19.1887,477.5147],[-96.6933,19.193,413.8375],[-96.6924,19.19,447.7892],[-96.691,19.1928,414.9646],[-96.6897,19.1907,400.1113],[-96.6887,19.1932,412.8958],[-96.6849,19.1954,413.3244],[-96.6863,19.193,426.6278],[-96.6822,19.1929,375.8538],[-96.6807,19.1953,376.2224],[-96.679,19.1947,382.7984],[-96.6792,19.1926,373.5753],[-96.6777,19.1927,416.5057],[-96.6781,19.1952,382.7984],[-96.676,19.197,385.4457],[-96.6773,19.1984,359.0528],[-96.6721,19.1987,375.3711],[-96.6689,19.2035,339.8888],[-96.667,19.2021,358.4725],[-96.6659,19.2051,346.6435],[-96.6679,19.2055,341.7079],[-96.6678,19.2068,341.7079],[-96.6638,19.2062,345.0648],[-96.6615,19.2036,354.4142],[-96.6613,19.2065,311.1411],[-96.6566,19.2049,340.8678],[-96.6571,19.2076,316.6331],[-96.6519,19.2091,359.8135],[-96.6488,19.2076,320.1144],[-96.6521,19.2011,443.6205],[-96.6517,19.1968,423.9182],[-96.6449,19.1995,412.1762],[-96.6344,19.1996,404.1645],[-96.6317,19.2026,390.374],[-96.6237,19.204,356.3269],[-96.6221,19.2074,345.5464],[-96.6129,19.2112,303.6861],[-96.6137,19.2125,352.409],[-96.6103,19.2153,357.5202],[-96.6097,19.2139,263.6368],[-96.6066,19.2143,232.5014],[-96.6016,19.2193,210.3886],[-96.6025,19.2215,202.1405],[-96.6008,19.2239,184.1259],[-96.5954,19.2276,212.4493],[-96.5952,19.2317,174.325],[-96.5922,19.2323,189.421],[-96.5884,19.2295,171.9749],[-96.5822,19.2311,169.8954],[-96.5709,19.2361,222.0409],[-96.571,19.2385,260.3432],[-96.5605,19.2409,269.4678],[-96.5608,19.2444,266.459],[-96.5571,19.2443,249.9591],[-96.5522,19.2473,244.6377],[-96.5426,19.2499,236.5133],[-96.5429,19.2531,231.6487],[-96.5392,19.2548,224.1015],[-96.539,19.2577,220.0252],[-96.5173,19.2717,187.7232],[-96.5148,19.2779,176.856],[-96.5061,19.2828,163.8873],[-96.5054,19.2819,169.7265],[-96.5035,19.2844,166.4186],[-96.502,19.2848,159.8751],[-96.5013,19.2827,159.9998],[-96.4965,19.2842,150.2261],[-96.4964,19.2861,150.6475],[-96.4938,19.2856,153.5163],[-96.4923,19.2887,153.8259],[-96.495,19.2931,153.5114],[-96.4937,19.2951,123.7737],[-96.4884,19.2939,120.2832],[-96.4844,19.2984,115.8468],[-96.4795,19.3004,113.318],[-96.4768,19.3046,107.1639],[-96.4748,19.3032,98.7489],[-96.4742,19.3056,115.9323],[-96.4697,19.3054,113.1415],[-96.4705,19.3085,96.3704],[-96.4677,19.3093,106.2448],[-96.4696,19.3109,94.5577],[-96.4654,19.3119,105.8504],[-96.4677,19.3161,94.5391],[-96.466,19.3159,94.5391],[-96.4649,19.3129,90.4123],[-96.4628,19.3163,85.7009],[-96.4612,19.315,80.4872],[-96.4581,19.3182,75.5722],[-96.4515,19.3186,73.8361],[-96.4447,19.3258,68.5168],[-96.4402,19.3275,65.9605],[-96.4383,19.3335,57.4995],[-96.4358,19.3349,57.7888],[-96.4337,19.3338,56.8268],[-96.4318,19.3359,54.3831],[-96.4299,19.3343,54.3014],[-96.425299999999993,19.3351,53.315],[-96.4227,19.3414,66.7299],[-96.425299999999993,19.3469,45.3865],[-96.4215,19.3521,41.4597],[-96.4139,19.35,45.3071],[-96.4113,19.3522,27.3484],[-96.4119,19.3559,26.0745],[-96.4075,19.3588,41.325],[-96.406,19.3581,38.7943],[-96.4068,19.3537,37.383],[-96.402,19.3524,19.0792],[-96.3982,19.3551,20.5423],[-96.3967,19.3542,34.8858],[-96.3965,19.3489,13.3036],[-96.3931,19.3478,19.0936],[-96.3902,19.3493,17.313],[-96.3885,19.3541,16.4636],[-96.3924,19.3579,21.7933],[-96.3927,19.3626,24.561],[-96.3848,19.3606,18.1731],[-96.3819,19.3723,19.5157],[-96.3771,19.3729,28.0304],[-96.3723,19.3814,14.3401],[-96.3745,19.383,10.6771],[-96.3734,19.3878,9.7101],[-96.3766,19.3881,13.8476],[-96.3757,19.3935,7.9972],[-96.3771,19.4007,9.0967],[-96.3824,19.401,19.0651],[-96.3831,19.403,17.976],[-96.3861,19.4024,13.6274],[-96.3867,19.4039,10.8419],[-96.3884,19.4038,9.3778],[-96.3896,19.4008,9.9945],[-96.3956,19.4025,9.0275],[-96.4002,19.4011,10.0024],[-96.4029,19.4092,11.3198],[-96.4074,19.4094,9.9202],[-96.4134,19.412,11.5661],[-96.4138,19.4106,11.5661],[-96.4177,19.4113,12.554],[-96.4204,19.4079,14.7785],[-96.4234,19.4085,16.9131],[-96.4278,19.4057,16.6105],[-96.4282,19.4032,16.5301],[-96.4333,19.4003,19.9096],[-96.4324,19.3994,17.8544],[-96.4344,19.397,20.6057],[-96.4407,19.3973,23.2543],[-96.447,19.3944,25.3318],[-96.4578,19.3994,76.2051],[-96.4642,19.3964,74.4098],[-96.4658,19.3973,92.9189],[-96.465,19.402,92.0712],[-96.4688,19.4071,93.947],[-96.4678,19.4094,88.6216],[-96.4702,19.4101,94.7618],[-96.4694,19.4119,91.6251],[-96.472,19.4133,92.5952],[-96.4706,19.4166,91.9818],[-96.473,19.4173,92.8131],[-96.4724,19.4199,91.2747],[-96.4747,19.4206,89.6012],[-96.4742,19.4257,84.3344],[-96.4759,19.4261,84.3344],[-96.4751,19.4283,84.2274],[-96.4776,19.4304,79.2961],[-96.4762,19.4319,80.7086],[-96.4787,19.4341,68.6909],[-96.4773,19.4357,66.2515],[-96.4808,19.4383,63.4771],[-96.4887,19.4317,78.644],[-96.4954,19.4187,84.0047],[-96.5036,19.4204,79.5503],[-96.5084,19.4166,80.7762],[-96.5137,19.4172,86.9074],[-96.5167,19.4106,87.4735],[-96.5136,19.4088,96.7361],[-96.5127,19.4061,104.7297],[-96.5144,19.3995,110.0754],[-96.5176,19.3983,122.3853],[-96.5248,19.4033,106.4092],[-96.5307,19.4032,117.6851],[-96.5342,19.4011,136.387],[-96.5366,19.3949,130.5119],[-96.539,19.3951,120.7699],[-96.5407,19.3976,124.2483]]]]}
,"properties": {"GID_2": "MEX.30.139_2","GID_0": "MEX","country": "México","GID_1": "MEX.30_1","province": "Veracruz","NL_NAME_1": "NA","county": "PuenteNacional","VARNAME_2": "NA","NL_NAME_2": "NA","TYPE_2": "Município","ENGTYPE_2": "Municipality","CC_2": "NA","HASC_2": "NA","name": "Puente_Nacional.county","area_km2": 385.6621,"hist_schema_id": "Elevation0-9000","hist_area_km2": {"0": 4.1797,"25": 21.6604,"50": 17.4822,"75": 18.5426,"100": 24.983,"125": 33.506,"150": 34.9893,"175": 26.8709,"200": 20.4716,"225": 19.9921,"250": 19.5319,"275": 13.4098,"300": 12.2892,"325": 10.1082,"350": 8.6876,"375": 9.8489,"400": 10.2296,"425": 9.1287,"450": 8.5481,"475": 8.288,"500": 7.4073,"525": 6.2662,"550": 6.6867,"575": 6.0061,"600": 5.1052,"625": 4.1843,"650": 4.0642,"675": 3.3836,"700": 3.2034,"725": 2.2624,"750": 1.9421,"775": 1.5417,"800": 0.8409,"825": 0.02}}}