{"type":"Feature","properties":{"GID_2":"MEX.15.108_2","GID_0":"MEX","country":"México","GID_1":"MEX.15_1","province":"México","NL_NAME_1":"NA","county":"Toluca","VARNAME_2":"NA","NL_NAME_2":"NA","TYPE_2":"Município","ENGTYPE_2":"Municipality","CC_2":"NA","HASC_2":"NA","name":"Toluca.county"},
"geometry":{"type": "MultiPolygon","coordinates": [[[[-99.7244,19.3352,2676.0671],[-99.7181,19.3348,2670.168],[-99.7191,19.3256,2675.7578],[-99.7216,19.3208,2680.103],[-99.72,19.3143,2694.1191],[-99.7208,19.3118,2697.1924],[-99.7184,19.3093,2701.4097],[-99.7162,19.3098,2705.8872],[-99.7133,19.3079,2702.207],[-99.7068,19.3092,2708.6401],[-99.7066,19.308,2706.46],[-99.7025,19.3082,2708.6099],[-99.7043,19.2976,2717.8955],[-99.6958,19.2968,2712.5347],[-99.697,19.2866,2717.5801],[-99.6983,19.2865,2717.5801],[-99.6992,19.2811,2722.2241],[-99.7051,19.2764,2734.6909],[-99.7095,19.2673,2746.7412],[-99.7153,19.2675,2751.3828],[-99.7193,19.2621,2761.2195],[-99.7194,19.2442,2817.4087],[-99.723,19.2349,2874.6755],[-99.7204,19.2346,2853.0557],[-99.7251,19.2218,2934.7256],[-99.732,19.2118,2999.6216],[-99.7414,19.2133,3011.2876],[-99.7486,19.2016,3239.603],[-99.7504,19.1948,3247.917],[-99.7727,19.1613,3605.7954],[-99.7656,19.1506,3693.7031],[-99.7684,19.1393,3887.5933],[-99.7663,19.1262,4136.8291],[-99.7824,19.1122,4069.6572],[-99.7806,19.1083,4294.8032],[-99.7794,19.0964,4044.2356],[-99.7689,19.0899,4018.3284],[-99.7696,19.0764,3720.605],[-99.7458,19.0791,3678.4607],[-99.7502,19.0861,4002.7393],[-99.7471,19.0922,4175.8779],[-99.7341,19.1003,3945.7642],[-99.7351,19.1176,4099.3379],[-99.7332,19.1247,4039.74],[-99.6867,19.1758,3086.676],[-99.6558,19.1944,2849.3584],[-99.6449,19.2149,2730.4097],[-99.6535,19.2175,2763.3474],[-99.6459,19.2223,2720.4111],[-99.6463,19.2249,2724.1709],[-99.6436,19.2262,2722.3215],[-99.6434,19.2288,2725.4988],[-99.6411,19.2303,2724.3442],[-99.6357,19.2301,2721.8728],[-99.6351,19.234,2719.7803],[-99.633,19.2341,2715.3506],[-99.633,19.2381,2699.9785],[-99.6347,19.2381,2699.9785],[-99.6305,19.2454,2661.5098],[-99.6357,19.2528,2665.5916],[-99.6435,19.2594,2675.3938],[-99.6455,19.2647,2675.5762],[-99.6345,19.2648,2657.6836],[-99.6367,19.2662,2658.9238],[-99.6364,19.2707,2655.6477],[-99.6327,19.2683,2649.7837],[-99.6324,19.272,2648.0552],[-99.607,19.2756,2617.2551],[-99.606,19.2872,2609.2007],[-99.5559,19.2863,2583.4744],[-99.5616,19.3096,2582.3469],[-99.5518,19.3124,2577.1875],[-99.5455,19.3167,2576.4177],[-99.5287,19.3191,2571.6851],[-99.5332,19.341,2570.3181],[-99.5456,19.366,2570.4146],[-99.572,19.395,2572.0195],[-99.5839,19.3755,2577.0535],[-99.5994,19.3826,2578.083],[-99.6064,19.381,2580.075],[-99.6152,19.3863,2579.6184],[-99.6204,19.3796,2582.6519],[-99.6275,19.3807,2585.021],[-99.6242,19.392,2578.7476],[-99.6347,19.3948,2578.939],[-99.633,19.3958,2578.3687],[-99.63,19.4043,2575.4961],[-99.6248,19.407,2573.6138],[-99.6213,19.4111,2570.6853],[-99.6184,19.4112,2572.7351],[-99.6299,19.42,2568.8945],[-99.6404,19.4324,2567.271],[-99.6417,19.4311,2579.4578],[-99.6427,19.4334,2574.2727],[-99.6468,19.4352,2572.7192],[-99.642,19.4743,2605.4297],[-99.6531,19.4765,2586.2202],[-99.6542,19.4742,2579.76],[-99.6619,19.4758,2575.5254],[-99.661,19.4881,2615.271],[-99.6591,19.4909,2635.2681],[-99.6614,19.4918,2629.3738],[-99.6665,19.4922,2627.6611],[-99.6673,19.4909,2626.0222],[-99.6661,19.4908,2626.0222],[-99.6676,19.4884,2628.5039],[-99.6688,19.4676,2571.6992],[-99.6668,19.4673,2575.3977],[-99.6651,19.4546,2565.5532],[-99.666,19.4504,2565.9209],[-99.6638,19.4409,2565.877],[-99.672,19.4378,2567.1541],[-99.6743,19.4351,2571.8757],[-99.6735,19.439,2570.5945],[-99.6661,19.4428,2569.644],[-99.6661,19.4456,2565.2075],[-99.6697,19.4467,2573.2312],[-99.674,19.4428,2568.5281],[-99.6776,19.4429,2568.8394],[-99.6735,19.4452,2565.2642],[-99.6729,19.4476,2567.1062],[-99.675,19.4495,2566.4507],[-99.6837,19.4514,2567.417],[-99.6927,19.4388,2580.1584],[-99.694,19.439,2580.1584],[-99.6943,19.4278,2594.1843],[-99.7069,19.4209,2585.5923],[-99.7082,19.418,2586.8989],[-99.7141,19.4213,2600.2212],[-99.7195,19.4216,2598.5591],[-99.7205,19.4072,2609.5198],[-99.7348,19.4045,2596.4973],[-99.7321,19.3975,2603.1445],[-99.7328,19.391,2609.2349],[-99.7308,19.3847,2615.3738],[-99.7326,19.3751,2625.5818],[-99.7314,19.3699,2629.1555],[-99.718,19.3566,2644.5059],[-99.7192,19.3524,2648.2427],[-99.7225,19.3513,2649.4556],[-99.7229,19.35,2651.7808],[-99.7206,19.3493,2651.4043],[-99.7245,19.3383,2670.9182],[-99.7269,19.337,2676.6733],[-99.7244,19.3352,2676.0671]]]]}}