{"type":"Feature","properties":{"GID_2":"MEX.20.261_2","GID_0":"MEX","country":"México","GID_1":"MEX.20_1","province":"Oaxaca","NL_NAME_1":"NA","county":"SanMelchorBetaza","VARNAME_2":"NA","NL_NAME_2":"NA","TYPE_2":"Município","ENGTYPE_2":"Municipality","CC_2":"NA","HASC_2":"NA","name":"San_Melchor_Betaza.county"},
"geometry":{"type": "MultiPolygon","coordinates": [[[[-96.138,17.2263,1038.3068],[-96.1461,17.2312,960.5494],[-96.1378,17.2342,1034.5707],[-96.1367,17.238,1066.6648],[-96.1302,17.2378,1174.6527],[-96.1114,17.261,1954.55],[-96.1204,17.272,1908.8936],[-96.127,17.2681,1846.1853],[-96.1326,17.2728,1611.6082],[-96.1338,17.2756,1482.8628],[-96.1371,17.2769,1323.9585],[-96.1504,17.2735,1108.4722],[-96.1547,17.2739,1053.2109],[-96.1558,17.2706,1023.4619],[-96.1601,17.2671,961.416],[-96.1661,17.2668,860.864],[-96.1705,17.2649,807.9755],[-96.1779,17.2669,731.8545],[-96.1836,17.2643,734.475],[-96.1859,17.2594,739.0936],[-96.1819,17.2585,771.5435],[-96.1827,17.2557,742.4363],[-96.1807,17.2555,765.0804],[-96.1783,17.2506,753.5156],[-96.1818,17.2463,752.6104],[-96.18,17.2426,753.4528],[-96.1846,17.242,755.5424],[-96.1842,17.2372,775.2781],[-96.1763,17.2354,1117.2488],[-96.169,17.23,1309.2449],[-96.166,17.2106,1576.6976],[-96.1387,17.2073,1647.3712],[-96.1395,17.2267,1055.6504],[-96.138,17.2263,1038.3068]]]]}}