{"type":"Feature","properties":{"GID_2":"MEX.19.46_2","GID_0":"MEX","country":"México","GID_1":"MEX.19_1","province":"NuevoLeón","NL_NAME_1":"NA","county":"SanNicolásdelosGarza","VARNAME_2":"NA","NL_NAME_2":"NA","TYPE_2":"Município","ENGTYPE_2":"Municipality","CC_2":"NA","HASC_2":"NA","name":"San_Nicolásdelos_Garza.county"},
"geometry":{"type": "MultiPolygon","coordinates": [[[[-100.267,25.7705,474.5486],[-100.3368,25.7627,1002.1456],[-100.3221,25.7501,542.9921],[-100.3224,25.745,548.6024],[-100.321,25.7453,541.4038],[-100.3239,25.7377,539.5421],[-100.3183,25.7373,527.3574],[-100.3171,25.7349,520.9257],[-100.3178,25.7323,522.0259],[-100.316,25.7318,519.3472],[-100.3171,25.7227,524.6384],[-100.3096,25.7205,521.3114],[-100.3103,25.7185,526.6582],[-100.2838,25.7081,514.3093],[-100.2686,25.7082,503.2138],[-100.2682,25.7033,498.4476],[-100.2638,25.7012,494.0975],[-100.26,25.7015,492.6224],[-100.2591,25.7039,494.3707],[-100.256,25.7041,487.5703],[-100.2542,25.7062,486.6705],[-100.2514,25.705,484.7933],[-100.2332,25.7107,472.2846],[-100.2186,25.7117,465.9164],[-100.2038,25.7181,454.3552],[-100.2067,25.7328,452.6251],[-100.2188,25.7377,459.0255],[-100.2194,25.7396,459.5403],[-100.2256,25.7406,461.0959],[-100.2376,25.7477,465.813],[-100.238,25.746,471.7281],[-100.2449,25.7556,467.7013],[-100.2622,25.7637,476.0357],[-100.2671,25.7643,477.877],[-100.267,25.7705,474.5486]]]]}}