{"type": "Feature","bbox": [-99.8817,20.5639,-99.384,21.0186],"geometry": {"type": "MultiPolygon","coordinates": [[[[-99.384,21.0097,1081.1455],[-99.3999,21.0142,1983.4817],[-99.4415,21.0161,1460.6874],[-99.4608,21.0186,956.535],[-99.4619,21.0161,961.5526],[-99.4584,21.0139,982.5919],[-99.4585,21.0116,1011.2013],[-99.4613,21.0084,1029.9669],[-99.4612,21.0056,1020.9083],[-99.4629,21.0055,1090.5524],[-99.4624,21.0037,1036.8322],[-99.4659,21.0026,1038.6862],[-99.4668,20.9962,1120.0547],[-99.4718,20.9898,1117.4358],[-99.4717,20.9872,1124.5184],[-99.4668,20.9813,1172.6763],[-99.4664,20.9772,1241.6509],[-99.4684,20.9729,1333.5439],[-99.4665,20.9732,1186.6323],[-99.4662,20.9717,1245.8608],[-99.4697,20.9678,1237.7654],[-99.4674,20.9683,1217.9564],[-99.4678,20.9664,1244.9657],[-99.4713,20.9627,1258.234],[-99.4691,20.9519,1296.9675],[-99.4714,20.9486,1326.1272],[-99.4714,20.9426,1339.3081],[-99.475,20.9333,1425.2563],[-99.4834,20.9303,1477.835],[-99.4893,20.9313,1519.3093],[-99.4913,20.9333,1544.3478],[-99.5074,20.9351,1655.5787],[-99.5155,20.9313,1768.0935],[-99.5276,20.9215,2016.769],[-99.5285,20.9185,2184.7866],[-99.5262,20.9163,2162.4138],[-99.5252,20.9123,2328.2856],[-99.5268,20.9117,2334.2927],[-99.5272,20.9091,2277.0884],[-99.5235,20.9071,2317.2188],[-99.5217,20.903,2281.3804],[-99.5331,20.8996,2325.4819],[-99.5362,20.8963,2320.2791],[-99.537,20.8995,2322.5464],[-99.5439,20.9022,2397.7988],[-99.5446,20.8974,2435.0244],[-99.5495,20.8951,2456.728],[-99.553,20.8872,2463.8091],[-99.5566,20.8855,2465.1553],[-99.5585,20.882,2388.0166],[-99.5662,20.8834,2536.082],[-99.5675,20.8848,2550.0571],[-99.5743,20.8819,2512.2234],[-99.5844,20.8842,2418.7983],[-99.5858,20.8867,2329.1826],[-99.5848,20.9033,2535.6597],[-99.588,20.9048,2452.3555],[-99.5949,20.9033,2508.1047],[-99.6084,20.9081,2475.4795],[-99.6398,20.9104,2303.4072],[-99.6487,20.9071,2262.7812],[-99.6708,20.9409,1922.5153],[-99.6813,20.9413,1577.1909],[-99.6821,20.9497,2005.9575],[-99.6808,20.9558,2158.5354],[-99.6858,20.9685,2057.5227],[-99.6518,20.9792,1791.6848],[-99.6446,20.978,1639.2444],[-99.6578,20.9942,1414.3508],[-99.6669,21.0026,1379.7654],[-99.6811,20.985,1143.0416],[-99.6869,20.9892,1170.8241],[-99.6922,20.9903,1217.7341],[-99.6987,20.9668,2025.6316],[-99.7117,20.9662,1876.9359],[-99.7221,20.9443,1437.6189],[-99.7891,20.9547,1700.1035],[-99.8059,20.9498,1747.8141],[-99.8018,20.9377,1880.6619],[-99.7958,20.9287,1784.6296],[-99.7956,20.9244,1746.7102],[-99.7903,20.9177,1647.8114],[-99.8321,20.925,2095.6389],[-99.8739,20.9237,1715.1858],[-99.8694,20.9058,1803.7642],[-99.8817,20.905,1903.5681],[-99.8437,20.8721,2012.891],[-99.8246,20.8744,2320.5698],[-99.8062,20.8649,2105.0066],[-99.8224,20.8416,2074.0962],[-99.8135,20.8347,2000.3278],[-99.8076,20.8317,2067.7778],[-99.8056,20.8327,2088.8892],[-99.8004,20.8164,2039.0028],[-99.7981,20.814,1995.3685],[-99.799,20.8108,2018.2466],[-99.8048,20.8074,1951.9888],[-99.8063,20.8035,1933.9303],[-99.8111,20.8035,1928.3438],[-99.8173,20.801,1904.9299],[-99.8332,20.7882,2239.9819],[-99.8589,20.7883,1921.137],[-99.861,20.7861,1964.2255],[-99.8671,20.7713,2019.5597],[-99.874,20.7641,2254.2795],[-99.8666,20.7627,2223.5044],[-99.8626,20.7584,2185.0898],[-99.8611,20.7602,2164.3843],[-99.8521,20.7634,2120.8232],[-99.8437,20.7606,2097.8279],[-99.8452,20.751,2154.1907],[-99.8657,20.742,2333.8376],[-99.8671,20.7258,2251.7043],[-99.8496,20.7183,2049.4739],[-99.843,20.7089,2051.0298],[-99.8526,20.7106,2037.446],[-99.8625,20.7074,2019.5454],[-99.8678,20.7083,2017.8461],[-99.8611,20.7047,2024.2373],[-99.8614,20.6957,2017.4064],[-99.8654,20.693,2006.9014],[-99.8562,20.6921,2040.7675],[-99.8581,20.6821,2032.7871],[-99.861,20.6822,2027.324],[-99.8605,20.6808,2023.1298],[-99.8552,20.6776,2036.1427],[-99.8582,20.6767,2037.9216],[-99.8513,20.6738,2053.8765],[-99.8532,20.6681,2055.6816],[-99.8538,20.6543,2057.1643],[-99.8466,20.6527,2103.2119],[-99.8321,20.6653,2130.3953],[-99.8287,20.6701,2144.0227],[-99.8265,20.6692,2147.5061],[-99.8273,20.6681,2145.4949],[-99.8249,20.6649,2146.7617],[-99.8213,20.6649,2164.6516],[-99.8203,20.6633,2159.7056],[-99.8141,20.6667,2190.1472],[-99.8113,20.6598,2176.3298],[-99.8083,20.6573,2179.4392],[-99.7905,20.6597,2042.3055],[-99.7875,20.6631,2032.0842],[-99.7895,20.6501,2007.0649],[-99.7888,20.6386,2005.8514],[-99.7645,20.6392,2094.418],[-99.7484,20.6017,1939.925],[-99.7435,20.5979,1935.1902],[-99.7663,20.5928,1847.2798],[-99.7611,20.5858,1838.4695],[-99.7598,20.5794,1841.0317],[-99.7612,20.573,1859.2712],[-99.7463,20.5705,1777.2572],[-99.741,20.5667,1773.877],[-99.7404,20.5639,1769.0195],[-99.7353,20.5649,1726.5925],[-99.7335,20.5677,1723.5247],[-99.7314,20.5679,1709.3909],[-99.7279,20.5754,1718.3054],[-99.7145,20.5769,1676.8812],[-99.7126,20.5781,1682.6776],[-99.712,20.5813,1658.8936],[-99.709,20.5808,1658.7946],[-99.7051,20.5767,1698.8704],[-99.6972,20.5744,1650.6792],[-99.6943,20.5761,1646.26],[-99.6961,20.5789,1654.7581],[-99.6947,20.5812,1685.5557],[-99.6905,20.5814,1633.4926],[-99.6846,20.5791,1641.6227],[-99.6825,20.5837,1630.1044],[-99.6787,20.5853,1615.0571],[-99.6803,20.5889,1670.6582],[-99.6741,20.5886,1648.502],[-99.6694,20.5908,1601.3469],[-99.6686,20.5936,1598.5833],[-99.6633,20.5941,1611.0054],[-99.6579,20.6018,1605.6675],[-99.6477,20.6015,1587.1566],[-99.6425,20.6043,1591.7299],[-99.6346,20.6057,1573.5333],[-99.6316,20.6031,1554.0],[-99.6242,20.6006,1611.2612],[-99.6225,20.5977,1603.6357],[-99.6242,20.594,1559.1289],[-99.6195,20.5914,1554.0],[-99.6164,20.5944,1582.5471],[-99.6129,20.595,1554.0],[-99.6125,20.5993,1554.0],[-99.6094,20.6004,1562.0371],[-99.6074,20.6064,1554.0],[-99.5984,20.6077,1554.0],[-99.5927,20.6108,1554.0],[-99.5938,20.616,1561.4934],[-99.5897,20.6204,1557.1624],[-99.5877,20.6208,1554.0],[-99.5817,20.6179,1554.0],[-99.5789,20.6188,1554.0],[-99.5786,20.6285,1554.0],[-99.5753,20.6307,1554.0],[-99.5735,20.635,1554.0],[-99.5682,20.6361,1554.0],[-99.5653,20.6404,1554.0],[-99.5569,20.6436,1554.0],[-99.5388,20.6437,1554.0],[-99.536,20.6506,1554.0],[-99.527,20.6566,1554.0],[-99.5188,20.6585,1554.0],[-99.5019,20.659,1554.0],[-99.5013,20.6644,1674.8149],[-99.5043,20.6687,1676.1754],[-99.5009,20.671,1659.6144],[-99.5006,20.673,1653.1938],[-99.5038,20.6718,1656.0211],[-99.511,20.6784,1679.2925],[-99.5049,20.6808,1600.1959],[-99.5062,20.6823,1442.208],[-99.5055,20.6847,1372.2695],[-99.5089,20.6862,1353.2461],[-99.5096,20.6897,1339.5511],[-99.5227,20.7017,1316.8933],[-99.5264,20.7027,1315.2273],[-99.5284,20.7051,1525.2017],[-99.5343,20.706,1364.3651],[-99.5357,20.7117,1324.7814],[-99.5394,20.7139,1419.6472],[-99.5397,20.7168,1459.451],[-99.5437,20.7184,1519.364],[-99.5433,20.7212,1352.5836],[-99.5453,20.7236,1336.5842],[-99.5441,20.7258,1606.6141],[-99.5474,20.7284,1327.8868],[-99.5485,20.7372,1407.411],[-99.5428,20.7462,1372.881],[-99.5394,20.7467,1448.7681],[-99.5375,20.7495,1293.647],[-99.5287,20.752,1162.0283],[-99.5255,20.7562,1150.3381],[-99.5217,20.7545,1148.8483],[-99.5184,20.7599,1153.3583],[-99.5097,20.7657,1172.2094],[-99.5038,20.7658,1149.722],[-99.5065,20.7717,1147.3776],[-99.5024,20.7739,1145.5244],[-99.5012,20.7796,1160.4863],[-99.4971,20.7808,1157.1343],[-99.4963,20.7824,1131.5682],[-99.4974,20.7847,1123.53],[-99.5022,20.7872,1158.5297],[-99.5038,20.7948,1172.8824],[-99.4973,20.7909,1120.0703],[-99.4915,20.795,1143.7059],[-99.4887,20.7994,1123.8896],[-99.4893,20.8022,1145.4204],[-99.4976,20.8023,1115.8909],[-99.4997,20.8043,1109.0167],[-99.4941,20.8068,1108.7191],[-99.4932,20.8111,1197.6379],[-99.4853,20.8178,1160.1627],[-99.4847,20.8264,1220.9939],[-99.4887,20.8329,1070.8525],[-99.4826,20.8392,1067.9062],[-99.4792,20.8393,1034.7212],[-99.4756,20.8429,1027.2272],[-99.4693,20.8447,990.0201],[-99.4655,20.8492,1040.6036],[-99.4592,20.8479,967.4043],[-99.4565,20.849,953.8604],[-99.4556,20.8501,1000.8499],[-99.457,20.8554,958.2102],[-99.4544,20.858,954.8197],[-99.4521,20.8578,954.9382],[-99.4482,20.8527,942.9135],[-99.4461,20.853,953.7266],[-99.4455,20.8545,1017.0709],[-99.4486,20.8585,940.695],[-99.443,20.8705,942.0103],[-99.4407,20.8718,933.6656],[-99.4402,20.878,931.1979],[-99.442,20.8813,954.5786],[-99.4376,20.8853,972.4049],[-99.435,20.8907,937.1637],[-99.4352,20.8994,923.2124],[-99.4122,20.906,949.3312],[-99.4127,20.9137,892.4181],[-99.4151,20.9185,929.8343],[-99.4134,20.9222,956.0411],[-99.4156,20.9249,912.6852],[-99.403,20.9302,889.9453],[-99.4023,20.9342,898.1874],[-99.404,20.9359,933.7916],[-99.4066,20.9341,925.6068],[-99.4072,20.9371,923.9717],[-99.3977,20.9431,893.8242],[-99.3906,20.9523,887.8149],[-99.3927,20.9583,894.1759],[-99.3912,20.9635,940.8324],[-99.3883,20.9662,1049.0483],[-99.3947,20.9731,1193.5813],[-99.3963,20.9811,1383.8011],[-99.3934,20.9827,1039.6251],[-99.3913,20.9867,1037.2432],[-99.3937,20.9904,1100.1714],[-99.3919,20.9975,1059.4363],[-99.3897,21.0004,1057.3285],[-99.39,21.0041,983.0003],[-99.3848,21.0065,1145.3673],[-99.384,21.0097,1081.1455]]]]}
,"properties": {"GID_2": "MEX.22.3_2","GID_0": "MEX","country": "México","GID_1": "MEX.22_1","province": "Querétaro","NL_NAME_1": "NA","county": "CadereytadeMontes","VARNAME_2": "NA","NL_NAME_2": "NA","TYPE_2": "Município","ENGTYPE_2": "Municipality","CC_2": "NA","HASC_2": "NA","name": "Cadereytade_Montes.county","area_km2": 1350.754,"hist_schema_id": "Elevation0-9000","hist_area_km2": {"875": 0.297,"900": 0.555,"925": 0.871,"950": 1.268,"975": 1.307,"1000": 1.069,"1025": 1.644,"1050": 1.406,"1075": 1.644,"1100": 1.961,"1125": 2.753,"1150": 2.872,"1175": 3.328,"1200": 3.467,"1225": 4.1,"1250": 3.922,"1275": 4.457,"1300": 4.754,"1325": 5.091,"1350": 5.13,"1375": 5.189,"1400": 6.437,"1425": 6.497,"1450": 7.526,"1475": 8.735,"1500": 12.319,"1525": 13.111,"1550": 19.958,"1575": 16.286,"1600": 17.596,"1625": 19.32,"1650": 22.178,"1675": 25.154,"1700": 22.537,"1725": 26.184,"1750": 27.851,"1775": 32.612,"1800": 34.972,"1825": 35.667,"1850": 36.161,"1875": 42.053,"1900": 45.285,"1925": 43.678,"1950": 38.202,"1975": 33.975,"2000": 32.468,"2025": 53.867,"2050": 69.241,"2075": 54.21,"2100": 46.515,"2125": 40.604,"2150": 33.186,"2175": 28.863,"2200": 28.882,"2225": 24.48,"2250": 19.146,"2275": 17.084,"2300": 16.39,"2325": 16.806,"2350": 15.279,"2375": 15.715,"2400": 14.823,"2425": 13.773,"2450": 12.148,"2475": 11.276,"2500": 9.829,"2525": 9.77,"2550": 8.343,"2575": 7.808,"2600": 6.44,"2625": 5.033,"2650": 4.379,"2675": 4.3,"2700": 3.745,"2725": 4.34,"2750": 3.844,"2775": 3.805,"2800": 4.399,"2825": 4.974,"2850": 5.311,"2875": 6.599,"2900": 7.59,"2925": 7.214,"2950": 7.234,"2975": 6.54,"3000": 4.42,"3025": 2.755,"3050": 1.843,"3075": 1.348,"3100": 1.249,"3125": 0.634,"3150": 0.317,"3175": 0.159,"3200": 0.139,"3225": 0.198,"3250": 0.059}}}