{"type": "Feature","bbox": [-97.2248,16.1289,-97.1449,16.2069],"geometry": {"type": "MultiPolygon","coordinates": [[[[-97.1993,16.1939,1058.7168],[-97.2198,16.1827,1471.1113],[-97.2248,16.1775,1504.563],[-97.2241,16.1726,1534.2198],[-97.2212,16.1709,1538.1763],[-97.2207,16.1677,1576.3099],[-97.2148,16.1642,1501.4453],[-97.2018,16.1597,1497.1903],[-97.192,16.1511,1321.0792],[-97.186,16.1487,1268.6526],[-97.1748,16.1311,926.3285],[-97.1668,16.1292,731.4395],[-97.1625,16.1332,602.1368],[-97.1589,16.1323,569.3225],[-97.158,16.1313,565.1578],[-97.159,16.1299,599.9094],[-97.1559,16.1289,571.5796],[-97.1515,16.129,533.4584],[-97.1517,16.1311,531.0922],[-97.1459,16.1307,513.869],[-97.146,16.1376,505.1005],[-97.1494,16.1408,513.8824],[-97.1476,16.1423,539.3156],[-97.1463,16.1495,723.567],[-97.1449,16.1698,1062.6442],[-97.1497,16.1731,1114.3721],[-97.1544,16.1693,773.8594],[-97.1612,16.1674,643.1885],[-97.1618,16.1623,579.0645],[-97.1645,16.165,589.0974],[-97.1691,16.1644,613.5055],[-97.1704,16.1676,617.9856],[-97.1724,16.1673,624.8726],[-97.18,16.2069,1726.6464],[-97.1993,16.1939,1058.7168]]]]}
,"properties": {"GID_2": "MEX.20.436_2","GID_0": "MEX","country": "México","GID_1": "MEX.20_1","province": "Oaxaca","NL_NAME_1": "NA","county": "SantaMaríaTemaxcaltepec","VARNAME_2": "NA","NL_NAME_2": "NA","TYPE_2": "Município","ENGTYPE_2": "Municipality","CC_2": "NA","HASC_2": "NA","name": "Santa_María_Temaxcaltepec.county","area_km2": 35.08714,"hist_schema_id": "Elevation0-9000","hist_area_km2": {"500": 0.28514,"525": 1.14053,"550": 0.69245,"575": 1.1812,"600": 0.79426,"625": 1.07935,"650": 0.99788,"675": 1.14041,"700": 1.05897,"725": 1.20151,"750": 1.1404,"775": 1.26257,"800": 1.14039,"825": 0.89601,"850": 0.87564,"875": 1.14039,"900": 0.95709,"925": 0.87563,"950": 0.77381,"975": 0.79417,"1000": 1.07928,"1025": 0.87561,"1050": 0.896,"1075": 0.77382,"1100": 0.73308,"1125": 0.73308,"1150": 0.71272,"1175": 0.85526,"1200": 0.73307,"1225": 0.9367,"1250": 0.81453,"1275": 0.81453,"1300": 0.69236,"1325": 0.73307,"1350": 0.59053,"1375": 0.73307,"1400": 0.52945,"1425": 0.63126,"1450": 0.44798,"1475": 0.3869,"1500": 0.40727,"1525": 0.22399,"1550": 0.10181,"1575": 0.06109,"1600": 0.06108,"1625": 0.02036,"1650": 0.02036,"1675": 0.06108}}}