{"type":"Feature","properties":{"GID_1":"MEX.7_1","GID_0":"MEX","country":"México","province":"Coahuila","VARNAME_1":"CoahuiladeZaragoza","NL_NAME_1":"NA","TYPE_1":"Estado","ENGTYPE_1":"State","CC_1":"NA","HASC_1":"MX.CA","ISO_1":"NA","name":"Coahuila.province"},
"geometry":{"type": "MultiPolygon","coordinates": [[[[-100.8071,25.13,1901.9777],[-100.8031,25.1653,2186.4692],[-100.7089,25.2365,2154.7935],[-100.6228,25.2509,2092.7261],[-100.592,25.2551,2147.8682],[-100.5841,25.252,2132.6873],[-100.5296,25.2401,2652.9043],[-100.4985,25.2375,2893.8794],[-100.4436,25.2231,3204.2803],[-100.4074,25.209,3585.0891],[-100.332,25.1863,2257.4275],[-100.3256,25.2223,3084.8713],[-100.3053,25.2134,3043.7559],[-100.2614,25.2071,2800.7129],[-100.2296,25.2179,1333.136],[-100.2472,25.2302,1366.6431],[-100.2447,25.229,1396.022],[-100.2344,25.2355,1589.9412],[-100.2625,25.254,2553.2649],[-100.2539,25.2656,2477.9199],[-100.2431,25.2674,2677.2903],[-100.2541,25.3069,2337.3218],[-100.264,25.3053,2542.0078],[-100.2762,25.313,2803.5286],[-100.2774,25.3163,2957.8936],[-100.2816,25.3197,2933.8052],[-100.2924,25.3255,2794.0569],[-100.3043,25.329,2877.7173],[-100.313,25.3364,2964.958],[-100.3268,25.3404,3075.8984],[-100.391,25.3281,3286.6233],[-100.4144,25.3299,3076.0879],[-100.4146,25.327,3034.2715],[-100.4335,25.3315,3114.5283],[-100.446,25.3319,3005.5144],[-100.4701,25.3378,3114.2166],[-100.4519,25.4108,2934.7417],[-100.4693,25.4217,2802.0403],[-100.4936,25.4308,3070.124],[-100.5017,25.4328,3060.4783],[-100.5227,25.4343,3128.4619],[-100.5175,25.449,2512.6343],[-100.5254,25.4498,2509.9897],[-100.5309,25.4635,3151.9189],[-100.561,25.4645,3204.5889],[-100.5849,25.4708,3028.7915],[-100.5795,25.4945,2800.3015],[-100.6191,25.5057,2742.2971],[-100.5998,25.52,2802.8584],[-100.5297,25.5144,2701.6074],[-100.5384,25.5319,3002.7859],[-100.5483,25.5343,2803.9683],[-100.56,25.5349,2548.562],[-100.5943,25.5444,2684.137],[-100.6147,25.5423,2078.9004],[-100.615,25.5466,2071.1797],[-100.612,25.5514,2046.547],[-100.6329,25.5713,2627.4521],[-100.6443,25.5725,2248.2234],[-100.6585,25.568,2568.0544],[-100.6643,25.5694,2566.3921],[-100.6903,25.5671,2372.6108],[-100.7199,25.6031,2461.6147],[-100.7298,25.6339,1863.479],[-100.7834,25.6397,1187.2225],[-100.7804,25.6457,1425.6298],[-100.7878,25.6836,1138.4443],[-100.8037,25.7088,1314.0403],[-100.8056,25.7243,1539.748],[-100.8251,25.7517,1126.3911],[-100.8619,25.8185,1377.0597],[-100.8471,25.8579,1209.434],[-100.8371,25.8638,1358.0862],[-100.8358,25.8666,1406.8468],[-100.8227,25.9169,714.8412],[-100.8272,25.9205,721.851],[-100.8344,25.945,1145.2659],[-100.8769,25.9472,1012.4172],[-100.9055,25.9569,756.8257],[-100.9046,26.0087,898.827],[-100.9164,26.0756,1049.6211],[-100.9429,26.0868,1040.446],[-100.9426,26.0906,1061.8044],[-100.9529,26.1003,1007.2209],[-100.9723,26.1277,1131.2719],[-100.9827,26.1395,1098.6769],[-101.0089,26.1538,1073.8225],[-101.0272,26.1597,1044.0894],[-101.0474,26.1698,987.624],[-101.0686,26.189,942.8083],[-101.0746,26.199,919.0245],[-101.0917,26.2445,899.9786],[-101.0976,26.2529,847.3392],[-101.1363,26.2955,855.5813],[-101.1854,26.3454,1349.7726],[-101.2068,26.3698,1803.4446],[-101.1896,26.3847,1096.7007],[-101.0789,26.4693,765.1478],[-100.9051,26.6086,768.1773],[-100.753,26.7352,508.7298],[-100.6912,26.6138,625.2104],[-100.6144,26.6856,1586.4028],[-100.6013,26.7371,1563.1285],[-100.5901,26.7595,1862.2517],[-100.5663,26.7821,463.5505],[-100.5607,26.7855,416.7529],[-100.5572,26.7903,409.1728],[-100.5537,26.7914,399.0272],[-100.5382,26.8086,378.7195],[-100.5386,26.8115,377.3978],[-100.5414,26.8127,377.0072],[-100.5417,26.8212,373.5296],[-100.5447,26.8227,372.8263],[-100.5462,26.8319,369.887],[-100.5456,26.8414,367.6274],[-100.5476,26.8452,365.8409],[-100.5466,26.8477,364.8646],[-100.5514,26.8587,361.1411],[-100.5407,26.881,352.3119],[-100.5416,26.8889,348.7649],[-100.5384,26.9061,342.7693],[-100.5449,26.9253,338.4988],[-100.5404,26.9325,329.8743],[-100.5382,26.9397,329.3901],[-100.5418,26.9492,323.9476],[-100.5408,26.9548,320.9809],[-100.5427,26.9604,318.884],[-100.5412,26.966,319.1718],[-100.5453,26.9784,317.4965],[-100.5397,26.9863,312.1343],[-100.5419,26.9966,308.8234],[-100.5408,27.0138,301.3292],[-100.5357,27.027,303.1606],[-100.5388,27.0387,293.9249],[-100.534,27.0456,289.9589],[-100.6537,27.0757,389.2236],[-100.656,27.0821,352.2791],[-100.6625,27.0865,377.8022],[-100.6693,27.0871,376.2224],[-100.6742,27.0846,402.1606],[-100.6768,27.1069,359.5533],[-100.6827,27.1114,360.094],[-100.6975,27.1088,388.4376],[-100.7021,27.1025,382.6887],[-100.7081,27.0999,407.9587],[-100.7108,27.0955,397.3688],[-100.7116,27.0885,407.3099],[-100.7197,27.0792,416.1303],[-100.7261,27.0779,423.9413],[-100.7298,27.0814,431.7564],[-100.7377,27.0847,405.1169],[-100.7486,27.0813,406.363],[-100.7462,27.0624,420.0246],[-100.7358,27.0476,453.9333],[-100.7409,27.0411,461.463],[-100.7477,27.0363,460.0375],[-100.7485,27.0399,468.26],[-100.747,27.0461,467.3533],[-100.7485,27.0492,458.8407],[-100.7627,27.0626,425.8333],[-100.7659,27.0633,449.1007],[-100.7702,27.0631,463.7836],[-100.7787,27.0591,451.466],[-100.7842,27.0589,444.8362],[-100.7953,27.05,469.0513],[-100.7975,27.0457,469.803],[-100.7994,27.0458,454.6495],[-100.8093,27.0565,453.2844],[-100.8076,27.0658,450.6159],[-100.8096,27.0684,471.176],[-100.8149,27.0711,495.5639],[-100.8306,27.0739,488.7652],[-100.8341,27.1952,371.5745],[-100.678,27.3348,357.8201],[-100.4177,27.3936,222.1597],[-100.3506,27.6846,249.4554],[-100.1884,27.7991,213.4797],[-99.9988,27.6153,277.4011],[-99.9324,27.6747,208.9018],[-99.9114,27.6993,203.8532],[-99.91,27.6986,207.2709],[-99.8432,27.7699,140.1892],[-99.8444,27.7784,133.5995],[-99.8508,27.7939,154.9884],[-99.8708,27.794,136.118],[-99.8776,27.7997,137.9496],[-99.874,27.8126,135.5631],[-99.878,27.8256,134.9585],[-99.8759,27.8358,138.789],[-99.8768,27.8408,139.3587],[-99.8824,27.8498,140.7369],[-99.8928,27.8556,138.2959],[-99.9011,27.864,138.5746],[-99.9041,27.8737,143.7928],[-99.9028,27.8819,138.4005],[-99.8947,27.8917,144.0407],[-99.8935,27.8994,141.7198],[-99.8996,27.9114,141.0845],[-99.9188,27.9189,146.7702],[-99.9258,27.9271,142.9623],[-99.9277,27.9333,149.8226],[-99.9349,27.9376,143.0597],[-99.9376,27.9422,141.7213],[-99.9388,27.9522,144.5369],[-99.9326,27.9662,143.384],[-99.9315,27.9803,154.6336],[-99.9389,27.9823,148.6143],[-99.9602,27.9831,150.4542],[-99.9905,27.9936,149.0857],[-100.0073,28.0202,149.5298],[-100.0122,28.0354,152.9482],[-100.0182,28.0657,154.1148],[-100.0285,28.0732,155.6395],[-100.0464,28.0791,159.0674],[-100.053,28.0851,154.5677],[-100.0567,28.0939,153.3311],[-100.0561,28.1039,159.0371],[-100.0678,28.1143,153.1215],[-100.0779,28.1291,155.5027],[-100.0834,28.1433,156.7346],[-100.0862,28.1462,157.2665],[-100.1201,28.1558,158.4077],[-100.1413,28.1681,159.5743],[-100.1589,28.1676,160.689],[-100.1679,28.171,171.7272],[-100.1736,28.1786,159.1833],[-100.1843,28.185,159.8518],[-100.1956,28.1896,162.1503],[-100.2095,28.1913,162.9263],[-100.2129,28.1991,160.625],[-100.2173,28.2263,166.5901],[-100.2211,28.2332,169.0624],[-100.2271,28.2358,168.3652],[-100.2462,28.2343,166.752],[-100.2555,28.2384,166.0092],[-100.2737,28.2577,168.8611],[-100.2823,28.27,169.6277],[-100.2894,28.2738,173.4379],[-100.2936,28.2788,178.173],[-100.2942,28.2836,176.0925],[-100.2882,28.2996,173.75],[-100.2866,28.3122,177.7239],[-100.2912,28.32,181.0879],[-100.3145,28.3461,176.375],[-100.3184,28.3592,180.6453],[-100.3427,28.3864,180.6207],[-100.3495,28.4034,183.1297],[-100.3417,28.4148,182.5253],[-100.3365,28.4285,184.0064],[-100.3377,28.4425,182.2126],[-100.3407,28.4488,183.1966],[-100.3604,28.4665,185.3346],[-100.3684,28.4767,188.2923],[-100.3679,28.4795,186.5626],[-100.3648,28.4815,188.2845],[-100.3554,28.482,194.2879],[-100.3444,28.4862,187.1979],[-100.3359,28.4933,187.5539],[-100.3339,28.4993,197.3687],[-100.3401,28.5023,192.9631],[-100.3537,28.5041,190.4429],[-100.3679,28.5096,191.1049],[-100.3883,28.5147,213.5938],[-100.394,28.5274,211.8895],[-100.4047,28.5355,205.9898],[-100.411,28.5498,194.7793],[-100.4092,28.5564,195.1988],[-100.3974,28.575,198.528],[-100.3968,28.581,201.925],[-100.3985,28.5851,201.1749],[-100.4299,28.5962,200.5576],[-100.4321,28.5984,208.6065],[-100.4336,28.6063,199.4979],[-100.4472,28.6092,204.1175],[-100.4486,28.617,202.0132],[-100.4457,28.6376,201.3005],[-100.4472,28.6421,212.6702],[-100.4559,28.6424,203.8557],[-100.4615,28.6408,204.0724],[-100.4744,28.6471,207.9722],[-100.4796,28.6556,212.5366],[-100.4973,28.6587,219.8855],[-100.5002,28.6617,204.4166],[-100.5082,28.6841,206.4162],[-100.512,28.7065,219.0745],[-100.5067,28.7169,215.5928],[-100.508,28.7225,206.0],[-100.5074,28.7402,210.9164],[-100.5144,28.7422,210.5988],[-100.5145,28.7513,209.518],[-100.5211,28.7576,211.7911],[-100.5283,28.7558,211.7732],[-100.5334,28.7588,212.8023],[-100.5329,28.764,214.1811],[-100.5297,28.7687,211.2307],[-100.5305,28.7721,212.9187],[-100.5351,28.7755,214.684],[-100.5381,28.7813,210.5],[-100.533,28.7885,212.6539],[-100.5351,28.8047,220.6712],[-100.5418,28.808,214.0152],[-100.5461,28.8128,216.9693],[-100.5455,28.8185,219.493],[-100.5476,28.8262,216.2882],[-100.5618,28.8292,221.1733],[-100.5703,28.8258,218.5905],[-100.5745,28.8281,219.1111],[-100.577,28.8358,219.4628],[-100.573,28.8488,221.8297],[-100.5793,28.8552,220.97559999999999],[-100.5899,28.8616,233.6008],[-100.5915,28.8646,219.0551],[-100.5904,28.8729,221.3208],[-100.5969,28.8731,221.1898],[-100.5988,28.8748,224.7403],[-100.5989,28.8796,226.4093],[-100.5906,28.8836,222.5537],[-100.5895,28.8868,232.4324],[-100.5912,28.889,225.9912],[-100.6007,28.8863,223.7225],[-100.6034,28.8877,225.3922],[-100.601,28.9016,224.3571],[-100.6069,28.9028,227.0262],[-100.6108,28.9007,228.2871],[-100.6134,28.9012,224.6827],[-100.6158,28.9029,228.3913],[-100.6167,28.9075,226.3929],[-100.6225,28.9102,226.7289],[-100.6246,28.9095,228.258],[-100.6247,28.906,229.9726],[-100.6268,28.9039,228.8203],[-100.6326,28.9037,226.9402],[-100.6364,28.9113,226.5861],[-100.6409,28.9146,230.3945],[-100.6393,28.9166,229.3081],[-100.6315,28.9168,229.7852],[-100.6297,28.919,227.3027],[-100.6297,28.9226,229.3422],[-100.631,28.9245,230.1375],[-100.638,28.927,231.2199],[-100.6454,28.9399,229.8059],[-100.6515,28.9429,235.2],[-100.6507,28.9485,230.8523],[-100.647,28.9564,231.2262],[-100.6477,28.9602,229.7289],[-100.6506,28.9622,231.5487],[-100.6464,28.9673,230.5053],[-100.6485,28.9829,231.4527],[-100.6457,28.9878,232.5452],[-100.6492,28.9958,235.4792],[-100.6486,28.9996,232.7998],[-100.651,29.0083,237.9007],[-100.6563,29.0181,232.4983],[-100.6602,29.0319,243.8386],[-100.6637,29.0505,235.4995],[-100.6644,29.0747,238.8363],[-100.6678,29.0859,244.918],[-100.6749,29.1007,239.9383],[-100.6846,29.1112,240.7284],[-100.6989,29.1169,243.8845],[-100.7088,29.1189,242.0687],[-100.7245,29.1273,244.5402],[-100.7387,29.14,269.38869999999997],[-100.737,29.1477,246.9893],[-100.7393,29.1502,250.0407],[-100.7468,29.1545,248.47559999999999],[-100.7596,29.157,255.2202],[-100.7635,29.1601,249.3021],[-100.7641,29.1654,251.8249],[-100.7728,29.1684,250.1355],[-100.7761,29.1727,253.1642],[-100.7662,29.1849,251.8215],[-100.767,29.1957,253.3926],[-100.7693,29.1991,253.0604],[-100.7762,29.2001,253.5279],[-100.7766,29.2045,252.5838],[-100.7738,29.2106,251.565],[-100.7815,29.2195,259.5882],[-100.7852,29.2279,252.5485],[-100.7925,29.2256,254.7296],[-100.7958,29.2288,253.0],[-100.797,29.2339,255.9442],[-100.7943,29.2421,255.9569],[-100.796,29.2452,256.3386],[-100.8059,29.2521,257.3113],[-100.8164,29.2537,262.3065],[-100.8163,29.2563,256.7667],[-100.8129,29.2612,258.062],[-100.8142,29.2639,261.3054],[-100.818,29.2642,259.3744],[-100.8249,29.2614,259.3801],[-100.8351,29.2616,260.4596],[-100.8408,29.2644,258.3869],[-100.8486,29.2718,259.1434],[-100.8528,29.2721,261.8367],[-100.8548,29.2755,261.456],[-100.8634,29.2758,260.4969],[-100.8759,29.2795,261.6513],[-100.8803,29.2827,272.0618],[-100.8813,29.2983,261.3682],[-100.8862,29.3074,265.1422],[-100.8934,29.3106,266.6981],[-100.8989,29.3093,265.1212],[-100.9064,29.3132,264.6497],[-100.9075,29.3166,263.2608],[-100.9167,29.319,263.0671],[-100.9178,29.3244,264.9771],[-100.9198,29.3259,266.0809],[-100.9279,29.3267,266.6505],[-100.9361,29.3314,266.1201],[-100.9386,29.3314,269.0825],[-100.941,29.3335,267.1468],[-100.9431,29.3416,265.9823],[-100.9498,29.3477,267.8422],[-100.9636,29.3468,271.9373],[-100.972,29.3518,270.3748],[-100.9727,29.3544,268.5942],[-100.9938,29.3628,269.64],[-101.0047,29.3653,271.5515],[-101.0108,29.3692,272.7673],[-101.0141,29.374,274.1357],[-101.0135,29.3808,272.8383],[-101.0171,29.3878,273.9232],[-101.0371,29.4065,281.1728],[-101.0388,29.4105,285.6509],[-101.0377,29.4145,272.5549],[-101.0432,29.4294,283.7537],[-101.057,29.4408,284.2694],[-101.0601,29.4585,327.0],[-101.0886,29.4695,327.0],[-101.1027,29.4702,327.0],[-101.1156,29.4683,327.0],[-101.1298,29.4767,327.0],[-101.142,29.4727,327.0],[-101.1476,29.4745,327.0],[-101.1623,29.4906,327.0],[-101.1761,29.512,327.0],[-101.1856,29.518,327.0],[-101.2363,29.5237,327.0],[-101.2541,29.5208,327.0],[-101.2586,29.5224,327.0],[-101.2611,29.5267,327.0],[-101.2609,29.5382,327.0],[-101.2543,29.5513,327.0],[-101.243,29.5662,327.0],[-101.2523,29.6032,327.0],[-101.2479,29.6195,327.0],[-101.2539,29.627,327.0],[-101.264,29.6305,339.8337],[-101.2685,29.6297,328.8297],[-101.2764,29.6218,330.329],[-101.2798,29.6154,327.0],[-101.2769,29.6011,327.0],[-101.2789,29.5877,327.0],[-101.2915,29.5721,327.0],[-101.2969,29.5722,327.0],[-101.305,29.5773,327.0],[-101.3109,29.5873,327.0],[-101.3133,29.6038,327.0],[-101.3104,29.617,327.0],[-101.3013,29.6353,327.0],[-101.3004,29.6419,332.1171],[-101.3016,29.6485,327.0],[-101.3057,29.6542,338.9764],[-101.3162,29.6592,328.524],[-101.3218,29.6604,332.051],[-101.3369,29.6596,342.9275],[-101.3477,29.662,336.1394],[-101.3555,29.6494,335.2525],[-101.3583,29.6479,350.208],[-101.3607,29.6487,355.1122],[-101.3632,29.6542,333.0256],[-101.3654,29.6664,345.7512],[-101.3735,29.6775,331.3729],[-101.3719,29.6928,336.0323],[-101.373,29.6997,334.0155],[-101.3977,29.7138,336.2381],[-101.399,29.7183,363.6046],[-101.3963,29.7281,385.8386],[-101.3972,29.7352,344.8007],[-101.4012,29.7385,340.3585],[-101.4105,29.7416,337.6962],[-101.416,29.7469,353.8435],[-101.4149,29.7526,386.5034],[-101.4021,29.7586,370.9682],[-101.3991,29.762,338.9199],[-101.3983,29.766,357.5902],[-101.4013,29.7707,356.2318],[-101.4089,29.771,349.6559],[-101.4369,29.7511,362.4677],[-101.4461,29.7498,361.7956],[-101.451,29.7533,350.2939],[-101.4525,29.763,350.0421],[-101.4555,29.7707,365.2794],[-101.4534,29.7847,347.4801],[-101.4572,29.7888,386.9594],[-101.4637,29.7893,345.0854],[-101.4795,29.7835,362.6631],[-101.4864,29.7744,349.3758],[-101.5022,29.7642,345.9732],[-101.5193,29.7643,351.8671],[-101.5306,29.7585,372.4259],[-101.5367,29.7581,365.4677],[-101.5395,29.7606,345.1056],[-101.5398,29.7646,344.964],[-101.539,29.7864,359.3534],[-101.5353,29.7982,351.5807],[-101.5403,29.8078,355.7865],[-101.5441,29.8115,341.0146],[-101.5478,29.8097,342.8824],[-101.5526,29.8041,373.949],[-101.5577,29.8013,357.4012],[-101.5645,29.8001,352.2375],[-101.57,29.796,344.1721],[-101.5735,29.7882,347.9549],[-101.5724,29.7746,344.9509],[-101.5749,29.7693,370.0219],[-101.604,29.7735,363.4655],[-101.617,29.7697,349.2068],[-101.6262,29.7704,362.1385],[-101.6306,29.7681,353.317],[-101.6333,29.7606,359.3803],[-101.6358,29.758,353.8077],[-101.6439,29.7541,352.6695],[-101.6522,29.7586,373.8713],[-101.6547,29.7654,349.527],[-101.6588,29.7668,360.144],[-101.6623,29.7712,355.3958],[-101.6723,29.7678,361.5656],[-101.676,29.7606,368.8083],[-101.6818,29.7611,351.4347],[-101.6864,29.7687,351.3402],[-101.6899,29.771,368.0909],[-101.6977,29.7657,354.7592],[-101.7101,29.7618,388.8276],[-101.713,29.764,353.0081],[-101.7201,29.7758,374.1686],[-101.725,29.7758,362.0271],[-101.7302,29.7714,369.7245],[-101.7346,29.7715,369.8899],[-101.7389,29.7731,363.0275],[-101.7413,29.778199999999998,358.9439],[-101.7548,29.7775,356.5958],[-101.7753,29.7891,362.111],[-101.7857,29.788,365.8818],[-101.7859,29.7828,359.7579],[-101.7886,29.7792,363.1078],[-101.8044,29.78,378.1494],[-101.8117,29.7846,359.7769],[-101.814,29.7935,364.1842],[-101.8064,29.7995,363.4914],[-101.8041,29.8041,363.8184],[-101.8173,29.8115,365.049],[-101.8224,29.8105,379.8258],[-101.8256,29.8071,366.0854],[-101.8249,29.8025,365.9066],[-101.8187,29.7925,365.2759],[-101.8195,29.7893,375.7015],[-101.8236,29.7873,369.004],[-101.8382,29.7937,376.7397],[-101.8469,29.8024,368.4485],[-101.8491,29.8067,370.6887],[-101.8528,29.8077,374.8613],[-101.8562,29.807,368.8748],[-101.8667,29.798,370.2322],[-101.8748,29.794,371.6899],[-101.8806,29.7954,369.3987],[-101.8841,29.7935,381.6118],[-101.8907,29.7974,373.6501],[-101.9127,29.7977,375.5785],[-101.9224,29.7858,379.2614],[-101.9296,29.7827,373.7531],[-101.9337,29.7855,382.5011],[-101.933,29.7939,375.5862],[-101.9359,29.7995,376.8284],[-101.9457,29.8015,375.2738],[-101.9544,29.7957,378.9445],[-101.9578,29.7958,380.5345],[-101.9634,29.8001,377.3456],[-101.967,29.8127,384.4008],[-101.9755,29.8157,384.7083],[-101.9817,29.815,384.4052],[-101.9831,29.8099,428.6222],[-101.9816,29.8063,394.2005],[-101.9841,29.7993,387.2174],[-101.9867,29.7971,384.7686],[-101.9912,29.7976,395.71],[-101.9967,29.8059,411.7578],[-102.0155,29.7974,397.9644],[-102.0228,29.8028,399.1205],[-102.0296,29.802,426.9327],[-102.0356,29.804,406.1542],[-102.0392,29.8025,411.3879],[-102.0408,29.7993,408.8835],[-102.0381,29.7919,469.7021],[-102.0405,29.7899,426.6996],[-102.0475,29.7889,435.2711],[-102.0491,29.7855,397.9668],[-102.0519,29.7848,410.344],[-102.0551,29.7868,412.0993],[-102.0727,29.7866,419.9242],[-102.0746,29.787,424.9675],[-102.078,29.7918,418.7819],[-102.0841,29.7949,394.6494],[-102.0941,29.7911,402.5961],[-102.1004,29.7934,404.2114],[-102.1087,29.7915,403.0208],[-102.1141,29.7932,393.1649],[-102.116,29.7919,398.2551],[-102.1188,29.8013,405.8911],[-102.1203,29.8021,409.9351],[-102.1291,29.798,404.7856],[-102.1362,29.8019,400.0869],[-102.1435,29.8033,414.0869],[-102.1511,29.8119,402.0632],[-102.1538,29.8113,404.6207],[-102.1598,29.8142,412.7652],[-102.1611,29.8189,423.2532],[-102.1664,29.8254,411.3895],[-102.1801,29.8265,410.3366],[-102.1812,29.8313,412.3896],[-102.1784,29.8369,425.06],[-102.1785,29.8401,420.8949],[-102.1821,29.8461,439.0322],[-102.187,29.8488,435.0164],[-102.1909,29.8473,426.8543],[-102.1933,29.839,427.6256],[-102.1963,29.8363,424.9731],[-102.2,29.837,426.0428],[-102.2064,29.8432,416.5362],[-102.2098,29.8445,422.9918],[-102.215,29.844,431.3703],[-102.2198,29.8409,427.7538],[-102.2232,29.8405,428.2761],[-102.2318,29.8483,430.5555],[-102.2446,29.8488,428.0499],[-102.2455,29.8513,439.1079],[-102.2433,29.8593,441.6653],[-102.2464,29.8642,435.646],[-102.25,29.8634,428.9447],[-102.2527,29.8535,444.1245],[-102.2603,29.8531,435.5173],[-102.264,29.8553,434.7241],[-102.262,29.8632,456.7789],[-102.2651,29.8677,436.5127],[-102.2691,29.8679,440.4985],[-102.2758,29.8632,436.7865],[-102.2806,29.8628,442.1285],[-102.2833,29.8644,499.8947],[-102.2871,29.8713,452.679],[-102.2955,29.8735,453.5661],[-102.3001,29.8774,449.4436],[-102.3114,29.877,482.3651],[-102.3151,29.8799,430.222],[-102.3203,29.8793,478.7974],[-102.3245,29.8735,453.883],[-102.3227,29.8679,473.4392],[-102.3234,29.8642,461.4869],[-102.3321,29.8629,436.3525],[-102.3338,29.8682,468.0226],[-102.3415,29.8694,452.6564],[-102.3432,29.8654,455.9946],[-102.3498,29.8628,437.5318],[-102.3522,29.8529,465.9974],[-102.361,29.8495,456.2422],[-102.3642,29.8452,443.2017],[-102.3628,29.8321,481.9569],[-102.3776,29.8005,464.6642],[-102.3772,29.7901,470.1837],[-102.3788,29.788,440.3278],[-102.3899,29.7828,441.5309],[-102.3851,29.7711,452.4688],[-102.3879,29.7611,451.4881],[-102.3955,29.7693,461.1659],[-102.3988,29.7696,477.1126],[-102.4071,29.7642,469.342],[-102.4149,29.7692,479.4161],[-102.4222,29.7693,456.8416],[-102.435,29.7768,461.0215],[-102.4388,29.7734,478.9988],[-102.4478,29.7778,497.0481],[-102.4583,29.7749,549.7936],[-102.4653,29.7835,480.1592],[-102.4686,29.782,472.4698],[-102.4723,29.7764,548.8121],[-102.4808,29.7762,475.6364],[-102.4824,29.778,532.981],[-102.4823,29.7833,517.7936],[-102.4872,29.7869,488.7462],[-102.4991,29.7811,495.9336],[-102.5174,29.7838,509.1199],[-102.5186,29.7818,484.2272],[-102.5179,29.7787,481.9744],[-102.5103,29.7738,480.5086],[-102.5133,29.7654,528.5784],[-102.5351,29.754,464.9961],[-102.5404,29.7481,512.1693],[-102.548,29.7446,462.306],[-102.5509,29.7452,485.7395],[-102.5553,29.7491,517.0917],[-102.555,29.7549,560.461],[-102.5629,29.7671,582.8679],[-102.568,29.7715,486.1224],[-102.572,29.7691,479.6328],[-102.5744,29.7653,481.0599],[-102.5723,29.7592,475.4653],[-102.5722,29.7566,491.2987],[-102.5741,29.7546,483.0535],[-102.5794,29.7548,489.9462],[-102.5888,29.749,483.4078],[-102.5979,29.7513,481.4813],[-102.6074,29.7477,499.9042],[-102.6122,29.7482,471.4879],[-102.6225,29.7363,545.9276],[-102.6303,29.734,470.3471],[-102.64,29.7333,489.4735],[-102.659,29.7352,482.053],[-102.667,29.739,476.6503],[-102.6675,29.745,509.6758],[-102.6741,29.7445,474.0533],[-102.6816,29.7278,497.7522],[-102.6876,29.7226,477.7831],[-102.6911,29.7216,477.6876],[-102.6902,29.7074,481.1686],[-102.6883,29.7054,493.6549],[-102.6986,29.6971,479.2669],[-102.6994,29.6855,484.4848],[-102.6933,29.6767,498.0565],[-102.6965,29.6719,485.6799],[-102.704,29.6713,488.1414],[-102.7087,29.6665,487.9359],[-102.7126,29.6584,491.0876],[-102.7256,29.6504,485.243],[-102.724,29.6484,485.8335],[-102.7257,29.6433,486.1685],[-102.7297,29.6406,491.3247],[-102.7362,29.6417,486.3015],[-102.7414,29.6346,489.1926],[-102.7417,29.6296,489.491],[-102.739,29.6253,489.0983],[-102.7386,29.6189,492.7249],[-102.739,29.6068,491.7127],[-102.7416,29.6027,492.3104],[-102.7402,29.5979,494.1921],[-102.7465,29.5923,495.562],[-102.761,29.5985,498.9811],[-102.7646,29.5978,498.4715],[-102.7685,29.5947,495.0797],[-102.7621,29.5795,506.1007],[-102.7661,29.5721,498.0662],[-102.7725,29.5736,502.181],[-102.7741,29.5725,505.1649],[-102.7734,29.5668,500.7794],[-102.7777,29.5607,499.9355],[-102.7774,29.5549,502.3445],[-102.771,29.5484,504.2019],[-102.7742,29.5466,504.6004],[-102.7762,29.5472,526.1788],[-102.7804,29.5424,503.4866],[-102.7916,29.5427,522.4507],[-102.7931,29.5396,523.4443],[-102.7915,29.536,513.9263],[-102.7921,29.5327,505.0022],[-102.7972,29.5294,503.8594],[-102.7993,29.5259,515.1073],[-102.8083,29.5226,512.2927],[-102.8085,29.519,541.6841],[-102.8065,29.5157,562.3717],[-102.8073,29.5039,506.6966],[-102.8039,29.5005,507.2753],[-102.8064,29.4942,511.1272],[-102.8005,29.4867,508.3859],[-102.8041,29.484,510.0406],[-102.8131,29.4828,522.4615],[-102.8151,29.4766,525.0659],[-102.8142,29.4715,512.7811],[-102.8224,29.4622,584.3181],[-102.8246,29.4573,531.6763],[-102.824,29.455,529.7892],[-102.8189,29.4508,517.1088],[-102.8304,29.444,517.1378],[-102.8314,29.4383,515.9836],[-102.8303,29.4346,527.0643],[-102.8318,29.4332,518.0485],[-102.8262,29.4174,519.3969],[-102.8328,29.4091,523.9664],[-102.8262,29.4076,531.0427],[-102.8254,29.4026,521.523],[-102.8187,29.4036,524.1716],[-102.8132,29.4022,549.5468],[-102.812,29.4,534.7066],[-102.815,29.3969,525.735],[-102.8194,29.3983,523.7741],[-102.8251,29.3969,523.5018],[-102.832,29.389,527.2589],[-102.834,29.3788,541.7225],[-102.8407,29.3774,531.0073],[-102.8447,29.3746,524.8268],[-102.8448,29.3647,525.8898],[-102.8392,29.3618,530.0038],[-102.8392,29.3589,529.3676],[-102.8614,29.3513,529.5997],[-102.8725,29.352,536.3431],[-102.8775,29.3546,530.1213],[-102.8835,29.3478,551.9388],[-102.8802,29.342,551.3856],[-102.88,29.3376,567.4684],[-102.8844,29.3249,540.4523],[-102.884,29.3208,588.438],[-102.887,29.318,590.3728],[-102.8872,29.3115,541.2247],[-102.8927,29.3085,542.136],[-102.8881,29.2958,552.1298],[-102.8882,29.2903,558.1848],[-102.8894,29.2881,569.811],[-102.8955,29.2852,611.3622],[-102.8985,29.2803,557.7261],[-102.9027,29.2796,540.6374],[-102.9028,29.2762,539.7845],[-102.8992,29.2692,538.7467],[-102.9017,29.2645,564.4139],[-102.9059,29.2615,542.7738],[-102.9058,29.2585,551.231],[-102.903,29.2543,542.9975],[-102.8963,29.2539,596.2001],[-102.8877,29.2457,546.6929],[-102.8805,29.2461,551.6892],[-102.8715,29.2416,580.4397],[-102.8703,29.2363,552.2151],[-102.8712,29.2321,593.6557],[-102.8664,29.2271,611.2233],[-102.8674,29.2237,596.8494],[-102.877,29.2167,590.4862],[-102.8786,29.2135,567.205],[-102.8944,29.2086,663.7642],[-102.8991,29.2089,570.3212],[-102.9087,29.2197,587.403],[-102.912,29.2192,567.066],[-102.9157,29.2154,588.5181],[-102.9158,29.2123,606.5359],[-102.9129,29.2069,699.2507],[-102.9144,29.2001,553.9771],[-102.9189,29.1982,551.4254],[-102.9172,29.1915,550.2572],[-102.9197,29.1909,551.3612],[-102.9254,29.1937,554.77],[-102.9323,29.1947,554.189],[-102.938,29.1882,556.3232],[-102.94,29.1886,556.4941],[-102.9418,29.1916,555.0919],[-102.9437,29.1911,555.0919],[-102.9453,29.1839,554.7347],[-102.9504,29.1783,567.6857],[-102.9508,29.1735,556.1827],[-102.957,29.1787,559.1026],[-102.9744,29.1857,569.1564],[-102.9786,29.1862,568.6714],[-102.9943,29.1799,562.3546],[-102.9978,29.1734,562.3021],[-102.9958,29.1607,561.9991],[-103.0016,29.1507,564.1569],[-103.0082,29.1483,562.9888],[-103.0088,29.1375,573.2858],[-103.0125,29.1371,565.7594],[-103.0151,29.1348,565.1446],[-103.0151,29.132,565.038],[-103.0118,29.1265,566.4965],[-103.0152,29.1245,567.0568],[-103.0191,29.1259,566.5736],[-103.0231,29.1234,566.5688],[-103.0243,29.1193,567.3477],[-103.0302,29.1128,570.7601],[-103.0338,29.1012,570.4792],[-103.0395,29.0968,573.1572],[-103.045,29.0953,576.6152],[-103.054,29.1005,572.546],[-103.0646,29.0911,581.7568],[-103.0697,29.0936,574.6992],[-103.0765,29.0909,573.7638],[-103.0796,29.0878,579.3322],[-103.0765,29.0806,650.0336],[-103.077,29.0756,620.95],[-103.0872,29.0667,599.6947],[-103.0852,29.0599,597.0687],[-103.0857,29.0534,601.8699],[-103.0899,29.0533,611.7827],[-103.0915,29.055,575.4716],[-103.0916,29.0634,583.2365],[-103.0928,29.0645,584.0886],[-103.0959,29.0642,582.1249],[-103.0971,29.0605,598.8235],[-103.1007,29.0603,578.1171],[-103.1007,29.0502,581.4311],[-103.1063,29.0399,590.1945],[-103.1033,29.0329,583.7881],[-103.098,29.0268,611.7519],[-103.1015,29.0176,582.041],[-103.1078,29.0133,690.5668],[-103.1164,29.0003,713.8586],[-103.1136,28.9885,712.5263],[-103.1159,28.9844,693.5588],[-103.1234,28.9843,701.7241],[-103.1269,28.9819,599.8231],[-103.1317,28.9839,600.8846],[-103.136,28.9832,648.0912],[-103.144,28.9775,726.1774],[-103.1512,28.9751,694.6635],[-103.1532,28.9717,718.3676],[-103.1602,28.9736,605.5247],[-103.1639,28.972,632.2533],[-103.1663,28.9742,601.0079],[-103.1659,28.9777,612.4799],[-103.1706,28.9803,596.7966],[-103.1756,28.9776,597.8327],[-103.1814,28.9825,598.0834],[-103.2025,28.9871,603.7965],[-103.2148,28.9876,608.5015],[-103.2204,28.9835,603.6255],[-103.2279,28.9917,602.7952],[-103.2382,28.9812,602.5802],[-103.2505,28.9803,611.3898],[-103.2532,28.9866,605.3134],[-103.2671,28.996,611.0344],[-103.269,28.9939,606.1255],[-103.272,28.984,611.3337],[-103.2807,28.9759,613.4633],[-103.2884,28.9781,611.4737],[-103.2885,28.9812,610.8804],[-103.283,28.9831,609.5712],[-103.2817,28.9875,613.9199],[-103.2864,29.0006,614.3956],[-103.2965,29.0066,611.8503],[-103.3019,29.0072,613.229],[-103.3076,29.0032,616.2182],[-103.3577,28.9203,793.7766],[-103.4037,28.8693,826.8721],[-103.4041,28.8664,884.5539],[-103.3949,28.8438,983.5441],[-103.3942,28.8401,947.2429],[-103.3963,28.8335,956.1025],[-103.4003,28.8286,950.7305],[-103.4046,28.8296,921.0212],[-103.41,28.8409,920.049],[-103.4236,28.8213,850.1288],[-103.4317,28.8132,835.5534],[-103.4663,28.7595,920.9652],[-103.4633,28.7566,926.9669],[-103.5145,28.665,1872.1511],[-103.5198,28.6687,1802.1445],[-103.5573,28.6113,1674.9548],[-103.5727,28.6406,1618.0098],[-103.582,28.6288,1533.7269],[-103.5964,28.6395,1830.3303],[-103.616,28.5982,1621.3802],[-103.5919,28.5908,1769.9939],[-103.601,28.5749,1710.5323],[-103.6246,28.5811,1627.291],[-103.6479,28.533,1573.5376],[-103.6434,28.5306,1567.5701],[-103.643,28.5125,1533.1312],[-103.7283,28.3565,1414.9386],[-103.7629,28.2982,1453.3602],[-103.7682,28.3004,1459.1941],[-103.8675,28.1121,1287.4427],[-103.8609,28.109,1283.4475],[-103.8895,28.0604,1310.1832],[-103.9267,27.9714,1239.604],[-103.8777,27.9575,1245.925],[-103.8929,27.914,1252.1807],[-103.9419,27.9278,1258.3239],[-103.9356,27.9453,1247.1583],[-103.955,27.9508,1244.0563],[-103.9433,27.8888,1285.2224],[-103.9456,27.8889,1285.856],[-103.9458,27.8564,1324.7252],[-103.96,27.8353,1331.9626],[-103.9472,27.8305,1332.347],[-103.9439,27.8269,1335.3593],[-103.9008,27.8269,1292.6642],[-103.9356,27.7976,1359.7805],[-103.8811,27.7392,1362.9148],[-103.8967,27.7406,1387.6595],[-103.8895,27.7132,1427.2928],[-103.8955,27.674,1782.1633],[-103.8832,27.6576,1751.0079],[-103.8973,27.6565,1908.4456],[-103.8836,27.6008,2228.3577],[-103.8688,27.6071,1620.0596],[-103.8546,27.5494,1789.5405],[-103.8585,27.4399,1306.1749],[-103.8637,27.4409,1329.5894],[-103.8769,27.3116,1229.9896],[-103.8321,27.2983,1276.0992],[-103.8306,27.2768,1228.0188],[-103.8266,27.2694,1222.5745],[-103.8198,27.243,1232.9714],[-103.8094,27.2492,1260.6833],[-103.7984,27.2135,1241.8069],[-103.7994,27.1247,1511.2487],[-103.7835,27.0912,1193.1812],[-103.7738,27.0896,1196.8691],[-103.7631,27.0839,1192.4283],[-103.7563,27.0821,1191.4567],[-103.7525,27.0779,1183.9537],[-103.7485,27.0518,1156.4323],[-103.7454,27.0414,1147.2803],[-103.7443,27.0267,1132.334],[-103.7408,27.0225,1129.2163],[-103.7458,27.0227,1130.4927],[-103.7799,27.0089,1143.906],[-103.7846,26.9807,1164.7227],[-103.8521,26.9346,1134.0684],[-103.8359,26.9358,1145.4973],[-103.8519,26.9052,1128.1089],[-103.8517,26.8961,1127.3369],[-103.8422,26.8915,1136.938],[-103.8314,26.8805,1142.2573],[-103.8225,26.8754,1144.9141],[-103.8045,26.855,1159.6282],[-103.7901,26.8456,1156.748],[-103.7796,26.8361,1142.297],[-103.7619,26.8334,1134.7592],[-103.754,26.8296,1130.9164],[-103.7506,26.8099,1138.5073],[-103.7249,26.7721,1118.8641],[-103.7152,26.7351,1129.7838],[-103.7016,26.7308,1130.2791],[-103.6991,26.7253,1134.2509],[-103.682,26.7216,1137.1277],[-103.6583,26.7195,1133.5303],[-103.6439,26.6902,1199.7014],[-103.637,26.6934,1165.8695],[-103.3742,26.6024,1147.9937],[-103.3168,26.3618,1221.897],[-103.2608,26.2847,2000.541],[-103.3505,26.1424,1366.0165],[-103.3464,25.8603,1103.4],[-103.3437,25.8512,1103.4766],[-103.337,25.8439,1104.0288],[-103.336,25.8387,1104.5437],[-103.3317,25.8317,1105.5815],[-103.3229,25.8251,1106.1564],[-103.3186,25.8127,1106.6414],[-103.3194,25.8046,1107.9421],[-103.323,25.7999,1107.9723],[-103.3228,25.798,1108.4266],[-103.3211,25.798,1107.7427],[-103.3232,25.7922,1108.8612],[-103.3231,25.7837,1109.0084],[-103.3254,25.7811,1108.7465],[-103.3267,25.7724,1109.9089],[-103.3264,25.7604,1110.6974],[-103.3337,25.7387,1115.1396],[-103.3403,25.724,1114.7213],[-103.3507,25.7192,1115.5111],[-103.3528,25.7166,1115.1879],[-103.3394,25.7076,1116.2577],[-103.3412,25.705,1115.7885],[-103.355,25.6999,1115.9506],[-103.3492,25.6934,1109.3962],[-103.3595,25.6889,1115.6558],[-103.3648,25.672,1112.8539],[-103.3706,25.6649,1111.8929],[-103.383,25.6553,1109.7883],[-103.3814,25.6403,1113.8822],[-103.3859,25.6404,1112.3359],[-103.3987,25.6459,1117.4006],[-103.406,25.645,1116.4193],[-103.4087,25.6397,1115.1533],[-103.4032,25.6319,1115.88],[-103.4033,25.6281,1115.4243],[-103.4129,25.6245,1114.7825],[-103.4205,25.6257,1118.5911],[-103.4248,25.6237,1114.5566],[-103.425,25.62,1114.9846],[-103.4175,25.6172,1119.3479],[-103.416,25.6144,1124.677],[-103.4269,25.6121,1119.7697],[-103.4296,25.5989,1116.828],[-103.4384,25.5966,1115.4622],[-103.4384,25.5943,1116.2633],[-103.4333,25.5881,1113.1056],[-103.4354,25.5828,1116.14],[-103.438,25.5815,1110.3561],[-103.4468,25.5817,1112.5909],[-103.451,25.5789,1116.9337],[-103.4526,25.5753,1117.3982],[-103.4514,25.5655,1120.5005],[-103.4554,25.5571,1122.7206],[-103.4696,25.5464,1126.095],[-103.4944,25.5377,1125.0774],[-103.4847,25.5294,1165.1581],[-103.4751,25.5183,1213.6339],[-103.4758,25.5175,1213.6339],[-103.4357,25.4791,1505.5483],[-103.428,25.4753,1487.0718],[-103.3987,25.4506,1605.3463],[-103.3907,25.4346,1583.9799],[-103.3691,25.4165,1545.0695],[-103.351,25.4103,1492.6465],[-103.3414,25.4101,1387.1599],[-103.3376,25.3972,1175.4417],[-103.3369,25.3712,1154.2246],[-103.3419,25.3704,1155.5858],[-103.3512,25.373,1156.3031],[-103.3575,25.3816,1158.5256],[-103.3579,25.3849,1157.8096],[-103.3655,25.3932,1159.0979],[-103.3703,25.3937,1160.4794],[-103.3722,25.3904,1163.6521],[-103.3805,25.391,1163.7628],[-103.3905,25.3974,1167.235],[-103.3973,25.3953,1167.5361],[-103.4067,25.3989,1170.3241],[-103.4092,25.3962,1169.2424],[-103.4169,25.3937,1188.8767],[-103.42,25.3942,1170.8489],[-103.4245,25.39,1172.3842],[-103.4299,25.389,1175.0706],[-103.4332,25.3864,1174.3662],[-103.4449,25.384,1176.5789],[-103.448,25.3811,1178.1984],[-103.4579,25.3781,1176.5134],[-103.4576,25.3761,1174.4348],[-103.4621,25.3763,1178.3729],[-103.4611,25.3706,1178.9307],[-103.4659,25.3598,1181.1895],[-103.4662,25.3523,1189.2136],[-103.4692,25.3501,1185.3381],[-103.4709,25.3453,1187.03],[-103.4787,25.3382,1190.2056],[-103.4804,25.3343,1190.4454],[-103.4865,25.3329,1188.0239],[-103.4865,25.3308,1188.1055],[-103.4797,25.3262,1192.7899],[-103.4793,25.3239,1193.0635],[-103.4858,25.3148,1196.8271],[-103.4957,25.3111,1200.7192],[-103.4977,25.2951,1196.5071],[-103.5022,25.292,1203.2498],[-103.5062,25.2933,1198.4038],[-103.5094,25.2915,1201.0907],[-103.5074,25.284,1205.0685],[-103.5109,25.2798,1200.2361],[-103.5038,25.2747,1204.7223],[-103.4985,25.2633,1206.5574],[-103.4967,25.2557,1208.7209],[-103.4913,25.2525,1210.963],[-103.4866,25.2539,1212.4219],[-103.4768,25.25,1214.4309],[-103.4732,25.2501,1214.9684],[-103.4684,25.242,1217.8795],[-103.4657,25.2412,1220.3456],[-103.4662,25.2387,1219.2239],[-103.4617,25.2371,1221.9355],[-103.4605,25.2337,1222.0332],[-103.4502,25.2286,1225.2533],[-103.4488,25.224,1224.2699],[-103.4501,25.2191,1237.2288],[-103.4457,25.2104,1227.8431],[-103.4387,25.202,1228.8739],[-103.4366,25.2027,1230.755],[-103.4322,25.1995,1231.4604],[-103.4258,25.2015,1232.2771],[-103.4232,25.198,1235.9119],[-103.4184,25.1964,1234.1084],[-103.4183,25.192,1235.5699],[-103.4094,25.185,1236.8503],[-103.4092,25.1824,1236.9705],[-103.4029,25.1823,1239.6044],[-103.3982,25.1755,1241.6384],[-103.3989,25.1708,1244.1445],[-103.3965,25.1658,1246.6309],[-103.3974,25.1639,1244.5981],[-103.3927,25.1595,1242.2095],[-103.3943,25.1577,1243.3429],[-103.3887,25.1546,1246.6937],[-103.3832,25.1492,1248.7937],[-103.3825,25.1449,1248.5027],[-103.3771,25.142,1245.7595],[-103.3704,25.124,1249.165],[-103.3595,25.11,1256.9047],[-103.3514,25.1072,1255.7213],[-103.3461,25.1107,1264.9877],[-103.3427,25.1103,1263.0894],[-103.3393,25.1071,1263.2582],[-103.34,25.1023,1261.802],[-103.3372,25.0991,1261.6797],[-103.3267,25.0944,1264.4653],[-103.3223,25.0943,1268.3657],[-103.3182,25.0889,1267.9131],[-103.3124,25.0851,1275.9122],[-103.302,25.0833,1274.3525],[-103.295,25.08,1275.2399],[-103.2928,25.0779,1276.2268],[-103.2912,25.0705,1279.9709],[-103.2843,25.0677,1281.7543],[-103.2782,25.063,1284.8402],[-103.2742,25.0646,1285.03],[-103.2711,25.0604,1289.8364],[-103.2622,25.0585,1289.9944],[-103.2615,25.0542,1288.6193],[-103.2652,25.0537,1297.8961],[-103.2679,25.0558,1320.8031],[-103.2696,25.0549,1296.3451],[-103.2688,25.0491,1312.0836],[-103.2745,25.0459,1305.1411],[-103.2695,25.0402,1296.0066],[-103.2745,25.0383,1295.9017],[-103.278,25.0346,1297.4114],[-103.2703,25.032,1299.4929],[-103.2675,25.028,1298.9825],[-103.2741,25.0234,1302.1031],[-103.274,25.0209,1302.6189],[-103.2705,25.0157,1306.0536],[-103.2546,25.004,1309.8805],[-103.2466,24.996,1338.9011],[-103.2487,24.9925,1376.8776],[-103.2457,24.9898,1385.5594],[-103.2454,24.9825,1347.7898],[-103.25,24.9788,1332.5854],[-103.2526,24.9702,1331.6499],[-103.2582,24.9689,1340.4545],[-103.2591,24.9647,1332.3638],[-103.0929,24.8229,1405.5745],[-103.087,24.8205,1408.0138],[-103.0688,24.8186,1411.8059],[-103.0537,24.8099,1417.1759],[-103.0496,24.8098,1419.3364],[-103.0481,24.8113,1421.1643],[-103.0431,24.8095,1422.7218],[-103.0379,24.8114,1422.9485],[-103.0334,24.8108,1429.2153],[-103.0311,24.8072,1422.5889],[-103.0218,24.7999,1426.0328],[-103.0151,24.801,1433.4357],[-103.0112,24.7964,1430.2406],[-103.0051,24.7932,1438.8158],[-103.0021,24.7942,1433.3724],[-103.0014,24.7984,1439.0446],[-102.9965,24.795,1437.9889],[-102.9908,24.794,1435.4967],[-102.9874,24.797,1436.2886],[-102.9752,24.7995,1438.424],[-102.9746,24.7928,1439.1653],[-102.9649,24.794,1441.4655],[-102.9636,24.7881,1446.1274],[-102.9493,24.7798,1450.745],[-102.9373,24.7777,1454.3296],[-102.9357,24.7801,1451.0551],[-102.9326,24.778,1455.3292],[-102.9233,24.7803,1454.5876],[-102.923,24.7747,1457.168],[-102.9214,24.773,1461.4802],[-102.916,24.7761,1459.3514],[-102.9075,24.7679,1464.0199],[-102.9002,24.7647,1463.9409],[-102.8954,24.766,1464.4779],[-102.8905,24.7603,1468.6807],[-102.8863,24.7582,1471.1099],[-102.8832,24.7506,1469.4885],[-102.8751,24.7489,1473.6343],[-102.8697,24.7421,1472.0935],[-102.8564,24.7398,1477.3881],[-102.8531,24.772,1652.1533],[-102.6697,25.0666,1515.2429],[-102.4468,24.9995,1618.5356],[-102.4633,25.1159,1685.3462],[-102.2955,25.1252,1238.969],[-102.2376,25.1185,1437.2655],[-102.0818,25.0707,1793.4891],[-101.8488,25.0176,1567.4034],[-101.8319,24.9722,1715.9944],[-101.7735,24.8755,1844.1392],[-101.6851,24.84,2059.1475],[-101.6563,24.8608,2405.7617],[-101.6013,24.8356,1871.2439],[-101.609,24.7897,2559.9797],[-101.6408,24.8007,2749.8979],[-101.6223,24.759,2237.6284],[-101.5406,24.7456,2399.7676],[-101.5194,24.7465,2264.1899],[-101.4917,24.7438,1877.5242],[-101.4616,24.7368,1848.7271],[-101.4127,24.7721,1686.8408],[-101.4022,24.7882,1661.2524],[-101.3421,24.8134,1929.1343],[-101.3131,24.8014,2319.104],[-101.2361,24.7779,2238.0454],[-101.215,24.7752,2230.2383],[-101.2017,24.7655,2352.8196],[-101.1818,24.739,1944.5859],[-101.1646,24.6816,2440.8821],[-101.1276,24.6234,3123.126],[-101.0805,24.5912,2784.9734],[-100.9588,24.5427,2476.6277],[-100.9022,24.5839,1746.9817],[-100.8828,24.5716,1736.0867],[-100.8478,24.5556,1906.0779],[-100.8104,24.5516,1827.1486],[-100.7999,24.5562,1819.5781],[-100.8055,24.5963,2430.4092],[-100.797,24.7508,2122.2993],[-100.8274,24.8242,2221.0935],[-100.8261,24.835,2076.2322],[-100.7275,24.9187,1865.839],[-100.7539,24.9434,2034.8918],[-100.7915,24.9741,2212.4175],[-100.7921,24.9791,2304.0042],[-100.8215,24.9967,2368.2051],[-100.8071,25.13,1901.9777]]]]}}