{"type": "Feature","id": "2708","bbox": [-103.96347,24.56496,-99.80696,29.89394],"geometry": {"type": "Polygon","coordinates": [[[-102.27618,29.86955,534.0697],[-102.28902,29.87813,522.6558],[-102.30217,29.88939,604.5098],[-102.32101,29.89394,598.9327],[-102.33023,29.88893,563.2163],[-102.33977,29.87063,539.6829],[-102.35106,29.8666,553.0627],[-102.36323,29.86428,583.8612],[-102.37072,29.85777,600.1932],[-102.37455,29.8481,649.1328],[-102.37659,29.82149,677.4878],[-102.38005,29.81139,584.6792],[-102.40413,29.78079,702.4808],[-102.4061,29.77728,679.7742],[-102.51529,29.78472,509.6409],[-102.52307,29.78232,703.0681],[-102.53113,29.76992,703.9691],[-102.54154,29.76247,719.9214],[-102.54335,29.76012,792.9197],[-102.54658,29.75787,849.0461],[-102.55314,29.75674,517.7089],[-102.55831,29.75909,511.2617],[-102.56288,29.76935,600.7501],[-102.56676,29.77105,493.6399],[-102.58531,29.7647,666.555],[-102.62122,29.74728,701.8604],[-102.63874,29.74372,759.7095],[-102.67605,29.74449,479.7701],[-102.68347,29.74372,545.1029],[-102.69104,29.73682,641.5801],[-102.69362,29.7294,524.5074],[-102.69471,29.72062,486.7424],[-102.69776,29.70956,502.6147],[-102.72675,29.6645,537.9579],[-102.73127,29.65059,497.1136],[-102.73551,29.64951,501.3911],[-102.75166,29.62246,526.4944],[-102.75176,29.62016,533.5696],[-102.76135,29.60341,553.3687],[-102.7676,29.59729,512.0305],[-102.77966,29.5923,585.057],[-102.77408,29.57962,543.805],[-102.77646,29.57595,529.2526],[-102.78589,29.57181,548.8912],[-102.78075,29.55825,514.1523],[-102.78651,29.5505,543.0955],[-102.79548,29.54427,578.5707],[-102.82731,29.4705,669.1531],[-102.83395,29.46136,575.1567],[-102.83907,29.45195,602.2333],[-102.84113,29.43831,730.2001],[-102.83871,29.42694,683.6059],[-102.83498,29.4157,576.4703],[-102.83519,29.40384,534.8434],[-102.84454,29.39053,577.0046],[-102.84558,29.38472,585.521],[-102.83803,29.37053,536.319],[-102.83767,29.36632,537.7043],[-102.84656,29.36175,530.037],[-102.85387,29.361,557.0148],[-102.85987,29.36115,567.4618],[-102.86496,29.35953,555.0259],[-102.87697,29.35087,537.8987],[-102.88307,29.34377,538.3806],[-102.88519,29.33338,642.8948],[-102.8855,29.3148,665.2517],[-102.8994,29.2761,597.1129],[-102.89971,29.2639,579.3309],[-102.89214,29.25439,616.3059],[-102.86795,29.24039,770.8467],[-102.85878,29.22915,768.8908],[-102.86987,29.22478,673.6959],[-102.89689,29.22028,964.4142],[-102.94226,29.19021,555.6038],[-102.94754,29.18202,561.1371],[-102.96976,29.19284,566.5195],[-102.98839,29.17713,608.0508],[-103.01583,29.12678,565.9555],[-103.02428,29.11616,569.7048],[-103.03262,29.11021,570.0178],[-103.07254,29.0914,586.7594],[-103.08076,29.0852,602.2752],[-103.08559,29.07572,639.7582],[-103.09153,29.05787,576.3026],[-103.09536,29.06029,618.3674],[-103.10468,29.05787,584.9026],[-103.10921,29.02337,678.2737],[-103.12277,28.99647,933.7943],[-103.14799,28.98511,903.2654],[-103.18711,28.99022,604.5067],[-103.24176,29.0035,624.2341],[-103.30155,29.00237,618.1507],[-103.31625,29.01007,624.2481],[-103.31151,29.02604,617.7213],[-103.31273,29.025,618.2924],[-103.31309,29.02469,618.2924],[-103.39231,28.88348,737.2733],[-103.47463,28.74398,946.7366],[-103.55789,28.60492,1793.6379],[-103.63982,28.46521,1420.6792],[-103.6702,28.4123,1363.624],[-103.70056,28.35943,1384.152],[-103.73095,28.30654,1445.9261],[-103.76134,28.25365,1419.3822],[-103.80325,28.18234,1336.0103],[-103.8451,28.11095,1277.322],[-103.88756,28.03992,1282.3739],[-103.93127,27.96974,1239.7314],[-103.96347,27.91889,1268.0734],[-103.95525,27.88729,1289.3173],[-103.94962,27.86525,1319.3268],[-103.94396,27.84321,1335.355],[-103.93838,27.82114,1335.0577],[-103.9268,27.77582,1370.9094],[-103.91525,27.73063,1434.9929],[-103.90373,27.68531,1725.6813],[-103.89221,27.6401,1767.1166],[-103.8405,27.44737,1252.2638],[-103.78872,27.25464,1468.4857],[-103.73705,27.06191,1168.4221],[-103.68584,26.86911,1137.2595],[-103.67121,26.81278,1105.9916],[-103.65654,26.75651,1120.4807],[-103.64191,26.70021,1149.7776],[-103.62726,26.64393,1199.3889],[-103.61499,26.63419,1202.4275],[-103.60274,26.6244,1221.2336],[-103.59044,26.61468,1190.4406],[-103.57819,26.60494,1206.4333],[-103.53814,26.57393,1285.1073],[-103.49807,26.54288,1232.9728],[-103.45828,26.51156,1122.259],[-103.41898,26.47955,1094.5634],[-103.3758,26.44748,1119.1342],[-103.3257,26.40867,1221.9048],[-103.2849,26.36369,1427.692],[-103.26958,26.31289,1742.1331],[-103.28134,26.2624,1663.817],[-103.30439,26.21708,1514.1755],[-103.32893,26.17238,1269.8064],[-103.34534,26.12386,1097.2292],[-103.34953,26.07373,1092.5083],[-103.34741,26.02164,1093.0586],[-103.34172,25.96942,1094.8958],[-103.33573,25.91919,1098.7979],[-103.33126,25.89028,1100.3625],[-103.32787,25.86157,1101.3511],[-103.32524,25.83279,1103.7019],[-103.3232,25.80362,1106.5686],[-103.32284,25.79835,1108.4266],[-103.3225,25.79315,1108.8612],[-103.32219,25.78791,1107.8641],[-103.32188,25.78266,1107.9852],[-103.31948,25.75879,1110.3262],[-103.31731,25.72732,1111.9368],[-103.32017,25.69872,1114.8763],[-103.33271,25.68352,1113.4812],[-103.35059,25.67484,1116.1074],[-103.35901,25.66277,1116.3191],[-103.3649,25.64838,1117.3052],[-103.37521,25.6327,1121.0336],[-103.38451,25.62316,1121.3601],[-103.39309,25.61459,1122.5543],[-103.40149,25.60547,1124.8711],[-103.40988,25.59441,1126.507],[-103.41815,25.58779,1127.2275],[-103.42913,25.58374,1124.3912],[-103.4405,25.57906,1124.2485],[-103.44996,25.57033,1117.9199],[-103.46332,25.56058,1129.4883],[-103.47712,25.55185,1131.0444],[-103.48779,25.54095,1131.9059],[-103.49179,25.52485,1132.5815],[-103.49156,25.50232,1182.8647],[-103.48357,25.48529,1328.9191],[-103.47029,25.471,1248.8021],[-103.45402,25.45669,1181.1912],[-103.44492,25.44899,1174.1292],[-103.43353,25.43863,1173.2262],[-103.42487,25.42749,1171.8606],[-103.42384,25.41747,1171.8712],[-103.43105,25.41127,1173.7317],[-103.44167,25.40848,1177.3156],[-103.45278,25.40597,1179.8699],[-103.46146,25.4008,1182.9492],[-103.47985,25.37726,1185.7964],[-103.4945,25.35238,1203.3049],[-103.50458,25.326,1402.3054],[-103.50921,25.29781,1228.3644],[-103.50616,25.28055,1207.6123],[-103.49799,25.26828,1210.9073],[-103.48613,25.25843,1213.364],[-103.47192,25.24856,1216.5453],[-103.452,25.23283,1285.0542],[-103.43523,25.21567,1245.0562],[-103.42169,25.19593,1236.215],[-103.41141,25.17247,1293.4163],[-103.38797,25.14061,1251.5535],[-103.3502,25.11707,1269.4219],[-103.30899,25.09614,1295.9863],[-103.27532,25.07214,1300.2908],[-103.25956,25.04072,1391.1055],[-103.25677,25.00251,1328.4484],[-103.25734,24.96189,1352.0348],[-103.25147,24.92298,1349.0189],[-103.22617,24.88722,1354.7073],[-103.18561,24.86321,1377.7742],[-103.13954,24.84784,1421.7566],[-103.09784,24.83812,1438.1677],[-103.05551,24.82905,1479.8828],[-103.01311,24.81949,1543.1458],[-102.97187,24.80665,1446.5017],[-102.93286,24.78787,1457.3508],[-102.90955,24.77572,1464.0491],[-102.88645,24.76084,1471.427],[-102.86416,24.74456,1481.8907],[-102.8431,24.72828,1482.3495],[-102.84196,24.77087,1707.4926],[-102.84085,24.8135,1534.0151],[-102.83971,24.85605,1544.6279],[-102.83855,24.89866,1625.204],[-102.81579,24.90437,1599.8104],[-102.79297,24.92636,1629.7791],[-102.77264,24.95339,1552.2986],[-102.75731,24.97426,1513.1329],[-102.73504,25.00046,1432.8516],[-102.71274,25.02664,1441.4418],[-102.69047,25.05273,1505.2531],[-102.66817,25.07893,1476.7927],[-102.65016,25.10371,1342.9618],[-102.63404,25.11632,1303.5562],[-102.6135,25.1218,1320.6321],[-102.58239,25.12513,1365.6914],[-102.50849,25.13193,1635.4994],[-102.43465,25.13875,1442.3525],[-102.36075,25.14557,1221.8903],[-102.28685,25.15244,1224.9302],[-102.25972,25.15686,1318.5985],[-102.2297,25.16237,1785.4121],[-102.19993,25.16554,1548.1311],[-102.17337,25.16296,1421.3105],[-102.13162,25.15128,1361.7994],[-102.08996,25.13965,1370.5674],[-102.04821,25.12798,1356.281],[-102.00646,25.11632,1395.8115],[-101.97002,25.10612,1435.4778],[-101.93359,25.09596,1453.8917],[-101.89716,25.08576,1446.9941],[-101.86073,25.07555,1493.6874],[-101.84264,25.05873,1515.9701],[-101.82368,25.02602,1580.1245],[-101.80657,24.99049,1616.7502],[-101.79386,24.96512,1728.582],[-101.76776,24.93806,1773.6194],[-101.73205,24.91887,1941.7968],[-101.69206,24.90926,1983.1614],[-101.65268,24.91091,1794.2242],[-101.63811,24.90944,1756.1616],[-101.62054,24.90212,1738.8589],[-101.60359,24.89207,1726.5192],[-101.59077,24.88244,1718.9758],[-101.58219,24.86794,1760.1644],[-101.57759,24.84722,1820.1597],[-101.57547,24.82523,1846.6862],[-101.57439,24.80691,1908.474],[-101.59459,24.81006,1930.8307],[-101.61485,24.8144,1979.4595],[-101.63485,24.8198,2063.4307],[-101.65433,24.8258,2112.804],[-101.64896,24.80843,2480.9866],[-101.64007,24.78572,2302.8489],[-101.62896,24.7659,2165.7339],[-101.61718,24.75709,2330.2825],[-101.58912,24.75575,2498.3633],[-101.56111,24.75435,2290.448],[-101.5332,24.75296,2192.7896],[-101.50519,24.75156,1911.1177],[-101.48339,24.75032,1832.3745],[-101.46173,24.74934,1841.0911],[-101.44158,24.75218,1755.9495],[-101.42417,24.76226,1718.9729],[-101.40448,24.78146,1668.5455],[-101.38479,24.80086,1650.9329],[-101.36474,24.81988,1673.1708],[-101.34417,24.83802,1747.803],[-101.34417,24.83171,1730.6602],[-101.34314,24.82502,1733.1431],[-101.34195,24.81836,1775.1055],[-101.34159,24.81187,1820.5154],[-101.30056,24.81905,1906.0901],[-101.26464,24.82293,1884.4653],[-101.2311,24.8175,1917.7227],[-101.19694,24.79655,1946.4215],[-101.18211,24.78244,1923.0092],[-101.1693,24.76769,1904.7231],[-101.15788,24.75187,1896.5103],[-101.14713,24.73454,1951.6879],[-101.13984,24.71836,2078.0615],[-101.13473,24.70152,2243.8633],[-101.1293,24.68472,2428.2598],[-101.12129,24.66878,2335.0896],[-101.09664,24.641,2372.5327],[-101.05892,24.61741,2416.3745],[-101.01711,24.60235,2308.4746],[-100.98006,24.6001,2054.866],[-100.96037,24.60511,1807.4912],[-100.9427,24.6102,1753.5441],[-100.92518,24.61168,1735.4451],[-100.90606,24.60589,1729.2299],[-100.88652,24.59597,1734.5413],[-100.86678,24.58607,1759.925],[-100.84735,24.57589,1809.7396],[-100.82844,24.56496,1845.8513],[-100.81655,24.61137,1863.2345],[-100.80208,24.6578,1841.3361],[-100.78674,24.70407,1929.5898],[-100.77227,24.75009,2252.5486],[-100.76715,24.77593,2257.9985],[-100.76808,24.79784,2152.7041],[-100.77335,24.82027,1997.6829],[-100.78172,24.84753,1945.8275],[-100.79113,24.87461,1946.5469],[-100.79619,24.89347,1984.3629],[-100.79134,24.90843,1930.9329],[-100.77092,24.92391,1915.8843],[-100.75005,24.93587,2011.988],[-100.73501,24.94804,1928.3297],[-100.7316,24.96243,1914.123],[-100.74565,24.98093,1936.4359],[-100.76012,24.99532,1934.8578],[-100.77619,25.01147,1931.5891],[-100.79376,25.02411,1933.5719],[-100.81252,25.02793,1958.3184],[-100.83547,25.04131,1966.2229],[-100.8227,25.07943,1878.1505],[-100.79444,25.12157,1889.4827],[-100.77061,25.14725,2080.2856],[-100.71465,25.18229,1977.3351],[-100.65729,25.21177,2225.6428],[-100.5961,25.22949,2142.6782],[-100.52882,25.22942,2249.9329],[-100.50319,25.22378,2552.5547],[-100.4774,25.21603,2542.1116],[-100.45193,25.2073,2636.7837],[-100.42707,25.19849,2744.5432],[-100.40216,25.1926,2890.2273],[-100.3803,25.19286,3292.668],[-100.35849,25.19776,3399.5024],[-100.33369,25.20583,2273.2454],[-100.31596,25.20686,2598.4141],[-100.29416,25.2042,2900.5073],[-100.27359,25.20319,2599.9683],[-100.25959,25.20913,2623.9651],[-100.25933,25.21575,2314.8342],[-100.26114,25.22781,1762.0488],[-100.26305,25.24063,1490.7156],[-100.2632,25.24973,2051.8054],[-100.25845,25.25743,2356.9321],[-100.24987,25.26301,2396.7649],[-100.23995,25.26686,2636.241],[-100.23085,25.26921,2417.8115],[-100.19928,25.27587,1863.799],[-100.21178,25.29158,1810.2905],[-100.24341,25.30964,2855.2542],[-100.2692,25.3236,2288.0835],[-100.28367,25.33422,2150.0444],[-100.29297,25.34106,1928.5798],[-100.30346,25.34486,1969.6251],[-100.32129,25.34652,2475.0952],[-100.33974,25.34737,2254.991],[-100.35767,25.34866,2326.6711],[-100.37565,25.35065,2074.9878],[-100.39394,25.3537,2077.8457],[-100.41203,25.35243,2113.6309],[-100.43218,25.34636,2379.9246],[-100.45182,25.3413,2968.8965],[-100.46831,25.343,2927.4131],[-100.47802,25.35145,2475.7366],[-100.47699,25.35941,2281.1313],[-100.4728,25.36752,2372.3716],[-100.47311,25.37667,2896.29],[-100.4989,25.39747,2760.1821],[-100.53564,25.40494,3201.282],[-100.57233,25.41388,3040.301],[-100.59786,25.43896,2594.2351],[-100.59972,25.44362,2829.3994],[-100.60148,25.44824,2621.0898],[-100.60334,25.45287,2400.9985],[-100.60515,25.45746,2310.3059],[-100.62773,25.47638,2432.0142],[-100.66669,25.491,2439.5696],[-100.69635,25.50581,2221.3586],[-100.69088,25.52529,2575.0928],[-100.66483,25.52986,2294.7708],[-100.63197,25.52017,2540.8044],[-100.59853,25.50627,2578.6028],[-100.57088,25.49831,2651.5073],[-100.57109,25.51074,2417.2698],[-100.57171,25.52382,2545.6116],[-100.5746,25.53612,2427.1226],[-100.58174,25.54609,2628.574],[-100.5946,25.55084,2303.5581],[-100.61057,25.55123,2046.547],[-100.62566,25.5517,2123.0017],[-100.63615,25.55689,1976.0071],[-100.63806,25.5657,2346.332],[-100.63631,25.5766,2293.0771],[-100.63548,25.58787,1650.7474],[-100.64034,25.59764,1781.1748],[-100.64855,25.60459,2032.4146],[-100.65656,25.60957,2301.9155],[-100.66535,25.6126,2099.7065],[-100.67594,25.61376,1985.3086],[-100.70106,25.61415,1754.8071],[-100.72106,25.6172,1665.5984],[-100.73863,25.6265,1436.7505],[-100.7563,25.64575,1235.6458],[-100.78203,25.67805,1126.9937],[-100.8071,25.71223,1369.3396],[-100.82927,25.74804,1118.8357],[-100.84632,25.78533,1270.1389],[-100.8534,25.82057,1356.5306],[-100.85288,25.85806,1051.0933],[-100.84813,25.89563,775.7518],[-100.8425,25.93126,743.3882],[-100.84771,25.95687,817.5375],[-100.87216,25.97149,875.1358],[-100.90187,25.98317,775.5487],[-100.92332,26.00012,797.9436],[-100.93174,26.02712,874.8077],[-100.93267,26.05453,897.3445],[-100.93469,26.08166,978.5426],[-100.94642,26.10776,1114.5198],[-100.95815,26.12205,1037.5667],[-100.97334,26.13755,1106.6709],[-100.99034,26.14983,1308.4092],[-101.00745,26.15455,1073.8225],[-101.02708,26.15432,923.0842],[-101.03887,26.15696,898.1499],[-101.04899,26.16561,892.1765],[-101.06357,26.1831,938.5568],[-101.07333,26.19814,915.4098],[-101.07897,26.21362,858.3089],[-101.08243,26.23018,868.1288],[-101.08553,26.24848,835.4457],[-101.10873,26.28341,817.5391],[-101.14356,26.31656,874.3734],[-101.18191,26.34669,1469.2659],[-101.21565,26.37296,1502.2694],[-101.17798,26.40224,838.0037],[-101.14031,26.43154,795.6699],[-101.10269,26.46087,771.9065],[-101.06501,26.49019,763.8526],[-100.99659,26.54412,917.5312],[-100.92771,26.59742,809.9139],[-100.85862,26.65047,662.3619],[-100.78963,26.70359,525.5279],[-100.78038,26.71064,527.2913],[-100.77108,26.71775,521.6232],[-100.76183,26.7248,518.8857],[-100.75258,26.73186,507.8738],[-100.74235,26.70323,918.4015],[-100.73206,26.67457,945.611],[-100.72173,26.64589,592.6746],[-100.7115,26.61732,566.3594],[-100.6931,26.63124,653.3023],[-100.67594,26.6452,637.7123],[-100.65935,26.65979,768.1816],[-100.64282,26.67537,704.67],[-100.60923,26.71635,711.3315],[-100.58701,26.76459,1417.3313],[-100.57088,26.81632,395.8777],[-100.55585,26.86753,362.5757],[-100.55187,26.88689,355.8922],[-100.55125,26.90714,346.821],[-100.55244,26.92745,340.8864],[-100.55393,26.94727,335.1721],[-100.55342,26.97024,323.6716],[-100.55228,27.00187,314.6212],[-100.55337,27.03259,307.4833],[-100.55952,27.053,302.1579],[-100.57905,27.06308,299.4514],[-100.60664,27.06664,305.3706],[-100.63393,27.07088,308.97],[-100.65217,27.08264,329.7746],[-100.66514,27.09953,329.3205],[-100.67165,27.09811,339.5265],[-100.67605,27.08646,386.0685],[-100.68251,27.07277,798.491],[-100.68871,27.07003,816.868],[-100.69739,27.07021,808.0717],[-100.70597,27.06956,573.101],[-100.71181,27.06432,513.7949],[-100.71175,27.05742,797.6527],[-100.70736,27.05223,759.913],[-100.7023,27.04783,754.7437],[-100.69997,27.0431,767.0336],[-100.70442,27.02708,844.3887],[-100.71516,27.01957,818.886],[-100.7318,27.01628,781.6629],[-100.75377,27.01311,803.6464],[-100.75144,27.03884,495.656],[-100.76431,27.04928,706.9061],[-100.78338,27.05326,543.7332],[-100.79955,27.05972,422.5068],[-100.80353,27.08985,412.232],[-100.80746,27.12002,405.026],[-100.81139,27.15018,367.6259],[-100.81537,27.18031,372.5096],[-100.81304,27.19948,359.0888],[-100.80198,27.21193,342.4006],[-100.78513,27.22147,332.2266],[-100.76591,27.2318,322.7185],[-100.74395,27.24428,311.6863],[-100.72199,27.25673,303.628],[-100.70008,27.26919,296.5747],[-100.67816,27.28167,336.0092],[-100.66514,27.29255,303.8693],[-100.65362,27.30624,398.3295],[-100.64173,27.31931,310.1326],[-100.62752,27.32789,277.755],[-100.59858,27.33735,264.423],[-100.56964,27.34681,263.5971],[-100.54071,27.35629,241.6366],[-100.51177,27.36575,243.9221],[-100.50463,27.36479,238.6913],[-100.50169,27.35818,238.432],[-100.49947,27.35011,239.6375],[-100.49456,27.34492,229.9687],[-100.48603,27.34479,228.3862],[-100.47508,27.34743,244.0529],[-100.46402,27.35097,230.1597],[-100.45518,27.3536,225.69],[-100.43518,27.3797,242.6209],[-100.42123,27.42918,241.5416],[-100.41089,27.48372,248.0766],[-100.40154,27.52519,250.0238],[-100.39312,27.56134,245.4651],[-100.38475,27.60227,246.5089],[-100.37395,27.64188,249.1175],[-100.35818,27.67415,245.2626],[-100.331,27.70064,237.366],[-100.29431,27.72482,256.2782],[-100.25555,27.74689,228.0826],[-100.22217,27.76699,216.7439],[-100.21483,27.77252,233.6997],[-100.20191,27.7821,233.208],[-100.189,27.79081,220.5322],[-100.18186,27.79355,207.0895],[-100.16874,27.78365,213.4955],[-100.15561,27.77373,218.5563],[-100.14249,27.76381,203.6417],[-100.12931,27.75391,201.5602],[-100.09701,27.72947,223.8217],[-100.06466,27.70503,226.3636],[-100.03236,27.68064,227.3793],[-100.00007,27.65622,239.9038],[-99.99221,27.64906,228.1802],[-99.98405,27.64167,218.6549],[-99.97568,27.63762,219.0032],[-99.9672,27.64017,213.5329],[-99.95309,27.6518,204.0983],[-99.93898,27.6634,216.292],[-99.92483,27.67503,212.9364],[-99.91077,27.68663,207.566],[-99.88514,27.70828,188.1839],[-99.85956,27.73017,175.1822],[-99.83351,27.75154,152.9717],[-99.80726,27.7712,156.7354],[-99.80696,27.77142,156.7354],[-99.80817,27.77241,142.6415],[-99.83292,27.77676,145.1648],[-99.83297,27.78218,161.762],[-99.84478,27.79358,170.7616],[-99.85824,27.80352,167.668],[-99.86336,27.80466,151.1824],[-99.86473,27.81432,155.6122],[-99.86186,27.83608,171.8228],[-99.86336,27.84567,162.9306],[-99.87093,27.85448,168.5135],[-99.8802,27.85923,164.8291],[-99.88801,27.86481,153.7614],[-99.89129,27.87603,160.2144],[-99.88268,27.89158,162.0027],[-99.87881,27.90184,165.4087],[-99.88134,27.90646,158.587],[-99.89677,27.91292,173.0786],[-99.91434,27.92824,159.0065],[-99.92992,27.94633,159.7602],[-99.93968,27.96109,161.8913],[-99.92829,27.97576,161.614],[-99.94072,27.98325,147.0083],[-99.96185,27.98749,159.9717],[-99.97661,27.99245,164.582],[-99.99113,28.0078,176.2356],[-100.00058,28.02041,162.7158],[-100.00746,28.03356,163.0562],[-100.01412,28.05046,154.4076],[-100.0135,28.05697,174.5852],[-100.01051,28.06361,191.8286],[-100.0102,28.06888,196.427],[-100.01759,28.07095,174.7908],[-100.03154,28.0818,166.5015],[-100.04508,28.09529,177.7174],[-100.04802,28.10252,174.4462],[-100.0489,28.11596,183.7974],[-100.0565,28.13792,190.9419],[-100.07489,28.15441,191.3883],[-100.17287,28.19854,180.9582],[-100.1892,28.20133,174.5307],[-100.19763,28.20717,181.3165],[-100.20119,28.22035,187.3045],[-100.20295,28.23443,200.9917],[-100.20595,28.24288,212.9985],[-100.21282,28.24507,204.0511],[-100.24072,28.2497,194.5407],[-100.25793,28.26052,196.4369],[-100.27509,28.27724,188.8507],[-100.28434,28.29652,198.8715],[-100.27793,28.31489,209.62],[-100.27855,28.33109,201.5569],[-100.2939,28.35341,220.4427],[-100.32263,28.3869,194.2181],[-100.33167,28.42201,207.3262],[-100.33633,28.45857,208.8359],[-100.3402,28.46426,222.212],[-100.34831,28.47025,214.5496],[-100.35555,28.47819,216.8475],[-100.35679,28.48932,202.6487],[-100.35162,28.49671,203.3868],[-100.32263,28.51041,228.7204],[-100.36402,28.5248,207.4741],[-100.38423,28.53717,224.3677],[-100.39777,28.55759,230.3705],[-100.39875,28.56864,202.3427],[-100.3971,28.59273,212.079],[-100.40144,28.60226,232.5795],[-100.41146,28.60931,212.0901],[-100.43482,28.61913,218.8208],[-100.44619,28.6265,203.1801],[-100.4449,28.64378,214.6411],[-100.48138,28.68605,231.9053],[-100.49394,28.70838,229.7671],[-100.51905,28.80496,256.6134],[-100.525,28.81483,259.6541],[-100.52929,28.81995,255.5921],[-100.53445,28.83023,252.5174],[-100.53864,28.83563,254.4287],[-100.54515,28.83899,246.6523],[-100.55967,28.83938,237.769],[-100.56623,28.8425,243.5293],[-100.5697,28.84961,247.2345],[-100.56334,28.86209,231.4377],[-100.56623,28.86979,232.3628],[-100.57176,28.8732,225.826],[-100.58654,28.87979,227.3455],[-100.58954,28.88346,226.5131],[-100.59497,28.89932,232.9884],[-100.60696,28.91012,231.0275],[-100.61884,28.91793,233.6591],[-100.62432,28.92472,236.1093],[-100.62478,28.93777,236.3205],[-100.6267,28.94834,239.6839],[-100.63078,28.95668,243.4929],[-100.63791,28.96288,239.8115],[-100.62892,28.98433,243.6246],[-100.63279,29.00516,257.6653],[-100.65222,29.04482,270.1096],[-100.66085,29.10267,264.0199],[-100.66897,29.11621,255.4382],[-100.67817,29.11941,252.4864],[-100.69083,29.12101,253.346],[-100.70204,29.12365,257.1463],[-100.70685,29.13019,254.5424],[-100.70974,29.13556,254.9748],[-100.7625,29.17378,261.6796],[-100.7701,29.18729,256.3271],[-100.76209,29.20866,265.6927],[-100.78317,29.24307,264.4088],[-100.79614,29.25767,293.0284],[-100.81609,29.27077,266.3329],[-100.86389,29.29062,271.9272],[-100.8718,29.29646,279.2116],[-100.89123,29.31855,269.0591],[-100.91474,29.33705,275.7306],[-100.9874,29.36632,284.0055],[-100.9983,29.37247,301.1553],[-101.00807,29.38059,300.5021],[-101.01623,29.39007,291.0442],[-101.02218,29.40048,290.2489],[-101.02595,29.41436,302.0518],[-101.02962,29.44298,324.7466],[-101.03778,29.46006,341.5338],[-101.06796,29.46949,327.0],[-101.13478,29.48766,327.0],[-101.16356,29.5013,331.7719],[-101.18271,29.52236,327.0],[-101.19142,29.52815,327.0],[-101.20178,29.53065,333.9189],[-101.21286,29.53158,327.0],[-101.22278,29.54078,349.4379],[-101.22648,29.55445,375.7304],[-101.21777,29.58419,364.8139],[-101.21901,29.61029,378.886],[-101.23392,29.62266,390.7476],[-101.25878,29.62016,362.7248],[-101.28358,29.60781,345.4955],[-101.30097,29.59414,379.9451],[-101.31216,29.59786,327.0],[-101.31087,29.61277,327.0],[-101.30273,29.63385,334.8888],[-101.30107,29.64951,339.8867],[-101.30978,29.65455,352.7076],[-101.33624,29.65432,383.7036],[-101.34903,29.6601,335.4132],[-101.35768,29.66744,391.0628],[-101.36435,29.67667,392.7294],[-101.37662,29.70064,338.7871],[-101.38337,29.7185,408.5862],[-101.39962,29.74072,411.8706],[-101.40654,29.75289,410.8198],[-101.40931,29.76578,405.4046],[-101.4051,29.77844,414.5701],[-101.41401,29.77441,404.5733],[-101.42422,29.77141,406.2043],[-101.4351,29.77012,432.218],[-101.4461,29.77105,436.7602],[-101.45569,29.77591,344.7515],[-101.46243,29.78893,345.0854],[-101.47091,29.79152,414.3399],[-101.49029,29.78555,407.4415],[-101.50576,29.77389,407.6255],[-101.52181,29.76594,379.5071],[-101.54289,29.77105,371.4873],[-101.53969,29.77919,369.706],[-101.53052,29.79648,396.735],[-101.5286,29.80144,394.1002],[-101.53191,29.8111,418.0766],[-101.53917,29.81797,419.6871],[-101.54646,29.82014,408.8528],[-101.54977,29.8157,388.8382],[-101.55398,29.79668,401.0775],[-101.56491,29.78648,410.3602],[-101.58028,29.78157,389.0335],[-101.63222,29.77565,421.8137],[-101.79453,29.79586,407.0663],[-101.80298,29.80144,363.9526],[-101.80598,29.81193,433.0969],[-101.8127,29.81203,377.1567],[-101.82409,29.80518,382.9131],[-101.8576,29.80518,374.372],[-101.87752,29.81084,435.1178],[-101.88742,29.81229,486.1075],[-101.89546,29.80862,461.8555],[-101.90238,29.80325,430.9028],[-101.91088,29.79989,411.0047],[-101.92016,29.79818,420.085],[-101.92961,29.79772,465.9999],[-101.94266,29.80361,388.768],[-101.95705,29.81405,442.2014],[-101.97225,29.81818,420.582],[-101.98793,29.80518,448.7324],[-102.0146,29.811,530.1236],[-102.10934,29.80211,446.4278],[-102.14565,29.8157,431.6479],[-102.15725,29.82454,463.6266],[-102.20368,29.84614,469.0241],[-102.23978,29.84914,459.3947],[-102.25344,29.85528,442.6392],[-102.25828,29.87347,527.2596],[-102.27618,29.86955,534.0697]]]}
,"properties": {"ISO3166-1-Alpha-3": "MEX","country": "Mexico","fill": "#FF0","name": "Coahuila","area_km2": 151228.47,"hist_schema_id": "Elevation0-9000","hist_area_km2": {"125": 2.85,"150": 131.51,"175": 454.15,"200": 785.87,"225": 937.61,"250": 1801.5,"275": 2453.67,"300": 2343.81,"325": 2349.14,"350": 2226.57,"375": 2272.46,"400": 2375.55,"425": 2283.38,"450": 2169.07,"475": 2005.8,"500": 2062.21,"525": 1947.24,"550": 1753.12,"575": 1600.37,"600": 1467.94,"625": 1361.54,"650": 1271.97,"675": 1211.53,"700": 1439.63,"725": 1336.08,"750": 1224.54,"775": 1250.2,"800": 1491.91,"825": 1584.9,"850": 1904.82,"875": 1810.61,"900": 1763.59,"925": 1815.21,"950": 1801.49,"975": 1762.77,"1000": 1746.44,"1025": 1829.79,"1050": 3362.45,"1075": 4106.29,"1100": 9763.75,"1125": 4793.93,"1150": 4204.16,"1175": 3858.33,"1200": 3565.74,"1225": 3402.03,"1250": 3332.65,"1275": 3261.17,"1300": 3071.31,"1325": 2874.6,"1350": 2699.22,"1375": 2507.15,"1400": 2313.1,"1425": 2146.97,"1450": 2056.99,"1475": 1967.69,"1500": 1827.19,"1525": 1712.78,"1550": 1554.56,"1575": 1422.63,"1600": 1317.82,"1625": 1212.64,"1650": 1281.09,"1675": 1168.03,"1700": 1068.52,"1725": 1220.35,"1750": 1096.48,"1775": 929.09,"1800": 859.89,"1825": 804.77,"1850": 754.92,"1875": 745.19,"1900": 720.47,"1925": 644.26,"1950": 581.26,"1975": 549.84,"2000": 502.86,"2025": 484.37,"2050": 473.75,"2075": 429.57,"2100": 412.49,"2125": 381.83,"2150": 345.59,"2175": 315.43,"2200": 295.05,"2225": 268.42,"2250": 229.83,"2275": 213.16,"2300": 197.42,"2325": 177.39,"2350": 157.71,"2375": 138.62,"2400": 122.87,"2425": 112.38,"2450": 101.18,"2475": 92.9,"2500": 84.54,"2525": 77.67,"2550": 73.76,"2575": 67.54,"2600": 61.64,"2625": 54.85,"2650": 50.71,"2675": 45.97,"2700": 41.35,"2725": 37.17,"2750": 35.1,"2775": 31.95,"2800": 28.22,"2825": 24.87,"2850": 23.15,"2875": 21.03,"2900": 18.94,"2925": 17.87,"2950": 16.97,"2975": 15.87,"3000": 13.36,"3025": 12.58,"3050": 12.15,"3075": 12.79,"3100": 11.35,"3125": 10.62,"3150": 9.82,"3175": 10.74,"3200": 9.61,"3225": 9.89,"3250": 7.78,"3275": 6.17,"3300": 5.52,"3325": 4.64,"3350": 4.18,"3375": 2.93,"3400": 2.3,"3425": 1.69,"3450": 1.46,"3475": 1.19}}}