{"type":"Feature","properties":{"featurecla":"River","scalerank":10,"rivernum":22984,"dissolve":"22984River","name":"Nasas2","name_alt":null,"note":"ID is link back to CEC data","name_full":"Rio Nasas","min_zoom":6.0,"strokeweig":0.2,"uident":2007001,"min_label":7.0},
"geometry":{"type": "LineString","coordinates": [[-103.1144099600204,25.714951890098206,1106.668],[-103.13512122304122,25.722601629681535,1109.0945],[-103.1527400381454,25.742743231244035,1109.7145],[-103.16266842356207,25.749538478639863,1108.5321],[-103.17186438710372,25.755723374473206,1108.6394],[-103.21519934804122,25.765082098431535,1109.1123],[-103.24274654856207,25.762640692181535,1109.8606],[-103.2611384756454,25.752549546348206,1110.1145],[-103.28673255116622,25.722357489056535,1112.1082],[-103.3004451162704,25.714056707806535,1111.179],[-103.30736243397872,25.712673244264863,1113.9028],[-103.32017981679122,25.698757228639863,1114.9768],[-103.3326716787704,25.683539129681535,1113.4812],[-103.35057532460372,25.674872137494035,1116.1074],[-103.35899817616622,25.662787176556535,1116.3191],[-103.3648982412704,25.648382879681535,1117.3052],[-103.37523352772872,25.632676499473206,1121.0336],[-103.38451087147872,25.623155015098206,1121.3601],[-103.39305579335372,25.614569403119035,1122.5543],[-103.40147864491622,25.605495509889863,1124.8711],[-103.40990149647872,25.594427801556535,1126.507],[-103.4181208975204,25.587754624473206,1127.2275],[-103.4291072256454,25.583766994264863,1124.4619],[-103.44050045481207,25.579046942181535,1124.2485],[-103.44994055897872,25.570339259889863,1123.4512],[-103.4632869131454,25.560614324994035,1129.4883],[-103.47712154856207,25.551825262494035,1131.0444],[-103.48778235585372,25.540961004681535,1131.9059],[-103.50715084543707,25.542995509889863,1133.9563],[-103.5316462881454,25.522040106244035,1146.8564],[-103.5433650381454,25.519639390098206,1216.2069],[-103.5794978506454,25.520819403119035,1142.7693],[-103.63825436106207,25.511908270306535,1215.887],[-103.6498103506454,25.505235093223206,1150.5793],[-103.66315670481207,25.487656968223206,1153.7056],[-103.73981686106207,25.463242905723206,1163.6094],[-103.75397701731207,25.440619207806535,1174.9188],[-103.75007076731207,25.376817124473206,1238.396],[-103.74811764231207,25.361192124473206,1391.7612],[-103.7455134756454,25.340887762494035,1291.7349],[-103.74299068918707,25.320257879681535,1317.5138],[-103.74128170481207,25.301336981244035,1322.5812],[-103.74299068918707,25.288926499473206,1662.8445],[-103.7489314443954,25.284043686973206,1241.1688],[-103.75951087147872,25.280544338014863,1356.7258],[-103.76646887929122,25.276231186973206,1189.5543]]}}