{"type":"Feature","properties":{"featurecla":"River","scalerank":8,"rivernum":697,"dissolve":"697River","name":"San16","name_alt":null,"note":null,"min_zoom":7.0,"strokeweig":0.15,"name_en":"San Juan","min_label":8.0},
"geometry":{"type": "LineString","coordinates": [[-100.269287109375,25.238055731244117,1463.4454],[-100.18315429687499,25.177264715619117,1165.2408],[-100.150634765625,25.13934967655662,1091.0459],[-100.12651367187499,25.090594793744117,1015.8278],[-100.11906738281249,25.07025787968162,1595.3408],[-100.11052246093749,25.054071356244123,1349.8225],[-100.09819335937499,25.041376043744123,969.4745],[-100.0791015625,25.03131744999412,939.0303],[-100.05107421874999,25.02558014530662,848.4327],[-100.026611328125,25.02887604374412,1187.8429],[-99.975830078125,25.04352448124412,1087.7106],[-99.964404296874989,25.043231512494117,707.4465],[-99.94091796875,25.039178778119123,757.1873],[-99.929980468749989,25.04242584843162,605.3086],[-99.919604492187489,25.056512762494123,565.0257],[-99.905615234374991,25.116229559369117,550.267],[-99.891357421875,25.137811590619123,479.0495],[-99.874121093749991,25.15192291874412,458.1002],[-99.854418945312489,25.160663153119117,436.5055],[-99.832446289062489,25.166522528119117,485.4789]]}}