{"type":"Feature","properties":{"featurecla":"River","scalerank":10,"rivernum":22987,"dissolve":"22987River","name":"Pesqueria1","name_alt":null,"note":"ID is link back to CEC data","name_full":"Pesqueria","min_zoom":6.0,"strokeweig":0.2,"uident":2006801,"min_label":7.0},
"geometry":{"type": "LineString","coordinates": [[-99.1788630850204,25.923447983848206,111.2095],[-99.2081599600204,25.906317449994035,116.2807],[-99.224191861062067,25.901922918744035,118.6967],[-99.2403865225204,25.901475327598206,117.2393],[-99.2667537100204,25.915798244264863,116.1198],[-99.282338019916224,25.917507228639863,120.6444],[-99.297596808978724,25.913682358848206,133.7696],[-99.310902473041224,25.918402410931535,130.0734],[-99.3219294912704,25.934149481244035,131.0905],[-99.343088345437067,25.919460353639863,138.2072],[-99.393055793353724,25.907985744264863,144.7893],[-99.416086392312067,25.906113999473206,144.5332],[-99.428049282937067,25.864569403119035,151.6353],[-99.4420466787704,25.846991278119035,160.0436],[-99.4667048818954,25.844346421348206,163.8142],[-99.4796443350204,25.834824936973206,165.5291],[-99.5167537100204,25.809759832806535,172.5771],[-99.544667121478724,25.753037827598206,185.0368],[-99.552357551166224,25.738592840619035,185.5655],[-99.564279751687067,25.731553452598206,189.9235],[-99.588612433978724,25.735052801556535,198.7662],[-99.596506314187067,25.731227931764863,199.5654],[-99.623117642312067,25.705674546348206,207.5219],[-99.633168098041224,25.699977931764863,210.8945],[-99.649484829812067,25.680283921348206,217.0367],[-99.6661677725204,25.670233465619035,225.4565],[-99.700550910541224,25.662176824994035,233.8125],[-99.7179255850204,25.664252020306535,238.7387],[-99.762766079812067,25.686306056764863,249.7037],[-99.798451301166224,25.722194728639863,255.8867],[-99.8304744131454,25.744655666139863,275.4725],[-99.889963345437067,25.756048895306535,280.493],[-99.9066462881454,25.760768947389863,292.2674],[-99.938832160541224,25.762803452598206,298.8224],[-99.986887173562067,25.773260809369035,301.0121],[-100.00426184804122,25.802354233848206,318.0735],[-100.02965247304122,25.816270249473206,319.5378],[-100.03783118397872,25.825303452598206,327.4323],[-100.0865779287704,25.894354559369035,353.7553],[-100.0985408193954,25.895697332806535,362.7525],[-100.13255774647872,25.919134832806535,367.597],[-100.1676326162704,25.932725327598206,375.6694],[-100.17577063710372,25.941839910931535,403.4337],[-100.1971736318954,25.967718817181535,404.0415],[-100.2118220693954,25.984401759889863,413.1226],[-100.24738522043707,25.990016994264863,413.8727],[-100.2731013662704,25.982041733848206,436.581],[-100.30821692616622,25.962266343223206,461.9698],[-100.34178626210372,25.938828843223206,468.2679],[-100.36799068918707,25.934108791139863,494.3631],[-100.3932185537704,25.941514390098206,491.7956],[-100.4227595693954,25.959743556764863,513.5366],[-100.44884192616622,25.982936916139863,537.8484],[-100.4669490225204,25.992783921348206,561.6715],[-100.5096736318954,25.998561916139863,570.0183],[-100.5318904287704,25.998968817181535,585.3122],[-100.56371009022872,25.993841864056535,606.1711],[-100.5929255850204,25.983994858848206,598.9172],[-100.61620032460372,25.978623765098206,606.1299],[-100.64191647043707,25.973211981244035,612.6577],[-100.6576228506454,25.965277410931535,626.9775],[-100.6747126943954,25.960638739056535,678.5269],[-100.68126380116622,25.952175197389863,633.4471],[-100.70710201731207,25.945379949994035,648.4568],[-100.71873938710372,25.939072983848206,653.652],[-100.72858639231207,25.916856186973206,832.4338],[-100.74071204335372,25.904364324994035,742.4921],[-100.75300045481207,25.904323634889863,689.1727],[-100.78868567616622,25.923163153119035,715.1553],[-100.8172908193954,25.923610744264863,730.2933],[-100.83112545481207,25.927354233848206,731.5435],[-100.90265865793707,25.946966864056535,765.1237],[-100.91454016835372,25.966376043744035,763.0613],[-100.9474177725204,25.977321681764863,776.1467],[-100.9840388662704,25.976629949994035,795.0066],[-101.00792395741622,25.983832098431535,830.6462],[-101.06932532460372,25.991400457806535,825.0174],[-101.08234615793707,25.995957749473206,826.4843],[-101.11896725168707,26.0208600932232,845.4147],[-101.13068600168707,26.024359442181535,850.9899],[-101.1524958975204,26.016058660931535,861.6255],[-101.20433509022872,26.0294050150982,884.0626],[-101.22175045481207,26.02834707238987,892.9618],[-101.2342830068954,26.02297597863987,898.8783],[-101.26549231679122,25.981472072389863,930.0333],[-101.26366126210372,25.951483465619035,935.3578],[-101.27879798085372,25.885606186973206,971.2306],[-101.30040442616622,25.853583074994035,1001.0948],[-101.32518469960372,25.791571356244035,1044.7944],[-101.34406490793707,25.767604884889863,1059.3561],[-101.35090084543707,25.753770249473206,1064.0823],[-101.35289466054122,25.737656968223206,1068.0559],[-101.3731990225204,25.700954494264863,1100.9049],[-101.3700251943954,25.672796942181535,1096.8146],[-101.37531490793707,25.643093166139863,1116.7039],[-101.38634192616622,25.637559311973206,1126.8235],[-101.43773352772872,25.558213608848206,1198.316]]}}