{"type": "Feature","bbox": [-88.6931,20.7282,-88.4093,20.9376],"geometry": {"type": "MultiPolygon","coordinates": [[[[-88.6007,20.878,30.3957],[-88.5986,20.8777,32.6217],[-88.6022,20.8638,28.8072],[-88.5878,20.8602,33.0376],[-88.5888,20.8438,29.0069],[-88.5794,20.843,31.619],[-88.5764,20.8497,32.4656],[-88.5765,20.8608,32.7027],[-88.5657,20.8567,29.7063],[-88.5709,20.8366,33.9759],[-88.5921,20.8111,34.1663],[-88.6207,20.8229,29.619],[-88.6221,20.8008,30.4612],[-88.639,20.8076,31.5642],[-88.6407,20.7915,33.9332],[-88.6461,20.7742,26.7126],[-88.6595,20.7837,26.9123],[-88.663,20.7623,25.7395],[-88.6663,20.765,33.8404],[-88.6672,20.761,32.4548],[-88.6883,20.7636,20.7151],[-88.6931,20.7523,17.9711],[-88.6891,20.7497,17.0037],[-88.6688,20.7456,22.005],[-88.6664,20.7499,22.5909],[-88.6482,20.7475,25.378],[-88.6435,20.7484,29.8646],[-88.6426,20.7529,28.5861],[-88.6412,20.7526,30.5809],[-88.6364,20.7793,31.2331],[-88.622,20.7773,30.4878],[-88.6262,20.7447,28.7423],[-88.5914,20.746,29.0622],[-88.5916,20.7486,28.5467],[-88.5767,20.747,27.0383],[-88.5728,20.7282,27.0134],[-88.5558,20.733,33.4814],[-88.5388,20.7416,36.7658],[-88.5282,20.7446,32.6637],[-88.5195,20.7444,38.5987],[-88.5039,20.7404,31.9258],[-88.503,20.744,31.103],[-88.506,20.745,36.7002],[-88.5025,20.7571,37.4034],[-88.5181,20.7584,37.9046],[-88.517,20.7685,32.7171],[-88.5139,20.7793,33.6134],[-88.5036,20.7787,38.476],[-88.5053,20.7841,33.3682],[-88.5042,20.7882,37.0251],[-88.5015,20.791,33.5979],[-88.4867,20.7877,37.2945],[-88.4912,20.7718,35.6296],[-88.4808,20.7684,37.16],[-88.4797,20.7731,34.3626],[-88.4834,20.7748,36.3863],[-88.48,20.7941,37.9208],[-88.4768,20.8017,35.0257],[-88.4929,20.8056,33.8631],[-88.4888,20.8142,28.7792],[-88.4857,20.827,29.2468],[-88.4808,20.833,31.908],[-88.4772,20.8326,32.9597],[-88.4755,20.8387,35.3204],[-88.4772,20.8422,35.5772],[-88.4775,20.8573,28.018],[-88.4632,20.8558,35.3016],[-88.4553,20.8414,36.0617],[-88.4514,20.8403,35.9418],[-88.4529,20.8322,35.56],[-88.4421,20.8274,36.0542],[-88.4282,20.8187,32.3825],[-88.4284,20.8266,36.5209],[-88.425299999999993,20.835,36.7007],[-88.4368,20.8485,36.0714],[-88.4469,20.8468,37.0314],[-88.4441,20.8499,34.7685],[-88.4375,20.865,36.8925],[-88.4342,20.8632,33.7997],[-88.4361,20.8543,34.3404],[-88.4244,20.8529,33.6223],[-88.4207,20.8556,34.9735],[-88.4213,20.8592,32.8821],[-88.4093,20.86,33.5889],[-88.4135,20.8699,35.6464],[-88.4141,20.8897,32.8814],[-88.4264,20.8894,34.1561],[-88.4287,20.9028,31.9928],[-88.4222,20.9129,26.0704],[-88.4361,20.9178,30.9549],[-88.4447,20.9179,33.4777],[-88.4419,20.9268,29.6471],[-88.4398,20.9283,30.7153],[-88.4387,20.9345,29.2995],[-88.4484,20.9369,30.7794],[-88.4522,20.936,31.3955],[-88.4576,20.9282,34.521],[-88.4644,20.9232,32.9349],[-88.4706,20.9242,33.9298],[-88.4816,20.9331,25.0988],[-88.4877,20.9339,27.7811],[-88.49,20.9325,31.5899],[-88.4953,20.9334,29.5238],[-88.4983,20.9361,28.0315],[-88.5136,20.9356,30.1478],[-88.5196,20.9376,27.4725],[-88.5231,20.9204,34.1636],[-88.5324,20.9029,34.9537],[-88.547,20.905,32.0029],[-88.5582,20.903,26.6569],[-88.5654,20.9068,30.6724],[-88.5643,20.9133,31.5145],[-88.5755,20.9148,30.6473],[-88.5823,20.9184,30.5984],[-88.5877,20.9006,31.7943],[-88.6004,20.9055,25.9713],[-88.6007,20.878,30.3957]]]]}
,"properties": {"GID_2": "MEX.31.30_2","GID_0": "MEX","country": "México","GID_1": "MEX.31_1","province": "Yucatán","NL_NAME_1": "NA","county": "Dzitás","VARNAME_2": "NA","NL_NAME_2": "NA","TYPE_2": "Município","ENGTYPE_2": "Municipality","CC_2": "NA","HASC_2": "NA","name": "Dzitás.county","area_km2": 310.9875,"hist_schema_id": "Elevation0-9000","hist_area_km2": {"0": 0.0198,"25": 305.8339,"50": 5.1338}}}