{"type":"Feature","properties":{"GID_2":"MEX.20.384_2","GID_0":"MEX","country":"México","GID_1":"MEX.20_1","province":"Oaxaca","NL_NAME_1":"NA","county":"SantaCruzPapalutla","VARNAME_2":"NA","NL_NAME_2":"NA","TYPE_2":"Município","ENGTYPE_2":"Municipality","CC_2":"NA","HASC_2":"NA","name":"Santa_Cruz_Papalutla.county"},
"geometry":{"type": "MultiPolygon","coordinates": [[[[-96.5677,16.9338,1634.8933],[-96.5676,16.9468,1610.0801],[-96.5711,16.9477,1607.5524],[-96.5684,16.9629,1581.1027],[-96.5702,16.9706,1572.0581],[-96.594,16.9777,1566.9659],[-96.603,16.9425,1599.3862],[-96.5858,16.9299,1628.0168],[-96.5815,16.9312,1628.6438],[-96.5677,16.9304,1654.5708],[-96.5677,16.9338,1634.8933]]]]}}