{"type": "Feature","bbox": [-98.5614,21.1093,-98.4914,21.1977],"geometry": {"type": "MultiPolygon","coordinates": [[[[-98.5267,21.197,176.5913],[-98.5289,21.1955,168.9932],[-98.5227,21.1881,107.4776],[-98.5233,21.1833,111.3289],[-98.5274,21.1859,116.736],[-98.5277,21.1832,113.8376],[-98.5294,21.1823,115.368],[-98.5392,21.1833,125.0223],[-98.5412,21.1766,133.0996],[-98.5516,21.1695,187.7127],[-98.5482,21.1656,149.5708],[-98.5486,21.163,168.4464],[-98.5551,21.1595,177.9633],[-98.556,21.1575,186.6285],[-98.5611,21.1564,179.297],[-98.5614,21.1545,182.0179],[-98.5564,21.1502,194.8612],[-98.5545,21.1409,225.8932],[-98.5498,21.132,266.3034],[-98.5553,21.1211,291.9104],[-98.5514,21.1218,332.8691],[-98.5553,21.1144,380.9609],[-98.5531,21.1136,355.6275],[-98.5536,21.1102,388.2796],[-98.5487,21.1093,453.0334],[-98.5395,21.1109,496.2231],[-98.5384,21.1155,289.9465],[-98.5346,21.1104,390.911],[-98.5278,21.1151,483.7141],[-98.526,21.1139,483.7141],[-98.5245,21.1151,477.5712],[-98.5214,21.1254,403.0067],[-98.517,21.1246,451.156],[-98.5086,21.1309,201.6051],[-98.5103,21.1258,230.9919],[-98.5066,21.1245,285.4986],[-98.5009,21.1323,328.7316],[-98.4986,21.1385,196.9759],[-98.4917,21.1439,391.4986],[-98.4914,21.1452,391.4986],[-98.4935,21.1464,289.2003],[-98.4929,21.1541,222.1582],[-98.4942,21.1557,209.3152],[-98.4922,21.1581,184.1256],[-98.4959,21.1606,196.6374],[-98.4966,21.1645,193.2741],[-98.4989,21.1637,194.5717],[-98.502,21.165,134.7606],[-98.5029,21.168,131.2689],[-98.5063,21.1679,134.7236],[-98.5068,21.1698,142.1239],[-98.5111,21.1713,155.3129],[-98.5202,21.1723,125.2825],[-98.5196,21.1751,124.8338],[-98.5168,21.1745,119.5623],[-98.5147,21.1766,116.9338],[-98.5188,21.1867,109.1581],[-98.5178,21.1904,106.0522],[-98.5251,21.1977,146.4096],[-98.5267,21.197,176.5913]]]]}
,"properties": {"GID_2": "MEX.13.32_2","GID_0": "MEX","country": "México","GID_1": "MEX.13_1","province": "Hidalgo","NL_NAME_1": "NA","county": "Jaltocán","VARNAME_2": "NA","NL_NAME_2": "NA","TYPE_2": "Município","ENGTYPE_2": "Municipality","CC_2": "NA","HASC_2": "NA","name": "Jaltocán.county","area_km2": 38.63882,"hist_schema_id": "Elevation0-9000","hist_area_km2": {"100": 0.514,"125": 3.83552,"150": 6.14919,"175": 6.24834,"200": 5.2006,"225": 4.31094,"250": 3.34207,"275": 2.72913,"300": 1.68103,"325": 1.18665,"350": 1.16689,"375": 0.69222,"400": 0.59335,"425": 0.35601,"450": 0.41534,"475": 0.15823,"500": 0.05934}}}