{"type": "Feature","bbox": [-97.5274,16.9309,-97.4169,17.0791],"geometry": {"type": "MultiPolygon","coordinates": [[[[-97.464,16.9379,1240.0066],[-97.4512,16.9309,1068.4757],[-97.4463,16.9319,995.1151],[-97.4434,16.9339,973.7223],[-97.4464,16.938,975.041],[-97.437,16.9409,982.6799],[-97.436,16.945,998.8674],[-97.4282,16.9513,1102.4969],[-97.4248,16.9492,1121.2328],[-97.4212,16.951,1133.2227],[-97.4225,16.976,1668.4596],[-97.4169,16.9968,1602.74],[-97.4218,17.0179,1804.9688],[-97.4197,17.0237,1758.9907],[-97.4404,17.0254,1352.6042],[-97.4443,17.0273,1342.2205],[-97.4476,17.032,1418.2017],[-97.4474,17.0341,1467.078],[-97.4519,17.0361,1461.1611],[-97.4547,17.0409,1460.2246],[-97.4542,17.0489,1498.808],[-97.4579,17.0614,1665.6353],[-97.456,17.0666,1608.1818],[-97.4606,17.0748,1809.0116],[-97.4632,17.0769,1864.9346],[-97.4757,17.0791,2132.1016],[-97.4786,17.0762,2281.6157],[-97.4902,17.0712,2491.9993],[-97.5126,17.0683,2227.9189],[-97.5184,17.0456,2463.623],[-97.519,17.0373,2548.0771],[-97.5274,17.0179,2757.3599],[-97.5274,17.0117,2687.0007],[-97.5248,16.9978,2813.0054],[-97.5179,16.9795,2901.5962],[-97.5099,16.9832,2721.9795],[-97.4991,16.9772,2301.6389],[-97.4877,16.9759,2079.5029],[-97.4824,16.9736,1941.0094],[-97.4771,16.9659,1674.4836],[-97.464,16.9379,1240.0066]]]]}
,"properties": {"GID_2": "MEX.20.299_2","GID_0": "MEX","country": "México","GID_1": "MEX.20_1","province": "Oaxaca","NL_NAME_1": "NA","county": "SanPabloTijaltepec","VARNAME_2": "NA","NL_NAME_2": "NA","TYPE_2": "Município","ENGTYPE_2": "Municipality","CC_2": "NA","HASC_2": "NA","name": "San_Pablo_Tijaltepec.county","area_km2": 117.83796,"hist_schema_id": "Elevation0-9000","hist_area_km2": {"975": 0.3448,"1000": 0.14198,"1025": 0.16226,"1050": 0.18254,"1075": 0.3448,"1100": 0.40562,"1125": 0.58815,"1150": 0.64898,"1175": 0.95309,"1200": 1.15592,"1225": 1.6425399999999999,"1250": 1.5614,"1275": 1.66281,"1300": 2.00751,"1325": 1.74391,"1350": 1.96693,"1375": 1.94663,"1400": 2.75774,"1425": 2.98076,"1450": 3.20381,"1475": 3.10244,"1500": 2.96036,"1525": 2.87925,"1550": 2.51425,"1575": 2.61563,"1600": 2.45339,"1625": 2.5547,"1650": 2.08834,"1675": 2.45322,"1700": 2.12879,"1725": 2.51398,"1750": 1.84491,"1775": 1.98682,"1800": 2.27057,"1825": 1.94615,"1850": 1.39884,"1875": 1.8651199999999999,"1900": 2.02729,"1925": 1.64215,"1950": 1.72321,"1975": 1.66238,"2000": 2.2097,"2025": 2.08816,"2050": 1.70293,"2075": 1.52046,"2100": 2.02727,"2125": 1.66235,"2150": 2.41235,"2175": 2.33131,"2200": 1.47985,"2225": 2.00693,"2250": 2.02726,"2275": 2.49348,"2300": 2.10834,"2325": 1.8854,"2350": 1.60158,"2375": 1.35828,"2400": 1.66251,"2425": 1.35839,"2450": 1.39894,"2475": 1.48004,"2500": 1.1151199999999999,"2525": 1.05431,"2550": 0.93264,"2575": 0.70964,"2600": 0.60826,"2625": 0.46632,"2650": 0.50689,"2675": 0.44606,"2700": 0.56772,"2725": 0.44607,"2750": 0.40551,"2775": 0.24331,"2800": 0.10138,"2825": 0.20277,"2850": 0.14194,"2875": 0.04056}}}