{"type":"Feature","properties":{"GID_2":"MEX.21.25_2","GID_0":"MEX","country":"México","GID_1":"MEX.21_1","province":"Puebla","NL_NAME_1":"NA","county":"Axutla","VARNAME_2":"NA","NL_NAME_2":"NA","TYPE_2":"Município","ENGTYPE_2":"Municipality","CC_2":"NA","HASC_2":"NA","name":"Axutla.county"},
"geometry":{"type": "MultiPolygon","coordinates": [[[[-98.3563,18.2566,1351.0985],[-98.3572,18.2547,1381.199],[-98.3583,18.2631,1458.6975],[-98.3647,18.277,1647.6312],[-98.3653,18.2844,1685.342],[-98.3732,18.2899,1415.6582],[-98.3733,18.2819,1522.6104],[-98.3826,18.2755,1399.1667],[-98.3857,18.2713,1381.7274],[-98.3949,18.2711,1327.0171],[-98.3995,18.273,1217.9224],[-98.4103,18.2669,1091.2344],[-98.407,18.2617,1240.5007],[-98.3965,18.2582,1377.417],[-98.3958,18.2545,1427.0332],[-98.3975,18.25,1247.8282],[-98.4046,18.2474,1342.7035],[-98.4125,18.2525,1144.9821],[-98.4176,18.2525,1062.3889],[-98.4236,18.2562,1041.9116],[-98.4255,18.2548,1076.808],[-98.4406,18.2579,948.1416],[-98.4436,18.2611,935.9994],[-98.4453,18.2584,922.8055],[-98.4513,18.259,893.3522],[-98.454,18.2574,880.4351],[-98.4526,18.2493,862.9769],[-98.4558,18.2475,865.6411],[-98.4556,18.2437,912.9403],[-98.4575,18.2417,893.4408],[-98.4625,18.2412,853.5594],[-98.4575,18.2389,894.1009],[-98.4556,18.2358,914.5256],[-98.4517,18.2373,969.7981],[-98.4494,18.2363,984.2794],[-98.4503,18.2338,994.7357],[-98.4463,18.225,1050.3563],[-98.4348,18.2161,1191.8911],[-98.4359,18.2165,1174.8044],[-98.445,18.2036,964.3322],[-98.4432,18.202,949.2291],[-98.4434,18.1994,902.2501],[-98.4371,18.1972,892.1953],[-98.4359,18.1924,839.5519],[-98.4383,18.1857,847.2938],[-98.4335,18.1798,855.4956],[-98.4384,18.1777,838.7432],[-98.4445,18.1805,840.6741],[-98.4476,18.1693,955.2023],[-98.4438,18.1625,986.9955],[-98.436,18.1566,1022.952],[-98.4376,18.1509,1062.3525],[-98.4404,18.1506,1096.6007],[-98.4424,18.1478,1123.6527],[-98.4496,18.1444,1239.1005],[-98.4426,18.1386,1263.4915],[-98.4395,18.1379,1262.2744],[-98.4424,18.1315,1162.9075],[-98.4366,18.1273,1109.5067],[-98.434,18.1275,1116.3372],[-98.4309,18.1243,1088.1416],[-98.4322,18.1201,1080.5004],[-98.4299,18.1161,1062.2869],[-98.4306,18.1126,1067.4939],[-98.4328,18.1091,1043.6362],[-98.4359,18.1087,1034.2814],[-98.4353,18.1067,1051.0063],[-98.425,18.1068,1059.2249],[-98.4248,18.0986,1088.2206],[-98.4216,18.0981,1087.4463],[-98.4196,18.0955,1114.4625],[-98.418,18.0894,1127.3409],[-98.4117,18.087,1186.4805],[-98.4108,18.0839,1232.8191],[-98.4064,18.0832,1171.656],[-98.4059,18.0796,1194.7173],[-98.4045,18.0797,1194.7173],[-98.4042,18.0852,1187.9878],[-98.4013,18.0904,1115.8608],[-98.4014,18.0967,1093.4495],[-98.4004,18.0929,1104.8584],[-98.3894,18.0911,1197.3362],[-98.3866,18.0895,1273.799],[-98.3865,18.0871,1314.89],[-98.38,18.0927,1188.0808],[-98.3746,18.092,1157.4932],[-98.3693,18.0952,1134.168],[-98.3683,18.0979,1096.4678],[-98.3639,18.0982,1086.4866],[-98.3645,18.0999,1081.5778],[-98.3619,18.1004,1073.2183],[-98.3627,18.1017,1059.259],[-98.3567,18.1056,1058.1788],[-98.3572,18.1072,1067.411],[-98.3599,18.1069,1098.6956],[-98.3551,18.115,1027.1572],[-98.352,18.1168,998.2583],[-98.3485,18.1271,955.6331],[-98.3491,18.1291,950.7212],[-98.3441,18.1315,901.4974],[-98.3452,18.1329,922.8492],[-98.34,18.138,889.8102],[-98.3525,18.1435,911.4603],[-98.3555,18.1556,989.2984],[-98.3533,18.1588,1042.514],[-98.3549,18.1643,889.561],[-98.3568,18.1651,886.0369],[-98.3573,18.1712,886.4433],[-98.3599,18.1765,875.2869],[-98.3535,18.1806,943.3853],[-98.3533,18.1844,948.6089],[-98.3472,18.1855,1051.3997],[-98.3424,18.1975,1204.0],[-98.3367,18.2029,1191.6379],[-98.3333,18.2018,1228.7327],[-98.3271,18.2034,1336.2715],[-98.3286,18.2067,1293.5929],[-98.3283,18.2132,1186.7054],[-98.3349,18.219,1089.5393],[-98.342,18.2201,1038.8937],[-98.342,18.2234,1066.3489],[-98.3399,18.2249,1051.2927],[-98.3419,18.226,1046.2063],[-98.3408,18.2285,1048.1135],[-98.338,18.2301,1052.3112],[-98.3351,18.2293,1059.0176],[-98.3353,18.2319,1063.8445],[-98.3373,18.2334,1100.2035],[-98.3384,18.2383,1114.8494],[-98.3446,18.2419,1146.6555],[-98.3442,18.2449,1212.4866],[-98.3487,18.2493,1220.7781],[-98.3493,18.2532,1249.5771],[-98.3563,18.2566,1351.0985]]]]}}