{"type":"Feature","properties":{"GID_2":"MEX.20.282_2","GID_0":"MEX","country":"México","GID_1":"MEX.20_1","province":"Oaxaca","NL_NAME_1":"NA","county":"SanMiguelSuchixtepec","VARNAME_2":"NA","NL_NAME_2":"NA","TYPE_2":"Município","ENGTYPE_2":"Municipality","CC_2":"NA","HASC_2":"NA","name":"San_Miguel_Suchixtepec.county"},
"geometry":{"type": "MultiPolygon","coordinates": [[[[-96.4256,16.0984,1805.8298],[-96.4297,16.1022,1833.4191],[-96.4287,16.1063,1915.6405],[-96.4319,16.1088,1922.3842],[-96.4341,16.1177,1941.7965],[-96.4467,16.1273,2089.0813],[-96.4489,16.1276,2083.2747],[-96.4513,16.1253,2172.7476],[-96.4575,16.1239,2219.6758],[-96.4615,16.1243,2308.8235],[-96.4677,16.1094,2692.2361],[-96.4738,16.1157,2665.167],[-96.4763,16.1156,2706.1313],[-96.4832,16.1201,2707.8066],[-96.5127,16.1023,2928.0442],[-96.5108,16.0968,2784.1499],[-96.4984,16.0822,2469.9617],[-96.5155,16.0614,2326.4214],[-96.5135,16.0576,2330.3398],[-96.5049,16.0601,2066.791],[-96.5019,16.0639,2137.6206],[-96.5026,16.0593,2178.4858],[-96.5005,16.0579,2109.7268],[-96.4989,16.0588,2208.3965],[-96.4974,16.0631,2226.439],[-96.4958,16.0623,2200.0938],[-96.4923,16.0645,2182.7258],[-96.4898,16.0687,2204.3159],[-96.4901,16.0735,2240.7666],[-96.4921,16.0742,2276.6792],[-96.4907,16.0752,2276.6792],[-96.4947,16.0779,2321.2947],[-96.4928,16.0787,2321.2947],[-96.4916,16.077,2282.4978],[-96.4895,16.0798,2374.9172],[-96.489,16.0769,2319.7759],[-96.4859,16.077,2367.2075],[-96.4855,16.074,2350.9209],[-96.4794,16.0706,2377.272],[-96.4796,16.0683,2401.7009],[-96.4819,16.0664,2395.8477],[-96.4816,16.0637,2429.0117],[-96.4718,16.0507,2461.1482],[-96.4664,16.0457,2164.6318],[-96.4508,16.0427,1607.7883],[-96.4465,16.0381,1543.5833],[-96.4438,16.0301,1516.9257],[-96.4423,16.0297,1435.8708],[-96.4408,16.0327,1705.8455],[-96.4381,16.0331,1795.0977],[-96.4329,16.0385,2045.3201],[-96.4168,16.0317,1433.0664],[-96.4132,16.0376,1428.0142],[-96.4131,16.0406,1427.1456],[-96.4106,16.0425,1447.6193],[-96.4119,16.0456,1471.9022],[-96.4105,16.049,1484.3965],[-96.4122,16.0519,1516.9524],[-96.4094,16.0535,1512.8604],[-96.4099,16.0556,1589.0034],[-96.4124,16.0561,1547.2705],[-96.4114,16.0572,1565.6404],[-96.4156,16.0592,1577.2932],[-96.4158,16.0642,1573.929],[-96.4184,16.0662,1585.9729],[-96.4182,16.0709,1632.0952],[-96.4213,16.0732,1614.1876],[-96.4237,16.0712,1703.4351],[-96.4243,16.0731,1635.0717],[-96.4224,16.0749,1681.9774],[-96.4256,16.082,1743.0994],[-96.4243,16.0843,1691.9404],[-96.4266,16.084,1689.5367],[-96.4255,16.0864,1724.4918],[-96.4267,16.0884,1714.4071],[-96.4252,16.0907,1733.411],[-96.4271,16.0927,1765.1876],[-96.4252,16.0948,1741.2435],[-96.4265,16.0954,1741.2435],[-96.4256,16.0984,1805.8298]]]]}}