{"type":"Feature","properties":{"GID_2":"MEX.20.126_2","GID_0":"MEX","country":"México","GID_1":"MEX.20_1","province":"Oaxaca","NL_NAME_1":"NA","county":"SanBlasAtempa","VARNAME_2":"NA","NL_NAME_2":"NA","TYPE_2":"Município","ENGTYPE_2":"Municipality","CC_2":"NA","HASC_2":"NA","name":"San_Blas_Atempa.county"},
"geometry":{"type": "MultiPolygon","coordinates": [[[[-95.1198,16.4408,29.0671],[-95.1245,16.4413,30.1753],[-95.1244,16.4515,34.9946],[-95.1406,16.4572,46.4436],[-95.1529,16.4534,44.9633],[-95.1728,16.4387,45.4512],[-95.175299999999993,16.4335,43.4164],[-95.1784,16.4342,45.2186],[-95.1986,16.4233,46.3489],[-95.2009,16.4235,44.3007],[-95.1962,16.4086,34.3065],[-95.1833,16.3959,28.4404],[-95.2038,16.3715,31.7714],[-95.1835,16.3403,23.6069],[-95.1891,16.3383,26.5752],[-95.1885,16.3405,25.5589],[-95.1983,16.3401,28.0215],[-95.2128,16.3451,34.3889],[-95.2191,16.3326,36.369],[-95.2255,16.3327,88.2342],[-95.2262,16.33,40.9022],[-95.2281,16.3301,62.4185],[-95.2304,16.326,38.7346],[-95.2315,16.3264,28.7501],[-95.2183,16.32,28.7176],[-95.2167,16.3216,29.6076],[-95.2148,16.3208,30.693],[-95.189,16.3016,23.4259],[-95.1904,16.2823,20.1427],[-95.1848,16.2781,16.852],[-95.186,16.2697,13.5],[-95.1843,16.2668,17.1462],[-95.1749,16.271,15.0439],[-95.171,16.2693,14.7028],[-95.1716,16.2638,14.5499],[-95.1617,16.2647,16.4195],[-95.1601,16.2686,15.5572],[-95.1617,16.27,16.3827],[-95.1608,16.273,16.9219],[-95.1539,16.2689,15.7014],[-95.1547,16.2664,15.5731],[-95.152,16.2671,16.9282],[-95.1495,16.2637,13.6573],[-95.1358,16.2646,9.6502],[-95.1332,16.2661,11.0775],[-95.1235,16.2649,7.0803],[-95.1216,16.2725,10.0183],[-95.1242,16.2779,15.5429],[-95.1243,16.2835,11.3391],[-95.1191,16.2926,11.4357],[-95.1184,16.3023,11.5741],[-95.122,16.3071,12.0362],[-95.1113,16.3057,9.9987],[-95.1076,16.3036,9.1299],[-95.1042,16.3068,9.3802],[-95.0969,16.3068,9.126],[-95.0735,16.3316,5.953],[-95.0874,16.3659,35.0827],[-95.0956,16.3798,11.1064],[-95.0916,16.3883,12.4708],[-95.1019,16.3979,15.6013],[-95.0963,16.4139,16.8657],[-95.0964,16.42,17.8138],[-95.0858,16.4337,19.6241],[-95.1198,16.4339,27.3364],[-95.1198,16.4408,29.0671]]]]}}