{"type": "Feature","bbox": [-97.3815,16.3699,-97.1599,16.4991],"geometry": {"type": "MultiPolygon","coordinates": [[[[-97.3813,16.4525,471.6527],[-97.3788,16.4495,557.7375],[-97.3815,16.4442,516.7776],[-97.3722,16.4311,511.3806],[-97.3654,16.4292,509.7765],[-97.3641,16.4231,516.5533],[-97.3607,16.4187,533.2156],[-97.3519,16.4199,543.134],[-97.3453,16.417,564.0954],[-97.3425,16.42,575.0683],[-97.3337,16.423,588.4353],[-97.3307,16.4156,563.6541],[-97.3254,16.4178,588.9937],[-97.3213,16.4155,602.8518],[-97.321,16.4103,628.4988],[-97.3286,16.4058,608.0637],[-97.3281,16.3983,603.4857],[-97.3235,16.3956,617.4785],[-97.3201,16.3982,644.039],[-97.3185,16.4019,639.3832],[-97.3115,16.402,615.796],[-97.3102,16.3973,637.2807],[-97.3153,16.3959,644.2251],[-97.3198,16.3911,639.7148],[-97.3197,16.3859,667.2627],[-97.3107,16.3861,676.467],[-97.3059,16.3943,675.3032],[-97.3016,16.389,672.0353],[-97.299,16.3919,673.2335],[-97.296,16.3918,675.0769],[-97.2909,16.3832,772.9421],[-97.2845,16.3887,880.5059],[-97.2623,16.3752,892.2936],[-97.2585,16.3699,709.4258],[-97.2521,16.3776,765.0349],[-97.2456,16.3751,746.3882],[-97.2414,16.3701,734.6414],[-97.2339,16.3742,780.4994],[-97.2309,16.3729,738.1963],[-97.226,16.3739,807.2307],[-97.2246,16.3791,853.7869],[-97.2213,16.3804,857.5571],[-97.2229,16.385,877.8558],[-97.2217,16.3898,960.8777],[-97.2163,16.3959,921.4133],[-97.2141,16.3955,921.3184],[-97.2107,16.3983,935.6616],[-97.2126,16.4017,926.9022],[-97.2121,16.4056,940.3345],[-97.2084,16.4068,976.1421],[-97.2078,16.4047,984.8283],[-97.2046,16.4054,1058.0801],[-97.2066,16.4176,1049.249],[-97.2043,16.4209,1100.5831],[-97.1915,16.4255,1171.0134],[-97.1846,16.4254,1246.7847],[-97.1829,16.4229,1259.3619],[-97.1799,16.4228,1319.4526],[-97.1769,16.4319,1610.2463],[-97.1743,16.4326,1651.4707],[-97.175,16.4375,1748.8918],[-97.171,16.438,1712.4532],[-97.1714,16.4411,1661.5736],[-97.1671,16.45,1621.8438],[-97.1602,16.4585,1664.8242],[-97.1599,16.4622,1806.0288],[-97.1647,16.4762,2311.854],[-97.1789,16.4774,1858.6509],[-97.1894,16.4713,1519.7496],[-97.1937,16.4727,1453.1387],[-97.1969,16.4761,1374.0184],[-97.1989,16.4754,1408.5747],[-97.2009,16.4787,1326.4735],[-97.213,16.4854,1177.1619],[-97.2162,16.4845,1137.5621],[-97.2221,16.4882,1073.3086],[-97.2268,16.488,1031.4502],[-97.2287,16.4918,996.5605],[-97.2343,16.4919,996.5576],[-97.2367,16.4951,950.6918],[-97.2385,16.4933,961.2704],[-97.242,16.4941,946.631],[-97.248,16.4911,894.2697],[-97.2477,16.4886,893.6619],[-97.2554,16.4929,852.6496],[-97.2577,16.492,877.3095],[-97.2584,16.4952,810.2572],[-97.2605,16.4936,820.7349],[-97.2643,16.4947,788.7239],[-97.2666,16.493,775.2964],[-97.2696,16.4941,763.3308],[-97.2714,16.4917,739.6341],[-97.2742,16.4931,729.4302],[-97.2737,16.4966,718.9214],[-97.2787,16.4968,704.0062],[-97.2827,16.4937,730.5344],[-97.2864,16.4935,691.0199],[-97.2863,16.4957,692.0494],[-97.29,16.494,672.6091],[-97.2944,16.4967,658.4428],[-97.2972,16.4963,651.2769],[-97.2988,16.4991,632.2345],[-97.3019,16.4972,628.3748],[-97.3051,16.4979,624.2015],[-97.3018,16.494,623.4556],[-97.3024,16.4901,610.6959],[-97.3047,16.489,609.4677],[-97.3065,16.4902,614.1252],[-97.3098,16.4873,625.3057],[-97.3095,16.4841,641.1884],[-97.3127,16.4836,598.9841],[-97.314,16.4809,597.6938],[-97.3178,16.4807,600.0359],[-97.3149,16.477,586.0045],[-97.3182,16.4764,646.5986],[-97.3216,16.4729,585.5305],[-97.3246,16.4765,579.8967],[-97.328,16.4759,589.6473],[-97.33,16.4704,576.0087],[-97.3282,16.4692,576.0087],[-97.3295,16.4661,563.8937],[-97.3348,16.4688,591.3836],[-97.336,16.4672,556.8318],[-97.3341,16.464,560.9065],[-97.339,16.4638,549.1697],[-97.338,16.4667,549.8713],[-97.3419,16.466,542.9017],[-97.3443,16.4685,540.4297],[-97.3448,16.4653,543.812],[-97.3481,16.4649,541.418],[-97.3488,16.4618,572.0586],[-97.3507,16.4636,534.8251],[-97.3524,16.4627,531.9153],[-97.3521,16.4607,549.5809],[-97.3601,16.4624,549.8754],[-97.3617,16.4603,535.9423],[-97.3692,16.4613,522.5868],[-97.3727,16.4568,499.4475],[-97.3813,16.4525,471.6527]]]]}
,"properties": {"GID_2": "MEX.20.480_2","GID_0": "MEX","country": "México","GID_1": "MEX.20_1","province": "Oaxaca","NL_NAME_1": "NA","county": "SantiagoMinas","VARNAME_2": "NA","NL_NAME_2": "NA","TYPE_2": "Município","ENGTYPE_2": "Municipality","CC_2": "NA","HASC_2": "NA","name": "Santiago_Minas.county","area_km2": 198.6161,"hist_schema_id": "Elevation0-9000","hist_area_km2": {"450": 0.0203,"475": 0.1017,"500": 0.2644,"525": 0.6507,"550": 0.7524,"575": 1.3421,"600": 1.9317,"625": 2.4807,"650": 3.05,"675": 3.3958,"700": 4.4329,"725": 4.3515,"750": 4.921,"775": 6.7509,"800": 6.1816,"825": 6.6901,"850": 6.8325,"875": 6.3243,"900": 6.6903,"925": 8.2564,"950": 8.9682,"975": 7.9108,"1000": 7.9922,"1025": 6.9753,"1050": 6.8533,"1075": 6.9955,"1100": 6.1212,"1125": 6.1618,"1150": 6.4466,"1175": 6.4466,"1200": 6.1618,"1225": 6.1211,"1250": 5.6942,"1275": 4.8196,"1300": 4.6367,"1325": 4.0672,"1350": 3.4164,"1375": 2.786,"1400": 2.1963,"1425": 1.5658,"1450": 1.1794,"1475": 1.0777,"1500": 0.9964,"1525": 0.7727,"1550": 0.6507,"1575": 0.7727,"1600": 0.6303,"1625": 0.5897,"1650": 0.7523,"1675": 0.2847,"1700": 0.4067,"1725": 0.2643,"1750": 0.2237,"1775": 0.122,"1800": 0.2237,"1825": 0.1423,"1850": 0.2237,"1875": 0.1423,"1900": 0.183,"1925": 0.1423,"1950": 0.1627,"1975": 0.0813,"2000": 0.1423,"2025": 0.122,"2050": 0.0203,"2075": 0.183,"2100": 0.122,"2125": 0.0407,"2150": 0.1017,"2175": 0.0407,"2200": 0.0407,"2250": 0.0203}}}