{"type": "Feature","bbox": [-99.9556,26.1507,-99.4097,26.446],"geometry": {"type": "MultiPolygon","coordinates": [[[[-99.4157,26.4382,113.4223],[-99.4179,26.4396,113.5053],[-99.4213,26.4377,114.926],[-99.4297,26.4433,117.1485],[-99.4333,26.4418,118.7637],[-99.4359,26.4438,118.3743],[-99.4471,26.446,121.6616],[-99.4596,26.4399,125.5665],[-99.4658,26.4426,127.5486],[-99.465,26.4162,148.2475],[-99.4624,26.4033,158.7405],[-99.4744,26.3994,159.5833],[-99.4755,26.3886,153.4272],[-99.5779,26.4136,167.6208],[-99.5782,26.4061,172.8599],[-99.5768,26.4048,173.3366],[-99.578,26.4012,175.487],[-99.5799,26.4002,179.2981],[-99.5833,26.4007,176.9153],[-99.5843,26.4038,175.0932],[-99.5892,26.4048,174.9841],[-99.59,26.4097,181.0119],[-99.6008,26.4082,183.5556],[-99.6015,26.4092,186.0135],[-99.6109,26.4087,189.7172],[-99.6104,26.398,194.5188],[-99.5989,26.3919,183.3637],[-99.5988,26.3884,184.1898],[-99.6065,26.3872,187.611],[-99.6062,26.3893,187.0868],[-99.6188,26.3911,194.5238],[-99.6204,26.3948,196.5933],[-99.6534,26.3886,206.7231],[-99.6432,26.3511,213.9568],[-99.664,26.3511,219.0593],[-99.664,26.3401,221.0925],[-99.6711,26.3402,223.639],[-99.671,26.3442,222.2958],[-99.6744,26.3443,223.9155],[-99.6744,26.3525,221.1879],[-99.6886,26.3524,222.6906],[-99.6887,26.3631,218.0827],[-99.7217,26.3631,225.2628],[-99.7215,26.369,223.0249],[-99.7145,26.3689,223.4875],[-99.7144,26.374,221.2913],[-99.7256,26.3741,218.3061],[-99.7261,26.3709,220.7305],[-99.7309,26.3678,228.5044],[-99.7357,26.3736,221.4577],[-99.729,26.3782,215.7428],[-99.7288,26.3807,214.3165],[-99.7359,26.3909,206.7174],[-99.7339,26.3927,205.8945],[-99.7354,26.3945,205.1572],[-99.7274,26.4051,199.9819],[-99.7217,26.4095,197.6168],[-99.7267,26.4137,197.8118],[-99.7325,26.408,202.286],[-99.7341,26.4097,201.505],[-99.7335,26.4118,200.7137],[-99.7369,26.4115,201.5994],[-99.7382,26.4137,200.7743],[-99.7493,26.4108,209.3154],[-99.7555,26.4071,207.3941],[-99.7512,26.4035,211.2426],[-99.7578,26.3969,216.7705],[-99.7548,26.3944,216.3466],[-99.7591,26.3901,225.2583],[-99.7612,26.3919,227.4465],[-99.7675,26.3855,229.6358],[-99.7738,26.3912,224.9484],[-99.7729,26.3945,221.8619],[-99.7787,26.3941,224.6535],[-99.7792,26.4009,222.3974],[-99.7772,26.4025,220.1752],[-99.7796,26.404,219.851],[-99.7758,26.4045,218.3485],[-99.775,26.4079,219.3353],[-99.7844,26.4084,223.9396],[-99.7854,26.404,225.4009],[-99.7824,26.4024,221.0734],[-99.7835,26.4002,224.3271],[-99.7899,26.403199999999998,225.665],[-99.7902,26.4004,226.0205],[-99.7879,26.3969,227.1161],[-99.792,26.3985,227.6287],[-99.7942,26.3962,229.1921],[-99.7885,26.3928,228.9514],[-99.7903,26.3903,231.2831],[-99.7846,26.3861,230.5606],[-99.7878,26.386,232.1538],[-99.8044,26.3778,242.5396],[-99.8105,26.3703,250.4175],[-99.8116,26.3678,251.9406],[-99.8095,26.3667,253.0417],[-99.8115,26.3632,255.8885],[-99.8148,26.3656,254.7333],[-99.8142,26.367,254.7333],[-99.8465,26.3773,253.8665],[-99.9028,26.3778,262.257],[-99.9198,26.3823,260.7924],[-99.9205,26.386,258.6523],[-99.9284,26.3872,258.4679],[-99.9284,26.3716,269.5879],[-99.9229,26.3711,271.021],[-99.9247,26.3596,278.5147],[-99.928,26.3606,274.8035],[-99.9277,26.3557,278.2198],[-99.9213,26.3538,284.447],[-99.9255,26.3287,324.4075],[-99.9282,26.329,317.0854],[-99.9397,26.3074,394.192],[-99.935,26.3068,426.8955],[-99.9556,26.2388,1088.7842],[-99.9193,26.2455,703.6756],[-99.925299999999993,26.2375,832.2869],[-99.933,26.2019,882.6307],[-99.9203,26.187,893.4965],[-99.8941,26.1774,812.3452],[-99.8914,26.1791,888.858],[-99.8819,26.1732,808.4614],[-99.8788,26.174,876.3971],[-99.8692,26.161,504.2278],[-99.86,26.153199999999998,685.6876],[-99.8593,26.1509,789.8491],[-99.8556,26.1507,790.9006],[-99.8547,26.1526,725.7938],[-99.851,26.1535,728.233],[-99.8234,26.1549,730.4625],[-99.8209,26.1576,779.6678],[-99.8226,26.1599,700.3574],[-99.8158,26.1693,733.3682],[-99.8023,26.1678,654.1381],[-99.7801,26.1762,438.0768],[-99.764,26.1739,379.5783],[-99.7627,26.1723,379.7829],[-99.7518,26.1725,364.5342],[-99.7479,26.1701,356.9129],[-99.7452,26.1715,353.478],[-99.7387,26.1707,348.0066],[-99.7356,26.1766,340.3181],[-99.7286,26.1805,330.8759],[-99.7271,26.1839,326.7828],[-99.6362,26.2473,236.5313],[-99.6278,26.2565,230.5827],[-99.6255,26.2481,231.0289],[-99.6183,26.2524,227.3047],[-99.6176,26.2453,233.4845],[-99.6162,26.2448,231.1574],[-99.6173,26.2425,234.0202],[-99.6099,26.2439,227.8112],[-99.6087,26.2429,227.7725],[-99.6101,26.2391,226.2629],[-99.6076,26.2376,227.1484],[-99.5999,26.2377,225.7496],[-99.5998,26.2362,225.2521],[-99.5983,26.2373,225.7496],[-99.5974,26.235,229.6526],[-99.5452,26.2362,183.617],[-99.4925,26.2742,148.7931],[-99.4802,26.273,144.7698],[-99.4754,26.2679,144.494],[-99.4699,26.2753,145.0226],[-99.4661,26.273,146.8541],[-99.4673,26.2694,142.0328],[-99.4626,26.2663,139.2105],[-99.4651,26.3131,148.5323],[-99.4097,26.317,129.3381],[-99.4309,26.3513,124.0202],[-99.4157,26.4382,113.4223]]]]}
,"properties": {"GID_2": "MEX.19.2_2","GID_0": "MEX","country": "México","GID_1": "MEX.19_1","province": "NuevoLeón","NL_NAME_1": "NA","county": "Agualeguas","VARNAME_2": "NA","NL_NAME_2": "NA","TYPE_2": "Município","ENGTYPE_2": "Municipality","CC_2": "NA","HASC_2": "NA","name": "Agualeguas.county","area_km2": 982.5073,"hist_schema_id": "Elevation0-9000","hist_area_km2": {"125": 34.6458,"150": 78.3788,"175": 89.303,"200": 121.4231,"225": 109.8855,"250": 92.5941,"275": 93.3772,"300": 63.7056,"325": 44.584,"350": 35.5338,"375": 32.0381,"400": 27.0395,"425": 22.7439,"450": 17.4775,"475": 15.9193,"500": 14.95,"525": 12.8386,"550": 12.2116,"575": 10.3286,"600": 9.8153,"625": 8.1225,"650": 7.647,"675": 5.859,"700": 5.6498,"725": 4.3753,"750": 2.9675,"775": 2.6061,"800": 2.4539,"825": 1.4648,"850": 1.2556,"875": 0.5897,"900": 0.3995,"925": 0.2092,"950": 0.019,"975": 0.038,"1050": 0.019,"1100": 0.019,"1125": 0.019}}}