{"type":"Feature","properties":{"GID_2":"MEX.32.22_2","GID_0":"MEX","country":"México","GID_1":"MEX.32_1","province":"Zacatecas","NL_NAME_1":"NA","county":"JuanAldama","VARNAME_2":"NA","NL_NAME_2":"NA","TYPE_2":"Município","ENGTYPE_2":"Municipality","CC_2":"NA","HASC_2":"NA","name":"Juan_Aldama.county"},
"geometry":{"type": "MultiPolygon","coordinates": [[[[-103.4331,24.3584,1898.8859],[-103.4296,24.3543,1904.1145],[-103.4196,24.323,1940.7848],[-103.4247,24.3194,1936.3893],[-103.4238,24.3183,1940.6655],[-103.4283,24.318,1936.684],[-103.4292,24.3104,1943.5864],[-103.4213,24.3136,1959.9482],[-103.4154,24.3089,1974.1277],[-103.3878,24.2423,2052.2375],[-103.2667,24.0736,2130.4336],[-103.2683,24.0719,2128.2959],[-103.2574,24.063,2122.0168],[-103.239,24.0635,2125.2598],[-103.2385,24.1483,2238.6968],[-103.2463,24.1677,2261.356],[-103.2446,24.1677,2264.6826],[-103.2398,24.1732,2274.4351],[-103.2381,24.1723,2274.4351],[-103.2287,24.1817,2299.2295],[-103.2359,24.1935,2379.3232],[-103.2451,24.1998,2335.4456],[-103.2439,24.2081,2150.6533],[-103.2453,24.2096,2147.5671],[-103.2408,24.2132,2125.7197],[-103.2381,24.2106,2126.6531],[-103.2323,24.2149,2109.8369],[-103.2026,24.2188,2060.604],[-103.1978,24.2168,2058.2361],[-103.1982,24.215699999999998,2058.2361],[-103.1966,24.2165,2057.0662],[-103.2085,24.2292,2062.0386],[-103.2291,24.2734,2197.0676],[-103.2407,24.322,2100.8335],[-103.1853,24.3142,2255.5723],[-103.1632,24.3229,2175.3989],[-103.1456,24.3423,2420.2773],[-103.1543,24.3454,2448.3738],[-103.2198,24.3597,2012.033],[-103.1896,24.3881,2019.7288],[-103.191,24.3892,2015.5632],[-103.2058,24.3888,1997.6476],[-103.2024,24.4214,2004.5707],[-103.2173,24.4208,1971.6844],[-103.2179,24.4172,1966.9777],[-103.2228,24.4171,1959.3611],[-103.2222,24.4206,1962.4607],[-103.2272,24.4204,1956.3075],[-103.2268,24.4238,1958.3795],[-103.2338,24.4235,1955.8276],[-103.2337,24.4272,1944.0376],[-103.2366,24.4271,1950.5503],[-103.2369,24.4306,1940.5645],[-103.2336,24.4307,1946.7675],[-103.234,24.4358,1944.2438],[-103.238,24.4356,1935.158],[-103.2429,24.4399,1923.296],[-103.2453,24.445,1920.0879],[-103.2535,24.4473,1913.0638],[-103.2618,24.4405,1901.4268],[-103.2645,24.4346,1896.0361],[-103.2715,24.4333,1891.019],[-103.2728,24.4307,1893.781],[-103.2738,24.4317,1888.5728],[-103.2803,24.4297,1885.7709],[-103.2807,24.4308,1888.9485],[-103.2826,24.4288,1883.2999],[-103.2888,24.4293,1878.5585],[-103.291,24.4318,1875.1985],[-103.2984,24.4302,1872.2006],[-103.3044,24.4325,1866.1681],[-103.3054,24.4345,1868.8435],[-103.3061,24.4327,1865.3275],[-103.3075,24.435,1865.403],[-103.3084,24.4335,1871.3323],[-103.3103,24.4357,1881.9834],[-103.3104,24.4339,1886.5322],[-103.3165,24.429,1895.9279],[-103.322,24.4284,1908.842],[-103.3239,24.4265,1923.2961],[-103.33,24.4282,1901.3979],[-103.3862,24.423,1870.7855],[-103.3876,24.4275,1877.0955],[-103.3941,24.4321,1838.826],[-103.3997,24.4328,1837.3154],[-103.3992,24.4288,1840.4166],[-103.4059,24.4296,1844.1213],[-103.4062,24.4278,1843.6541],[-103.4099,24.4285,1844.9121],[-103.4098,24.4263,1846.2483],[-103.4133,24.429,1849.4764],[-103.4155,24.4281,1853.4709],[-103.4195,24.4304,1850.907],[-103.4199,24.4255,1855.304],[-103.4219,24.4242,1855.8813],[-103.42,24.4219,1855.7609],[-103.4222,24.4209,1857.8845],[-103.4216,24.4166,1856.9802],[-103.4253,24.4153,1860.0702],[-103.4257,24.413,1859.6184],[-103.4289,24.4117,1862.4203],[-103.4302,24.4089,1862.8932],[-103.4284,24.4031,1868.9453],[-103.4304,24.4014,1870.7554],[-103.43,24.3991,1872.516],[-103.4251,24.3879,1882.5032],[-103.428,24.3866,1883.1584],[-103.4254,24.3794,1887.6876],[-103.4298,24.3744,1891.7115],[-103.4281,24.3699,1894.041],[-103.4312,24.362,1898.8788],[-103.4305,24.3601,1901.2522],[-103.4331,24.3584,1898.8859]]]]}}