{"type":"Feature","properties":{"GID_2":"MEX.30.109_2","GID_0":"MEX","country":"México","GID_1":"MEX.30_1","province":"Veracruz","NL_NAME_1":"NA","county":"Mecatlán","VARNAME_2":"NA","NL_NAME_2":"NA","TYPE_2":"Município","ENGTYPE_2":"Municipality","CC_2":"NA","HASC_2":"NA","name":"Mecatlán.county"},
"geometry":{"type": "MultiPolygon","coordinates": [[[[-97.622,20.1744,150.4738],[-97.6187,20.1781,138.9665],[-97.6206,20.1803,246.7201],[-97.6162,20.1858,143.8855],[-97.6094,20.1836,141.3853],[-97.6072,20.1884,127.701],[-97.6033,20.1868,153.5629],[-97.6006,20.1885,131.808],[-97.6011,20.1911,131.7562],[-97.6051,20.1943,142.5588],[-97.6009,20.1946,133.0471],[-97.6002,20.1982,159.443],[-97.6021,20.2025,178.0128],[-97.6107,20.2054,168.1105],[-97.6115,20.2203,128.9902],[-97.6164,20.2184,177.7094],[-97.6173,20.2199,150.8083],[-97.6196,20.2187,168.7133],[-97.6199,20.2203,160.4994],[-97.6236,20.2202,170.1853],[-97.6238,20.2182,174.992],[-97.6222,20.2179,189.7599],[-97.6249,20.2158,201.2909],[-97.623,20.212,234.4379],[-97.624,20.209,246.5713],[-97.6354,20.209,463.4482],[-97.6424,20.2229,275.8343],[-97.6419,20.2268,200.7188],[-97.6469,20.2292,241.1748],[-97.6486,20.2321,202.0161],[-97.6448,20.2383,159.3648],[-97.6486,20.2444,131.9812],[-97.6522,20.2452,152.8511],[-97.6553,20.243,145.8163],[-97.6546,20.2413,155.0955],[-97.6724,20.2436,280.455],[-97.6708,20.24,266.8828],[-97.6745,20.2362,261.2006],[-97.6821,20.2341,311.807],[-97.6893,20.2282,359.2971],[-97.693,20.2288,451.4632],[-97.6983,20.2218,653.4995],[-97.7006,20.2209,691.3756],[-97.6967,20.209,695.0026],[-97.6899,20.2085,902.3805],[-97.686,20.2037,605.1985],[-97.6858,20.1948,373.6877],[-97.6808,20.189,309.5697],[-97.6762,20.1888,325.531],[-97.6678,20.1817,287.4784],[-97.6632,20.1813,238.6008],[-97.6627,20.1825,242.7745],[-97.6591,20.1804,272.08],[-97.6582,20.1826,227.1841],[-97.6565,20.1813,224.6059],[-97.6518,20.1854,211.6937],[-97.6509,20.1838,203.0587],[-97.6504,20.1848,203.0587],[-97.6449,20.1827,195.1894],[-97.6413,20.187,191.4272],[-97.635,20.1885,176.9386],[-97.6354,20.1825,155.751],[-97.6301,20.1826,182.7368],[-97.6276,20.1768,195.6117],[-97.6247,20.1742,183.0686],[-97.622,20.1744,150.4738]]]]}}