{"type":"Feature","properties":{"GID_2":"MEX.16.29_2","GID_0":"MEX","country":"México","GID_1":"MEX.16_1","province":"Michoacán","NL_NAME_1":"NA","county":"Cotija","VARNAME_2":"NA","NL_NAME_2":"NA","TYPE_2":"Município","ENGTYPE_2":"Municipality","CC_2":"NA","HASC_2":"NA","name":"Cotija.county"},
"geometry":{"type": "MultiPolygon","coordinates": [[[[-102.7927,19.6626,1622.3356],[-102.7922,19.6536,1669.1099],[-102.7842,19.6521,1617.4192],[-102.7875,19.6482,1657.4927],[-102.7821,19.6466,1593.4709],[-102.7833,19.6435,1565.1965],[-102.7823,19.6426,1529.8558],[-102.7796,19.6443,1513.6641],[-102.7768,19.6341,1330.3969],[-102.7772,19.629,1175.8403],[-102.7743,19.6266,1096.5802],[-102.7609,19.6275,961.7772],[-102.759,19.6249,959.7751],[-102.7537,19.6229,929.2668],[-102.7554,19.6198,934.5269],[-102.7537,19.6202,899.0129],[-102.7532,19.6174,883.9639],[-102.7476,19.6128,873.6938],[-102.7372,19.6151,835.9063],[-102.7305,19.6138,838.6712],[-102.7285,19.6119,866.3055],[-102.7261,19.6131,832.6448],[-102.7259,19.6099,824.1392],[-102.7207,19.6107,813.3539],[-102.7188,19.6094,835.8767],[-102.721,19.6077,811.4351],[-102.72,19.6055,804.3908],[-102.7175,19.6057,800.0858],[-102.7182,19.6041,785.5406],[-102.7159,19.6029,783.5273],[-102.716,19.6003,806.1591],[-102.7117,19.5998,790.3145],[-102.7117,19.6021,855.354],[-102.7073,19.6019,807.5019],[-102.705,19.6035,819.8085],[-102.6971,19.602,846.2367],[-102.6967,19.6039,851.4761],[-102.6884,19.6098,861.9155],[-102.6858,19.6141,877.7875],[-102.6864,19.6162,880.8054],[-102.6813,19.6171,897.8743],[-102.6803,19.6197,897.228],[-102.6785,19.6198,897.228],[-102.6772,19.6256,948.8182],[-102.6727,19.6271,984.2846],[-102.6716,19.63,995.4005],[-102.6737,19.6378,1021.9456],[-102.6701,19.6405,1048.1062],[-102.671,19.6422,1070.8086],[-102.6654,19.6477,1153.3766],[-102.6609,19.6553,1262.7458],[-102.6611,19.662,1336.4358],[-102.663,19.666,1442.0066],[-102.6615,19.6677,1529.6129],[-102.6611,19.6756,1710.3665],[-102.6576,19.6794,1905.365],[-102.6597,19.6828,1903.1393],[-102.6606,19.6899,1952.2002],[-102.6503,19.7028,2039.2986],[-102.6523,19.7082,2111.3774],[-102.6566,19.7127,2272.0786],[-102.6581,19.7205,2374.29],[-102.6452,19.7205,2097.8022],[-102.6406,19.7242,1877.4255],[-102.6391,19.7289,1775.5145],[-102.6306,19.7284,1813.6105],[-102.5978,19.7414,1682.2156],[-102.5808,19.74,1604.896],[-102.5819,19.7444,1602.3892],[-102.5744,19.7416,1596.3217],[-102.5823,19.7517,1593.5374],[-102.5765,19.757,1592.7786],[-102.5789,19.7639,1592.2563],[-102.5781,19.7715,1592.7655],[-102.5845,19.7762,1593.0083],[-102.5859,19.7811,1593.0994],[-102.5893,19.7849,1592.1862],[-102.5887,19.7906,1594.2874],[-102.5912,19.7963,1596.0332],[-102.5905,19.7976,1597.7],[-102.5822,19.798,1601.4196],[-102.5815,19.8005,1605.2523],[-102.5875,19.8043,1621.0342],[-102.5971,19.8073,1607.4725],[-102.595,19.8113,1623.1179],[-102.5977,19.8117,1616.6837],[-102.5994,19.8166,1661.9133],[-102.5952,19.8242,1776.104],[-102.5969,19.8252,1754.6381],[-102.5968,19.8281,1773.3069],[-102.5992,19.8283,1792.9539],[-102.6007,19.8309,1803.9889],[-102.6029,19.8309,1820.1062],[-102.6088,19.8355,1813.7617],[-102.617,19.8384,1784.2819],[-102.6117,19.8414,1805.7865],[-102.6044,19.8639,1949.9949],[-102.6111,19.8745,2017.2349],[-102.6095,19.8772,1985.9382],[-102.6113,19.8778,1990.7201],[-102.6117,19.8827,2013.4043],[-102.6228,19.8951,1851.9194],[-102.6274,19.8981,1894.6814],[-102.6343,19.8995,1858.7659],[-102.6693,19.9029,1940.3228],[-102.671,19.8857,2184.6851],[-102.6847,19.8833,2159.5903],[-102.7136,19.8892,1930.6573],[-102.715,19.899,2122.5977],[-102.7313,19.8989,2160.7649],[-102.7325,19.8904,1737.832],[-102.7398,19.8858,1636.9797],[-102.7425,19.8788,1618.6056],[-102.7348,19.8745,1632.5411],[-102.7354,19.8722,1634.6559],[-102.7337,19.8698,1661.7328],[-102.7356,19.8674,1674.3882],[-102.7349,19.8604,1711.89],[-102.7304,19.8532,1759.4423],[-102.7343,19.8504,1775.7793],[-102.7351,19.8473,1784.7477],[-102.7431,19.8446,1914.3536],[-102.7493,19.8345,1815.4521],[-102.7533,19.8341,1799.3323],[-102.7496,19.8321,1781.4717],[-102.7485,19.829,1771.2599],[-102.7452,19.828,1751.8943],[-102.745,19.8248,1743.7477],[-102.7392,19.8177,1720.0537],[-102.7394,19.8158,1711.8823],[-102.7446,19.8142,1727.9],[-102.7452,19.812,1737.1755],[-102.75,19.8127,1735.6974],[-102.7506,19.8143,1736.9695],[-102.7552,19.814,1749.2195],[-102.7591,19.808,1752.3384],[-102.7627,19.8101,1760.2473],[-102.7698,19.8095,1795.7957],[-102.7747,19.8127,1843.5504],[-102.7818,19.813,1956.9065],[-102.785,19.8154,1981.6606],[-102.7872,19.8136,2063.9065],[-102.7923,19.8141,2087.106],[-102.8183,19.7799,2170.2939],[-102.8195,19.7779,2141.0791],[-102.8128,19.776,2028.6003],[-102.8118,19.774,2042.5159],[-102.8132,19.7664,1902.8853],[-102.8086,19.7596,1850.2106],[-102.8169,19.7511,1716.9443],[-102.8143,19.7497,1760.285],[-102.8052,19.7529,1903.1653],[-102.8039,19.7522,1903.1653],[-102.8026,19.7466,1863.1338],[-102.8094,19.7434,1801.5464],[-102.8108,19.741,1777.4084],[-102.8069,19.74,1776.0897],[-102.8049,19.7383,1745.3431],[-102.8049,19.7347,1728.6715],[-102.7983,19.7288,1623.2896],[-102.7958,19.7284,1590.7606],[-102.7922,19.7177,1467.3455],[-102.7856,19.7125,1399.9027],[-102.7855,19.7082,1380.5782],[-102.7822,19.7072,1330.282],[-102.7805,19.7043,1351.6107],[-102.7831,19.6982,1271.5513],[-102.7822,19.6952,1308.2449],[-102.7853,19.6948,1489.9955],[-102.7922,19.6884,1695.7578],[-102.7906,19.6869,1635.8971],[-102.7955,19.6847,1610.0811],[-102.7976,19.6781,1661.7126],[-102.8057,19.6748,1479.7767],[-102.8004,19.6749,1426.4974],[-102.7997,19.6731,1371.4249],[-102.7924,19.6746,1518.969],[-102.7912,19.6732,1514.7911],[-102.7927,19.6707,1509.0255],[-102.7912,19.6681,1521.9921],[-102.7927,19.6626,1622.3356]]]]}}