{"type":"Feature","properties":{"featurecla":"River","scalerank":8,"rivernum":661,"dissolve":"661River","name":"Lerma2","name_alt":null,"note":null,"min_zoom":7.0,"strokeweig":0.15,"name_en":"Lerma","min_label":8.0},
"geometry":{"type": "LineString","coordinates": [[-99.507861328124989,19.214618231244117,2569.4619],[-99.5361328125,19.363885809369123,2569.8223],[-99.545751953124991,19.379022528119123,2570.6226],[-99.562109374999991,19.390252996869123,2570.6797],[-99.594042968749989,19.405877996869123,2571.769],[-99.610888671874989,19.41693756718162,2578.998]]}}