{"type": "Feature","bbox": [-97.0158,16.724,-96.8762,16.7935],"geometry": {"type": "MultiPolygon","coordinates": [[[[-96.8856,16.7269,1601.4644],[-96.8911,16.7344,1844.4053],[-96.898,16.7403,1946.4934],[-96.9042,16.7517,2119.2754],[-96.913,16.7635,2351.8372],[-96.9097,16.7691,2294.9199],[-96.8948,16.7748,1857.7611],[-96.8762,16.7874,1547.6406],[-96.8763,16.7886,1547.6406],[-96.8977,16.7912,1599.774],[-96.9145,16.7889,1664.131],[-96.9196,16.7904,1700.0767],[-96.9275,16.7873,1740.0952],[-96.9295,16.7879,1748.6453],[-96.9347,16.7839,1771.7261],[-96.9499,16.7831,1892.5637],[-96.9584,16.7794,1934.119],[-96.9681,16.7815,2250.6973],[-96.9821,16.7935,2644.4482],[-96.9909,16.7881,2665.1174],[-96.9887,16.7832,2514.7246],[-96.9925,16.7773,2359.7788],[-96.9948,16.7765,2362.8765],[-96.9959,16.7732,2359.2905],[-97.0132,16.779,2811.9399],[-97.0151,16.7766,2822.3252],[-97.0134,16.7721,2844.376],[-97.0158,16.7622,2709.2957],[-97.0119,16.7612,2776.5769],[-97.0078,16.7543,2898.4851],[-96.9987,16.7501,2829.5615],[-96.9808,16.7326,2692.5701],[-96.9788,16.729,2759.7231],[-96.9791,16.724,2715.4958],[-96.8856,16.7269,1601.4644]]]]}
,"properties": {"GID_2": "MEX.20.275_2","GID_0": "MEX","country": "México","GID_1": "MEX.20_1","province": "Oaxaca","NL_NAME_1": "NA","county": "SanMiguelMixtepec","VARNAME_2": "NA","NL_NAME_2": "NA","TYPE_2": "Município","ENGTYPE_2": "Municipality","CC_2": "NA","HASC_2": "NA","name": "San_Miguel_Mixtepec.county","area_km2": 72.94439,"hist_schema_id": "Elevation0-9000","hist_area_km2": {"1550": 0.0609,"1575": 0.18269,"1600": 0.30448,"1625": 0.42628,"1650": 0.6496,"1675": 0.60902,"1700": 0.75113,"1725": 0.81204,"1750": 0.79172,"1775": 1.09627,"1800": 1.44141,"1825": 1.09624,"1850": 1.15721,"1875": 1.19776,"1900": 1.685,"1925": 1.4414,"1950": 1.4414,"1975": 1.5226,"2000": 1.7865,"2025": 1.74591,"2050": 1.74592,"2075": 1.56317,"2100": 1.70529,"2125": 2.17223,"2150": 1.685,"2175": 1.50228,"2200": 1.96922,"2225": 1.78651,"2250": 1.36019,"2275": 1.6241,"2300": 1.279,"2325": 1.66473,"2350": 1.31959,"2375": 1.31962,"2400": 1.33992,"2425": 1.36027,"2450": 1.40088,"2475": 1.4212,"2500": 1.40087,"2525": 1.70545,"2550": 1.48213,"2575": 1.66485,"2600": 1.68511,"2625": 1.52271,"2650": 1.23847,"2675": 1.38059,"2700": 2.25362,"2725": 2.35512,"2750": 2.03029,"2775": 1.78662,"2800": 1.50238,"2825": 1.31965,"2850": 0.95421,"2875": 0.18272,"2900": 0.06091}}}