{"type":"Feature","properties":{"GID_2":"MEX.5.28_2","GID_0":"MEX","country":"México","GID_1":"MEX.5_1","province":"Chiapas","NL_NAME_1":"NA","county":"Cintalapa","VARNAME_2":"NA","NL_NAME_2":"NA","TYPE_2":"Município","ENGTYPE_2":"Municipality","CC_2":"NA","HASC_2":"NA","name":"Cintalapa.county"},
"geometry":{"type": "MultiPolygon","coordinates": [[[[-93.9465,16.3687,1199.2299],[-93.9449,16.374,974.4002],[-93.9366,16.3693,1045.9231],[-93.9262,16.3733,1089.7432],[-93.9209,16.3774,1156.0916],[-93.9262,16.3921,1233.7073],[-93.9393,16.3981,1155.1946],[-93.9247,16.4009,1066.0187],[-93.9236,16.4065,978.3911],[-93.9373,16.4102,936.6113],[-93.9359,16.4185,901.1907],[-93.9388,16.4185,887.1725],[-93.931,16.4423,1353.0398],[-93.8942,16.4413,995.3252],[-93.8883,16.4434,925.1443],[-93.8801,16.4492,821.6807],[-93.881,16.4506,846.2266],[-93.8706,16.4596,849.119],[-93.8738,16.4732,770.6002],[-93.8602,16.4869,680.0161],[-93.8561,16.4838,683.5777],[-93.8554,16.4856,681.105],[-93.8479,16.4837,703.6959],[-93.8459,16.4859,710.6982],[-93.8336,16.4754,678.3616],[-93.8076,16.4997,847.563],[-93.7935,16.499,864.3333],[-93.7864,16.5014,768.2237],[-93.7816,16.5007,712.8187],[-93.7658,16.5045,791.925],[-93.7581,16.504,710.9309],[-93.7456,16.5296,716.3957],[-93.7532,16.5474,793.4885],[-93.7445,16.5652,658.451],[-93.7414,16.5695,615.4435],[-93.7361,16.5668,608.8508],[-93.7352,16.5717,654.5034],[-93.7311,16.5712,694.9734],[-93.7273,16.5686,626.7056],[-93.7256,16.5702,691.5115],[-93.7172,16.5677,687.4747],[-93.7138,16.5987,847.287],[-93.7058,16.6039,723.5272],[-93.7073,16.6059,742.1741],[-93.701,16.6229,625.5074],[-93.6951,16.6207,615.6122],[-93.6964,16.6449,614.9413],[-93.6977,16.6466,576.2527],[-93.69,16.6602,603.8267],[-93.687,16.691,534.5075],[-93.6717,16.6868,521.0023],[-93.6687,16.6877,520.1233],[-93.6712,16.6908,520.7294],[-93.6807,16.6942,523.9904],[-93.6804,16.696,522.6079],[-93.6696,16.6965,529.7217],[-93.6694,16.6982,534.2833],[-93.6709,16.6981,532.1594],[-93.6694,16.7055,543.7498],[-93.6715,16.706,539.9507],[-93.6699,16.7082,538.3711],[-93.6668,16.7088,546.3487],[-93.6658,16.721,636.0444],[-93.6599,16.7396,596.6707],[-93.6429,16.7508,669.6459],[-93.644,16.7662,1088.0336],[-93.6463,16.7689,1094.5669],[-93.6454,16.7931,987.8027],[-93.6337,16.7978,997.5226],[-93.5899,16.8011,698.1242],[-93.5907,16.8023,697.8738],[-93.5876,16.8061,688.2292],[-93.5884,16.8091,685.2044],[-93.5843,16.8113,687.5311],[-93.5825,16.8145,678.9059],[-93.5838,16.8151,762.8149],[-93.5825,16.8188,670.7083],[-93.5866,16.8179,781.6913],[-93.5878,16.8199,773.2233],[-93.5808,16.8232,778.9473],[-93.5551,16.8478,641.7567],[-93.559,16.8489,556.1298],[-93.5627,16.8469,646.3445],[-93.5619,16.8453,681.9062],[-93.5645,16.849,509.6548],[-93.5632,16.851,455.7615],[-93.5668,16.8541,486.3976],[-93.5699,16.8616,432.9905],[-93.5741,16.8617,471.7294],[-93.5791,16.8691,507.4874],[-93.5853,16.8698,441.7385],[-93.5865,16.8754,525.1511],[-93.5967,16.8854,451.8533],[-93.5984,16.891,504.4702],[-93.6049,16.8924,425.3225],[-93.607,16.8972,546.3531],[-93.6204,16.9034,435.7402],[-93.6237,16.9028,413.0525],[-93.6271,16.9055,513.4511],[-93.6351,16.9074,609.8024],[-93.6373,16.9043,448.9521],[-93.6396,16.9069,457.0302],[-93.6417,16.9057,425.2116],[-93.6421,16.8999,605.3782],[-93.6457,16.9042,382.4542],[-93.6466,16.911,584.1202],[-93.6487,16.911,428.101],[-93.6511,16.9065,399.942],[-93.6543,16.9083,366.2632],[-93.6541,16.9136,452.8847],[-93.6568,16.918,367.786],[-93.6545,16.9208,544.2548],[-93.6548,16.9225,660.7632],[-93.6591,16.9246,463.9402],[-93.6613,16.9286,511.0076],[-93.6653,16.9245,357.6638],[-93.6716,16.9339,507.3515],[-93.6724,16.9292,363.6993],[-93.6744,16.9282,316.8098],[-93.6771,16.937,550.3249],[-93.6842,16.9349,416.3031],[-93.6884,16.9303,397.4719],[-93.6917,16.9324,616.6821],[-93.6945,16.9296,368.2639],[-93.6974,16.9292,416.6378],[-93.6968,16.9354,385.5505],[-93.7002,16.936,417.082],[-93.7047,16.9453,380.6597],[-93.7083,16.9446,367.9484],[-93.7113,16.9406,419.5084],[-93.7153,16.9411,386.8138],[-93.717,16.9424,370.8029],[-93.7148,16.9497,408.9831],[-93.7221,16.9496,373.3014],[-93.7253,16.9522,416.5829],[-93.7307,16.9447,451.3831],[-93.7307,16.9406,505.4834],[-93.7322,16.9401,393.2312],[-93.7366,16.9527,407.2238],[-93.7409,16.9537,330.8822],[-93.7436,16.9564,339.325],[-93.7451,16.96,364.7227],[-93.7438,16.965,365.2845],[-93.7476,16.9666,287.4164],[-93.7463,16.971,442.021],[-93.7494,16.9725,469.3965],[-93.753,16.9798,391.3614],[-93.7547,16.9812,341.5542],[-93.7586,16.9771,211.216],[-93.7624,16.9805,313.0642],[-93.7661,16.981,248.1894],[-93.7648,16.9841,197.4446],[-93.7663,16.9845,252.5805],[-93.7608,16.9884,213.6734],[-93.7639,16.9942,275.5588],[-93.7697,16.9984,268.3377],[-93.7736,17.0081,238.0986],[-93.7773,17.0097,459.7439],[-93.7783,17.0125,225.9436],[-93.7838,17.0133,235.6244],[-93.7871,17.0198,260.2551],[-93.7916,17.0205,181.875],[-93.796,17.0245,218.6364],[-93.8018,17.0221,195.954],[-93.8079,17.0247,275.4599],[-93.8146,17.0361,261.5184],[-93.8196,17.0409,414.4662],[-93.8274,17.0437,285.2094],[-93.836,17.0533,353.3525],[-93.8583,17.0623,279.0546],[-93.8661,17.062,329.4586],[-93.866,17.0739,242.1045],[-93.8647,17.0739,255.8221],[-93.866,17.0839,341.4412],[-93.8618,17.1085,263.5087],[-93.8542,17.1067,168.0],[-93.8537,17.1087,168.0],[-93.8414,17.1172,178.3992],[-93.8364,17.1155,178.1241],[-93.8324,17.1197,181.034],[-93.8399,17.1205,230.7991],[-93.8448,17.1227,277.7297],[-93.8674,17.137,928.7773],[-94.1392,16.4618,1230.4968],[-94.1025,16.4075,361.5209],[-94.0702,16.4256,311.2764],[-94.0587,16.4193,347.3561],[-94.0542,16.4006,363.8742],[-94.0415,16.4022,581.079],[-94.0377,16.4054,694.3503],[-94.0342,16.4055,737.5569],[-94.0303,16.3999,625.1293],[-94.0205,16.4017,655.0009],[-94.019,16.3928,591.8673],[-94.0157,16.3982,726.5284],[-94.0066,16.3931,769.2228],[-94.0139,16.3813,471.2328],[-94.007,16.3788,365.4255],[-94.0001,16.373,436.5065],[-93.9855,16.3661,792.7377],[-93.9831,16.369,856.4744],[-93.9856,16.3716,810.7108],[-93.985,16.3762,753.4255],[-93.9757,16.3784,937.2971],[-93.9773,16.3723,868.7006],[-93.9616,16.3672,878.8796],[-93.9589,16.3704,1046.7971],[-93.9465,16.3687,1199.2299]]]]}}