{"type": "Feature","bbox": [-97.0025,16.7972,-96.8456,16.8923],"geometry": {"type": "MultiPolygon","coordinates": [[[[-96.97,16.8923,2815.6975],[-96.9714,16.8869,2755.3533],[-96.9771,16.8825,2788.9165],[-96.9802,16.8846,2795.9626],[-96.987,16.8843,2769.646],[-96.9879,16.8771,2757.4717],[-96.9936,16.8668,2737.9282],[-97.0002,16.865,2830.9653],[-97.0025,16.8623,2797.8081],[-96.9857,16.8354,2877.5669],[-96.9818,16.8318,2852.332],[-96.9498,16.8182,2522.8052],[-96.943,16.819,2586.7463],[-96.9302,16.8173,2312.0747],[-96.9205,16.8081,2089.9509],[-96.9176,16.8071,2079.3076],[-96.8975,16.8059,1936.3342],[-96.895,16.8037,1973.1255],[-96.8903,16.8072,1734.5747],[-96.8847,16.8067,1579.8018],[-96.8833,16.8038,1561.5554],[-96.8776,16.801,1586.2927],[-96.8479,16.7972,2014.3157],[-96.8482,16.799,2039.0194],[-96.8456,16.8014,2020.8386],[-96.8485,16.8099,1899.9824],[-96.8471,16.8156,1819.7852],[-96.8486,16.8187,1823.5865],[-96.8484,16.8468,2113.9854],[-96.8583,16.8515,2126.2246],[-96.8526,16.8626,1764.774],[-96.8511,16.8743,1836.2017],[-96.8479,16.8793,1688.2793],[-96.8511,16.8786,1731.9059],[-96.859,16.8723,1999.7571],[-96.865,16.8784,2141.3545],[-96.8678,16.8785,2127.3174],[-96.8728,16.8739,2170.2122],[-96.8794,16.8747,2251.3806],[-96.8873,16.8712,2239.8745],[-96.8929,16.8747,2333.3889],[-96.9053,16.8724,2303.0891],[-96.9241,16.8642,1980.9865],[-96.9292,16.8747,2151.062],[-96.936,16.8767,2198.5337],[-96.9438,16.8842,2341.9451],[-96.9516,16.8861,2381.9778],[-96.9558,16.8854,2378.4927],[-96.97,16.8923,2815.6975]]]]}
,"properties": {"GID_2": "MEX.20.125_2","GID_0": "MEX","country": "México","GID_1": "MEX.20_1","province": "Oaxaca","NL_NAME_1": "NA","county": "SanBernardoMixtepec","VARNAME_2": "NA","NL_NAME_2": "NA","TYPE_2": "Município","ENGTYPE_2": "Municipality","CC_2": "NA","HASC_2": "NA","name": "San_Bernardo_Mixtepec.county","area_km2": 109.11285,"hist_schema_id": "Elevation0-9000","hist_area_km2": {"1550": 0.10148,"1575": 0.85245,"1600": 1.44102,"1625": 1.74542,"1650": 2.00922,"1675": 2.88188,"1700": 3.22685,"1725": 3.67327,"1750": 3.91673,"1775": 3.7746,"1800": 4.07895,"1825": 4.18035,"1850": 4.34266,"1875": 4.07882,"1900": 3.81504,"1925": 3.89614,"1950": 3.46998,"1975": 3.73372,"2000": 2.92204,"2025": 2.94229,"2050": 3.06406,"2075": 3.14517,"2100": 2.27264,"2125": 2.41466,"2150": 2.6785,"2175": 2.04942,"2200": 2.27261,"2225": 2.06968,"2250": 2.09001,"2275": 2.27262,"2300": 2.04946,"2325": 1.98854,"2350": 1.60303,"2375": 1.86687,"2400": 1.4407,"2425": 1.25808,"2450": 1.27837,"2475": 1.31896,"2500": 1.31896,"2525": 1.07543,"2550": 1.19722,"2575": 1.1972,"2600": 1.0146,"2625": 0.75076,"2650": 0.64933,"2675": 0.60872,"2700": 0.83193,"2725": 0.46669,"2750": 0.40582,"2775": 0.48699,"2800": 0.28408,"2825": 0.16234,"2850": 0.22323,"2875": 0.16235,"2900": 0.06088}}}