{"type":"Feature","properties":{"GID_2":"MEX.12.42_2","GID_0":"MEX","country":"México","GID_1":"MEX.12_1","province":"Guerrero","NL_NAME_1":"NA","county":"JoséJoaquíndeHerrera","VARNAME_2":"NA","NL_NAME_2":"NA","TYPE_2":"Município","ENGTYPE_2":"Municipality","CC_2":"NA","HASC_2":"NA","name":"José_Joaquínde_Herrera.county"},
"geometry":{"type": "MultiPolygon","coordinates": [[[[-98.9527,17.4034,2286.1689],[-98.9519,17.4059,2203.374],[-98.9478,17.4079,2133.8887],[-98.9478,17.4124,2030.1414],[-98.9424,17.4148,2019.0831],[-98.9432,17.4193,2012.8434],[-98.9384,17.4292,1976.4014],[-98.9429,17.4394,1862.8788],[-98.9409,17.4493,1842.7257],[-98.9485,17.455,1706.9487],[-98.9426,17.4588,1630.8263],[-98.9439,17.4617,1618.3667],[-98.9546,17.4666,1587.2572],[-98.9536,17.4733,1600.5762],[-98.9582,17.474,1523.2368],[-98.9619,17.4782,1572.6058],[-98.9634,17.4832,1582.1719],[-98.9683,17.4864,1519.3013],[-98.9709,17.4925,1495.7355],[-98.9691,17.4936,1525.2295],[-98.969,17.4959,1513.325],[-98.972,17.4968,1479.248],[-98.9745,17.5008,1477.7717],[-98.9728,17.5051,1484.4543],[-98.9797,17.5119,1457.3363],[-98.9799,17.5157,1498.4829],[-98.9897,17.5106,1533.9421],[-98.9916,17.5127,1608.0259],[-98.9941,17.5122,1574.7014],[-98.9995,17.5045,1852.3379],[-99.0029,17.5028,1954.3169],[-99.0048,17.5042,1910.059],[-99.006,17.5091,1771.803],[-99.0103,17.5112,1683.0968],[-99.0107,17.5141,1701.8635],[-99.0156,17.5139,1614.9747],[-99.0152,17.5123,1573.8057],[-99.0195,17.508,1727.8108],[-99.0224,17.4994,1746.4268],[-99.0256,17.4979,1771.9624],[-99.0256,17.4946,1806.6774],[-99.0331,17.495,1802.2236],[-99.033,17.4917,1829.6156],[-99.0363,17.4899,1877.9189],[-99.0366,17.4865,1861.7159],[-99.0404,17.4813,1890.8049],[-99.0513,17.48,2023.8054],[-99.0535,17.4597,1964.6135],[-99.0524,17.4553,1729.8228],[-99.0439,17.4477,1409.0049],[-99.0434,17.442,1263.4509],[-99.0451,17.421,999.6754],[-99.0551,17.4127,937.8879],[-99.0533,17.4019,803.5064],[-99.0482,17.3968,749.6399],[-99.0499,17.3946,748.5723],[-99.0487,17.394,748.5723],[-99.0465,17.398,808.8296],[-99.0426,17.3992,780.5448],[-99.0275,17.3965,854.467],[-99.0232,17.4016,864.6206],[-99.0187,17.4018,894.1664],[-99.0161,17.3999,905.7195],[-99.0062,17.3983,940.4298],[-98.9983,17.3928,1016.3583],[-98.9946,17.3927,1055.3552],[-98.9938,17.3866,1117.8933],[-98.9894,17.3835,1179.3507],[-98.9866,17.3789,1284.7936],[-98.972,17.37,1831.6233],[-98.9704,17.3654,1994.7136],[-98.957,17.3687,2290.0652],[-98.9564,17.37,2288.5225],[-98.9547,17.3825,1956.3271],[-98.9522,17.3872,2036.4669],[-98.9527,17.4034,2286.1689]]]]}}