{"type": "Feature","bbox": [-98.0489,17.3924,-97.9748,17.5008],"geometry": {"type": "MultiPolygon","coordinates": [[[[-98.0409,17.467,2220.6533],[-98.0489,17.4533,2235.1509],[-98.0472,17.4384,2175.5991],[-98.035,17.4193,2132.1699],[-98.0285,17.4185,1990.1753],[-98.0136,17.4048,1618.3247],[-98.0187,17.4026,1624.5566],[-98.0177,17.3974,1626.2456],[-98.0109,17.3981,1724.2352],[-98.0042,17.3962,1772.2271],[-98.0022,17.3927,1838.8473],[-97.9962,17.3924,1878.6077],[-97.9851,17.3996,2195.0518],[-97.9748,17.4225,1945.1599],[-97.977,17.427,1839.4075],[-97.9761,17.4291,1856.9485],[-97.9786,17.43,1823.6514],[-97.9791,17.4329,1820.6617],[-97.9777,17.4453,1532.613],[-97.9755,17.4473,1582.551],[-97.978,17.4489,1517.772],[-97.98,17.4542,1508.5511],[-97.9879,17.4543,1668.2615],[-97.9931,17.4598,1799.0859],[-97.9968,17.468,1768.4393],[-97.9983,17.4833,2239.8865],[-98.0112,17.5008,1848.8081],[-98.0206,17.4919,2135.4946],[-98.0319,17.4746,1964.1427],[-98.0409,17.467,2220.6533]]]]}
,"properties": {"GID_2": "MEX.20.288_2","GID_0": "MEX","country": "México","GID_1": "MEX.20_1","province": "Oaxaca","NL_NAME_1": "NA","county": "SanMiguelTlacotepec","VARNAME_2": "NA","NL_NAME_2": "NA","TYPE_2": "Município","ENGTYPE_2": "Municipality","CC_2": "NA","HASC_2": "NA","name": "San_Miguel_Tlacotepec.county","area_km2": 55.82736,"hist_schema_id": "Elevation0-9000","hist_area_km2": {"1500": 0.04045,"1525": 0.08091,"1550": 0.26295,"1575": 0.24273,"1600": 0.93052,"1625": 2.71072,"1650": 1.75989,"1675": 2.18468,"1700": 1.78011,"1725": 1.71941,"1750": 2.02279,"1775": 2.87225,"1800": 2.30588,"1825": 1.94184,"1850": 2.26553,"1875": 2.22507,"1900": 2.18458,"1925": 2.95332,"1950": 2.89261,"1975": 3.0138,"2000": 2.81145,"2025": 2.58895,"2050": 2.46754,"2075": 2.00237,"2100": 2.00238,"2125": 2.50803,"2150": 2.0024,"2175": 1.43611,"2200": 1.21357,"2225": 0.36406,"2250": 0.04045}}}