{"type":"Feature","properties":{"GID_2":"MEX.28.21_2","GID_0":"MEX","country":"México","GID_1":"MEX.28_1","province":"Tamaulipas","NL_NAME_1":"NA","county":"Mainero","VARNAME_2":"NA","NL_NAME_2":"NA","TYPE_2":"Município","ENGTYPE_2":"Municipality","CC_2":"NA","HASC_2":"NA","name":"Mainero.county"},
"geometry":{"type": "MultiPolygon","coordinates": [[[[-99.6173,24.464,1319.4038],[-99.6141,24.4758,984.1246],[-99.6085,24.4758,1101.028],[-99.6097,24.4839,625.0819],[-99.611,24.482,683.3647],[-99.6134,24.4822,666.9991],[-99.61,24.5022,596.8289],[-99.606,24.5022,590.8291],[-99.6079,24.5056,584.4235],[-99.6093,24.5054,591.9026],[-99.608,24.5144,581.941],[-99.5982,24.5127,550.105],[-99.5814,24.5234,483.5188],[-99.5775,24.5268,471.6888],[-99.5769,24.5311,455.1602],[-99.5688,24.5346,437.3433],[-99.5657,24.5337,437.6741],[-99.5692,24.536,441.26],[-99.5744,24.5448,446.3394],[-99.5782,24.5466,442.928],[-99.5772,24.5473,442.917],[-99.5737,24.5482,441.3803],[-99.5728,24.5457,437.4944],[-99.5673,24.5433,432.7626],[-99.5608,24.5455,426.225],[-99.5534,24.5431,416.9722],[-99.5483,24.5443,413.988],[-99.5404,24.5381,408.7532],[-99.5361,24.5393,407.5292],[-99.536,24.5427,398.944],[-99.5309,24.5456,395.6118],[-99.5285,24.5495,393.3937],[-99.5264,24.5499,392.647],[-99.5251,24.5481,388.7408],[-99.5155,24.5522,382.5246],[-99.5126,24.5485,382.6575],[-99.5106,24.5504,382.2327],[-99.5077,24.549,382.9684],[-99.4992,24.554,373.3127],[-99.4934,24.5468,372.2306],[-99.4914,24.5465,368.3455],[-99.4864,24.5387,364.9606],[-99.4778,24.5344,358.6067],[-99.4771,24.531,362.9556],[-99.4718,24.5302,361.9898],[-99.47,24.5278,358.0007],[-99.4655,24.529,355.2529],[-99.4646,24.5309,358.2994],[-99.4598,24.5306,351.084],[-99.4568,24.5331,350.6453],[-99.4557,24.536,351.4769],[-99.4553,24.5799,417.9509],[-99.4515,24.5927,409.3398],[-99.4623,24.5961,403.2893],[-99.451,24.6211,379.156],[-99.4442,24.6165,390.6417],[-99.4049,24.7351,286.0476],[-99.4083,24.7344,286.7306],[-99.4103,24.7361,286.8824],[-99.4149,24.7352,287.3075],[-99.4229,24.7368,290.1799],[-99.4269,24.7277,292.2102],[-99.4367,24.7252,293.1693],[-99.4426,24.7268,293.9469],[-99.4481,24.7322,297.4765],[-99.4508,24.7308,297.3189],[-99.4506,24.7285,297.9576],[-99.4527,24.7284,298.0988],[-99.4556,24.7253,306.5928],[-99.4595,24.7249,298.979],[-99.465,24.72,302.5549],[-99.467,24.7201,301.0672],[-99.471,24.7149,305.9501],[-99.4777,24.7126,307.578],[-99.4769,24.7116,307.2663],[-99.4822,24.7082,310.9985],[-99.4849,24.7035,311.0871],[-99.4868,24.7033,312.672],[-99.4882,24.6999,311.3179],[-99.4919,24.6977,315.8044],[-99.4913,24.6953,317.3911],[-99.4941,24.688,321.4157],[-99.4983,24.6842,322.6447],[-99.5007,24.6792,323.8928],[-99.5006,24.666,332.7325],[-99.4977,24.6577,342.0385],[-99.4982,24.6541,342.4292],[-99.496,24.651,344.6993],[-99.4981,24.6483,344.792],[-99.4995,24.6413,346.526],[-99.5128,24.6345,356.2262],[-99.5207,24.6341,361.6861],[-99.5282,24.6316,368.9728],[-99.5304,24.628,371.6999],[-99.536,24.6258,374.9993],[-99.5379,24.6224,379.385],[-99.5398,24.6268,382.4216],[-99.5451,24.6265,384.7137],[-99.5478,24.6243,390.3438],[-99.5452,24.6187,395.6544],[-99.5478,24.6153,401.7],[-99.5462,24.6131,398.872],[-99.5498,24.6116,404.4307],[-99.5532,24.6124,409.9049],[-99.5572,24.6087,417.8154],[-99.5583,24.6098,412.1089],[-99.5574,24.6124,414.5283],[-99.5685,24.6173,421.0804],[-99.5701,24.62,424.3639],[-99.5737,24.6203,433.4444],[-99.5761,24.6236,432.1224],[-99.5794,24.6222,435.3015],[-99.5858,24.6224,441.7406],[-99.5858,24.6244,441.4595],[-99.5926,24.6194,451.9103],[-99.597,24.6227,458.8417],[-99.6031,24.6213,461.7154],[-99.6094,24.6225,489.8595],[-99.7047,24.5759,1603.3142],[-99.733,24.554,1753.6658],[-99.7198,24.4837,1812.5557],[-99.6364,24.5067,1254.9493],[-99.6286,24.4922,1441.0135],[-99.6173,24.464,1319.4038]]]]}}