{"type": "Feature","bbox": [-99.2862,17.2961,-98.8882,17.6853],"geometry": {"type": "MultiPolygon","coordinates": [[[[-98.9984,17.3013,2468.6982],[-98.9949,17.3085,2642.4678],[-98.9962,17.3176,2601.8438],[-98.9855,17.3246,2522.4419],[-98.9838,17.3362,2064.8816],[-98.9792,17.3424,1894.7662],[-98.9755,17.3454,1999.5916],[-98.9718,17.3445,2076.8242],[-98.9622,17.3529,2220.4556],[-98.9589,17.3582,2351.9883],[-98.957,17.3687,2290.0652],[-98.9704,17.3654,1994.7136],[-98.972,17.37,1831.6233],[-98.9866,17.3789,1284.7936],[-98.9894,17.3835,1179.3507],[-98.9938,17.3866,1117.8933],[-98.9953,17.3932,1029.8875],[-98.9983,17.3928,1016.3583],[-99.0062,17.3983,940.4298],[-99.0161,17.3999,905.7195],[-99.0187,17.4018,894.1664],[-99.0248,17.4012,867.2494],[-99.0275,17.3965,854.467],[-99.0426,17.3992,780.5448],[-99.0465,17.398,808.8296],[-99.0487,17.394,748.5723],[-99.0499,17.3946,748.5723],[-99.0482,17.3968,749.6399],[-99.0533,17.4019,803.5064],[-99.0551,17.4127,937.8879],[-99.0451,17.421,999.6754],[-99.0434,17.442,1263.4509],[-99.0439,17.4477,1409.0049],[-99.0524,17.4553,1729.8228],[-99.0535,17.4597,1964.6135],[-99.0513,17.48,2023.8054],[-99.0404,17.4813,1890.8049],[-99.0366,17.4865,1861.7159],[-99.0363,17.4899,1877.9189],[-99.033,17.4917,1829.6156],[-99.0331,17.495,1802.2236],[-99.0256,17.4946,1806.6774],[-99.0256,17.4979,1771.9624],[-99.0224,17.4994,1746.4268],[-99.0195,17.508,1727.8108],[-99.0152,17.5123,1573.8057],[-99.0156,17.5139,1614.9747],[-99.0107,17.5141,1701.8635],[-99.0103,17.5112,1683.0968],[-99.006,17.5091,1771.803],[-99.0048,17.5042,1910.059],[-99.0029,17.5028,1954.3169],[-98.9995,17.5045,1852.3379],[-98.9941,17.5122,1574.7014],[-98.9916,17.5127,1608.0259],[-98.9897,17.5106,1533.9421],[-98.9799,17.5157,1498.4829],[-98.9797,17.5119,1457.3363],[-98.9728,17.5051,1484.4543],[-98.9745,17.5008,1477.7717],[-98.972,17.4968,1479.248],[-98.969,17.4959,1513.325],[-98.9691,17.4936,1525.2295],[-98.9709,17.4925,1495.7355],[-98.9683,17.4864,1519.3013],[-98.9634,17.4832,1582.1719],[-98.9619,17.4782,1572.6058],[-98.9582,17.474,1523.2368],[-98.9536,17.4733,1600.5762],[-98.9549,17.4669,1587.2572],[-98.9473,17.4642,1686.7563],[-98.9426,17.4592,1630.8263],[-98.9485,17.455,1706.9487],[-98.9409,17.4493,1842.7257],[-98.9429,17.4394,1862.8788],[-98.9384,17.4292,1976.4014],[-98.9432,17.4193,2012.8434],[-98.9424,17.4148,2019.0831],[-98.9478,17.4124,2030.1414],[-98.9478,17.4079,2133.8887],[-98.9519,17.4059,2203.374],[-98.9527,17.4034,2286.1689],[-98.9424,17.407,2306.5872],[-98.9375,17.4122,2200.1179],[-98.9174,17.4217,2353.7524],[-98.9194,17.4253,2335.2053],[-98.9102,17.435,2452.4346],[-98.9013,17.4379,2308.3442],[-98.8896,17.4462,2485.0803],[-98.8882,17.4491,2442.3301],[-98.8928,17.4527,2492.9341],[-98.8951,17.468,2594.7217],[-98.894,17.4737,2448.8623],[-98.8885,17.4759,2460.7588],[-98.9111,17.4995,2343.0171],[-98.9637,17.5331,1882.3727],[-98.9919,17.5429,1419.3413],[-98.9908,17.5456,1453.6139],[-98.9941,17.5449,1474.3356],[-98.9989,17.5494,1415.2943],[-99.0289,17.5978,1786.3757],[-99.0377,17.5971,1929.9078],[-99.042,17.6008,1916.7209],[-99.0451,17.6012,1866.9207],[-99.0534,17.5989,1914.8557],[-99.0566,17.5939,1937.1677],[-99.0616,17.5902,1974.8214],[-99.0762,17.5945,2100.105],[-99.0769,17.5924,2097.9111],[-99.0794,17.5917,2120.2476],[-99.0776,17.595,2173.4934],[-99.0782,17.6043,2059.0039],[-99.0752,17.6253,1968.4463],[-99.073,17.6286,2001.3533],[-99.0853,17.6353,1905.927],[-99.0798,17.6581,1767.5509],[-99.1045,17.6563,1908.7035],[-99.1026,17.6662,2030.0403],[-99.1226,17.6764,2221.6943],[-99.1255,17.6743,2210.8838],[-99.1253,17.6814,2227.5522],[-99.1269,17.6853,2236.3481],[-99.1409,17.6796,2178.2812],[-99.1532,17.6791,2073.8916],[-99.1855,17.6702,1428.8442],[-99.1888,17.6687,1358.5905],[-99.1871,17.6672,1362.7034],[-99.1887,17.6665,1354.4655],[-99.1904,17.6678,1358.5905],[-99.1914,17.6665,1352.5521],[-99.1964,17.6661,1367.4139],[-99.197,17.6638,1371.4888],[-99.2001,17.6634,1406.5127],[-99.2148,17.6534,1491.0071],[-99.2151,17.6502,1514.9326],[-99.2128,17.6505,1479.3267],[-99.2103,17.6481,1481.47],[-99.2199,17.6421,1623.3352],[-99.2211,17.6428,1623.3352],[-99.2198,17.6447,1579.9702],[-99.2206,17.6469,1540.4935],[-99.2244,17.6457,1571.3264],[-99.2248,17.6427,1630.9525],[-99.2272,17.6427,1629.3267],[-99.2254,17.6386,1630.1752],[-99.2294,17.6406,1639.0945],[-99.2305,17.6443,1567.0869],[-99.2288,17.6474,1518.8553],[-99.226,17.648,1521.4292],[-99.2272,17.6501,1509.5397],[-99.2347,17.6477,1550.8665],[-99.2383,17.653,1572.3513],[-99.2407,17.6534,1579.048],[-99.2418,17.6517,1597.8663],[-99.2451,17.6538,1575.311],[-99.2488,17.6598,1587.765],[-99.2487,17.6569,1610.6361],[-99.2498,17.6573,1593.7153],[-99.2484,17.6546,1608.5348],[-99.2508,17.6532,1616.9849],[-99.2597,17.6552,1726.1572],[-99.2812,17.6524,2168.7427],[-99.2766,17.6377,2153.7676],[-99.2703,17.6246,2272.0393],[-99.2756,17.602,2060.0061],[-99.2743,17.5969,2136.2646],[-99.2753,17.5932,2098.6338],[-99.2694,17.5765,2101.7095],[-99.2667,17.5751,2124.9543],[-99.2681,17.5737,2144.6318],[-99.2728,17.5476,1903.4172],[-99.2722,17.5457,1840.7777],[-99.2634,17.5504,1815.3237],[-99.2621,17.5475,1887.1639],[-99.2581,17.5458,1957.682],[-99.2611,17.5435,1955.1082],[-99.2659,17.5428,1973.674],[-99.2714,17.5332,2023.5066],[-99.2772,17.5304,2132.8477],[-99.2815,17.5225,2065.6965],[-99.2853,17.5207,1996.1863],[-99.2834,17.503,1763.0107],[-99.2807,17.4992,1862.2764],[-99.2847,17.4933,1748.698],[-99.2831,17.4911,1760.0139],[-99.2862,17.4895,1733.2738],[-99.2845,17.4872,1696.0415],[-99.2682,17.4895,1813.1343],[-99.2667,17.486,1832.4722],[-99.2643,17.4853,1836.6461],[-99.2622,17.4897,1795.3694],[-99.263,17.4957,1626.9135],[-99.26,17.501,1489.0302],[-99.2427,17.4972,1473.0973],[-99.2319,17.4932,1339.3325],[-99.226,17.4857,1300.3137],[-99.2273,17.485,1307.2297],[-99.2237,17.4758,1337.8185],[-99.224,17.4722,1379.4481],[-99.2275,17.4692,1411.2067],[-99.2292,17.4647,1378.4176],[-99.2248,17.4636,1309.1152],[-99.2093,17.4483,1016.9252],[-99.2102,17.4536,1017.3785],[-99.1991,17.4445,1209.532],[-99.1795,17.4484,1045.4382],[-99.1771,17.4464,1014.67],[-99.176,17.4396,950.0326],[-99.1689,17.4426,1088.4448],[-99.1619,17.4434,859.4493],[-99.1612,17.4451,869.8217],[-99.1454,17.4526,1184.3727],[-99.1395,17.4539,1421.2046],[-99.1369,17.4375,1210.2554],[-99.1275,17.4378,1204.2256],[-99.1208,17.424,827.5415],[-99.0947,17.4228,1487.3967],[-99.0913,17.4244,1545.8434],[-99.0872,17.4299,1405.3589],[-99.0798,17.4309,1623.4417],[-99.0786,17.4211,1463.7502],[-99.0738,17.4079,1462.3904],[-99.0664,17.4015,1387.2122],[-99.0647,17.394,1113.3081],[-99.0588,17.3835,708.7856],[-99.0642,17.3775,790.4977],[-99.0472,17.3382,1411.135],[-99.0384,17.3343,1348.2983],[-99.0351,17.3291,1461.5093],[-99.0334,17.322,1514.2722],[-99.0293,17.3206,1604.0291],[-99.0251,17.3126,1716.1886],[-99.0144,17.3043,1974.0768],[-99.0091,17.2961,2346.9763],[-98.9984,17.3013,2468.6982]]]]}
,"properties": {"GID_2": "MEX.12.17_2","GID_0": "MEX","country": "México","GID_1": "MEX.12_1","province": "Guerrero","NL_NAME_1": "NA","county": "ChilapadeÁlvarez","VARNAME_2": "NA","NL_NAME_2": "NA","TYPE_2": "Município","ENGTYPE_2": "Municipality","CC_2": "NA","HASC_2": "NA","name": "Chilapade_Álvarez.county","area_km2": 751.6335,"hist_schema_id": "Elevation0-9000","hist_area_km2": {"700": 0.2226,"725": 0.8498,"750": 1.0724,"775": 1.7199,"800": 1.558,"825": 1.5985,"850": 1.6997,"875": 1.4366,"900": 2.3267,"925": 2.7112,"950": 3.0752,"975": 3.156,"1000": 4.2484,"1025": 4.3495,"1050": 5.6441,"1075": 5.8461,"1100": 6.6753,"1125": 6.9585,"1150": 7.7675,"1175": 8.4148,"1200": 7.99,"1225": 7.6459,"1250": 7.8686,"1275": 7.4437,"1300": 6.6547,"1325": 8.4934,"1350": 12.7355,"1375": 15.7678,"1400": 18.2547,"1425": 19.4477,"1450": 19.7308,"1475": 23.0854,"1500": 23.3889,"1525": 27.1089,"1550": 26.3,"1575": 25.6742,"1600": 25.3712,"1625": 22.9862,"1650": 24.0979,"1675": 24.6639,"1700": 23.673,"1725": 22.5611,"1750": 22.3585,"1775": 22.2765,"1800": 21.6097,"1825": 19.4268,"1850": 17.1429,"1875": 17.1232,"1900": 16.7795,"1925": 14.8389,"1950": 14.1719,"1975": 12.757,"2000": 11.342,"2025": 12.3733,"2050": 11.5845,"2075": 11.1602,"2100": 10.0685,"2125": 9.1592,"2150": 6.9148,"2175": 5.1559,"2200": 4.0035,"2225": 2.5882,"2250": 2.7099,"2275": 2.3053,"2300": 2.0022,"2325": 1.5776,"2350": 1.2136,"2375": 1.3957,"2400": 1.0518,"2425": 0.7686,"2450": 0.9507,"2475": 0.8092,"2500": 0.4248,"2525": 0.4248,"2550": 0.4045,"2575": 0.1618,"2600": 0.1012,"2625": 0.1215,"2650": 0.0607,"2675": 0.0405}}}