{"type":"Feature","properties":{"GID_2":"MEX.19.5_2","GID_0":"MEX","country":"México","GID_1":"MEX.19_1","province":"NuevoLeón","NL_NAME_1":"NA","county":"Apodaca","VARNAME_2":"NA","NL_NAME_2":"NA","TYPE_2":"Município","ENGTYPE_2":"Municipality","CC_2":"NA","HASC_2":"NA","name":"Apodaca.county"},
"geometry":{"type": "MultiPolygon","coordinates": [[[[-100.1147,25.8365,377.2952],[-100.1147,25.8403,368.1391],[-100.1174,25.8451,388.0214],[-100.1275,25.8476,393.5056],[-100.1347,25.8458,397.6313],[-100.1459,25.854,396.5465],[-100.1575,25.8565,404.9753],[-100.17,25.8624,409.217],[-100.1724,25.8604,413.3278],[-100.1746,25.8626,410.6102],[-100.2353,25.8632,444.5571],[-100.2429,25.8524,448.3234],[-100.254,25.8793,447.5374],[-100.2717,25.8718,461.9109],[-100.2717,25.8495,461.6461],[-100.2728,25.8494,461.7523],[-100.2706,25.8457,459.6936],[-100.2675,25.83,464.7155],[-100.2659,25.8302,464.0858],[-100.2613,25.802,462.1542],[-100.2679,25.804,464.9471],[-100.27,25.802,467.1522],[-100.2671,25.7643,477.877],[-100.2622,25.7637,476.0357],[-100.2449,25.7556,467.7013],[-100.238,25.746,471.7281],[-100.2376,25.7477,465.813],[-100.2256,25.7406,461.0959],[-100.2194,25.7396,459.5403],[-100.2188,25.7377,459.0255],[-100.2069,25.7319,454.2906],[-100.1781,25.7295,440.1283],[-100.1803,25.7194,438.5311],[-100.182,25.72,438.5311],[-100.1833,25.7097,445.7698],[-100.1778,25.7067,442.9398],[-100.1603,25.7057,433.0499],[-100.1273,25.7001,412.6093],[-100.1272,25.6972,419.6201],[-100.1231,25.6941,415.2112],[-100.1206,25.6974,417.0298],[-100.117,25.6966,417.5579],[-100.1164,25.7032,413.2908],[-100.1068,25.7014,396.5935],[-100.1097,25.7082,397.8103],[-100.1123,25.71,399.264],[-100.1156,25.7091,398.2597],[-100.115,25.715699999999998,392.0644],[-100.1249,25.7162,394.1732],[-100.1243,25.7346,386.8532],[-100.1486,25.7311,400.2258],[-100.1389,25.7384,395.1412],[-100.1356,25.7381,394.457],[-100.1352,25.7433,391.1945],[-100.1128,25.7596,392.1906],[-100.1049,25.7678,379.4725],[-100.101,25.7784,378.8533],[-100.102,25.7906,362.8186],[-100.1057,25.7924,365.5612],[-100.1051,25.7959,368.5857],[-100.1012,25.8004,361.77],[-100.107,25.803,363.9817],[-100.1207,25.8135,374.3394],[-100.1281,25.8146,375.1394],[-100.1319,25.8211,381.5398],[-100.1297,25.827,390.0931],[-100.1302,25.8303,391.9149],[-100.1147,25.8365,377.2952]]]]}}