{"type": "Feature","bbox": [-98.5131,23.2724,-97.6812,24.4775],"geometry": {"type": "MultiPolygon","coordinates": [[[[-97.7631,23.5715,0.0],[-97.7611,23.5704,0.0],[-97.759,23.5718,0.0],[-97.7614,23.5757,0.0],[-97.7627,23.5759,0.0],[-97.7619,23.5725,0.0],[-97.7631,23.5715,0.0]]],
[[[-97.7496,23.8211,0.0],[-97.7498,23.8164,0.0],[-97.748,23.8155,0.0],[-97.7463,23.8214,0.0],[-97.7499,23.827,0.0],[-97.7506,23.8253,0.0],[-97.7496,23.8211,0.0]]],
[[[-97.7511,23.8806,0.0],[-97.7491,23.8871,0.0],[-97.7502,23.8974,0.0],[-97.7508,23.8882,0.0],[-97.754,23.8864,0.0],[-97.7529,23.8848,0.0],[-97.7542,23.8808,0.0],[-97.7535,23.8745,0.0],[-97.7511,23.8806,0.0]]],
[[[-97.7478,23.9211,0.9621],[-97.747,23.922,0.9621],[-97.7451,23.9194,0.0],[-97.744,23.922,1.0888],[-97.7532,23.935,0.0],[-97.7554,23.9303,0.0],[-97.7573,23.9185,0.0],[-97.7544,23.9142,0.0],[-97.753,23.9145,0.0],[-97.7515,23.9158,0.0],[-97.7512,23.9219,0.0],[-97.7478,23.9211,0.9621]]],
[[[-97.7608,23.5783,0.0],[-97.7586,23.5805,0.5251],[-97.7598,23.5828,0.5451],[-97.7675,23.587,0.0],[-97.7673,23.5838,0.0],[-97.7608,23.5783,0.0]]],
[[[-97.7631,23.6367,0.0],[-97.7625,23.6308,0.0],[-97.7599,23.638,0.0],[-97.7623,23.6444,0.0],[-97.7643,23.6424,0.0],[-97.7631,23.6367,0.0]]],
[[[-98.4365,23.8395,178.7516],[-98.4817,23.817,252.8697],[-98.457,23.7734,318.7994],[-98.4629,23.7211,336.8184],[-98.4955,23.7247,458.0994],[-98.5046,23.6468,487.5939],[-98.4965,23.6496,516.8643],[-98.4884,23.6358,525.4626],[-98.4942,23.634,517.2737],[-98.4956,23.6239,502.051],[-98.5131,23.6081,492.7343],[-98.4727,23.5684,522.9579],[-98.4603,23.5751,519.2071],[-98.4624,23.5649,530.0808],[-98.4636,23.5678,522.1056],[-98.4689,23.5653,561.8687],[-98.471,23.5575,549.0836],[-98.4689,23.555,529.3276],[-98.455,23.5659,553.3356],[-98.4486,23.5598,528.1732],[-98.4626,23.5473,573.6564],[-98.4296,23.5181,344.8003],[-98.4297,23.515,342.7851],[-98.4263,23.5125,363.5044],[-98.4311,23.5094,345.5527],[-98.4215,23.5068,372.36],[-98.4169,23.508,358.0781],[-98.4233,23.498,366.2802],[-98.4254,23.4986,390.3897],[-98.4254,23.5015,359.2312],[-98.4267,23.5015,359.2312],[-98.4302,23.496,367.9546],[-98.4312,23.4907,412.7685],[-98.4215,23.485,382.601],[-98.4151,23.477,389.193],[-98.4176,23.4745,389.8942],[-98.4206,23.4765,397.6254],[-98.4226,23.4732,445.0597],[-98.4263,23.4732,392.0753],[-98.4295,23.4701,405.2441],[-98.4238,23.467,427.8208],[-98.4221,23.4635,426.7166],[-98.4275,23.4568,431.7491],[-98.4298,23.4574,406.3924],[-98.4302,23.4602,417.4143],[-98.436,23.4545,427.9549],[-98.4396,23.4564,426.3749],[-98.4386,23.4515,424.4362],[-98.435,23.449,457.5394],[-98.4348,23.4463,433.6411],[-98.4473,23.4137,718.5365],[-98.4064,23.4082,751.7601],[-98.4051,23.4151,627.2039],[-98.3669,23.4101,684.7167],[-98.3551,23.382,724.5303],[-98.3648,23.3353,805.6989],[-98.3336,23.3087,757.9135],[-98.299,23.2808,469.9056],[-98.2864,23.2868,820.9586],[-98.282,23.2962,751.1564],[-98.2623,23.2902,679.9895],[-98.2602,23.295,545.7291],[-98.2576,23.2943,604.9121],[-98.2518,23.2973,399.8448],[-98.2412,23.2921,470.8055],[-98.2405,23.2833,670.5824],[-98.2128,23.293,648.5733],[-98.2059,23.3228,641.1556],[-98.2109,23.3474,405.1227],[-98.1989,23.3491,656.7667],[-98.1827,23.3578,486.5999],[-98.1664,23.3539,849.8151],[-98.1297,23.3495,196.7698],[-98.1265,23.3668,171.6434],[-98.1236,23.3698,168.9944],[-98.1204,23.3701,177.6596],[-98.0983,23.366,147.587],[-98.0995,23.3624,143.9268],[-98.097,23.361,142.2239],[-98.0902,23.3629,139.6827],[-98.0878,23.3591,137.5103],[-98.0899,23.3559,139.0471],[-98.0892,23.3525,137.124],[-98.0823,23.3494,132.8175],[-98.0798,23.3453,131.1634],[-98.0713,23.3427,126.482],[-98.066,23.3445,126.9209],[-98.0612,23.3435,124.2392],[-98.0486,23.3335,132.6327],[-98.0338,23.333,119.0173],[-98.0288,23.34,108.0205],[-98.0241,23.3402,106.5479],[-98.0238,23.3424,107.7892],[-98.0167,23.3437,102.6071],[-98.0114,23.3409,100.8346],[-98.0064,23.3421,98.4195],[-97.987,23.3024,87.1371],[-97.9647,23.2993,91.3221],[-97.9614,23.2896,92.623],[-97.9459,23.2885,128.4996],[-97.9456,23.2931,128.5322],[-97.9487,23.2934,121.6826],[-97.9336,23.3007,193.729],[-97.9302,23.3082,164.6163],[-97.9225,23.3099,157.7164],[-97.9126,23.315,163.1611],[-97.9107,23.3143,154.0533],[-97.9086,23.3088,162.2111],[-97.9049,23.3097,136.8119],[-97.9019,23.3085,170.6666],[-97.897,23.3129,159.9167],[-97.8876,23.3164,118.6141],[-97.8902,23.3,148.3492],[-97.8679,23.2969,93.7115],[-97.8676,23.299,87.761],[-97.8626,23.2977,87.5579],[-97.8597,23.3148,95.3681],[-97.8509,23.3136,89.5701],[-97.8502,23.3171,78.6594],[-97.8533,23.3176,73.1813],[-97.8525,23.3223,69.7425],[-97.8549,23.3227,65.1346],[-97.8558,23.328,86.2013],[-97.8376,23.3263,38.7759],[-97.8363,23.3337,32.9671],[-97.8284,23.3344,30.2956],[-97.8171,23.3382,23.2116],[-97.8154,23.335,22.6299],[-97.8131,23.335,22.4242],[-97.8083,23.3314,17.19],[-97.8117,23.3113,38.0817],[-97.8021,23.3098,34.98],[-97.8059,23.2921,44.6168],[-97.7895,23.2888,21.7415],[-97.7919,23.2736,9.9683],[-97.7841,23.2763,3.0242],[-97.7693,23.2724,0.6902],[-97.7703,23.3331,0.0],[-97.7754,23.333,7.0185],[-97.7814,23.3382,5.8883],[-97.7799,23.3386,1.5221],[-97.7758,23.3346,1.39],[-97.7703,23.3336,0.0],[-97.769,23.3782,2.6158],[-97.7653,23.4296,3.3073],[-97.7421,23.6688,1.5033],[-97.7383,23.7581,0.1637],[-97.7373,23.7648,0.0],[-97.7336,23.7672,0.0],[-97.737799999999993,23.7688,1.194],[-97.7392,23.7727,0.0],[-97.7422,23.772,2.3434],[-97.7443,23.7735,0.1038],[-97.7461,23.7686,0.0],[-97.7391,23.7669,3.6471],[-97.7392,23.763,1.4471],[-97.744,23.7634,0.5133],[-97.7497,23.7616,-0.6326],[-97.7524,23.7631,0.4367],[-97.7552,23.7566,0.3844],[-97.756,23.7507,0.9883],[-97.7547,23.7469,0.0],[-97.7559,23.7441,0.0],[-97.7551,23.7423,0.0],[-97.7542,23.7437,0.0],[-97.7541,23.7389,0.1951],[-97.7579,23.7356,0.0],[-97.7525,23.7295,0.0],[-97.7483,23.729,0.9457],[-97.744,23.7312,0.3251],[-97.7446,23.7215,0.0],[-97.7432,23.7203,0.0],[-97.7457,23.7134,-0.0013],[-97.7435,23.7063,0.0],[-97.7484,23.6901,0.0],[-97.7469,23.6871,0.0074],[-97.7476,23.6842,0.0361],[-97.7493,23.6822,0.0],[-97.7462,23.6732,0.0],[-97.7511,23.6581,0.0],[-97.7571,23.6572,0.0],[-97.7564,23.6526,0.0],[-97.7525,23.6505,0.0],[-97.7566,23.6437,0.0],[-97.7579,23.6447,0.0],[-97.7561,23.6393,0.0],[-97.7602,23.6307,0.0],[-97.7555,23.6369,0.0],[-97.755,23.643,0.0953],[-97.7522,23.6471,0.0344],[-97.7495,23.6445,0.0],[-97.749,23.6365,0.0],[-97.7505,23.6341,0.0],[-97.7508,23.6252,0.0],[-97.7495,23.6201,0.3835],[-97.7523,23.62,0.0],[-97.7527,23.6184,0.0],[-97.7511,23.6057,0.0],[-97.7526,23.606,0.0],[-97.7536,23.6095,0.0],[-97.7559,23.6076,0.0],[-97.7509,23.5991,0.0],[-97.7525,23.5944,0.2198],[-97.758,23.5932,0.286],[-97.7594,23.5912,0.0],[-97.7532,23.584,0.0],[-97.7571,23.5653,0.0],[-97.7581,23.5503,0.0],[-97.7632,23.5339,0.0],[-97.7632,23.5302,0.0],[-97.7617,23.5289,0.0],[-97.7625,23.5171,0.0],[-97.7659,23.5165,2.002],[-97.7687,23.5186,0.0],[-97.7734,23.5136,0.8738],[-97.7715,23.5221,0.0],[-97.7727,23.528,2.2665],[-97.7702,23.5392,0.0],[-97.7725,23.553,0.0],[-97.7712,23.5665,2.8718],[-97.7674,23.5707,2.5854],[-97.7653,23.5705,1.6258],[-97.7632,23.5738,0.1164],[-97.767,23.578,1.0956],[-97.7729,23.5927,0.6941],[-97.7719,23.6146,0.0],[-97.7732,23.6198,0.8891],[-97.7712,23.6269,0.6468],[-97.7654,23.6296,0.7648],[-97.7659,23.6317,0.0],[-97.7645,23.6319,0.0],[-97.7658,23.634,0.0],[-97.7686,23.6342,0.1711],[-97.7674,23.6359,0.0],[-97.7689,23.6388,0.0],[-97.7654,23.6413,0.0],[-97.7663,23.6506,0.6353],[-97.7613,23.6596,0.0067],[-97.7624,23.6671,0.0],[-97.7637,23.6672,0.0],[-97.764,23.665,0.0863],[-97.7686,23.6724,1.3083],[-97.7615,23.6762,-0.0248],[-97.7684,23.6886,0.5184],[-97.7679,23.6997,0.041],[-97.7637,23.703,0.0],[-97.767,23.7205,0.1061],[-97.7617,23.7362,0.0],[-97.7631,23.7437,0.0775],[-97.7596,23.7509,0.1232],[-97.7584,23.7589,-0.5085],[-97.7548,23.7595,0.1937],[-97.7515,23.7659,0.0],[-97.7553,23.766,0.2167],[-97.7598,23.7684,0.5504],[-97.7631,23.771,0.2394],[-97.7657,23.7773,0.0],[-97.7724,23.7799,0.1187],[-97.7788,23.7779,1.0759],[-97.7805,23.7811,0.0],[-97.7778,23.7843,1.5079],[-97.7705,23.7874,2.5069],[-97.7545,23.7812,0.37],[-97.7521,23.783,1.4907],[-97.7527,23.78,0.0],[-97.7462,23.779,1.1218],[-97.748,23.7777,0.0],[-97.7474,23.7768,0.1644],[-97.7438,23.7755,0.16],[-97.7432,23.7767,0.16],[-97.7431,23.7749,0.011],[-97.7377,23.7748,0.566],[-97.7372,23.7728,0.0],[-97.7362,23.7736,0.0],[-97.7315,23.7717,0.0],[-97.7338,23.7734,0.0],[-97.736,23.7968,0.5883],[-97.7373,23.9536,0.0],[-97.7238,24.1403,2.56],[-97.7117,24.2718,0.0],[-97.7123,24.2771,0.0],[-97.7177,24.277,0.498],[-97.7213,24.2536,0.0],[-97.7233,24.2434,0.0],[-97.7263,24.2379,0.1541],[-97.728,24.2245,0.0692],[-97.7264,24.22,0.0],[-97.7253,24.2283,0.0],[-97.7237,24.2279,0.0],[-97.7243,24.223,0.0],[-97.7213,24.2212,0.0],[-97.7253,24.2129,0.2519],[-97.7269,24.2141,0.0],[-97.7278,24.221,0.0],[-97.7283,24.2186,0.0],[-97.7263,24.2062,0.1736],[-97.7296,24.193,0.0],[-97.7296,24.1838,0.0],[-97.7324,24.1758,0.0],[-97.7312,24.1643,0.0],[-97.7305,24.1754,0.1116],[-97.7267,24.1765,0.0],[-97.7256,24.1796,0.0],[-97.7251,24.1766,0.8289],[-97.7298,24.1692,0.0],[-97.7291,24.1602,0.3138],[-97.7303,24.1597,-0.0116],[-97.7323,24.1659,0.0],[-97.7332,24.1665,0.0],[-97.7337,24.1648,0.0],[-97.7318,24.1506,0.0],[-97.7342,24.142,0.0],[-97.7309,24.1387,0.0],[-97.7295,24.1501,0.0],[-97.7278,24.1496,0.0],[-97.7275,24.1464,0.0],[-97.7288,24.146,0.0],[-97.7304,24.1305,0.0],[-97.7335,24.1236,0.0],[-97.7311,24.1245,0.0],[-97.7307,24.1203,0.5017],[-97.7334,24.1172,0.0],[-97.7321,24.1157,0.0],[-97.737,24.1098,0.0],[-97.7366,24.1064,0.0],[-97.7337,24.104,0.0],[-97.7337,24.0969,0.3094],[-97.7382,24.093,0.0],[-97.7366,24.0887,0.0],[-97.7348,24.0909,0.0],[-97.7325,24.0905,0.0],[-97.7335,24.0876,1.4881],[-97.7313,24.0868,0.2156],[-97.7359,24.0817,0.0],[-97.7322,24.0785,0.0],[-97.7356,24.0756,0.0],[-97.7338,24.0749,1.9727],[-97.7369,24.0681,1.7578],[-97.7366,24.0639,0.599],[-97.7349,24.0626,0.0],[-97.7368,24.0596,1.1428],[-97.7343,24.0594,0.8006],[-97.7334,24.0575,1.0684],[-97.7377,24.0573,0.793],[-97.7357,24.0565,2.2929],[-97.7389,24.0536,0.0],[-97.7398,24.0478,0.0],[-97.7385,24.0424,0.6654],[-97.7356,24.0411,0.0],[-97.737,24.0392,0.0],[-97.7381,24.0254,1.2372],[-97.7349,24.0268,1.1882],[-97.7349,24.0211,1.8545],[-97.7356,24.02,1.6489],[-97.7372,24.0207,0.6915],[-97.7381,24.0241,1.2372],[-97.7399,24.0207,0.0],[-97.7374,24.0184,1.8484],[-97.7398,24.0158,0.0],[-97.7389,24.0137,1.1193],[-97.7415,24.0132,0.6004],[-97.7424,24.0083,0.0],[-97.7402,24.0043,0.0],[-97.7414,24.0004,0.209],[-97.7436,24.0004,0.0],[-97.7419,23.9816,0.0],[-97.7427,23.969,0.0],[-97.7451,23.9589,0.0],[-97.7516,23.9479,0.8362],[-97.7521,23.9443,0.0],[-97.7491,23.9343,0.0],[-97.7433,23.9311,0.5509],[-97.7407,23.9195,0.0],[-97.7416,23.9011,0.0],[-97.7377,23.8933,0.0],[-97.7387,23.8921,0.0],[-97.7414,23.8953,0.0],[-97.7419,23.8918,0.0],[-97.7392,23.8894,1.4127],[-97.7401,23.8811,0.0],[-97.7409,23.8794,0.0],[-97.7455,23.8795,0.0],[-97.7443,23.8727,0.0],[-97.7467,23.8684,0.6566],[-97.74,23.8618,0.0],[-97.74,23.8566,0.0],[-97.7431,23.8636,0.0],[-97.749,23.8685,0.0],[-97.7535,23.8618,1.0855],[-97.7491,23.8533,0.0],[-97.7453,23.8537,0.0],[-97.7432,23.8502,0.0],[-97.7424,23.8539,0.0],[-97.7392,23.8514,0.7972],[-97.7404,23.8471,0.0],[-97.739,23.8306,0.2623],[-97.7445,23.8227,0.0],[-97.744,23.8202,0.0],[-97.747,23.813,0.0],[-97.7468,23.8105,0.0],[-97.7446,23.8096,1.1261],[-97.7444,23.8069,0.0],[-97.7462,23.8045,0.5771],[-97.7502,23.8101,0.0],[-97.753,23.8212,0.0],[-97.7538,23.8313,0.0],[-97.7513,23.8378,0.0],[-97.7522,23.8452,0.0],[-97.7546,23.8483,0.0],[-97.7591,23.862,0.0],[-97.7565,23.8772,0.0],[-97.7608,23.881,0.0],[-97.7637,23.8994,0.0],[-97.7669,23.9037,0.0],[-97.7701,23.913,0.0],[-97.7701,23.9264,0.0],[-97.7676,23.9309,0.0],[-97.7674,23.9255,0.0],[-97.7656,23.9224,0.0],[-97.763,23.9255,0.0],[-97.7635,23.93,0.0],[-97.7666,23.9317,0.0],[-97.7685,23.9417,0.0],[-97.7667,23.9459,0.0],[-97.7635,23.9481,0.9202],[-97.7611,23.9539,0.0],[-97.7608,23.9604,0.0],[-97.7612,23.9644,0.0],[-97.7701,23.9764,0.0],[-97.7717,23.9874,0.0],[-97.7738,24.0097,0.0],[-97.7715,24.0288,0.0],[-97.774,24.0405,0.0],[-97.7744,24.0678,0.0],[-97.7751,24.0703,0.0],[-97.7784,24.0711,0.0],[-97.7895,24.0645,0.0],[-97.7956,24.0628,0.0],[-97.7918,24.059,0.0],[-97.7928,24.0537,0.0],[-97.7883,24.0482,0.0],[-97.7868,24.0415,3.2969],[-97.7934,24.0287,0.0],[-97.7925,24.0232,0.6695],[-97.7947,24.0276,0.0],[-97.7901,24.0457,0.0],[-97.8009,24.0607,0.0],[-97.8022,24.0764,4.2035],[-97.8041,24.0777,0.5796],[-97.8083,24.0742,0.8754],[-97.8084,24.0806,0.0],[-97.8043,24.0834,0.0],[-97.807,24.0896,0.0],[-97.8077,24.1,0.4557],[-97.8064,24.0957,0.0],[-97.8056,24.098,0.0],[-97.8072,24.1012,0.0],[-97.8132,24.1028,0.8966],[-97.8061,24.1023,0.6989],[-97.8044,24.0981,2.1227],[-97.8054,24.0927,4.991],[-97.8038,24.0894,0.0],[-97.800299999999993,24.0993,0.0],[-97.7895,24.1053,0.0],[-97.7882,24.1042,0.0],[-97.7894,24.1025,0.0],[-97.7879,24.0986,0.0],[-97.7903,24.0906,0.0],[-97.7982,24.0817,0.0],[-97.7969,24.0777,0.0],[-97.7976,24.0723,0.0],[-97.7927,24.0655,0.0],[-97.7886,24.0693,0.0],[-97.7843,24.079,1.264],[-97.7727,24.0855,0.4696],[-97.7718,24.0892,0.0],[-97.7746,24.1103,0.0],[-97.7726,24.1214,0.0],[-97.7692,24.1285,2.4196],[-97.7712,24.138,2.2349],[-97.7687,24.1458,4.6414],[-97.765,24.15,1.1078],[-97.766,24.1565,0.0],[-97.7626,24.1624,2.4824],[-97.7607,24.1739,0.0],[-97.7636,24.1756,0.0],[-97.7651,24.1795,0.0],[-97.766,24.1768,0.2202],[-97.7663,24.1779,0.1556],[-97.7667,24.1825,1.9432],[-97.7639,24.1898,0.0],[-97.7713,24.1924,0.0],[-97.7724,24.1976,0.0],[-97.7786,24.1967,2.5449],[-97.7841,24.193,1.6202],[-97.789,24.1957,0.0],[-97.793,24.2015,1.816],[-97.7941,24.2084,1.4909],[-97.7976,24.2104,0.5],[-97.7969,24.2117,0.5],[-97.7926,24.208,0.5],[-97.7921,24.2027,0.4233],[-97.7867,24.1958,2.0389],[-97.7815,24.1963,0.3949],[-97.7779,24.199,2.653],[-97.7703,24.1986,0.3828],[-97.7686,24.1974,0.3828],[-97.7674,24.1922,0.0],[-97.7651,24.1914,0.8789],[-97.7612,24.2232,1.1232],[-97.7567,24.2318,0.7979],[-97.7573,24.2468,1.9055],[-97.7499,24.2611,0.2069],[-97.7449,24.2644,0.0],[-97.7458,24.2654,0.0],[-97.7495,24.2636,0.6809],[-97.747,24.2689,0.0],[-97.7501,24.2704,0.1626],[-97.7535,24.2623,0.0],[-97.7497,24.3089,0.0],[-97.7477,24.3099,0.0],[-97.747,24.3058,0.0],[-97.7453,24.3067,0.0],[-97.7485,24.3228,-0.5],[-97.7473,24.3269,0.0],[-97.7454,24.3236,0.0],[-97.7467,24.3174,0.0],[-97.7449,24.3183,0.1185],[-97.743,24.3157,0.0],[-97.7441,24.3132,0.0],[-97.737799999999993,24.3077,0.0],[-97.7433,24.3176,0.077],[-97.7508,24.3419,0.3127],[-97.7531,24.3602,0.2367],[-97.7509,24.418,1.9405],[-97.7495,24.4224,1.057],[-97.7499,24.4248,0.0],[-97.7539,24.426,0.0],[-97.7547,24.4286,0.0],[-97.7485,24.4355,0.3305],[-97.7506,24.4371,0.0],[-97.7505,24.439,0.978],[-97.7444,24.4436,0.0],[-97.7467,24.4468,1.3119],[-97.7471,24.452,0.0],[-97.7692,24.4417,0.0],[-97.7691,24.4397,0.3911],[-97.7721,24.4369,1.834],[-97.7745,24.4249,4.2141],[-97.7901,24.4154,1.8165],[-97.7918,24.4136,0.0],[-97.7917,24.4098,0.2041],[-97.7949,24.414,0.0],[-97.8151,24.4042,0.0],[-97.796,24.4107,0.6886],[-97.794,24.4103,0.0],[-97.7926,24.4062,0.0],[-97.7883,24.4158,0.2687],[-97.7877,24.4119,0.0],[-97.7855,24.4115,0.0],[-97.7867,24.4146,0.0],[-97.7824,24.4173,1.0495],[-97.783,24.4102,0.0],[-97.7806,24.4166,0.0],[-97.7816,24.4195,0.2785],[-97.7786,24.4181,2.4157],[-97.7804,24.4094,2.4464],[-97.7856,24.4043,0.0],[-97.784,24.4006,0.8721],[-97.7912,24.3956,0.0],[-97.7909,24.391,0.7709],[-97.7888,24.3954,0.0],[-97.7862,24.3961,0.7698],[-97.7854,24.3938,0.0],[-97.7888,24.3895,1.1249],[-97.7876,24.3817,0.0],[-97.7858,24.3808,0.8406],[-97.788,24.3758,0.0],[-97.7934,24.371,0.0],[-97.7938,24.3677,0.0],[-97.7892,24.3574,0.385],[-97.7922,24.340699999999998,0.0],[-97.7903,24.3363,2.3526],[-97.7926,24.3332,0.0],[-97.7922,24.3302,0.0],[-97.7947,24.3254,0.0],[-97.7926,24.3238,0.3366],[-97.7957,24.3176,2.6354],[-97.7981,24.329,0.2434],[-97.7968,24.3307,0.0],[-97.7963,24.3403,0.0],[-97.8043,24.3381,0.0],[-97.809,24.3239,0.9747],[-97.8106,24.3236,1.2059],[-97.81,24.3264,2.2631],[-97.8134,24.3272,0.0],[-97.8149,24.3243,0.9356],[-97.8185,24.3234,1.3665],[-97.8165,24.3284,0.1822],[-97.8181,24.3291,0.5644],[-97.8217,24.3288,0.2674],[-97.824,24.3256,1.1413],[-97.8245,24.3283,1.3476],[-97.8229,24.3302,2.1118],[-97.8084,24.3285,0.5136],[-97.808,24.3396,0.0],[-97.8132,24.3391,0.0],[-97.8139,24.3403,1.7347],[-97.8037,24.3441,0.2888],[-97.804,24.3474,1.8914],[-97.8099,24.3525,0.0],[-97.8162,24.3485,0.35],[-97.8154,24.3546,0.0],[-97.8187,24.3544,1.0008],[-97.8193,24.3567,1.0944],[-97.8229,24.3582,0.9011],[-97.8189,24.3578,0.3553],[-97.8184,24.3599,1.8211],[-97.817,24.3616,0.0],[-97.8166,24.3685,0.0],[-97.8101,24.3687,0.0],[-97.8088,24.3703,0.0],[-97.8098,24.3713,2.6216],[-97.8052,24.3746,0.0],[-97.812,24.3844,0.0],[-97.8106,24.3798,0.0],[-97.8169,24.3823,0.0],[-97.8209,24.3803,0.3759],[-97.8204,24.3854,2.405],[-97.8144,24.3853,0.0],[-97.8165,24.3887,0.641],[-97.8245,24.3922,0.0],[-97.8246,24.3895,0.3953],[-97.8294,24.3855,1.5525],[-97.8312,24.3879,0.2691],[-97.8317,24.3898,0.0],[-97.8266,24.3919,0.0],[-97.8267,24.3933,2.1745],[-97.8298,24.3944,0.1521],[-97.8284,24.3969,1.7459],[-97.8301,24.3981,0.0],[-97.8354,24.3993,0.0],[-97.8289,24.403199999999998,0.0],[-97.8259,24.4082,0.0],[-97.8393,24.4128,0.8909],[-97.8336,24.4154,0.0],[-97.8307,24.4129,0.0],[-97.8294,24.4156,0.3235],[-97.835,24.4188,0.0],[-97.836,24.4228,0.0],[-97.8439,24.434,0.0],[-98.0196,24.3222,55.797],[-98.0194,24.263,54.5048],[-98.0172,24.2608,54.3278],[-98.0149,24.2615,53.339],[-98.0131,24.2571,51.9234],[-98.0139,24.2552,57.5159],[-98.0019,24.2337,51.2413],[-98.0356,24.2335,74.6014],[-98.0371,24.1976,71.7848],[-98.0599,24.1975,92.655],[-98.0599,24.1847,93.8415],[-98.0747,24.1701,110.7169],[-98.001,24.1225,65.9391],[-98.0489,24.1229,97.7561],[-98.049,24.1147,98.6063],[-98.1329,24.1151,174.0113],[-98.1355,24.0861,146.4267],[-98.1418,24.0768,161.6091],[-98.14,24.0569,154.3582],[-98.2004,24.0565,73.5495],[-98.1983,24.0545,72.9057],[-98.1976,24.0479,68.9557],[-98.1929,24.0424,71.8948],[-98.1909,24.0421,73.114],[-98.1882,24.0366,72.3004],[-98.1907,24.0311,68.9934],[-98.1915,24.0208,71.0158],[-98.1941,24.015,72.8493],[-98.1945,24.0029,73.194],[-98.2013,24.0083,66.5756],[-98.202,24.0064,65.8611],[-98.2109,24.0076,51.7226],[-98.2135,24.0036,46.1457],[-98.216,24.0035,43.5127],[-98.2207,23.999,41.5689],[-98.2256,23.9988,37.0654],[-98.2262,23.9961,35.3053],[-98.2295,23.9958,33.3832],[-98.2314,23.9929,32.0797],[-98.2304,23.9907,31.8943],[-98.2354,23.9867,29.6226],[-98.2334,23.9836,30.6693],[-98.2343,23.9818,30.2421],[-98.2371,23.9814,28.3899],[-98.2377,23.9737,31.8352],[-98.2342,23.9712,28.7711],[-98.2337,23.9652,36.38],[-98.2168,23.965699999999998,39.192],[-98.2086,23.9712,46.5969],[-98.1978,23.9746,63.6913],[-98.1905,23.9709,69.2339],[-98.1912,23.9674,68.2873],[-98.1883,23.962,68.3193],[-98.2063,23.9614,46.2335],[-98.2122,23.9559,41.5383],[-98.2209,23.9537,35.8756],[-98.2228,23.95,33.0393],[-98.237799999999993,23.952,34.3352],[-98.2414,23.9325,22.8783],[-98.2488,23.9298,27.978],[-98.2514,23.9252,30.4067],[-98.2573,23.9237,35.6364],[-98.2634,23.9256,27.0831],[-98.4365,23.8395,178.7516]]],
[[[-97.7993,24.0973,0.0],[-97.7995,24.0942,0.0],[-97.795,24.0912,0.0],[-97.7942,24.0939,0.0],[-97.7993,24.0973,0.0]]],
[[[-97.7591,24.0779,0.0],[-97.7597,24.0692,0.0],[-97.7567,24.0664,0.0],[-97.7544,24.0707,0.0],[-97.755,24.0772,0.0],[-97.7486,24.0824,0.0],[-97.7492,24.087,0.0],[-97.7512,24.0893,0.0],[-97.7543,24.09,0.0],[-97.7555,24.0886,0.0],[-97.7591,24.0779,0.0]]],
[[[-97.7594,24.1092,0.0],[-97.7618,24.1041,0.0],[-97.7608,24.097,0.0],[-97.7545,24.1055,0.0],[-97.7556,24.11,0.0],[-97.7594,24.1092,0.0]]],
[[[-97.7556,24.1015,0.0],[-97.7551,24.0976,0.0],[-97.7509,24.1004,0.0],[-97.7474,24.1119,0.0],[-97.7487,24.1153,0.3522],[-97.7509,24.1126,0.0],[-97.7513,24.1072,0.0],[-97.7556,24.1015,0.0]]],
[[[-97.7515,24.135,0.0],[-97.753,24.1326,0.0],[-97.7531,24.1268,0.0],[-97.75,24.1248,0.0],[-97.7494,24.1303,0.0],[-97.7515,24.135,0.0]]],
[[[-97.7553,24.142,0.3562],[-97.7546,24.1353,0.0],[-97.7531,24.1405,0.0],[-97.7541,24.1426,0.0],[-97.7553,24.142,0.3562]]],
[[[-97.7591,24.1406,0.0],[-97.7573,24.1378,0.0],[-97.756,24.144,0.0],[-97.7574,24.1445,0.0],[-97.7576,24.1468,0.0],[-97.7592,24.144,0.0],[-97.7591,24.1406,0.0]]],
[[[-97.7472,23.8301,0.0],[-97.7451,23.8266,0.0],[-97.7415,23.829,0.0],[-97.7454,23.8326,0.0],[-97.7452,23.8368,0.0],[-97.7471,23.8405,0.0],[-97.748,23.8334,0.0],[-97.7472,23.8301,0.0]]],
[[[-97.744,23.8395,0.0],[-97.744,23.8373,0.0],[-97.7421,23.8361,0.0],[-97.7435,23.8417,0.0],[-97.744,23.8395,0.0]]],
[[[-97.7372,24.072,0.555],[-97.7388,24.0803,0.0],[-97.737,24.0866,0.0],[-97.7388,24.0897,0.0],[-97.7404,24.0761,0.0],[-97.7399,24.0718,0.0],[-97.7381,24.0708,0.0],[-97.7372,24.072,0.555]]],
[[[-97.7395,24.1123,0.0],[-97.7363,24.1136,0.0],[-97.733,24.1198,0.0],[-97.7356,24.124,0.0],[-97.7323,24.1313,0.0],[-97.732,24.1385,0.0],[-97.7341,24.1401,0.0],[-97.7398,24.1181,0.0],[-97.742,24.1161,0.614],[-97.7429,24.1188,0.0],[-97.7447,24.1181,0.1312],[-97.7432,24.1134,0.1628],[-97.7456,24.1083,0.1825],[-97.7461,24.0983,0.0],[-97.7438,24.0956,0.0],[-97.7421,24.0962,0.0],[-97.7424,24.1005,1.6854],[-97.7377,24.1046,0.4102],[-97.7409,24.1086,0.0],[-97.7395,24.1123,0.0]]],
[[[-97.7396,24.1439,0.0],[-97.738,24.1266,0.0],[-97.7381,24.1404,0.1544],[-97.7366,24.149,0.0],[-97.7376,24.1523,0.0],[-97.7396,24.1439,0.0]]],
[[[-97.744,24.259,0.3358],[-97.7421,24.2606,0.2491],[-97.7429,24.2622,0.0],[-97.7457,24.2592,0.3358],[-97.744,24.259,0.3358]]],
[[[-97.7429,24.2708,0.2124],[-97.7463,24.2819,0.0],[-97.7458,24.2909,0.0],[-97.7483,24.2882,0.0],[-97.7511,24.2769,0.0],[-97.7504,24.2755,0.0],[-97.7473,24.2818,0.0],[-97.7445,24.2661,0.0],[-97.7429,24.2708,0.2124]]],
[[[-97.7307,24.2816,0.0762],[-97.7382,24.2865,0.074],[-97.7407,24.2921,0.0],[-97.7418,24.2918,0.0],[-97.7406,24.285,0.1187],[-97.7415,24.2808,0.0],[-97.7307,24.2816,0.0762]]],
[[[-97.7231,24.2653,0.0],[-97.7226,24.2712,0.1648],[-97.7212,24.2709,0.1648],[-97.7196,24.2749,0.0],[-97.7202,24.2786,0.0],[-97.7288,24.2604,0.0801],[-97.7346,24.2393,0.0733],[-97.7397,24.2286,0.2605],[-97.7398,24.2204,0.0],[-97.7386,24.2206,0.0],[-97.7395,24.2243,0.0],[-97.7374,24.2255,0.0],[-97.7373,24.2274,0.077],[-97.7353,24.2269,0.0],[-97.7366,24.2294,0.0],[-97.7347,24.2362,0.0],[-97.733,24.2355,0.057],[-97.7306,24.2391,0.2122],[-97.7314,24.2445,0.3214],[-97.729,24.246,0.0],[-97.7259,24.2613,0.0],[-97.7238,24.2665,0.0],[-97.7231,24.2653,0.0]]],
[[[-97.7308,24.289,0.0],[-97.7313,24.2918,0.0],[-97.7296,24.2944,0.21],[-97.7264,24.2947,0.0],[-97.7302,24.2996,0.0],[-97.7336,24.2881,0.0],[-97.7308,24.289,0.0]]],
[[[-97.7257,24.3096,0.0],[-97.7275,24.3015,0.0],[-97.7258,24.2993,0.0],[-97.7264,24.3024,0.0],[-97.7242,24.3088,0.0],[-97.7254,24.311,0.0],[-97.7257,24.3096,0.0]]],
[[[-97.7222,24.3274,0.0],[-97.7219,24.3215,0.0],[-97.7201,24.3184,0.0],[-97.7209,24.3217,0.0],[-97.719,24.3228,0.0],[-97.7192,24.3271,0.0],[-97.72,24.3285,0.0],[-97.7222,24.3274,0.0]]],
[[[-97.746,24.2965,0.0],[-97.7471,24.2901,0.0],[-97.7447,24.2945,0.0],[-97.7447,24.3017,0.0],[-97.746,24.2965,0.0]]],
[[[-97.7475,24.2986,0.0637],[-97.7448,24.3034,0.0],[-97.7453,24.3051,0.0],[-97.7469,24.3041,0.0],[-97.7498,24.2927,0.0851],[-97.7475,24.2986,0.0637]]],
[[[-97.7643,24.155,2.8124],[-97.7626,24.1514,0.0],[-97.7596,24.154,0.8272],[-97.7624,24.1565,0.0],[-97.7643,24.155,2.8124]]],
[[[-97.8012,24.3455,1.2483],[-97.8022,24.3428,0.0],[-97.7981,24.3413,0.0],[-97.7994,24.3462,1.2483],[-97.7982,24.349,0.0],[-97.8015,24.3545,0.0],[-97.8043,24.3519,0.0],[-97.8012,24.3478,3.7621],[-97.8012,24.3455,1.2483]]],
[[[-97.817,24.3591,0.0],[-97.8186,24.3588,1.8211],[-97.8172,24.3564,0.0],[-97.8153,24.3584,0.0],[-97.817,24.3591,0.0]]],
[[[-97.7899,24.3832,0.0],[-97.7914,24.3842,0.0],[-97.7908,24.3902,0.0],[-97.7928,24.3841,0.0],[-97.7917,24.3823,0.0],[-97.7899,24.3832,0.0]]],
[[[-97.8193,24.398,0.0],[-97.8208,24.3944,0.0],[-97.8153,24.3977,0.0],[-97.8166,24.402,0.0],[-97.8173,24.4023,0.0],[-97.8193,24.398,0.0]]],
[[[-97.791,24.4003,0.0],[-97.7876,24.4013,0.4375],[-97.7881,24.4038,0.0],[-97.7945,24.399,0.0],[-97.791,24.4003,0.0]]],
[[[-97.7208,24.3454,0.0578],[-97.7213,24.3438,0.1342],[-97.7195,24.3438,0.0578],[-97.7179,24.3501,0.0],[-97.7196,24.3568,0.0538],[-97.724,24.3454,0.0],[-97.7219,24.331,0.0],[-97.7202,24.3292,0.0],[-97.7193,24.3334,0.0936],[-97.7212,24.3364,0.0],[-97.7198,24.3379,0.0],[-97.7226,24.3449,0.1342],[-97.7209,24.3467,0.0],[-97.7208,24.3454,0.0578]]],
[[[-97.7171,24.3608,0.0],[-97.7194,24.358,0.0],[-97.7186,24.3566,0.0],[-97.7158,24.3599,0.1361],[-97.7145,24.3663,0.0],[-97.7166,24.361,0.0],[-97.7171,24.3608,0.0]]],
[[[-97.6839,24.4675,0.0],[-97.6812,24.4775,0.0],[-97.6862,24.4773,0.0],[-97.6859,24.4748,1.2517],[-97.6895,24.4715,0.0],[-97.6875,24.4688,0.0878],[-97.6903,24.466,0.4694],[-97.6896,24.4639,0.146],[-97.691,24.4639,0.0],[-97.6943,24.4593,0.3185],[-97.6916,24.458,0.3485],[-97.6922,24.4556,0.3386],[-97.6962,24.4553,0.0],[-97.6949,24.4528,0.0],[-97.692,24.453,0.4459],[-97.6966,24.4513,0.0],[-97.6965,24.4448,0.0],[-97.6938,24.4441,0.174],[-97.6968,24.4415,0.0],[-97.6968,24.4293,0.0],[-97.7,24.4276,0.0],[-97.6923,24.4247,0.0],[-97.6985,24.4244,0.0],[-97.6999,24.422,0.0],[-97.6976,24.4218,0.0],[-97.6989,24.4194,0.0],[-97.6974,24.4184,0.0],[-97.6995,24.4163,0.0],[-97.698,24.4109,0.0],[-97.6998,24.4047,0.066],[-97.6987,24.3997,0.0],[-97.6995,24.3921,0.0],[-97.7017,24.3878,0.1363],[-97.7011,24.3851,0.3428],[-97.7044,24.38,0.6662],[-97.7098,24.3776,0.0],[-97.714,24.3692,0.0],[-97.7132,24.3671,0.0],[-97.7087,24.3733,0.4098],[-97.708,24.3687,0.0],[-97.7062,24.3674,0.138],[-97.7066,24.3658,0.3723],[-97.7125,24.3657,0.0],[-97.7164,24.3551,0.0826],[-97.7139,24.3493,0.0],[-97.7158,24.3455,0.0],[-97.7146,24.3439,0.0],[-97.7159,24.3401,0.0],[-97.7145,24.3388,0.0],[-97.713,24.3419,0.0],[-97.7123,24.3387,0.0],[-97.7137,24.3347,0.1618],[-97.7159,24.3361,0.0],[-97.7171,24.3342,0.0],[-97.7167,24.3315,0.0507],[-97.715,24.3287,0.0],[-97.714,24.3294,0.069],[-97.7144,24.3325,0.0085],[-97.712,24.3353,0.089],[-97.711,24.3305,0.0507],[-97.7148,24.3227,0.0],[-97.7123,24.3215,0.0],[-97.7139,24.3212,0.0],[-97.7142,24.3182,0.182],[-97.7169,24.317,0.0872],[-97.7183,24.313,0.0],[-97.7148,24.3055,0.0],[-97.7195,24.299,0.0],[-97.7198,24.2796,0.0],[-97.7179,24.2825,0.0],[-97.7184,24.2901,0.0],[-97.7167,24.2921,0.0],[-97.7178,24.2783,0.0],[-97.7102,24.2801,0.0],[-97.7071,24.3173,2.1938],[-97.6982,24.3818,0.4005],[-97.6839,24.4675,0.0]]],
[[[-97.7062,24.4092,0.0],[-97.7069,24.4006,0.0],[-97.7043,24.3959,0.0],[-97.7039,24.4076,0.0],[-97.7048,24.4095,0.0],[-97.7062,24.4092,0.0]]],
[[[-97.6891,24.474,0.8449],[-97.6869,24.4762,1.0206],[-97.6984,24.4765,1.1443],[-97.7018,24.4737,0.0],[-97.6947,24.4726,0.0],[-97.6922,24.4707,0.0],[-97.6891,24.474,0.8449]]]]}
,"properties": {"GID_2": "MEX.28.37_2","GID_0": "MEX","country": "México","GID_1": "MEX.28_1","province": "Tamaulipas","NL_NAME_1": "NA","county": "SotolaMarina","VARNAME_2": "NA","NL_NAME_2": "NA","TYPE_2": "Município","ENGTYPE_2": "Municipality","CC_2": "NA","HASC_2": "NA","name": "Sotola_Marina.county","area_km2": 6415.708,"hist_schema_id": "Elevation0-9000","hist_area_km2": {"0": 999.232,"25": 1163.329,"50": 802.435,"75": 611.55,"100": 583.737,"125": 447.045,"150": 332.293,"175": 249.827,"200": 178.141,"225": 118.274,"250": 90.484,"275": 68.195,"300": 55.821,"325": 51.249,"350": 52.014,"375": 55.32,"400": 56.624,"425": 62.69,"450": 63.896,"475": 67.303,"500": 60.796,"525": 49.198,"550": 36.978,"575": 29.689,"600": 26.85,"625": 23.679,"650": 20.081,"675": 17.203,"700": 13.078,"725": 8.077,"750": 5.431,"775": 3.329,"800": 2.336,"825": 2.005,"850": 1.499,"875": 1.519,"900": 1.149,"925": 0.935,"950": 0.857,"975": 0.448,"1000": 0.312,"1025": 0.292,"1050": 0.292,"1075": 0.214}}}