{"type": "Feature","bbox": [-99.4612,25.0673,-98.4216,25.9161],"geometry": {"type": "MultiPolygon","coordinates": [[[[-98.8638,25.1271,140.6109],[-98.5843,25.3313,114.1058],[-98.5853,25.3323,114.4618],[-98.5828,25.334,116.2864],[-98.5819,25.3329,118.7138],[-98.5689,25.342,135.3809],[-98.4231,25.4475,175.269],[-98.4216,25.4894,157.7355],[-98.5818,25.4894,165.5992],[-98.5804,25.6373,149.6807],[-98.5814,25.706,135.7887],[-98.5916,25.7075,138.5004],[-98.5916,25.724,139.3085],[-98.602,25.709,144.8131],[-98.6308,25.7129,160.558],[-98.6309,25.7192,160.2484],[-98.6339,25.7168,161.957],[-98.6377,25.7212,163.7603],[-98.639,25.7189,164.8661],[-98.6374,25.7139,165.7409],[-98.6382,25.7105,165.4316],[-98.6484,25.711,173.5041],[-98.6477,25.7024,190.2245],[-98.6688,25.7052,193.5439],[-98.6738,25.7203,195.2654],[-98.6908,25.7218,220.0051],[-98.6905,25.6553,227.4168],[-98.7299,25.6395,196.7415],[-98.7339,25.6294,189.4826],[-98.7557,25.6238,190.5594],[-98.7535,25.6294,182.9867],[-98.7508,25.6302,181.2924],[-98.7526,25.6356,184.7731],[-98.7605,25.6337,204.6455],[-98.7605,25.6322,204.6455],[-98.7628,25.6314,205.2009],[-98.7668,25.6338,190.6653],[-98.7698,25.639,201.4886],[-98.7786,25.6368,179.0574],[-98.7812,25.6529,189.1462],[-98.7832,25.6553,182.8443],[-98.7858,25.6513,182.6406],[-98.7931,25.6519,173.3802],[-98.7955,25.6535,174.313],[-98.8048,25.643,177.9535],[-98.8164,25.6521,176.9937],[-98.8207,25.6516,165.7781],[-98.8258,25.6426,157.4262],[-98.8288,25.6433,148.9626],[-98.8376,25.6271,138.1621],[-98.8541,25.6275,136.2086],[-98.8549,25.6243,135.1742],[-98.86,25.6283,136.5579],[-98.8611,25.6269,136.2601],[-98.8625,25.6288,137.1468],[-98.8784,25.6306,142.063],[-98.8788,25.6232,144.0508],[-98.8853,25.6174,142.5892],[-98.8899,25.6088,140.5199],[-98.9243,25.6172,127.4517],[-98.924,25.6103,127.7512],[-98.9363,25.601,122.1447],[-98.9911,25.6513,145.3397],[-99.0185,25.6242,137.4388],[-99.024,25.6247,139.2403],[-99.0447,25.6353,146.412],[-99.0491,25.6399,149.7125],[-99.0683,25.6478,161.6617],[-99.1325,25.6663,185.5698],[-99.1412,25.6674,175.0231],[-99.1486,25.6708,186.7684],[-99.1585,25.6803,187.343],[-99.1807,25.7214,160.5226],[-99.1829,25.7229,159.0353],[-99.1927,25.7495,175.3879],[-99.1953,25.7517,156.3339],[-99.1995,25.7604,140.1313],[-99.1985,25.7619,137.7785],[-99.2007,25.7628,145.0822],[-99.209,25.7732,134.2385],[-99.2108,25.7784,136.5846],[-99.2102,25.7834,127.9366],[-99.2119,25.783,127.0939],[-99.2149,25.7878,116.171],[-99.2094,25.7876,117.2874],[-99.1915,25.7945,115.5003],[-99.1857,25.7952,123.4846],[-99.1825,25.7983,110.8009],[-99.1824,25.8006,113.1518],[-99.1874,25.804,115.3451],[-99.1896,25.8126,111.7993],[-99.1817,25.82,117.0243],[-99.1842,25.8225,114.9966],[-99.1843,25.829,110.644],[-99.1898,25.8373,108.5739],[-99.1831,25.8433,110.4684],[-99.1854,25.8478,110.2031],[-99.1837,25.8542,116.2406],[-99.1897,25.863,100.8998],[-99.1891,25.8665,109.5212],[-99.1855,25.8684,116.7646],[-99.1873,25.8709,108.506],[-99.1852,25.8723,108.2147],[-99.186,25.8777,107.4616],[-99.1821,25.8805,113.1699],[-99.1826,25.882,103.1113],[-99.1865,25.8817,109.0104],[-99.1893,25.8835,106.4996],[-99.1884,25.8882,115.4369],[-99.1846,25.8887,110.0644],[-99.1834,25.8905,108.7337],[-99.1881,25.8938,103.9391],[-99.1828,25.9013,102.316],[-99.1847,25.9046,102.9534],[-99.189,25.9053,103.2673],[-99.19,25.8969,109.7189],[-99.1914,25.8955,109.0957],[-99.1955,25.8947,106.9506],[-99.1974,25.8964,105.9222],[-99.1995,25.8946,105.5487],[-99.2073,25.8934,107.4248],[-99.2126,25.8945,106.0938],[-99.2158,25.8919,106.2294],[-99.2229,25.8949,106.7722],[-99.23,25.8945,109.3032],[-99.2306,25.8921,109.7545],[-99.2411,25.8878,109.2276],[-99.2423,25.8887,111.5738],[-99.2416,25.8918,110.6925],[-99.2441,25.8952,113.4389],[-99.2512,25.8996,110.0338],[-99.2502,25.9027,113.9152],[-99.2567,25.9057,115.0545],[-99.2568,25.9099,116.5675],[-99.2618,25.912,114.3926],[-99.2629,25.9145,112.7832],[-99.2667,25.9161,116.1198],[-99.2698,25.9136,117.1056],[-99.2752,25.9123,119.9884],[-99.2819,25.9038,118.9508],[-99.2814,25.842,144.5389],[-99.2756,25.8381,151.1824],[-99.3601,25.7828,184.0276],[-99.3783,25.804,176.5967],[-99.3786,25.8059,176.3462],[-99.3801,25.8059,169.2513],[-99.4163,25.8478,150.3177],[-99.4171,25.8467,156.5634],[-99.4152,25.8446,151.2869],[-99.4177,25.8429,149.468],[-99.4227,25.8414,155.2601],[-99.4285,25.8429,150.8968],[-99.4267,25.8362,154.0933],[-99.43,25.8338,154.5901],[-99.4328,25.8338,150.9857],[-99.4334,25.8372,155.2866],[-99.4368,25.8372,156.0164],[-99.439,25.84,155.2214],[-99.4434,25.8377,152.597],[-99.4443,25.8391,157.3185],[-99.4514,25.8399,157.3918],[-99.4532,25.8423,160.8226],[-99.4586,25.8388,163.7771],[-99.4188,25.7894,168.9646],[-99.4018,25.7716,166.5977],[-99.4056,25.7661,165.0475],[-99.4026,25.7617,169.3869],[-99.4261,25.7537,175.6745],[-99.4415,25.743,187.1124],[-99.419,25.7148,187.3272],[-99.4455,25.6982,195.7074],[-99.442,25.6938,194.8857],[-99.4436,25.6926,194.9246],[-99.4471,25.6972,196.3254],[-99.4612,25.6882,196.6538],[-99.4139,25.6232,177.6303],[-99.4176,25.6004,180.9673],[-99.4212,25.6004,182.5716],[-99.4322,25.5366,181.812],[-99.4321,25.5329,170.0282],[-99.4263,25.5301,174.7125],[-99.4215,25.5323,176.4629],[-99.4176,25.5312,168.8945],[-99.4134,25.5164,165.42],[-99.4108,25.5145,164.296],[-99.4128,25.5117,175.213],[-99.4117,25.4997,174.4557],[-99.4246,25.5008,180.9032],[-99.4242,25.4768,188.4469],[-99.418,25.4758,189.411],[-99.4174,25.4808,188.434],[-99.4088,25.484,185.1997],[-99.3867,25.4968,174.6176],[-99.386,25.4949,173.7229],[-99.3573,25.478,184.818],[-99.367,25.4641,193.821],[-99.3544,25.4681,187.0383],[-99.3529,25.4655,184.5801],[-99.3609,25.4588,188.868],[-99.3447,25.4521,181.5863],[-99.3406,25.4524,182.7335],[-99.3236,25.4375,222.8984],[-99.3264,25.4303,223.6999],[-99.3109,25.4016,224.9051],[-99.2795,25.401,194.4619],[-99.278,25.4174,195.4472],[-99.2586,25.4245,202.708],[-99.2559,25.4137,213.913],[-99.2427,25.4146,206.4574],[-99.2233,25.402,188.0343],[-99.2312,25.3959,191.7105],[-99.2292,25.3827,169.5819],[-99.2244,25.385,169.5014],[-99.2237,25.3777,166.7808],[-99.2032,25.3777,161.0398],[-99.2019,25.3714,160.2869],[-99.1908,25.3752,157.8095],[-99.1834,25.3663,154.9054],[-99.1669,25.3828,151.0605],[-99.1131,25.3283,137.9555],[-99.092,25.336,134.9544],[-99.0817,25.3235,134.007],[-99.0569,25.26,145.2801],[-99.0356,25.2663,143.8069],[-99.0224,25.2147,144.5055],[-99.0726,25.214,152.1543],[-99.0512,25.1946,149.9821],[-99.0465,25.198,148.2856],[-99.0449,25.1932,152.9684],[-99.052,25.1829,157.4522],[-99.0494,25.1809,159.3432],[-99.0695,25.1728,166.1966],[-99.0336,25.1351,141.9892],[-99.0319,25.1351,142.7695],[-99.0309,25.1249,143.8582],[-99.036,25.1203,134.94],[-99.0343,25.1193,134.94],[-99.0336,25.1135,133.7861],[-99.0287,25.1097,133.8318],[-99.0292,25.1078,132.7608],[-99.0337,25.1069,132.5118],[-99.0302,25.101,132.1221],[-99.0295,25.0964,133.9128],[-99.026,25.0926,130.3134],[-99.022,25.0939,130.575],[-99.0204,25.0883,132.0997],[-99.0155,25.0859,130.744],[-99.0167,25.0827,127.9458],[-99.0142,25.0802,129.2213],[-99.0196,25.0792,128.0328],[-99.0175,25.0756,131.853],[-99.0225,25.0732,130.9151],[-99.0193,25.0701,127.6277],[-99.015,25.0701,125.3439],[-99.0075,25.0673,125.4611],[-99.0002,25.0674,122.1982],[-98.9991,25.0684,125.45],[-99.0001,25.0707,128.579],[-98.9977,25.0713,126.9493],[-98.9911,25.0702,122.5951],[-98.9894,25.0674,122.5218],[-98.9854,25.0705,121.9596],[-98.9852,25.0744,124.0956],[-98.9825,25.074,123.533],[-98.982,25.0707,121.546],[-98.9777,25.0718,120.9805],[-98.9777,25.0693,121.4595],[-98.9764,25.0688,120.8185],[-98.9699,25.0719,119.7215],[-98.972,25.0728,118.685],[-98.9708,25.074,122.9691],[-98.9681,25.0733,118.3469],[-98.9683,25.0704,125.7934],[-98.9611,25.0732,119.3511],[-98.9592,25.076,118.5666],[-98.9574,25.0758,119.04],[-98.9566,25.0733,118.257],[-98.9552,25.0761,118.1168],[-98.9475,25.0739,116.1595],[-98.9462,25.0766,117.0753],[-98.9412,25.0709,115.8346],[-98.9377,25.0729,115.2496],[-98.9342,25.0728,114.8127],[-98.9343,25.0802,115.9073],[-98.9323,25.0788,115.1307],[-98.9337,25.0761,114.7284],[-98.929,25.0773,113.7969],[-98.925299999999993,25.0823,118.129],[-98.9238,25.0819,113.0757],[-98.8638,25.1271,140.6109]]]]}
,"properties": {"GID_2": "MEX.19.10_2","GID_0": "MEX","country": "México","GID_1": "MEX.19_1","province": "NuevoLeón","NL_NAME_1": "NA","county": "China","VARNAME_2": "NA","NL_NAME_2": "NA","TYPE_2": "Município","ENGTYPE_2": "Municipality","CC_2": "NA","HASC_2": "NA","name": "China.county","area_km2": 4274.245,"hist_schema_id": "Elevation0-9000","hist_area_km2": {"75": 11.923,"100": 553.336,"125": 1327.859,"150": 1170.388,"175": 903.169,"200": 245.933,"225": 53.852,"250": 7.364,"275": 0.421}}}