{"type": "Feature","bbox": [-97.0176,17.2817,-96.8437,17.4524],"geometry": {"type": "MultiPolygon","coordinates": [[[[-96.9281,17.4489,2364.9399],[-96.9331,17.4507,2163.7939],[-96.9383,17.4498,2111.9102],[-96.9434,17.4524,2021.4275],[-96.9494,17.4512,1990.1604],[-96.9545,17.4454,1861.1935],[-96.9518,17.4419,1933.8003],[-96.9505,17.4332,2060.4431],[-96.9574,17.4304,2150.5083],[-96.9638,17.4334,2072.2683],[-96.9758,17.426,1844.394],[-96.9861,17.4263,1715.5583],[-96.9875,17.4245,1653.9172],[-96.9848,17.421,1741.957],[-96.9714,17.4182,1880.3752],[-96.9752,17.4142,1763.1481],[-96.9754,17.4068,2022.1909],[-96.9822,17.411,1899.1544],[-96.9967,17.4122,1807.1014],[-96.9954,17.4279,1718.3258],[-96.9991,17.4318,1682.0543],[-97.006,17.4333,1607.4301],[-97.0128,17.4392,1476.7563],[-97.0146,17.4394,1445.1688],[-97.0145,17.4376,1447.4609],[-97.0174,17.436,1456.7694],[-97.0176,17.4334,1497.8916],[-97.014,17.4314,1467.6995],[-97.0106,17.4252,1502.1383],[-97.015,17.4107,1500.7509],[-97.0113,17.4066,1546.3757],[-97.0098,17.4019,1527.6687],[-97.007,17.4013,1540.3606],[-97.0026,17.396,1672.032],[-97.0029,17.3922,1602.8879],[-96.9965,17.3879,1601.2268],[-96.9963,17.3791,1621.5737],[-96.9917,17.378,1640.5135],[-96.9914,17.3756,1641.1064],[-96.9883,17.374,1686.2202],[-96.9886,17.3658,1795.283],[-96.9832,17.3546,1940.8342],[-96.9842,17.3516,1948.8782],[-96.9823,17.3451,2045.1749],[-96.9791,17.3421,2089.9377],[-96.9746,17.3413,1976.2017],[-96.9629,17.3145,1963.1573],[-96.9598,17.3138,1990.8101],[-96.9639,17.2888,1928.797],[-96.9629,17.2817,1972.989],[-96.9568,17.2882,1934.8647],[-96.9534,17.2876,1930.3291],[-96.9473,17.2827,1879.9612],[-96.9396,17.2874,1858.9518],[-96.9228,17.2872,1835.7245],[-96.9059,17.2843,1696.3307],[-96.9011,17.2856,1700.3926],[-96.8979,17.2843,1708.0151],[-96.9006,17.2885,1699.031],[-96.8973,17.2948,1734.8121],[-96.8961,17.3109,1824.9443],[-96.8938,17.3144,1829.1171],[-96.8925,17.3244,1908.0992],[-96.8749,17.349,2057.396],[-96.8528,17.3841,2273.3616],[-96.8437,17.3825,2215.3547],[-96.8725,17.4471,2117.2854],[-96.9119,17.4219,1954.6254],[-96.9302,17.4131,2151.0203],[-96.9332,17.4313,2167.3152],[-96.9295,17.4486,2323.0063],[-96.9281,17.4489,2364.9399]]]]}
,"properties": {"GID_2": "MEX.20.152_2","GID_0": "MEX","country": "México","GID_1": "MEX.20_1","province": "Oaxaca","NL_NAME_1": "NA","county": "SanFranciscoTelixtlahuaca","VARNAME_2": "NA","NL_NAME_2": "NA","TYPE_2": "Município","ENGTYPE_2": "Municipality","CC_2": "NA","HASC_2": "NA","name": "San_Francisco_Telixtlahuaca.county","area_km2": 193.7104,"hist_schema_id": "Elevation0-9000","hist_area_km2": {"1450": 0.2427,"1475": 0.2427,"1500": 0.3237,"1525": 0.4855,"1550": 0.4451,"1575": 0.6676,"1600": 0.789,"1625": 0.9509,"1650": 1.052,"1675": 1.5983,"1700": 2.8738,"1725": 4.8979,"1750": 5.8085,"1775": 6.3143,"1800": 7.8727,"1825": 9.33,"1850": 10.6455,"1875": 10.4227,"1900": 9.6737,"1925": 9.0864,"1950": 6.3742,"1975": 6.2322,"2000": 6.4544,"2025": 6.9601,"2050": 9.307,"2075": 10.966,"2100": 10.2377,"2125": 9.2464,"2150": 8.7811,"2175": 7.5064,"2200": 6.6568,"2225": 6.0903,"2250": 5.5035,"2275": 3.8241,"2300": 2.347,"2325": 1.5175,"2350": 0.9509,"2375": 0.7081,"2400": 0.2225,"2425": 0.1011}}}