{"type": "Feature","bbox": [-99.3019,18.5204,-99.1479,18.6795],"geometry": {"type": "MultiPolygon","coordinates": [[[[-99.1588,18.6617,943.3402],[-99.1582,18.6795,958.0331],[-99.1622,18.6754,953.3885],[-99.1679,18.676,942.9444],[-99.1732,18.6709,932.2047],[-99.1773,18.6698,932.5302],[-99.1797,18.6555,920.4047],[-99.1771,18.6545,921.524],[-99.1811,18.6451,910.7692],[-99.1946,18.6492,911.1862],[-99.1959,18.6463,909.0754],[-99.1931,18.6437,907.2266],[-99.1957,18.6436,908.1624],[-99.1947,18.6412,907.6335],[-99.1969,18.6394,906.5922],[-99.196,18.6376,906.2816],[-99.1979,18.6373,905.6432],[-99.1945,18.634,902.509],[-99.1965,18.6318,902.2976],[-99.1981,18.6226,900.8905],[-99.2032,18.624,924.7906],[-99.2072,18.6298,930.9171],[-99.2082,18.6273,930.2437],[-99.2166,18.6311,952.109],[-99.2181,18.6299,955.2],[-99.2212,18.6305,966.5929],[-99.2249,18.6247,965.2786],[-99.2372,18.6154,974.1772],[-99.2413,18.6183,1042.3564],[-99.2321,18.6284,1127.718],[-99.2298,18.6288,1153.7705],[-99.2311,18.6316,1165.7253],[-99.2302,18.635,1119.2979],[-99.2455,18.6351,967.7707],[-99.2559,18.6393,968.4963],[-99.2582,18.6379,947.1597],[-99.2641,18.6426,980.9993],[-99.2699,18.6428,981.2875],[-99.2823,18.6301,944.0171],[-99.2854,18.6234,957.2823],[-99.2884,18.6257,957.723],[-99.3019,18.5951,880.8152],[-99.2915,18.5911,954.5181],[-99.2919,18.5799,931.4089],[-99.2907,18.5757,908.5023],[-99.2928,18.5767,894.7493],[-99.2961,18.5727,861.3281],[-99.2965,18.5622,858.9769],[-99.2938,18.5625,860.6686],[-99.2916,18.5604,863.9074],[-99.2897,18.5656,865.9456],[-99.2853,18.5656,860.5397],[-99.2742,18.557,851.3529],[-99.2757,18.5523,853.5746],[-99.2748,18.5489,858.0999],[-99.2767,18.5468,864.4689],[-99.2731,18.5387,882.147],[-99.269,18.542,878.4448],[-99.2638,18.5396,859.422],[-99.2626,18.5429,848.755],[-99.2601,18.5418,864.176],[-99.2625,18.5384,882.3389],[-99.2481,18.5303,917.1232],[-99.2449,18.5336,896.516],[-99.2457,18.5368,898.4045],[-99.2414,18.5379,932.3378],[-99.2413,18.5401,919.4644],[-99.2398,18.5396,921.2654],[-99.2403,18.5412,902.5458],[-99.2387,18.5414,897.4377],[-99.2357,18.5473,862.0129],[-99.234,18.5467,865.0839],[-99.2346,18.5481,857.5261],[-99.2308,18.5509,877.3167],[-99.2302,18.5545,880.2147],[-99.2282,18.5504,921.6813],[-99.2293,18.5466,905.0829],[-99.2198,18.5409,895.4373],[-99.2191,18.5373,868.9621],[-99.2135,18.5335,883.692],[-99.2107,18.5228,827.6879],[-99.2033,18.5234,798.6542],[-99.2031,18.5274,886.2083],[-99.1966,18.5314,806.3925],[-99.1944,18.5302,836.9709],[-99.1952,18.525,823.9889],[-99.1916,18.5204,788.8374],[-99.189,18.524,782.8201],[-99.1899,18.5323,804.3542],[-99.1872,18.5318,789.3373],[-99.1782,18.5382,786.7443],[-99.1761,18.5377,779.768],[-99.174,18.5319,818.2584],[-99.1705,18.5332,779.9237],[-99.1629,18.5314,802.5695],[-99.1522,18.5543,1029.399],[-99.1533,18.5596,1133.7434],[-99.1479,18.5723,1429.1189],[-99.152,18.5785,1536.2307],[-99.1517,18.5986,947.2299],[-99.1599,18.5997,948.0795],[-99.1654,18.6044,898.8403],[-99.1643,18.6073,894.3625],[-99.166,18.6082,893.2093],[-99.1643,18.61,894.4551],[-99.1676,18.6118,896.5363],[-99.1683,18.6184,896.4001],[-99.1702,18.621,897.2296],[-99.1713,18.6222,897.8164],[-99.1742,18.62,895.2635],[-99.1775,18.6203,894.4028],[-99.1837,18.6254,893.0364],[-99.1866,18.6327,899.5085],[-99.1892,18.6351,901.4597],[-99.1871,18.6387,903.3657],[-99.1846,18.6343,900.8571],[-99.1777,18.6297,898.5999],[-99.1708,18.6577,939.2432],[-99.1639,18.6621,951.7284],[-99.1588,18.6617,943.3402]]]]}
,"properties": {"GID_2": "MEX.17.12_2","GID_0": "MEX","country": "México","GID_1": "MEX.17_1","province": "Morelos","NL_NAME_1": "NA","county": "Jojutla","VARNAME_2": "NA","NL_NAME_2": "NA","TYPE_2": "Município","ENGTYPE_2": "Municipality","CC_2": "NA","HASC_2": "NA","name": "Jojutla.county","area_km2": 154.1188,"hist_schema_id": "Elevation0-9000","hist_area_km2": {"775": 0.2412,"800": 0.7639,"825": 3.1559,"850": 9.7086,"875": 21.8074,"900": 44.2903,"925": 25.3006,"950": 26.1429,"975": 12.4589,"1000": 2.2106,"1025": 1.0852,"1050": 1.0249,"1075": 0.844,"1100": 0.7033,"1125": 0.4823,"1150": 0.6029,"1175": 0.3416,"1200": 0.201,"1225": 0.3216,"1250": 0.3215,"1275": 0.3417,"1300": 0.1206,"1325": 0.201,"1350": 0.1809,"1375": 0.1407,"1400": 0.3216,"1425": 0.1407,"1450": 0.1608,"1475": 0.1809,"1500": 0.1809,"1525": 0.0804,"1550": 0.0603}}}