{"type":"Feature","properties":{"GID_2":"MEX.8.1_2","GID_0":"MEX","country":"México","GID_1":"MEX.8_1","province":"Colima","NL_NAME_1":"NA","county":"Armería","VARNAME_2":"NA","NL_NAME_2":"NA","TYPE_2":"Município","ENGTYPE_2":"Municipality","CC_2":"NA","HASC_2":"NA","name":"Armería.county"},
"geometry":{"type": "MultiPolygon","coordinates": [[[[-103.8963,19.0977,183.7741],[-103.8987,19.0974,309.1846],[-103.9059,19.1007,407.4572],[-103.919,19.1103,245.6427],[-103.9197,19.1093,176.1806],[-103.9241,19.1139,183.9507],[-103.9335,19.1163,198.3562],[-103.9371,19.1189,219.3727],[-103.9536,19.1164,236.2215],[-103.9604,19.1171,270.0278],[-103.9631,19.1224,297.2077],[-103.9683,19.1227,302.3065],[-103.9725,19.1268,336.6619],[-103.9739,19.1261,322.7589],[-103.9831,19.133,364.0532],[-104.0007,19.1314,388.7622],[-104.0059,19.1336,450.5733],[-104.0051,19.1369,432.7067],[-104.0128,19.137,452.1122],[-104.0185,19.1412,482.7975],[-104.0244,19.1417,507.8419],[-104.0255,19.1443,558.6025],[-104.0283,19.1437,595.0417],[-104.0368,19.152,732.0881],[-104.0406,19.1506,763.5508],[-104.0447,19.1537,819.7956],[-104.0454,19.1514,810.5394],[-104.0482,19.1517,833.4019],[-104.0511,19.1543,877.1921],[-104.052,19.1523,886.3171],[-104.0609,19.1517,1030.9979],[-104.0606,19.1458,1234.6948],[-104.0648,19.1453,1285.9315],[-104.0694,19.1323,1223.1949],[-104.069,19.1286,1059.7605],[-104.0625,19.1187,1055.5701],[-104.0679,19.1019,1001.7601],[-104.0638,19.1009,973.5931],[-104.0568,19.0927,732.318],[-104.0422,19.082,371.1072],[-104.0399,19.0763,445.8308],[-104.0296,19.0671,533.3079],[-104.0308,19.0638,512.147],[-104.0269,19.0599,559.4785],[-104.0291,19.0576,512.7335],[-104.0268,19.052,641.5468],[-104.0279,19.0458,584.048],[-104.0231,19.0388,299.1667],[-104.0266,19.0345,223.2318],[-104.0324,19.0315,205.5652],[-104.0345,19.0283,370.0973],[-104.0344,19.0247,402.9719],[-104.0319,19.0243,401.7375],[-104.0368,19.0218,420.7234],[-104.0301,19.0126,574.3697],[-104.0363,19.0107,517.7166],[-104.0409,19.0125,668.7842],[-104.0508,19.0087,285.6252],[-104.0542,19.0099,178.9955],[-104.056,19.0137,222.3689],[-104.0584,19.0116,203.676],[-104.0605,19.0136,155.3606],[-104.0669,19.0091,119.6897],[-104.078,18.9874,2.8969],[-104.0922,18.99,24.7134],[-104.0933,18.987,1.4437],[-104.0999,18.9871,20.4592],[-104.1024,18.9846,24.4286],[-104.1186,18.9485,6.963],[-104.1157,18.9463,10.04],[-104.1166,18.9438,10.5793],[-104.1199,18.9442,2.6725],[-104.0455,18.902,0.0],[-103.9993,18.8806,5.7248],[-103.9908,18.8744,3.6208],[-103.9832,18.8726,1.1115],[-103.971,18.8644,0.0],[-103.97,18.8678,8.047],[-103.9716,18.8688,4.1254],[-103.9701,18.8716,4.9273],[-103.9675,18.8744,5.2541],[-103.9618,18.873,5.2375],[-103.9587,18.8752,5.8018],[-103.9543,18.884,5.0057],[-103.9553,18.8914,9.2733],[-103.9507,18.8976,6.905],[-103.9529,18.9079,15.8192],[-103.9496,18.9124,16.9137],[-103.9485,18.9175,18.7453],[-103.9448,18.9196,14.9687],[-103.9433,18.9328,16.9272],[-103.9469,18.9434,24.4827],[-103.9428,18.947,24.517],[-103.9428,18.9489,23.0824],[-103.9459,18.9545,30.62],[-103.9484,18.9559,58.0532],[-103.948,18.9571,41.2075],[-103.9457,18.959,36.9411],[-103.9369,18.9578,32.8806],[-103.9291,18.9595,38.525],[-103.9234,18.9636,38.8569],[-103.9224,18.9664,40.7815],[-103.9218,18.9769,52.4026],[-103.9141,18.9975,68.5329],[-103.9144,19.0096,81.1205],[-103.9165,19.0095,83.2676],[-103.9168,19.0161,89.0901],[-103.9184,19.0167,88.4633],[-103.9125,19.0303,98.969],[-103.9135,19.0358,133.7888],[-103.9111,19.0346,104.9611],[-103.9152,19.0379,113.0297],[-103.9175,19.0376,116.8788],[-103.9163,19.047,117.321],[-103.9143,19.0485,115.4048],[-103.9145,19.0598,131.952],[-103.9034,19.0813,154.5014],[-103.9019,19.0884,162.3009],[-103.8963,19.0977,183.7741]]]]}}