{"type":"Feature","properties":{"GID_2":"MEX.24.14_2","GID_0":"MEX","country":"México","GID_1":"MEX.24_1","province":"SanLuisPotosí","NL_NAME_1":"NA","county":"CiudadValles","VARNAME_2":"NA","NL_NAME_2":"NA","TYPE_2":"Município","ENGTYPE_2":"Municipality","CC_2":"NA","HASC_2":"NA","name":"Ciudad_Valles.county"},
"geometry":{"type": "MultiPolygon","coordinates": [[[[-98.9619,21.7487,42.7897],[-98.9587,21.7514,34.1329],[-98.9564,21.7484,34.4928],[-98.9564,21.7436,35.59],[-98.9545,21.7417,33.9398],[-98.9539,21.7437,35.8297],[-98.9479,21.7447,34.0036],[-98.9504,21.7499,33.2436],[-98.9493,21.751,33.1756],[-98.9476,21.7506,33.1729],[-98.9478,21.7488,34.6021],[-98.9426,21.7474,34.0233],[-98.9372,21.749,40.5294],[-98.9423,21.7434,40.6494],[-98.9413,21.7422,37.3232],[-98.9305,21.743,33.4012],[-98.9293,21.7441,34.9875],[-98.9305,21.7446,34.9875],[-98.9303,21.7485,35.1164],[-98.9275,21.7472,34.8329],[-98.9277,21.7452,33.1832],[-98.9255,21.7466,34.3156],[-98.9172,21.746,33.8255],[-98.9152,21.749,35.193],[-98.9131,21.7462,34.309],[-98.9108,21.7483,33.8769],[-98.9117,21.7499,34.8362],[-98.9082,21.7484,34.9278],[-98.9073,21.7503,34.2081],[-98.9045,21.7506,31.5257],[-98.9034,21.7528,31.1245],[-98.9062,21.7527,35.7215],[-98.906,21.7545,31.4863],[-98.9043,21.7566,32.1787],[-98.9028,21.7554,30.2207],[-98.9023,21.7566,29.6087],[-98.9029,21.7599,31.2793],[-98.9066,21.7616,30.2115],[-98.904,21.7656,29.5589],[-98.9066,21.7688,29.3537],[-98.9041,21.771,29.4339],[-98.9071,21.7709,30.0258],[-98.9074,21.7727,30.6126],[-98.9033,21.775,30.0631],[-98.8995,21.771,32.8242],[-98.8986,21.7658,28.8173],[-98.897,21.765,30.802],[-98.8937,21.7681,29.7858],[-98.8935,21.7703,29.9917],[-98.8915,21.7702,29.8762],[-98.8933,21.7726,31.721],[-98.8906,21.7717,31.7327],[-98.8918,21.774,33.0587],[-98.8908,21.7766,30.945],[-98.8886,21.7774,30.3476],[-98.8894,21.7795,30.1452],[-98.888,21.7809,30.7894],[-98.8915,21.7831,30.1758],[-98.8898,21.7849,31.8752],[-98.8909,21.7868,31.9716],[-98.8874,21.7832,31.6861],[-98.884,21.7825,31.6939],[-98.8851,21.7797,32.6797],[-98.8825,21.7792,30.7785],[-98.8827,21.7777,32.0379],[-98.8794,21.7785,36.8398],[-98.8789,21.781,35.7424],[-98.88,21.7811,29.8513],[-98.8788,21.7824,31.1913],[-98.8804,21.7828,30.9118],[-98.8802,21.7857,29.2787],[-98.8784,21.7845,33.2716],[-98.8785,21.7866,33.9489],[-98.8764,21.7858,30.1957],[-98.8752,21.7898,32.0292],[-98.8717,21.7902,33.4491],[-98.8715,21.7932,29.3047],[-98.8676,21.7931,32.2636],[-98.8679,21.7908,31.3817],[-98.8644,21.7918,31.3319],[-98.8645,21.7945,31.8028],[-98.861,21.7942,32.4574],[-98.8604,21.7926,30.9036],[-98.8583,21.7947,33.8633],[-98.8593,21.7971,31.346],[-98.8578,21.8004,34.6588],[-98.8563,21.7979,32.8229],[-98.8552,21.8013,35.4277],[-98.8535,21.7988,31.6609],[-98.8497,21.7996,30.7016],[-98.8522,21.803,33.3654],[-98.8501,21.8042,33.0376],[-98.8536,21.8059,32.1319],[-98.8457,21.8064,33.0892],[-98.8446,21.8089,32.9592],[-98.846,21.8102,32.5418],[-98.8482,21.8086,32.5965],[-98.8491,21.8105,34.3386],[-98.8527,21.8116,34.7176],[-98.8531,21.8145,33.8104],[-98.8506,21.8148,33.989],[-98.8506,21.8181,33.1827],[-98.8403,21.8232,31.84],[-98.8375,21.8205,31.223],[-98.8328,21.8217,35.404],[-98.8337,21.8285,32.5893],[-98.8321,21.8306,34.1208],[-98.8338,21.8325,33.76],[-98.8333,21.8344,30.667],[-98.8275,21.8359,30.5887],[-98.8226,21.8393,30.4719],[-98.8218,21.8438,29.3919],[-98.8173,21.8462,32.7109],[-98.8192,21.8499,27.7042],[-98.8179,21.8522,31.3991],[-98.8198,21.8581,25.2189],[-98.8224,21.8587,34.0847],[-98.8247,21.8552,31.6451],[-98.8259,21.8554,31.6451],[-98.8252,21.8575,35.405],[-98.8325,21.8575,34.1688],[-98.8526,21.868,32.5364],[-98.856,21.8725,33.6195],[-98.8674,21.876,29.4755],[-98.8675,21.881,36.0372],[-98.9027,21.8822,85.4979],[-98.9022,21.8902,106.2706],[-98.8963,21.9168,161.2488],[-98.8939,21.9264,166.9588],[-98.8923,21.9263,166.9588],[-98.8917,21.9499,145.0617],[-98.895,21.9541,204.2262],[-98.8966,21.9651,153.1354],[-98.8893,21.9654,124.3761],[-98.8886,21.9672,145.0962],[-98.8835,21.9989,72.0998],[-98.8859,22.0293,367.0518],[-98.8775,22.0512,77.6189],[-98.8825,22.0515,408.0251],[-98.8807,22.071,311.5041],[-98.8881,22.1438,472.5532],[-98.8911,22.1434,482.9411],[-98.8914,22.1666,496.1376],[-98.8962,22.2002,568.6235],[-98.8967,22.226,627.7647],[-98.8984,22.2354,628.7927],[-98.897,22.2526,578.5463],[-98.9022,22.2777,607.2515],[-98.9013,22.2901,551.8272],[-98.9033,22.3155,264.5788],[-98.9074,22.3156,604.1103],[-98.9089,22.3348,301.0618],[-98.9135,22.3346,539.5837],[-98.9188,22.3714,397.6585],[-98.9255,22.3717,776.7716],[-98.9301,22.3826,784.5903],[-98.932,22.3928,741.8394],[-99.0604,22.4153,288.8936],[-99.1126,22.4068,376.9756],[-99.1206,22.4066,272.8684],[-99.2323,22.4126,697.8062],[-99.2153,22.3781,745.5037],[-99.2112,22.3666,786.3349],[-99.2071,22.345,707.3767],[-99.213,22.3354,469.9734],[-99.2136,22.3239,393.2698],[-99.2166,22.3237,340.0546],[-99.213,22.3122,513.9573],[-99.2173,22.3119,264.3751],[-99.2171,22.3068,282.8528],[-99.2079,22.3062,542.9536],[-99.2061,22.2921,544.0292],[-99.2208,22.2914,238.2015],[-99.2226,22.294,237.2166],[-99.222,22.2981,234.3774],[-99.2241,22.2999,237.0989],[-99.2481,22.2917,277.3117],[-99.2771,22.2845,310.2957],[-99.2821,22.3112,292.3166],[-99.2919,22.3317,282.8218],[-99.3179,22.3258,538.5847],[-99.3142,22.3103,715.254],[-99.3373,22.3276,837.2603],[-99.3212,22.3013,736.1721],[-99.3187,22.2884,671.5724],[-99.3047,22.2487,682.0223],[-99.2824,22.1521,640.2953],[-99.2737,22.1217,485.9778],[-99.2745,22.1141,689.1414],[-99.2723,22.1059,618.3783],[-99.2676,22.097,525.4354],[-99.2645,22.0613,569.4266],[-99.2599,22.0517,696.9014],[-99.2526,22.0238,553.2974],[-99.2629,22.0141,310.8932],[-99.259,22.0057,316.6738],[-99.2768,22.0029,300.2727],[-99.2735,21.9974,306.3115],[-99.2836,21.9835,296.8362],[-99.2934,21.9732,301.5163],[-99.2921,21.972,300.6786],[-99.2873,21.9742,300.9968],[-99.2852,21.9727,299.4984],[-99.286,21.9707,299.2109],[-99.2846,21.9669,298.2303],[-99.2815,21.9631,299.0147],[-99.283,21.9627,299.0147],[-99.2826,21.9613,299.8073],[-99.2787,21.9594,297.7794],[-99.2765,21.9605,297.4901],[-99.2733,21.9566,296.1707],[-99.2738,21.9533,296.6912],[-99.271,21.9539,296.6666],[-99.2723,21.9498,297.0789],[-99.2655,21.9483,298.5126],[-99.2621,21.9514,296.4121],[-99.2539,21.95,289.1646],[-99.2516,21.9524,291.8421],[-99.2429,21.9496,286.5303],[-99.2221,21.9582,447.1502],[-99.224,21.9626,427.7357],[-99.2267,21.9837,434.2934],[-99.2307,21.9925,404.0459],[-99.232,22.001,324.5995],[-99.2263,22.0011,332.7004],[-99.2268,21.9987,324.4572],[-99.2235,21.991,328.3369],[-99.222,21.9916,336.6607],[-99.2223,21.9883,344.8286],[-99.2102,21.9889,353.8273],[-99.2125,21.9987,330.7802],[-99.208,22.0049,334.3667],[-99.2055,21.9999,338.4741],[-99.2028,22.0017,240.3117],[-99.2036,22.006,282.2335],[-99.2017,22.0127,242.2961],[-99.1965,22.0115,242.9616],[-99.1924,22.0147,247.7821],[-99.1883,22.0109,249.5905],[-99.1866,22.007,231.767],[-99.1899,22.0065,230.7265],[-99.1856,21.9937,266.7017],[-99.1747,21.9987,294.6907],[-99.1782,22.0093,274.9399],[-99.1648,22.0124,251.6012],[-99.1622,22.0037,256.466],[-99.1521,22.0057,350.7305],[-99.1621,21.9742,320.4745],[-99.1573,21.9742,319.1118],[-99.1605,21.9735,357.4637],[-99.1611,21.9677,337.5328],[-99.164,21.9678,334.1951],[-99.1646,21.965699999999998,310.6713],[-99.1631,21.9551,351.5611],[-99.1562,21.9379,320.0052],[-99.159,21.9367,315.484],[-99.1579,21.9349,357.4805],[-99.1608,21.9344,320.1655],[-99.1512,21.9088,286.8569],[-99.1546,21.9069,166.2358],[-99.1519,21.8937,166.5213],[-99.1457,21.8704,163.3817],[-99.1396,21.8711,228.5318],[-99.1399,21.8679,211.7392],[-99.1478,21.8672,194.9038],[-99.1409,21.8463,159.0185],[-99.1174,21.8479,429.9601],[-99.1157,21.8454,560.875],[-99.117,21.8063,91.6163],[-99.1122,21.7996,118.4415],[-99.0986,21.7942,131.3819],[-99.0883,21.8008,186.9556],[-99.0837,21.8015,133.3638],[-99.0774,21.807,83.2479],[-99.0671,21.8082,49.1992],[-99.0639,21.8062,43.4049],[-99.0636,21.7995,43.5816],[-99.056,21.7965,41.0],[-99.042,21.8095,41.3136],[-99.0351,21.8125,40.4391],[-99.0299,21.8179,45.0144],[-99.0237,21.7982,47.6081],[-99.0109,21.8025,44.9507],[-99.0102,21.8058,47.2894],[-99.0009,21.8021,41.7796],[-98.9986,21.7992,58.0095],[-99.0059,21.7869,72.1603],[-99.0042,21.7851,69.8947],[-99.0048,21.7799,68.8812],[-98.9998,21.7801,69.9648],[-98.9989,21.7769,64.8084],[-98.9839,21.7769,66.6868],[-98.9832,21.778199999999998,69.4441],[-98.9799,21.7739,61.3348],[-98.9813,21.7729,61.9152],[-98.9786,21.7726,58.604],[-98.9759,21.7683,49.0433],[-98.9683,21.7669,47.4409],[-98.9616,21.7633,37.0622],[-98.9611,21.7536,35.4875],[-98.9634,21.7523,35.6688],[-98.9619,21.7487,42.7897]]]]}}