{"type": "Feature","bbox": [-117.0956,32.0896,-116.676,32.4263],"geometry": {"type": "MultiPolygon","coordinates": [[[[-116.676,32.1852,372.3642],[-116.8225,32.2982,402.7677],[-116.9492,32.2984,239.4611],[-116.9492,32.3172,263.6792],[-116.907,32.3342,473.7531],[-116.9492,32.3433,326.3221],[-116.9492,32.3659,246.1814],[-116.963,32.3785,275.1179],[-116.9741,32.3748,251.2884],[-116.9859,32.402,274.6817],[-117.0203,32.4136,208.7387],[-117.0198,32.4165,192.9429],[-117.0247,32.4148,224.6566],[-117.038,32.4145,160.8349],[-117.0382,32.4112,147.2089],[-117.0453,32.4123,113.8764],[-117.0425,32.4161,110.2675],[-117.0454,32.4164,117.5546],[-117.0473,32.4136,101.5361],[-117.0504,32.4159,141.5197],[-117.0534,32.4222,204.2872],[-117.0628,32.4263,148.9073],[-117.063,32.4225,166.4987],[-117.0669,32.4168,124.5033],[-117.0666,32.4119,109.0691],[-117.0921,32.4087,17.2326],[-117.0935,32.4138,13.0957],[-117.0956,32.4135,0.0],[-117.0902,32.3968,1.2883],[-117.0753,32.3725,7.9678],[-117.0748,32.3696,0.0],[-117.0764,32.3692,0.0],[-117.0767,32.3682,0.0],[-117.0754,32.3674,0.0],[-117.0762,32.3689,0.0],[-117.0712,32.3701,6.4159],[-117.0752,32.3687,0.0],[-117.071,32.3648,1.6738],[-117.0666,32.3526,1.9665],[-117.051,32.323,6.5239],[-117.0513,32.3196,2.5476],[-117.0491,32.3176,16.8307],[-117.0499,32.3146,0.0],[-117.0467,32.3105,17.6346],[-117.045,32.3022,8.7682],[-117.0434,32.3019,0.0],[-117.0401,32.2942,4.9228],[-117.0393,32.2856,2.0097],[-117.035,32.2806,1.7017],[-117.0337,32.282,1.7017],[-117.031,32.2798,17.9421],[-117.0308,32.2768,4.0707],[-117.0275,32.2753,0.0],[-117.0244,32.2688,7.6525],[-117.0233,32.2695,7.6525],[-117.0206,32.2678,0.0],[-117.0174,32.2699,15.4155],[-117.0112,32.2691,23.5327],[-117.0047,32.2643,7.9863],[-116.9977,32.2634,6.5968],[-116.9868,32.2593,5.3239],[-116.985,32.2604,0.0],[-116.9774,32.2585,3.7602],[-116.9677,32.2543,9.016],[-116.9568,32.2521,35.0503],[-116.9339,32.2409,17.4752],[-116.9234,32.2278,3.0134],[-116.9158,32.21,18.2816],[-116.9134,32.1888,2.6487],[-116.91,32.1841,3.4909],[-116.9105,32.1809,0.3725],[-116.9077,32.1742,0.0],[-116.9078,32.1652,0.0],[-116.9042,32.1656,22.8673],[-116.9019,32.1642,0.0],[-116.899,32.1571,31.6434],[-116.8993,32.1543,5.2202],[-116.8959,32.1527,4.9062],[-116.8951,32.1449,10.5038],[-116.8887,32.1321,23.1036],[-116.8856,32.1166,0.0],[-116.8844,32.0896,1.6475],[-116.676,32.1852,372.3642]]]]}
,"properties": {"GID_2": "MEX.3.3_2","GID_0": "MEX","country": "México","GID_1": "MEX.3_1","province": "BajaCalifornia","NL_NAME_1": "NA","county": "PlayasdeRosarito","VARNAME_2": "NA","NL_NAME_2": "NA","TYPE_2": "Município","ENGTYPE_2": "Municipality","CC_2": "NA","HASC_2": "NA","name": "Playasde_Rosarito.county","area_km2": 499.891,"hist_schema_id": "Elevation0-9000","hist_area_km2": {"0": 8.6242,"25": 23.6044,"50": 20.3628,"75": 23.3199,"100": 29.733,"125": 29.5746,"150": 26.939,"175": 27.7633,"200": 26.0087,"225": 23.9842,"250": 21.9278,"275": 24.9497,"300": 30.7359,"325": 30.3586,"350": 29.2781,"375": 27.3031,"400": 18.1323,"425": 15.2611,"450": 14.5617,"475": 12.6609,"500": 10.6517,"525": 7.7471,"550": 4.7167,"575": 3.4971,"600": 2.4212,"625": 1.8291,"650": 1.4166,"675": 1.3266,"700": 0.6814,"725": 0.3228,"750": 0.1614,"775": 0.0179,"800": 0.0179}}}