{"type": "Feature","bbox": [-96.788,16.8751,-96.7391,16.9112],"geometry": {"type": "MultiPolygon","coordinates": [[[[-96.7563,16.9072,1488.9893],[-96.7576,16.9023,1488.1023],[-96.7588,16.9054,1488.3582],[-96.7608,16.9062,1489.1509],[-96.7624,16.905,1489.2253],[-96.7658,16.9112,1492.4884],[-96.7681,16.9111,1492.6665],[-96.7663,16.9106,1492.4884],[-96.7688,16.9084,1490.6628],[-96.771,16.9089,1492.1427],[-96.7722,16.904,1491.0142],[-96.7876,16.906,1517.5056],[-96.788,16.8972,1511.1985],[-96.7808,16.895,1500.7924],[-96.7818,16.8885,1502.3666],[-96.7795,16.8871,1501.0712],[-96.7784,16.8831,1497.4318],[-96.7592,16.8751,1487.3542],[-96.7572,16.8787,1485.0996],[-96.7538,16.8781,1485.105],[-96.7518,16.8941,1487.8671],[-96.7461,16.8979,1489.1932],[-96.7475,16.903,1489.6705],[-96.7391,16.9073,1491.8599],[-96.7449,16.9083,1490.5079],[-96.7462,16.9039,1489.9518],[-96.7511,16.9051,1489.209],[-96.7527,16.8998,1487.9554],[-96.7546,16.9005,1488.0585],[-96.755,16.8989,1487.707],[-96.7561,16.8991,1487.707],[-96.7545,16.9065,1489.5505],[-96.7561,16.9014,1488.0585],[-96.7563,16.9072,1488.9893]]]]}
,"properties": {"GID_2": "MEX.20.18_2","GID_0": "MEX","country": "México","GID_1": "MEX.20_1","province": "Oaxaca","NL_NAME_1": "NA","county": "CiénegadeZimatlán","VARNAME_2": "NA","NL_NAME_2": "NA","TYPE_2": "Município","ENGTYPE_2": "Municipality","CC_2": "NA","HASC_2": "NA","name": "Ciénegade_Zimatlán.county","area_km2": 10.082746,"hist_schema_id": "Elevation0-9000","hist_area_km2": {"1475": 1.623034,"1500": 8.459712}}}