{"type":"Feature","properties":{"GID_2":"MEX.20.407_2","GID_0":"MEX","country":"México","GID_1":"MEX.20_1","province":"Oaxaca","NL_NAME_1":"NA","county":"SantaMaríaColotepec","VARNAME_2":"NA","NL_NAME_2":"NA","TYPE_2":"Município","ENGTYPE_2":"Municipality","CC_2":"NA","HASC_2":"NA","name":"Santa_María_Colotepec.county"},
"geometry":{"type": "MultiPolygon","coordinates": [[[[-96.8288,15.9609,133.7547],[-96.8539,15.9662,521.2745],[-96.8684,15.9648,771.0855],[-96.8949,15.9687,1008.7432],[-96.9776,15.9303,493.9389],[-96.9956,15.9186,242.9534],[-96.998,15.9212,257.0621],[-97.0004,15.9197,294.846],[-97.0031,15.9219,376.2322],[-97.0105,15.9233,444.3832],[-97.0148,15.911,302.3247],[-97.0152,15.9049,228.3824],[-97.051,15.8836,112.2925],[-97.0544,15.8738,56.0412],[-97.06,15.8673,20.0387],[-97.0609,15.8608,4.7858],[-97.0457,15.8343,7.02],[-97.0459,15.8306,6.2516],[-97.0486,15.8282,0.0],[-97.03,15.8142,0.0],[-97.0142,15.806,0.6993],[-96.9697,15.7955,3.6506],[-96.9357,15.7837,0.0],[-96.905,15.7685,0.0],[-96.8767,15.7504,0.0],[-96.8605,15.7424,11.0431],[-96.8604,15.7398,1.1805],[-96.8522,15.7376,0.0],[-96.8427,15.7424,9.7382],[-96.843,15.7516,17.9303],[-96.8463,15.7572,23.7957],[-96.8443,15.762,51.6951],[-96.8466,15.7652,29.7603],[-96.8464,15.7806,40.0527],[-96.8368,15.7956,50.1284],[-96.8369,15.7988,61.0112],[-96.8322,15.8016,78.8947],[-96.8374,15.8051,59.4703],[-96.8375,15.8162,66.4399],[-96.8258,15.8236,157.1967],[-96.8281,15.8273,74.6923],[-96.8264,15.8322,79.2279],[-96.8271,15.8371,86.7591],[-96.8245,15.8429,95.6365],[-96.8118,15.894,844.4615],[-96.8384,15.9209,933.5902],[-96.8459,15.9496,111.9267],[-96.8434,15.9557,128.6862],[-96.8393,15.9589,127.5888],[-96.8327,15.9583,141.1803],[-96.8288,15.9609,133.7547]]]]}}