{"type": "Feature","bbox": [-104.3535,21.0419,-100.7423,25.1252],"geometry": {"type": "MultiPolygon","coordinates": [[[[-103.2584,21.0793,1016.2208],[-103.2582,21.0831,980.4647],[-103.2552,21.0846,1038.6855],[-103.2558,21.0826,1009.8805],[-103.2537,21.0831,1052.76],[-103.2524,21.081,1060.3217],[-103.2435,21.0841,1098.4501],[-103.2378,21.0786,1100.5753],[-103.2326,21.0791,1110.9851],[-103.2274,21.0849,1112.3351],[-103.2228,21.0868,1119.2634],[-103.22,21.0856,1121.0854],[-103.216,21.0908,1185.9983],[-103.2127,21.0911,1129.3475],[-103.2096,21.0942,1172.603],[-103.2072,21.0917,1221.6232],[-103.2052,21.0926,1154.8347],[-103.2017,21.0859,1194.5922],[-103.1884,21.0852,1230.2865],[-103.1887,21.0816,1233.088],[-103.1917,21.0793,1247.6047],[-103.187,21.0744,1305.0806],[-103.1884,21.0707,1319.019],[-103.1801,21.0746,1376.9454],[-103.1788,21.0719,1458.6294],[-103.1702,21.0724,1352.938],[-103.1661,21.0692,1394.8303],[-103.1624,21.0698,1444.4923],[-103.1629,21.0729,1487.2312],[-103.1524,21.0693,1491.5793],[-103.1501,21.0651,1508.9635],[-103.147,21.0659,1508.6052],[-103.1457,21.0643,1510.6853],[-103.1432,21.0657,1513.4973],[-103.1413,21.0611,1513.3134],[-103.134,21.0584,1550.4882],[-103.1323,21.0548,1585.5618],[-103.1293,21.0533,1632.0057],[-103.1262,21.0544,1688.7211],[-103.1215,21.0624,1611.2781],[-103.1244,21.0654,1582.0857],[-103.1233,21.0668,1588.7931],[-103.1144,21.0679,1694.6279],[-103.113,21.0658,1727.2812],[-103.1077,21.0654,1806.381],[-103.105,21.062,1900.5077],[-103.0976,21.0648,2054.5732],[-103.0884,21.0657,2034.6801],[-103.0828,21.0719,2013.157],[-103.0782,21.0734,2006.7678],[-103.0774,21.0724,2004.0404],[-103.0746,21.0743,2026.2354],[-103.0754,21.0758,2037.4304],[-103.065,21.087,2073.8918],[-103.0646,21.0908,2104.3511],[-103.0593,21.0931,2127.884],[-103.0565,21.0993,2188.6772],[-103.0583,21.0984,2168.4087],[-103.0633,21.1006,2013.0398],[-103.0632,21.1039,2135.2881],[-103.0652,21.1043,2124.3848],[-103.0663,21.0997,1971.2002],[-103.0723,21.0986,1881.0337],[-103.0739,21.0963,1850.1436],[-103.0758,21.0969,1847.7223],[-103.0754,21.1011,1890.2726],[-103.077,21.102,1912.521],[-103.0737,21.11,2095.5112],[-103.0846,21.1105,2020.4819],[-103.085,21.1147,1954.4895],[-103.0896,21.1168,1853.559],[-103.0917,21.1158,1783.4509],[-103.0926,21.1213,1640.8035],[-103.094,21.1214,1628.5851],[-103.0985,21.1285,1592.2974],[-103.0986,21.1312,1533.4834],[-103.0955,21.1319,1617.1713],[-103.0956,21.133,1581.1049],[-103.0781,21.14,1674.6914],[-103.0714,21.1529,1777.3199],[-103.0774,21.1628,1948.8253],[-103.0755,21.1677,2042.1897],[-103.0787,21.17,2069.491],[-103.0836,21.1821,2249.4658],[-103.0843,21.1941,2337.167],[-103.081,21.1987,2372.0596],[-103.0791,21.1984,2369.5532],[-103.0788,21.2023,2413.8748],[-103.0746,21.2054,2392.0322],[-103.072,21.2051,2404.187],[-103.0692,21.2099,2421.52],[-103.0771,21.2122,2038.182],[-103.0775,21.2154,1982.1648],[-103.0742,21.2183,2106.8601],[-103.0681,21.2351,2299.5552],[-103.057,21.2468,2035.5132],[-103.0655,21.2558,1753.8228],[-103.063,21.2555,1932.9752],[-103.0528,21.2626,2097.3855],[-103.0449,21.2624,2206.7344],[-103.0434,21.2604,2251.4883],[-103.0477,21.2556,2227.0349],[-103.0459,21.2539,2217.4968],[-103.0459,21.2494,2201.8396],[-103.0407,21.2497,2189.4363],[-103.0401,21.248,2207.7539],[-103.0389,21.2496,2199.1018],[-103.0298,21.2511,2113.0708],[-103.0301,21.2483,2120.2715],[-103.0272,21.2458,2100.0435],[-103.0265,21.2421,2088.7822],[-103.017,21.241,2050.8044],[-103.0116,21.2456,2005.5205],[-103.0112,21.2554,2047.8391],[-102.9969,21.2597,1978.5115],[-102.9915,21.2554,1970.5328],[-102.9895,21.2567,1945.1338],[-102.9868,21.2494,1932.479],[-102.9793,21.2465,1886.6735],[-102.979,21.2397,1900.0894],[-102.9758,21.2392,1863.4778],[-102.968,21.2417,1843.6085],[-102.9671,21.2398,1872.9677],[-102.9645,21.2401,1830.6882],[-102.9655,21.2378,1832.7251],[-102.9636,21.2352,1853.3528],[-102.9592,21.2352,1826.0369],[-102.9591,21.2336,1840.9452],[-102.9544,21.234,1850.7642],[-102.9519,21.2316,1833.0208],[-102.9503,21.233,1807.976],[-102.9519,21.2341,1818.8899],[-102.9463,21.2344,1790.4275],[-102.9488,21.2336,1825.1288],[-102.9463,21.2303,1858.4409],[-102.9496,21.2268,1940.9985],[-102.9478,21.2146,1945.113],[-102.9215,21.21,1921.9885],[-102.9107,21.2052,1883.9148],[-102.9092,21.2074,1863.5127],[-102.9104,21.2112,1835.0996],[-102.9083,21.2196,1819.7709],[-102.9098,21.2206,1808.4386],[-102.9084,21.2231,1808.321],[-102.9053,21.2235,1799.3838],[-102.9057,21.2251,1803.8801],[-102.9042,21.2248,1803.9382],[-102.904,21.2274,1773.3732],[-102.9022,21.2283,1811.3799],[-102.903,21.2352,1744.2891],[-102.8987,21.2375,1738.6056],[-102.8917,21.2335,1750.4062],[-102.8918,21.2376,1739.074],[-102.8864,21.2354,1737.2911],[-102.8851,21.2384,1713.4935],[-102.8831,21.2387,1726.8931],[-102.8837,21.2418,1710.6829],[-102.8802,21.2394,1708.3439],[-102.8808,21.238,1713.7603],[-102.8766,21.2366,1698.1188],[-102.8747,21.2427,1757.9677],[-102.8714,21.2473,1763.2665],[-102.8735,21.2529,1752.6282],[-102.8729,21.2552,1721.5952],[-102.8685,21.2549,1704.8347],[-102.868,21.2528,1720.0234],[-102.8657,21.2546,1702.9349],[-102.865,21.2525,1701.4448],[-102.8637,21.2528,1701.4448],[-102.8633,21.2556,1701.3188],[-102.8609,21.256,1717.276],[-102.8635,21.2609,1720.8914],[-102.8588,21.2665,1748.4718],[-102.8594,21.2705,1778.5198],[-102.852,21.2755,1891.84],[-102.8448,21.2773,1885.0853],[-102.8468,21.2802,1888.9612],[-102.8508,21.2814,1898.8191],[-102.8488,21.2932,1932.9895],[-102.8442,21.294,1937.6377],[-102.8429,21.2976,1950.4515],[-102.8399,21.2981,1950.812],[-102.8397,21.3016,1971.2629],[-102.8371,21.3034,1984.181],[-102.8152,21.2947,1896.266],[-102.8177,21.2997,1917.4778],[-102.8181,21.3072,1922.8955],[-102.8161,21.3107,1928.6338],[-102.8176,21.3185,1954.0112],[-102.8157,21.3188,1967.2749],[-102.812,21.3237,2057.0095],[-102.8077,21.3227,2026.0181],[-102.8057,21.3202,1993.5631],[-102.7985,21.3069,1908.8314],[-102.7914,21.328,1938.937],[-102.7889,21.3295,1932.722],[-102.7837,21.3295,1930.9583],[-102.7749,21.3176,1881.7458],[-102.7718,21.316,1863.7408],[-102.7588,21.3205,1795.8657],[-102.7553,21.3232,1751.4257],[-102.7589,21.3275,1772.3311],[-102.7552,21.331,1748.5634],[-102.7553,21.3334,1749.2645],[-102.7593,21.3354,1752.0692],[-102.7578,21.3392,1778.9479],[-102.751,21.3457,1857.3557],[-102.7405,21.3466,1849.8147],[-102.7349,21.353,1828.1995],[-102.728,21.3571,1803.0564],[-102.7327,21.3692,1824.7965],[-102.7293,21.3744,1857.8452],[-102.7291,21.3874,1878.2043],[-102.7243,21.3867,1868.2606],[-102.7206,21.3811,1841.2373],[-102.7133,21.3798,1822.5377],[-102.7117,21.3754,1805.4058],[-102.7006,21.3613,1788.6667],[-102.7013,21.3598,1778.1672],[-102.6993,21.3565,1774.3557],[-102.7009,21.3519,1769.8722],[-102.6998,21.3494,1770.2402],[-102.701,21.3483,1769.7473],[-102.6995,21.3445,1763.3076],[-102.6951,21.340699999999998,1759.1534],[-102.6865,21.3431,1802.2557],[-102.6844,21.3431,1808.9678],[-102.6818,21.3392,1798.1057],[-102.6778,21.3409,1792.6642],[-102.6512,21.3636,1784.4939],[-102.6456,21.3645,1759.6246],[-102.6426,21.3672,1737.8348],[-102.6404,21.382,1769.6376],[-102.6428,21.3881,1720.0486],[-102.6393,21.39,1713.3309],[-102.6381,21.3932,1718.7441],[-102.6444,21.3929,1722.6443],[-102.6468,21.3942,1712.9524],[-102.6493,21.4,1726.8896],[-102.6557,21.4024,1731.176],[-102.6522,21.4075,1725.266],[-102.6587,21.409,1724.1123],[-102.6597,21.4109,1727.4604],[-102.6559,21.4132,1729.9525],[-102.6521,21.4122,1732.2292],[-102.6529,21.4162,1735.8918],[-102.656,21.4187,1743.894],[-102.6573,21.4222,1737.078],[-102.6558,21.4239,1743.0947],[-102.6533,21.4216,1753.8059],[-102.6543,21.4259,1744.9503],[-102.652,21.4258,1741.543],[-102.6517,21.4319,1748.6371],[-102.6548,21.4322,1747.271],[-102.6543,21.4356,1757.2283],[-102.6511,21.4369,1751.5704],[-102.6541,21.4371,1750.0989],[-102.6552,21.4392,1750.2781],[-102.6535,21.4415,1754.0479],[-102.6507,21.4408,1756.2441],[-102.6503,21.442,1756.2441],[-102.655,21.4466,1767.3429],[-102.6517,21.4468,1761.9031],[-102.6513,21.4487,1759.7795],[-102.6474,21.4477,1764.3507],[-102.6445,21.4498,1774.3728],[-102.6389,21.4555,1800.9697],[-102.6361,21.4629,1833.6545],[-102.6367,21.4648,1840.7013],[-102.6432,21.4612,1835.5901],[-102.6479,21.4625,1773.8674],[-102.6491,21.4742,1798.7676],[-102.6427,21.4761,1797.9226],[-102.6423,21.4786,1804.6492],[-102.6389,21.4813,1817.6714],[-102.6397,21.477,1805.2246],[-102.6367,21.4771,1802.4651],[-102.6343,21.4817,1805.7097],[-102.6381,21.4827,1807.5762],[-102.6327,21.4909,1852.8438],[-102.6322,21.4969,1880.191],[-102.6248,21.5014,1899.8677],[-102.6299,21.5083,1917.0967],[-102.6422,21.5187,1937.7665],[-102.6388,21.5234,1934.2197],[-102.6312,21.5279,1928.3145],[-102.6307,21.534,1888.8414],[-102.642,21.5359,1921.5787],[-102.651,21.5344,1937.2435],[-102.6553,21.5354,1948.4238],[-102.6596,21.5336,1959.4631],[-102.6652,21.5399,1987.1799],[-102.6825,21.5439,2027.2546],[-102.6872,21.5425,2002.041],[-102.6893,21.5449,2021.1382],[-102.6922,21.5421,2002.377],[-102.6964,21.543,2018.2836],[-102.6971,21.5515,2075.3281],[-102.6923,21.5631,2147.145],[-102.6951,21.5729,2216.1868],[-102.7089,21.5718,2173.2114],[-102.7115,21.5729,2154.7158],[-102.7171,21.5713,2138.585],[-102.718,21.5762,2146.1394],[-102.7221,21.5766,2194.4858],[-102.7219,21.5809,2215.3225],[-102.7246,21.5842,2225.6201],[-102.7239,21.5867,2219.3486],[-102.7254,21.5898,2219.4133],[-102.7295,21.5931,2221.7725],[-102.7353,21.5911,2159.0083],[-102.7374,21.5868,2129.124],[-102.7647,21.5961,2125.6777],[-102.7684,21.6037,2141.8464],[-102.7675,21.6084,2157.9595],[-102.7709,21.6118,2240.5156],[-102.7708,21.6148,2287.4771],[-102.7754,21.6216,2370.8872],[-102.7744,21.6269,2424.4509],[-102.7776,21.6322,2471.3645],[-102.7776,21.6389,2544.9011],[-102.7792,21.6399,2526.6606],[-102.7804,21.6448,2482.2324],[-102.7836,21.6467,2589.0764],[-102.7798,21.6515,2384.301],[-102.7735,21.6548,2349.5801],[-102.7734,21.6583,2335.2087],[-102.7836,21.6598,2281.2673],[-102.7887,21.6636,2242.3682],[-102.7952,21.6635,2206.7205],[-102.8021,21.667,2171.7314],[-102.8053,21.6713,2024.2966],[-102.798,21.6703,2233.1196],[-102.7955,21.6759,1982.8159],[-102.7918,21.677,1994.707],[-102.7894,21.6749,2075.1729],[-102.7861,21.6749,2106.4924],[-102.7831,21.6782,2170.6108],[-102.7792,21.6792,2227.2246],[-102.7763,21.6836,2292.3416],[-102.7665,21.6869,2484.0466],[-102.766,21.6895,2475.1833],[-102.7615,21.6929,2526.6738],[-102.7453,21.7201,2620.1765],[-102.7722,21.7378,1934.2911],[-102.7757,21.7346,1937.1504],[-102.7795,21.7399,1842.2987],[-102.7783,21.7427,1844.5278],[-102.7852,21.7457,1782.7202],[-102.7923,21.755,1662.6746],[-102.8037,21.7612,1604.9689],[-102.806,21.764,1581.8909],[-102.8169,21.7665,1558.7993],[-102.8211,21.7734,1553.1687],[-102.8213,21.7778,1555.3842],[-102.8201,21.7785,1579.9531],[-102.8272,21.7871,1615.4131],[-102.8271,21.7904,1619.0024],[-102.83,21.7931,1612.5977],[-102.8313,21.7972,1631.4055],[-102.8393,21.7969,1710.9027],[-102.8424,21.7985,1745.8932],[-102.8423,21.8048,1820.3745],[-102.846,21.8,1804.1609],[-102.8533,21.7991,1795.9052],[-102.8501,21.8095,1938.308],[-102.8518,21.8119,1922.501],[-102.8495,21.8137,1987.6515],[-102.8475,21.8189,2016.8101],[-102.8473,21.8224,1934.0995],[-102.8503,21.8251,1945.2881],[-102.8475,21.8286,1988.8135],[-102.8473,21.8334,2009.3051],[-102.8527,21.8343,2043.948],[-102.8581,21.8332,2063.9016],[-102.8646,21.8435,2158.9966],[-102.8709,21.8462,2226.2517],[-102.8742,21.8528,2067.8855],[-102.8728,21.8564,2022.9536],[-102.8634,21.8638,2077.5554],[-102.8624,21.8713,2204.3652],[-102.8596,21.8749,2244.3674],[-102.8605,21.8803,2346.0891],[-102.8557,21.8838,2393.1494],[-102.8566,21.8878,2414.0425],[-102.8537,21.8906,2379.5938],[-102.8548,21.8916,2379.5938],[-102.8519,21.8955,2338.2122],[-102.8492,21.9067,2390.9197],[-102.8434,21.9124,2405.759],[-102.8461,21.9137,2403.7192],[-102.8462,21.9154,2387.792],[-102.8443,21.9165,2383.9255],[-102.8436,21.926,2345.0156],[-102.8393,21.9337,2407.1133],[-102.8383,21.9393,2415.5444],[-102.8373,21.9406,2349.6299],[-102.8337,21.9403,2391.2283],[-102.8232,21.9555,2422.3442],[-102.8207,21.9642,2356.3074],[-102.801,22.0039,2377.9453],[-102.7956,22.009,2507.4761],[-102.7915,22.016,2419.5571],[-102.7833,22.0177,2538.8252],[-102.7823,22.0281,2483.9565],[-102.7763,22.031,2544.7383],[-102.7743,22.036,2504.9995],[-102.769,22.0378,2552.9072],[-102.7677,22.04,2506.1873],[-102.7705,22.0416,2398.6606],[-102.761,22.0463,2448.3325],[-102.7594,22.0514,2413.166],[-102.7555,22.0563,2563.467],[-102.7556,22.0611,2616.3799],[-102.7532,22.0633,2668.1387],[-102.7564,22.0683,2762.7935],[-102.7558,22.0737,2733.9612],[-102.7287,22.0885,2707.7498],[-102.7105,22.0939,2585.2493],[-102.7094,22.0968,2589.6924],[-102.6978,22.1015,2693.104],[-102.6909,22.1066,2702.6782],[-102.6919,22.1148,2679.374],[-102.6901,22.1234,2677.1851],[-102.6875,22.1242,2683.0198],[-102.6834,22.1299,2675.9346],[-102.6859,22.1332,2682.7104],[-102.6861,22.1379,2643.3496],[-102.6817,22.1411,2610.1016],[-102.681,22.1437,2582.6311],[-102.6824,22.1459,2575.1057],[-102.6793,22.145,2552.9504],[-102.6743,22.1478,2515.6719],[-102.6741,22.1513,2524.7627],[-102.6694,22.1596,2496.1084],[-102.6755,22.1685,2579.9429],[-102.6759,22.1756,2576.4751],[-102.6747,22.178,2566.5259],[-102.6687,22.1779,2548.2717],[-102.6667,22.1809,2579.7415],[-102.6693,22.194,2577.4148],[-102.6651,22.1941,2569.4922],[-102.6611,22.1909,2622.9492],[-102.6516,22.1931,2538.4121],[-102.6553,22.195,2463.9211],[-102.6458,22.2043,2710.1599],[-102.6458,22.2132,2727.9148],[-102.6437,22.2212,2762.5664],[-102.6393,22.226,2661.2119],[-102.6417,22.2264,2610.1084],[-102.6414,22.2284,2657.6863],[-102.67,22.2457,2388.1082],[-102.6687,22.2919,2451.479],[-102.527,22.2909,2519.532],[-102.5066,22.2938,2497.71],[-102.5013,22.3043,2401.604],[-102.4891,22.3035,2356.3203],[-102.4885,22.3054,2315.3938],[-102.4702,22.3092,2236.7891],[-102.4672,22.312,2241.385],[-102.4661,22.3223,2254.2949],[-102.4637,22.3212,2228.0623],[-102.4607,22.3237,2226.3191],[-102.4619,22.327,2231.1797],[-102.461,22.3318,2221.9495],[-102.4681,22.3324,2234.2866],[-102.4712,22.3363,2239.0422],[-102.4686,22.3519,2318.583],[-102.4656,22.3502,2359.3694],[-102.4511,22.3521,2406.2524],[-102.4323,22.3575,2418.4785],[-102.3879,22.3641,2362.9644],[-102.3784,22.3609,2363.6604],[-102.3593,22.385,2160.6738],[-102.3629,22.3887,2158.8679],[-102.3214,22.3885,2029.0005],[-102.321,22.4183,2018.939],[-102.312,22.4408,1996.0529],[-102.3118,22.4569,2009.1974],[-102.2983,22.4596,2004.2573],[-102.2901,22.4199,1976.627],[-102.2875,22.4161,1974.7249],[-102.2854,22.4171,1975.9429],[-102.2818,22.4138,1974.0789],[-102.274,22.4143,1972.6229],[-102.2709,22.4118,1971.0774],[-102.2731,22.4088,1970.5686],[-102.2674,22.4066,1968.4694],[-102.2643,22.3992,1965.811],[-102.261,22.3986,1964.7679],[-102.2608,22.3957,1965.4761],[-102.2556,22.3914,1962.563],[-102.2552,22.3874,1962.6709],[-102.2536,22.3874,1960.2103],[-102.2536,22.3888,1959.9043],[-102.2503,22.3872,1959.9771],[-102.2492,22.3856,1958.6931],[-102.2506,22.3809,1957.3936],[-102.2549,22.3789,1957.7188],[-102.2532,22.3745,1952.9587],[-102.2356,22.3735,1962.0129],[-102.2281,22.3747,1964.0093],[-102.2252,22.3741,1963.9956],[-102.2233,22.3713,1961.0676],[-102.212,22.3727,1965.9215],[-102.212,22.3625,1957.9081],[-102.1774,22.3624,1987.1249],[-102.1807,22.3504,1973.8635],[-102.1498,22.3472,2027.6338],[-102.1532,22.2904,2218.7947],[-102.1066,22.2854,2154.9797],[-102.1078,22.2827,2160.606],[-102.1052,22.2808,2161.6599],[-102.0909,22.2912,2132.45],[-102.0896,22.289,2120.5708],[-102.0756,22.3061,2050.8569],[-102.0567,22.2999,2035.4127],[-102.0576,22.2961,2039.5536],[-102.0557,22.2953,2039.4934],[-102.0584,22.2937,2042.6692],[-102.0512,22.2912,2039.7509],[-102.0435,22.2939,2029.2528],[-102.0418,22.2952,2028.5017],[-102.0423,22.297,2026.7719],[-102.0373,22.299,2023.8136],[-102.0318,22.2889,2021.5291],[-102.0299,22.289,2021.5935],[-102.028,22.2787,2021.6169],[-102.0298,22.2784,2020.5735],[-102.0292,22.269,2021.4435],[-102.0223,22.2458,2019.7445],[-102.0225,22.2416,2020.6777],[-102.0025,22.2414,2020.7737],[-101.9997,22.2337,2017.2616],[-101.9991,22.2083,2044.4094],[-102.001,22.1939,2064.7583],[-102.001,22.1681,2099.6995],[-102.0295,22.1687,1996.1927],[-102.0377,22.1598,1989.8881],[-102.0411,22.1618,1988.2097],[-102.0408,22.1597,1987.9657],[-102.0433,22.1587,1986.1765],[-102.0452,22.1537,1984.5798],[-102.0171,22.154,2020.1067],[-102.0259,22.1298,2017.8457],[-102.0082,22.1238,2034.3616],[-101.986,22.1208,2045.1814],[-101.9676,22.1112,2051.2292],[-101.8831,22.0555,2105.3103],[-101.8643,22.0415,2111.9609],[-101.8623,22.0467,2119.9055],[-101.8552,22.0465,2130.3958],[-101.8557,22.0451,2125.9001],[-101.8542,22.0443,2127.3364],[-101.8552,22.0418,2117.938],[-101.8615,22.0359,2103.4006],[-101.8592,22.0344,2111.6299],[-101.8617,22.0289,2097.9365],[-101.8406,22.0266,2110.4927],[-101.8305,22.0215,2120.4724],[-101.8157,22.02,2125.2058],[-101.8075,22.0232,2143.7261],[-101.8014,22.031,2153.6985],[-101.8012,22.0283,2149.5054],[-101.8043,22.0253,2167.9773],[-101.7934,22.0233,2199.2383],[-101.7844,22.0241,2185.375],[-101.7848,22.0227,2187.6934],[-101.7789,22.0176,2187.6472],[-101.7788,22.0153,2184.6631],[-101.7772,22.0153,2184.6631],[-101.7776,22.0073,2179.1506],[-101.7597,22.009,2179.4795],[-101.751,22.0146,2181.3547],[-101.7466,22.0121,2178.7183],[-101.73,22.0021,2155.167],[-101.7323,21.9951,2150.8882],[-101.7091,21.9799,2127.4497],[-101.7107,21.9739,2125.2546],[-101.6829,21.9629,2121.7705],[-101.6691,21.9458,2121.707],[-101.6591,21.9416,2127.7205],[-101.6597,21.9406,2127.7205],[-101.6571,21.9393,2128.5886],[-101.659,21.936,2131.3188],[-101.6564,21.9336,2134.2444],[-101.6579,21.9298,2136.3337],[-101.6546,21.9306,2135.7234],[-101.6523,21.9278,2137.6658],[-101.6541,21.9274,2138.5522],[-101.6525,21.9244,2142.137],[-101.654,21.9242,2142.3711],[-101.6496,21.9203,2149.2432],[-101.6507,21.9077,2157.0422],[-101.6483,21.9072,2161.8535],[-101.6447,21.9098,2167.5613],[-101.6368,21.9077,2178.9426],[-101.6289,21.9109,2197.7173],[-101.6262,21.9146,2233.146],[-101.6209,21.9176,2247.9023],[-101.6167,21.9294,2254.2004],[-101.6115,21.9192,2229.5645],[-101.5958,21.91,2216.1208],[-101.5923,21.9096,2211.0547],[-101.5909,21.9154,2205.5339],[-101.5834,21.9145,2193.7632],[-101.5836,21.9156,2193.9146],[-101.5784,21.9171,2192.1279],[-101.5779,21.9158,2192.2185],[-101.5698,21.9171,2196.2883],[-101.5691,21.8947,2204.1843],[-101.5664,21.8764,2204.8394],[-101.5652,21.8764,2204.8394],[-101.5644,21.8723,2206.304],[-101.5647,21.8642,2206.113],[-101.5628,21.8554,2208.5229],[-101.566,21.842,2208.4668],[-101.562,21.84,2210.1587],[-101.5614,21.8361,2209.6802],[-101.5482,21.8341,2227.1719],[-101.537,21.8105,2233.2759],[-101.5278,21.8092,2255.3245],[-101.5298,21.8131,2256.0549],[-101.522,21.818,2262.0454],[-101.5198,21.813,2255.75],[-101.5178,21.8148,2256.8162],[-101.5105,21.7991,2239.2063],[-101.4963,21.8099,2222.9038],[-101.5035,21.8301,2242.1956],[-101.4861,21.8419,2209.8167],[-101.4882,21.8534,2216.4539],[-101.4836,21.8565,2212.2317],[-101.4842,21.8581,2212.2385],[-101.4804,21.8593,2206.1394],[-101.4832,21.8677,2211.4165],[-101.4681,21.8703,2211.1675],[-101.4683,21.8771,2224.1897],[-101.4665,21.8802,2227.0659],[-101.4527,21.8851,2232.4712],[-101.4453,21.89,2226.6284],[-101.446,21.8921,2226.4624],[-101.4407,21.8927,2224.0942],[-101.4464,21.9063,2219.0979],[-101.4418,21.9093,2216.4138],[-101.4401,21.9103,2215.533],[-101.4346,21.8971,2215.3323],[-101.4273,21.9018,2217.6106],[-101.4102,21.9087,2323.9846],[-101.4127,21.915,2400.959],[-101.412,21.9187,2330.4587],[-101.4304,21.9323,2189.5229],[-101.4292,21.9344,2184.5935],[-101.4052,21.9485,2159.3552],[-101.3972,21.9678,2141.3142],[-101.3937,21.9679,2134.7383],[-101.3886,21.9714,2132.6616],[-101.3881,21.9738,2132.0024],[-101.3839,21.974,2128.2244],[-101.3844,21.9823,2124.9233],[-101.3766,21.9812,2122.5676],[-101.3734,21.9902,2118.3862],[-101.3708,21.9915,2118.0881],[-101.3622,21.9903,2117.0906],[-101.3605,21.9952,2114.6584],[-101.3275,21.997,2112.3003],[-101.3268,22.0051,2109.509],[-101.3298,22.0048,2109.2422],[-101.3294,22.0072,2108.3896],[-101.3453,22.0059,2107.1709],[-101.3447,22.0141,2105.437],[-101.3524,22.0131,2105.6226],[-101.3486,22.0281,2100.5703],[-101.3393,22.0244,2102.5503],[-101.3378,22.0251,2102.9434],[-101.3392,22.015,2105.0918],[-101.3279,22.0165,2106.4204],[-101.3272,22.0215,2105.73],[-101.3325,22.0246,2104.1729],[-101.3309,22.0353,2100.8],[-101.3517,22.0438,2096.5613],[-101.3546,22.0304,2099.9641],[-101.3624,22.0335,2099.8467],[-101.3657,22.0185,2105.4988],[-101.3828,22.0207,2103.5142],[-101.3807,22.0288,2100.1323],[-101.3697,22.0275,2101.0181],[-101.3686,22.033,2098.8948],[-101.3759,22.0339,2099.8208],[-101.3745,22.0414,2096.5962],[-101.3776,22.0421,2095.812],[-101.3771,22.045,2095.4792],[-101.361,22.041,2096.4143],[-101.36,22.0448,2095.4089],[-101.3568,22.0435,2095.9956],[-101.3542,22.0447,2096.1035],[-101.3517,22.0516,2094.9014],[-101.3466,22.0497,2095.0605],[-101.3459,22.0536,2094.2903],[-101.3534,22.0559,2094.0769],[-101.3512,22.0676,2093.7825],[-101.3548,22.0689,2093.8076],[-101.3542,22.0717,2094.123],[-101.3508,22.0878,2098.8521],[-101.3294,22.1356,2115.4473],[-101.3277,22.1441,2116.1155],[-101.3377,22.1435,2113.1121],[-101.3513,22.1768,2089.0825],[-101.3243,22.2099,2063.5132],[-101.3323,22.212,2051.8372],[-101.3387,22.2202,2053.3237],[-101.3529,22.2292,2076.3621],[-101.3617,22.2385,2127.7134],[-101.3644,22.2444,2111.0737],[-101.3629,22.2495,2118.9937],[-101.367,22.2531,2131.106],[-101.3712,22.2536,2136.895],[-101.3768,22.2617,2178.4561],[-101.382,22.261,2175.4543],[-101.3854,22.2651,2212.3704],[-101.4163,22.2673,2174.8865],[-101.4101,22.2751,2225.5383],[-101.409,22.2804,2255.7817],[-101.4049,22.2787,2233.929],[-101.3982,22.2814,2277.6252],[-101.4008,22.287,2285.3103],[-101.3989,22.2934,2272.9072],[-101.3914,22.2999,2303.0369],[-101.3992,22.3039,2322.4546],[-101.4055,22.3035,2292.3484],[-101.4084,22.306,2300.218],[-101.4106,22.3112,2310.5815],[-101.4197,22.315,2315.3999],[-101.4184,22.3165,2326.2922],[-101.4255,22.3244,2337.2976],[-101.4291,22.3329,2333.0854],[-101.4344,22.3377,2352.0747],[-101.4351,22.3415,2360.6562],[-101.433,22.3633,2344.9121],[-101.3819,22.3575,2230.4453],[-101.3736,22.4396,2144.4739],[-101.3748,22.4565,2196.1748],[-101.3137,22.4535,2128.3311],[-101.3154,22.4696,2195.4526],[-101.2857,22.5079,2171.3772],[-101.2866,22.515,2173.0002],[-101.2951,22.5285,2155.0693],[-101.2946,22.5313,2156.6372],[-101.2963,22.5355,2155.6567],[-101.2946,22.5364,2160.4072],[-101.2891,22.5586,2176.8835],[-101.2875,22.5598,2173.3892],[-101.2936,22.5845,2114.1487],[-101.2968,22.5835,2116.5444],[-101.2989,22.5875,2110.1562],[-101.298,22.5932,2101.3503],[-101.3036,22.6019,2084.6724],[-101.3057,22.6099,2085.6211],[-101.3144,22.6157,2053.7627],[-101.3221,22.6283,2033.7881],[-101.3258,22.6298,2029.5908],[-101.3255,22.6369,2019.7605],[-101.3304,22.6415,2009.2297],[-101.3296,22.6425,2007.1661],[-101.3339,22.6421,2005.3191],[-101.3369,22.6588,1983.2924],[-101.347,22.6576,1985.5261],[-101.3477,22.6562,1986.4443],[-101.3594,22.6535,1994.4387],[-101.38,22.6758,1962.6105],[-101.3492,22.7118,1942.7352],[-101.3601,22.7143,1944.7349],[-101.3928,22.7381,1946.4508],[-101.4111,22.7477,1945.8567],[-101.491,22.7429,1989.5012],[-101.497,22.7015,2053.9976],[-101.5674,22.6568,2099.8005],[-101.5739,22.6337,2124.7065],[-101.5728,22.6301,2128.4502],[-101.5738,22.6128,2152.905],[-101.5873,22.6211,2153.6047],[-101.5877,22.6266,2142.9858],[-101.5953,22.6241,2149.0],[-101.5901,22.589,2170.4504],[-101.6565,22.5133,2329.9778],[-101.6565,22.5104,2344.6626],[-101.6599,22.5053,2375.6895],[-101.6747,22.5065,2374.7886],[-101.6855,22.5116,2355.7017],[-101.688,22.516,2311.8882],[-101.6949,22.5178,2292.4617],[-101.696,22.5204,2275.2954],[-101.7462,22.5087,2132.0906],[-101.7354,22.4802,2183.8164],[-101.7715,22.4882,2103.4468],[-101.7785,22.4849,2101.5066],[-101.7834,22.465,2105.4858],[-101.7993,22.4706,2108.343],[-101.8371,22.4997,2138.2742],[-101.8304,22.512,2137.6877],[-101.8257,22.534,2129.481],[-101.8199,22.5513,2127.114],[-101.873,22.5631,2114.6204],[-101.8533,22.656,2152.0676],[-101.9398,22.6457,2195.4045],[-102.1249,22.783,2439.5225],[-102.1761,22.843,2086.7266],[-102.1921,22.8649,2084.6641],[-102.2282,22.9965,2022.7148],[-102.2381,23.0476,2011.3132],[-102.2601,23.0459,1995.5121],[-102.2497,23.0755,2000.1904],[-102.2415,23.0863,1997.4205],[-102.2237,23.1194,1982.0869],[-102.2142,23.1313,1981.3079],[-102.2299,23.1519,1984.6123],[-102.241,23.1694,1971.8154],[-102.2395,23.2095,1971.0774],[-102.2894,23.2317,1968.8812],[-102.2858,23.2733,1994.6654],[-102.2528,23.2712,1951.0996],[-102.2447,23.2768,1963.489],[-102.2316,23.3151,1949.2972],[-102.2411,23.315,1955.3077],[-102.2468,23.2933,1963.3732],[-102.2499,23.291,1964.168],[-102.2547,23.2808,1961.3097],[-102.2564,23.2824,1962.1211],[-102.2578,23.2801,1962.5356],[-102.2695,23.2799,1979.4442],[-102.2646,23.2901,1975.0911],[-102.296,23.3205,2000.8787],[-102.2683,23.3423,1981.6011],[-102.2536,23.365,1984.3679],[-102.2382,23.4469,2009.8281],[-102.1936,23.4476,1967.7292],[-102.1962,23.4249,1957.8069],[-102.1913,23.4014,1919.4373],[-102.1686,23.3989,1929.698],[-102.1688,23.361,1932.629],[-102.1225,23.3539,1971.3711],[-102.0119,23.3727,1951.5593],[-101.7751,23.4476,2415.7166],[-101.4371,23.717,2264.5244],[-101.341,23.7965,2158.9126],[-101.327,23.8127,2091.8965],[-101.2481,23.8764,1945.7463],[-101.1925,23.9186,1890.0551],[-101.2167,24.1597,2101.7715],[-101.1732,24.1641,2132.2827],[-101.0654,24.207,2443.8088],[-101.0127,24.3908,1934.3799],[-100.9873,24.4325,2054.3879],[-100.9848,24.4273,2037.0039],[-100.9879,24.4178,2012.698],[-100.9901,24.418,2012.4042],[-100.9876,24.4125,2001.5149],[-100.9882,24.4096,1994.2316],[-100.9931,24.4113,1994.4127],[-100.9946,24.4074,1987.7505],[-100.9977,24.4073,1988.314],[-100.9977,24.4042,1983.4304],[-100.9997,24.4039,1984.73],[-101.0,24.3984,1976.8162],[-101.0029,24.3975,1973.6399],[-101.0014,24.3948,1969.9614],[-101.0085,24.3876,1947.7894],[-101.0074,24.3851,1957.9584],[-101.0099,24.3851,1954.4313],[-101.0064,24.3805,1969.6875],[-101.0076,24.3806,1969.1077],[-101.0074,24.3776,1982.4142],[-101.0048,24.3775,1982.371],[-101.0067,24.3736,2005.3135],[-101.0054,24.3686,2032.3785],[-101.0037,24.3692,2019.895],[-101.0033,24.368,2029.1716],[-101.0062,24.3586,2128.3521],[-101.0113,24.358,2298.675],[-101.0103,24.3496,2349.6895],[-101.0069,24.3455,2351.8262],[-101.0068,24.3402,2418.6541],[-101.0055,24.3392,2418.6541],[-101.0067,24.3358,2355.8384],[-100.9453,24.2812,1900.1279],[-100.8504,24.3435,1750.9656],[-100.8185,24.3779,1716.5627],[-100.8077,24.3873,1705.7889],[-100.8099,24.387,1707.4485],[-100.7423,24.4604,1712.0106],[-100.7999,24.5562,1819.5781],[-100.8104,24.5516,1827.1486],[-100.8478,24.5556,1906.0779],[-100.8828,24.5716,1736.0867],[-100.9022,24.5839,1746.9817],[-100.9588,24.5427,2476.6277],[-101.0805,24.5912,2784.9734],[-101.1276,24.6234,3123.126],[-101.1646,24.6816,2440.8821],[-101.179,24.733,2225.4092],[-101.1884,24.7494,2172.865],[-101.2017,24.7655,2352.8196],[-101.215,24.7752,2230.2383],[-101.2361,24.7779,2238.0454],[-101.3131,24.8014,2319.104],[-101.3421,24.8134,1929.1343],[-101.4022,24.7882,1661.2524],[-101.4127,24.7721,1686.8408],[-101.4616,24.7368,1848.7271],[-101.4917,24.7438,1877.5242],[-101.5194,24.7465,2264.1899],[-101.5406,24.7456,2399.7676],[-101.6223,24.759,2237.6284],[-101.6408,24.8007,2749.8979],[-101.609,24.7897,2559.9797],[-101.6013,24.8356,1871.2439],[-101.6563,24.8608,2405.7617],[-101.6851,24.84,2059.1475],[-101.7735,24.8755,1844.1392],[-101.8319,24.9722,1715.9944],[-101.8488,25.0176,1567.4034],[-102.0818,25.0707,1793.4891],[-102.2376,25.1185,1437.2655],[-102.2955,25.1252,1238.969],[-102.4633,25.1159,1685.3462],[-102.4468,24.9995,1618.5356],[-102.6697,25.0666,1515.2429],[-102.6524,25.0452,1415.4133],[-102.6534,25.0407,1414.4602],[-102.6495,25.028,1419.455],[-102.643,25.0278,1407.052],[-102.6289,25.0083,1408.1154],[-102.6355,25.0042,1429.7241],[-102.6338,24.9996,1398.0945],[-102.643,24.9786,1431.7262],[-102.673,24.9788,1434.2854],[-102.6731,24.9428,1525.8951],[-102.5662,24.9022,1616.8589],[-102.5654,24.8664,1811.0575],[-102.5492,24.8299,1582.3278],[-102.5122,24.7097,1568.8435],[-102.4946,24.6126,1573.0706],[-102.4798,24.4904,1751.2266],[-102.487,24.4442,1741.8434],[-102.4792,24.4438,1732.223],[-102.4731,24.4452,1724.7095],[-102.4727,24.4397,1729.1912],[-102.4751,24.4389,1729.6165],[-102.4803,24.428,1758.3834],[-102.4921,24.4256,1780.6663],[-102.5201,24.4239,1814.5085],[-102.5228,24.4152,1842.6799],[-102.5267,24.4162,1837.2981],[-102.5339,24.4077,1873.7444],[-102.6066,24.4112,1804.6245],[-102.6073,24.4054,1808.4023],[-102.6118,24.4,1806.2515],[-102.6186,24.3964,1813.5647],[-102.6551,24.3886,1850.0376],[-102.6597,24.3859,1846.4292],[-102.6624,24.3816,1819.1053],[-102.699,24.3762,1751.5151],[-102.6999,24.374,1751.5098],[-102.704,24.3741,1746.731],[-102.7088,24.3778,1739.9629],[-102.7144,24.3782,1732.0665],[-102.722,24.3754,1719.8157],[-102.738,24.3775,1708.5477],[-102.7516,24.3758,1695.9147],[-102.7567,24.377,1688.4413],[-102.7591,24.3806,1683.6338],[-102.7636,24.3826,1680.2578],[-102.7651,24.3847,1679.4813],[-102.7644,24.387,1677.3412],[-102.7794,24.3958,1664.421],[-102.7792,24.4001,1662.8453],[-102.7811,24.4027,1659.7665],[-102.7889,24.4062,1666.6571],[-102.792,24.4054,1671.3042],[-102.7976,24.3987,1689.9491],[-102.8011,24.3985,1706.7097],[-102.8124,24.3895,1928.2908],[-102.8168,24.3899,1936.7166],[-102.8222,24.3866,1939.4069],[-102.8317,24.3847,1917.8145],[-102.834,24.3901,1929.8882],[-102.8459,24.3981,1820.8123],[-102.8539,24.4244,1875.6042],[-102.8586,24.4229,1854.4604],[-102.865,24.4303,1824.2351],[-102.8618,24.4301,1778.3798],[-102.8606,24.4345,1762.8503],[-102.8641,24.4364,1830.397],[-102.8738,24.45,1842.1238],[-102.8749,24.451,1839.7792],[-102.8776,24.4494,1831.057],[-102.8919,24.4611,1598.9714],[-102.8943,24.4584,1601.8945],[-102.8904,24.4515,1604.3315],[-102.8949,24.4504,1611.1415],[-102.8951,24.4413,1623.1611],[-102.9018,24.4357,1615.6183],[-102.9001,24.4285,1618.363],[-102.9674,24.4577,1823.7095],[-102.9836,24.4333,1807.1553],[-103.0432,24.4665,1816.9961],[-103.0751,24.4226,1920.9706],[-103.0875,24.436,2037.1292],[-103.0985,24.4016,2018.6212],[-103.1317,24.4247,1981.5657],[-103.1395,24.4285,1995.6467],[-103.1461,24.4274,2032.9497],[-103.1452,24.4267,2011.4496],[-103.1577,24.4278,2060.5928],[-103.1653,24.4352,2135.5996],[-103.1755,24.4333,2096.4802],[-103.1819,24.4242,2052.6931],[-103.182,24.4199,2037.082],[-103.1873,24.4233,2038.5165],[-103.2021,24.4245,2008.4269],[-103.2024,24.4214,2004.5707],[-103.2173,24.4208,1971.6844],[-103.2179,24.4172,1966.9777],[-103.2228,24.4171,1959.3611],[-103.2222,24.4206,1962.4607],[-103.2272,24.4204,1956.3075],[-103.2268,24.4238,1958.3795],[-103.2338,24.4235,1955.8276],[-103.2337,24.4272,1944.0376],[-103.2366,24.4271,1950.5503],[-103.2369,24.4306,1940.5645],[-103.2336,24.4307,1946.7675],[-103.234,24.4358,1944.2438],[-103.238,24.4356,1935.158],[-103.2429,24.4399,1923.296],[-103.2453,24.445,1920.0879],[-103.2535,24.4473,1913.0638],[-103.2618,24.4405,1901.4268],[-103.2645,24.4346,1896.0361],[-103.2715,24.4333,1891.019],[-103.2728,24.4307,1893.781],[-103.2738,24.4317,1888.5728],[-103.2803,24.4297,1885.7709],[-103.2807,24.4308,1888.9485],[-103.2826,24.4288,1883.2999],[-103.2888,24.4293,1878.5585],[-103.291,24.4318,1875.1985],[-103.2984,24.4302,1872.2006],[-103.3044,24.4325,1866.1681],[-103.3054,24.4345,1868.8435],[-103.3061,24.4327,1865.3275],[-103.3075,24.435,1865.403],[-103.3084,24.4335,1871.3323],[-103.3103,24.4357,1881.9834],[-103.3104,24.4339,1886.5322],[-103.3165,24.429,1895.9279],[-103.322,24.4284,1908.842],[-103.3239,24.4265,1923.2961],[-103.33,24.4282,1901.3979],[-103.3862,24.423,1870.7855],[-103.3876,24.4275,1877.0955],[-103.3941,24.4321,1838.826],[-103.3997,24.4328,1837.3154],[-103.3992,24.4288,1840.4166],[-103.4059,24.4296,1844.1213],[-103.4062,24.4278,1843.6541],[-103.4099,24.4285,1844.9121],[-103.4098,24.4263,1846.2483],[-103.4133,24.429,1849.4764],[-103.4155,24.4281,1853.4709],[-103.4193,24.4305,1851.5565],[-103.4199,24.4255,1855.304],[-103.4219,24.4242,1855.8813],[-103.42,24.4219,1855.7609],[-103.4222,24.4209,1857.8845],[-103.4216,24.4166,1856.9802],[-103.4253,24.4153,1860.0702],[-103.4257,24.413,1859.6184],[-103.4289,24.4117,1862.4203],[-103.4302,24.4089,1862.8932],[-103.4284,24.4031,1868.9453],[-103.4304,24.4014,1870.7554],[-103.43,24.3991,1872.516],[-103.4251,24.3879,1882.5032],[-103.428,24.3866,1883.1584],[-103.4254,24.3794,1887.6876],[-103.4298,24.3744,1891.7115],[-103.428,24.3719,1892.4073],[-103.4312,24.362,1898.8788],[-103.4305,24.3601,1901.2522],[-103.4357,24.355,1903.8635],[-103.4379,24.3494,1904.5487],[-103.4368,24.347,1908.79],[-103.4413,24.3413,1910.2867],[-103.4424,24.3421,1913.9075],[-103.4489,24.3386,1922.5],[-103.4473,24.3365,1928.168],[-103.4483,24.3326,1925.7823],[-103.4583,24.3273,1931.4543],[-103.4627,24.3205,1934.3132],[-103.4679,24.3198,1938.1812],[-103.4717,24.3216,1941.2031],[-103.4841,24.3183,1952.7056],[-103.4869,24.3107,1956.7037],[-103.4849,24.3087,1959.4086],[-103.486,24.3049,1961.8015],[-103.485,24.3009,1964.6299],[-103.5045,24.2958,1978.7352],[-103.5043,24.2922,1979.0216],[-103.5067,24.291,1981.8488],[-103.5068,24.288,1995.1248],[-103.5128,24.289,1993.0],[-103.5144,24.2868,1993.0],[-103.5238,24.289,1993.1919],[-103.5312,24.2939,2001.4819],[-103.5378,24.2904,2014.4586],[-103.5477,24.2915,2032.0897],[-103.5589,24.2875,2022.2468],[-103.5683,24.2864,2031.9996],[-103.5674,24.2769,2036.5231],[-103.5688,24.2708,2040.8381],[-103.5674,24.2703,2042.0457],[-103.5664,24.2611,2048.1226],[-103.5647,24.2601,2050.1912],[-103.5647,24.2573,2051.4014],[-103.563,24.2573,2053.2312],[-103.5616,24.25,2060.627],[-103.5565,24.242,2069.1399],[-103.5626,24.2311,2072.0352],[-103.5619,24.2229,2079.0852],[-103.5655,24.2114,2090.2324],[-103.5654,24.208,2092.8455],[-103.5628,24.2061,2088.7297],[-103.5631,24.2036,2091.2563],[-103.5593,24.1984,2093.8538],[-103.5595,24.1938,2095.1797],[-103.5661,24.1852,2105.1812],[-103.581,24.1796,2117.8884],[-103.5796,24.1785,2120.7876],[-103.6058,24.1512,2171.4626],[-103.622,24.1175,2189.1128],[-103.636,24.1103,2221.7368],[-103.6604,24.1493,2212.4744],[-103.6952,24.1303,2354.3889],[-103.76,24.0772,2651.8865],[-103.7976,24.0495,2424.4973],[-103.7998,24.0506,2394.2617],[-103.8103,24.0401,2388.4917],[-103.8133,24.022,2436.7266],[-103.8322,24.024,2394.6824],[-103.8431,24.027,2364.3071],[-103.8478,24.0032,2197.1001],[-103.8724,24.007,2096.354],[-103.8503,23.9888,2103.7981],[-103.8388,23.9648,2080.7844],[-103.8375,23.9641,2080.7844],[-103.8339,23.9696,2112.2959],[-103.8184,23.9649,2107.5078],[-103.8233,23.953,2121.8525],[-103.8308,23.9078,2292.4292],[-103.8531,23.8746,2684.1548],[-103.8498,23.8626,2639.4888],[-103.8326,23.8489,2743.2517],[-103.8312,23.8247,2642.7466],[-103.8161,23.8077,2370.4631],[-103.8222,23.8008,2326.6123],[-103.8203,23.7919,2282.3525],[-103.8236,23.7889,2221.2537],[-103.8351,23.7851,2162.9478],[-103.8354,23.7826,2155.1829],[-103.8437,23.7748,2130.8743],[-103.8441,23.7728,2125.7483],[-103.8503,23.7707,2115.8318],[-103.8512,23.7667,2131.8774],[-103.8624,23.7526,2101.8291],[-103.8545,23.7279,2233.6606],[-103.841,23.7012,2286.0559],[-103.8443,23.6846,2274.1758],[-103.8511,23.6796,2239.8667],[-103.7851,23.6766,3086.6187],[-103.7935,23.6309,2574.0076],[-103.8113,23.6136,2344.9924],[-103.8192,23.6167,2208.46],[-103.8492,23.6401,2250.3779],[-103.8774,23.629,2094.3376],[-103.8734,23.6205,2090.3062],[-103.8778,23.6187,2076.7195],[-103.8825,23.5923,2018.1946],[-103.899,23.604,2008.1628],[-103.9026,23.605,2002.0087],[-103.9027,23.6025,1986.0704],[-103.9069,23.6019,1988.4435],[-103.9035,23.5989,1989.2888],[-103.9049,23.5971,1989.199],[-103.8938,23.5859,1997.2178],[-103.8899,23.5849,2002.254],[-103.8911,23.5812,2007.4824],[-103.8901,23.5798,2019.9557],[-103.9119,23.5761,2017.4384],[-103.914,23.5833,2005.5796],[-103.9123,23.5881,2010.6746],[-103.9215,23.5892,2003.4827],[-103.9199,23.5758,2006.1871],[-103.917,23.5723,2007.7894],[-103.9163,23.5657,2012.7124],[-103.9217,23.562,2021.8153],[-103.9253,23.557,2028.6372],[-103.94,23.5473,2047.2981],[-103.943,23.5469,2053.4072],[-103.9503,23.5385,2073.5437],[-103.9569,23.5384,2071.6333],[-103.9628,23.5299,2085.1299],[-103.9697,23.5266,2106.5889],[-103.9725,23.5272,2100.6589],[-103.9779,23.5228,2109.854],[-103.9827,23.5222,2121.1777],[-103.9842,23.5194,2118.5178],[-103.9862,23.5196,2124.7534],[-103.9902,23.5156,2136.7739],[-103.9963,23.5147,2143.606],[-104.0039,23.5092,2189.8804],[-104.0039,23.5078,2181.946],[-104.066,23.4635,2858.8877],[-104.0649,23.4608,2876.5769],[-104.081,23.4213,2738.2217],[-104.0863,23.3986,2820.8691],[-104.0994,23.3786,2901.0754],[-104.1012,23.3667,2916.7095],[-104.1068,23.3551,2854.6394],[-104.1097,23.3551,2868.3416],[-104.1112,23.3512,2926.5513],[-104.1152,23.3285,2731.4341],[-104.1129,23.3256,2776.0044],[-104.1152,23.3142,2797.7378],[-104.1138,23.3066,2701.5671],[-104.116,23.3017,2711.5098],[-104.1164,23.2954,2609.2029],[-104.12,23.2882,2630.469],[-104.1209,23.2798,2676.2183],[-104.129,23.1822,2242.8127],[-104.1721,23.1284,2158.0588],[-104.1736,22.9824,1630.4487],[-104.1628,22.9753,1446.5742],[-104.1682,22.9642,1568.0551],[-104.1675,22.9557,1519.9341],[-104.1643,22.9493,1471.7336],[-104.1666,22.9452,1457.6545],[-104.1653,22.9418,1444.3209],[-104.1573,22.941,1422.946],[-104.1541,22.9378,1391.6635],[-104.1553,22.9284,1339.5316],[-104.1511,22.9221,1314.6807],[-104.142,22.922,1263.8937],[-104.136,22.9181,1220.7838],[-104.1348,22.9157,1198.298],[-104.1371,22.9117,1181.1166],[-104.1339,22.9101,1182.2463],[-104.133,22.905,1193.0955],[-104.1229,22.9034,1198.0349],[-104.1168,22.9077,1171.812],[-104.1126,22.9051,1166.8596],[-104.1161,22.9026,1187.4304],[-104.1177,22.8977,1166.1423],[-104.1119,22.8884,1160.3708],[-104.1075,22.8848,1153.8746],[-104.1072,22.8822,1159.2821],[-104.1095,22.8784,1160.9658],[-104.1071,22.8722,1154.7546],[-104.1084,22.8665,1152.4563],[-104.1063,22.8569,1175.0063],[-104.1077,22.8547,1152.6575],[-104.1159,22.8553,1141.0656],[-104.1168,22.851,1179.3696],[-104.1154,22.848,1134.5044],[-104.1089,22.8426,1131.208],[-104.1064,22.8346,1145.7053],[-104.1043,22.8336,1198.1604],[-104.1102,22.8225,1124.2814],[-104.1062,22.8131,1157.7751],[-104.1115,22.8103,1119.0623],[-104.1002,22.8056,1110.3228],[-104.0952,22.8058,1166.1989],[-104.0944,22.8007,1102.6577],[-104.0993,22.7981,1101.7124],[-104.1002,22.7948,1121.0284],[-104.0977,22.7926,1098.6763],[-104.0968,22.7881,1121.9215],[-104.0943,22.7899,1094.6],[-104.0922,22.7885,1093.7651],[-104.091,22.7829,1095.027],[-104.0938,22.7788,1089.496],[-104.0907,22.7753,1096.3112],[-104.0855,22.7756,1110.8326],[-104.0824,22.7736,1087.8015],[-104.0801,22.7699,1085.4844],[-104.0805,22.7666,1077.4927],[-104.0821,22.7645,1084.7134],[-104.0904,22.7624,1106.0244],[-104.0913,22.7606,1081.1107],[-104.0953,22.7592,1091.847],[-104.1036,22.7675,1120.4019],[-104.1072,22.7686,1130.9651],[-104.111,22.7671,1145.0314],[-104.1134,22.7641,1148.3484],[-104.1194,22.7623,1168.8508],[-104.1306,22.7638,1190.0969],[-104.1393,22.7684,1234.0614],[-104.1426,22.7677,1263.1107],[-104.1457,22.7638,1293.9048],[-104.1574,22.7597,1385.485],[-104.1657,22.7587,1548.536],[-104.1713,22.76,1443.8359],[-104.1822,22.7583,1523.1141],[-104.1871,22.7608,1680.4386],[-104.1866,22.7636,1714.3783],[-104.1914,22.7707,1807.528],[-104.1971,22.7728,1864.5226],[-104.1996,22.7765,1900.8466],[-104.2097,22.7797,2002.157],[-104.2134,22.7773,2047.333],[-104.221,22.7794,2088.7688],[-104.2274,22.7766,2198.5796],[-104.2278,22.7749,2188.6736],[-104.2245,22.7718,2188.144],[-104.2246,22.7667,2239.925],[-104.2268,22.7641,2248.3547],[-104.2264,22.7624,2261.4951],[-104.2319,22.7578,2407.0913],[-104.2321,22.7531,2347.8406],[-104.2373,22.7498,2395.6804],[-104.2441,22.7501,2443.5647],[-104.2508,22.748,2590.269],[-104.2584,22.7389,2868.4402],[-104.2663,22.7365,2989.678],[-104.2692,22.7209,2796.8887],[-104.2683,22.7175,2767.585],[-104.2627,22.7176,2795.8425],[-104.2667,22.7125,2801.4219],[-104.2708,22.711,2807.209],[-104.271,22.7077,2783.905],[-104.2776,22.7024,2819.6565],[-104.2796,22.6952,2829.7458],[-104.2783,22.6902,2834.8442],[-104.2744,22.6851,2835.3188],[-104.2749,22.682,2855.9202],[-104.2795,22.6743,2792.739],[-104.2792,22.6711,2745.7471],[-104.287,22.6679,2564.3135],[-104.2883,22.6635,2507.3169],[-104.2807,22.6534,2738.3037],[-104.282,22.651,2717.0657],[-104.2891,22.6493,2724.6294],[-104.29,22.6456,2670.8894],[-104.2896,22.6445,2691.6006],[-104.2818,22.6458,2615.1953],[-104.2693,22.6358,2550.8352],[-104.2734,22.6309,2651.0532],[-104.2737,22.6271,2596.6438],[-104.2833,22.6217,2627.9785],[-104.2815,22.6171,2717.2246],[-104.2761,22.6157,2703.9202],[-104.2762,22.6129,2695.1621],[-104.2725,22.605,2632.9453],[-104.2675,22.6031,2582.5166],[-104.2605,22.5962,2386.9458],[-104.2614,22.5862,2300.0015],[-104.2706,22.589,2355.5054],[-104.2744,22.5874,2436.9177],[-104.2782,22.5831,2517.4365],[-104.2789,22.5766,2650.4207],[-104.2838,22.571,2502.584],[-104.2843,22.5659,2472.9302],[-104.2893,22.5601,2473.116],[-104.2888,22.553,2344.8713],[-104.3024,22.5581,2362.4958],[-104.3057,22.5579,2363.125],[-104.3112,22.554,2484.553],[-104.3132,22.5472,2481.5322],[-104.3101,22.5461,2506.6177],[-104.3141,22.5407,2633.0076],[-104.3155,22.5412,2592.8301],[-104.3211,22.5355,2589.7612],[-104.3258,22.5374,2606.9907],[-104.3222,22.5325,2626.8623],[-104.319,22.5321,2630.6643],[-104.3209,22.5265,2620.3301],[-104.3195,22.5177,2583.4719],[-104.3144,22.5071,2606.4417],[-104.3028,22.492,2579.2856],[-104.2961,22.473,2486.9766],[-104.299,22.4617,2443.2771],[-104.3115,22.4492,2440.6614],[-104.3154,22.4482,2450.6277],[-104.3157,22.442,2460.8408],[-104.3182,22.4407,2485.844],[-104.3175,22.4383,2454.5449],[-104.3191,22.4381,2458.1562],[-104.3194,22.4358,2451.2407],[-104.3222,22.4353,2424.855],[-104.3202,22.4301,2430.7463],[-104.323,22.428,2406.5945],[-104.3275,22.4293,2352.541],[-104.3293,22.4283,2348.1934],[-104.3293,22.4322,2413.2373],[-104.3306,22.4322,2413.2373],[-104.3294,22.4268,2347.9714],[-104.3309,22.4242,2364.0356],[-104.3342,22.4217,2395.7158],[-104.337,22.424,2428.9729],[-104.3382,22.4222,2428.7314],[-104.3357,22.4203,2409.728],[-104.3428,22.4188,2457.4077],[-104.3447,22.4159,2499.4756],[-104.3445,22.4176,2476.6262],[-104.3488,22.4097,2428.1167],[-104.3518,22.4078,2375.6663],[-104.3535,22.4013,2446.075],[-104.3517,22.3892,2256.1892],[-104.35,22.3864,2305.2671],[-104.3253,22.3807,2254.7024],[-104.2931,22.3651,1787.9778],[-104.29,22.3581,1800.1376],[-104.2857,22.3564,1751.1841],[-104.2926,22.3443,2083.7358],[-104.2834,22.3455,2028.0652],[-104.2738,22.3428,1935.7405],[-104.2661,22.3434,1773.8623],[-104.2653,22.3466,1718.0955],[-104.2627,22.3456,1659.6992],[-104.2547,22.3488,1706.1104],[-104.2552,22.3577,1744.5088],[-104.2567,22.3593,1761.4113],[-104.2551,22.3733,1904.3423],[-104.2593,22.3781,1915.7286],[-104.2583,22.3847,2032.0819],[-104.2573,22.3861,2039.9149],[-104.253,22.3866,2049.1113],[-104.2544,22.3925,2126.1953],[-104.2517,22.394,2121.9185],[-104.253,22.395,2137.2095],[-104.241,22.4128,2017.3756],[-104.2387,22.4121,1999.9448],[-104.2336,22.4151,2005.6545],[-104.23,22.4145,1995.3201],[-104.2257,22.4193,1928.0283],[-104.2165,22.4211,1877.8727],[-104.215,22.4228,1841.6411],[-104.2079,22.4222,1808.7225],[-104.2016,22.4163,1633.6387],[-104.1992,22.4073,1514.7966],[-104.1952,22.4041,1488.03],[-104.193,22.3991,1487.3027],[-104.1902,22.3991,1445.2283],[-104.1777,22.3896,1340.8235],[-104.1674,22.3874,1274.3152],[-104.1646,22.3919,1400.0131],[-104.1664,22.395,1427.5977],[-104.1656,22.3977,1504.1765],[-104.1683,22.4049,1609.1801],[-104.1737,22.4083,1681.2703],[-104.1719,22.4101,1727.5938],[-104.1744,22.4208,1875.5315],[-104.1774,22.423,1884.9874],[-104.1789,22.4274,1963.1201],[-104.1759,22.4274,2071.2839],[-104.1764,22.4289,2009.729],[-104.1738,22.4295,2065.394],[-104.1761,22.4317,2097.0051],[-104.174,22.4321,2145.3254],[-104.1747,22.4337,2137.5793],[-104.1736,22.4377,2054.6719],[-104.1717,22.4381,2055.5667],[-104.1723,22.4404,2046.1918],[-104.17,22.4409,2021.1927],[-104.1675,22.4452,1985.26],[-104.1751,22.4425,1980.2009],[-104.1751,22.4468,2049.3521],[-104.1796,22.4501,2084.5562],[-104.1815,22.448,2091.0276],[-104.1849,22.4484,2156.4297],[-104.1901,22.4461,2168.479],[-104.1951,22.4476,2168.3562],[-104.1999,22.4563,2151.3745],[-104.1982,22.4563,2130.2705],[-104.1979,22.4606,2162.5327],[-104.1957,22.4622,2149.6646],[-104.185,22.4646,2090.6479],[-104.1876,22.4682,2113.6614],[-104.1857,22.4714,2118.3228],[-104.19,22.4683,2143.436],[-104.1883,22.4701,2154.7458],[-104.1908,22.4704,2182.8086],[-104.1932,22.4754,2110.9263],[-104.1952,22.4729,2201.6401],[-104.1973,22.4771,2109.8726],[-104.2004,22.473,2208.5352],[-104.2049,22.4719,2210.7805],[-104.1989,22.4805,1982.9893],[-104.2012,22.483,2153.1455],[-104.2113,22.4814,2168.7317],[-104.2148,22.4842,2248.5718],[-104.2088,22.4834,2218.6675],[-104.2075,22.4855,2224.5767],[-104.2017,22.487,2157.2612],[-104.2023,22.4887,2119.6597],[-104.199,22.4949,1990.299],[-104.1937,22.4998,1768.1191],[-104.1951,22.5037,1738.1371],[-104.1927,22.5038,1674.0308],[-104.1902,22.5076,1631.2268],[-104.1824,22.5077,1456.6945],[-104.1781,22.5053,1418.3043],[-104.1748,22.5075,1601.6494],[-104.1706,22.5072,1727.7963],[-104.1669,22.5123,1908.0974],[-104.1632,22.5144,1886.3596],[-104.1584,22.5093,1888.8573],[-104.1569,22.5101,1879.3232],[-104.1566,22.5152,1858.356],[-104.152,22.5147,1823.5052],[-104.1504,22.5163,1833.9557],[-104.1498,22.5097,1856.7393],[-104.1431,22.5047,1773.0527],[-104.1246,22.5025,1500.2461],[-104.1213,22.4967,1423.1086],[-104.1135,22.4966,1345.7465],[-104.1152,22.4996,1369.0901],[-104.113,22.5039,1298.3453],[-104.1115,22.5035,1271.8564],[-104.1133,22.5071,1395.7051],[-104.1126,22.5092,1397.8428],[-104.1208,22.5156,1500.8853],[-104.1208,22.517,1500.8853],[-104.115,22.5179,1447.2581],[-104.11,22.5228,1357.7158],[-104.1066,22.5233,1341.8788],[-104.1048,22.53,1261.2667],[-104.1027,22.5314,1247.7208],[-104.0819,22.5336,1091.7855],[-104.0777,22.5323,1081.1849],[-104.0688,22.522,997.988],[-104.0742,22.5157,972.0279],[-104.0742,22.5133,966.0042],[-104.0694,22.509,925.0788],[-104.0717,22.503,1021.4008],[-104.0566,22.4928,918.4927],[-104.0545,22.4884,897.7926],[-104.0557,22.4835,951.9141],[-104.0519,22.4732,893.2946],[-104.0516,22.4667,873.8809],[-104.0575,22.4558,915.8678],[-104.0622,22.4513,948.668],[-104.0577,22.4476,863.7157],[-104.0586,22.4435,882.9285],[-104.0636,22.4413,976.5753],[-104.0616,22.4258,852.7844],[-104.0632,22.425,882.1498],[-104.0665,22.4269,830.2169],[-104.0713,22.4222,886.6838],[-104.0728,22.4203,855.2993],[-104.0735,22.4132,909.9494],[-104.0768,22.4072,862.882],[-104.0762,22.3988,824.7825],[-104.081,22.3898,821.3151],[-104.0754,22.3831,822.7307],[-104.0788,22.3769,864.7249],[-104.0844,22.3745,822.8278],[-104.088,22.3746,884.5017],[-104.0886,22.3789,824.889],[-104.0949,22.3763,797.3665],[-104.0973,22.3708,836.465],[-104.0956,22.3658,824.6807],[-104.0973,22.3578,782.8945],[-104.0942,22.355,852.2936],[-104.0837,22.3578,929.9005],[-104.0753,22.3644,973.9539],[-104.0716,22.3618,1036.2611],[-104.0675,22.3614,1003.6223],[-104.0667,22.3641,1056.6471],[-104.0646,22.3633,1045.1597],[-104.0568,22.3721,1149.6082],[-104.0531,22.3718,1119.9495],[-104.0488,22.3764,1165.8567],[-104.0419,22.3758,1239.7665],[-104.0332,22.3708,1253.8313],[-104.0293,22.3711,1292.7039],[-104.0232,22.3645,1356.8695],[-104.0151,22.3648,1511.8398],[-104.015,22.3684,1547.7559],[-104.0121,22.3708,1638.509],[-104.0127,22.3785,1731.8427],[-104.0033,22.3899,2242.6387],[-104.0063,22.4028,2030.4001],[-104.0059,22.4087,1997.8328],[-104.0033,22.4103,1969.5626],[-103.9928,22.4105,1935.6522],[-103.9864,22.4148,1888.2373],[-103.985,22.4231,1898.2322],[-103.9828,22.4237,1904.6713],[-103.9815,22.4261,1832.3392],[-103.979,22.4254,1818.9366],[-103.9765,22.4273,1805.2303],[-103.9765,22.4304,1795.0298],[-103.9747,22.4313,1811.8036],[-103.9765,22.4354,1782.2913],[-103.9756,22.4362,1771.1829],[-103.9674,22.4331,1892.2017],[-103.9606,22.4332,1946.8206],[-103.9603,22.4446,1895.0757],[-103.958,22.4481,1872.3979],[-103.9587,22.4511,1872.9224],[-103.9534,22.4551,1735.6138],[-103.9493,22.4618,1603.2545],[-103.938,22.4628,1546.2125],[-103.938,22.4663,1523.9373],[-103.9368,22.4664,1532.3696],[-103.9385,22.4697,1508.9849],[-103.9334,22.4712,1534.3176],[-103.9346,22.4732,1515.2056],[-103.9382,22.4733,1500.1534],[-103.9378,22.4752,1493.2792],[-103.9347,22.4766,1511.4851],[-103.9315,22.4736,1532.996],[-103.9294,22.4761,1524.8157],[-103.9317,22.4771,1516.2875],[-103.9398,22.4889,1465.9498],[-103.9392,22.4901,1437.6245],[-103.935,22.4881,1439.2407],[-103.9331,22.4891,1437.9535],[-103.9381,22.4954,1417.4816],[-103.9344,22.4999,1404.7424],[-103.9407,22.4994,1441.533],[-103.9417,22.5022,1474.22],[-103.9456,22.5041,1490.9087],[-103.9499,22.5029,1431.5983],[-103.9511,22.5053,1429.9465],[-103.95,22.5089,1441.0605],[-103.9524,22.5085,1425.385],[-103.9535,22.5055,1424.489],[-103.9564,22.5046,1460.6486],[-103.9583,22.5077,1393.8702],[-103.9618,22.5091,1415.8434],[-103.9634,22.508,1390.5469],[-103.9631,22.515,1353.5546],[-103.9662,22.5172,1427.6384],[-103.9743,22.5162,1399.266],[-103.9752,22.5135,1285.354],[-103.9779,22.5168,1263.7506],[-103.9806,22.5151,1281.9127],[-103.9803,22.519,1385.0983],[-103.9848,22.5191,1239.5269],[-103.9882,22.5235,1220.7722],[-103.9913,22.5233,1349.5299],[-103.9872,22.5288,1232.3495],[-103.9904,22.5277,1209.5652],[-103.9938,22.5299,1151.5568],[-103.9998,22.5308,1151.2296],[-104.0028,22.5353,1125.1375],[-104.0056,22.5366,1118.9678],[-104.0031,22.5413,1154.8855],[-103.9989,22.5436,1202.5552],[-103.9857,22.5427,1475.4338],[-103.9801,22.5406,1513.548],[-103.973,22.5431,1532.6697],[-103.9723,22.5451,1448.1292],[-103.9822,22.5495,1394.9154],[-103.9839,22.5541,1370.6041],[-103.9853,22.5534,1360.9185],[-103.9869,22.5559,1353.9866],[-103.9907,22.557,1275.3877],[-103.9936,22.561,1216.5728],[-103.9939,22.5645,1194.9558],[-103.9994,22.5643,1187.7416],[-104.0008,22.5668,1159.8466],[-103.9902,22.573,1299.71],[-103.99,22.5825,1445.3784],[-103.9833,22.5855,1502.4142],[-103.9862,22.5909,1344.4362],[-103.9889,22.5925,1335.2473],[-103.9964,22.5908,1225.6411],[-104.0062,22.5955,1117.6543],[-104.0181,22.597,1079.9755],[-104.0234,22.6035,1052.2379],[-104.0241,22.6093,1032.3596],[-104.027,22.6132,1023.3587],[-104.0249,22.6172,1017.1527],[-104.0266,22.6165,1026.6348],[-104.0259,22.6242,1013.5925],[-104.0307,22.628,998.4668],[-104.0333,22.6341,1023.9669],[-104.0277,22.6395,1033.4105],[-104.0275,22.6484,1054.114],[-104.0248,22.653,1078.5659],[-104.0252,22.652,1083.2203],[-104.0195,22.6526,1158.8047],[-104.0155,22.6689,1218.7478],[-104.0261,22.6743,1177.9932],[-104.0308,22.6791,1148.9747],[-104.0328,22.6763,1148.2798],[-104.0337,22.6707,1123.9489],[-104.0433,22.6719,1102.1938],[-104.0469,22.6771,1039.337],[-104.0548,22.6784,1021.3927],[-104.0469,22.6818,1027.9384],[-104.0466,22.6842,1039.516],[-104.049,22.6871,1031.2648],[-104.0527,22.6887,1023.0675],[-104.0595,22.6875,1023.6874],[-104.0664,22.6908,1050.0139],[-104.0692,22.6901,1036.073],[-104.073,22.6932,1050.0077],[-104.0736,22.697,1070.568],[-104.0721,22.7014,1039.1722],[-104.069,22.7012,1050.4619],[-104.0626,22.6927,1042.5776],[-104.0592,22.6921,1045.1582],[-104.058,22.6967,1039.4641],[-104.0608,22.6991,1048.7098],[-104.0642,22.707,1049.281],[-104.0561,22.709,1057.5802],[-104.0511,22.7078,1051.645],[-104.0477,22.7122,1050.4391],[-104.0555,22.7201,1093.3242],[-104.0559,22.724,1068.5654],[-104.0466,22.7286,1074.9371],[-104.0408,22.7281,1081.2496],[-104.037,22.7296,1083.6061],[-104.036,22.734,1099.5928],[-104.0277,22.739,1129.5012],[-104.0278,22.7417,1137.7744],[-104.0165,22.7449,1186.1311],[-104.013,22.7476,1177.1681],[-104.0095,22.7474,1281.9775],[-104.0078,22.7443,1197.965],[-104.003,22.7469,1233.3264],[-103.9919,22.748,1341.8798],[-103.9889,22.7465,1318.4224],[-103.9904,22.7431,1332.7207],[-103.9891,22.7418,1380.5125],[-103.9786,22.7467,1412.8031],[-103.9743,22.747,1593.5663],[-103.9751,22.7449,1576.8209],[-103.972,22.7416,1535.7214],[-103.9706,22.7457,1615.4783],[-103.968,22.7469,1572.7437],[-103.9615,22.7471,1624.8873],[-103.9586,22.7453,1648.7952],[-103.951,22.7473,1687.3774],[-103.9467,22.7457,1670.2012],[-103.9404,22.7502,1664.5706],[-103.9314,22.7452,1728.2223],[-103.9235,22.7485,1713.8195],[-103.91,22.7501,1736.4675],[-103.9025,22.7384,1847.9359],[-103.9016,22.7349,1856.634],[-103.9034,22.7309,1642.4877],[-103.8983,22.7283,1655.6515],[-103.8911,22.7352,1647.3577],[-103.8814,22.7345,1712.1274],[-103.8751,22.7372,1768.606],[-103.8737,22.7352,1763.1245],[-103.8703,22.7355,1766.425],[-103.8678,22.7324,1787.1426],[-103.8655,22.7354,1806.1744],[-103.858,22.7333,1828.0216],[-103.8546,22.7297,1822.7643],[-103.8487,22.7316,1833.9736],[-103.8385,22.7318,1860.8827],[-103.8362,22.728,1861.6025],[-103.8327,22.7336,1875.5668],[-103.8299,22.733,1881.9554],[-103.8295,22.7309,1874.4686],[-103.8266,22.7349,1911.8662],[-103.8216,22.734,1927.9808],[-103.8192,22.7283,1918.4907],[-103.8189,22.7302,1905.0125],[-103.8168,22.7285,1932.71],[-103.8056,22.7316,1956.5354],[-103.805,22.73,1948.6232],[-103.8009,22.7315,1967.866],[-103.7999,22.73,1975.8633],[-103.7953,22.7304,1994.7354],[-103.7939,22.729,1994.7354],[-103.7911,22.7307,2023.9868],[-103.7863,22.73,2051.1917],[-103.7845,22.7316,2046.5521],[-103.7814,22.7298,2081.1245],[-103.7747,22.7339,2130.2026],[-103.7711,22.7324,2102.6787],[-103.7692,22.7273,2176.1294],[-103.7691,22.7204,2205.9878],[-103.7548,22.7195,2336.6968],[-103.7557,22.7152,2297.5767],[-103.752,22.7116,2249.6445],[-103.7536,22.7083,2253.8447],[-103.7515,22.7036,2229.7549],[-103.7534,22.6985,2188.3369],[-103.7513,22.695,2180.2117],[-103.7562,22.6901,2163.4941],[-103.7632,22.677,2094.8677],[-103.7619,22.6755,2080.6541],[-103.7637,22.6721,2078.6267],[-103.7616,22.6684,2061.9834],[-103.7636,22.6627,2133.5986],[-103.7599,22.6608,2127.5425],[-103.7587,22.6584,2147.7461],[-103.7616,22.6505,2103.678],[-103.7666,22.6493,2078.6099],[-103.7685,22.6433,2065.6824],[-103.7652,22.6295,2134.4927],[-103.761,22.6256,2189.4995],[-103.7659,22.6223,2161.0869],[-103.7677,22.6182,2127.2908],[-103.7727,22.6145,2080.2476],[-103.7735,22.6115,2020.7996],[-103.8196,22.5956,1786.6616],[-103.8233,22.5928,1778.8472],[-103.8252,22.588,1777.8574],[-103.8278,22.5884,1773.2382],[-103.8334,22.5858,1763.7004],[-103.8345,22.5834,1762.5895],[-103.8431,22.5791,1744.6273],[-103.8484,22.5793,1740.4659],[-103.8524,22.5776,1733.8728],[-103.8553,22.575,1730.5867],[-103.8554,22.5718,1724.5994],[-103.8573,22.5717,1724.5994],[-103.856,22.5703,1725.6274],[-103.8579,22.5665,1730.4595],[-103.8607,22.5676,1718.0577],[-103.8607,22.5651,1724.2263],[-103.8522,22.5563,1810.0789],[-103.8518,22.5536,1774.1195],[-103.8542,22.5494,1737.338],[-103.8612,22.5479,1734.0118],[-103.8669,22.5447,1696.1583],[-103.8681,22.5424,1699.1586],[-103.8647,22.5394,1762.3469],[-103.8699,22.5396,1730.2036],[-103.8715,22.5382,1721.0278],[-103.8752,22.5216,1634.4991],[-103.8724,22.5184,1648.1647],[-103.8682,22.5178,1717.8013],[-103.8642,22.5135,1699.7444],[-103.866,22.5125,1721.4989],[-103.8636,22.5099,1729.8684],[-103.8652,22.5096,1729.8684],[-103.8649,22.5075,1746.8441],[-103.8632,22.5071,1776.033],[-103.8644,22.5039,1763.7523],[-103.8623,22.5019,1756.444],[-103.864,22.4914,1817.7483],[-103.8679,22.482,1834.3195],[-103.8678,22.4784,1832.1875],[-103.8711,22.4725,1798.1486],[-103.8761,22.472,1765.0742],[-103.8812,22.4747,1742.0387],[-103.8821,22.4772,1737.6721],[-103.8854,22.4735,1806.5729],[-103.8848,22.469,1828.3568],[-103.8818,22.4688,1750.0115],[-103.8829,22.4546,1797.8344],[-103.8784,22.4514,1788.355],[-103.8761,22.4412,1808.7765],[-103.8807,22.4399,1869.5198],[-103.8902,22.4418,1829.387],[-103.8947,22.4382,1814.1299],[-103.8849,22.4306,1868.0254],[-103.8732,22.4248,1893.9678],[-103.8727,22.4228,1905.0405],[-103.8793,22.4207,1842.6586],[-103.8806,22.4182,1859.6506],[-103.8737,22.4191,1885.2444],[-103.8746,22.417,1874.9005],[-103.873,22.416,1870.6265],[-103.8708,22.4173,1898.9098],[-103.8696,22.4154,1896.2421],[-103.866,22.4152,1898.3491],[-103.8669,22.4094,1960.4014],[-103.8693,22.4013,1936.1848],[-103.8826,22.4016,1873.4598],[-103.8862,22.4002,1868.7877],[-103.8836,22.395,1875.3457],[-103.8835,22.39,1888.8833],[-103.8925,22.388,1917.1614],[-103.8912,22.3836,1937.3132],[-103.8973,22.3816,1856.9568],[-103.8987,22.3796,1837.4736],[-103.8957,22.3641,1858.4055],[-103.8991,22.363,1832.5441],[-103.9043,22.3646,1814.3301],[-103.9079,22.3621,1820.9296],[-103.9118,22.3523,1872.2711],[-103.9213,22.3479,1823.2086],[-103.92,22.3356,1802.7168],[-103.9261,22.3321,1843.973],[-103.9225,22.3272,1825.5889],[-103.9237,22.3239,1853.4136],[-103.9204,22.3223,1903.793],[-103.9225,22.3198,1852.7061],[-103.9197,22.3166,1854.7367],[-103.921,22.3143,1850.3887],[-103.9158,22.3113,1868.1846],[-103.9189,22.3044,1893.9857],[-103.914,22.3009,1893.8755],[-103.9161,22.3001,1887.8263],[-103.916,22.2927,1909.7667],[-103.9134,22.2922,1903.2554],[-103.9149,22.2909,1909.0239],[-103.9143,22.2891,1917.9211],[-103.916,22.2885,1936.0157],[-103.9137,22.2872,1929.1868],[-103.9136,22.2849,1935.8011],[-103.9101,22.2833,1960.573],[-103.9102,22.2811,1953.3976],[-103.9123,22.2817,1944.844],[-103.9121,22.2796,1968.1283],[-103.9142,22.278199999999998,1984.903],[-103.914,22.2722,1992.5442],[-103.9118,22.2705,2001.2847],[-103.9163,22.2667,2004.4385],[-103.9179,22.262,2032.5775],[-103.9146,22.2607,2057.1389],[-103.9102,22.2545,2054.2317],[-103.9077,22.2546,2056.7876],[-103.9017,22.2371,2123.3342],[-103.8924,22.2288,2181.248],[-103.8861,22.2262,2242.5676],[-103.8844,22.2203,2224.5918],[-103.8851,22.2173,2242.6543],[-103.8822,22.2145,2246.4773],[-103.8811,22.2061,2313.5588],[-103.8851,22.1964,2395.7368],[-103.8769,22.1921,2382.6948],[-103.8734,22.1845,2429.0757],[-103.8731,22.1784,2431.8857],[-103.8629,22.1669,2625.4033],[-103.8578,22.1882,2551.2295],[-103.8441,22.2221,2330.1594],[-103.8447,22.2304,2306.052],[-103.8435,22.2312,2302.5139],[-103.8423,22.2503,2253.6201],[-103.8449,22.2626,2324.1609],[-103.8425,22.2664,2355.9209],[-103.8398,22.2663,2365.6782],[-103.8286,22.2866,2390.1675],[-103.8367,22.3043,2408.2158],[-103.8412,22.3226,2335.8772],[-103.846,22.3303,2335.5149],[-103.8454,22.3428,2322.7883],[-103.8415,22.3456,2302.199],[-103.8375,22.352,2304.0547],[-103.8306,22.3552,2275.356],[-103.8279,22.3542,2269.0293],[-103.8262,22.3563,2269.2461],[-103.8268,22.3583,2245.5557],[-103.8175,22.3679,2254.8997],[-103.8175,22.3715,2245.165],[-103.8112,22.3767,2187.6455],[-103.813,22.3839,2305.2383],[-103.8116,22.3926,2287.0286],[-103.8087,22.3987,2268.718],[-103.8125,22.4015,2212.0903],[-103.8133,22.4055,2194.2461],[-103.8101,22.4127,2200.696],[-103.8102,22.4273,2172.9915],[-103.808,22.4313,2151.9146],[-103.8063,22.4418,2131.7998],[-103.8028,22.4451,2146.3582],[-103.8015,22.4499,2156.8105],[-103.7992,22.4522,2163.2854],[-103.7956,22.465,2144.6125],[-103.7889,22.4739,2141.2373],[-103.7842,22.4868,2140.0911],[-103.7837,22.4958,2137.197],[-103.785,22.4992,2123.313],[-103.7836,22.5098,2105.0464],[-103.7851,22.509,2105.0464],[-103.7857,22.5105,2108.7893],[-103.7831,22.5111,2106.885],[-103.7774,22.5249,2120.8096],[-103.7739,22.5464,2048.7991],[-103.7691,22.5558,2009.1965],[-103.76,22.5556,1963.6971],[-103.7592,22.5517,1956.7391],[-103.7553,22.5542,1980.561],[-103.7531,22.5579,2025.7496],[-103.7445,22.5585,2075.0334],[-103.7385,22.572,2110.3191],[-103.7258,22.5739,1854.4535],[-103.7115,22.5645,1789.3799],[-103.7008,22.563,1675.8828],[-103.694,22.5586,1596.6011],[-103.6869,22.5584,1616.8828],[-103.6818,22.5548,1707.3065],[-103.6742,22.5613,1749.5416],[-103.6726,22.5611,1749.5416],[-103.661,22.5471,1571.04],[-103.6596,22.5503,1567.5537],[-103.6559,22.5516,1578.98],[-103.6545,22.5547,1602.2616],[-103.6516,22.5565,1605.123],[-103.6462,22.5548,1603.2106],[-103.6362,22.56,1609.554],[-103.6305,22.5593,1618.0691],[-103.6282,22.5619,1626.0305],[-103.6224,22.5636,1658.8491],[-103.6185,22.5637,1652.7253],[-103.6175,22.5604,1685.9945],[-103.6118,22.5584,1665.7827],[-103.6097,22.5597,1675.1775],[-103.6028,22.5568,1828.2179],[-103.6021,22.5519,1846.4894],[-103.6045,22.5515,1859.1682],[-103.606,22.5457,1898.9539],[-103.603,22.5435,1978.7769],[-103.6048,22.5384,2020.3959],[-103.6024,22.5357,2018.8064],[-103.5993,22.5264,2034.3083],[-103.5853,22.5253,1996.3893],[-103.5837,22.522,1960.2285],[-103.5842,22.5188,1942.0604],[-103.5885,22.5144,1906.8569],[-103.589,22.5081,1868.0354],[-103.5946,22.5054,1852.8793],[-103.589,22.5016,1890.6306],[-103.5863,22.502,1879.2374],[-103.5834,22.4987,1917.649],[-103.5802,22.4987,1906.3558],[-103.5793,22.4962,1987.7617],[-103.5804,22.4955,1925.7469],[-103.5791,22.491,1984.8441],[-103.5825,22.4888,1965.4943],[-103.5799,22.4805,1999.1357],[-103.5806,22.4774,2000.5427],[-103.5736,22.4731,2026.0262],[-103.5708,22.4692,2105.2834],[-103.5721,22.4667,2079.9121],[-103.5739,22.4666,2117.0156],[-103.5726,22.4645,2097.6821],[-103.5739,22.4611,2115.0371],[-103.5699,22.4556,2159.208],[-103.5707,22.4531,2180.1562],[-103.5689,22.4463,2218.123],[-103.5722,22.4411,2261.1689],[-103.5725,22.4375,2218.1243],[-103.5677,22.4378,2191.3989],[-103.565,22.4351,2183.3333],[-103.5641,22.4308,2177.5801],[-103.5592,22.4284,2151.8721],[-103.5607,22.4228,2186.6494],[-103.571,22.4182,2223.4941],[-103.5784,22.4105,2305.6079],[-103.5855,22.4094,2347.8689],[-103.5896,22.407,2392.3425],[-103.594,22.4072,2393.1462],[-103.5944,22.3946,2437.2454],[-103.5928,22.3893,2445.4609],[-103.5959,22.3832,2454.0171],[-103.5976,22.3745,2458.1326],[-103.6003,22.3703,2457.1753],[-103.6028,22.3609,2442.5569],[-103.6098,22.3615,2453.7231],[-103.6107,22.3598,2458.0461],[-103.6095,22.3527,2457.0032],[-103.6026,22.3463,2436.4299],[-103.6048,22.3401,2422.1367],[-103.6067,22.3383,2444.3831],[-103.612,22.338,2451.3867],[-103.6214,22.340699999999998,2455.2927],[-103.6274,22.3404,2359.9946],[-103.635,22.3435,2314.4087],[-103.6421,22.3409,2052.1812],[-103.6383,22.3372,2125.0972],[-103.6382,22.3352,2180.1096],[-103.645,22.3178,2455.7437],[-103.6447,22.315,2470.7749],[-103.6378,22.2952,2429.5737],[-103.6285,22.294,2419.7527],[-103.6256,22.2881,2387.3591],[-103.6235,22.2875,2373.0815],[-103.6192,22.2818,2355.5488],[-103.6107,22.279,2354.7966],[-103.6077,22.2797,2346.8491],[-103.6009,22.278199999999998,2318.3311],[-103.5949,22.2731,2300.876],[-103.6028,22.27,2297.9341],[-103.6174,22.2511,2290.6548],[-103.6309,22.2389,2311.4583],[-103.636,22.2283,2281.656],[-103.6364,22.221,2285.2229],[-103.6393,22.2182,2221.282],[-103.6411,22.2098,2090.5117],[-103.6477,22.2031,1862.4027],[-103.6472,22.2016,1814.9419],[-103.6491,22.2021,1862.4027],[-103.649,22.1961,1787.0195],[-103.6525,22.1872,1707.9186],[-103.6561,22.1861,1678.7693],[-103.6558,22.1848,1666.163],[-103.6578,22.1838,1765.2889],[-103.6566,22.1813,1656.8994],[-103.6589,22.1752,1606.5204],[-103.6545,22.1719,1783.4143],[-103.661,22.167,1666.4487],[-103.6761,22.1488,1550.8141],[-103.6775,22.1413,1437.4875],[-103.682,22.1352,1388.9897],[-103.6881,22.1332,1206.4696],[-103.6903,22.1301,1144.8514],[-103.6908,22.1283,1118.9379],[-103.6873,22.1255,1112.3751],[-103.6802,22.1237,1119.3457],[-103.6774,22.1187,1150.2095],[-103.6783,22.1154,1171.3643],[-103.6859,22.1141,1161.9625],[-103.6861,22.1114,1162.6436],[-103.6838,22.1092,1147.9895],[-103.6701,22.1085,1163.8776],[-103.6623,22.103,1180.0961],[-103.6539,22.104,1171.2821],[-103.6513,22.1009,1201.2544],[-103.648,22.1005,1208.7449],[-103.6361,22.1064,1221.5042],[-103.6285,22.1063,1249.0233],[-103.6262,22.1026,1277.5647],[-103.6204,22.0985,1269.5322],[-103.6109,22.0971,1237.8954],[-103.6047,22.0979,1222.3719],[-103.6048,22.1016,1257.469],[-103.6011,22.1034,1278.2897],[-103.594,22.1116,1245.5969],[-103.5853,22.1094,1265.5681],[-103.5811,22.1049,1258.2997],[-103.5774,22.12,1324.8142],[-103.5797,22.1226,1278.3135],[-103.58,22.1268,1294.9673],[-103.5761,22.1309,1293.304],[-103.5697,22.1319,1296.2656],[-103.5669,22.1361,1278.5997],[-103.5592,22.1366,1281.772],[-103.5548,22.1343,1288.2579],[-103.5502,22.1357,1310.8979],[-103.5507,22.1306,1327.277],[-103.5453,22.1269,1328.803],[-103.5451,22.1227,1377.1423],[-103.5427,22.1206,1309.1836],[-103.534,22.1211,1314.444],[-103.5306,22.1268,1316.0422],[-103.5146,22.1291,1333.3451],[-103.5138,22.1275,1353.5281],[-103.5176,22.1217,1352.7069],[-103.5179,22.1172,1430.0984],[-103.5159,22.1099,1386.3306],[-103.5118,22.1075,1376.7041],[-103.507,22.1088,1570.8816],[-103.5004,22.1054,1467.8901],[-103.4968,22.1068,1483.9224],[-103.4956,22.1105,1389.6853],[-103.4861,22.1065,1418.1367],[-103.4849,22.1078,1423.2358],[-103.4861,22.1106,1381.7777],[-103.4829,22.1113,1389.1526],[-103.4793,22.1148,1396.2915],[-103.4733,22.1112,1423.0786],[-103.4732,22.1055,1387.1106],[-103.4665,22.1073,1439.5325],[-103.4592,22.1059,1443.2543],[-103.4593,22.1087,1412.9359],[-103.4617,22.1111,1416.9603],[-103.4549,22.1153,1439.7791],[-103.4504,22.1142,1408.9834],[-103.4467,22.1153,1417.1912],[-103.4456,22.1135,1450.2671],[-103.4387,22.1183,1485.4286],[-103.4394,22.1219,1445.6173],[-103.4373,22.1255,1532.877],[-103.4383,22.1289,1532.9657],[-103.4363,22.1269,1532.877],[-103.4346,22.1329,1525.4257],[-103.4341,22.1308,1520.3293],[-103.4336,22.1328,1525.4257],[-103.4321,22.1316,1536.9694],[-103.4322,22.1345,1567.2397],[-103.4305,22.1346,1594.8521],[-103.4282,22.1393,1562.7368],[-103.4259,22.1394,1552.7562],[-103.4288,22.1483,1602.6555],[-103.427,22.1545,1628.5667],[-103.4292,22.1622,1687.4441],[-103.4251,22.1703,1869.2902],[-103.4253,22.1765,1885.3744],[-103.4197,22.1775,1893.1406],[-103.4253,22.1826,1877.9465],[-103.4305,22.1825,1881.4735],[-103.4313,22.1873,1895.4365],[-103.4341,22.1908,1767.1455],[-103.4239,22.1892,1863.7535],[-103.423,22.1913,1836.0331],[-103.4217,22.1895,1890.2175],[-103.4172,22.1905,1825.2935],[-103.409,22.2154,1931.5845],[-103.3857,22.2125,1936.71],[-103.3844,22.2137,1936.71],[-103.3852,22.2158,1940.7849],[-103.3802,22.219,1949.4281],[-103.384,22.222,1956.1903],[-103.383,22.227,1967.8887],[-103.3697,22.2313,1988.6049],[-103.3618,22.2392,2029.2463],[-103.3553,22.2409,2054.0271],[-103.3497,22.2392,2111.2717],[-103.3377,22.2452,2158.5759],[-103.3315,22.241,2171.1465],[-103.3283,22.2401,2173.4897],[-103.3265,22.2417,2177.7485],[-103.3119,22.2333,2184.7131],[-103.2951,22.2533,2246.0129],[-103.2971,22.2572,2222.3838],[-103.3139,22.2587,2149.3472],[-103.3053,22.2657,2194.4343],[-103.3049,22.2701,2196.7368],[-103.3068,22.2732,2196.6836],[-103.306,22.2763,2201.9707],[-103.3078,22.2817,2207.9438],[-103.3004,22.2962,2241.501],[-103.2978,22.2983,2253.4277],[-103.3069,22.3063,2254.3442],[-103.3277,22.3074,2188.7458],[-103.3384,22.2875,2145.1614],[-103.3557,22.2798,2056.8064],[-103.3528,22.2857,2066.5281],[-103.3501,22.3075,2155.3047],[-103.3638,22.3145,2086.4807],[-103.3596,22.3206,2128.1174],[-103.3494,22.3259,2120.8713],[-103.3472,22.331,2144.7534],[-103.343,22.3351,2162.9258],[-103.3626,22.3364,2187.7737],[-103.3666,22.3501,2054.8809],[-103.3647,22.3695,2037.1686],[-103.3599,22.3713,2046.0392],[-103.3531,22.3694,2056.4377],[-103.3474,22.3755,2073.8213],[-103.3481,22.3795,2089.5249],[-103.3396,22.3855,2114.8647],[-103.3293,22.3845,2142.5894],[-103.3255,22.389,2178.604],[-103.3234,22.3891,2160.6421],[-103.3146,22.4049,2220.7271],[-103.3095,22.3983,2271.4521],[-103.3092,22.392,2239.3835],[-103.3053,22.3904,2189.6423],[-103.3005,22.393,2188.2761],[-103.2965,22.3959,2206.9792],[-103.2954,22.3987,2217.0061],[-103.2931,22.3987,2244.1025],[-103.2856,22.4056,2247.7312],[-103.2858,22.4128,2263.3452],[-103.2845,22.4144,2259.6274],[-103.2806,22.4117,2354.7739],[-103.2747,22.4114,2428.2397],[-103.2749,22.4096,2386.2136],[-103.2662,22.4119,2313.8657],[-103.2635,22.4106,2311.7336],[-103.2602,22.4119,2237.2637],[-103.2584,22.4064,2148.8157],[-103.2551,22.4048,2080.8223],[-103.2522,22.3989,2008.1512],[-103.2445,22.3994,1953.9601],[-103.235,22.3971,1894.1741],[-103.2321,22.3934,1904.1487],[-103.2261,22.4045,1972.0615],[-103.2209,22.4096,2002.1263],[-103.2134,22.4101,1937.5411],[-103.2039,22.4041,1898.03],[-103.2053,22.4005,1907.9183],[-103.2032,22.3988,1895.0175],[-103.1988,22.3806,1853.4838],[-103.1894,22.3902,1870.2148],[-103.1825,22.3888,1861.4105],[-103.1813,22.3904,1866.6608],[-103.1779,22.3867,1905.4873],[-103.1686,22.385,1905.9722],[-103.1705,22.3789,1893.9893],[-103.1729,22.3796,1890.5503],[-103.174,22.3778,1891.6871],[-103.1664,22.3706,1911.6545],[-103.1704,22.3618,1928.3696],[-103.1686,22.3546,1916.0311],[-103.1728,22.3524,1914.0613],[-103.1729,22.3502,1906.5281],[-103.1776,22.346,1903.1023],[-103.1789,22.3426,1883.7769],[-103.1827,22.3429,1871.7461],[-103.1848,22.341,1895.2548],[-103.1849,22.3386,1864.6509],[-103.1941,22.332,1851.8873],[-103.2042,22.3344,1830.0964],[-103.2082,22.3331,1820.9548],[-103.2101,22.3283,1820.1968],[-103.2095,22.3202,1807.2808],[-103.2127,22.3191,1819.9191],[-103.2096,22.3146,1795.054],[-103.213,22.3069,1783.8376],[-103.215,22.3058,1779.1509],[-103.2151,22.3016,1777.3177],[-103.2174,22.3018,1774.3209],[-103.2166,22.2993,1772.9785],[-103.2204,22.2964,1792.0015],[-103.2208,22.2924,1769.375],[-103.2184,22.2889,1765.6632],[-103.2224,22.2826,1767.2173],[-103.2144,22.2775,1797.1791],[-103.2037,22.2813,1865.8823],[-103.2019,22.2803,1886.4825],[-103.1955,22.2905,1885.3879],[-103.1963,22.2925,1885.1619],[-103.1948,22.2924,1885.1619],[-103.1906,22.2985,1892.5078],[-103.1651,22.2948,1849.861],[-103.1647,22.2971,1845.3462],[-103.1598,22.296,1819.2727],[-103.1547,22.2984,1831.5688],[-103.1525,22.296,1831.0411],[-103.1401,22.2937,1896.7405],[-103.1315,22.2952,1912.7375],[-103.126,22.2932,1922.2858],[-103.1171,22.2956,1987.0573],[-103.101,22.294,2022.9849],[-103.099,22.2923,2039.3966],[-103.0998,22.2886,2181.0076],[-103.0981,22.2863,2174.5483],[-103.0911,22.2859,2131.792],[-103.0876,22.2824,2101.283],[-103.0872,22.2784,2086.1799],[-103.083,22.2771,2073.7808],[-103.0838,22.2634,2051.1331],[-103.0818,22.2633,2040.7614],[-103.0783,22.2571,2030.6139],[-103.0747,22.2576,2034.2826],[-103.0739,22.2549,2037.3135],[-103.0683,22.2551,2052.9165],[-103.0624,22.2522,2115.7686],[-103.0629,22.2493,2102.1807],[-103.0555,22.2473,2190.3291],[-103.0557,22.2412,2194.3647],[-103.0621,22.2283,2202.9209],[-103.0578,22.2283,2193.5637],[-103.0597,22.2242,2149.989],[-103.0523,22.2207,2137.8972],[-103.0548,22.2138,2114.6614],[-103.0598,22.2172,2144.249],[-103.0696,22.2112,2222.311],[-103.0719,22.212,2244.0188],[-103.0728,22.2104,2246.3525],[-103.071,22.2035,2226.4331],[-103.076,22.2023,2266.0076],[-103.0882,22.2044,2044.9248],[-103.0921,22.1984,1986.8885],[-103.1061,22.1914,2056.6829],[-103.1014,22.1786,2253.824],[-103.1039,22.172,2255.3115],[-103.1028,22.1711,2255.3115],[-103.1059,22.1682,2259.6802],[-103.1049,22.1575,2193.2336],[-103.1087,22.1534,2172.7996],[-103.1065,22.1518,2154.5139],[-103.1025,22.1536,2202.9258],[-103.1088,22.1443,2171.4199],[-103.0959,22.1455,2183.7629],[-103.0907,22.1435,2097.3484],[-103.0901,22.14,2055.5225],[-103.0842,22.1373,2057.3484],[-103.0788,22.1371,2040.0582],[-103.0759,22.1332,2040.1702],[-103.0816,22.1301,2146.5491],[-103.0765,22.1278,2047.1206],[-103.077,22.1255,2055.0017],[-103.0802,22.1245,2088.4468],[-103.0817,22.1203,2062.689],[-103.0877,22.1178,2107.7114],[-103.0845,22.114,2152.9478],[-103.0862,22.1122,2131.7332],[-103.0867,22.1149,2100.0918],[-103.0895,22.1152,2086.9856],[-103.0904,22.1139,2111.6594],[-103.0883,22.1129,2100.4941],[-103.0924,22.1099,2197.5215],[-103.0961,22.1114,2123.2817],[-103.101,22.1078,2178.2173],[-103.1017,22.1018,2234.5029],[-103.1167,22.1024,2244.3831],[-103.1256,22.1048,2235.9756],[-103.135,22.0976,2260.9258],[-103.1351,22.0905,2312.0352],[-103.1386,22.0913,2296.4048],[-103.1434,22.0872,2329.0081],[-103.1528,22.0876,2530.8188],[-103.1522,22.0826,2480.3999],[-103.1543,22.0722,2595.5273],[-103.1444,22.0679,2488.0415],[-103.1079,22.0634,2204.3401],[-103.1062,22.047,2273.6851],[-103.1085,22.0392,2252.4917],[-103.1141,22.0391,2189.623],[-103.1091,22.029,2150.2864],[-103.1102,22.0275,2141.3713],[-103.1089,22.0258,2134.3291],[-103.1116,22.0211,2129.6912],[-103.11,22.0174,2118.231],[-103.1112,22.0146,2098.9019],[-103.1171,22.0129,2065.1824],[-103.1209,22.0152,2057.8333],[-103.1328,22.003,2023.4237],[-103.138,22.003,1951.5801],[-103.1437,22.008,1943.2584],[-103.146,22.0053,1958.7809],[-103.1601,22.0032,1913.1162],[-103.1596,22.0006,1924.5055],[-103.1657,21.9968,1928.1302],[-103.1681,21.9986,1912.6879],[-103.1725,21.9966,1879.3712],[-103.1801,21.9984,1854.0894],[-103.1817,21.9971,1845.1206],[-103.1907,21.9979,1832.4832],[-103.1967,22.0009,1842.7371],[-103.1977,21.9991,1868.6008],[-103.2017,21.9986,1876.7706],[-103.203,21.996,1916.2668],[-103.2021,21.9934,1926.1687],[-103.194,21.9901,2073.9634],[-103.1982,21.9846,2111.3081],[-103.1955,21.9798,2155.6702],[-103.1921,21.9793,2190.0945],[-103.1918,21.9744,2255.2063],[-103.1926,21.9699,2349.7112],[-103.2041,21.9677,2039.048],[-103.2056,21.9652,1973.089],[-103.2087,21.9651,1977.0214],[-103.2107,21.9681,1941.6412],[-103.2157,21.9668,1870.688],[-103.2215,21.968,1846.7939],[-103.224,21.9718,1822.7003],[-103.24,21.9767,1766.1802],[-103.2451,21.9772,1755.3384],[-103.2468,21.9759,1739.2874],[-103.2414,21.9708,1778.3131],[-103.2448,21.9666,1751.2555],[-103.2528,21.9696,1729.5463],[-103.2571,21.9696,1724.149],[-103.2622,21.9726,1714.9005],[-103.2647,21.9718,1712.001],[-103.2734,21.9791,1730.6644],[-103.276,21.9887,1733.5802],[-103.2786,21.9897,1734.1411],[-103.3092,21.9663,1727.843],[-103.3101,21.9591,1708.9221],[-103.3183,21.9561,1662.3097],[-103.3236,21.9511,1651.5386],[-103.3244,21.9484,1671.0425],[-103.3305,21.9459,1633.9045],[-103.3319,21.943,1618.9979],[-103.3387,21.9423,1655.6282],[-103.3414,21.9404,1681.2437],[-103.3417,21.9388,1681.2437],[-103.3398,21.9382,1703.0144],[-103.341,21.9322,1714.0104],[-103.344,21.9297,1721.4039],[-103.3416,21.921,1775.3717],[-103.3441,21.9135,1791.386],[-103.3551,21.9149,1772.5137],[-103.369,21.9123,1797.5868],[-103.3748,21.9137,1858.1042],[-103.3898,21.9055,1978.4088],[-103.3907,21.904,1980.1208],[-103.3892,21.8987,1969.3588],[-103.3938,21.8982,1944.9583],[-103.3943,21.8967,1939.502],[-103.4051,21.9018,1926.6594],[-103.4084,21.9076,1858.1874],[-103.4139,21.9055,1925.8302],[-103.4128,21.9037,1896.8727],[-103.4141,21.9031,1894.1592],[-103.4139,21.9006,1882.8668],[-103.4163,21.8994,1889.6731],[-103.4162,21.8975,1888.8361],[-103.4217,21.8953,1946.4763],[-103.4207,21.8931,1905.9862],[-103.4225,21.8911,1903.2662],[-103.4258,21.891,1918.8403],[-103.4275,21.8857,1914.6582],[-103.4354,21.8761,1937.7607],[-103.4357,21.8711,1962.6602],[-103.4393,21.8646,2001.5632],[-103.4513,21.8539,2066.3308],[-103.4497,21.8481,2108.7444],[-103.4533,21.8442,2124.1621],[-103.4532,21.8406,2139.9834],[-103.4559,21.8406,2139.019],[-103.4572,21.8385,2147.2344],[-103.4572,21.8365,2154.1975],[-103.4551,21.8354,2164.272],[-103.4554,21.8328,2172.123],[-103.4667,21.84,2135.9895],[-103.4698,21.8393,2133.9231],[-103.4724,21.836,2162.4082],[-103.4751,21.8266,2129.7446],[-103.4729,21.8246,2120.7261],[-103.474,21.8197,2130.6267],[-103.4705,21.8135,2136.8145],[-103.4757,21.8124,2107.6836],[-103.4825,21.8133,2140.7292],[-103.4827,21.8174,2140.0793],[-103.4956,21.8235,2147.9038],[-103.5028,21.8331,2070.8611],[-103.5097,21.8275,2068.8821],[-103.5257,21.8189,2111.2344],[-103.5314,21.8178,2055.8506],[-103.53,21.8117,2075.0745],[-103.5261,21.8097,2075.593],[-103.5261,21.8051,2040.55],[-103.5365,21.8052,1948.415],[-103.5548,21.8009,1874.6697],[-103.5606,21.8011,1858.983],[-103.5619,21.8036,1857.854],[-103.5667,21.8047,1832.7267],[-103.5726,21.8035,1760.2375],[-103.5715,21.8001,1830.8862],[-103.5689,21.7996,1822.9557],[-103.5679,21.7971,1800.8756],[-103.5694,21.7892,1865.1174],[-103.5659,21.7848,1833.5997],[-103.5626,21.7857,1863.6154],[-103.5608,21.7803,1838.4568],[-103.5538,21.7798,1859.3466],[-103.5433,21.7711,1877.9209],[-103.5279,21.7723,1917.353],[-103.526,21.7699,1916.6061],[-103.5273,21.768,1951.1379],[-103.5236,21.7657,1943.5562],[-103.5234,21.761,1939.9512],[-103.5147,21.7492,1974.6741],[-103.5121,21.7483,1981.3112],[-103.5085,21.7397,2016.2075],[-103.5107,21.737,2014.2561],[-103.5094,21.7307,2061.1501],[-103.5108,21.7257,2049.6113],[-103.5101,21.7215,2045.0214],[-103.5078,21.7197,2077.2419],[-103.5098,21.713,2089.3044],[-103.5129,21.7143,2122.4834],[-103.5179,21.7115,2219.7947],[-103.5191,21.7021,2265.9382],[-103.5239,21.6955,2263.5747],[-103.5266,21.687,2255.4487],[-103.5257,21.6786,2305.7939],[-103.5267,21.6756,2264.3306],[-103.5295,21.6724,2260.7271],[-103.5366,21.6689,2231.9592],[-103.5375,21.6663,2251.4839],[-103.5408,21.6653,2267.0161],[-103.547,21.6507,2222.5103],[-103.5522,21.6458,2271.7046],[-103.5517,21.6409,2267.1694],[-103.5555,21.6341,2236.4487],[-103.5556,21.6254,2181.9849],[-103.5538,21.6246,2177.5125],[-103.5506,21.6134,2198.1685],[-103.5504,21.597,2150.8442],[-103.5452,21.5876,2089.1157],[-103.5524,21.5839,2101.4031],[-103.5547,21.5766,2087.739],[-103.5589,21.5764,2088.1338],[-103.5662,21.5816,2070.8933],[-103.5726,21.5819,2066.6282],[-103.5742,21.5849,2063.5532],[-103.58,21.5842,2080.7485],[-103.582,21.5892,2056.2578],[-103.5905,21.5898,2052.1746],[-103.5948,21.5817,2082.8501],[-103.5933,21.5759,2085.8538],[-103.5967,21.5655,2131.4341],[-103.5929,21.5592,2150.856],[-103.6033,21.5585,2124.5674],[-103.6081,21.5565,2104.8892],[-103.6131,21.5581,2079.1396],[-103.619,21.5569,2067.3428],[-103.6216,21.5581,2050.4912],[-103.6213,21.5646,2042.4155],[-103.6246,21.5658,2041.4175],[-103.6249,21.5686,2066.8518],[-103.6298,21.5734,2031.7145],[-103.6399,21.5743,2020.5067],[-103.64,21.5763,2032.2805],[-103.6449,21.5765,2021.7869],[-103.66,21.5648,2106.5022],[-103.6607,21.5605,2191.8113],[-103.6583,21.5559,2207.1714],[-103.6625,21.5564,2206.6882],[-103.6638,21.5581,2196.3726],[-103.6736,21.5549,2188.7363],[-103.6764,21.5553,2143.8997],[-103.6782,21.5578,2111.6653],[-103.6792,21.5559,2093.7581],[-103.6822,21.5565,2103.1077],[-103.6808,21.5578,2128.0088],[-103.6871,21.556,2054.387],[-103.6901,21.5496,2065.9287],[-103.6863,21.535,2205.6992],[-103.6935,21.5325,2049.2256],[-103.6945,21.5289,1992.7449],[-103.6867,21.5247,1995.9685],[-103.6861,21.5212,1993.969],[-103.6842,21.522,1997.4674],[-103.6816,21.5205,2016.928],[-103.6798,21.5112,2027.4287],[-103.6754,21.5108,2078.1406],[-103.6726,21.508,2072.0337],[-103.6726,21.5055,2101.3303],[-103.6849,21.5015,2109.6396],[-103.6918,21.4956,2102.4141],[-103.6943,21.4902,2115.9131],[-103.6922,21.4871,2153.2612],[-103.6932,21.479,2212.0649],[-103.6994,21.4728,2236.9741],[-103.7015,21.4663,2288.0574],[-103.6977,21.467,2313.7771],[-103.6849,21.4636,2280.9707],[-103.6693,21.465699999999998,2228.4604],[-103.6587,21.4637,2218.8572],[-103.6647,21.4549,2132.689],[-103.6633,21.4465,2083.0117],[-103.6608,21.4416,2106.2405],[-103.6503,21.4346,2032.5826],[-103.6492,21.4386,1999.9949],[-103.6389,21.4373,1936.7344],[-103.6342,21.4393,1925.7144],[-103.6305,21.4369,1914.1356],[-103.6304,21.4351,1897.4954],[-103.6265,21.4345,1905.3658],[-103.6262,21.4293,1864.8455],[-103.6234,21.4267,1936.209],[-103.6204,21.4267,1862.9434],[-103.6212,21.4253,1830.9891],[-103.6193,21.424,1842.1234],[-103.6226,21.4239,1830.9891],[-103.6243,21.4203,1836.3523],[-103.6229,21.4131,1834.1997],[-103.6158,21.4117,1803.6523],[-103.6157,21.4077,1779.5649],[-103.6098,21.4072,1804.8535],[-103.6103,21.4053,1783.589],[-103.6003,21.3982,1760.8733],[-103.601,21.3939,1750.4028],[-103.5981,21.3945,1738.5134],[-103.5953,21.3909,1726.2273],[-103.5927,21.3936,1739.3551],[-103.5888,21.3936,1748.8452],[-103.5897,21.3919,1775.5017],[-103.5864,21.3924,1744.8373],[-103.5852,21.4027,1790.8174],[-103.5873,21.4029,1753.4756],[-103.5871,21.4079,1766.4792],[-103.5844,21.4101,1769.297],[-103.5823,21.4176,1808.3065],[-103.5823,21.424,1862.3519],[-103.5805,21.4247,1815.3044],[-103.5815,21.4275,1853.9296],[-103.5784,21.4291,1858.6624],[-103.576,21.4285,1881.8223],[-103.5775,21.4343,1877.8433],[-103.5759,21.4362,1892.9336],[-103.5738,21.436,1886.2825],[-103.5711,21.4397,1936.8357],[-103.5698,21.4384,1933.1874],[-103.5677,21.4393,1947.9257],[-103.5655,21.4382,1950.6544],[-103.5604,21.4302,1974.343],[-103.5584,21.4362,1974.7723],[-103.5546,21.4379,2000.418],[-103.5529,21.4361,2035.29],[-103.5483,21.4405,2053.645],[-103.5439,21.4373,2059.0693],[-103.5387,21.4448,2101.1294],[-103.5386,21.4412,2097.2986],[-103.5371,21.4406,2132.2881],[-103.5374,21.4316,2147.0837],[-103.5338,21.4256,2087.6812],[-103.5336,21.4206,2052.8257],[-103.5218,21.4057,1988.4612],[-103.5218,21.4014,2030.6968],[-103.5094,21.3924,1987.8042],[-103.5082,21.3803,2029.6233],[-103.5039,21.3768,2035.9365],[-103.5131,21.3641,2028.564],[-103.51,21.3549,1997.3064],[-103.518,21.3551,2019.4663],[-103.5194,21.3565,1993.824],[-103.5233,21.352,2022.5876],[-103.525,21.3535,1984.3248],[-103.527,21.3522,1949.1069],[-103.5354,21.3539,1922.9469],[-103.5483,21.3501,1898.519],[-103.5506,21.3509,1908.0544],[-103.5574,21.3481,1841.4149],[-103.5626,21.3527,1756.2559],[-103.5651,21.3505,1735.3036],[-103.5676,21.3522,1692.4139],[-103.5686,21.3376,1743.4153],[-103.5741,21.3327,1714.8298],[-103.5771,21.3327,1692.4232],[-103.5785,21.3302,1721.0447],[-103.5844,21.3354,1687.3462],[-103.584,21.3369,1683.4912],[-103.5866,21.3381,1690.4248],[-103.5887,21.3422,1694.5145],[-103.5933,21.3406,1690.1515],[-103.5927,21.3423,1700.0898],[-103.5956,21.3439,1719.8219],[-103.5981,21.3419,1725.2662],[-103.5995,21.3469,1709.9226],[-103.603,21.3491,1729.9492],[-103.6112,21.3488,1733.9835],[-103.6169,21.3534,1756.234],[-103.6166,21.3475,1766.0465],[-103.6187,21.3445,1761.9897],[-103.6255,21.3434,1791.9141],[-103.629,21.3454,1780.574],[-103.6315,21.3443,1773.3457],[-103.6315,21.3416,1797.7366],[-103.6344,21.3401,1833.9321],[-103.6381,21.3449,1806.0326],[-103.6431,21.3417,1816.4717],[-103.6462,21.3444,1828.175],[-103.6463,21.3424,1824.9817],[-103.6498,21.3418,1885.3337],[-103.6489,21.3374,1845.071],[-103.6551,21.3392,1830.1915],[-103.6581,21.3363,1855.0023],[-103.6636,21.3381,1852.2465],[-103.6717,21.3225,1877.5546],[-103.6743,21.3231,1880.8562],[-103.6744,21.3214,1886.6284],[-103.6774,21.3199,1903.0183],[-103.681,21.3207,1898.2539],[-103.6826,21.3188,1913.4491],[-103.6898,21.3213,1918.494],[-103.6914,21.3201,1934.6201],[-103.6961,21.324,1924.814],[-103.7051,21.3255,1926.5913],[-103.7072,21.3199,1860.3386],[-103.7111,21.3177,1855.8229],[-103.7109,21.3135,1873.5291],[-103.7208,21.308,1759.0569],[-103.7208,21.301,1730.9053],[-103.7196,21.2999,1726.5314],[-103.7221,21.2839,1541.9015],[-103.7199,21.2831,1543.8787],[-103.7203,21.2752,1530.3562],[-103.7174,21.2734,1524.1296],[-103.7162,21.2679,1442.9325],[-103.7136,21.2667,1458.9368],[-103.7126,21.268,1428.8423],[-103.7141,21.27,1460.068],[-103.711,21.272,1566.359],[-103.7108,21.2745,1518.01],[-103.7063,21.2757,1538.7974],[-103.6981,21.2826,1638.0795],[-103.6899,21.2854,1711.6233],[-103.6836,21.2855,1796.869],[-103.6763,21.2834,1880.5823],[-103.6667,21.2905,1955.4617],[-103.6648,21.2902,1903.0781],[-103.6582,21.2804,1791.6642],[-103.6571,21.2821,1770.4102],[-103.6427,21.2845,1755.0959],[-103.634,21.2823,1716.1716],[-103.6395,21.2775,1681.2346],[-103.637,21.276,1697.7004],[-103.6374,21.2691,1676.9406],[-103.6378,21.2669,1663.7776],[-103.64,21.2663,1650.4093],[-103.6417,21.254,1624.603],[-103.6394,21.2517,1665.666],[-103.6397,21.2434,1711.499],[-103.6367,21.2433,1702.5587],[-103.6363,21.2417,1708.7361],[-103.6391,21.2331,1756.2996],[-103.6402,21.2221,1692.8086],[-103.6484,21.2231,1571.3199],[-103.6567,21.222,1566.1257],[-103.6634,21.2242,1546.1025],[-103.664,21.2182,1392.1057],[-103.6673,21.216,1359.0535],[-103.6606,21.2155,1397.0922],[-103.6601,21.2139,1396.0985],[-103.6561,21.2127,1397.1832],[-103.6568,21.2111,1407.0901],[-103.6537,21.2088,1422.2856],[-103.6485,21.207,1482.6619],[-103.6454,21.2031,1532.2402],[-103.6371,21.1997,1634.8491],[-103.6328,21.1934,1723.5803],[-103.6334,21.1913,1721.6294],[-103.6299,21.194,1733.4276],[-103.6248,21.1933,1752.0649],[-103.6186,21.1888,1783.8318],[-103.6161,21.1857,1814.6699],[-103.6182,21.1835,1827.9716],[-103.6114,21.1787,1820.7059],[-103.6129,21.1676,1848.6738],[-103.6118,21.1648,1869.225],[-103.6149,21.1589,1926.9324],[-103.6136,21.1562,1940.6379],[-103.6071,21.1553,1946.5441],[-103.602,21.1517,1929.9642],[-103.6014,21.1479,1955.5126],[-103.5978,21.1436,1876.8994],[-103.5977,21.1422,1876.8994],[-103.5993,21.1417,1937.5364],[-103.597,21.1398,1889.7742],[-103.5968,21.1353,1894.2704],[-103.5917,21.1286,1853.1851],[-103.5877,21.1269,1823.8198],[-103.5833,21.1278,1828.4956],[-103.5837,21.126,1799.5905],[-103.5805,21.1273,1790.1088],[-103.5773,21.1215,1722.0414],[-103.5731,21.1216,1719.858],[-103.569,21.1167,1737.8555],[-103.5669,21.1208,1719.0897],[-103.5652,21.1179,1716.1521],[-103.5647,21.1196,1710.3505],[-103.56,21.1183,1675.6575],[-103.5571,21.1198,1679.7742],[-103.5537,21.1167,1667.1663],[-103.5545,21.1209,1660.9226],[-103.55029999999999,21.125,1640.4342],[-103.5467,21.1269,1637.696],[-103.5411,21.1263,1641.5304],[-103.5298,21.1341,1597.5065],[-103.5331,21.1385,1598.061],[-103.5315,21.142,1531.4094],[-103.5187,21.1417,1289.5183],[-103.511,21.1462,1214.9819],[-103.5095,21.1436,1256.1882],[-103.5102,21.1378,1587.2122],[-103.5073,21.135,1619.0275],[-103.5062,21.129,1654.5505],[-103.5041,21.1277,1696.3367],[-103.4754,21.1373,1265.5544],[-103.4693,21.1434,1041.5687],[-103.4583,21.1419,1067.182],[-103.4498,21.1439,1290.5958],[-103.4452,21.141,1437.8718],[-103.4426,21.143,1460.0308],[-103.4348,21.1421,1318.9943],[-103.4286,21.1467,1397.3784],[-103.428,21.1412,1449.0107],[-103.4257,21.139,1458.2831],[-103.4163,21.1373,1433.0187],[-103.4232,21.1241,1225.6426],[-103.419,21.1196,1287.2036],[-103.4183,21.1152,1214.0234],[-103.4115,21.1115,1160.8669],[-103.4037,21.1027,1059.8193],[-103.4012,21.103,1056.668],[-103.4003,21.0991,1016.1464],[-103.3963,21.0991,969.5745],[-103.396,21.0937,976.8212],[-103.3939,21.0934,954.8173],[-103.393,21.0911,949.158],[-103.3965,21.0901,1035.3613],[-103.3944,21.0871,999.476],[-103.3976,21.085,919.781],[-103.3976,21.083,942.9868],[-103.395,21.0797,970.7892],[-103.3899,21.0783,965.5916],[-103.3879,21.0792,926.7781],[-103.3886,21.0765,1010.9582],[-103.3844,21.0714,899.5844],[-103.3855,21.0674,908.9338],[-103.3806,21.0678,888.1036],[-103.3766,21.0659,900.2067],[-103.3684,21.0567,942.6654],[-103.3685,21.0516,904.4449],[-103.3627,21.0503,943.2495],[-103.3608,21.0513,889.5244],[-103.3531,21.0453,925.2379],[-103.3472,21.0442,907.8497],[-103.344,21.0462,904.0601],[-103.3389,21.0419,981.3841],[-103.3329,21.0442,934.1178],[-103.333,21.0524,991.8833],[-103.3303,21.0545,977.5525],[-103.3234,21.0559,990.1591],[-103.3167,21.0541,940.9983],[-103.3147,21.0559,940.6049],[-103.307,21.0575,948.3969],[-103.3019,21.0546,968.0437],[-103.2966,21.0648,945.0636],[-103.2886,21.0616,960.9338],[-103.2853,21.058,973.8388],[-103.2791,21.0565,997.331],[-103.2777,21.0519,1003.2058],[-103.2757,21.0514,985.2878],[-103.2723,21.054,1006.53],[-103.2695,21.06,988.3838],[-103.2642,21.0611,989.6735],[-103.2615,21.0634,984.5887],[-103.2599,21.0686,1020.1366],[-103.2572,21.0707,994.2357],[-103.2617,21.0746,988.8469],[-103.2584,21.0793,1016.2208]]]]}
,"properties": {"GID_1": "MEX.32_1","GID_0": "MEX","country": "México","province": "Zacatecas","VARNAME_1": "NA","NL_NAME_1": "NA","TYPE_1": "Estado","ENGTYPE_1": "State","CC_1": "NA","HASC_1": "MX.ZA","ISO_1": "MX-ZAC","name": "Zacatecas.province","area_km2": 75459.54,"hist_schema_id": "Elevation0-9000","hist_area_km2": {"850": 1.02,"875": 1.35,"900": 1.2,"925": 2.09,"950": 3.03,"975": 4.4,"1000": 7.32,"1025": 10.15,"1050": 17.55,"1075": 27.11,"1100": 36.54,"1125": 46.3,"1150": 50.42,"1175": 57.14,"1200": 62.68,"1225": 74.0,"1250": 90.28,"1275": 105.69,"1300": 126.2,"1325": 138.68,"1350": 150.3,"1375": 188.49,"1400": 208.59,"1425": 205.86,"1450": 223.61,"1475": 231.02,"1500": 251.84,"1525": 284.96,"1550": 310.81,"1575": 635.79,"1600": 568.17,"1625": 624.55,"1650": 775.57,"1675": 861.44,"1700": 992.48,"1725": 1041.78,"1750": 1073.3,"1775": 1422.46,"1800": 1441.59,"1825": 1806.44,"1850": 1851.24,"1875": 1861.81,"1900": 1903.2,"1925": 1975.71,"1950": 2281.13,"1975": 2751.81,"2000": 3131.23,"2025": 3218.18,"2050": 3483.8,"2075": 3784.4,"2100": 3693.74,"2125": 3500.85,"2150": 3164.15,"2175": 2846.79,"2200": 2621.18,"2225": 2328.39,"2250": 2118.27,"2275": 1884.19,"2300": 1666.1,"2325": 1507.37,"2350": 1364.67,"2375": 1224.31,"2400": 1063.79,"2425": 975.13,"2450": 833.38,"2475": 697.2,"2500": 618.55,"2525": 527.89,"2550": 441.86,"2575": 368.08,"2600": 292.5,"2625": 242.7,"2650": 202.73,"2675": 166.05,"2700": 138.9,"2725": 119.2,"2750": 105.57,"2775": 93.73,"2800": 82.79,"2825": 63.71,"2850": 40.1,"2875": 21.72,"2900": 13.49,"2925": 7.22,"2950": 5.06,"2975": 3.07,"3000": 2.45,"3025": 2.01,"3050": 1.23,"3075": 1.14,"3100": 1.1,"3125": 0.79}}}