{"type": "Feature","bbox": [-111.2841,30.441,-110.7391,31.0842],"geometry": {"type": "MultiPolygon","coordinates": [[[[-110.7583,30.6356,1948.3961],[-110.7802,30.6303,1408.3322],[-110.8081,30.6362,986.1871],[-110.8085,30.6404,950.4006],[-110.8021,30.6588,1227.9142],[-110.7811,30.666,1344.0999],[-110.768,30.6762,1538.9823],[-110.7819,30.6907,1199.6289],[-110.8166,30.6747,911.3461],[-110.8169,30.7182,1003.3007],[-110.7958,30.7208,1402.11],[-110.7903,30.7288,1168.3958],[-110.8287,30.7329,990.6827],[-110.8331,30.7246,1045.1438],[-110.8267,30.7233,992.5658],[-110.8452,30.6989,1165.806],[-111.0092,30.7278,1027.8685],[-111.004,30.7342,1073.8024],[-111.0154,30.7576,964.8706],[-110.9965,30.7867,1416.3411],[-111.0339,30.8333,1290.1412],[-111.0451,30.8427,1162.1665],[-111.0325,30.8633,1414.8347],[-111.0138,30.8812,1328.1512],[-111.0127,30.9029,1179.5959],[-111.0399,30.906,1136.0986],[-111.04,30.9426,1127.7651],[-111.0428,30.9531,1218.3983],[-111.0723,30.9545,1247.45],[-111.059,30.9619,1452.511],[-111.0868,31.0189,1605.8473],[-111.1159,31.011,1097.5364],[-111.1224,31.0131,1022.2464],[-111.1233,31.0108,1018.3083],[-111.1322,31.0108,1017.3523],[-111.1296,31.0184,1015.2664],[-111.1253,31.0194,1024.712],[-111.1226,31.0233,1044.1096],[-111.1268,31.0334,1120.7723],[-111.1158,31.0465,1322.4556],[-111.115,31.0543,1511.2065],[-111.1205,31.0574,1501.3137],[-111.1231,31.0687,1456.0327],[-111.1275,31.0706,1422.2631],[-111.1343,31.0706,1453.2578],[-111.1385,31.0689,1454.9377],[-111.1399,31.0669,1386.7225],[-111.1376,31.0609,1324.6377],[-111.1582,31.0594,1088.9641],[-111.1734,31.0842,1224.465],[-111.1774,31.0829,1195.1796],[-111.1738,31.0747,1211.3787],[-111.1888,31.0706,1118.7954],[-111.2379,31.0494,1116.1873],[-111.2448,30.9553,1010.4429],[-111.2035,30.9714,929.3519],[-111.107,30.918,943.106],[-111.113,30.9131,930.5702],[-111.0983,30.9033,978.6035],[-111.098,30.9016,973.1999],[-111.1054,30.8952,920.6147],[-111.1099,30.8679,861.9171],[-111.1297,30.8609,849.876],[-111.113,30.8134,797.9262],[-111.1605,30.8089,802.7451],[-111.1716,30.8419,829.3664],[-111.1848,30.8442,850.1567],[-111.1879,30.8302,821.6506],[-111.2275,30.8114,809.9773],[-111.2366,30.8157,797.1887],[-111.2652,30.7962,857.3513],[-111.2841,30.7864,1053.155],[-111.2559,30.7505,988.4811],[-111.2558,30.7401,1154.7037],[-111.2132,30.7036,828.1004],[-111.211,30.7247,837.3287],[-111.2095,30.7261,818.2035],[-111.1862,30.7141,755.6541],[-111.1865,30.7123,756.389],[-111.1697,30.6968,732.4122],[-111.1767,30.6908,743.7084],[-111.155,30.6785,716.1622],[-111.1543,30.6761,716.8466],[-111.1587,30.676,720.9742],[-111.1616,30.6739,722.2555],[-111.1613,30.6608,716.7372],[-111.1456,30.6543,716.4534],[-111.1412,30.6572,715.0406],[-111.1388,30.6549,723.5747],[-111.1261,30.6653,729.7657],[-111.127,30.6659,724.9701],[-111.1203,30.6698,728.5782],[-111.1054,30.6708,742.8458],[-111.0812,30.6536,764.0083],[-111.1093,30.6336,765.7723],[-111.0987,30.6122,766.5917],[-111.0972,30.5888,714.0151],[-111.0575,30.6053,723.0809],[-111.0511,30.5963,714.6425],[-111.0524,30.5943,714.0846],[-111.0498,30.587,768.0258],[-111.0702,30.5783,744.5787],[-111.0711,30.5679,765.908],[-111.033,30.5658,826.1268],[-111.0228,30.6014,808.4164],[-111.0168,30.6016,763.9536],[-111.0264,30.5845,851.3638],[-111.0041,30.5763,999.5474],[-111.0006,30.5726,1078.623],[-110.9803,30.5622,1256.8079],[-110.9505,30.5351,1119.5455],[-110.9518,30.5314,1118.6002],[-110.9515,30.5228,990.2294],[-110.9381,30.523,1137.2633],[-110.9317,30.5057,1155.5555],[-110.9128,30.4946,1314.687],[-110.8958,30.4872,1001.8934],[-110.8897,30.4921,989.8458],[-110.883,30.4933,935.7546],[-110.8832,30.4959,931.1376],[-110.881,30.497,930.8934],[-110.8782,30.4883,948.8337],[-110.8716,30.4828,979.9341],[-110.868,30.4752,1007.2572],[-110.8688,30.5116,930.7336],[-110.8635,30.5114,951.5706],[-110.8632,30.4778,1005.2449],[-110.8494,30.4772,1028.0894],[-110.8486,30.4666,1256.5352],[-110.8468,30.4662,1211.7928],[-110.8465,30.4567,1498.8478],[-110.8427,30.4504,1554.1289],[-110.8424,30.4457,1483.0057],[-110.8369,30.4445,1369.0088],[-110.8341,30.441,1199.6719],[-110.8279,30.4509,1252.6638],[-110.8304,30.4525,1362.9829],[-110.8255,30.4557,1186.9553],[-110.819,30.4638,1076.5773],[-110.8243,30.4791,991.1906],[-110.8198,30.4908,966.8364],[-110.8217,30.4917,974.3972],[-110.8232,30.4989,943.7815],[-110.8188,30.4994,970.2136],[-110.814,30.4976,997.5796],[-110.8097,30.4989,999.6055],[-110.8094,30.5044,982.4738],[-110.8058,30.5121,951.6984],[-110.8015,30.5141,954.4117],[-110.8015,30.52,959.6063],[-110.7391,30.5562,1554.4095],[-110.7432,30.5583,1541.9547],[-110.7424,30.5622,1442.0442],[-110.7456,30.5651,1524.3307],[-110.7394,30.5689,1488.407],[-110.7393,30.5718,1477.6437],[-110.7443,30.5758,1526.4371],[-110.7429,30.5781,1480.9993],[-110.7591,30.5791,1239.5858],[-110.7541,30.6218,1840.8719],[-110.7583,30.6356,1948.3961]]]]}
,"properties": {"GID_2": "MEX.26.38_2","GID_0": "MEX","country": "México","GID_1": "MEX.26_1","province": "Sonora","NL_NAME_1": "NA","county": "Magdalena","VARNAME_2": "NA","NL_NAME_2": "NA","TYPE_2": "Município","ENGTYPE_2": "Municipality","CC_2": "NA","HASC_2": "NA","name": "Magdalena.county","area_km2": 1240.6704,"hist_schema_id": "Elevation0-9000","hist_area_km2": {"700": 0.9119,"725": 30.862,"750": 68.4331,"775": 114.4197,"800": 119.301,"825": 107.1941,"850": 101.7957,"875": 90.127,"900": 77.1645,"925": 64.5004,"950": 66.2881,"975": 62.0659,"1000": 50.7251,"1025": 45.3193,"1050": 38.11,"1075": 32.7068,"1100": 24.1577,"1125": 19.356,"1150": 16.7929,"1175": 13.9913,"1200": 12.8653,"1225": 10.4232,"1250": 8.6729,"1275": 8.4528,"1300": 7.3602,"1325": 7.0679,"1350": 5.8653,"1375": 5.2463,"1400": 5.1911,"1425": 4.6829,"1450": 4.4994,"1475": 3.5363,"1500": 3.3542,"1525": 2.2427,"1550": 1.9518,"1575": 1.4778,"1600": 0.7661,"1625": 0.4561,"1650": 0.3467,"1675": 0.3102,"1700": 0.3102,"1725": 0.2737,"1750": 0.2554,"1775": 0.1824,"1800": 0.1642,"1825": 0.1277,"1850": 0.1277,"1875": 0.0912,"1900": 0.1095,"1925": 0.0182,"1975": 0.0182}}}