{"type":"Feature","properties":{"GID_2":"MEX.20.73_2","GID_0":"MEX","country":"México","GID_1":"MEX.20_1","province":"Oaxaca","NL_NAME_1":"NA","county":"OaxacadeJuárez","VARNAME_2":"NA","NL_NAME_2":"NA","TYPE_2":"Município","ENGTYPE_2":"Municipality","CC_2":"NA","HASC_2":"NA","name":"Oaxacade_Juárez.county"},
"geometry":{"type": "MultiPolygon","coordinates": [[[[-96.688,17.090699999999998,1604.8433],[-96.6884,17.0964,1624.5316],[-96.6873,17.1018,1642.2788],[-96.6858,17.0998,1631.5975],[-96.6829,17.1203,2036.6803],[-96.6839,17.1244,2171.8938],[-96.6727,17.164,3123.3369],[-96.6892,17.1619,3092.1597],[-96.7098,17.1562,2680.8916],[-96.7305,17.1479,2085.8271],[-96.7373,17.1438,1863.6748],[-96.7443,17.145,1683.7107],[-96.7476,17.1382,1648.2754],[-96.7713,17.1311,1575.2179],[-96.7671,17.1259,1572.955],[-96.768,17.1252,1570.1018],[-96.7803,17.1226,1564.3358],[-96.7738,17.1167,1557.0461],[-96.773,17.1124,1553.0479],[-96.7692,17.1135,1550.5979],[-96.7664,17.112,1557.0674],[-96.7616,17.114,1565.2389],[-96.7576,17.1096,1558.2833],[-96.7552,17.1094,1589.5845],[-96.7518,17.1016,1565.7125],[-96.7533,17.1006,1561.8352],[-96.7524,17.0974,1555.5393],[-96.7545,17.0913,1546.149],[-96.7449,17.0732,1539.9257],[-96.7469,17.0729,1543.222],[-96.7483,17.0787,1546.6954],[-96.7539,17.0753,1547.437],[-96.7577,17.0796,1552.3391],[-96.7674,17.0748,1577.9515],[-96.7683,17.0735,1586.7958],[-96.7646,17.0601,1754.5271],[-96.7732,17.0586,1685.3789],[-96.7729,17.048,1841.1467],[-96.7709,17.0495,1862.0093],[-96.765,17.0496,1840.116],[-96.7647,17.0542,1810.3558],[-96.7637,17.0451,1767.3718],[-96.7488,17.0448,1652.9164],[-96.7477,17.0485,1732.6848],[-96.7358,17.0455,1640.8621],[-96.7232,17.0464,1534.3827],[-96.715,17.035,1527.4407],[-96.7181,17.0353,1528.2621],[-96.719,17.0316,1525.2886],[-96.7129,17.0293,1525.0009],[-96.7121,17.031,1526.0906],[-96.7139,17.0335,1529.3389],[-96.708,17.0311,1524.6592],[-96.7047,17.0337,1524.9568],[-96.7023,17.0397,1543.8271],[-96.7067,17.0422,1527.3992],[-96.7045,17.0507,1530.5863],[-96.7096,17.0575,1537.9655],[-96.7095,17.0624,1543.7056],[-96.7107,17.0631,1543.7056],[-96.7103,17.0662,1549.127],[-96.7074,17.0666,1540.6833],[-96.7072,17.0727,1560.7339],[-96.7059,17.0726,1558.811],[-96.7064,17.0818,1589.7827],[-96.6943,17.0816,1572.8694],[-96.6924,17.0936,1615.1953],[-96.688,17.090699999999998,1604.8433]]]]}}