{"type": "Feature","bbox": [-96.7252,16.9759,-96.7073,17.0005],"geometry": {"type": "MultiPolygon","coordinates": [[[[-96.7073,16.9826,1520.1393],[-96.7084,16.9897,1563.1447],[-96.7108,16.9914,1534.759],[-96.7111,16.9986,1518.0297],[-96.7161,16.9985,1513.9812],[-96.7186,17.0005,1517.9873],[-96.7252,16.9801,1510.5039],[-96.7204,16.9792,1509.3925],[-96.7202,16.9769,1508.6981],[-96.7173,16.9759,1508.5608],[-96.7157,16.9762,1509.4132],[-96.7144,16.9795,1510.9407],[-96.7073,16.9826,1520.1393]]]]}
,"properties": {"GID_2": "MEX.20.3_2","GID_0": "MEX","country": "México","GID_1": "MEX.20_1","province": "Oaxaca","NL_NAME_1": "NA","county": "ÁnimasTrujano","VARNAME_2": "NA","NL_NAME_2": "NA","TYPE_2": "Município","ENGTYPE_2": "Municipality","CC_2": "NA","HASC_2": "NA","name": "Ánimas_Trujano.county","area_km2": 3.142955,"hist_schema_id": "Elevation0-9000","hist_area_km2": {"1500": 1.318043,"1525": 1.824911}}}