{"type": "Feature","bbox": [-99.404,19.3033,-99.2396,19.4389],"geometry": {"type": "MultiPolygon","coordinates": [[[[-99.2558,19.4036,2432.7085],[-99.2396,19.4122,2370.6064],[-99.244,19.4203,2358.4485],[-99.2416,19.4229,2350.6938],[-99.2452,19.4244,2354.4021],[-99.2519,19.4228,2382.4329],[-99.2558,19.4249,2409.0083],[-99.2563,19.427,2425.2522],[-99.2628,19.4301,2382.7954],[-99.2641,19.4348,2328.5901],[-99.2684,19.4297,2360.9956],[-99.2731,19.4278,2376.9092],[-99.2801,19.4389,2407.2988],[-99.2912,19.4329,2442.7166],[-99.2941,19.4368,2405.0696],[-99.2957,19.434,2416.498],[-99.2998,19.4339,2469.2246],[-99.3002,19.4323,2443.0461],[-99.3018,19.4336,2457.9062],[-99.3017,19.432,2464.8564],[-99.305,19.4315,2459.1958],[-99.3105,19.4351,2509.9082],[-99.3155,19.4354,2534.6689],[-99.3188,19.4321,2551.5449],[-99.3277,19.4365,2619.6904],[-99.3333,19.4364,2664.1558],[-99.335,19.4342,2715.4468],[-99.3404,19.4321,2755.2344],[-99.3501,19.4319,2902.6426],[-99.3534,19.4298,2961.479],[-99.3623,19.431,3060.3142],[-99.3699,19.4235,3161.7874],[-99.3771,19.4225,3171.0503],[-99.379,19.4191,3246.291],[-99.3918,19.4179,3087.9436],[-99.3959,19.4194,3081.6121],[-99.403,19.3833,2980.5952],[-99.404,19.3538,3297.1001],[-99.3945,19.3378,3193.447],[-99.3819,19.3058,2997.8257],[-99.3759,19.3098,3027.0547],[-99.3632,19.3034,3209.5757],[-99.3564,19.3033,3334.2969],[-99.3566,19.3067,3387.5063],[-99.3338,19.3306,2947.5864],[-99.3283,19.3452,2802.6606],[-99.3285,19.3531,2713.8269],[-99.3264,19.3537,2704.5659],[-99.3233,19.3583,2684.8748],[-99.3181,19.3582,2644.1514],[-99.3207,19.3604,2705.2712],[-99.3195,19.3636,2800.3884],[-99.3169,19.3663,2798.4211],[-99.3154,19.3659,2791.9106],[-99.3131,19.3704,2768.9136],[-99.3078,19.3716,2644.821],[-99.3035,19.3778,2617.5466],[-99.3013,19.3771,2537.7925],[-99.3012,19.3697,2645.2703],[-99.299,19.3675,2690.855],[-99.2979,19.3693,2674.6206],[-99.2956,19.3691,2659.4778],[-99.2906,19.375,2623.1692],[-99.2857,19.3764,2621.8145],[-99.2828,19.3814,2569.2188],[-99.2737,19.387,2560.7581],[-99.2724,19.3897,2516.8723],[-99.2696,19.3904,2522.2417],[-99.2651,19.399,2470.3809],[-99.2613,19.3993,2427.5598],[-99.2579,19.4048,2439.0178],[-99.257,19.4004,2475.9683],[-99.2558,19.4036,2432.7085]]]]}
,"properties": {"GID_2": "MEX.15.39_2","GID_0": "MEX","country": "México","GID_1": "MEX.15_1","province": "México","NL_NAME_1": "NA","county": "Huixquilucan","VARNAME_2": "NA","NL_NAME_2": "NA","TYPE_2": "Município","ENGTYPE_2": "Municipality","CC_2": "NA","HASC_2": "NA","name": "Huixquilucan.county","area_km2": 141.5834,"hist_schema_id": "Elevation0-9000","hist_area_km2": {"2325": 0.12,"2350": 0.7398,"2375": 1.4797,"2400": 3.1194,"2425": 3.6993,"2450": 4.9591,"2475": 5.0593,"2500": 4.8793,"2525": 5.0395,"2550": 5.0196,"2575": 4.4797,"2600": 4.4798,"2625": 4.5399,"2650": 4.4601,"2675": 4.5601,"2700": 3.6802,"2725": 3.5002,"2750": 2.7402,"2775": 3.4603,"2800": 3.2803,"2825": 2.8802,"2850": 2.6802,"2875": 2.9203,"2900": 2.6403,"2925": 3.1202,"2950": 3.0603,"2975": 3.2803,"3000": 3.3204,"3025": 4.6206,"3050": 4.2405,"3075": 4.6005,"3100": 5.3204,"3125": 5.6405,"3150": 4.9403,"3175": 4.3803,"3200": 3.3405,"3225": 2.2405,"3250": 1.6403,"3275": 1.5604,"3300": 0.7202,"3325": 0.4601,"3350": 0.3401,"3375": 0.2401,"3400": 0.1}}}