{"type": "Feature","bbox": [-103.2131,26.0515,-101.4849,27.2788],"geometry": {"type": "MultiPolygon","coordinates": [[[[-101.7493,26.8298,1043.47],[-101.764,26.8564,1145.2986],[-101.7867,26.8897,901.326],[-101.869,26.9003,718.8284],[-101.8634,26.9004,723.6823],[-101.8668,26.9369,718.449],[-101.8395,26.9402,1231.1241],[-101.8503,26.9612,1123.6633],[-101.8476,26.961,1196.9279],[-101.8099,27.0194,627.1746],[-101.8053,27.0339,636.8128],[-101.8095,27.034,636.6111],[-101.8134,27.0215,628.8873],[-101.8263,27.0212,690.5431],[-101.8351,27.0365,908.334],[-101.8439,27.0396,1064.9653],[-101.8451,27.0432,1141.0593],[-101.8529,27.0516,1211.4919],[-101.8675,27.064,1345.2079],[-101.8717,27.0728,1358.3665],[-101.8918,27.0474,908.5916],[-101.9378,27.0478,1395.9661],[-101.9427,27.0239,891.6019],[-102.0002,27.021,987.4019],[-102.0086,27.0685,1850.5787],[-102.003,27.077,2060.2524],[-102.0506,27.1472,2077.0488],[-102.0503,27.1588,2092.8208],[-102.0558,27.163,1846.0396],[-102.0799,27.1672,1454.5016],[-102.084,27.1615,1549.0254],[-102.0935,27.1881,1516.9575],[-102.0937,27.2315,1843.2112],[-102.0974,27.2406,1772.7429],[-102.1242,27.2487,1385.7014],[-102.1285,27.2641,1265.6018],[-102.1447,27.2788,1108.7627],[-102.3167,27.2728,1026.547],[-102.2949,27.2464,991.7428],[-102.3039,27.2316,1001.0978],[-102.3658,27.262,1102.2065],[-102.4119,27.1924,1186.8828],[-102.3325,27.1315,1043.7596],[-102.3303,27.1265,1046.3866],[-102.3381,27.1224,1068.3362],[-102.326,27.1148,1054.4174],[-102.289,27.0148,2368.0842],[-102.2948,27.0115,2587.7324],[-102.3066,27.0118,2645.5276],[-102.3338,27.0173,2319.0576],[-102.3919,27.0345,3000.6694],[-102.4243,27.034,2761.9375],[-102.4429,27.0269,2789.5552],[-102.4667,27.053,2757.3689],[-102.4703,27.0646,2777.499],[-102.4856,27.0806,2736.2217],[-102.516,27.1005,2714.8396],[-102.5292,27.1001,2815.7881],[-102.5721,27.1134,2789.0571],[-102.6181,27.1486,2644.9194],[-102.6402,27.16,2461.1938],[-102.6542,27.1224,2595.9102],[-102.6603,27.122,2465.0349],[-102.6953,27.0644,1253.9392],[-102.7281,27.0835,1293.3298],[-102.7437,27.045,1196.0944],[-102.754,27.0493,1204.2705],[-102.7827,27.0484,1226.1235],[-102.7893,27.0529,1234.1204],[-102.8084,27.081,1223.1047],[-102.7997,26.8731,1460.05],[-102.8458,26.9005,1163.4088],[-102.9876,26.9796,1374.9922],[-102.9888,26.9632,1119.8035],[-103.0272,26.9779,1058.6245],[-103.087,26.9791,1051.4822],[-103.2131,26.9765,1413.396],[-103.0449,26.8131,1278.6986],[-103.1647,26.7541,1183.5042],[-103.1552,26.7422,1201.224],[-103.0505,26.6484,1709.3503],[-103.0008,26.725,1736.2797],[-102.9679,26.7065,1398.2061],[-103.0076,26.6244,1601.4575],[-103.0093,26.6145,1714.062],[-103.039,26.5809,1937.999],[-103.0364,26.5743,1826.1365],[-103.0138,26.556,2013.6094],[-103.0062,26.5341,1924.5391],[-103.0386,26.5228,1091.2285],[-103.0245,26.5011,1127.4377],[-102.9997,26.4983,1492.6488],[-102.9882,26.4251,1336.1729],[-102.9713,26.4235,1538.2441],[-102.96,26.5295,1883.4961],[-102.8017,26.6484,1759.3088],[-102.7894,26.6343,1343.9624],[-102.7599,26.6373,1170.4021],[-102.7511,26.6316,1131.7411],[-102.6784,26.5258,1351.2325],[-102.6209,26.4911,1182.1353],[-102.5981,26.4977,1070.5774],[-102.508,26.4978,849.7175],[-102.5062,26.5004,853.5255],[-102.3841,26.587,825.1375],[-102.3375,26.6005,814.1072],[-102.5024,26.3197,1227.799],[-102.4841,26.3196,1270.7358],[-102.4958,26.3029,1292.8627],[-102.5078,26.2802,1312.8672],[-102.3724,26.2765,1578.312],[-102.3402,26.2696,1966.8248],[-102.343,26.3148,1559.4487],[-102.3162,26.2516,1871.8323],[-102.3963,26.1079,1372.8455],[-102.2873,26.1341,1359.3589],[-102.2667,26.0515,1212.5842],[-102.1931,26.0674,1347.0294],[-102.1174,26.0912,1431.3738],[-102.1387,26.172,1490.8251],[-102.0315,26.2181,1792.0168],[-102.0067,26.1956,1617.1942],[-102.0056,26.1613,1610.4658],[-101.9627,26.1578,1789.9208],[-101.9748,26.1844,1795.7428],[-101.982,26.2435,1935.2896],[-102.0219,26.2746,1830.5918],[-102.0537,26.3234,1734.9095],[-102.1504,26.4218,1557.012],[-102.0351,26.3647,1511.4723],[-101.9824,26.3795,1063.0413],[-101.9484,26.3918,1025.1533],[-101.9387,26.3439,1053.0159],[-101.877,26.3469,1029.3213],[-101.869,26.3845,1029.532],[-101.8532,26.2906,1060.6875],[-101.8102,26.3248,1081.3787],[-101.8108,26.3289,1089.8019],[-101.7393,26.3107,1139.1145],[-101.7144,26.313,1197.4449],[-101.7074,26.3013,1177.6904],[-101.6936,26.2993,1210.7061],[-101.6794,26.3972,2518.3135],[-101.66,26.3233,1282.8719],[-101.6411,26.3126,1326.4341],[-101.6268,26.2971,1278.7557],[-101.5806,26.2793,1295.5549],[-101.5585,26.2665,1191.5017],[-101.5053,26.3388,1262.662],[-101.5291,26.3772,1749.9742],[-101.505,26.3911,1840.9501],[-101.5609,26.4183,2406.0603],[-101.5111,26.4107,1378.2815],[-101.4849,26.4206,1387.8555],[-101.4964,26.4312,1955.8157],[-101.5028,26.4315,1830.114],[-101.5085,26.4441,1849.3021],[-101.5147,26.4473,1683.4738],[-101.5169,26.4533,1802.8376],[-101.5953,26.5297,1755.3687],[-101.6564,26.5588,1549.8696],[-101.6842,26.5892,1560.2601],[-101.6844,26.6094,1845.7444],[-101.7174,26.6334,1965.0818],[-101.7335,26.6123,1959.7463],[-101.7837,26.6846,2014.5436],[-101.8381,26.769,1956.3179],[-101.8043,26.7953,1813.5544],[-101.7493,26.8298,1043.47]]]]}
,"properties": {"GID_2": "MEX.7.7_2","GID_0": "MEX","country": "México","GID_1": "MEX.7_1","province": "Coahuila","NL_NAME_1": "NA","county": "CuatroCiénegas","VARNAME_2": "NA","NL_NAME_2": "NA","TYPE_2": "Município","ENGTYPE_2": "Municipality","CC_2": "NA","HASC_2": "NA","name": "Cuatro_Ciénegas.county","area_km2": 10689.692,"hist_schema_id": "Elevation0-9000","hist_area_km2": {"625": 0.737,"650": 8.594,"675": 27.455,"700": 329.837,"725": 210.613,"750": 124.726,"775": 169.089,"800": 322.127,"825": 307.312,"850": 195.735,"875": 238.407,"900": 203.801,"925": 217.226,"950": 230.161,"975": 234.115,"1000": 234.812,"1025": 248.126,"1050": 361.013,"1075": 256.837,"1100": 259.642,"1125": 307.242,"1150": 335.468,"1175": 332.159,"1200": 293.466,"1225": 292.53,"1250": 266.503,"1275": 257.352,"1300": 228.84,"1325": 215.855,"1350": 209.866,"1375": 204.75,"1400": 191.628,"1425": 191.009,"1450": 201.394,"1475": 214.297,"1500": 224.32,"1525": 256.144,"1550": 224.35,"1575": 202.933,"1600": 176.979,"1625": 168.457,"1650": 158.137,"1675": 139.496,"1700": 125.697,"1725": 110.998,"1750": 107.259,"1775": 92.275,"1800": 86.993,"1825": 77.342,"1850": 71.425,"1875": 63.997,"1900": 57.173,"1925": 46.047,"1950": 41.435,"1975": 36.338,"2000": 33.325,"2025": 27.868,"2050": 24.362,"2075": 21.77,"2100": 18.526,"2125": 16.634,"2150": 14.834,"2175": 12.807,"2200": 12.448,"2225": 12.485,"2250": 11.766,"2275": 10.896,"2300": 10.897,"2325": 10.975,"2350": 10.593,"2375": 6.989,"2400": 4.939,"2425": 4.161,"2450": 3.991,"2475": 3.84,"2500": 3.46,"2525": 3.141,"2550": 3.558,"2575": 2.99,"2600": 2.289,"2625": 1.719,"2650": 1.114,"2675": 1.095,"2700": 0.812,"2725": 1.076,"2750": 1.114,"2775": 0.906,"2800": 0.736,"2825": 0.453,"2850": 0.227,"2875": 0.189}}}