{"type":"Feature","properties":{"GID_2":"MEX.30.89_2","GID_0":"MEX","country":"México","GID_1":"MEX.30_1","province":"Veracruz","NL_NAME_1":"NA","county":"Jáltipan","VARNAME_2":"NA","NL_NAME_2":"NA","TYPE_2":"Município","ENGTYPE_2":"Municipality","CC_2":"NA","HASC_2":"NA","name":"Jáltipan.county"},
"geometry":{"type": "MultiPolygon","coordinates": [[[[-94.6294,17.8275,0.0],[-94.6302,17.8311,2.1577],[-94.6327,17.8331,0.3496],[-94.6319,17.8302,0.4788],[-94.6294,17.8275,0.0]]],
[[[-94.7627,18.0254,38.8236],[-94.7697,18.026,26.3781],[-94.766,18.0206,23.8886],[-94.7633,18.0194,30.6865],[-94.7644,18.016,25.0164],[-94.7657,18.016,25.0164],[-94.7649,18.0127,23.6695],[-94.7637,18.0128,32.0402],[-94.7643,18.01,22.248],[-94.7623,18.0088,26.6874],[-94.7642,18.0092,26.6874],[-94.7644,18.0065,21.6392],[-94.7658,18.006,21.6392],[-94.7616,18.0031,20.2954],[-94.7629,18.0022,22.49],[-94.7627,17.9969,21.0133],[-94.7718,18.0007,22.066],[-94.7813,17.9996,25.0048],[-94.782,17.9941,26.9481],[-94.7805,17.9908,25.7086],[-94.7818,17.9853,23.7264],[-94.7914,17.9801,30.104],[-94.7858,17.9787,38.1047],[-94.7872,17.9664,38.6871],[-94.7926,17.9685,36.9833],[-94.7987,17.9582,41.3706],[-94.7889,17.9586,28.3688],[-94.783,17.9555,29.7931],[-94.7863,17.942,21.221],[-94.7813,17.9311,20.0017],[-94.7827,17.9299,19.3746],[-94.7751,17.9293,17.8298],[-94.7747,17.9323,16.1171],[-94.7718,17.9325,13.3415],[-94.7714,17.9344,12.4833],[-94.7577,17.9406,11.2955],[-94.7588,17.938,10.7707],[-94.7568,17.9355,10.1395],[-94.762,17.9361,11.5157],[-94.7627,17.931,11.3003],[-94.7612,17.9295,10.6188],[-94.7682,17.9231,21.4267],[-94.7714,17.9226,21.7589],[-94.7823,17.9143,38.8231],[-94.7739,17.9127,25.412],[-94.7743,17.9115,24.4773],[-94.7702,17.9105,25.778199999999998],[-94.7725,17.8973,37.9194],[-94.7657,17.8962,22.0674],[-94.7664,17.8851,18.0138],[-94.7536,17.883,7.1111],[-94.7347,17.8825,2.6785],[-94.7172,17.8771,1.4969],[-94.7167,17.8745,3.8508],[-94.7213,17.8723,4.2076],[-94.7225,17.8695,1.3643],[-94.7214,17.8672,1.4562],[-94.7155,17.8646,2.982],[-94.7142,17.8615,2.1645],[-94.7174,17.8531,2.0731],[-94.7244,17.859,2.5129],[-94.7219,17.8511,1.1881],[-94.7229,17.846,8.3273],[-94.7249,17.8487,4.1724],[-94.7268,17.8484,0.6178],[-94.7294,17.8434,1.044],[-94.7392,17.8343,2.4323],[-94.7461,17.8411,2.4563],[-94.7531,17.8296,1.8055],[-94.7609,17.8285,4.6855],[-94.7601,17.8248,2.9195],[-94.7573,17.822,7.092],[-94.7592,17.8192,3.2314],[-94.7621,17.8192,4.074],[-94.7608,17.8242,2.9195],[-94.7633,17.8263,2.9879],[-94.774,17.8175,2.6982],[-94.7745,17.8135,3.6626],[-94.7689,17.8131,3.4679],[-94.7639,17.806,6.7871],[-94.7716,17.8052,2.6514],[-94.7689,17.8021,3.6118],[-94.769,17.7997,2.4883],[-94.7747,17.8009,3.9392],[-94.7724,17.7969,5.3027],[-94.7767,17.7955,2.756],[-94.7782,17.7931,1.5],[-94.7764,17.7858,2.6941],[-94.779,17.7803,4.1505],[-94.7616,17.7774,5.5682],[-94.756,17.7746,2.731],[-94.7595,17.7685,4.316],[-94.7559,17.763,6.3913],[-94.7549,17.7523,4.3058],[-94.751,17.7504,4.4583],[-94.7427,17.7521,9.517],[-94.7365,17.7503,4.1898],[-94.7401,17.7446,5.6043],[-94.7362,17.7392,3.511],[-94.7321,17.7384,4.7766],[-94.7167,17.7416,4.6525],[-94.7149,17.7355,4.5958],[-94.7075,17.736,4.5904],[-94.7062,17.7327,4.3837],[-94.713,17.7273,6.3289],[-94.7163,17.7205,4.6984],[-94.716,17.7179,5.5233],[-94.7129,17.7163,6.1581],[-94.7042,17.7158,4.5],[-94.703,17.7165,4.5],[-94.7063,17.7209,4.0],[-94.7056,17.7253,4.0],[-94.7012,17.7274,4.022],[-94.6979,17.7264,5.6925],[-94.6861,17.7159,3.6809],[-94.6862,17.7111,6.9038],[-94.6913,17.7053,3.991],[-94.6924,17.7005,8.4093],[-94.6893,17.6974,3.146],[-94.6825,17.6962,3.8266],[-94.6777,17.7012,7.3724],[-94.675,17.7114,4.7638],[-94.6766,17.729,4.1522],[-94.6856,17.741,2.5615],[-94.6746,17.7472,1.0],[-94.6729,17.7541,4.9981],[-94.6652,17.761,1.0017],[-94.6666,17.7629,0.5],[-94.67,17.7611,2.1761],[-94.6758,17.7614,1.2036],[-94.6783,17.7637,21.6662],[-94.6733,17.7693,14.12],[-94.6521,17.7739,4.1768],[-94.6456,17.7779,3.9576],[-94.6504,17.7847,1.4273],[-94.6529,17.7926,0.5],[-94.6506,17.8095,0.5],[-94.6469,17.8158,1.1953],[-94.6409,17.818,1.7172],[-94.631,17.8164,0.0],[-94.6273,17.82,3.4909],[-94.6365,17.8391,1.7149],[-94.6359,17.8432,3.0249],[-94.6297,17.8523,2.3249],[-94.6312,17.8532,2.3461],[-94.6358,17.8505,0.3783],[-94.6392,17.8508,0.8678],[-94.6444,17.8618,2.7376],[-94.6488,17.862,2.2664],[-94.6557,17.8582,2.2474],[-94.6576,17.8596,1.4687],[-94.659,17.8617,0.764],[-94.6584,17.8652,0.0],[-94.648,17.8696,1.1641],[-94.6533,17.8727,1.5601],[-94.6555,17.8827,4.8853],[-94.6575,17.8815,2.9857],[-94.66,17.8752,0.8094],[-94.6636,17.873,1.3575],[-94.6673,17.873,1.5553],[-94.6735,17.8749,0.8708],[-94.6798,17.8815,1.9388],[-94.6828,17.8822,3.9041],[-94.6823,17.8868,2.4142],[-94.6864,17.8848,3.713],[-94.6898,17.8869,5.2436],[-94.6819,17.8916,2.7569],[-94.6802,17.8993,3.6536],[-94.6874,17.9053,3.1896],[-94.6898,17.9181,6.0786],[-94.6858,17.921,7.6856],[-94.6869,17.9249,9.2966],[-94.6839,17.9383,12.8068],[-94.6811,17.9422,17.7245],[-94.6741,17.9404,27.8036],[-94.6714,17.9557,26.6252],[-94.6763,17.9623,32.9666],[-94.6884,17.9576,22.6426],[-94.693,17.961,22.3661],[-94.6934,17.9637,21.4719],[-94.6964,17.9646,32.2457],[-94.6961,17.9725,31.0304],[-94.6933,17.9762,31.053],[-94.6919,17.9823,29.3668],[-94.6922,18.0065,50.5121],[-94.6972,18.001,60.119],[-94.698,18.0043,58.9649],[-94.7028,18.0045,27.568],[-94.7053,18.0074,30.0321],[-94.6988,18.0104,38.596],[-94.7053,18.017,33.8873],[-94.7259,18.0201,26.3404],[-94.7254,18.024,12.5396],[-94.7288,18.0224,15.0341],[-94.7293,18.0206,17.7279],[-94.7627,18.0254,38.8236]]]]}}