{"type":"Feature","properties":{"GID_2":"MEX.20.547_2","GID_0":"MEX","country":"México","GID_1":"MEX.20_1","province":"Oaxaca","NL_NAME_1":"NA","county":"TepelmemeVilladeMorelos","VARNAME_2":"NA","NL_NAME_2":"NA","TYPE_2":"Município","ENGTYPE_2":"Municipality","CC_2":"NA","HASC_2":"NA","name":"Tepelmeme_Villade_Morelos.county"},
"geometry":{"type": "MultiPolygon","coordinates": [[[[-97.393,17.8631,2069.0586],[-97.3886,17.8259,2174.9893],[-97.2454,17.9153,2580.4233],[-97.1958,17.9704,1941.038],[-97.1941,17.9749,1997.7598],[-97.1952,18.0197,1577.7479],[-97.1923,18.0353,803.5938],[-97.2134,18.1066,998.7172],[-97.2143,18.1637,905.3257],[-97.2173,18.1644,890.8417],[-97.2251,18.1743,919.0488],[-97.229,18.1745,920.902],[-97.229,18.1722,939.7345],[-97.2316,18.1724,967.5431],[-97.2328,18.1703,956.556],[-97.237,18.1732,927.6547],[-97.2383,18.1715,935.2134],[-97.2427,18.1713,931.3882],[-97.2444,18.1668,956.8076],[-97.2464,18.1683,942.3229],[-97.2457,18.1697,970.0706],[-97.2472,18.1697,955.8918],[-97.2506,18.1653,1000.7916],[-97.2522,18.1672,1008.7169],[-97.2549,18.163,985.9891],[-97.2596,18.1638,1003.749],[-97.2653,18.1612,981.9321],[-97.2663,18.1585,1070.3734],[-97.2694,18.1593,985.6624],[-97.2765,18.1568,1012.5945],[-97.2805,18.1607,1032.3236],[-97.2851,18.1586,1016.0688],[-97.2967,18.1601,1033.8207],[-97.2981,18.1578,1043.4255],[-97.3015,18.1574,1049.5377],[-97.3033,18.1591,1050.1661],[-97.3041,18.1567,1070.3772],[-97.3085,18.1561,1067.5684],[-97.3096,18.1533,1135.676],[-97.3184,18.1458,1100.3904],[-97.3321,18.1455,1147.5157],[-97.3351,18.1418,1166.4453],[-97.3359,18.1373,1204.0317],[-97.338,18.1363,1176.958],[-97.3397,18.1302,1210.4706],[-97.3464,18.1244,1205.8711],[-97.3524,18.1236,1247.9673],[-97.3549,18.1218,1229.9138],[-97.3551,18.1168,1253.345],[-97.3604,18.1128,1246.7974],[-97.364,18.1068,1255.983],[-97.3662,18.1064,1257.246],[-97.3659,18.1048,1258.4264],[-97.369,18.1033,1271.9779],[-97.3665,18.1014,1272.4545],[-97.3689,18.1005,1278.3063],[-97.3696,18.0886,1337.2537],[-97.3629,18.0735,1401.4078],[-97.365,18.0631,1445.8591],[-97.3652,18.0446,1551.428],[-97.3791,18.0166,1732.1665],[-97.3852,17.9977,1783.2375],[-97.3888,17.9967,1889.6981],[-97.4093,17.9525,2194.2908],[-97.4255,17.9441,2205.3147],[-97.4221,17.9385,2145.1355],[-97.4197,17.9373,2152.7578],[-97.4142,17.9192,2181.2742],[-97.4179,17.9138,2166.8521],[-97.4223,17.9117,2188.7427],[-97.4153,17.8986,2147.4475],[-97.4051,17.8878,2095.4407],[-97.3991,17.8865,2087.3098],[-97.3957,17.8842,2088.7859],[-97.3956,17.8822,2077.0024],[-97.3903,17.8758,2102.792],[-97.3905,17.8738,2109.8447],[-97.3884,17.8725,2089.667],[-97.3906,17.8732,2106.9082],[-97.393,17.8631,2069.0586]]]]}}