{"type": "Feature","bbox": [-115.8822,30.8656,-114.6498,32.7186],"geometry": {"type": "MultiPolygon","coordinates": [[[[-114.7488,31.8038,0.0],[-114.7591,31.8124,0.0],[-114.7697,31.8168,2.2239],[-114.7862,31.8187,2.6178],[-114.7918,31.8175,0.0],[-114.7999,31.8126,0.0],[-114.8017,31.801,2.6247],[-114.7993,31.7827,2.9708],[-114.8002,31.7631,3.2628],[-114.7966,31.7426,2.872],[-114.7911,31.73,1.087],[-114.7846,31.7231,1.9955],[-114.7815,31.7234,2.9314],[-114.7822,31.7213,2.4068],[-114.7639,31.7057,2.4667],[-114.7407,31.6951,2.3029],[-114.7344,31.6954,2.0896],[-114.7308,31.6974,2.5843],[-114.7299,31.6953,2.3924],[-114.7263,31.6948,2.505],[-114.7255,31.6932,2.2215],[-114.7221,31.6946,2.5533],[-114.7253,31.6864,2.1368],[-114.7175,31.6812,0.6589],[-114.7125,31.6812,0.7227],[-114.7151,31.6842,1.9634],[-114.7109,31.6816,0.9472],[-114.7043,31.687,2.1423],[-114.7017,31.6861,2.2254],[-114.7002,31.6803,1.2672],[-114.693,31.6791,2.3566],[-114.6897,31.6817,2.1505],[-114.6941,31.695,2.7898],[-114.697,31.6985,1.406],[-114.7093,31.7059,2.0846],[-114.713,31.7101,2.4267],[-114.7118,31.7089,2.6495],[-114.7116,31.7103,2.6495],[-114.696,31.6994,2.187],[-114.688,31.6869,1.1926],[-114.6808,31.6856,2.6564],[-114.6757,31.6824,2.3997],[-114.6695,31.6829,2.5343],[-114.6701,31.6779,2.5582],[-114.6682,31.6763,2.2054],[-114.6623,31.6756,2.5811],[-114.6596,31.6766,2.4589],[-114.6593,31.6784,2.6422],[-114.6544,31.678,2.6022],[-114.6506,31.6799,2.7554],[-114.6498,31.6821,2.3225],[-114.6535,31.6949,1.826],[-114.6687,31.7188,1.879],[-114.7073,31.7447,1.4148],[-114.7088,31.7395,2.8081],[-114.7082,31.7453,2.7621],[-114.7174,31.7517,2.4056],[-114.7305,31.7649,2.7236],[-114.7378,31.7749,1.7525],[-114.739,31.7745,2.382],[-114.7381,31.7752,1.7525],[-114.7441,31.7894,1.9601],[-114.7462,31.7897,2.2413],[-114.7443,31.79,1.9601],[-114.7476,31.795,2.6827],[-114.7461,31.7953,1.9928],[-114.7476,31.8003,2.3107],[-114.7448,31.796,2.1239],[-114.7435,31.7971,1.5934],[-114.7488,31.8038,0.0]]],
[[[-114.7256,30.869,16.2999],[-114.7042,30.8656,2.0276],[-114.7064,30.8732,1.8828],[-114.7052,30.8792,0.0],[-114.711,30.8915,2.4827],[-114.7101,30.9061,5.1802],[-114.7147,30.9208,0.0],[-114.718,30.9247,14.9034],[-114.718,30.931,2.4859],[-114.7204,30.9366,6.0848],[-114.7338,30.9431,1.1866],[-114.7367,30.946,4.649],[-114.7835,30.965,5.0015],[-114.8083,30.9773,0.0],[-114.8247,30.9893,2.496],[-114.8248,30.9921,0.0],[-114.8213,30.9943,0.0],[-114.8211,30.9945,0.0],[-114.8217,30.9953,0.0],[-114.8214,30.9957,0.0],[-114.8218,30.9954,0.0],[-114.8212,30.9945,0.0],[-114.8267,30.9912,4.2966],[-114.8295,30.9939,1.3428],[-114.8303,30.9956,1.1583],[-114.8247,30.9987,0.0],[-114.8226,30.9966,0.0],[-114.8247,30.9989,0.0],[-114.8296,30.996,1.1583],[-114.8341,31.0018,8.2531],[-114.8348,31.0116,2.0527],[-114.8322,31.0236,3.8292],[-114.8291,31.0266,0.0],[-114.829,31.0299,0.0],[-114.8245,31.0396,6.134],[-114.8154,31.042,7.3956],[-114.8118,31.0444,4.3694],[-114.8121,31.0456,0.0],[-114.8147,31.0491,7.3158],[-114.8149,31.0522,12.1121],[-114.8225,31.0537,12.4743],[-114.8255,31.06,18.0031],[-114.8291,31.0602,12.4857],[-114.8323,31.0665,15.7952],[-114.8397,31.0689,24.4781],[-114.8419,31.0714,6.2287],[-114.8481,31.0727,20.2073],[-114.8675,31.0902,9.5818],[-114.8746,31.1001,22.1011],[-114.8845,31.1186,13.716],[-114.8906,31.1503,0.0],[-114.8902,31.1708,0.0],[-114.8837,31.2094,0.6231],[-114.8855,31.214,1.5213],[-114.8813,31.2364,1.3369],[-114.8821,31.2525,0.0],[-114.885,31.2593,0.4019],[-114.8913,31.2636,0.5892],[-114.892,31.2667,0.8278],[-114.889,31.2689,2.368],[-114.8869,31.2774,1.365],[-114.8882,31.2845,1.114],[-114.8811,31.2912,0.0],[-114.8793,31.2953,1.191],[-114.8837,31.3031,2.2927],[-114.8807,31.3066,0.149],[-114.8822,31.3116,2.116],[-114.8796,31.3356,1.8798],[-114.8812,31.3487,3.1305],[-114.8793,31.3524,3.729],[-114.8799,31.3575,3.2729],[-114.8783,31.3635,2.0],[-114.8787,31.3863,3.0489],[-114.8802,31.3929,2.0],[-114.8724,31.3993,2.2304],[-114.8724,31.4053,2.0],[-114.868,31.4138,3.0282],[-114.8702,31.417,3.1969],[-114.8698,31.4229,3.0543],[-114.8629,31.4255,2.8036],[-114.8593,31.4292,2.3713],[-114.8545,31.4567,1.0258],[-114.855,31.4794,0.4193],[-114.858,31.4835,0.4425],[-114.8566,31.4957,1.397],[-114.858,31.5011,1.3326],[-114.8423,31.5528,2.0],[-114.8347,31.5674,1.94],[-114.8328,31.5785,2.1798],[-114.8293,31.5792,2.2887],[-114.8222,31.5844,2.1419],[-114.8165,31.6031,2.3689],[-114.8165,31.6096,2.7691],[-114.8117,31.6118,2.4764],[-114.8007,31.6091,2.1469],[-114.7956,31.612,1.6096],[-114.7904,31.6167,1.8812],[-114.7861,31.6248,2.3434],[-114.7837,31.6355,2.0483],[-114.7876,31.6648,1.8829],[-114.7927,31.6834,2.2635],[-114.7956,31.6901,1.9827],[-114.8043,31.7006,2.2408],[-114.817,31.7287,2.6959],[-114.8182,31.7629,1.3448],[-114.8094,31.7895,1.1443],[-114.8175,31.8012,1.9536],[-114.8088,31.7917,0.3834],[-114.8076,31.8108,1.3687],[-114.8097,31.8153,0.0],[-114.8058,31.8198,0.0],[-114.8132,31.8224,0.0],[-114.8246,31.8333,0.0],[-114.8398,31.859,0.0],[-114.8466,31.8643,0.0],[-114.8538,31.868,0.0],[-114.8582,31.8685,0.0],[-114.8737,31.8654,0.0],[-114.8815,31.8701,0.0],[-114.8847,31.8743,0.0],[-114.89,31.8762,0.0],[-114.9006,31.8741,0.0],[-114.9097,31.8665,0.0],[-114.9112,31.8667,0.0],[-114.9146,31.8716,0.0],[-114.9129,31.8788,1.8318],[-114.9147,31.8815,1.6899],[-114.9187,31.8839,2.4152],[-114.9304,31.8859,0.0],[-114.9415,31.892,0.0],[-114.9417,31.9081,0.0],[-114.9444,31.9134,0.0],[-114.9484,31.9154,0.0],[-114.9583,31.9167,2.3229],[-114.9573,31.9143,3.0576],[-114.9655,31.9184,1.3822],[-114.9674,31.9969,4.5572],[-114.957,32.0386,5.3302],[-114.9897,32.1464,12.1464],[-114.9753,32.178,12.0282],[-114.9928,32.1918,12.1554],[-114.9919,32.1936,12.705],[-115.0027,32.2022,14.0637],[-115.0027,32.201,13.3882],[-115.0058,32.2064,13.8971],[-115.007,32.2055,13.9699],[-115.042,32.233,14.646],[-115.0471,32.2431,15.6581],[-115.053,32.2452,13.2589],[-115.0496,32.2529,15.8563],[-115.0417,32.2613,15.735],[-115.0427,32.2701,13.6405],[-115.0364,32.2778,14.0402],[-115.0268,32.2852,16.9163],[-115.0252,32.2899,17.7033],[-115.0077,32.3026,13.7804],[-115.0076,32.3054,14.1525],[-114.9935,32.3117,18.0862],[-114.9902,32.3202,16.6971],[-114.983,32.3257,14.8526],[-114.9802,32.3297,18.4198],[-114.9666,32.3388,15.5793],[-114.9619,32.3547,16.939],[-114.9646,32.366,16.7325],[-114.9632,32.3767,19.2132],[-114.9674,32.3833,16.9303],[-114.9685,32.3907,16.0717],[-114.9671,32.3933,16.464],[-114.964,32.3942,17.2651],[-114.9595,32.3918,18.7974],[-114.9545,32.3934,17.0519],[-114.9536,32.3966,17.2494],[-114.9607,32.4027,17.9946],[-114.9615,32.4117,18.1326],[-114.9586,32.4145,18.0051],[-114.9543,32.4144,18.1468],[-114.9483,32.4193,18.234],[-114.9415,32.4311,18.3803],[-114.9319,32.4397,18.7523],[-114.9316,32.4427,18.4757],[-114.9384,32.4576,20.5362],[-114.9394,32.4684,20.0804],[-114.9393,32.4742,21.5888],[-114.935,32.4819,20.8892],[-114.929,32.4848,21.1393],[-114.923,32.4829,20.4822],[-114.9071,32.4821,21.0296],[-114.9001,32.4835,21.6939],[-114.8973,32.4878,21.4407],[-114.8933,32.4875,21.5778],[-114.8839,32.4923,23.8932],[-114.8802,32.492,22.0046],[-114.8767,32.4885,22.7092],[-114.8734,32.4892,21.8367],[-114.8695,32.4864,21.6734],[-114.8676,32.4813,22.1577],[-114.8491,32.4734,23.1115],[-114.8392,32.4754,24.2852],[-114.8325,32.4814,23.3048],[-114.8238,32.4801,24.4147],[-114.8159,32.483,23.2767],[-114.813,32.4909,25.0494],[-114.8131,32.5029,23.5909],[-114.8078,32.511,24.2575],[-114.8106,32.5218,25.6174],[-114.81,32.5237,25.6608],[-114.805,32.5257,25.4519],[-114.8032,32.53,24.7473],[-114.8043,32.5443,26.2293],[-114.7951,32.552,25.1847],[-114.792,32.5574,26.4945],[-114.8123,32.5572,27.5473],[-114.8082,32.6077,29.3344],[-114.809,32.6169,29.1578],[-114.807,32.6227,29.7469],[-114.7655,32.6435,30.9986],[-114.7631,32.6504,31.6515],[-114.7583,32.6555,32.312],[-114.7202,32.7186,35.4399],[-115.8793,32.6354,136.2427],[-115.8822,32.5933,406.6324],[-115.8742,32.3862,1491.649],[-115.8477,31.9901,1565.9753],[-115.5613,31.5585,1912.2957],[-115.4643,31.4793,1182.2371],[-115.3944,30.9718,2912.7097],[-114.7256,30.869,16.2999]]]]}
,"properties": {"GID_2": "MEX.3.2_2","GID_0": "MEX","country": "México","GID_1": "MEX.3_1","province": "BajaCalifornia","NL_NAME_1": "NA","county": "Mexicali","VARNAME_2": "NA","NL_NAME_2": "NA","TYPE_2": "Município","ENGTYPE_2": "Municipality","CC_2": "NA","HASC_2": "NA","name": "Mexicali.county","area_km2": 14651.18,"hist_schema_id": "Elevation0-9000","hist_area_km2": {"0": 4862.83,"25": 2227.24,"50": 642.25,"75": 443.61,"100": 384.9,"125": 343.46,"150": 289.76,"175": 246.19,"200": 218.28,"225": 188.76,"250": 178.46,"275": 172.38,"300": 171.16,"325": 159.0,"350": 154.14,"375": 135.65,"400": 276.32,"425": 267.29,"450": 248.08,"475": 219.58,"500": 207.03,"525": 205.89,"550": 198.89,"575": 187.43,"600": 178.25,"625": 167.97,"650": 154.37,"675": 138.82,"700": 127.17,"725": 115.09,"750": 102.02,"775": 90.91,"800": 82.71,"825": 72.39,"850": 60.92,"875": 54.69,"900": 48.27,"925": 43.41,"950": 38.58,"975": 32.09,"1000": 29.25,"1025": 27.25,"1050": 25.47,"1075": 23.19,"1100": 21.31,"1125": 20.31,"1150": 19.4,"1175": 18.01,"1200": 17.58,"1225": 16.62,"1250": 15.25,"1275": 14.48,"1300": 12.76,"1325": 12.7,"1350": 14.24,"1375": 13.79,"1400": 13.27,"1425": 12.21,"1450": 13.1,"1475": 14.23,"1500": 15.69,"1525": 17.92,"1550": 18.7,"1575": 19.4,"1600": 16.67,"1625": 14.12,"1650": 7.9,"1675": 4.78,"1700": 2.81,"1725": 2.59,"1750": 2.68,"1775": 1.94,"1800": 2.09,"1825": 1.56,"1850": 1.93,"1875": 1.31,"1900": 1.76,"1925": 1.54,"1950": 1.53,"1975": 1.44,"2000": 1.31,"2025": 1.02,"2050": 1.2,"2075": 1.02,"2100": 0.93,"2125": 1.18,"2150": 0.8,"2175": 1.0,"2200": 0.85,"2225": 0.8,"2250": 0.6,"2275": 0.65,"2300": 0.71,"2325": 0.82,"2350": 0.64,"2375": 0.51,"2400": 0.69,"2425": 0.55,"2450": 0.53,"2475": 0.55,"2500": 0.45,"2525": 0.36,"2550": 0.67,"2575": 0.4,"2600": 0.38,"2625": 0.38,"2650": 0.33,"2675": 0.44,"2700": 0.35,"2725": 0.36,"2750": 0.24,"2775": 0.33,"2800": 0.25,"2825": 0.15,"2850": 0.18,"2875": 0.13}}}