{"type":"Feature","properties":{"GID_2":"MEX.6.66_2","GID_0":"MEX","country":"México","GID_1":"MEX.6_1","province":"Chihuahua","NL_NAME_1":"NA","county":"Uruachi","VARNAME_2":"NA","NL_NAME_2":"NA","TYPE_2":"Município","ENGTYPE_2":"Municipality","CC_2":"NA","HASC_2":"NA","name":"Uruachi.county"},
"geometry":{"type": "MultiPolygon","coordinates": [[[[-108.2684,27.6938,1833.3102],[-108.1211,27.594,2326.3245],[-108.1313,27.6239,2491.2942],[-108.1779,27.6825,2802.7244],[-108.096,27.7226,1904.4607],[-108.0519,27.7419,1973.6801],[-108.0265,27.7388,1456.2208],[-108.0313,27.7465,1209.2168],[-108.0376,27.7474,1251.1543],[-108.041,27.7557,1153.938],[-108.046,27.7609,1161.8926],[-108.0474,27.7672,1104.6868],[-108.0492,27.7687,1105.5583],[-108.0524,27.7682,1132.8632],[-108.0537,27.7699,1103.6616],[-108.0554,27.7682,1162.2766],[-108.0574,27.7696,1046.3746],[-108.0621,27.7692,1095.1104],[-108.0622,27.771,1074.2344],[-108.0691,27.7785,1074.277],[-108.0749,27.7828,1034.3733],[-108.076,27.7875,1018.6345],[-108.073,27.7884,1275.033],[-108.075,27.7914,1038.3657],[-108.0703,27.7961,1014.624],[-108.0719,27.8029,1013.1923],[-108.0742,27.805,1047.3184],[-108.0748,27.8199,1036.7395],[-108.0942,27.8394,1146.3578],[-108.0939,27.8439,1162.8771],[-108.0968,27.8496,1211.2656],[-108.0942,27.8529,1292.0288],[-108.0957,27.8565,1257.8462],[-108.1027,27.8631,1220.8829],[-108.1211,27.8901,1486.882],[-108.1194,27.9052,1433.8197],[-108.1114,27.9135,1805.7577],[-108.1131,27.9214,1531.7791],[-108.1019,27.9386,1799.613],[-108.104,27.9398,1974.7291],[-108.1152,27.9582,2196.6638],[-108.1124,27.9881,2042.5048],[-108.1138,27.9856,1947.2498],[-108.1191,27.9917,1967.1808],[-108.1225,27.993,1980.6251],[-108.1251,27.9981,2016.9084],[-108.125,28.0053,2072.4629],[-108.1344,28.0051,2265.2319],[-108.1456,28.0094,2355.3311],[-108.1508,28.0043,2169.8777],[-108.1524,28.0044,2189.5195],[-108.1633,28.0224,2431.9204],[-108.1757,28.0258,2653.2722],[-108.2415,28.0245,2603.6812],[-108.278,28.0179,1908.9368],[-108.2946,28.0044,1982.5667],[-108.3019,27.9934,1872.6428],[-108.3123,27.9869,1891.8546],[-108.316,27.9879,1920.4156],[-108.3243,27.9847,1898.7897],[-108.3251,27.9808,1848.657],[-108.3338,27.979,1758.1604],[-108.3411,27.9797,1693.6185],[-108.3543,27.9864,1536.6765],[-108.3656,27.9839,1291.5325],[-108.374,27.9847,1224.1816],[-108.3789,27.9825,1134.0837],[-108.3816,27.9835,1091.9026],[-108.3876,27.9955,996.2974],[-108.3904,28.0208,791.1365],[-108.4182,28.0104,1033.0803],[-108.4333,28.0453,671.257],[-108.436,28.026,1099.6073],[-108.4406,28.0193,1084.9429],[-108.4937,28.016,1511.2542],[-108.4957,28.0148,1461.1198],[-108.5314,28.0204,636.7383],[-108.5374,28.0246,576.1647],[-108.5444,28.0249,576.1263],[-108.5452,28.0188,595.1165],[-108.5507,28.0205,610.96],[-108.5531,28.0192,559.0671],[-108.5503,28.0147,590.1359],[-108.5513,28.0118,555.489],[-108.5549,28.0111,551.997],[-108.5586,28.0077,551.5502],[-108.5673,28.0055,552.4862],[-108.5687,28.0037,556.4379],[-108.5678,27.9999,547.3004],[-108.5727,27.9983,542.8669],[-108.579,27.9899,539.7599],[-108.5837,27.9884,542.7543],[-108.5865,27.9902,596.3149],[-108.5865,27.994,581.7981],[-108.5891,27.9971,596.4646],[-108.5945,27.9927,523.9163],[-108.5956,27.9897,553.7836],[-108.6007,27.9915,535.5035],[-108.6044,27.9953,513.787],[-108.6063,27.9922,498.2584],[-108.6103,27.9914,501.8416],[-108.6197,27.9761,503.9572],[-108.6196,27.9723,529.8467],[-108.6262,27.9663,497.8764],[-108.6323,27.9667,510.4774],[-108.6341,27.9614,496.8073],[-108.6375,27.9608,512.6284],[-108.6506,27.9646,494.6948],[-108.6528,27.964,480.9513],[-108.655,27.9663,482.3741],[-108.6669,27.9648,499.5808],[-108.7937,28.0209,1124.3726],[-108.7764,28.0302,1414.8916],[-108.7887,28.0333,1290.5154],[-108.7983,28.0331,1567.3086],[-108.8463,28.0568,1423.8789],[-108.8599,28.0517,1560.1627],[-108.8911,28.0566,1880.4865],[-108.8962,28.0659,1413.7797],[-108.9273,28.078,1744.4308],[-108.9624,28.0304,2119.3821],[-108.9349,28.0025,1322.9822],[-108.9784,27.9788,1639.9911],[-108.9637,27.9725,1692.0198],[-108.9503,27.954,1710.0154],[-108.9265,27.9406,1907.9055],[-108.9245,27.9009,1823.6665],[-108.9201,27.8908,2057.1052],[-108.9198,27.8709,2185.2339],[-108.9149,27.854,2037.699],[-108.8691,27.8393,949.3278],[-108.8728,27.8316,610.7307],[-108.8831,27.82,1223.2263],[-108.8861,27.8137,1153.3074],[-108.9045,27.8077,1307.3645],[-108.9105,27.8091,1487.2369],[-108.9203,27.784,1346.2498],[-108.8955,27.7448,981.9956],[-108.833,27.7443,678.2615],[-108.817,27.7322,379.0216],[-108.8074,27.738,387.4064],[-108.8049,27.7362,435.5834],[-108.8038,27.7302,376.5577],[-108.7993,27.723,361.7471],[-108.7845,27.7305,436.5372],[-108.7844,27.7149,406.786],[-108.766,27.7058,937.5695],[-108.7728,27.6965,469.3342],[-108.7648,27.6935,625.6418],[-108.7623,27.675,1034.7043],[-108.7493,27.6647,1048.0791],[-108.7541,27.6456,1476.2982],[-108.7542,27.6367,1548.6479],[-108.7399,27.6,1633.9138],[-108.7252,27.6364,595.3152],[-108.7236,27.6323,601.8793],[-108.7198,27.6323,638.295],[-108.7182,27.6298,634.7783],[-108.7159,27.6309,633.2458],[-108.7112,27.6286,645.1398],[-108.7058,27.6308,644.9857],[-108.7038,27.629,635.7319],[-108.6942,27.6334,640.4573],[-108.6878,27.6317,672.3972],[-108.6832,27.6347,695.6771],[-108.6812,27.634,668.0402],[-108.6793,27.6364,683.2715],[-108.674,27.6372,696.237],[-108.6721,27.6402,696.3592],[-108.6684,27.6398,710.8547],[-108.6634,27.6458,736.3243],[-108.664,27.6489,735.5865],[-108.6624,27.6507,771.9313],[-108.6604,27.6485,800.6416],[-108.6539,27.6494,838.0909],[-108.652,27.6474,798.4559],[-108.6445,27.6496,849.4713],[-108.6443,27.6508,899.7573],[-108.6724,27.6762,1266.23],[-108.6337,27.71,1584.6663],[-108.6351,27.7183,1498.6138],[-108.6314,27.7215,1464.3188],[-108.6276,27.7205,1433.0366],[-108.6259,27.7231,1419.6542],[-108.626,27.7272,1375.4326],[-108.6285,27.7363,1271.4971],[-108.6322,27.7418,1333.7882],[-108.631,27.7442,1394.1768],[-108.6319,27.7471,1381.1102],[-108.639,27.7476,1397.0369],[-108.6466,27.7551,1522.9667],[-108.6552,27.76,1746.463],[-108.6554,27.7624,1793.8373],[-108.6456,27.7674,1642.3027],[-108.6431,27.763,1564.8036],[-108.6374,27.7597,1463.4302],[-108.6381,27.7682,1601.2349],[-108.6298,27.7802,2011.573],[-108.6154,27.7841,2328.1577],[-108.6088,27.789,2065.5046],[-108.6069,27.7919,2198.6123],[-108.6071,27.7955,2121.7874],[-108.5295,27.8028,2151.8601],[-108.5164,27.7788,1806.3777],[-108.5153,27.7796,1876.7715],[-108.5101,27.7767,1929.3652],[-108.4999,27.7577,2307.4377],[-108.4759,27.7755,1850.5039],[-108.4689,27.7766,1815.1582],[-108.4612,27.7747,1833.8973],[-108.4562,27.7766,1790.5182],[-108.4475,27.7746,1736.0831],[-108.4328,27.7837,1733.9077],[-108.4177,27.7605,1764.6581],[-108.4234,27.7554,1608.87],[-108.4215,27.7563,1588.8069],[-108.42,27.7542,1599.1569],[-108.4182,27.7575,1708.8997],[-108.4093,27.7597,1887.5144],[-108.3968,27.7555,1814.2476],[-108.3963,27.748,1775.9493],[-108.3921,27.7411,1779.4799],[-108.3933,27.735,1757.6089],[-108.3904,27.7315,1703.1808],[-108.3892,27.7256,1618.879],[-108.3849,27.7225,1573.5767],[-108.385,27.7167,1567.8052],[-108.3774,27.7173,1359.968],[-108.3725,27.7053,785.2242],[-108.3688,27.7017,695.4435],[-108.3684,27.6998,640.0225],[-108.3764,27.6923,727.8438],[-108.3774,27.688,623.016],[-108.3817,27.6835,603.3912],[-108.3815,27.6812,608.6241],[-108.3293,27.7111,1428.1309],[-108.3215,27.7365,1580.5645],[-108.3317,27.7466,741.2],[-108.2919,27.74,2229.3174],[-108.2846,27.7205,1438.7911],[-108.2684,27.6938,1833.3102]]]]}}