{"type": "Feature","bbox": [-96.7631,17.8672,-96.7095,17.966],"geometry": {"type": "MultiPolygon","coordinates": [[[[-96.7431,17.966,1101.1229],[-96.748,17.9511,1377.8264],[-96.7428,17.9467,1472.9023],[-96.7411,17.9409,1665.6157],[-96.7428,17.9256,1880.2999],[-96.7524,17.9169,2070.8818],[-96.7508,17.9073,2223.4182],[-96.758,17.8924,2248.8616],[-96.7608,17.8908,2484.7937],[-96.7631,17.8784,2479.9373],[-96.7624,17.8672,2259.5283],[-96.7501,17.8792,1581.4568],[-96.7421,17.8826,1383.9741],[-96.7307,17.8923,1176.635],[-96.739,17.8961,1397.4531],[-96.7372,17.898,1493.489],[-96.7404,17.9068,1841.1298],[-96.7317,17.9159,1362.8306],[-96.7245,17.9167,1108.3425],[-96.7214,17.9229,1100.6124],[-96.715,17.9235,1396.3933],[-96.7129,17.9222,1414.21],[-96.7099,17.9265,1499.6873],[-96.7095,17.9294,1309.5723],[-96.7144,17.9468,955.7894],[-96.7222,17.9545,700.5977],[-96.732,17.9595,997.6258],[-96.738,17.9652,1166.1283],[-96.7431,17.966,1101.1229]]]]}
,"properties": {"GID_2": "MEX.20.441_2","GID_0": "MEX","country": "México","GID_1": "MEX.20_1","province": "Oaxaca","NL_NAME_1": "NA","county": "SantaMaríaTlalixtac","VARNAME_2": "NA","NL_NAME_2": "NA","TYPE_2": "Município","ENGTYPE_2": "Municipality","CC_2": "NA","HASC_2": "NA","name": "Santa_María_Tlalixtac.county","area_km2": 24.06693,"hist_schema_id": "Elevation0-9000","hist_area_km2": {"675": 0.04034,"700": 0.12102,"725": 0.14119,"750": 0.16136,"775": 0.14119,"800": 0.28239,"825": 0.10085,"850": 0.22188,"875": 0.20171,"900": 0.28239,"925": 0.44377,"950": 0.48411,"975": 0.38324,"1000": 0.42359,"1025": 0.32275,"1050": 0.50428,"1075": 0.40343,"1100": 0.36307,"1125": 0.56478,"1150": 0.46393,"1175": 0.40342,"1200": 0.46393,"1225": 0.58497,"1250": 0.44378,"1275": 0.44379,"1300": 0.58499,"1325": 0.36311,"1350": 0.40348,"1375": 0.56485,"1400": 0.38331,"1425": 0.48415,"1450": 0.50434,"1475": 0.50435,"1500": 0.46401,"1525": 0.60523,"1550": 0.5447,"1575": 0.88765,"1600": 0.52451,"1625": 0.44384,"1650": 0.72627,"1675": 0.44384,"1700": 0.5649,"1725": 0.50437,"1750": 0.44386,"1775": 0.5649,"1800": 0.48421,"1825": 0.34298,"1850": 0.46403,"1875": 0.30263,"1900": 0.42368,"1925": 0.30263,"1950": 0.26229,"1975": 0.42371,"2000": 0.36318,"2025": 0.16141,"2050": 0.20176,"2075": 0.20176,"2100": 0.14124,"2125": 0.04035,"2150": 0.24213,"2175": 0.16142,"2200": 0.08071,"2225": 0.12107,"2250": 0.08071,"2275": 0.04036,"2300": 0.02018,"2325": 0.02018,"2350": 0.02018,"2375": 0.06053,"2400": 0.08071,"2425": 0.08071,"2450": 0.04035}}}