{"type":"Feature","properties":{"GID_2":"MEX.32.43_2","GID_0":"MEX","country":"México","GID_1":"MEX.32_1","province":"Zacatecas","NL_NAME_1":"NA","county":"Susticacán","VARNAME_2":"NA","NL_NAME_2":"NA","TYPE_2":"Município","ENGTYPE_2":"Municipality","CC_2":"NA","HASC_2":"NA","name":"Susticacán.county"},
"geometry":{"type": "MultiPolygon","coordinates": [[[[-103.2162,22.6953,2816.3164],[-103.2231,22.6873,2704.6235],[-103.2221,22.68,2592.2734],[-103.2236,22.6788,2581.5996],[-103.2414,22.6797,2508.0105],[-103.2503,22.6787,2465.7681],[-103.2547,22.6766,2407.8452],[-103.2639,22.678,2359.4468],[-103.2695,22.6752,2322.0723],[-103.273,22.6779,2286.5811],[-103.2777,22.677,2271.6084],[-103.2791,22.674,2285.2839],[-103.2835,22.6754,2259.5574],[-103.2858,22.6726,2249.77],[-103.2893,22.6716,2255.8057],[-103.2885,22.6683,2332.5938],[-103.2927,22.6575,2523.2161],[-103.2949,22.6552,2573.1912],[-103.2964,22.6571,2541.9043],[-103.3012,22.6582,2573.0854],[-103.3028,22.6545,2362.3557],[-103.3001,22.6476,2712.8877],[-103.3014,22.6397,2746.4324],[-103.305,22.635,2784.1196],[-103.2999,22.6309,2770.5872],[-103.3023,22.628,2805.0898],[-103.3007,22.6281,2807.6614],[-103.3008,22.6266,2794.082],[-103.3052,22.6239,2762.3818],[-103.3009,22.6239,2789.8708],[-103.2896,22.6198,2843.4055],[-103.2871,22.6224,2835.437],[-103.2843,22.6218,2776.5283],[-103.2802,22.6139,2736.6091],[-103.2756,22.6117,2767.3254],[-103.2735,22.6074,2681.822],[-103.2699,22.6097,2619.5261],[-103.2699,22.6076,2583.7559],[-103.2662,22.6057,2583.5762],[-103.2614,22.606,2512.2197],[-103.2499,22.6012,2366.9382],[-103.2501,22.5996,2307.5205],[-103.2413,22.5975,2245.7158],[-103.2409,22.5961,2230.4202],[-103.2472,22.5901,2301.4309],[-103.2474,22.5849,2452.1543],[-103.2514,22.5827,2546.7864],[-103.2526,22.5779,2562.6309],[-103.2408,22.5737,2595.4658],[-103.2425,22.573,2545.2153],[-103.2429,22.5687,2652.866],[-103.2352,22.5676,2753.1067],[-103.2311,22.5634,2790.7844],[-103.2088,22.5717,2331.6394],[-103.1959,22.569,2111.23],[-103.1983,22.5741,2136.5376],[-103.1968,22.5751,2143.8828],[-103.1972,22.5783,2128.8215],[-103.2006,22.5809,2145.395],[-103.202,22.5857,2158.1882],[-103.194,22.593,2216.2231],[-103.1927,22.5999,2287.5933],[-103.1943,22.6022,2398.9656],[-103.1904,22.6066,2257.6748],[-103.1869,22.6076,2217.8203],[-103.1752,22.6045,2162.6863],[-103.1714,22.6071,2129.2532],[-103.1721,22.6027,2137.8896],[-103.1681,22.5997,2133.4097],[-103.1694,22.5992,2133.4097],[-103.1677,22.5947,2177.3196],[-103.1631,22.592,2189.6912],[-103.1559,22.591,2285.6348],[-103.1494,22.5927,2344.863],[-103.1334,22.5906,2325.6641],[-103.1313,22.5881,2327.5239],[-103.1313,22.5831,2221.3613],[-103.1288,22.5829,2180.0889],[-103.1259,22.5762,2131.8188],[-103.1221,22.5741,2108.1416],[-103.1093,22.5721,2081.5415],[-103.1062,22.5769,2100.2756],[-103.0978,22.5798,2126.3333],[-103.0945,22.5937,2035.0116],[-103.0919,22.5959,2026.1011],[-103.0868,22.596,2015.3289],[-103.0834,22.5982,2006.103],[-103.0792,22.6118,2060.0027],[-103.0841,22.6222,2110.9783],[-103.0821,22.6241,2131.1128],[-103.0833,22.6263,2147.8142],[-103.0824,22.6299,2185.1147],[-103.0854,22.6318,2240.3855],[-103.0862,22.6409,2392.498],[-103.0962,22.6422,2325.6902],[-103.1039,22.6497,2342.1609],[-103.1061,22.6491,2346.9551],[-103.1134,22.6522,2384.752],[-103.1157,22.6497,2290.4778],[-103.1148,22.646,2286.0156],[-103.1194,22.6361,2136.457],[-103.1197,22.6379,2135.4719],[-103.1255,22.6401,2270.5305],[-103.1254,22.6422,2301.1367],[-103.1291,22.6452,2346.7852],[-103.1327,22.6445,2342.9121],[-103.1365,22.6481,2389.4539],[-103.1376,22.6554,2494.4741],[-103.1415,22.6563,2501.1445],[-103.1445,22.6591,2493.4944],[-103.1445,22.6656,2498.4102],[-103.1514,22.6667,2513.3589],[-103.1569,22.6711,2571.7231],[-103.1569,22.674,2563.6255],[-103.1544,22.676,2572.1458],[-103.1491,22.678,2629.2671],[-103.1483,22.6798,2622.5269],[-103.1436,22.6803,2658.0952],[-103.1443,22.6828,2639.2288],[-103.1495,22.6838,2584.8835],[-103.1529,22.6906,2488.9443],[-103.1568,22.6911,2482.5747],[-103.162,22.6872,2475.0364],[-103.1656,22.6898,2483.0752],[-103.1681,22.6964,2559.7153],[-103.1704,22.6934,2567.7866],[-103.1767,22.6913,2570.2546],[-103.1844,22.6847,2560.6042],[-103.1877,22.6842,2660.1956],[-103.1887,22.6819,2622.4312],[-103.1956,22.6909,2797.1709],[-103.1995,22.6934,2713.1072],[-103.201,22.6941,2659.3401],[-103.207,22.6893,2722.4355],[-103.2104,22.6896,2749.0845],[-103.2162,22.6953,2816.3164]]]]}}