{"type": "Feature","bbox": [-91.3908,16.0743,-91.116,16.3529],"geometry": {"type": "MultiPolygon","coordinates": [[[[-91.1658,16.0743,605.4822],[-91.1668,16.0778,513.0294],[-91.1626,16.127,281.0025],[-91.15,16.1372,170.5237],[-91.116,16.1725,582.5485],[-91.1646,16.2204,293.9689],[-91.1497,16.2625,535.3422],[-91.1807,16.2667,380.5564],[-91.179,16.2703,353.2483],[-91.1799,16.2731,326.2636],[-91.1771,16.2789,275.6929],[-91.1731,16.2989,248.7223],[-91.172,16.3191,339.6994],[-91.1521,16.303,595.8591],[-91.1354,16.3273,426.319],[-91.1308,16.3391,472.6857],[-91.1645,16.3529,509.3372],[-91.1803,16.3273,238.1883],[-91.198,16.3204,207.7461],[-91.2013,16.3227,213.9425],[-91.2003,16.3254,213.8111],[-91.2068,16.3283,221.4749],[-91.2058,16.3303,211.1353],[-91.2114,16.3304,212.1084],[-91.2149,16.3333,224.5264],[-91.2251,16.3357,222.7318],[-91.2333,16.3442,341.4896],[-91.2326,16.3346,248.2627],[-91.2343,16.3281,301.6152],[-91.2305,16.3067,246.1026],[-91.2389,16.2958,253.9834],[-91.2401,16.259,198.9934],[-91.2438,16.2642,195.0961],[-91.2487,16.2672,192.2941],[-91.2542,16.2661,197.3171],[-91.2714,16.2701,201.3467],[-91.273,16.2721,198.9451],[-91.2773,16.2686,197.1494],[-91.2808,16.2755,190.1805],[-91.2757,16.2968,206.4955],[-91.283,16.3023,237.6103],[-91.2851,16.2934,239.6198],[-91.2913,16.2824,200.9089],[-91.3021,16.2886,206.0108],[-91.3063,16.3038,191.0559],[-91.3023,16.3144,196.9218],[-91.3119,16.3133,219.8423],[-91.3573,16.2901,476.4447],[-91.3657,16.2614,222.8002],[-91.3684,16.2606,222.3651],[-91.3706,16.247,215.7841],[-91.373,16.2449,235.1925],[-91.39,16.2596,248.0776],[-91.3875,16.2525,407.1277],[-91.3886,16.2528,407.1277],[-91.39,16.246,488.5155],[-91.3854,16.2307,457.2664],[-91.3908,16.228,613.4551],[-91.3794,16.2085,333.2114],[-91.3684,16.2005,393.3192],[-91.3593,16.2034,334.6757],[-91.3502,16.2041,341.5023],[-91.3407,16.2026,326.6183],[-91.3419,16.196,290.9335],[-91.3441,16.1964,288.1927],[-91.3464,16.1943,296.5964],[-91.3503,16.1863,285.25],[-91.3465,16.1767,310.4163],[-91.342,16.1741,312.0435],[-91.3404,16.1678,293.6723],[-91.3556,16.1474,485.0435],[-91.3399,16.1255,519.2963],[-91.3459,16.1238,669.2184],[-91.3398,16.1151,640.1344],[-91.3277,16.1204,644.4045],[-91.3093,16.1087,465.6342],[-91.3107,16.1072,465.6342],[-91.3048,16.1078,316.134],[-91.2967,16.0744,871.3736],[-91.1658,16.0743,605.4822]]]]}
,"properties": {"GID_2": "MEX.5.58_2","GID_0": "MEX","country": "México","GID_1": "MEX.5_1","province": "Chiapas","NL_NAME_1": "NA","county": "MaravillaTenejapa","VARNAME_2": "NA","NL_NAME_2": "NA","TYPE_2": "Município","ENGTYPE_2": "Municipality","CC_2": "NA","HASC_2": "NA","name": "Maravilla_Tenejapa.county","area_km2": 544.3152,"hist_schema_id": "Elevation0-9000","hist_area_km2": {"175": 9.752,"200": 64.9793,"225": 73.9532,"250": 31.4509,"275": 21.6421,"300": 28.0802,"325": 29.7518,"350": 20.8718,"375": 22.0936,"400": 22.9273,"425": 24.6977,"450": 24.5762,"475": 26.2456,"500": 25.4317,"525": 24.8619,"550": 22.867,"575": 17.4096,"600": 13.1341,"625": 9.5095,"650": 7.3106,"675": 5.3356,"700": 4.7246,"725": 3.1973,"750": 1.9959,"775": 1.4256,"800": 0.9368,"825": 1.2423,"850": 0.8147,"875": 0.5296,"900": 0.6722,"925": 0.5092,"950": 0.4685,"975": 0.4277,"1000": 0.2037,"1025": 0.2241,"1075": 0.0611}}}