{"type":"Feature","properties":{"GID_2":"MEX.15.32_2","GID_0":"MEX","country":"México","GID_1":"MEX.15_1","province":"México","NL_NAME_1":"NA","county":"CuautitlánIzcalli","VARNAME_2":"NA","NL_NAME_2":"NA","TYPE_2":"Município","ENGTYPE_2":"Municipality","CC_2":"NA","HASC_2":"NA","name":"Cuautitlán_Izcalli.county"},
"geometry":{"type": "MultiPolygon","coordinates": [[[[-99.2118,19.5956,2317.1221],[-99.2095,19.5922,2351.5767],[-99.2097,19.5892,2381.4863],[-99.196,19.5901,2399.8259],[-99.1914,19.5857,2271.7922],[-99.1858,19.5935,2263.9458],[-99.1859,19.5984,2263.7534],[-99.1881,19.5982,2264.6904],[-99.187,19.6065,2262.7305],[-99.1898,19.6084,2257.7375],[-99.1933,19.6294,2252.3369],[-99.1848,19.6294,2249.5776],[-99.1844,19.6456,2261.325],[-99.182,19.6611,2252.8328],[-99.1844,19.6615,2252.5642],[-99.1841,19.6684,2253.7454],[-99.1926,19.6677,2256.8677],[-99.1912,19.669,2254.3577],[-99.1913,19.6734,2253.9128],[-99.1882,19.6728,2252.5374],[-99.1882,19.671,2253.2024],[-99.185,19.672,2257.2847],[-99.1835,19.6785,2251.9778],[-99.179,19.6778,2252.9902],[-99.1755,19.68,2251.4099],[-99.1759,19.7273,2246.5771],[-99.1872,19.7281,2250.8928],[-99.1907,19.7298,2253.0374],[-99.1947,19.7156,2256.7666],[-99.1992,19.7086,2255.2788],[-99.2071,19.703,2261.0376],[-99.2186,19.7011,2260.6946],[-99.2196,19.7047,2261.7346],[-99.2231,19.7048,2264.0989],[-99.2249,19.7026,2262.6558],[-99.2324,19.7016,2264.8267],[-99.2388,19.6978,2267.7937],[-99.2403,19.6931,2269.2837],[-99.2427,19.6928,2269.7676],[-99.2432,19.6944,2270.9968],[-99.2496,19.6922,2272.3733],[-99.2548,19.6925,2274.843],[-99.2567,19.6894,2276.9702],[-99.2607,19.6913,2278.5212],[-99.2622,19.6902,2279.0273],[-99.2695,19.6907,2286.8613],[-99.271,19.6887,2287.6599],[-99.271,19.6645,2304.6646],[-99.2758,19.6616,2308.2046],[-99.2786,19.6628,2310.6514],[-99.2894,19.6469,2364.2083],[-99.2897,19.6441,2371.7463],[-99.2835,19.6369,2311.8806],[-99.2842,19.6354,2321.1897],[-99.2824,19.6356,2308.4797],[-99.2791,19.6254,2303.0],[-99.2773,19.628,2319.3608],[-99.2746,19.6268,2303.0],[-99.2765,19.6145,2369.9756],[-99.2699,19.6083,2351.7451],[-99.2581,19.6086,2386.967],[-99.2472,19.6068,2366.2246],[-99.2415,19.6122,2339.0188],[-99.2171,19.6042,2302.2417],[-99.2118,19.5956,2317.1221]]]]}}