{"type":"Feature","properties":{"GID_2":"MEX.13.15_2","GID_0":"MEX","country":"México","GID_1":"MEX.13_1","province":"Hidalgo","NL_NAME_1":"NA","county":"Chapantongo","VARNAME_2":"NA","NL_NAME_2":"NA","TYPE_2":"Município","ENGTYPE_2":"Municipality","CC_2":"NA","HASC_2":"NA","name":"Chapantongo.county"},
"geometry":{"type": "MultiPolygon","coordinates": [[[[-99.5308,20.3259,2544.1709],[-99.5368,20.3175,2542.9678],[-99.5412,20.3058,2554.7241],[-99.5444,20.3055,2541.0076],[-99.5433,20.3034,2558.6411],[-99.5487,20.3016,2549.197],[-99.5517,20.2961,2572.7041],[-99.5568,20.2947,2531.9968],[-99.5575,20.2928,2534.9331],[-99.5499,20.2797,2517.3003],[-99.5494,20.2754,2505.2739],[-99.5515,20.2745,2505.7964],[-99.5531,20.276,2507.3103],[-99.576,20.2799,2630.2544],[-99.5906,20.2718,2651.7517],[-99.5839,20.2663,2584.4634],[-99.5777,20.2552,2498.1506],[-99.5815,20.251,2521.0142],[-99.5898,20.2475,2519.7788],[-99.5921,20.2365,2422.0803],[-99.5616,20.2391,2428.113],[-99.5594,20.2304,2396.6455],[-99.5596,20.2221,2374.907],[-99.5649,20.2081,2343.0476],[-99.5626,20.2056,2336.1145],[-99.5528,20.2059,2328.4404],[-99.5423,20.1974,2305.8696],[-99.5448,20.1904,2301.73],[-99.5399,20.1872,2285.1743],[-99.5363,20.187,2312.0723],[-99.531,20.1789,2308.1443],[-99.529,20.1819,2315.321],[-99.5317,20.1864,2310.1187],[-99.5279,20.1903,2307.0547],[-99.5298,20.1903,2307.0547],[-99.5207,20.1938,2278.6809],[-99.5053,20.1605,2384.7388],[-99.4966,20.1554,2366.4282],[-99.4937,20.1499,2365.113],[-99.492,20.1503,2361.687],[-99.4942,20.1585,2365.3601],[-99.4888,20.1637,2371.4109],[-99.4867,20.17,2386.7861],[-99.4695,20.1643,2731.218],[-99.4667,20.1772,2653.5759],[-99.4578,20.1826,2602.8677],[-99.4583,20.1882,2585.2808],[-99.448,20.1915,2440.2446],[-99.4507,20.1989,2322.561],[-99.4475,20.2057,2264.4487],[-99.4501,20.2149,2222.0229],[-99.4541,20.221,2264.4622],[-99.4471,20.2264,2262.5815],[-99.4422,20.2349,2244.0488],[-99.4514,20.2489,2211.2354],[-99.4497,20.2501,2211.2354],[-99.437,20.2547,2236.8921],[-99.4173,20.2687,2197.8271],[-99.4139,20.2683,2166.0957],[-99.4152,20.2635,2183.0371],[-99.4112,20.2628,2151.3279],[-99.4086,20.2676,2145.4224],[-99.4093,20.2748,2145.1479],[-99.4075,20.2758,2141.7878],[-99.3991,20.2702,2164.4014],[-99.3993,20.2662,2181.0728],[-99.3946,20.2619,2218.0737],[-99.3947,20.2587,2251.5662],[-99.3918,20.2576,2263.4697],[-99.3904,20.255,2288.2822],[-99.3845,20.2548,2338.2085],[-99.3723,20.2588,2610.3901],[-99.3632,20.2564,2686.7327],[-99.339,20.2543,2215.8628],[-99.3367,20.2528,2200.9148],[-99.3385,20.2606,2231.2847],[-99.3368,20.2697,2281.7585],[-99.3383,20.2758,2351.02],[-99.3418,20.2828,2521.0776],[-99.349,20.2882,2497.2502],[-99.3513,20.2983,2237.5583],[-99.3574,20.3027,2189.2395],[-99.3595,20.3071,2135.7334],[-99.3504,20.3054,2314.6938],[-99.3504,20.3086,2334.9922],[-99.3477,20.3084,2335.4976],[-99.3466,20.3105,2368.3462],[-99.3445,20.31,2367.6138],[-99.3424,20.3057,2425.3464],[-99.3395,20.3071,2405.5667],[-99.3491,20.3211,2096.9705],[-99.3495,20.3232,2079.9656],[-99.3464,20.3264,2046.7224],[-99.3457,20.3324,2007.2848],[-99.3472,20.3348,1999.3125],[-99.3464,20.3371,1988.5],[-99.3487,20.3369,1992.4406],[-99.3514,20.3393,2001.5981],[-99.3559,20.3378,2003.6866],[-99.3635,20.3393,2026.4946],[-99.3671,20.3373,2026.3074],[-99.3699,20.338,2033.3364],[-99.3742,20.3336,2041.137],[-99.3797,20.3317,2046.5354],[-99.3814,20.3276,2055.3823],[-99.3972,20.3196,2084.2051],[-99.402,20.3246,2082.751],[-99.406,20.3235,2089.3477],[-99.4107,20.3257,2103.2441],[-99.4124,20.3239,2100.5349],[-99.4149,20.3252,2114.104],[-99.4204,20.3237,2126.1406],[-99.4249,20.325,2141.4253],[-99.4355,20.321,2232.0288],[-99.4416,20.327,2306.4597],[-99.4637,20.3288,2557.6885],[-99.4716,20.3335,2614.2148],[-99.4748,20.3326,2677.1409],[-99.4772,20.334,2679.8098],[-99.4803,20.3314,2695.0791],[-99.4967,20.3346,2558.6882],[-99.5045,20.3255,2547.8696],[-99.5133,20.3253,2545.8374],[-99.5153,20.3269,2543.335],[-99.5238,20.3255,2548.2285],[-99.5265,20.3276,2542.8579],[-99.5308,20.3259,2544.1709]]]]}}