{"type":"Feature","properties":{"GID_2":"MEX.21.67_2","GID_0":"MEX","country":"México","GID_1":"MEX.21_1","province":"Puebla","NL_NAME_1":"NA","county":"Guadalupe","VARNAME_2":"NA","NL_NAME_2":"NA","TYPE_2":"Município","ENGTYPE_2":"Municipality","CC_2":"NA","HASC_2":"NA","name":"Guadalupe.county"},
"geometry":{"type": "MultiPolygon","coordinates": [[[[-98.1299,17.978,1106.8259],[-98.1321,17.9834,1115.0385],[-98.1308,17.988,1129.2711],[-98.1164,17.9824,1347.7932],[-98.1151,17.9792,1163.0472],[-98.113,17.9784,1153.4653],[-98.111,17.9818,1147.3037],[-98.1068,17.9834,1152.3557],[-98.1096,17.9911,1197.595],[-98.1096,18.0012,1233.5222],[-98.1042,18.0078,1261.1115],[-98.1053,18.0132,1310.2773],[-98.1115,18.0242,1211.8313],[-98.1037,18.0219,1245.5697],[-98.1008,18.025,1268.3075],[-98.1,18.0277,1322.0491],[-98.1017,18.0323,1239.9731],[-98.1054,18.035,1229.6438],[-98.1012,18.0375,1255.174],[-98.1029,18.0462,1439.0536],[-98.1005,18.0474,1333.4393],[-98.0997,18.0506,1251.4141],[-98.1045,18.0542,1183.238],[-98.1074,18.0596,1149.4133],[-98.1042,18.0609,1155.478],[-98.1026,18.0657,1168.5366],[-98.1007,18.0643,1163.7217],[-98.0959,18.0666,1170.2579],[-98.0957,18.0738,1161.4768],[-98.0926,18.0763,1158.6909],[-98.0931,18.0777,1148.6844],[-98.0949,18.0774,1145.3611],[-98.0943,18.0821,1138.7603],[-98.0964,18.0833,1159.4846],[-98.0951,18.0848,1145.7576],[-98.0964,18.0897,1115.9849],[-98.098,18.0882,1146.5693],[-98.0996,18.0902,1110.9561],[-98.0987,18.0959,1094.6223],[-98.1037,18.0957,1088.1378],[-98.1042,18.092,1099.8945],[-98.1123,18.0923,1085.3328],[-98.113,18.0946,1101.936],[-98.1178,18.0944,1083.2615],[-98.1103,18.104,1094.7177],[-98.1114,18.1055,1105.4075],[-98.1133,18.104,1100.8562],[-98.115,18.105,1098.7867],[-98.1167,18.1146,1132.5814],[-98.1203,18.1175,1143.701],[-98.1194,18.12,1121.5181],[-98.1242,18.1208,1137.2993],[-98.1272,18.1239,1146.976],[-98.131,18.1221,1157.9585],[-98.131,18.1236,1157.9585],[-98.1366,18.124,1164.7375],[-98.139,18.1264,1181.4283],[-98.1393,18.1238,1175.9302],[-98.1414,18.1232,1182.8822],[-98.1443,18.1241,1184.8655],[-98.1464,18.1282,1183.8127],[-98.156,18.129,1208.0233],[-98.1605,18.1319,1237.9885],[-98.1623,18.1303,1227.2546],[-98.1626,18.132,1227.3008],[-98.1654,18.1316,1238.5181],[-98.1647,18.1281,1258.8955],[-98.1659,18.1261,1304.1917],[-98.1699,18.1283,1288.2419],[-98.1712,18.1174,1224.0093],[-98.1739,18.1175,1196.6481],[-98.173,18.1049,1157.8826],[-98.1745,18.1027,1140.9683],[-98.1925,18.0969,1298.6904],[-98.2002,18.1016,1374.2827],[-98.2097,18.0967,1252.7394],[-98.2078,18.0939,1240.2103],[-98.2032,18.0923,1209.8524],[-98.2041,18.0882,1172.6178],[-98.1987,18.083,1139.1753],[-98.1983,18.0795,1118.9524],[-98.2009,18.0745,1077.0826],[-98.1995,18.07,1022.436],[-98.2073,18.0684,1020.8402],[-98.2082,18.0672,1020.8402],[-98.2069,18.0627,1014.1539],[-98.2108,18.0615,1011.7217],[-98.2091,18.0516,1064.7922],[-98.2116,18.0453,1121.9698],[-98.2084,18.0436,1135.1907],[-98.2042,18.0444,1117.9469],[-98.2018,18.0411,1119.2111],[-98.1963,18.0386,1209.0648],[-98.1939,18.0349,1213.3815],[-98.1884,18.0329,1207.9706],[-98.1899,18.0218,1125.9292],[-98.1842,18.018,1090.7427],[-98.1845,18.0161,1076.5576],[-98.1795,18.0154,1089.8076],[-98.185,18.0108,1104.7178],[-98.1841,18.0056,1134.321],[-98.1877,18.0049,1107.7439],[-98.1893,17.9886,1156.4924],[-98.1948,17.987,1096.0328],[-98.2019,17.9886,1003.6965],[-98.2042,17.9757,1093.7098],[-98.2023,17.972,1011.8817],[-98.1989,17.9711,994.0145],[-98.1944,17.9717,1096.9288],[-98.1909,17.9743,1016.9414],[-98.1853,17.9726,1014.4227],[-98.1835,17.9791,1007.7728],[-98.1806,17.978,1017.8452],[-98.1768,17.9824,1000.1772],[-98.1734,17.9697,1011.8249],[-98.1669,17.9676,1020.4788],[-98.162,17.9679,1018.0208],[-98.1567,17.9728,1029.506],[-98.1532,17.9679,1023.4138],[-98.1484,17.9719,1033.0928],[-98.1441,17.9706,1043.3738],[-98.1442,17.9719,1043.3738],[-98.1401,17.9724,1077.2958],[-98.1375,17.9757,1075.7169],[-98.1344,17.9746,1091.1516],[-98.1347,17.9759,1101.3573],[-98.1299,17.978,1106.8259]]]]}}