{"type":"Feature","properties":{"GID_2":"MEX.10.20_2","GID_0":"MEX","country":"México","GID_1":"MEX.10_1","province":"Durango","NL_NAME_1":"NA","county":"Otáez","VARNAME_2":"NA","NL_NAME_2":"NA","TYPE_2":"Município","ENGTYPE_2":"Municipality","CC_2":"NA","HASC_2":"NA","name":"Otáez.county"},
"geometry":{"type": "MultiPolygon","coordinates": [[[[-105.6863,24.6001,2539.4695],[-105.7028,24.6228,2433.5215],[-105.7169,24.639,2197.5979],[-105.7088,24.6378,2235.335],[-105.6966,24.6398,2247.2288],[-105.7024,24.6497,2368.9395],[-105.6833,24.6508,2334.0652],[-105.6785,24.6526,2447.8723],[-105.6786,24.6563,2257.4639],[-105.6855,24.6556,2221.364],[-105.6768,24.6609,2213.1433],[-105.6754,24.6683,2226.97],[-105.668,24.6716,2211.4607],[-105.6688,24.6807,2234.9827],[-105.6666,24.682,2230.1802],[-105.6665,24.6867,2295.4263],[-105.6625,24.6913,2254.7957],[-105.6625,24.6965,2344.0999],[-105.6461,24.7271,2440.8813],[-105.6343,24.753,2466.6245],[-105.6455,24.7534,2527.6677],[-105.6483,24.7946,2483.0745],[-105.7085,24.793,2419.9197],[-105.7089,24.8364,2396.6423],[-105.7294,24.8448,2213.5232],[-105.729,24.8302,2437.6191],[-105.8866,24.8822,2735.3384],[-105.9025,24.9185,2750.4932],[-105.9076,24.9184,2718.0261],[-105.9163,24.9226,2740.4421],[-105.9186,24.9224,2670.1426],[-105.9206,24.9202,2710.9292],[-105.9266,24.9185,2733.2783],[-105.9275,24.9136,2671.0171],[-105.9329,24.917,2685.2136],[-105.937,24.9111,2773.7393],[-105.9381,24.9136,2764.7856],[-105.9449,24.9113,2754.0527],[-105.9449,24.9145,2764.6863],[-105.9467,24.9162,2752.231],[-105.9487,24.9156,2746.4966],[-105.9475,24.9141,2745.7974],[-105.9534,24.9069,2777.1348],[-105.9589,24.9058,2733.46],[-105.9636,24.9018,2723.3091],[-105.972,24.9003,2750.3684],[-105.9731,24.8962,2756.8723],[-105.9761,24.893,2763.1858],[-105.982,24.8927,2779.6519],[-105.9797,24.883,2889.9399],[-105.9804,24.8791,2853.7224],[-105.9765,24.8749,2803.3191],[-105.9806,24.8687,2752.3838],[-105.9789,24.866,2748.4102],[-105.9815,24.8643,2688.3958],[-105.9797,24.8609,2670.0691],[-105.9803,24.859,2682.6055],[-105.9849,24.8574,2765.5112],[-105.9859,24.8524,2727.0215],[-105.9808,24.8424,2747.3259],[-105.9885,24.8432,2741.6118],[-105.9868,24.8346,2638.6553],[-105.9898,24.8322,2651.6089],[-105.9964,24.8319,2560.4692],[-105.9933,24.8281,2540.0586],[-105.9938,24.8251,2589.2451],[-105.9988,24.8285,2604.8774],[-106.003,24.8286,2643.1365],[-106.0065,24.8262,2657.3057],[-106.0049,24.8223,2688.4177],[-106.006,24.8193,2600.6519],[-106.003,24.8176,2604.8623],[-106.0059,24.8173,2576.5444],[-106.0067,24.8155,2589.4292],[-106.015,24.8183,2633.0244],[-106.0179,24.813,2586.1985],[-106.0197,24.8126,2566.1157],[-106.0233,24.8152,2616.0259],[-106.0242,24.813,2620.1899],[-106.0281,24.8125,2609.0769],[-106.0303,24.8165,2639.4136],[-106.0332,24.8164,2639.8743],[-106.0346,24.8145,2645.0671],[-106.0366,24.8154,2618.2261],[-106.0382,24.8192,2639.2449],[-106.0438,24.8228,2677.8213],[-106.0524,24.8238,2700.2515],[-106.0569,24.8045,2627.9702],[-106.0931,24.8125,2784.6223],[-106.1348,24.7926,2229.3115],[-106.2033,24.8039,1582.2478],[-106.2227,24.7375,2528.575],[-106.1506,24.7337,2166.9407],[-106.2272,24.6813,2573.979],[-106.2018,24.6426,1918.8408],[-106.197,24.6098,1721.9407],[-106.2007,24.6043,1665.1766],[-106.1684,24.581,1447.4703],[-106.1767,24.56,621.9484],[-106.1669,24.561,636.7947],[-106.1663,24.5535,772.4138],[-106.1633,24.5505,722.4623],[-106.1582,24.5493,649.3023],[-106.1551,24.5402,700.1638],[-106.1521,24.5367,685.4036],[-106.1469,24.5391,700.6987],[-106.1435,24.5388,761.5205],[-106.1411,24.5356,672.5947],[-106.1357,24.5353,710.2407],[-106.13,24.5296,696.8326],[-106.1222,24.5306,786.5869],[-106.1191,24.5286,731.2654],[-106.1149,24.5332,718.63],[-106.1061,24.5307,725.2469],[-106.0993,24.5311,749.4442],[-106.0921,24.5241,731.1758],[-106.0881,24.5283,770.8419],[-106.0844,24.526,753.5471],[-106.0794,24.5276,768.8391],[-106.0752,24.5262,763.9937],[-106.0658,24.5271,814.4032],[-106.0387,24.5391,943.472],[-106.0161,24.5069,1970.1254],[-106.0177,24.5042,1997.6343],[-106.0001,24.4983,2422.2729],[-105.9867,24.5045,2442.9221],[-105.9847,24.5082,2427.9797],[-105.9824,24.5205,2286.8315],[-105.9864,24.5497,1452.8237],[-105.9977,24.5563,919.6088],[-105.9907,24.5559,915.0744],[-105.9872,24.5618,934.1567],[-105.9846,24.561,937.2441],[-105.9818,24.5568,954.0294],[-105.978,24.5555,968.68],[-105.9725,24.5559,959.7753],[-105.9684,24.5587,988.4997],[-105.9631,24.5588,1032.391],[-105.9582,24.5498,970.5965],[-105.9541,24.5518,994.1746],[-105.9505,24.5499,991.6791],[-105.9478,24.5526,1019.3359],[-105.941,24.5501,997.5433],[-105.9347,24.5534,1021.665],[-105.9303,24.5538,1072.2742],[-105.9251,24.5515,1026.4108],[-105.9189,24.552,1056.859],[-105.9086,24.5464,1057.547],[-105.9032,24.5499,1183.4048],[-105.8949,24.5432,1251.9043],[-105.8806,24.5541,1199.2908],[-105.8745,24.5501,1145.8928],[-105.8593,24.5601,1128.8281],[-105.8562,24.5573,1114.5288],[-105.8512,24.56,1204.5448],[-105.851,24.5656,1119.5658],[-105.8469,24.5698,1152.1133],[-105.8487,24.5753,1139.2589],[-105.8438,24.5797,1432.1426],[-105.8082,24.5812,1886.1298],[-105.739,24.5893,2439.8662],[-105.7363,24.5558,2404.3721],[-105.7061,24.5541,2538.2515],[-105.7081,24.5913,2667.8481],[-105.6863,24.6001,2539.4695]]]]}}