{"type":"Feature","properties":{"GID_2":"MEX.21.153_2","GID_0":"MEX","country":"México","GID_1":"MEX.21_1","province":"Puebla","NL_NAME_1":"NA","county":"TecalideHerrera","VARNAME_2":"NA","NL_NAME_2":"NA","TYPE_2":"Município","ENGTYPE_2":"Municipality","CC_2":"NA","HASC_2":"NA","name":"Tecalide_Herrera.county"},
"geometry":{"type": "MultiPolygon","coordinates": [[[[-97.9015,18.8462,1969.5345],[-97.9035,18.847,1970.9878],[-97.9076,18.8574,1979.0193],[-97.9116,18.8623,1986.6124],[-97.9095,18.8663,1999.0645],[-97.9098,18.87,2011.6604],[-97.9056,18.8666,2009.7998],[-97.9001,18.8702,2007.5287],[-97.899,18.8753,2014.4539],[-97.895,18.8782,2010.7812],[-97.8946,18.8823,2018.2697],[-97.8917,18.8862,2028.3734],[-97.892,18.8907,2040.2926],[-97.8932,18.8929,2043.8608],[-97.8977,18.8944,2055.502],[-97.8989,18.8977,2065.9077],[-97.9119,18.9111,2121.6348],[-97.9083,18.9198,2131.3772],[-97.9227,18.9228,2153.1619],[-97.9306,18.9299,2165.5063],[-97.9293,18.9329,2171.4136],[-97.9256,18.9342,2175.5923],[-97.9285,18.9389,2181.0161],[-97.9258,18.9407,2187.1321],[-97.9227,18.9385,2190.1448],[-97.9174,18.9406,2201.8799],[-97.9146,18.9399,2204.0166],[-97.9114,18.9448,2212.1472],[-97.9221,18.9508,2214.2192],[-97.9265,18.9475,2203.0],[-97.9323,18.9494,2197.302],[-97.937,18.9534,2196.8989],[-97.9274,18.9687,2233.6223],[-97.9284,18.972,2253.3481],[-97.9318,18.9677,2227.6091],[-97.9379,18.9659,2214.9495],[-97.9403,18.9622,2207.2612],[-97.9471,18.9603,2195.0603],[-97.9442,18.9693,2222.0703],[-97.9447,18.9728,2232.3369],[-97.962,18.9896,2409.3813],[-97.9663,18.988,2399.447],[-97.9622,18.9812,2307.0322],[-97.963,18.9761,2267.4963],[-97.9668,18.9711,2225.0869],[-97.9672,18.9671,2218.8687],[-97.9655,18.9651,2209.4731],[-97.9597,18.9649,2210.6409],[-97.9568,18.9675,2210.2144],[-97.9554,18.9636,2192.1108],[-97.9534,18.9632,2192.196],[-97.9521,18.9569,2182.2319],[-97.9536,18.9535,2178.5632],[-97.9572,18.9553,2178.2654],[-97.9618,18.948,2181.0879],[-97.9583,18.9465,2182.0042],[-97.9645,18.9355,2208.7009],[-97.9667,18.9417,2200.8257],[-97.9711,18.9458,2194.3538],[-97.994,18.9452,2148.6777],[-97.9963,18.9464,2148.2219],[-97.998,18.9416,2149.5007],[-97.998,18.9404,2162.8779],[-97.9947,18.9406,2150.4773],[-97.9845,18.934,2183.1929],[-97.9764,18.9235,2201.1724],[-97.9898,18.9262,2230.291],[-97.9938,18.9297,2218.6147],[-97.9986,18.9247,2190.6814],[-98.006,18.9266,2136.0916],[-98.01,18.9223,2114.5398],[-98.0144,18.9243,2109.5151],[-98.0239,18.9194,2090.1924],[-98.0271,18.9193,2089.0417],[-98.0276,18.9175,2090.6501],[-98.0418,18.9193,2071.6504],[-98.0452,18.9216,2067.981],[-98.0511,18.9219,2064.7866],[-98.0522,18.924,2069.3628],[-98.0464,18.9104,2115.0615],[-98.0409,18.9038,2083.396],[-98.0611,18.9043,2028.2334],[-98.0663,18.9016,2014.8645],[-98.0739,18.903199999999998,2002.22],[-98.0748,18.9012,1991.8901],[-98.0689,18.8958,2058.1326],[-98.0599,18.8942,2061.5601],[-98.0656,18.8874,1973.5874],[-98.0663,18.8812,1956.054],[-98.0565,18.8873,2032.9413],[-98.0446,18.8859,2134.7363],[-98.0429,18.8834,2123.6741],[-98.0244,18.8767,2036.5281],[-98.0181,18.8695,2000.4197],[-98.0156,18.8689,1997.9996],[-98.0155,18.8643,1984.7955],[-98.0176,18.8632,1980.2064],[-98.0159,18.8592,1961.2722],[-98.0226,18.8551,1942.7733],[-98.0266,18.8501,1942.652],[-98.0299,18.8514,1921.0989],[-98.0308,18.8491,1926.5605],[-98.0289,18.8409,1911.3666],[-98.0297,18.8372,1918.8237],[-98.0279,18.8364,1942.4985],[-98.027,18.8383,1912.0924],[-98.0247,18.8385,1904.1729],[-98.0235,18.8374,1898.9832],[-98.0248,18.8357,1901.4907],[-98.0228,18.8352,1911.3601],[-98.0224,18.8387,1898.9832],[-98.02,18.8395,1902.7111],[-98.0192,18.8325,1875.5596],[-98.0164,18.8335,1877.042],[-98.0146,18.8318,1900.9103],[-98.0119,18.8324,1893.2004],[-98.0147,18.8273,1875.7045],[-98.0116,18.8288,1892.9661],[-98.008,18.8366,1866.7745],[-98.0069,18.8356,1913.8281],[-98.0086,18.831,1881.717],[-98.0066,18.8295,1874.3867],[-98.0079,18.8267,1881.7631],[-98.0063,18.8252,1899.8557],[-97.9996,18.8283,1881.3556],[-97.9963,18.8264,1865.0269],[-97.9933,18.828,1866.0073],[-97.99,18.8265,1865.7372],[-97.9827,18.8295,1849.1049],[-97.9792,18.8274,1839.2048],[-97.9784,18.8298,1841.8889],[-97.9749,18.8239,1830.4019],[-97.9745,18.8264,1838.3568],[-97.9713,18.827,1858.9958],[-97.9686,18.8305,1856.8418],[-97.966,18.8272,1881.3518],[-97.9656,18.824,1854.4142],[-97.9615,18.8213,1825.3638],[-97.9554,18.8245,1818.4922],[-97.9498,18.8239,1817.1101],[-97.9495,18.8219,1865.0007],[-97.9522,18.8192,1811.0062],[-97.9545,18.8198,1823.697],[-97.9554,18.8163,1811.6265],[-97.9508,18.8144,1797.177],[-97.9482,18.8165,1804.1208],[-97.9501,18.8135,1844.7697],[-97.9477,18.8119,1823.2954],[-97.9476,18.8154,1806.6527],[-97.9452,18.8156,1838.0383],[-97.9419,18.8128,1808.51],[-97.9427,18.8115,1799.9617],[-97.9452,18.8121,1817.2609],[-97.945,18.8102,1807.7866],[-97.9412,18.8083,1835.1443],[-97.9344,18.8088,1779.6852],[-97.9331,18.8107,1807.4187],[-97.9329,18.807,1827.7583],[-97.9305,18.8088,1807.3846],[-97.9293,18.8125,1807.1685],[-97.9266,18.8128,1814.3661],[-97.9303,18.816,1806.9519],[-97.9301,18.8176,1833.5001],[-97.9314,18.8169,1862.0712],[-97.9314,18.8224,1845.1382],[-97.9235,18.8277,1932.9822],[-97.9236,18.836,1962.6183],[-97.9201,18.8425,1973.6072],[-97.9069,18.8399,1972.5876],[-97.9055,18.8449,1975.1965],[-97.9037,18.8442,1971.5167],[-97.9015,18.8462,1969.5345]]]]}}