{"type": "Feature","bbox": [-98.8953,21.4578,-98.6701,21.6441],"geometry": {"type": "MultiPolygon","coordinates": [[[[-98.7926,21.4898,59.4952],[-98.7892,21.4912,56.9142],[-98.7875,21.4947,60.5683],[-98.7903,21.5009,52.5],[-98.7876,21.5055,58.7971],[-98.7842,21.5078,53.6975],[-98.7813,21.5047,60.1817],[-98.7678,21.506,61.6836],[-98.7701,21.5014,60.7434],[-98.7603,21.4966,67.8514],[-98.7507,21.5036,66.5842],[-98.7516,21.497,65.0886],[-98.7573,21.4849,67.7581],[-98.7563,21.4831,68.5679],[-98.7507,21.4845,72.0787],[-98.7458,21.4733,82.1044],[-98.7343,21.4759,93.8019],[-98.7239,21.4845,79.8572],[-98.7214,21.4821,77.1223],[-98.7237,21.4778,92.865],[-98.7216,21.4757,79.8488],[-98.7224,21.4738,79.6212],[-98.7207,21.473,81.2475],[-98.7185,21.4756,92.7577],[-98.7166,21.4751,90.6586],[-98.7119,21.4598,108.4957],[-98.6899,21.4578,190.1738],[-98.6892,21.4743,208.5322],[-98.6918,21.4825,213.3633],[-98.6899,21.4883,231.0122],[-98.6849,21.4929,209.4055],[-98.6862,21.4964,181.0428],[-98.682,21.5021,165.7277],[-98.6773,21.5045,143.8558],[-98.6749,21.5168,228.4827],[-98.6763,21.5205,217.5956],[-98.6701,21.5237,197.0401],[-98.6751,21.5321,115.9514],[-98.6779,21.5305,132.4149],[-98.683,21.5317,95.8769],[-98.6803,21.5388,58.1202],[-98.6905,21.5561,44.6899],[-98.6841,21.56,46.2693],[-98.6861,21.5711,44.1086],[-98.6854,21.5804,43.6855],[-98.6904,21.5819,49.4901],[-98.6904,21.5871,45.4785],[-98.6915,21.5859,45.5352],[-98.6932,21.5871,46.3461],[-98.6936,21.5832,46.44],[-98.6963,21.5821,50.6675],[-98.6993,21.5833,47.3974],[-98.6993,21.5814,50.2537],[-98.7018,21.58,49.5551],[-98.7043,21.5829,51.1184],[-98.7093,21.5818,56.4771],[-98.7112,21.5877,56.7859],[-98.7187,21.5943,57.6744],[-98.725,21.6057,70.3576],[-98.723,21.622,98.8367],[-98.7285,21.6241,131.1616],[-98.7327,21.6284,153.1346],[-98.7385,21.6273,190.1827],[-98.7773,21.6311,253.918],[-98.7897,21.6397,250.1617],[-98.8016,21.6441,174.9105],[-98.8239,21.6406,115.0348],[-98.8241,21.6339,153.7955],[-98.8226,21.6308,145.2682],[-98.8239,21.6251,239.2455],[-98.8267,21.6226,201.0416],[-98.8287,21.6247,278.4445],[-98.8302,21.62,205.9753],[-98.8442,21.6109,332.1001],[-98.8537,21.5779,122.8093],[-98.8751,21.572,342.1171],[-98.8795,21.5819,249.6571],[-98.8848,21.5837,186.462],[-98.8831,21.5794,138.4909],[-98.8808,21.5785,137.7858],[-98.8828,21.575,141.9392],[-98.8814,21.573,131.1273],[-98.8901,21.5685,109.9475],[-98.8953,21.5684,114.7303],[-98.8933,21.5624,139.5794],[-98.8903,21.5627,161.3689],[-98.8851,21.5542,240.4202],[-98.8709,21.5416,365.3506],[-98.8578,21.5412,346.9522],[-98.8543,21.5386,284.9865],[-98.849,21.5376,269.0309],[-98.843,21.5301,212.1306],[-98.8341,21.526,206.3135],[-98.8268,21.5168,109.1476],[-98.8372,21.5113,94.339],[-98.8156,21.4842,62.6312],[-98.8127,21.4848,64.1804],[-98.8122,21.487,62.6631],[-98.805,21.4879,63.6032],[-98.7991,21.4909,55.9693],[-98.7926,21.4898,59.4952]]]]}
,"properties": {"GID_2": "MEX.24.41_2","GID_0": "MEX","country": "México","GID_1": "MEX.24_1","province": "SanLuisPotosí","NL_NAME_1": "NA","county": "TampamolónCorona","VARNAME_2": "NA","NL_NAME_2": "NA","TYPE_2": "Município","ENGTYPE_2": "Municipality","CC_2": "NA","HASC_2": "NA","name": "Tampamolón_Corona.county","area_km2": 263.689,"hist_schema_id": "Elevation0-9000","hist_area_km2": {"50": 62.003,"75": 69.3821,"100": 45.6913,"125": 22.7942,"150": 15.4388,"175": 12.9733,"200": 10.7054,"225": 7.4125,"250": 5.5591,"275": 4.3961,"300": 2.7797,"325": 1.7939,"350": 1.0646,"375": 0.7885,"400": 0.5519,"425": 0.276,"450": 0.0591,"475": 0.0197}}}