{"type":"Feature","properties":{"featurecla":"River","scalerank":11,"rivernum":22337,"dissolve":"22337River","name":"San Pedro","name_alt":null,"note":"ID is link back to CEC data","name_full":"Rio San Pedro","min_zoom":6.7,"strokeweig":0.2,"uident":1991301,"min_label":7.7},
"geometry":{"type": "LineString","coordinates": [[-106.73729407460372,28.03054433801487,1782.8428],[-106.71613522043705,27.989081121869035,1735.7076],[-106.69713294179122,27.911078192181535,1663.7703],[-106.66930091054122,27.89773183801487,1649.5154],[-106.65632076731205,27.886053778119035,1640.7922],[-106.63365637929122,27.85354238488987,1621.749],[-106.61656653554122,27.837469793744035,1615.0569],[-106.5689998037704,27.83816152551487,1626.1797],[-106.52367102772872,27.84597402551487,1641.996],[-106.49006100168705,27.854437567181535,1779.8875],[-106.43488522043705,27.8912214213482,1697.1084],[-106.3998103506454,27.88113027551487,1510.7821],[-106.3685603506454,27.88088613488987,1490.2997],[-106.34813391835372,27.867743231244035,1490.6265],[-106.2679744131454,27.83474355676487,1478.5038],[-106.2577205068954,27.8362897807232,1511.2734],[-106.23643958241622,27.8668073588482,1474.1266],[-106.19456946522872,27.8983014994732,1436.2085],[-106.18244381418705,27.901678778119035,1420.2714],[-106.13853919179122,27.9012311869732,1405.7113],[-106.09471594960372,27.919256903119035,1418.9287],[-106.0929255850204,27.919501043744035,1414.3313],[-106.08812415272872,27.9202741557232,1394.2979],[-106.07518469960372,27.922064520306535,1400.2054],[-106.0611873037704,27.924383856244035,1378.0791],[-106.0460505850204,27.924872137494035,1363.9058],[-106.04246985585372,27.925360418744035,1361.8713]]}}