{"type":"Feature","properties":{"featurecla":"River","scalerank":11,"rivernum":22364,"dissolve":"22364River","name":"Suruapa","name_alt":null,"note":"ID is link back to CEC data","name_full":"Rio Suruapa","min_zoom":6.7,"strokeweig":0.2,"uident":1985301,"min_label":7.7},
"geometry":{"type": "LineString","coordinates": [[-108.59089107981205,29.1785749369732,953.9407],[-108.5716853506454,29.189520574994035,1084.6252],[-108.56944739491622,29.200995184369035,881.1251],[-108.58356686106205,29.2242292338482,894.9595],[-108.59105384022872,29.2549909525982,923.9426],[-108.59105384022872,29.30569082238987,1113.9155],[-108.58311926991622,29.314276434369035,1159.0696],[-108.58429928293705,29.333563543744035,1063.399],[-108.57884680897872,29.3445905619732,1177.6071],[-108.55846106679122,29.3626569682232,1283.6338],[-108.51793372304122,29.3829206400982,1422.621],[-108.49933834543705,29.39333730676487,1436.6047],[-108.47679602772872,29.394110418744035,1278.3214],[-108.45323645741622,29.397894598431535,1391.6201],[-108.43492591054122,29.393011785931535,1136.6986],[-108.42267818918705,29.383246160931535,1292.3656],[-108.41291256418705,29.378973699994035,1600.9233],[-108.3927302725204,29.381170965619035,1405.1924],[-108.37022864491622,29.36623769738987,1355.9178],[-108.34752356679122,29.323065496869035,1361.5801],[-108.35163326731205,29.278876043744035,1539.2346],[-108.35631262929122,29.2681745463482,1751.3004],[-108.36115475168705,29.239081121869035,1454.1152],[-108.35936438710372,29.232977606244035,1472.9991],[-108.3536677725204,29.21828847863987,1550.1978],[-108.31895911366622,29.168524481244035,1412.338],[-108.30573482981205,29.1360944682232,1387.9995],[-108.28791256418705,29.11013418176487,1461.4768],[-108.28254147043705,29.0892194682232,1551.7798],[-108.2867732412704,29.0494245463482,1425.5753],[-108.2311091787704,29.0145124369732,1494.514],[-108.22248287668705,29.00149160363987,1472.4399],[-108.17357337147872,28.917547918744035,1730.2452],[-108.14464270741622,28.853705145306535,1576.2275],[-108.1405330068954,28.838080145306535,1811.7737],[-108.09797115793705,28.78225332238987,1700.4326],[-108.0834041006454,28.798285223431535,1999.5924],[-108.07762610585372,28.79470449426487,1608.1826],[-108.06232662668705,28.7735456400982,1691.5424],[-108.05549068918705,28.768866278119035,1751.3461],[-108.04255123606205,28.764837957806535,1780.4097],[-108.03319251210372,28.7703718119732,1969.1284],[-108.02879798085372,28.7811139994732,1821.3508],[-108.02110755116622,28.786444403119035,1687.9987],[-108.0086970693954,28.7847761088482,1918.5103],[-107.99901282460372,28.77981191613987,1794.4438],[-107.98680579335372,28.762884832806535,1686.0994]]}}