{"type":"Feature","properties":{"featurecla":"River","scalerank":11,"rivernum":22385,"dissolve":"22385River","name":"Casas Grandes","name_alt":null,"note":"ID is link back to CEC data","name_full":"Arroyo Casas Grandes","min_zoom":6.7,"strokeweig":0.2,"uident":1972101,"min_label":7.7},
"geometry":{"type": "LineString","coordinates": [[-107.49640865793705,31.317084051556535,1183.8702],[-107.5443416006454,31.389960028119035,1190.069],[-107.55150305897872,31.411403713014863,1197.8129],[-107.54865475168705,31.428168035931535,1203.0604],[-107.51219641835372,31.4485944682232,1205.5847],[-107.50397701731205,31.459987697389863,1210.4473],[-107.48591061106205,31.541327215619035,1206.5741],[-107.49400794179122,31.555934963014863,1240.3726],[-107.50959225168705,31.567084051556535,1209.0709],[-107.5250544912704,31.575384832806535,1209.9846],[-107.56590735585372,31.585760809369035,1216.4264],[-107.58844967356205,31.586940822389863,1217.9358],[-107.6095271475204,31.579535223431535,1220.6809],[-107.62694251210372,31.569037176556535,1219.3584],[-107.64159094960372,31.565497137494035,1220.7522],[-107.65550696522872,31.5670026713482,1222.6096],[-107.70396887929122,31.563299871869035,1226.9517],[-107.72142493397872,31.567653713014863,1233.4849],[-107.75523841054122,31.584011134889863,1241.1173],[-107.77717037668705,31.587225653119035,1243.8042],[-107.82599850168705,31.581366278119035,1259.3077],[-107.8421931631454,31.5833600932232,1270.4807],[-107.89012610585372,31.5984968119732,1300.9362],[-107.91112219960372,31.591864324994035,1276.6653],[-107.94432532460372,31.573757228639863,1318.8579],[-107.95140540272872,31.565375067181535,1312.9805],[-107.95470130116622,31.5047468119732,1259.532],[-107.94001217356205,31.457220770306535,1263.4182],[-107.93602454335372,31.417669989056535,1266.874],[-107.93858801991622,31.4092878275982,1266.8606],[-107.9425349600204,31.402411199994035,1267.4783],[-107.96344967356205,31.386175848431535,1271.0074],[-107.98273678293705,31.353705145306535,1280.9026],[-107.9886775381454,31.31740957238987,1278.6589],[-107.98558509022872,31.302801824994035,1280.1825],[-107.97716223866622,31.286444403119035,1280.1125],[-107.94664466054122,31.246405340619035,1284.8174],[-107.94066321522872,31.219427801556535,1287.7],[-107.9418025381454,31.20412832238987,1288.0468],[-107.96247311106205,31.184515692181535,1291.3262],[-107.97101803293705,31.159979559369035,1294.1738],[-107.98566647043705,31.143011785931535,1296.7111],[-108.0082087881454,31.13259511926487,1299.7812],[-108.05553137929122,31.121161199994035,1304.5525],[-108.10533606679122,31.096136785931535,1311.7821],[-108.1361384756454,31.06252675988987,1323.1892],[-108.14696204335372,31.039129949994035,1322.5647],[-108.14793860585372,31.030340887494035,1324.298],[-108.1441951162704,31.026312567181535,1324.7671],[-108.15477454335372,30.988226629681535,1384.462],[-108.14826412668705,30.949652410931535,1336.788],[-108.19591223866622,30.9039167338482,1383.2806],[-108.24986731679122,30.881415106244035,1376.4373],[-108.27928626210372,30.86086660363987,1384.5439],[-108.3019099600204,30.833441473431535,1399.3037],[-108.31480872304122,30.809027410931535,1409.6938],[-108.32990475168705,30.794623114056535,1419.8999],[-108.3522029287704,30.7781843119732,1432.941],[-108.39915930897872,30.767157293744035,1454.4128],[-108.41120357981205,30.76052480676487,1459.104],[-108.44652259022872,30.7115339213482,1517.688],[-108.47191321522872,30.6658796244732,1807.7622],[-108.47435462147872,30.627264715619035,1606.5612],[-108.47386634022872,30.61184316613987,1650.3163]]}}