{"type":"Feature","properties":{"featurecla":"River","scalerank":12,"rivernum":22327,"dissolve":"22327River","name":"Nonoava","name_alt":null,"note":"ID is link back to CEC data","name_full":"Rio Nonoava","min_zoom":7.0,"strokeweig":0.15,"uident":1995701,"min_label":8.0},
"geometry":{"type": "LineString","coordinates": [[-106.91014563710372,27.021429754681535,2180.4331],[-106.91844641835372,27.026434637494035,2264.1836],[-106.93390865793705,27.0281843119732,2333.8408],[-106.94635982981205,27.0201276713482,2296.6182],[-106.95201575429122,27.00564199426487,2353.646],[-106.94953365793705,26.99074941613987,2322.2163],[-106.93687903554122,26.962347723431535,2407.551],[-106.91685950429122,26.9310163432232,2310.9358],[-106.89745032460372,26.888861395306535,2389.2253],[-106.87108313710372,26.858710028119035,2461.9253]]}}