{"type":"Feature","properties":{"featurecla":"River","scalerank":12,"rivernum":22312,"dissolve":"22312River","name":"Tenoriba1","name_alt":null,"note":"ID is link back to CEC data","name_full":"Rio Tenoriba","min_zoom":7.0,"strokeweig":0.2,"uident":2002601,"min_label":8.0},
"geometry":{"type": "LineString","coordinates": [[-106.82526607981205,26.527899481244035,1795.5383],[-106.85749264231205,26.501166082806535,1904.1421],[-106.85655676991622,26.484320379681535,1769.255],[-106.85252844960372,26.477850653119035,1952.2467],[-106.83600826731205,26.46267324426487,1571.7415],[-106.83653723866622,26.45217519738987,1825.8315],[-106.83653723866622,26.4517682963482,1759.1963],[-106.83161373606205,26.4376081400982,1726.074],[-106.81505286366622,26.42678457238987,1607.4716],[-106.82701575429122,26.4000104838482,1806.6967],[-106.82542884022872,26.38698965051487,1752.1046],[-106.79063880116622,26.33132558801487,2073.3594],[-106.78498287668705,26.30471425988987,2006.3907],[-106.77452551991622,26.2527936869732,2111.1326],[-106.77741451731205,26.238104559369035,2115.481],[-106.77525794179122,26.229315496869035,2061.9609],[-106.7420955068954,26.1841901713482,2099.6323],[-106.73302161366622,26.169378973431535,2092.4119],[-106.72248287668705,26.15871816613987,2085.9678],[-106.71519934804122,26.13845449426487,2092.5144],[-106.68443762929122,26.095404364056535,2142.8655],[-106.68854732981205,26.06301504113987,2304.4453],[-106.68614661366622,26.0577253275982,2240.2061],[-106.67048092356205,26.0457624369732,2167.4829],[-106.64753170481205,26.031317449994035,2356.9788]]}}