{"type":"Feature","properties":{"featurecla":"River","scalerank":11,"rivernum":22351,"dissolve":"22351River","name":"Papigochic","name_alt":null,"note":"ID is link back to CEC data","name_full":"Rio Papigochic","min_zoom":6.7,"strokeweig":0.15,"uident":1988401,"min_label":7.7},
"geometry":{"type": "LineString","coordinates": [[-107.4750056631454,28.468573309369035,2050.4141],[-107.46239173085372,28.4505475932232,2050.2905],[-107.4623103506454,28.4463972025982,2060.6355],[-107.46174068918705,28.444525457806535,2072.3042],[-107.4613337881454,28.4439557963482,2072.3042],[-107.46125240793705,28.443670965619035,2084.3428],[-107.45982825429122,28.4429792338482,2065.5002],[-107.45783443918705,28.4415143900982,2069.2085],[-107.4569392568954,28.440863348431535,2069.2085],[-107.45457923085372,28.4376081400982,2052.2927],[-107.45872962147872,28.419012762494035,2112.4617],[-107.4576716787704,28.417914129681535,2111.1543],[-107.45026607981205,28.40725332238987,2085.0679],[-107.43468176991622,28.37356191613987,2111.9939],[-107.43126380116622,28.37234121301487,2076.001],[-107.42821204335372,28.36941152551487,2074.3252],[-107.4259333975204,28.365545965619035,2068.5039],[-107.42406165272872,28.3621686869732,2069.415],[-107.42479407460372,28.358587957806535,2124.502],[-107.4244685537704,28.35500722863987,2124.0923],[-107.42357337147872,28.35427480676487,2124.0923],[-107.41771399647872,28.3538679057232,2072.0168],[-107.4129939443954,28.349798895306535,2087.8787],[-107.4134822256454,28.348089910931535,2078.7952],[-107.41771399647872,28.342596746869035,2114.7751],[-107.41877193918705,28.339667059369035,2105.6946],[-107.41877193918705,28.337836004681535,2109.8093],[-107.4154353506454,28.334295965619035,2108.3789],[-107.41307532460372,28.327948309369035,2121.106],[-107.41319739491622,28.326849676556535,2128.9106],[-107.4154353506454,28.322211004681535,2121.0337],[-107.41779537668705,28.316717840619035,2134.271]]}}