{"type":"Feature","properties":{"featurecla":"River","scalerank":12,"rivernum":22318,"dissolve":"22318River","name":"Balleza","name_alt":null,"note":"ID is link back to CEC data","name_full":"Rio Balleza","min_zoom":7.0,"strokeweig":0.15,"uident":1997101,"min_label":8.0},
"geometry":{"type": "LineString","coordinates": [[-106.63182532460372,26.785711981244035,2301.3303],[-106.65648352772872,26.78005605676487,2282.0422],[-106.68687903554122,26.778387762494035,2319.781],[-106.71410071522872,26.76491933801487,2282.7229],[-106.72996985585372,26.75100332238987,2234.5239],[-106.73835201731205,26.7339948588482,2258.8491],[-106.74665279856205,26.70437246301487,2320.2234],[-106.76146399647872,26.676947332806535,2549.0332],[-106.76374264231205,26.66433340051487,2474.8264],[-106.75096594960372,26.632635809369035,2393.9199]]}}