{"type":"Feature","properties":{"featurecla":"River","scalerank":11,"rivernum":22343,"dissolve":"22343River","name":"Santa Isabel","name_alt":null,"note":"ID is link back to CEC data","name_full":"Rio Santa Isabel","min_zoom":6.7,"strokeweig":0.2,"uident":1990701,"min_label":7.7},
"geometry":{"type": "LineString","coordinates": [[-106.49323482981205,28.50564199426487,1729.6653],[-106.47606360585372,28.4883893900982,1751.0881],[-106.47154700429122,28.484442449994035,1734.0812],[-106.4649958975204,28.459662176556535,1728.5162],[-106.45075436106205,28.435370184369035,1692.6448],[-106.38756262929122,28.366522528119035,1634.1881],[-106.37621009022872,28.356390692181535,1612.9321],[-106.33775794179122,28.330389715619035,1597.8621],[-106.29344641835372,28.3099225932232,1638.1185],[-106.28380286366622,28.3040632182232,1567.0382],[-106.27033443918705,28.28933340051487,1548.1086],[-106.25755774647872,28.2610944682232,1534.4034],[-106.2445369131454,28.21023183801487,1519.0011],[-106.2337947256454,28.186224676556535,1502.8647],[-106.20433509022872,28.1148542338482,1463.0831],[-106.18342037668705,28.08352285363987,1434.9131],[-106.1610408193954,28.0508893900982,1413.0691],[-106.1109919912704,27.9857038432232,1393.187],[-106.07982337147872,27.964056707806535,1398.3076],[-106.04246985585372,27.925360418744035,1361.8713]]}}