{"type":"Feature","properties":{"GID_2":"MEX.12.72_2","GID_0":"MEX","country":"México","GID_1":"MEX.12_1","province":"Guerrero","NL_NAME_1":"NA","county":"TlalixtaquilladeMaldonado","VARNAME_2":"NA","NL_NAME_2":"NA","TYPE_2":"Município","ENGTYPE_2":"Municipality","CC_2":"NA","HASC_2":"NA","name":"Tlalixtaquillade_Maldonado.county"},
"geometry":{"type": "MultiPolygon","coordinates": [[[[-98.3316,17.5195,1466.441],[-98.3321,17.5241,1491.6926],[-98.3336,17.5255,1455.5137],[-98.3292,17.5312,1350.927],[-98.3302,17.5344,1338.467],[-98.3412,17.5419,1301.4575],[-98.343,17.5473,1268.5392],[-98.3448,17.5484,1297.7853],[-98.344,17.5566,1241.7094],[-98.3453,17.5626,1238.5432],[-98.3487,17.5648,1253.6184],[-98.3535,17.5649,1191.3054],[-98.3519,17.566,1223.7979],[-98.351,17.5714,1180.0688],[-98.3547,17.5756,1153.4181],[-98.3546,17.579,1157.9021],[-98.3557,17.5803,1153.4312],[-98.3614,17.5793,1153.6018],[-98.3592,17.5841,1220.3104],[-98.3647,17.5826,1188.7115],[-98.377,17.6053,1375.2161],[-98.398,17.6036,1406.4877],[-98.4102,17.5998,1570.1366],[-98.4331,17.623,1513.042],[-98.4505,17.6333,1452.2427],[-98.4697,17.6261,1551.5759],[-98.475,17.6286,1500.7537],[-98.481,17.628,1532.2444],[-98.4943,17.6159,1348.3993],[-98.4873,17.5944,1027.2407],[-98.4802,17.5891,1062.884],[-98.469,17.591,1298.2197],[-98.4859,17.5774,1023.3816],[-98.4781,17.5712,1318.8499],[-98.4458,17.5681,1181.7041],[-98.4429,17.5542,1489.9266],[-98.4278,17.5532,1152.1428],[-98.4104,17.5589,1369.1091],[-98.405,17.5684,1523.0682],[-98.4001,17.5538,1587.697],[-98.4032,17.551,1586.366],[-98.4131,17.5497,1419.7366],[-98.421,17.5464,1269.957],[-98.4165,17.541,1302.8676],[-98.4153,17.5364,1360.6262],[-98.4028,17.5299,1745.981],[-98.4029,17.5252,1615.8875],[-98.3975,17.5158,1753.95],[-98.3879,17.5174,1620.748],[-98.3771,17.5243,1267.4614],[-98.377,17.5211,1235.4036],[-98.3752,17.5194,1240.0428],[-98.3736,17.5204,1240.0428],[-98.3716,17.5176,1283.7003],[-98.3766,17.5107,1251.5081],[-98.3626,17.5031,1456.7283],[-98.3571,17.5075,1509.3821],[-98.3484,17.5069,1542.8915],[-98.3441,17.51,1653.0162],[-98.3439,17.5119,1611.502],[-98.3382,17.5135,1565.6337],[-98.3358,17.5172,1531.5514],[-98.3316,17.5195,1466.441]]]]}}