{"type":"Feature","properties":{"featurecla":"River","scalerank":11,"rivernum":22255,"dissolve":"22255River","name":"Coahuayana1","name_alt":null,"note":"ID is link back to CEC data","name_full":"Coahuayana","min_zoom":6.7,"strokeweig":0.2,"uident":2033901,"min_label":7.7},
"geometry":{"type": "LineString","coordinates": [[-103.23131262929122,19.710272528119035,1254.6003],[-103.25035559804122,19.690944728639863,1316.1692],[-103.26573645741622,19.681708074994035,1110.6812],[-103.2833552725204,19.694362697389863,1139.0806],[-103.32477779856207,19.684922593223206,1109.2679],[-103.3360896475204,19.663519598431535,1128.3099],[-103.3360896475204,19.655096746869035,1150.0342],[-103.3246150381454,19.648749090619035,1133.6298],[-103.31965084543707,19.632106838014863,1113.8792],[-103.31940670481207,19.606960353639863,1110.041],[-103.33311926991622,19.604925848431535,1112.5991],[-103.3436580068954,19.599880275514863,1134.9977],[-103.3587947256454,19.580593166139863,1146.2729],[-103.37840735585372,19.541449285931535,1108.9314],[-103.40269934804122,19.527126369264863,1124.6274],[-103.42145748606207,19.515244858848206,1103.4028],[-103.43455969960372,19.527533270306535,1023.8093],[-103.43976803293707,19.527614650514863,1122.9609],[-103.44237219960372,19.526190496869035,1177.7449],[-103.44835364491622,19.521429754681535,1190.382],[-103.44904537668707,19.506944077598206,1085.4373],[-103.4579158193954,19.491400457806535,1111.6656],[-103.4874568350204,19.434597072389863,1030.7828],[-103.47533118397872,19.408555405723206,928.1523],[-103.47435462147872,19.396755275514863,857.1284],[-103.49176998606207,19.360419012494035,859.9336],[-103.4950251943954,19.346787827598206,660.5922],[-103.49767005116622,19.335394598431535,801.8164],[-103.4964900381454,19.316107489056535,669.7184],[-103.49132239491622,19.310817775514863,574.3696],[-103.4923396475204,19.298529364056535,755.87],[-103.49738522043707,19.288600978639863,714.5525],[-103.50328528554122,19.278998114056535,685.8413],[-103.5069880850204,19.268011785931535,492.4535],[-103.5067439443954,19.251247463014863,462.0865],[-103.50352942616622,19.231634832806535,487.4969],[-103.4989314443954,19.212022202598206,615.702],[-103.4947810537704,19.195176499473206,417.0986],[-103.50194251210372,19.166123765098206,340.7021],[-103.5155330068954,19.128770249473206,314.7382],[-103.52525794179122,19.092556056764863,319.451],[-103.52074134022872,19.066473699994035,245.3947],[-103.50397701731207,19.043483791139863,332.8596],[-103.4916072256454,19.019232489056535,214.6695],[-103.48314368397872,18.993719793744035,248.582],[-103.47785397043707,18.966416733848206,301.5712],[-103.4908748037704,18.968573309369035,150.5124],[-103.49632727772872,18.961208400514863,157.7733],[-103.49885006418707,18.949408270306535,179.6493],[-103.50340735585372,18.938259181764863,343.5396],[-103.50804602772872,18.935614324994035,349.984],[-103.5143123037704,18.935248114056535,116.4728],[-103.52057857981207,18.935085353639863,112.5355],[-103.5252986318954,18.932928778119035,118.6714],[-103.52733313710372,18.928534246869035,109.2457],[-103.52647864491622,18.923854884889863,124.7075],[-103.52489173085372,18.919297593223206,191.9208],[-103.52489173085372,18.915106512494035,227.5397],[-103.5309138662704,18.911688543744035,102.1218],[-103.5438533193954,18.906113999473206,104.6728],[-103.55797278554122,18.899603582806535,90.5977],[-103.5675349600204,18.893093166139863,72.4268],[-103.57762610585372,18.883978582806535,231.7832],[-103.58600826731207,18.882025457806535,245.3041],[-103.59496009022872,18.885362046348206,91.2076],[-103.6065974600204,18.891953843223206,57.9229],[-103.61180579335372,18.888454494264863,49.6601],[-103.6151423818954,18.883815822389863,97.2714],[-103.6166072256454,18.878281968223206,126.2241],[-103.61603756418707,18.871893621869035,307.323],[-103.6144099600204,18.867621160931535,201.513],[-103.61363684804122,18.863226629681535,281.3073],[-103.61384029856207,18.858832098431535,280.7607],[-103.61473548085372,18.854437567181535,173.6961],[-103.62022864491622,18.841905015098206,33.4492],[-103.62169348866622,18.828721421348206,29.2446],[-103.62279212147872,18.815293686973206,26.1971],[-103.62702389231207,18.802435614056535,25.2208],[-103.63817298085372,18.790554103639863,22.5532],[-103.65086829335372,18.786973374473206,17.8434],[-103.66462154856207,18.785345770306535,23.8524],[-103.67906653554122,18.778876043744035,123.5995],[-103.68822180897872,18.769354559369035,15.8352],[-103.6947322256454,18.758002020306535,14.6459],[-103.69908606679122,18.745306707806535,11.4626],[-103.70201575429122,18.732448634889863,8.038],[-103.70811926991622,18.716864324994035,10.798],[-103.7184138662704,18.706122137494035,8.7211],[-103.73143469960372,18.697455145306535,3.3574],[-103.74559485585372,18.688015041139863,0.0],[-103.74937903554122,18.685899155723206,0.0]]}}