{"type": "Feature","bbox": [-110.6317,29.0086,-109.9556,29.7062],"geometry": {"type": "MultiPolygon","coordinates": [[[[-110.3309,29.7062,918.2609],[-110.4044,29.7039,869.0568],[-110.4043,29.6959,821.34],[-110.4112,29.6884,753.4648],[-110.4192,29.6882,761.9788],[-110.4441,29.6712,701.3232],[-110.5237,29.6251,563.0214],[-110.5279,29.6088,506.3964],[-110.5343,29.6111,501.2649],[-110.5398,29.6092,497.3831],[-110.5458,29.6099,489.3082],[-110.5519,29.6059,485.4306],[-110.5602,29.6048,504.0242],[-110.5618,29.6019,499.5353],[-110.5612,29.5992,483.8293],[-110.5565,29.5935,479.9287],[-110.5586,29.585,476.9068],[-110.5653,29.5845,478.7719],[-110.5724,29.5877,492.3005],[-110.5789,29.5875,477.7845],[-110.5845,29.5814,465.607],[-110.5827,29.5776,464.3265],[-110.5788,29.575,461.5815],[-110.5802,29.5723,465.909],[-110.5882,29.5719,460.8115],[-110.5898,29.568,473.7288],[-110.5927,29.5679,462.4368],[-110.6125,29.5846,556.3688],[-110.6143,29.5832,500.0474],[-110.6141,29.5666,514.184],[-110.5996,29.5181,719.8276],[-110.5983,29.46,565.082],[-110.5683,29.4686,714.2002],[-110.5945,29.4301,552.8262],[-110.5982,29.4298,547.1026],[-110.5986,29.4217,567.2085],[-110.6112,29.4191,551.6398],[-110.6135,29.4149,514.728],[-110.6161,29.4173,531.9133],[-110.6317,29.3796,504.6211],[-110.608,29.3519,495.7761],[-110.5989,29.3323,369.0437],[-110.5963,29.3383,391.972],[-110.5822,29.3169,412.3901],[-110.5528,29.2896,537.2845],[-110.6148,29.2669,304.2519],[-110.5877,29.2477,338.5997],[-110.5767,29.2526,361.0401],[-110.5236,29.2151,502.846],[-110.5304,29.2015,445.5096],[-110.5066,29.2102,590.5813],[-110.5121,29.1981,526.7222],[-110.522,29.138,433.6221],[-110.5478,29.1135,363.7007],[-110.5537,29.1197,346.6952],[-110.5647,29.1196,343.2559],[-110.5662,29.1177,346.7342],[-110.5796,29.0547,445.7139],[-110.5613,29.0567,426.9836],[-110.5586,29.0557,437.1647],[-110.5477,29.0589,432.2642],[-110.5424,29.0639,411.9028],[-110.5382,29.0583,431.0529],[-110.5345,29.0565,447.6791],[-110.5558,29.0243,473.8064],[-110.5306,29.0202,440.0615],[-110.5167,29.0113,473.0991],[-110.5065,29.0086,439.1767],[-110.4991,29.0202,450.7762],[-110.4928,29.0509,396.2712],[-110.4715,29.0569,406.4335],[-110.4767,29.0755,429.1821],[-110.3935,29.0288,445.5903],[-110.3795,29.0628,436.6041],[-110.3172,29.1034,471.6427],[-110.2485,29.0721,1243.4551],[-110.2492,29.0694,1192.2025],[-110.2239,29.0274,671.2938],[-110.2114,29.0261,551.3902],[-110.2107,29.0395,567.2322],[-110.2073,29.0392,580.5707],[-110.2082,29.0767,1165.3282],[-110.2023,29.08,1220.1052],[-110.1619,29.0683,1019.7675],[-110.1617,29.076,1146.0375],[-110.13,29.0684,591.3871],[-110.1152,29.1567,632.0311],[-110.0884,29.1528,649.926],[-110.0906,29.1462,646.1077],[-110.0849,29.1485,658.6123],[-110.0761,29.1442,665.8089],[-110.0622,29.1501,699.3881],[-110.0629,29.1535,697.7347],[-110.0542,29.1539,793.1979],[-110.0538,29.1579,825.5943],[-110.0458,29.1621,808.5978],[-110.0,29.1613,785.8468],[-109.9717,29.1632,960.6107],[-109.9847,29.1734,998.1617],[-109.9556,29.192,855.0295],[-109.9775,29.1913,797.0364],[-109.9781,29.3618,815.3683],[-110.017,29.3277,850.189],[-110.0323,29.3412,888.1384],[-110.0326,29.3684,844.861],[-110.0407,29.3961,761.426],[-110.0854,29.3997,1015.7593],[-110.0842,29.4319,739.5986],[-110.0857,29.4611,631.7718],[-110.1313,29.4383,1224.0361],[-110.1308,29.4456,1090.192],[-110.1861,29.4991,466.9908],[-110.2034,29.5495,1138.6654],[-110.2055,29.5489,1122.7893],[-110.2137,29.5611,1101.4779],[-110.2382,29.5548,934.4785],[-110.2368,29.5482,817.2485],[-110.2564,29.5542,974.3029],[-110.2585,29.5902,1101.9633],[-110.264,29.6291,1312.5475],[-110.2719,29.6455,1257.0444],[-110.2801,29.6553,1255.801],[-110.2905,29.6529,1125.7247],[-110.2959,29.6571,1173.7024],[-110.3007,29.6837,1280.6804],[-110.3253,29.6802,1177.0969],[-110.326,29.6915,1128.3257],[-110.3309,29.7062,918.2609]]]]}
,"properties": {"GID_2": "MEX.26.69_2","GID_0": "MEX","country": "México","GID_1": "MEX.26_1","province": "Sonora","NL_NAME_1": "NA","county": "Ures","VARNAME_2": "NA","NL_NAME_2": "NA","TYPE_2": "Município","ENGTYPE_2": "Municipality","CC_2": "NA","HASC_2": "NA","name": "Ures.county","area_km2": 3093.772,"hist_schema_id": "Elevation0-9000","hist_area_km2": {"300": 0.185,"325": 8.394,"350": 38.431,"375": 126.357,"400": 261.264,"425": 329.032,"450": 258.254,"475": 206.346,"500": 173.073,"525": 155.245,"550": 160.657,"575": 149.034,"600": 117.882,"625": 95.493,"650": 84.514,"675": 78.176,"700": 66.473,"725": 64.48,"750": 69.292,"775": 77.467,"800": 75.63,"825": 67.201,"850": 50.855,"875": 42.036,"900": 38.833,"925": 37.022,"950": 32.529,"975": 27.762,"1000": 24.415,"1025": 20.721,"1050": 18.171,"1075": 16.379,"1100": 14.903,"1125": 13.239,"1150": 11.338,"1175": 10.029,"1200": 9.716,"1225": 8.869,"1250": 8.077,"1275": 8.059,"1300": 6.934,"1325": 6.623,"1350": 6.346,"1375": 5.2,"1400": 5.555,"1425": 3.241,"1450": 2.167,"1475": 1.408,"1500": 0.371,"1525": 0.093}}}