{"type": "Feature","bbox": [-103.5483,20.1675,-103.2863,20.4113],"geometry": {"type": "MultiPolygon","coordinates": [[[[-103.5399,20.3494,1924.7246],[-103.5165,20.3204,1878.5211],[-103.5114,20.3055,2035.1576],[-103.4989,20.2963,2068.1528],[-103.4982,20.2948,2082.5962],[-103.4998,20.2929,2102.4023],[-103.4845,20.2915,1947.2388],[-103.4783,20.2834,1924.2104],[-103.4801,20.2778,1783.1909],[-103.476,20.2746,1690.1195],[-103.4605,20.2693,1601.7734],[-103.4623,20.2655,1626.6537],[-103.4605,20.262,1689.3744],[-103.4619,20.2571,1761.1049],[-103.4664,20.2531,1920.5662],[-103.4696,20.2466,2193.6758],[-103.4676,20.2389,2105.885],[-103.4659,20.2352,1986.64],[-103.4637,20.2346,1980.1117],[-103.4621,20.2281,1998.1909],[-103.46,20.2279,1995.0913],[-103.4588,20.2242,2030.4818],[-103.4448,20.2144,2132.3818],[-103.4432,20.2075,2125.1377],[-103.4407,20.2064,2107.0308],[-103.4362,20.2082,2005.3375],[-103.4178,20.2069,1878.9884],[-103.4208,20.2029,1852.3955],[-103.4229,20.2025,1878.8784],[-103.4259,20.1974,1849.9822],[-103.4156,20.1889,1834.5205],[-103.4156,20.186,1809.4667],[-103.4121,20.1832,1768.688],[-103.4123,20.1805,1735.2217],[-103.4096,20.1831,1773.073],[-103.402,20.1838,1827.8246],[-103.3989,20.1833,1831.8712],[-103.3994,20.1816,1876.6831],[-103.3931,20.1806,1836.0723],[-103.3906,20.1846,1829.7849],[-103.381,20.1793,1836.069],[-103.3787,20.1741,1862.2627],[-103.3749,20.1724,1937.535],[-103.3748,20.1697,1955.7644],[-103.3716,20.1685,2059.168],[-103.3704,20.1699,2014.7523],[-103.3647,20.1675,2121.2363],[-103.35,20.1681,2685.5591],[-103.343,20.1727,2534.6655],[-103.342,20.1746,2485.96],[-103.3435,20.179,2548.1416],[-103.3592,20.186,2044.5911],[-103.3621,20.19,1893.0864],[-103.3682,20.1924,1815.7306],[-103.368,20.1936,1815.7306],[-103.3706,20.1934,1777.2053],[-103.3737,20.1986,1718.0331],[-103.3749,20.2089,1608.1442],[-103.37,20.2167,1568.271],[-103.3673,20.2179,1551.1396],[-103.3666,20.2209,1540.5347],[-103.3608,20.2266,1519.8638],[-103.364,20.2258,1525.4209],[-103.373,20.2275,1520.2754],[-103.3797,20.2256,1521.0145],[-103.3884,20.2266,1523.8992],[-103.3972,20.2231,1525.7997],[-103.4026,20.2232,1525.2035],[-103.4104,20.2256,1522.858],[-103.4156,20.2321,1519.0],[-103.4192,20.2326,1526.047],[-103.422,20.2514,1523.3411],[-103.4215,20.257,1523.8579],[-103.4187,20.259,1519.0],[-103.4196,20.2624,1519.0],[-103.4178,20.2778,1521.8323],[-103.4131,20.2868,1524.0306],[-103.4104,20.2887,1519.0],[-103.396,20.2868,1519.0],[-103.3908,20.2898,1524.1143],[-103.3873,20.2895,1522.0681],[-103.3864,20.2919,1529.3452],[-103.3819,20.2911,1521.933],[-103.376,20.2932,1523.6212],[-103.3759,20.2893,1519.0],[-103.3509,20.2891,1528.1768],[-103.3458,20.2879,1522.5964],[-103.3381,20.2831,1520.9043],[-103.3305,20.2839,1523.8489],[-103.3204,20.2876,1543.1277],[-103.3073,20.2861,1519.0],[-103.2991,20.2871,1519.0],[-103.3016,20.2923,1540.6764],[-103.3029,20.3011,1625.921],[-103.2998,20.3043,1712.1774],[-103.3004,20.3119,1845.7885],[-103.2983,20.3152,1926.062],[-103.3011,20.3236,2258.6528],[-103.2997,20.3253,2289.9224],[-103.2917,20.3263,2366.9197],[-103.2892,20.3314,2209.0171],[-103.2863,20.3327,2165.0986],[-103.29,20.3429,2434.6943],[-103.2898,20.3486,2189.4849],[-103.295,20.3559,1957.9747],[-103.2891,20.3621,1737.8323],[-103.29,20.3693,1680.589],[-103.2943,20.3694,1685.2676],[-103.2943,20.3756,1879.6143],[-103.2969,20.3761,1872.1865],[-103.2954,20.3792,1821.5427],[-103.299,20.3905,1602.376],[-103.2966,20.3974,1575.0559],[-103.291,20.3976,1564.6025],[-103.2883,20.3995,1558.1936],[-103.2888,20.4008,1555.6199],[-103.2926,20.4022,1552.1826],[-103.3083,20.4019,1556.8329],[-103.3102,20.3981,1565.0396],[-103.3099,20.3945,1592.7346],[-103.3116,20.3935,1592.3391],[-103.3105,20.3918,1595.4055],[-103.3156,20.3981,1569.6523],[-103.3169,20.3956,1585.4481],[-103.328,20.3927,1590.3604],[-103.3301,20.3888,1617.041],[-103.3339,20.387,1731.799],[-103.3341,20.3822,1804.1862],[-103.3359,20.3787,1920.969],[-103.3395,20.3771,1956.3999],[-103.3432,20.3686,2108.0405],[-103.3525,20.368,2270.9705],[-103.3588,20.3618,2206.7388],[-103.3831,20.3646,2338.7324],[-103.3897,20.3617,2426.4524],[-103.4078,20.3625,2718.2239],[-103.4103,20.3604,2785.2871],[-103.4154,20.3613,2837.2837],[-103.418,20.3597,2704.2808],[-103.4372,20.3652,2948.3582],[-103.443,20.3723,2746.2769],[-103.4559,20.3741,2602.4678],[-103.4557,20.3754,2602.4678],[-103.4618,20.3798,2446.0549],[-103.4654,20.3848,2393.7134],[-103.4716,20.3869,2337.2822],[-103.4825,20.3952,2205.9133],[-103.5038,20.4025,2024.5275],[-103.5063,20.4049,1992.4657],[-103.5136,20.4053,1927.3649],[-103.5169,20.4073,1895.6506],[-103.5206,20.4064,1861.4081],[-103.5281,20.4113,1806.0596],[-103.5366,20.4082,1645.1925],[-103.5363,20.4059,1684.9977],[-103.5478,20.4028,1612.739],[-103.5483,20.4043,1610.3458],[-103.548,20.4022,1612.739],[-103.5469,20.4,1577.6462],[-103.5425,20.3962,1645.6381],[-103.5464,20.3943,1530.2192],[-103.5435,20.3928,1548.0052],[-103.5403,20.3864,1614.1892],[-103.5467,20.3796,1773.2336],[-103.5453,20.3756,1861.8481],[-103.5478,20.3715,2071.2935],[-103.5399,20.3494,1924.7246]]]]}
,"properties": {"GID_2": "MEX.14.50_2","GID_0": "MEX","country": "México","GID_1": "MEX.14_1","province": "Jalisco","NL_NAME_1": "NA","county": "Jocotepec","VARNAME_2": "NA","NL_NAME_2": "NA","TYPE_2": "Município","ENGTYPE_2": "Municipality","CC_2": "NA","HASC_2": "NA","name": "Jocotepec.county","area_km2": 325.4124,"hist_schema_id": "Elevation0-9000","hist_area_km2": {"1525": 15.4546,"1550": 13.982,"1575": 35.5055,"1600": 21.6321,"1625": 12.9438,"1650": 10.0211,"1675": 9.5039,"1700": 10.4784,"1725": 10.4386,"1750": 9.9418,"1775": 13.64,"1800": 16.8209,"1825": 16.8423,"1850": 13.7006,"1875": 12.547,"1900": 11.1746,"1925": 10.6777,"1950": 9.3255,"1975": 8.3114,"2000": 7.4563,"2025": 7.3569,"2050": 5.5874,"2075": 5.3885,"2100": 4.3544,"2125": 3.6384,"2150": 3.3203,"2175": 2.366,"2200": 2.4653,"2225": 2.1472,"2250": 2.0876,"2275": 1.7098,"2300": 1.8887,"2325": 1.6303,"2350": 1.1929,"2375": 0.7356,"2400": 0.9145,"2425": 0.8947,"2450": 0.9145,"2475": 0.5567,"2500": 0.5567,"2525": 0.676,"2550": 0.5965,"2575": 0.5567,"2600": 0.4771,"2625": 0.3777,"2650": 0.3976,"2675": 0.3777,"2700": 0.3379,"2725": 0.3181,"2750": 0.2982,"2775": 0.2385,"2800": 0.1789,"2825": 0.0795,"2850": 0.1391,"2875": 0.1193,"2900": 0.0398,"2925": 0.0596,"2950": 0.0398}}}