{"type": "Feature","bbox": [-100.626,19.2999,-100.4175,19.5231],"geometry": {"type": "MultiPolygon","coordinates": [[[[-100.6065,19.4417,1602.7715],[-100.599,19.4416,1528.4304],[-100.5918,19.4275,1424.4023],[-100.5809,19.4193,1330.2827],[-100.5771,19.4111,1299.7269],[-100.5777,19.4091,1279.4465],[-100.5739,19.4064,1243.4626],[-100.572,19.4012,1255.8921],[-100.567,19.4005,1233.6334],[-100.5616,19.3902,1088.5178],[-100.5535,19.3866,1044.4432],[-100.5411,19.3751,960.2112],[-100.5427,19.3648,927.2035],[-100.5461,19.3624,932.5569],[-100.5507,19.3528,927.5457],[-100.5479,19.3487,903.4489],[-100.547,19.3411,863.4615],[-100.5444,19.3412,916.0445],[-100.5431,19.3364,825.4335],[-100.5382,19.3339,957.6879],[-100.5363,19.3312,1068.0142],[-100.541,19.3283,1201.9041],[-100.5461,19.3207,1224.5234],[-100.54,19.3179,1180.4304],[-100.5429,19.3164,1225.6973],[-100.5442,19.3091,1079.7964],[-100.542,19.3083,1062.3594],[-100.5401,19.3014,891.2019],[-100.5366,19.2999,957.6288],[-100.5249,19.3031,934.6757],[-100.52,19.3077,950.8381],[-100.5213,19.3145,937.2125],[-100.5186,19.3169,953.5862],[-100.5133,19.3157,965.611],[-100.5124,19.3174,1005.3268],[-100.51,19.3155,963.0549],[-100.5075,19.3193,1014.1532],[-100.5052,19.3185,1042.9954],[-100.5008,19.3248,1002.4402],[-100.4868,19.3266,1030.7885],[-100.4853,19.3242,1042.8945],[-100.4832,19.3254,1063.1848],[-100.4814,19.3239,1082.4603],[-100.4758,19.3239,1087.1823],[-100.4726,19.3277,1098.439],[-100.4688,19.3262,1103.9658],[-100.4687,19.3248,1173.0217],[-100.4663,19.3249,1122.171],[-100.4643,19.3276,1124.26],[-100.4724,19.3355,1202.8931],[-100.4815,19.3342,1131.4956],[-100.4824,19.3355,1167.5842],[-100.4813,19.3503,1299.1919],[-100.479,19.3542,1326.2207],[-100.481,19.3709,1358.1343],[-100.4782,19.3716,1409.3555],[-100.4821,19.3744,1407.2964],[-100.481,19.3762,1380.4546],[-100.4815,19.3858,1169.9414],[-100.48,19.3905,1239.072],[-100.4764,19.3922,1262.8339],[-100.4745,19.3968,1347.26],[-100.4773,19.3962,1371.9255],[-100.4823,19.4006,1334.4602],[-100.4812,19.4022,1340.0745],[-100.484,19.4052,1480.6604],[-100.484,19.41,1624.5806],[-100.4796,19.4116,1487.7623],[-100.4758,19.4184,1675.5679],[-100.4729,19.4184,1721.813],[-100.4645,19.4247,1675.3459],[-100.4629,19.4241,1690.672],[-100.459,19.4262,1713.2758],[-100.4582,19.4294,1782.3113],[-100.4175,19.4475,2021.5544],[-100.4223,19.4552,2090.1841],[-100.4213,19.4582,2049.4688],[-100.4323,19.4722,1857.0663],[-100.4307,19.4755,1902.7026],[-100.424,19.4754,1873.4628],[-100.4245,19.4784,1913.5095],[-100.4295,19.4784,1918.4509],[-100.4317,19.481,1940.098],[-100.4298,19.483,1973.1691],[-100.4309,19.4833,1973.1691],[-100.4302,19.4861,1997.1038],[-100.4327,19.4884,2007.1833],[-100.4312,19.4943,2026.2446],[-100.4333,19.4941,2030.05],[-100.4333,19.4961,2044.2686],[-100.4365,19.4955,2048.3235],[-100.4349,19.507,2293.3875],[-100.4406,19.5141,2343.4346],[-100.4481,19.5112,2160.5518],[-100.4491,19.5122,2181.9897],[-100.4506,19.5101,2125.4312],[-100.4531,19.5104,2103.8374],[-100.4628,19.5043,1951.8234],[-100.4686,19.5073,1880.3029],[-100.4718,19.5069,1851.0999],[-100.471,19.5127,1873.7808],[-100.4773,19.5126,1794.8231],[-100.4765,19.5102,1807.2388],[-100.4841,19.512,1744.7404],[-100.487,19.509,1699.6967],[-100.4883,19.5101,1699.6967],[-100.4972,19.5069,1547.2461],[-100.4992,19.5083,1514.9005],[-100.5062,19.5068,1698.5703],[-100.5102,19.5088,1785.1658],[-100.5135,19.5079,1828.3828],[-100.5124,19.5067,1844.8611],[-100.5185,19.5027,1691.7292],[-100.5368,19.5105,2065.8484],[-100.5394,19.5102,2083.321],[-100.5388,19.509,2083.321],[-100.5467,19.5124,2223.3542],[-100.5488,19.5122,2246.814],[-100.5493,19.5106,2208.6755],[-100.5548,19.5148,2282.1621],[-100.5582,19.5231,2248.1892],[-100.5665,19.5173,2312.5388],[-100.5709,19.5161,2372.9753],[-100.5708,19.5124,2414.8484],[-100.5736,19.5122,2452.7769],[-100.5716,19.5067,2382.9167],[-100.5772,19.5074,2381.2427],[-100.5802,19.5048,2337.8979],[-100.5804,19.496,2222.9182],[-100.5826,19.4929,2180.7822],[-100.5898,19.4931,2315.0229],[-100.6011,19.4902,2330.3396],[-100.6145,19.4746,2073.0403],[-100.6145,19.4696,1930.2117],[-100.618,19.4668,1905.533],[-100.6184,19.4617,1902.3101],[-100.6259,19.4586,1770.2582],[-100.626,19.4536,1701.3218],[-100.6214,19.455,1662.7502],[-100.6169,19.4537,1691.689],[-100.6135,19.4502,1622.4106],[-100.6121,19.4458,1610.4474],[-100.6065,19.4417,1602.7715]]]]}
,"properties": {"GID_2": "MEX.16.48_2","GID_0": "MEX","country": "México","GID_1": "MEX.16_1","province": "Michoacán","NL_NAME_1": "NA","county": "Jungapeo","VARNAME_2": "NA","NL_NAME_2": "NA","TYPE_2": "Município","ENGTYPE_2": "Municipality","CC_2": "NA","HASC_2": "NA","name": "Jungapeo.county","area_km2": 266.1839,"hist_schema_id": "Elevation0-9000","hist_area_km2": {"825": 0.08,"850": 0.2401,"875": 0.3001,"900": 0.7602,"925": 0.9602,"950": 1.5804,"975": 1.6204,"1000": 2.1205,"1025": 3.4009,"1050": 3.4209,"1075": 5.6815,"1100": 5.6014,"1125": 5.6412,"1150": 5.3811,"1175": 6.101,"1200": 5.6606,"1225": 5.2999,"1250": 5.3397,"1275": 4.8595,"1300": 4.8194,"1325": 5.2994,"1350": 4.3792,"1375": 4.559,"1400": 5.2788,"1425": 5.2587,"1450": 4.8187,"1475": 5.2784,"1500": 5.0184,"1525": 4.9382,"1550": 5.198,"1575": 5.398,"1600": 4.5582,"1625": 4.3183,"1650": 5.518,"1675": 5.7578,"1700": 4.778,"1725": 4.8579,"1750": 5.6775,"1775": 5.7975,"1800": 7.1368,"1825": 9.9155,"1850": 7.7362,"1875": 6.7967,"1900": 6.8966,"1925": 5.4173,"1950": 5.4974,"1975": 5.4573,"2000": 4.7577,"2025": 4.6376,"2050": 4.1378,"2075": 3.658,"2100": 2.7984,"2125": 2.9383,"2150": 2.6984,"2175": 2.6384,"2200": 2.8583,"2225": 2.3786,"2250": 2.0188,"2275": 1.8388,"2300": 1.7588,"2325": 1.599,"2350": 1.579,"2375": 1.1393,"2400": 0.9793,"2425": 0.5996,"2450": 0.3598,"2475": 0.2399,"2500": 0.06,"2525": 0.08,"2550": 0.02}}}