{"type": "Feature","bbox": [-109.8833,28.5101,-109.2949,29.1072],"geometry": {"type": "MultiPolygon","coordinates": [[[[-109.5714,28.9868,966.2003],[-109.5738,28.9954,1356.576],[-109.587,28.9987,954.1374],[-109.597,29.0055,919.5449],[-109.5945,29.0168,1252.5881],[-109.6126,29.0131,726.9178],[-109.6151,29.012,591.2319],[-109.6143,29.0105,640.0187],[-109.6345,29.0071,350.9137],[-109.6429,29.0183,367.5913],[-109.6667,29.0235,342.0548],[-109.7064,29.0352,992.374],[-109.7263,29.0439,1287.5916],[-109.7342,29.0405,1132.5106],[-109.7349,29.0479,1292.6725],[-109.7485,29.0466,1241.7638],[-109.7664,29.0718,888.5099],[-109.7873,29.0547,986.2428],[-109.7899,29.0754,823.6591],[-109.8047,29.0935,582.9146],[-109.8215,29.1037,620.3011],[-109.8521,29.1072,1167.158],[-109.8657,29.0941,962.7294],[-109.8816,29.0897,1200.5939],[-109.87,29.039,990.8214],[-109.8833,29.0208,873.4647],[-109.8484,28.9998,623.9008],[-109.8485,28.9493,713.9061],[-109.8468,28.9316,729.2127],[-109.8405,28.9102,736.7949],[-109.818,28.8843,552.2441],[-109.8421,28.874,559.5242],[-109.8267,28.841,758.8365],[-109.8035,28.8511,624.2793],[-109.7966,28.8328,861.3416],[-109.7911,28.8255,819.6874],[-109.8033,28.7848,872.0738],[-109.7601,28.775,568.067],[-109.7908,28.7641,955.6145],[-109.775,28.7443,868.4492],[-109.7671,28.7467,857.8108],[-109.7499,28.7335,563.2873],[-109.7437,28.7363,606.6496],[-109.7192,28.7269,606.2147],[-109.701,28.724,403.3385],[-109.6834,28.6956,981.4616],[-109.6651,28.6938,735.5486],[-109.6701,28.6844,750.0369],[-109.678,28.6487,905.5051],[-109.6694,28.6375,917.0562],[-109.6739,28.6298,688.2029],[-109.6308,28.5839,384.8239],[-109.6257,28.5703,387.9295],[-109.6525,28.5605,408.1953],[-109.6559,28.5654,477.6159],[-109.6545,28.5619,411.9412],[-109.6619,28.527,550.3137],[-109.6502,28.524,396.2314],[-109.6273,28.5105,687.6159],[-109.6072,28.5466,368.4172],[-109.5494,28.5497,199.0158],[-109.5119,28.5554,471.5493],[-109.4761,28.5562,754.1973],[-109.4331,28.5736,792.0422],[-109.4178,28.5436,1048.9828],[-109.4084,28.5334,830.8547],[-109.4055,28.5234,1212.1023],[-109.3777,28.5186,1193.319],[-109.3661,28.5146,1201.4573],[-109.3631,28.5113,1230.5134],[-109.3516,28.5127,1131.7048],[-109.3453,28.5101,1131.6462],[-109.3396,28.5139,982.664],[-109.3298,28.5109,1375.5996],[-109.3238,28.5117,1146.0134],[-109.3043,28.5198,953.2208],[-109.2949,28.518,824.1276],[-109.2957,28.5492,1125.329],[-109.304,28.5511,1160.5095],[-109.3091,28.5463,991.9053],[-109.3105,28.5416,951.0712],[-109.3215,28.5431,1024.2593],[-109.3395,28.5426,1101.7305],[-109.3433,28.5513,861.2709],[-109.3371,28.5757,1165.384],[-109.3532,28.5777,842.5714],[-109.3553,28.5898,1192.5459],[-109.3425,28.5901,1173.6035],[-109.3428,28.5922,1220.3175],[-109.3345,28.5941,1243.2183],[-109.3432,28.6273,1486.2592],[-109.3499,28.6283,1171.8804],[-109.3554,28.6332,1043.9233],[-109.3556,28.6398,1214.9108],[-109.3539,28.6428,1322.2855],[-109.3573,28.6446,1230.1533],[-109.365,28.6399,950.5189],[-109.3756,28.6441,962.5155],[-109.3748,28.6539,1039.6908],[-109.3673,28.6603,1046.9344],[-109.3708,28.6632,1043.7585],[-109.3672,28.6737,1273.902],[-109.3674,28.6873,1049.1481],[-109.3562,28.7089,1180.5708],[-109.3514,28.734,1284.2698],[-109.3636,28.7323,1211.4882],[-109.3724,28.7292,1236.9209],[-109.3828,28.735,1165.0424],[-109.3899,28.7326,1293.1101],[-109.3944,28.7293,1255.871],[-109.4071,28.7295,1329.9651],[-109.419,28.7264,1406.6792],[-109.4353,28.7559,983.4266],[-109.4361,28.7743,1125.5812],[-109.4164,28.8055,1028.2648],[-109.514,28.8188,1508.417],[-109.5032,28.8335,1451.9269],[-109.5036,28.857,1404.9181],[-109.5342,28.8667,1273.6396],[-109.5109,28.8786,1651.3461],[-109.515,28.8863,1599.0493],[-109.52,28.8889,1506.475],[-109.5291,28.8977,1360.0649],[-109.5468,28.8983,1023.1744],[-109.5641,28.9116,916.707],[-109.545,28.9227,1102.8993],[-109.5618,28.9325,913.0591],[-109.5759,28.9384,519.3856],[-109.5768,28.9556,810.6984],[-109.5714,28.9868,966.2003]]]]}
,"properties": {"GID_2": "MEX.26.64_2","GID_0": "MEX","country": "México","GID_1": "MEX.26_1","province": "Sonora","NL_NAME_1": "NA","county": "Soyopa","VARNAME_2": "NA","NL_NAME_2": "NA","TYPE_2": "Município","ENGTYPE_2": "Municipality","CC_2": "NA","HASC_2": "NA","name": "Soyopa.county","area_km2": 1718.295,"hist_schema_id": "Elevation0-9000","hist_area_km2": {"175": 7.055,"200": 28.488,"225": 51.918,"250": 60.498,"275": 63.553,"300": 59.737,"325": 68.536,"350": 65.442,"375": 65.814,"400": 62.555,"425": 59.782,"450": 56.621,"475": 61.019,"500": 65.47,"525": 67.433,"550": 66.129,"575": 60.596,"600": 54.834,"625": 46.181,"650": 43.95,"675": 43.263,"700": 43.612,"725": 44.056,"750": 41.043,"775": 39.394,"800": 37.87,"825": 35.66,"850": 33.598,"875": 28.751,"900": 27.562,"925": 24.984,"950": 24.541,"975": 21.348,"1000": 19.713,"1025": 19.212,"1050": 17.69,"1075": 15.849,"1100": 13.956,"1125": 10.926,"1150": 9.848,"1175": 8.547,"1200": 7.878,"1225": 7.079,"1250": 5.314,"1275": 4.922,"1300": 3.938,"1325": 2.898,"1350": 2.136,"1375": 2.192,"1400": 1.672,"1425": 0.91,"1450": 0.65,"1475": 0.446,"1500": 0.149,"1525": 0.167,"1550": 0.186,"1575": 0.093,"1600": 0.093,"1625": 0.204,"1650": 0.223,"1675": 0.074,"1700": 0.037}}}