{"type":"Feature","properties":{"GID_2":"MEX.14.39_2","GID_0":"MEX","country":"México","GID_1":"MEX.14_1","province":"Jalisco","NL_NAME_1":"NA","county":"Guachinango","VARNAME_2":"NA","NL_NAME_2":"NA","TYPE_2":"Município","ENGTYPE_2":"Municipality","CC_2":"NA","HASC_2":"NA","name":"Guachinango.county"},
"geometry":{"type": "MultiPolygon","coordinates": [[[[-104.2568,20.6035,1003.8436],[-104.267,20.6142,989.2167],[-104.2745,20.6166,1014.943],[-104.275,20.6222,1012.7798],[-104.2788,20.6238,970.2044],[-104.2801,20.6282,981.6887],[-104.282,20.629,988.5743],[-104.2808,20.6354,978.3314],[-104.2828,20.6362,973.6715],[-104.2815,20.6412,977.8826],[-104.2826,20.6427,986.0347],[-104.2806,20.6464,1001.1124],[-104.2848,20.6529,938.3995],[-104.2834,20.6576,921.7659],[-104.287,20.6586,945.0621],[-104.288,20.6604,926.439],[-104.2864,20.6683,938.0214],[-104.2846,20.6706,909.4333],[-104.2884,20.6754,897.8574],[-104.2891,20.6829,887.9893],[-104.287,20.6865,886.3995],[-104.2893,20.69,883.0123],[-104.2949,20.6925,874.478],[-104.2979,20.6916,889.7542],[-104.3056,20.6942,868.3113],[-104.308,20.6968,865.0918],[-104.3072,20.6998,860.1262],[-104.309,20.7037,855.1257],[-104.3164,20.707,887.2092],[-104.3185,20.7135,846.3096],[-104.3229,20.714,846.3737],[-104.3241,20.7175,860.3596],[-104.3319,20.7167,834.7061],[-104.3359,20.7215,834.1598],[-104.3508,20.7253,884.2271],[-104.3534,20.7359,814.5533],[-104.359,20.7371,809.6209],[-104.3637,20.7444,799.0648],[-104.3671,20.7447,797.3701],[-104.3723,20.7413,794.8221],[-104.3775,20.7424,786.3365],[-104.3765,20.7476,805.2191],[-104.3789,20.7552,814.493],[-104.386,20.7632,769.7083],[-104.3842,20.7665,760.0097],[-104.3887,20.768,780.1221],[-104.3914,20.7726,765.4119],[-104.395,20.7744,779.2638],[-104.3966,20.7808,740.0263],[-104.4018,20.7832,736.3755],[-104.4036,20.7861,760.565],[-104.4125,20.79,726.0906],[-104.4141,20.7938,738.3362],[-104.4191,20.7962,732.0947],[-104.4234,20.7913,714.7812],[-104.4273,20.791,713.1747],[-104.4291,20.7924,710.4091],[-104.4293,20.7968,710.0417],[-104.4343,20.8004,712.74],[-104.4357,20.8058,698.1443],[-104.4386,20.8053,699.4576],[-104.441,20.8077,714.1832],[-104.4493,20.8035,707.693],[-104.4555,20.8068,685.2526],[-104.4584,20.8065,725.6293],[-104.4584,20.809,697.5894],[-104.463,20.8108,701.2798],[-104.46,20.8131,688.6513],[-104.4643,20.814,676.6995],[-104.4742,20.8199,674.2623],[-104.4769,20.8196,720.2862],[-104.4755,20.8227,663.4886],[-104.4803,20.8233,677.286],[-104.4802,20.825,672.3664],[-104.4836,20.8274,679.5007],[-104.4853,20.8333,665.59],[-104.4901,20.835,642.595],[-104.4932,20.8388,661.5861],[-104.4999,20.8382,671.9146],[-104.5032,20.8418,652.7648],[-104.5016,20.8454,611.2366],[-104.5043,20.8468,632.8088],[-104.5064,20.8608,602.4633],[-104.5106,20.8597,611.3243],[-104.514,20.8665,571.7045],[-104.5195,20.8692,578.801],[-104.5226,20.8797,558.7756],[-104.5248,20.8805,562.4929],[-104.5232,20.8829,556.643],[-104.5244,20.8858,554.7072],[-104.529,20.8856,558.0093],[-104.5311,20.8827,550.1505],[-104.5346,20.884,547.3588],[-104.5349,20.8878,545.1382],[-104.5333,20.8897,546.0746],[-104.536,20.8939,542.6432],[-104.5357,20.8959,545.1355],[-104.5433,20.8976,537.1475],[-104.5447,20.9011,570.1116],[-104.5429,20.9119,529.6046],[-104.5511,20.9171,521.5728],[-104.5557,20.9181,520.5013],[-104.5575,20.9208,532.3302],[-104.5569,20.9242,518.834],[-104.5602,20.9262,516.5865],[-104.5645,20.9263,520.7474],[-104.5693,20.9309,532.3729],[-104.5763,20.9307,508.6623],[-104.5782,20.934,561.2971],[-104.5907,20.9346,515.6382],[-104.5915,20.9315,491.2975],[-104.601,20.9314,474.5189],[-104.6071,20.9262,472.9528],[-104.6107,20.9256,470.8608],[-104.6118,20.9232,486.4873],[-104.6189,20.9238,456.8042],[-104.6145,20.9048,501.7876],[-104.6147,20.8967,562.544],[-104.6125,20.895,516.9965],[-104.6139,20.8896,490.5889],[-104.6049,20.8854,512.3622],[-104.6021,20.8762,518.4514],[-104.6005,20.8745,555.2461],[-104.5978,20.875,515.1447],[-104.5928,20.8709,538.1069],[-104.6009,20.8667,557.2283],[-104.5969,20.8629,563.3568],[-104.5922,20.8653,535.145],[-104.5905,20.8567,540.6235],[-104.5925,20.8546,573.1191],[-104.5867,20.8497,581.9075],[-104.5927,20.8408,587.1873],[-104.5878,20.8398,690.9044],[-104.588,20.8375,560.3099],[-104.5903,20.8353,588.0772],[-104.595,20.8369,573.9396],[-104.5961,20.8355,573.9396],[-104.5919,20.8253,622.0751],[-104.5944,20.8178,597.8644],[-104.5903,20.8147,590.8875],[-104.5911,20.8113,610.7231],[-104.5891,20.8097,611.0001],[-104.5851,20.8124,630.6845],[-104.5839,20.8096,610.1969],[-104.5789,20.8082,631.9918],[-104.5787,20.8044,608.1539],[-104.5803,20.8038,623.4337],[-104.584,20.7945,682.1095],[-104.5805,20.7916,662.995],[-104.5761,20.7839,646.6796],[-104.5723,20.7824,676.5844],[-104.573,20.7803,645.4736],[-104.5756,20.7802,684.2958],[-104.5752,20.7787,650.5361],[-104.5717,20.7751,738.0721],[-104.5692,20.7758,665.2688],[-104.5682,20.774,654.7467],[-104.5693,20.7692,725.7093],[-104.571,20.7686,675.1615],[-104.5702,20.7646,677.9579],[-104.5643,20.7612,706.9968],[-104.5565,20.7625,737.976],[-104.5551,20.7524,791.6491],[-104.5528,20.7517,775.3],[-104.5523,20.7538,768.8898],[-104.5486,20.7531,724.083],[-104.5473,20.7495,705.1297],[-104.545,20.75,718.3008],[-104.544,20.7468,713.8358],[-104.5386,20.7429,723.5589],[-104.5382,20.7413,730.0521],[-104.5426,20.7347,749.1835],[-104.5324,20.7236,762.6234],[-104.536,20.721,766.1132],[-104.5354,20.7191,817.3071],[-104.5375,20.7175,831.3274],[-104.5317,20.7115,795.4879],[-104.5345,20.7086,819.9575],[-104.5283,20.7036,876.0686],[-104.5279,20.701,812.5879],[-104.5243,20.6996,818.9524],[-104.5216,20.7009,811.5199],[-104.5241,20.6929,847.1733],[-104.5207,20.6922,868.0593],[-104.5134,20.6834,871.7508],[-104.5188,20.6791,913.0711],[-104.5165,20.6704,870.7299],[-104.517,20.6667,882.1667],[-104.5198,20.6644,935.136],[-104.5099,20.6629,864.2599],[-104.5113,20.658,889.2675],[-104.5094,20.6565,887.0582],[-104.5035,20.6591,952.9714],[-104.4987,20.6549,897.6509],[-104.4964,20.66,901.0354],[-104.495,20.6564,904.1826],[-104.4906,20.6534,919.8756],[-104.4867,20.652,970.5488],[-104.4828,20.6544,999.335],[-104.4824,20.6492,950.5314],[-104.4789,20.6482,924.993],[-104.4851,20.629,978.6],[-104.4876,20.6263,979.4525],[-104.4921,20.6268,1048.9866],[-104.4951,20.6297,967.1657],[-104.5025,20.6286,1028.4185],[-104.5022,20.6217,1053.833],[-104.5011,20.6185,1058.3838],[-104.496,20.6145,1011.2834],[-104.4965,20.6122,1021.5474],[-104.4942,20.6056,1053.3236],[-104.495,20.5988,1061.4979],[-104.4924,20.5962,1054.0178],[-104.4869,20.595,1097.2375],[-104.4853,20.5884,1105.64],[-104.4802,20.5825,1108.5027],[-104.4731,20.5785,1085.4578],[-104.4666,20.5784,1089.4619],[-104.4645,20.5726,1133.209],[-104.4663,20.5707,1111.3135],[-104.4609,20.5657,1109.1997],[-104.4625,20.5578,1146.3986],[-104.4604,20.5547,1153.8585],[-104.4584,20.555,1129.7129],[-104.4583,20.5529,1189.1853],[-104.4541,20.5507,1303.8606],[-104.4494,20.5521,1369.9352],[-104.4463,20.5496,1460.1176],[-104.444,20.55,1477.6215],[-104.4448,20.5467,1405.4176],[-104.4472,20.5461,1383.5742],[-104.4522,20.5399,1327.5853],[-104.4551,20.5318,1230.0596],[-104.4481,20.5307,1264.6643],[-104.4442,20.5317,1247.7666],[-104.4437,20.5291,1300.8131],[-104.4397,20.5256,1311.9789],[-104.4401,20.5216,1352.5677],[-104.4359,20.5194,1312.7434],[-104.4312,20.5137,1345.4316],[-104.4292,20.5152,1344.3154],[-104.423,20.5132,1351.5179],[-104.4179,20.5136,1358.391],[-104.4167,20.515,1367.0903],[-104.4177,20.517,1380.8115],[-104.4152,20.5193,1419.4725],[-104.4028,20.5252,1397.995],[-104.4074,20.5129,1508.1537],[-104.4025,20.516,1477.723],[-104.3909,20.5145,1443.9034],[-104.3792,20.5201,1412.8486],[-104.3796,20.5183,1424.1007],[-104.3743,20.5125,1445.0609],[-104.3632,20.5109,1501.0103],[-104.3577,20.5069,1553.4264],[-104.3485,20.5132,1518.9382],[-104.3456,20.5103,1500.7285],[-104.3417,20.5109,1452.9421],[-104.3373,20.5076,1538.3857],[-104.342,20.5015,1479.9634],[-104.3336,20.4985,1498.871],[-104.3292,20.5003,1466.082],[-104.3277,20.499,1452.7805],[-104.3285,20.5004,1452.7805],[-104.3239,20.4993,1481.2224],[-104.3161,20.4936,1517.9355],[-104.3168,20.4893,1546.8973],[-104.3189,20.4896,1503.9836],[-104.3226,20.4869,1485.1383],[-104.3221,20.4821,1486.9473],[-104.3193,20.4779,1496.0677],[-104.315,20.4779,1501.3029],[-104.3121,20.4758,1523.9388],[-104.3107,20.4788,1515.2863],[-104.3074,20.4808,1527.001],[-104.3058,20.4782,1517.8293],[-104.3072,20.4759,1512.1375],[-104.3046,20.4754,1529.7289],[-104.3061,20.4734,1584.3989],[-104.3015,20.4722,1553.9768],[-104.3009,20.4707,1545.1488],[-104.3028,20.4707,1534.8755],[-104.3027,20.4689,1528.2988],[-104.2794,20.4587,2023.0532],[-104.2721,20.4774,1657.0217],[-104.2724,20.4798,1669.9573],[-104.2759,20.4821,1624.9764],[-104.2759,20.4842,1628.7463],[-104.2783,20.4864,1624.3547],[-104.2782,20.4886,1616.2098],[-104.2809,20.4905,1601.5894],[-104.278,20.4949,1581.1859],[-104.2801,20.4985,1551.8425],[-104.269,20.4963,1608.8887],[-104.2679,20.4973,1615.0415],[-104.2674,20.4958,1587.3701],[-104.2634,20.4945,1618.371],[-104.2624,20.4958,1624.4113],[-104.2587,20.4931,1643.5446],[-104.2549,20.4953,1620.8317],[-104.2545,20.4974,1651.5485],[-104.2521,20.4966,1646.573],[-104.2527,20.4939,1649.0576],[-104.2498,20.4922,1642.1311],[-104.2485,20.4937,1642.1311],[-104.2511,20.4948,1653.1971],[-104.2509,20.4967,1646.573],[-104.248,20.4961,1672.4897],[-104.2475,20.494,1659.162],[-104.2455,20.4947,1673.1265],[-104.2401,20.4925,1720.5262],[-104.2396,20.4937,1720.5262],[-104.2449,20.497,1702.4133],[-104.2433,20.5011,1641.3179],[-104.2515,20.5135,1732.2507],[-104.2451,20.5184,1793.9675],[-104.2452,20.526,1655.204],[-104.2364,20.5292,1559.0458],[-104.2488,20.5356,1505.5156],[-104.2548,20.5353,1513.7681],[-104.2545,20.5359,1499.6946],[-104.2435,20.5391,1516.9781],[-104.2681,20.559,2088.4846],[-104.2659,20.5638,1842.1163],[-104.2623,20.565,1708.0305],[-104.2594,20.5682,1616.453],[-104.2586,20.576,1411.938],[-104.2543,20.5821,1319.5767],[-104.2515,20.5823,1287.842],[-104.2435,20.5874,1101.4241],[-104.2436,20.5914,1083.3075],[-104.2402,20.5962,1035.6967],[-104.2403,20.5979,1019.4014],[-104.2475,20.5987,1035.4116],[-104.2526,20.6028,1002.5195],[-104.2568,20.6035,1003.8436]]]]}}