{"type": "Feature","bbox": [-97.7572,20.2275,-97.6594,20.3065],"geometry": {"type": "MultiPolygon","coordinates": [[[[-97.7365,20.2441,325.2925],[-97.732,20.2469,381.25],[-97.7261,20.2463,708.4413],[-97.7248,20.2437,746.7985],[-97.7052,20.2275,802.0974],[-97.6961,20.2453,317.6395],[-97.6903,20.25,232.8987],[-97.6866,20.2491,229.4081],[-97.6863,20.2532,260.6127],[-97.682,20.2572,178.6231],[-97.684,20.2602,160.2012],[-97.6828,20.2623,153.2536],[-97.6775,20.2632,147.3947],[-97.6748,20.2612,154.7066],[-97.6653,20.2692,139.9059],[-97.6613,20.2665,138.7867],[-97.6594,20.2674,154.7518],[-97.6597,20.2712,192.7106],[-97.6616,20.2704,147.8328],[-97.6643,20.2731,219.1115],[-97.6631,20.2787,345.0782],[-97.6649,20.2798,365.0126],[-97.6632,20.2806,398.7067],[-97.6627,20.2843,461.6703],[-97.6668,20.2829,344.9066],[-97.6664,20.2848,328.0984],[-97.6685,20.2847,306.9514],[-97.6696,20.2888,354.8668],[-97.6714,20.289,269.7592],[-97.6711,20.2906,275.0362],[-97.6731,20.2921,257.9332],[-97.6725,20.2938,274.1273],[-97.6762,20.2954,237.9492],[-97.6762,20.3065,216.0208],[-97.6801,20.3049,229.4648],[-97.6818,20.3022,231.3749],[-97.6881,20.3035,304.9861],[-97.6946,20.3005,451.171],[-97.7048,20.303,463.9185],[-97.7072,20.2983,474.3635],[-97.7059,20.2881,493.296],[-97.7084,20.2853,452.9658],[-97.713,20.2859,497.4447],[-97.7154,20.284,502.5883],[-97.7241,20.2836,479.7314],[-97.7409,20.2746,523.9711],[-97.7472,20.2755,592.8591],[-97.7488,20.2788,587.4112],[-97.7508,20.2796,571.1181],[-97.7572,20.2792,593.6265],[-97.7512,20.2601,212.9022],[-97.7474,20.2632,208.2311],[-97.7475,20.2595,215.4589],[-97.739,20.2532,279.6005],[-97.7376,20.2479,315.2464],[-97.7386,20.2469,323.8964],[-97.7365,20.2441,325.2925]]]]}
,"properties": {"GID_2": "MEX.30.48_2","GID_0": "MEX","country": "México","GID_1": "MEX.30_1","province": "Veracruz","NL_NAME_1": "NA","county": "Coahuitlán","VARNAME_2": "NA","NL_NAME_2": "NA","TYPE_2": "Município","ENGTYPE_2": "Municipality","CC_2": "NA","HASC_2": "NA","name": "Coahuitlán.county","area_km2": 41.90673,"hist_schema_id": "Elevation0-9000","hist_area_km2": {"125": 0.01989,"150": 2.98343,"175": 4.7535,"200": 3.16238,"225": 2.86397,"250": 3.38105,"275": 3.42074,"300": 3.04287,"325": 2.84398,"350": 2.14792,"375": 1.49166,"400": 1.6508,"425": 0.81544,"450": 0.87514,"475": 0.75581,"500": 0.6166,"525": 0.51716,"550": 0.83542,"575": 0.91501999999999994,"600": 0.95481,"625": 0.89514,"650": 0.67633,"675": 0.7758,"700": 0.65645,"725": 0.23872,"750": 0.19893,"775": 0.23872,"800": 0.13925,"825": 0.03979}}}