{"type": "Feature","bbox": [-92.6593,17.1657,-92.3314,17.5749],"geometry": {"type": "MultiPolygon","coordinates": [[[[-92.5306,17.1932,1736.3589],[-92.4848,17.1787,1516.3124],[-92.4751,17.1716,1609.4001],[-92.4739,17.1686,1692.5444],[-92.4403,17.1657,1779.4951],[-92.4346,17.1701,2116.6873],[-92.4432,17.1782,1493.4341],[-92.439,17.1826,1219.1517],[-92.4298,17.1784,1451.0231],[-92.4306,17.1839,1047.7318],[-92.4178,17.1968,1168.0532],[-92.4109,17.193,1181.4716],[-92.4066,17.1951,1217.3098],[-92.4024,17.1949,1187.2747],[-92.4047,17.1963,1228.9011],[-92.4034,17.1975,1201.2511],[-92.3956,17.1951,1074.5791],[-92.3917,17.201,914.4014],[-92.3809,17.1989,957.8941],[-92.3776,17.2022,888.9402],[-92.3733,17.2129,747.1185],[-92.3633,17.2191,717.4047],[-92.3791,17.2538,1110.5137],[-92.3763,17.2981,1551.8191],[-92.4019,17.3007,1268.7113],[-92.4013,17.3438,1510.5812],[-92.3989,17.362,956.2101],[-92.4032,17.3681,785.0319],[-92.4026,17.381,153.7311],[-92.3922,17.3823,136.646],[-92.4027,17.424,71.2648],[-92.3932,17.427,75.6704],[-92.3942,17.4314,85.6399],[-92.3828,17.4339,79.9391],[-92.3881,17.4561,69.2677],[-92.3712,17.4598,85.0348],[-92.3672,17.4552,82.3281],[-92.3658,17.4569,139.0319],[-92.3643,17.4556,167.7745],[-92.3658,17.454,85.5136],[-92.3645,17.4528,75.7117],[-92.3608,17.4531,107.1282],[-92.3545,17.4481,244.3272],[-92.3503,17.4413,220.1239],[-92.3428,17.4456,436.3633],[-92.3314,17.4584,464.4665],[-92.3341,17.4706,389.8264],[-92.3551,17.485,546.1838],[-92.3603,17.4859,560.8936],[-92.3612,17.4899,617.4517],[-92.3759,17.4869,537.9587],[-92.3744,17.4901,565.5001],[-92.3754,17.494,562.6686],[-92.3825,17.5013,538.1948],[-92.3819,17.5046,552.3596],[-92.3908,17.506,458.3861],[-92.39,17.5233,669.6556],[-92.3933,17.5232,675.6559],[-92.3997,17.5185,587.7797],[-92.4218,17.5099,412.3191],[-92.4221,17.5076,408.8183],[-92.4466,17.5144,550.4467],[-92.4533,17.514,526.076],[-92.4808,17.5188,362.7055],[-92.4889,17.5249,328.5194],[-92.489,17.531,356.0309],[-92.4855,17.5319,409.7585],[-92.4795,17.5749,137.9395],[-92.4972,17.5722,29.8759],[-92.5086,17.574,21.8032],[-92.52,17.573,20.7294],[-92.5301,17.55,126.2809],[-92.5539,17.5427,24.8334],[-92.5579,17.5402,25.9236],[-92.5599,17.5448,27.9391],[-92.5714,17.5496,27.0987],[-92.597,17.5204,126.1552],[-92.5923,17.5129,165.1285],[-92.5923,17.5096,173.5018],[-92.5939,17.5051,441.249],[-92.5999,17.5008,90.0448],[-92.5941,17.493,177.3756],[-92.6058,17.4774,103.7428],[-92.6243,17.4659,340.0582],[-92.6414,17.4635,443.7567],[-92.6489,17.4607,305.262],[-92.6545,17.4557,269.6892],[-92.6593,17.4446,83.7062],[-92.6487,17.4361,97.8224],[-92.6356,17.4455,826.6297],[-92.6301,17.4463,971.462],[-92.6189,17.4245,856.485],[-92.6071,17.4231,1135.7422],[-92.5999,17.4127,910.6176],[-92.5928,17.395,829.1953],[-92.5921,17.3912,711.9722],[-92.5935,17.3904,681.3707],[-92.5917,17.3904,725.5726],[-92.5911,17.3885,834.7655],[-92.5919,17.3874,797.6678],[-92.5869,17.3611,960.4441],[-92.5888,17.3596,959.4312],[-92.6007,17.3588,708.2213],[-92.6107,17.3477,205.3285],[-92.601,17.3406,349.277],[-92.5932,17.3307,414.3572],[-92.5919,17.3264,349.7881],[-92.5904,17.3263,432.3766],[-92.5914,17.325,327.0126],[-92.5871,17.3224,407.4238],[-92.5874,17.3202,315.8073],[-92.5844,17.3176,364.0684],[-92.5847,17.3155,344.1372],[-92.5862,17.3163,303.4768],[-92.5825,17.31,313.4561],[-92.5775,17.3054,246.518],[-92.5725,17.3041,337.3016],[-92.5571,17.2953,269.6388],[-92.5589,17.31,1028.7668],[-92.5567,17.3117,965.5414],[-92.5541,17.3104,667.4496],[-92.5512,17.3116,590.8512],[-92.5501,17.3096,574.7419],[-92.5494,17.3109,515.0372],[-92.5446,17.311,387.3592],[-92.5395,17.2929,724.1923],[-92.5426,17.2881,635.5809],[-92.5376,17.2914,806.1862],[-92.5338,17.2864,668.8026],[-92.5245,17.2825,586.3635],[-92.5199,17.2739,695.9604],[-92.5114,17.2718,807.0742],[-92.5143,17.2632,999.8768],[-92.5149,17.2226,668.0446],[-92.5306,17.1932,1736.3589]]]]}
,"properties": {"GID_2": "MEX.5.104_2","GID_0": "MEX","country": "México","GID_1": "MEX.5_1","province": "Chiapas","NL_NAME_1": "NA","county": "Tila","VARNAME_2": "NA","NL_NAME_2": "NA","TYPE_2": "Município","ENGTYPE_2": "Municipality","CC_2": "NA","HASC_2": "NA","name": "Tila.county","area_km2": 803.7456,"hist_schema_id": "Elevation0-9000","hist_area_km2": {"25": 40.8027,"50": 31.4683,"75": 39.017,"100": 29.2867,"125": 21.6404,"150": 14.8852,"175": 12.4579,"200": 10.8201,"225": 9.546,"250": 9.7283,"275": 9.2227,"300": 9.2228,"325": 9.0405,"350": 11.8108,"375": 11.7705,"400": 13.8741,"425": 11.6903,"450": 9.3045,"475": 7.7876,"500": 7.5654,"525": 6.4127,"550": 6.8784,"575": 7.2228,"600": 6.6361,"625": 5.3015,"650": 6.718,"675": 7.4061,"700": 6.7794,"725": 10.3033,"750": 13.6449,"775": 15.2036,"800": 15.3049,"825": 13.6652,"850": 12.9966,"875": 13.5017,"900": 13.1376,"925": 13.9669,"950": 12.995,"975": 13.5421,"1000": 13.8054,"1025": 13.2994,"1050": 13.6434,"1075": 13.3199,"1100": 13.9676,"1125": 11.7005,"1150": 12.8943,"1175": 11.983,"1200": 12.2464,"1225": 12.1042,"1250": 12.0033,"1275": 10.8083,"1300": 10.6265,"1325": 10.1407,"1350": 9.3307,"1375": 8.1566,"1400": 7.934,"1425": 7.6305,"1450": 7.5087,"1475": 7.3871,"1500": 7.3062,"1525": 7.5082,"1550": 6.5164,"1575": 5.0593,"1600": 4.8169,"1625": 3.4408,"1650": 3.117,"1675": 3.3396,"1700": 2.3478,"1725": 2.6312,"1750": 2.5299,"1775": 1.6192,"1800": 1.4168,"1825": 1.5584,"1850": 1.3156,"1875": 1.1334,"1900": 1.3358,"1925": 0.9309,"1950": 0.6679,"1975": 0.425,"2000": 0.6072,"2025": 0.5464,"2050": 0.4048,"2075": 0.081,"2125": 0.0405}}}