{"type":"Feature","properties":{"GID_2":"MEX.30.41_2","GID_0":"MEX","country":"México","GID_1":"MEX.30_1","province":"Veracruz","NL_NAME_1":"NA","county":"Chinameca","VARNAME_2":"NA","NL_NAME_2":"NA","TYPE_2":"Município","ENGTYPE_2":"Municipality","CC_2":"NA","HASC_2":"NA","name":"Chinameca.county"},
"geometry":{"type": "MultiPolygon","coordinates": [[[[-94.5942,18.0963,4.6436],[-94.6,18.1004,4.7894],[-94.6052,18.1007,4.507],[-94.6135,18.1075,4.74],[-94.6148,18.1072,3.616],[-94.615,18.1026,5.2782],[-94.6127,18.1025,4.4539],[-94.6129,18.0986,1.7823],[-94.6179,18.0979,4.6821],[-94.6187,18.1004,3.7787],[-94.62,18.0987,4.4237],[-94.6216,18.1004,4.0753],[-94.6267,18.0999,4.7499],[-94.6287,18.0936,4.5116],[-94.6395,18.0924,6.5621],[-94.6422,18.0946,9.4438],[-94.6458,18.0949,5.7036],[-94.6534,18.0894,7.2754],[-94.6608,18.091,7.2997],[-94.6616,18.0877,8.1693],[-94.6632,18.0983,7.4997],[-94.6661,18.0975,9.4942],[-94.6692,18.0938,11.1892],[-94.6684,18.0915,11.1894],[-94.6712,18.0943,10.283],[-94.6729,18.092,11.3279],[-94.6761,18.092,11.1983],[-94.6761,18.0886,12.0363],[-94.6779,18.0928,11.5336],[-94.6747,18.0959,11.7576],[-94.6771,18.0954,13.5941],[-94.6779,18.0978,11.9051],[-94.6854,18.0972,14.014099999999999],[-94.6844,18.0992,13.8141],[-94.6887,18.101,13.6121],[-94.6891,18.0981,15.7964],[-94.6934,18.1,16.243],[-94.6932,18.1024,14.1101],[-94.6955,18.0988,15.7725],[-94.6958,18.1016,14.8269],[-94.6975,18.0985,17.3505],[-94.6988,18.0986,18.0445],[-94.702,18.1005,16.8455],[-94.7031,18.1055,19.8986],[-94.7062,18.1042,16.5236],[-94.7089,18.1059,18.0926],[-94.7078,18.1038,17.8711],[-94.7112,18.1052,20.069],[-94.713,18.1039,18.9791],[-94.7112,18.1102,19.6418],[-94.7137,18.1113,19.7371],[-94.7165,18.1097,18.3374],[-94.7165,18.1115,18.5641],[-94.7187,18.1116,19.4457],[-94.7194,18.1149,19.3825],[-94.7202,18.1131,20.9155],[-94.726,18.1148,20.7851],[-94.7267,18.1199,21.5184],[-94.7309,18.1186,20.6652],[-94.7329,18.1159,21.2033],[-94.74,18.1186,22.194],[-94.7413,18.1153,31.218],[-94.7431,18.1172,24.0954],[-94.7441,18.1147,37.8734],[-94.7416,18.1122,34.2204],[-94.7437,18.1055,33.4588],[-94.7365,18.1019,29.6002],[-94.744,18.0901,18.6483],[-94.7441,18.0833,24.811],[-94.7497,18.0821,27.0122],[-94.7596,18.0854,32.7859],[-94.7773,18.0848,40.2383],[-94.7868,18.0882,50.6815],[-94.7886,18.0828,48.1363],[-94.7968,18.0866,58.9251],[-94.7967,18.0855,58.9251],[-94.8002,18.0866,57.2446],[-94.8001,18.0741,41.3607],[-94.7962,18.0741,37.6982],[-94.7952,18.0722,35.3114],[-94.8165,18.0454,39.727],[-94.8196,18.0433,41.0987],[-94.8182,18.0414,52.784],[-94.8165,18.0427,40.7851],[-94.8152,18.0417,47.5924],[-94.8124,18.0445,39.9368],[-94.8084,18.043,38.1028],[-94.8082,18.0411,40.4344],[-94.8041,18.0424,41.585],[-94.8043,18.0397,45.4822],[-94.800299999999993,18.0412,46.4888],[-94.8018,18.0387,49.4564],[-94.8,18.0354,36.9341],[-94.7967,18.034,32.9992],[-94.7951,18.0298,34.579],[-94.7919,18.0282,33.4057],[-94.7939,18.0282,35.0847],[-94.7903,18.0264,31.4512],[-94.7913,18.0251,32.0751],[-94.7896,18.0243,32.3305],[-94.788,18.026,30.2742],[-94.7846,18.0236,38.745],[-94.7825,18.0249,39.221],[-94.7821,18.0233,58.3864],[-94.7782,18.025,36.434],[-94.7779,18.0268,28.5938],[-94.7761,18.0255,26.9659],[-94.7702,18.0269,26.3781],[-94.7293,18.0206,17.7279],[-94.7288,18.0224,15.0341],[-94.7254,18.024,12.5396],[-94.7259,18.0201,26.3404],[-94.7053,18.017,33.8873],[-94.6988,18.0104,38.596],[-94.7053,18.0074,30.0321],[-94.7028,18.0045,27.568],[-94.698,18.0043,58.9649],[-94.6972,18.001,60.119],[-94.693,18.0061,50.5121],[-94.6835,18.0124,47.5954],[-94.6757,18.0092,38.796],[-94.6696,18.014,28.2372],[-94.6614,18.0122,31.2834],[-94.6569,18.016,22.5463],[-94.6491,18.0183,15.6994],[-94.6194,18.0382,14.4729],[-94.612,18.0528,17.5319],[-94.6041,18.0598,27.4425],[-94.6068,18.076,13.5655],[-94.6023,18.0724,28.2139],[-94.5998,18.0747,19.5067],[-94.5959,18.0748,18.4902],[-94.5957,18.0802,17.1232],[-94.5927,18.0802,25.5132],[-94.5926,18.0829,8.3144],[-94.5904,18.0836,17.1719],[-94.5895,18.0862,15.1682],[-94.591,18.0875,7.4135],[-94.5889,18.0876,15.6723],[-94.5879,18.0907,8.007],[-94.5902,18.0917,3.2301],[-94.5914,18.0952,2.7835],[-94.5931,18.0947,2.7835],[-94.5942,18.0963,4.6436]]]]}}