{"type":"Feature","properties":{"GID_2":"MEX.31.14_2","GID_0":"MEX","country":"México","GID_1":"MEX.31_1","province":"Yucatán","NL_NAME_1":"NA","county":"Chankom","VARNAME_2":"NA","NL_NAME_2":"NA","TYPE_2":"Município","ENGTYPE_2":"Municipality","CC_2":"NA","HASC_2":"NA","name":"Chankom.county"},
"geometry":{"type": "MultiPolygon","coordinates": [[[[-88.4966,20.622,35.9174],[-88.5143,20.6267,39.6705],[-88.5305,20.6384,31.0031],[-88.5452,20.6359,31.4068],[-88.5469,20.6408,33.9105],[-88.5536,20.6389,28.1013],[-88.5751,20.6371,32.4034],[-88.5844,20.6382,33.1246],[-88.5839,20.6422,34.3532],[-88.5925,20.6454,32.0496],[-88.6053,20.6471,36.879],[-88.612,20.6457,34.6656],[-88.6144,20.6173,31.8678],[-88.625,20.6186,29.38],[-88.6252,20.6261,34.1287],[-88.6354,20.6281,31.5442],[-88.6477,20.6286,27.5879],[-88.6477,20.6258,30.045],[-88.6554,20.6258,29.0438],[-88.658,20.622,29.6026],[-88.6468,20.6199,34.2164],[-88.6342,20.6022,29.3118],[-88.6333,20.5991,29.8859],[-88.6358,20.5904,28.3865],[-88.628,20.5916,29.8181],[-88.6251,20.5701,27.7926],[-88.6258,20.5639,27.6634],[-88.6233,20.5555,29.6206],[-88.613,20.5548,29.918],[-88.613,20.5531,33.3359],[-88.6126,20.5035,28.2529],[-88.6107,20.483,30.097],[-88.6309,20.4829,34.2035],[-88.6311,20.4718,30.4296],[-88.6354,20.4533,35.5025],[-88.6381,20.4504,34.5731],[-88.6579,20.4521,32.3812],[-88.6559,20.4232,33.078],[-88.6576,20.4181,33.162],[-88.6442,20.4195,34.5812],[-88.6432,20.4046,30.0401],[-88.6505,20.4064,32.9669],[-88.6526,20.3526,28.8821],[-88.6483,20.351,36.1897],[-88.6554,20.2927,27.9178],[-88.6481,20.2928,32.1933],[-88.6454,20.2835,33.9975],[-88.6172,20.2797,28.6693],[-88.6176,20.2899,32.2251],[-88.6107,20.2894,30.5878],[-88.6122,20.2966,32.9603],[-88.6114,20.3158,33.285],[-88.6044,20.3142,33.625],[-88.6032,20.3186,31.976],[-88.5976,20.3163,33.2075],[-88.5879,20.4117,34.7386],[-88.5286,20.4049,35.5228],[-88.5225,20.4486,33.4059],[-88.5176,20.4696,31.664],[-88.5133,20.4708,29.2245],[-88.5098,20.4741,30.8928],[-88.5042,20.4749,32.8797],[-88.4973,20.4803,33.3597],[-88.4716,20.4939,27.584],[-88.4502,20.4913,31.2371],[-88.4488,20.5128,33.0472],[-88.458,20.5157,32.0867],[-88.4558,20.5224,30.352],[-88.4418,20.5344,31.2658],[-88.4236,20.5321,31.3822],[-88.424,20.5363,32.0655],[-88.4337,20.5393,31.415],[-88.4579,20.5344,31.1173],[-88.5035,20.528199999999998,33.0181],[-88.5278,20.5209,32.9752],[-88.5364,20.5252,31.6804],[-88.5482,20.5265,30.0982],[-88.5466,20.5364,26.822],[-88.5005,20.5389,30.9466],[-88.5013,20.5518,31.1816],[-88.5038,20.5518,30.7376],[-88.5043,20.561,31.5153],[-88.4884,20.561,34.4221],[-88.4881,20.5656,37.7729],[-88.4697,20.5657,31.8972],[-88.4699,20.5692,40.4569],[-88.4567,20.5691,35.2776],[-88.4531,20.5918,33.5128],[-88.4477,20.6003,35.7148],[-88.4468,20.6079,34.6584],[-88.4717,20.6073,31.0162],[-88.4941,20.6037,32.4984],[-88.4973,20.6175,34.4881],[-88.4966,20.622,35.9174]]]]}}