{"type":"Feature","properties":{"featurecla":"River","scalerank":11,"rivernum":22329,"dissolve":"22329River","name":"Rios Oteros","name_alt":null,"note":"ID is link back to CEC data","name_full":"Rios Oteros","min_zoom":6.7,"strokeweig":0.2,"uident":1994801,"min_label":7.7},
"geometry":{"type": "LineString","coordinates": [[-107.7162166006454,27.763495184369035,2444.2656],[-107.71947180897872,27.744696356244035,2431.8218],[-107.73468990793705,27.729925848431535,2410.2031],[-107.74010169179122,27.71340566613987,2313.9233],[-107.75804602772872,27.700140692181535,2300.7422],[-107.76463782460372,27.68459707238987,2477.1943],[-107.81769772043705,27.651556707806535,2199.7493],[-107.85993404856205,27.6290143900982,2164.3855],[-107.8946833975204,27.59865957238987,2047.1176],[-107.92857825429122,27.604925848431535,1856.8561],[-107.94200598866622,27.6111921244732,1846.8931],[-107.96833248606205,27.63235097863987,1671.9968],[-107.97858639231205,27.65090566613987,1770.9062],[-107.98790442616622,27.66921621301487,1595.3326],[-108.00348873606205,27.6785749369732,1437.6709],[-108.0094294912704,27.6932233744732,1682.4644],[-108.01008053293705,27.7188581400982,1595.1101],[-108.01366126210372,27.7313093119732,1516.5405],[-108.02147376210372,27.7415632182232,1661.6606],[-108.0768123037704,27.7867292338482,1024.2804],[-108.08356686106205,27.799261785931535,1206.6346],[-108.11705481679122,27.7962507182232,1156.2015],[-108.12926184804122,27.80056386926487,946.9011],[-108.1600642568954,27.82082754113987,1086.8955],[-108.17341061106205,27.8226179057232,1159.0551],[-108.20506751210372,27.8106550150982,1141.5563],[-108.22362219960372,27.80691152551487,1325.0533],[-108.25348873606205,27.811712957806535,890.0189],[-108.27448482981205,27.818793035931535,857.6703],[-108.29759680897872,27.809027410931535,982.9827],[-108.32868404856205,27.789618231244035,1201.8336],[-108.33763587147872,27.7742780619732,1123.5897],[-108.34430904856205,27.74514394738987,1167.2181],[-108.35553951731205,27.72951894738987,1415.4187],[-108.3817439443954,27.70315175988987,1080.3962],[-108.39167232981205,27.668036199994035,863.739],[-108.3939509756454,27.66530996301487,802.8842],[-108.40074622304122,27.6570905619732,971.7617],[-108.41218014231205,27.643377996869035,657.1523],[-108.42072506418705,27.638373114056535,657.564],[-108.4337458975204,27.63064199426487,633.8903],[-108.43492591054122,27.612372137494035,954.455],[-108.44505774647872,27.5938581400982,911.5328],[-108.46515865793705,27.5682233744732,658.8232],[-108.4774470693954,27.54348379113987,552.5913],[-108.49421139231205,27.53200918176487,524.703],[-108.50885982981205,27.504461981244035,651.7238],[-108.51305091054122,27.486395574994035,515.9994],[-108.53307044179122,27.469061590619035,548.0383],[-108.55036373606205,27.45925527551487,711.0366],[-108.5558162100204,27.448309637494035,549.7919],[-108.5467830068954,27.416571356244035,492.3479],[-108.54430091054122,27.386419989056535,456.9],[-108.53734290272872,27.378363348431535,423.9638],[-108.52684485585372,27.376898504681535,546.2651],[-108.5174861318954,27.35793691613987,456.354],[-108.50951087147872,27.3428815775982,452.9695],[-108.50243079335372,27.333807684369035,496.2833],[-108.48835201731205,27.29323965051487,788.5515],[-108.46202551991622,27.242499090619035,370.5107],[-108.4632869131454,27.224798895306535,521.1401],[-108.48005123606205,27.2086042338482,785.2016],[-108.48713131418705,27.1951764994732,719.0426],[-108.50475012929122,27.150946356244035,530.3354],[-108.50300045481205,27.11697011926487,685.6357],[-108.48615475168705,27.09792715051487,346.6482],[-108.4842830068954,27.078680731244035,570.3167],[-108.48509680897872,27.04592519738987,502.8047],[-108.4796443350204,27.04055410363987,327.6531],[-108.43968665272872,27.029852606244035,357.8669],[-108.4090876943954,27.0132917338482,270.3687],[-108.39500891835372,27.00661855676487,249.0],[-108.38548743397872,26.991888739056535,256.8649],[-108.37596594960372,26.9827741557232,249.0],[-108.36070716054122,26.9761823588482,424.6839],[-108.35142981679122,26.963812567181535,432.5408],[-108.34886634022872,26.919012762494035,249.0]]}}