{"type":"Feature","properties":{"featurecla":"River","scalerank":12,"rivernum":22312,"dissolve":"22312River","name":"Tenoriba","name_alt":null,"note":"ID is link back to CEC data","name_full":"Rio Tenoriba","min_zoom":7.0,"strokeweig":0.15,"uident":2002601,"min_label":8.0},
"geometry":{"type": "LineString","coordinates": [[-106.64753170481205,26.031317449994035,2356.9788],[-106.62067623606205,26.01443105676487,2390.4854],[-106.58031165272872,25.982530015098206,2273.9968],[-106.5685115225204,25.979559637494035,2426.1892],[-106.5619197256454,25.980536199994035,2561.7837],[-106.55431067616622,25.981634832806535,2622.446],[-106.5199275381454,25.999335028119035,2534.1069],[-106.5025935537704,26.00124746301487,2576.9944],[-106.49791419179122,26.00173574426487,2474.1597],[-106.49006100168705,26.0025495463482,2603.3921],[-106.47130286366622,25.996608791139863,2576.4985],[-106.4422908193954,25.980332749473206,2760.7925],[-106.4335017568954,25.971462306764863,2728.606],[-106.42955481679122,25.959824936973206,2893.2346]]}}