{"type":"Feature","properties":{"featurecla":"River","scalerank":11,"rivernum":22277,"dissolve":"22277River","name":"Ameca","name_alt":null,"note":"ID is link back to CEC data","name_full":"Ameca","min_zoom":6.7,"strokeweig":0.15,"uident":2028001,"min_label":7.7},
"geometry":{"type": "LineString","coordinates": [[-104.2853083975204,20.636786199994035,1013.0194],[-104.2772517568954,20.625352280723206,970.2044],[-104.26390540272872,20.615912176556535,1083.1931],[-104.24885006418707,20.610947983848206,1093.2048],[-104.2191462881454,20.612819728639863,1160.199],[-104.2049861318954,20.612331447389863,1213.0913],[-104.18578040272872,20.601263739056535,1207.2762],[-104.1588435537704,20.580837306764863,1208.9153],[-104.13646399647872,20.566758530723206,1211.0679],[-104.1036677725204,20.562811590619035,1229.7462],[-104.08796139231207,20.557399806764863,1216.0188],[-104.06672115793707,20.547674871869035,1230.1682],[-104.05842037668707,20.542425848431535,1226.4348],[-104.05256100168707,20.533514715619035,1251.3286],[-104.04987545481207,20.521104233848206,1277.3135],[-104.05333411366622,20.508734442181535,1311.8407],[-104.07404537668707,20.478135483848206,1371.3181],[-104.07640540272872,20.461981512494035,1393.8896],[-104.07335364491622,20.432155666139863,1466.9808],[-104.06993567616622,20.426703192181535,1494.2305]]}}