{"type":"Feature","properties":{"featurecla":"River","scalerank":11,"rivernum":22280,"dissolve":"22280River","name":"Ro Verde","name_alt":null,"note":"ID is link back to CEC data","name_full":"Ro Verde","min_zoom":6.7,"strokeweig":0.2,"uident":2027401,"min_label":7.7},
"geometry":{"type": "LineString","coordinates": [[-103.25816809804122,20.722520249473206,1126.2317],[-103.20677649647872,20.735907293744035,1288.2056],[-103.18419348866622,20.747870184369035,1645.9583],[-103.14317786366622,20.766058660931535,1619.0592],[-103.12743079335372,20.770453192181535,1606.6976],[-103.09919186106207,20.771511134889863,1690.9373],[-103.08576412668707,20.800156968223206,1722.9077],[-103.01154537668707,20.809597072389863,1698.3313],[-103.00145423085372,20.813503322389863,1720.635],[-102.96141516835372,20.845526434369035,1797.8015],[-102.94074459543707,20.850897528119035,1605.2275],[-102.93187415272872,20.859686590619035,1786.9164],[-102.93390865793707,20.868760483848206,1487.0833],[-102.9430232412704,20.876288153119035,1350.0775],[-102.94758053293707,20.886257228639863,1749.946],[-102.94188391835372,20.919053452598206,1840.3735],[-102.92780514231207,20.943386134889863,1698.9617],[-102.92756100168707,20.943874416139863,1690.6321],[-102.91559811106207,20.964911199994035,1564.1152],[-102.91234290272872,20.984483140098206,1582.369],[-102.90404212147872,21.001776434369035,1580.4561],[-102.88805091054122,21.010768947389863,1625.8569],[-102.87364661366622,21.012762762494035,1417.7844],[-102.85362708241622,20.998724676556535,1500.2993],[-102.80626380116622,21.028916733848206,1516.6223],[-102.79938717356207,21.039618231244035,1633.0426],[-102.81712805897872,21.041083074994035,1593.5901],[-102.82249915272872,21.050401108848206,1645.5233],[-102.82746334543707,21.097235418744035,1702.1729],[-102.81700598866622,21.132106838014863,1772.0553],[-102.8172908193954,21.146755275514863,1572.9746],[-102.82115637929122,21.163600978639863,1695.4597],[-102.80785071522872,21.178330796348206,1673.6635],[-102.75853430897872,21.206813869264863,1710.531],[-102.73102779856207,21.208604233848206,1733.4872],[-102.72638912668707,21.225205796348206,1696.772],[-102.69782467356207,21.205145574994035,1692.7449],[-102.6739802725204,21.226345119264863,1664.7498],[-102.65330969960372,21.223252671348206,1707.2324],[-102.63011634022872,21.224147853639863,1753.6425],[-102.6258845693954,21.213324285931535,1712.1586],[-102.60260982981207,21.226752020306535,1755.1085],[-102.58177649647872,21.217718817181535,1725.7933],[-102.5594783193954,21.217637436973206,1698.7256],[-102.51744544179122,21.210557358848206,1737.5475],[-102.48835201731207,21.194403387494035,1722.5914],[-102.46654212147872,21.166856186973206,1741.1699],[-102.4542537100204,21.160264390098206,1777.1014],[-102.43175208241622,21.161403713014863,1774.6276],[-102.40729732981207,21.150661525514863,1775.1488],[-102.37682044179122,21.145615952598206,1795.9631]]}}