{"type":"Feature","properties":{"featurecla":"River","scalerank":10,"rivernum":22261,"dissolve":"22261River","name":"Armeria","name_alt":null,"note":"ID is link back to CEC data","name_full":"Armeria","min_zoom":6.0,"strokeweig":0.15,"uident":2032301,"min_label":7.0},
"geometry":{"type": "LineString","coordinates": [[-104.14854895741622,20.431748765098206,2189.585],[-104.12531490793707,20.421006577598206,2036.0837],[-104.11530514231207,20.410996811973206,1973.1606],[-104.1161189443954,20.395209051556535,1950.8572],[-104.12677975168707,20.377793686973206,1941.7595],[-104.1356501943954,20.368434963014863,1943.2148],[-104.1598201162704,20.351426499473206,1744.4526],[-104.17552649647872,20.337347723431535,1714.4496],[-104.1942439443954,20.304795640098206,1558.4172],[-104.21556555897872,20.294785874473206,1428.5127],[-104.24132239491622,20.296210028119035,1449.7764],[-104.25548255116622,20.262966213014863,1492.0016],[-104.26768958241622,20.255235093223206,1432.9871],[-104.29157467356207,20.255479233848206,1418.455],[-104.29893958241622,20.244574285931535,1472.4315],[-104.3111873037704,20.232367254681535,1463.4832]]}}