{"type":"Feature","properties":{"GID_2":"MEX.7.27_2","GID_0":"MEX","country":"México","GID_1":"MEX.7_1","province":"Coahuila","NL_NAME_1":"NA","county":"RamosArizpe","VARNAME_2":"NA","NL_NAME_2":"NA","TYPE_2":"Município","ENGTYPE_2":"Municipality","CC_2":"NA","HASC_2":"NA","name":"Ramos_Arizpe.county"},
"geometry":{"type": "MultiPolygon","coordinates": [[[[-100.6086,25.5134,2484.7769],[-100.5998,25.52,2802.8584],[-100.5297,25.5144,2701.6074],[-100.5384,25.5319,3002.7859],[-100.5483,25.5343,2803.9683],[-100.56,25.5349,2548.562],[-100.5943,25.5444,2684.137],[-100.6147,25.5423,2078.9004],[-100.615,25.5466,2071.1797],[-100.612,25.5514,2046.547],[-100.6329,25.5713,2627.4521],[-100.6443,25.5725,2248.2234],[-100.6585,25.568,2568.0544],[-100.6643,25.5694,2566.3921],[-100.6903,25.5671,2372.6108],[-100.7199,25.6031,2461.6147],[-100.7298,25.6339,1863.479],[-100.7834,25.6397,1187.2225],[-100.7804,25.6457,1425.6298],[-100.7878,25.6836,1138.4443],[-100.8037,25.7088,1314.0403],[-100.8056,25.7243,1539.748],[-100.8251,25.7517,1126.3911],[-100.8619,25.8185,1377.0597],[-100.8471,25.8579,1209.434],[-100.8371,25.8638,1358.0862],[-100.8358,25.8666,1406.8468],[-100.8227,25.9169,714.8412],[-100.8272,25.9205,721.851],[-100.8344,25.945,1145.2659],[-100.8769,25.9472,1012.4172],[-100.9055,25.9569,756.8257],[-100.9046,26.0087,898.827],[-100.9164,26.0756,1049.6211],[-100.9429,26.0868,1040.446],[-100.9426,26.0906,1061.8044],[-100.9529,26.1003,1007.2209],[-100.9723,26.1277,1131.2719],[-100.9827,26.1395,1098.6769],[-101.0089,26.1538,1073.8225],[-101.0272,26.1597,1044.0894],[-101.0474,26.1698,987.624],[-101.0686,26.189,942.8083],[-101.0746,26.199,919.0245],[-101.1231,26.1852,1359.3962],[-101.1403,26.2174,1581.0464],[-101.182,26.2411,1640.2561],[-101.2205,26.2815,1875.9893],[-101.2356,26.2899,2004.4437],[-101.2378,26.2851,1764.759],[-101.3115,26.3101,2252.3604],[-101.3125,26.3054,2134.0042],[-101.316,26.3001,2067.0847],[-101.3224,26.2977,1906.5935],[-101.3299,26.2987,1744.5159],[-101.3462,26.3052,1263.501],[-101.3454,26.3006,1326.2366],[-101.348,26.2958,1230.446],[-101.3713,26.2702,1131.4318],[-101.4549,26.2674,1164.8551],[-101.5053,26.3388,1262.662],[-101.5585,26.2665,1191.5017],[-101.5806,26.2793,1295.5549],[-101.6268,26.2971,1278.7557],[-101.6411,26.3126,1326.4341],[-101.66,26.3233,1282.8719],[-101.6794,26.3972,2518.3135],[-101.6936,26.2993,1210.7061],[-101.7074,26.3013,1177.6904],[-101.7144,26.313,1197.4449],[-101.7393,26.3107,1139.1145],[-101.8108,26.3289,1089.8019],[-101.7936,26.2237,1103.6498],[-101.869,26.2232,1151.2758],[-101.8661,26.2142,1157.3197],[-101.8949,26.1276,1714.5894],[-101.8086,26.1091,1239.9087],[-101.7995,26.0512,1315.4089],[-101.7727,25.9868,1450.3497],[-101.8162,25.9675,1633.0693],[-101.814,25.9419,1578.6589],[-101.8105,25.9347,1587.5569],[-101.7718,25.8993,1350.6028],[-101.7676,25.8665,1308.3257],[-101.7698,25.8652,1312.7461],[-101.7557,25.8143,1240.373],[-101.753,25.8431,1302.988],[-101.6837,25.8302,1542.3926],[-101.6231,25.8046,1492.9017],[-101.6166,25.8091,1607.9219],[-101.5847,25.8636,2046.4607],[-101.5944,25.8688,2032.5388],[-101.5995,25.8851,1961.2295],[-101.594,25.8934,2097.1875],[-101.5863,25.8989,2203.4614],[-101.5904,25.9114,2206.928],[-101.5556,25.8574,2159.1057],[-101.5189,25.8695,1710.9299],[-101.5056,25.8593,1664.9062],[-101.4995,25.8592,1711.7911],[-101.4992,25.8539,1697.1228],[-101.5015,25.8513,1698.2891],[-101.4934,25.8526,1667.222],[-101.4905,25.847,1706.885],[-101.4779,25.849,1627.6263],[-101.5786,25.8107,1664.1726],[-101.5904,25.7479,1308.5068],[-101.5894,25.7011,1153.6714],[-101.4833,25.698,1288.6238],[-101.4549,25.6997,1216.1801],[-101.4447,25.6951,1180.4824],[-101.4753,25.7182,1364.8284],[-101.5106,25.7663,1572.9285],[-101.3934,25.752,1148.5728],[-101.4012,25.7291,1156.7864],[-101.407,25.6994,1151.6718],[-101.4122,25.6975,1152.5732],[-101.4156,25.6831,1131.2952],[-101.4375,25.6703,1119.5],[-101.4348,25.6683,1118.4851],[-101.4511,25.6528,1122.6213],[-101.4607,25.6612,1124.8696],[-101.4717,25.6537,1123.8608],[-101.4115,25.6041,1154.9834],[-101.4035,25.629,1137.0557],[-101.3913,25.6224,1134.4407],[-101.3972,25.6326,1131.4697],[-101.3903,25.6306,1132.5128],[-101.3869,25.6347,1127.4575],[-101.3707,25.6342,1118.3834],[-101.3633,25.6402,1109.8867],[-101.3622,25.6611,1099.2069],[-101.3422,25.6528,1134.6566],[-101.3308,25.6289,1187.9557],[-101.2331,25.6248,1913.0398],[-101.2218,25.6152,1827.1538],[-101.2071,25.6155,1789.3177],[-101.2014,25.6048,1925.0559],[-101.1922,25.6062,1940.6467],[-101.1837,25.601,2161.0029],[-101.1927,25.5959,2181.7854],[-101.2061,25.5954,2139.8428],[-101.2179,25.5905,1869.9451],[-101.2452,25.5711,1920.0212],[-101.252,25.5341,1621.7109],[-101.2229,25.5299,2206.751],[-101.2643,25.5208,1923.3859],[-101.268,25.4889,1742.145],[-101.3162,25.4754,1701.1423],[-101.3108,25.4664,1445.8778],[-101.3137,25.4644,1514.4989],[-101.3129,25.4603,1559.7485],[-101.2766,25.4503,1654.8524],[-101.2528,25.4501,1696.2823],[-101.2155,25.4533,1756.9147],[-101.0837,25.494,2076.6868],[-101.056,25.4962,1677.6038],[-101.044,25.5015,1639.3981],[-101.0358,25.5033,1734.3684],[-101.0324,25.5074,1733.1353],[-101.0194,25.5114,1743.0992],[-101.0064,25.5097,1494.9304],[-101.0004,25.5121,1482.4429],[-100.9983,25.5165,1467.5682],[-100.9936,25.5143,1462.978],[-100.9878,25.5073,1456.6812],[-100.9872,25.5083,1456.6812],[-100.9844,25.5004,1468.9563],[-100.9824,25.499,1464.0842],[-100.9873,25.4871,1479.9135],[-100.9863,25.4867,1481.2565],[-100.9814,25.4975,1465.5239],[-100.9717,25.501,1447.1166],[-100.9675,25.5081,1440.7039],[-100.9684,25.5048,1442.8638],[-100.9638,25.5023,1446.2485],[-100.9619,25.5085,1444.5466],[-100.9537,25.5228,1422.8112],[-100.9481,25.5227,1436.1472],[-100.9457,25.5197,1449.4602],[-100.9483,25.5106,1505.0781],[-100.9524,25.5055,1494.8403],[-100.9498,25.503,1452.2197],[-100.9463,25.5086,1451.8179],[-100.9433,25.5037,1464.2235],[-100.9361,25.502,1464.8806],[-100.9357,25.4926,1474.2551],[-100.9294,25.5004,1472.5459],[-100.9261,25.5092,1467.5941],[-100.9264,25.5124,1466.1748],[-100.9147,25.5069,1487.4717],[-100.9096,25.5171,1483.3657],[-100.8856,25.4892,1567.2502],[-100.871,25.4888,1597.3619],[-100.8526,25.4996,1911.0427],[-100.8258,25.5112,2377.002],[-100.7844,25.5076,2476.0212],[-100.7797,25.5089,2451.5408],[-100.7573,25.5243,2422.4854],[-100.7491,25.5279,2477.7627],[-100.7369,25.5288,2524.7151],[-100.7247,25.5358,2194.3196],[-100.7141,25.5217,2512.8088],[-100.7061,25.5208,2540.7576],[-100.6979,25.5248,2574.5967],[-100.6905,25.5236,2668.1682],[-100.6846,25.5254,2510.5759],[-100.6658,25.5229,2624.2603],[-100.6592,25.5239,2567.8577],[-100.6556,25.5194,2682.1108],[-100.6431,25.5194,2495.1462],[-100.6258,25.5151,2553.9983],[-100.6086,25.5134,2484.7769]]]]}}