{"type": "Feature","bbox": [-97.8974,18.4202,-97.7643,18.5354],"geometry": {"type": "MultiPolygon","coordinates": [[[[-97.7692,18.4766,1974.5878],[-97.7643,18.4802,1941.8701],[-97.7699,18.4841,1949.256],[-97.7735,18.49,1959.6848],[-97.7784,18.492,1970.7291],[-97.7811,18.4971,2002.412],[-97.7769,18.5126,2006.8186],[-97.7786,18.5175,1984.1924],[-97.7751,18.5305,1962.2939],[-97.7851,18.5278,2106.6316],[-97.8031,18.51,1972.9275],[-97.8124,18.514,1947.0317],[-97.8107,18.5179,1967.2919],[-97.8114,18.526,1918.9614],[-97.817,18.5354,1895.8447],[-97.8251,18.5329,1912.0164],[-97.8323,18.5342,1896.2643],[-97.8342,18.5312,1879.2455],[-97.8489,18.53,1860.4204],[-97.851,18.5318,1857.8787],[-97.8638,18.5252,1859.814],[-97.8574,18.5133,1874.4316],[-97.8693,18.51,1861.9094],[-97.8722,18.5126,1859.1685],[-97.8706,18.5138,1884.5107],[-97.8738,18.5167,1875.2007],[-97.8814,18.5183,1835.6311],[-97.8857,18.5245,1840.4375],[-97.8888,18.5237,1829.7786],[-97.886,18.5199,1829.3256],[-97.8841,18.5068,1835.385],[-97.8822,18.5032,1835.7698],[-97.8841,18.502,1844.1051],[-97.8815,18.4978,1838.1473],[-97.8774,18.4956,1838.0219],[-97.8974,18.4561,1897.8643],[-97.8915,18.4532,1881.4149],[-97.8937,18.4495,1888.1218],[-97.8901,18.4459,1907.0062],[-97.8731,18.439,1894.7939],[-97.8714,18.4349,1899.8512],[-97.8683,18.4325,1886.8416],[-97.8595,18.4367,1870.0427],[-97.8563,18.4417,1862.8635],[-97.8503,18.4418,1858.8677],[-97.8486,18.4433,1858.3308],[-97.8496,18.4416,1858.8677],[-97.8482,18.4361,1860.6946],[-97.8433,18.4326,1862.5143],[-97.8427,18.4299,1863.2212],[-97.8408,18.4298,1863.3531],[-97.8413,18.424,1865.3513],[-97.8395,18.4226,1866.7789],[-97.8396,18.4202,1868.761],[-97.831,18.4202,1876.5383],[-97.8342,18.4413,1865.1395],[-97.8193,18.4405,1872.3416],[-97.8183,18.4423,1870.9631],[-97.8141,18.4425,1874.231],[-97.8087,18.4354,1895.46],[-97.8043,18.4399,1888.8379],[-97.8006,18.438,1892.7642],[-97.7979,18.4451,1885.3917],[-97.793,18.444,1890.0809],[-97.7904,18.4514,1901.3083],[-97.7949,18.4534,1903.6787],[-97.7864,18.4654,1979.0515],[-97.7755,18.4692,2035.3779],[-97.7749,18.4733,2048.217],[-97.7692,18.4766,1974.5878]]]]}
,"properties": {"GID_2": "MEX.21.84_2","GID_0": "MEX","country": "México","GID_1": "MEX.21_1","province": "Puebla","NL_NAME_1": "NA","county": "Ixcaquixtla","VARNAME_2": "NA","NL_NAME_2": "NA","TYPE_2": "Município","ENGTYPE_2": "Municipality","CC_2": "NA","HASC_2": "NA","name": "Ixcaquixtla.county","area_km2": 107.34028,"hist_schema_id": "Elevation0-9000","hist_area_km2": {"1825": 1.40738,"1850": 23.14493,"1875": 32.67944,"1900": 18.58076,"1925": 7.52003,"1950": 5.04688,"1975": 4.68492,"2000": 3.69969,"2025": 3.31768,"2050": 2.39276,"2075": 1.91018,"2100": 0.86458,"2125": 0.60321,"2150": 0.52278,"2175": 0.38202,"2200": 0.18095,"2225": 0.28146,"2250": 0.12063}}}