{"type": "Feature","id": "2728","bbox": [-102.09968,19.9054,-99.70747,21.87293],"geometry": {"type": "Polygon","coordinates": [[[-101.2016,21.75366,2478.3154],[-101.23648,21.75836,2381.7715],[-101.24805,21.7641,2380.4907],[-101.25973,21.77195,2395.5068],[-101.27048,21.7811,2463.7192],[-101.27947,21.79061,2442.696],[-101.28567,21.80389,2453.8804],[-101.28629,21.81846,2360.2932],[-101.28567,21.83324,2397.8623],[-101.28841,21.8473,2369.6343],[-101.30433,21.86683,2315.4128],[-101.32598,21.87293,2262.3486],[-101.35027,21.86962,2282.2036],[-101.37394,21.86094,2258.9609],[-101.37631,21.85965,2260.3521],[-101.37874,21.85836,2256.8394],[-101.38107,21.85706,2250.7817],[-101.38344,21.85577,2249.1731],[-101.41946,21.83427,2204.7231],[-101.44938,21.82213,2197.9036],[-101.48065,21.82311,2202.6055],[-101.52054,21.84094,2303.8784],[-101.53899,21.82327,2232.6465],[-101.56137,21.80182,2200.8391],[-101.57971,21.77846,2200.4966],[-101.58622,21.75505,2221.6501],[-101.57878,21.73108,2187.0164],[-101.56431,21.70984,2159.3079],[-101.54757,21.68958,2175.5269],[-101.53336,21.66839,2234.6794],[-101.53827,21.63687,2353.9446],[-101.5733,21.61072,2275.2661],[-101.61506,21.58468,2114.5049],[-101.64012,21.55341,2242.4048],[-101.63687,21.51667,2177.615],[-101.61837,21.48499,2259.5347],[-101.59439,21.45523,2281.9976],[-101.57465,21.42427,2482.1753],[-101.56824,21.40572,2432.5032],[-101.56648,21.38629,2426.7749],[-101.56824,21.36671,2530.5669],[-101.57268,21.34759,2581.6301],[-101.59025,21.31854,2647.5586],[-101.61144,21.29415,2630.8228],[-101.63557,21.27229,2210.0403],[-101.66208,21.25111,2112.3569],[-101.67438,21.24258,2174.4624],[-101.68751,21.23607,2015.0457],[-101.70146,21.23199,1949.3888],[-101.71624,21.23069,1942.439],[-101.73221,21.23162,2184.6479],[-101.75252,21.23235,2240.8884],[-101.77195,21.23007,2120.4597],[-101.78538,21.22181,2003.7023],[-101.79252,21.21054,1943.0938],[-101.79892,21.19886,1929.4069],[-101.80543,21.18729,1941.542],[-101.81298,21.17633,1917.2806],[-101.8261,21.16532,1887.8578],[-101.84119,21.15742,1825.1439],[-101.85504,21.14837,1798.7939],[-101.86445,21.13396,1801.7449],[-101.86863,21.1246,1834.6068],[-101.87292,21.11535,1819.1309],[-101.87768,21.10646,1824.1924],[-101.88321,21.09814,1786.3157],[-101.91752,21.0613,1851.0057],[-101.94822,21.02151,1912.3641],[-101.9769,20.97996,1938.0381],[-102.00501,20.938,2011.2848],[-102.01514,20.92157,1857.3142],[-102.02532,20.90524,1799.6974],[-102.0355,20.88885,1785.8071],[-102.04563,20.87247,1901.8344],[-102.04868,20.86679,1906.6726],[-102.05172,20.8611,1944.8146],[-102.05482,20.85537,1942.1968],[-102.05782,20.84968,1815.859],[-102.07327,20.82173,1862.8783],[-102.08795,20.79067,1893.8708],[-102.09441,20.75899,2092.2598],[-102.08511,20.72933,2249.8784],[-102.0618,20.70463,2270.0278],[-102.03457,20.68447,2291.063],[-102.00718,20.66448,2104.459],[-101.98341,20.64045,1847.0607],[-101.9816,20.6376,1811.73],[-101.97995,20.63466,1787.821],[-101.97834,20.63161,1794.5558],[-101.9769,20.62856,1845.0482],[-101.96754,20.58743,1859.4855],[-101.98062,20.55528,1987.2317],[-102.0064,20.52769,1983.7068],[-102.03498,20.50004,1821.4427],[-102.06072,20.46826,1844.8516],[-102.08071,20.43643,1722.0031],[-102.09715,20.40273,1705.7217],[-102.09968,20.38682,1655.8967],[-101.9956,20.40315,1706.5006],[-102.01178,20.36532,1678.8394],[-102.01607,20.34418,1681.3879],[-102.00615,20.33488,1673.0974],[-101.99178,20.34129,1679.6926],[-101.98206,20.36945,1682.7268],[-101.96491,20.37586,1674.6091],[-101.9493,20.36604,1673.0522],[-101.94248,20.34341,1675.853],[-101.93245,20.25194,1677.9507],[-101.92832,20.24698,1676.9241],[-101.92357,20.24404,1676.259],[-101.9199,20.23933,1676.5156],[-101.91163,20.21546,1677.4608],[-101.90507,20.20331,1677.9846],[-101.89318,20.19892,1678.7097],[-101.869,20.1983,1771.3792],[-101.85954,20.20047,1770.7799],[-101.84771,20.20983,1731.4188],[-101.83799,20.212,1770.0061],[-101.82859,20.20988,1680.7625],[-101.81272,20.20047,1682.1553],[-101.80755,20.1983,1695.2504],[-101.79835,20.20047,1700.3767],[-101.78854,20.20988,1683.4102],[-101.77991,20.212,1680.8745],[-101.77071,20.21107,1702.6437],[-101.74239,20.20456,1679.3628],[-101.70787,20.20456,1682.1562],[-101.68958,20.20125,1681.8818],[-101.67345,20.19086,1679.9117],[-101.66549,20.20456,1682.6469],[-101.63842,20.23442,1683.9216],[-101.63252,20.24926,1684.3235],[-101.63082,20.25732,1686.2606],[-101.62229,20.27075,1686.8749],[-101.61888,20.28026,1687.4702],[-101.61857,20.2892,1686.8984],[-101.6194,20.29974,1688.7438],[-101.61909,20.30992,1687.8997],[-101.61547,20.31783,1689.1875],[-101.60782,20.32031,1688.2935],[-101.57449,20.32124,1686.9032],[-101.5654,20.32315,1689.3929],[-101.54576,20.33204,1690.6517],[-101.5363,20.33488,1690.7751],[-101.51579,20.33514,1690.7301],[-101.48034,20.33111,1691.4814],[-101.46122,20.33488,1695.8619],[-101.46535,20.32191,1699.6597],[-101.4622,20.3124,1720.1428],[-101.45434,20.30708,1714.0353],[-101.44158,20.30662,1718.4504],[-101.42318,20.30434,1797.314],[-101.40091,20.29819,1847.558],[-101.38282,20.28703,1884.6531],[-101.37693,20.26967,2081.7075],[-101.38654,20.25566,2304.228],[-101.40489,20.24729,2236.2764],[-101.42344,20.23892,2131.9473],[-101.43409,20.22476,2303.1655],[-101.4314,20.21572,2076.5205],[-101.4253,20.21122,2036.9458],[-101.41817,20.20735,2000.8011],[-101.41259,20.20006,2000.355],[-101.41145,20.19282,1989.168],[-101.41331,20.18714,1986.6462],[-101.416,20.18187,1993.3229],[-101.41734,20.17567,2013.3921],[-101.41941,20.17133,2041.231],[-101.42324,20.16781,2034.0327],[-101.42499,20.1642,2071.678],[-101.42075,20.15908,2054.7761],[-101.41636,20.15458,1971.4117],[-101.4128,20.14859,1946.5449],[-101.41026,20.14208,1927.4468],[-101.40877,20.13588,1969.7146],[-101.41228,20.10818,2000.3441],[-101.42096,20.07872,2277.551],[-101.41972,20.05361,2502.0964],[-101.39316,20.03935,2640.3665],[-101.38226,20.04126,2491.085],[-101.37239,20.04648,2383.7517],[-101.36298,20.05201,2327.7439],[-101.35342,20.05475,2277.1724],[-101.34774,20.05268,2304.3306],[-101.34055,20.04787,2336.7026],[-101.33259,20.04307,2437.7969],[-101.32427,20.0409,2466.4038],[-101.31084,20.04115,2436.6094],[-101.29849,20.04441,2376.9573],[-101.28619,20.04699,2338.0811],[-101.27322,20.04513,2207.0281],[-101.2558,20.03599,2135.8801],[-101.23482,20.03035,2125.0278],[-101.21322,20.02953,2159.9827],[-101.1941,20.0348,2031.3818],[-101.18103,20.05325,1983.0388],[-101.17395,20.07945,1863.538],[-101.16335,20.10156,1848.9861],[-101.13963,20.10761,2006.3137],[-101.12956,20.09764,1937.7543],[-101.11814,20.08947,1873.4214],[-101.10548,20.08596,2000.5258],[-101.09158,20.09009,2120.6602],[-101.07008,20.09774,2083.887],[-101.04543,20.09981,2009.829],[-101.02068,20.09702,2068.1421],[-100.99892,20.08999,2129.2007],[-100.99484,20.08317,2124.5088],[-100.99417,20.07547,2093.0383],[-100.99572,20.06725,2032.3558],[-100.99809,20.05867,1969.4387],[-100.99473,20.05485,1987.9128],[-100.99091,20.05082,2022.2815],[-100.98693,20.04679,2012.9392],[-100.9829,20.04296,2010.1462],[-100.98636,20.02343,2017.6013],[-101.00528,20.01439,1855.0],[-101.02858,20.00684,1837.4912],[-101.04496,19.99222,1834.1605],[-101.03969,19.96772,1833.0713],[-101.01716,19.95129,1834.2869],[-100.98833,19.94033,1835.23],[-100.96394,19.93238,1834.4509],[-100.94766,19.92679,1832.5],[-100.93112,19.92431,1832.5],[-100.91448,19.92519,1832.5],[-100.89789,19.92948,1832.5],[-100.87495,19.93594,1832.5],[-100.85857,19.94462,1833.3877],[-100.84472,19.95728,1899.2131],[-100.82963,19.97563,1937.889],[-100.82146,19.96328,1999.1287],[-100.81118,19.95615,1926.907],[-100.80167,19.94943,1967.4043],[-100.79547,19.93811,2015.7792],[-100.7872,19.91853,2072.5034],[-100.77464,19.91046,1997.2546],[-100.75687,19.90871,2240.2532],[-100.73325,19.90767,2605.6482],[-100.73108,19.92783,2204.2012],[-100.72669,19.93713,2116.5576],[-100.7162,19.93992,2263.7932],[-100.69594,19.94033,2458.906],[-100.67837,19.94095,2431.2949],[-100.6608,19.94147,2639.2388],[-100.64323,19.94199,2593.02],[-100.62566,19.9425,2574.3706],[-100.60907,19.94431,2415.9802],[-100.58463,19.94695,2304.7998],[-100.56076,19.94715,2107.269],[-100.54567,19.94209,2109.3071],[-100.54189,19.93124,2193.3083],[-100.54355,19.92028,2222.3621],[-100.54298,19.91108,2276.604],[-100.53244,19.9054,2310.9033],[-100.51786,19.90891,2172.5137],[-100.51063,19.9238,2131.7239],[-100.50381,19.94152,2114.1067],[-100.49022,19.95377,2046.6824],[-100.46743,19.9594,1994.1548],[-100.44366,19.96204,1989.0186],[-100.41958,19.96312,2070.1924],[-100.39601,19.96426,2171.7991],[-100.37947,19.97496,2288.7388],[-100.37885,20.0057,2679.4209],[-100.38743,20.04059,2698.5764],[-100.39875,20.06389,2692.7227],[-100.39875,20.07428,2675.686],[-100.39477,20.08487,2823.0339],[-100.38965,20.09407,2822.4087],[-100.38588,20.10053,2830.5037],[-100.38692,20.10363,2798.1191],[-100.38996,20.10756,2706.6035],[-100.39115,20.11267,2784.4971],[-100.38676,20.11903,2659.4294],[-100.38092,20.12063,2552.123],[-100.37255,20.12006,2476.6047],[-100.36418,20.11867,2471.2285],[-100.35839,20.11758,2459.4431],[-100.3493,20.12244,2439.0266],[-100.33937,20.13479,2373.3301],[-100.33074,20.14874,2338.6042],[-100.32552,20.15856,2385.0547],[-100.31746,20.17546,2490.4741],[-100.31085,20.18776,2491.71],[-100.30175,20.19923,2426.5889],[-100.28599,20.21339,2513.9912],[-100.29292,20.22166,2532.4297],[-100.30372,20.22492,2527.8633],[-100.31596,20.22683,2499.4033],[-100.32744,20.23127,2456.8083],[-100.33767,20.25256,2478.8828],[-100.35576,20.26212,2443.7319],[-100.374,20.27246,2443.8464],[-100.3849,20.29607,2430.1331],[-100.39472,20.32165,2341.5208],[-100.41306,20.34336,2196.5789],[-100.43456,20.36325,2149.9749],[-100.45389,20.38361,2124.4385],[-100.45761,20.38816,2110.8403],[-100.46133,20.39276,2070.7595],[-100.46505,20.39736,2059.6091],[-100.46877,20.40191,2064.582],[-100.48464,20.4356,2042.7914],[-100.48784,20.47079,2008.7297],[-100.48712,20.50691,1934.3361],[-100.4911,20.5434,1838.214],[-100.50184,20.56236,1798.4614],[-100.51311,20.58071,1791.7136],[-100.525,20.59879,1792.5073],[-100.53735,20.61678,1795.0072],[-100.55838,20.65812,1942.946],[-100.56882,20.69874,2072.4858],[-100.5652,20.73977,2214.7891],[-100.54422,20.78245,2510.3584],[-100.53543,20.79739,2626.2114],[-100.52686,20.81258,2335.4976],[-100.52009,20.82844,2252.0605],[-100.51647,20.84529,2179.4165],[-100.51616,20.86441,2237.6812],[-100.51569,20.88105,2203.0015],[-100.51042,20.89599,2198.7922],[-100.49575,20.90999,2292.5833],[-100.48489,20.92834,2426.4526],[-100.47394,20.95061,2324.3613],[-100.45973,20.96745,2161.7212],[-100.43911,20.96983,2141.8679],[-100.42495,20.95226,2136.4741],[-100.42061,20.93076,2175.9917],[-100.41151,20.91221,2148.116],[-100.38289,20.90358,2259.7935],[-100.36221,20.90033,2557.1816],[-100.34196,20.89686,2678.4443],[-100.32217,20.8963,2531.1819],[-100.30279,20.90203,2572.7419],[-100.28708,20.91257,2720.4473],[-100.27095,20.92446,2851.4351],[-100.2538,20.93252,2435.4058],[-100.23488,20.93138,2373.0178],[-100.23178,20.93025,2382.6953],[-100.22884,20.92885,2416.9653],[-100.2261,20.92704,2466.2769],[-100.22352,20.92492,2567.9426],[-100.21137,20.90844,2545.7097],[-100.19881,20.89097,2493.7991],[-100.18321,20.87898,2348.6228],[-100.16187,20.87878,2398.092],[-100.15241,20.88457,2176.6252],[-100.146,20.89304,2326.4482],[-100.14032,20.90208,2350.7268],[-100.13293,20.90958,2561.4692],[-100.12399,20.91299,2561.9431],[-100.11479,20.91412,2542.407],[-100.1058,20.91666,2508.0225],[-100.09717,20.92436,2354.3396],[-100.08704,20.94503,2376.1331],[-100.08094,20.96838,2405.7063],[-100.07789,20.99257,2361.6514],[-100.07712,21.01582,2344.6479],[-100.07567,21.05169,2043.261],[-100.07272,21.08879,1967.2896],[-100.06585,21.12491,1851.6423],[-100.05247,21.15824,1679.9451],[-100.03603,21.17855,2003.2711],[-100.01262,21.19276,2305.7434],[-99.98591,21.20041,2133.9268],[-99.95981,21.20119,2080.4602],[-99.94395,21.19886,1916.502],[-99.92834,21.19478,1902.7435],[-99.91408,21.18801,2045.5105],[-99.90204,21.17736,2132.7859],[-99.88379,21.15948,2405.5195],[-99.85656,21.15463,1894.1333],[-99.8269,21.15835,2239.7942],[-99.80142,21.16615,2108.2913],[-99.78778,21.17395,1975.6771],[-99.7821,21.18232,2014.5314],[-99.77868,21.19163,1889.626],[-99.77155,21.20196,1826.021],[-99.76194,21.20961,1835.6932],[-99.75073,21.21504,1794.682],[-99.73848,21.21953,1729.3047],[-99.72546,21.22429,1923.0667],[-99.71393,21.23379,2156.5771],[-99.70747,21.24692,2226.5596],[-99.70861,21.26025,1937.6588],[-99.71967,21.27007,1248.7632],[-99.74902,21.27276,1444.3999],[-99.77517,21.27741,1598.0725],[-99.79253,21.29141,2096.126],[-99.79543,21.32237,2361.7798],[-99.79197,21.33529,2344.9312],[-99.78876,21.34376,2230.0132],[-99.78871,21.35265,2193.2424],[-99.79465,21.36691,2084.8914],[-99.79791,21.3803,1856.7864],[-99.79522,21.3927,1586.9525],[-99.79129,21.40536,1383.2375],[-99.79062,21.41911,1324.2749],[-99.8208,21.43187,887.8196],[-99.8485,21.44608,762.1536],[-99.87847,21.4558,1315.4872],[-99.91537,21.45497,908.1583],[-99.95862,21.4591,1160.8457],[-99.99965,21.48887,1414.6654],[-100.03872,21.52659,1526.0641],[-100.07613,21.55429,1400.1504],[-100.07841,21.55533,1386.6072],[-100.08078,21.55636,1357.0823],[-100.08306,21.55739,1375.2888],[-100.08533,21.55843,1385.8718],[-100.11846,21.56917,1270.9011],[-100.15143,21.57946,1147.4482],[-100.1845,21.58923,1258.2169],[-100.21793,21.59853,1081.0602],[-100.23044,21.60132,1220.7173],[-100.24269,21.60509,1275.8102],[-100.25442,21.6101,1541.3737],[-100.26548,21.61651,1264.5652],[-100.28392,21.62437,1573.1079],[-100.30341,21.63119,1679.8845],[-100.32253,21.63827,1727.2112],[-100.33999,21.6469,1709.2839],[-100.35219,21.65336,1494.4618],[-100.3619,21.65682,1633.9246],[-100.37141,21.65925,1609.2372],[-100.38314,21.66292,1443.6917],[-100.39064,21.66793,1589.8134],[-100.39617,21.67377,1464.1444],[-100.40397,21.67775,1392.6758],[-100.41823,21.67702,1666.6849],[-100.42867,21.67273,1732.6792],[-100.43911,21.66529,1772.6965],[-100.44846,21.65646,1543.082],[-100.45575,21.64814,1550.4867],[-100.46319,21.63656,1592.6061],[-100.46913,21.62385,1736.7212],[-100.47404,21.61067,1706.2371],[-100.47849,21.5977,1871.0245],[-100.48329,21.57744,2033.7576],[-100.48706,21.5544,2093.8743],[-100.49172,21.53192,2035.9985],[-100.49921,21.51362,2025.9935],[-100.52252,21.49698,2169.0708],[-100.55631,21.49202,2252.8467],[-100.59362,21.49238,2432.1074],[-100.62731,21.49176,2212.4329],[-100.64876,21.5053,2221.9561],[-100.66974,21.52168,2397.7871],[-100.69026,21.5391,2198.2629],[-100.71026,21.55579,2076.8999],[-100.75733,21.59031,1925.0897],[-100.80451,21.62468,1938.0996],[-100.85149,21.6593,2045.6465],[-100.89779,21.6947,1941.0352],[-100.91319,21.70906,1900.5552],[-100.92874,21.72384,1874.4786],[-100.94471,21.73785,1848.1072],[-100.96145,21.75035,1832.7277],[-100.99163,21.7611,1832.6554],[-101.02512,21.76782,1852.1614],[-101.05928,21.77123,1949.5685],[-101.09116,21.77247,2032.5283],[-101.12713,21.76813,2182.937],[-101.16454,21.75934,2374.8511],[-101.2016,21.75366,2478.3154]]]}
,"properties": {"ISO3166-1-Alpha-3": "MEX","country": "Mexico","fill": "#F0F","name": "Guanajuato","area_km2": 30503.74,"hist_schema_id": "Elevation0-9000","hist_area_km2": {"700": 0.36,"725": 0.32,"750": 0.57,"775": 1.18,"800": 2.41,"825": 3.57,"850": 4.11,"875": 5.13,"900": 7.7,"925": 8.37,"950": 11.43,"975": 14.42,"1000": 16.61,"1025": 18.86,"1050": 19.83,"1075": 22.53,"1100": 23.11,"1125": 24.59,"1150": 25.38,"1175": 26.58,"1200": 27.41,"1225": 28.24,"1250": 31.14,"1275": 33.67,"1300": 34.86,"1325": 37.32,"1350": 37.56,"1375": 38.35,"1400": 40.29,"1425": 41.25,"1450": 43.05,"1475": 42.89,"1500": 45.89,"1525": 51.06,"1550": 52.69,"1575": 55.98,"1600": 61.48,"1625": 64.22,"1650": 69.73,"1675": 381.92,"1700": 1296.92,"1725": 2083.9,"1750": 1802.28,"1775": 1392.71,"1800": 1091.98,"1825": 959.58,"1850": 1015.82,"1875": 909.56,"1900": 976.88,"1925": 972.75,"1950": 911.87,"1975": 1024.45,"2000": 1367.88,"2025": 1131.69,"2050": 1217.4,"2075": 1079.12,"2100": 979.13,"2125": 859.41,"2150": 799.54,"2175": 831.08,"2200": 820.83,"2225": 714.33,"2250": 631.61,"2275": 553.89,"2300": 504.48,"2325": 480.87,"2350": 418.73,"2375": 334.76,"2400": 280.2,"2425": 250.68,"2450": 224.07,"2475": 201.54,"2500": 161.46,"2525": 128.69,"2550": 113.27,"2575": 95.98,"2600": 82.08,"2625": 70.51,"2650": 58.56,"2675": 46.65,"2700": 38.08,"2725": 29.86,"2750": 22.74,"2775": 15.81,"2800": 14.62,"2825": 11.04,"2850": 8.68,"2875": 5.24,"2900": 4.52,"2925": 3.81,"2950": 2.93,"2975": 2.4,"3000": 1.67,"3025": 1.49,"3050": 1.33,"3075": 1.35,"3100": 1.21,"3125": 0.97,"3150": 0.77,"3175": 0.63,"3200": 0.55,"3225": 0.34}}}