{"type": "Feature","bbox": [-99.3055,22.4067,-99.1096,22.6242],"geometry": {"type": "MultiPolygon","coordinates": [[[[-99.1146,22.4067,402.8193],[-99.1096,22.4301,535.934],[-99.1099,22.442,601.9227],[-99.1226,22.4721,570.8982],[-99.1238,22.4877,676.2856],[-99.1271,22.4991,677.3327],[-99.1423,22.5284,655.2877],[-99.1478,22.5423,639.9072],[-99.1617,22.5539,492.3409],[-99.179,22.5872,656.1041],[-99.1837,22.5994,680.2072],[-99.1884,22.6211,655.8544],[-99.1997,22.6136,489.0138],[-99.201,22.6109,487.0911],[-99.2105,22.6142,537.3857],[-99.2093,22.6242,746.1749],[-99.3055,22.5886,605.3488],[-99.2997,22.5743,622.1907],[-99.2887,22.5558,420.3372],[-99.2779,22.5237,407.5648],[-99.2724,22.5133,453.4012],[-99.2631,22.4698,505.361],[-99.26,22.4678,486.3745],[-99.2514,22.444,560.1614],[-99.2434,22.4334,563.5806],[-99.2368,22.4129,625.6645],[-99.1146,22.4067,402.8193]]]]}
,"properties": {"GID_2": "MEX.28.28_2","GID_0": "MEX","country": "México","GID_1": "MEX.28_1","province": "Tamaulipas","NL_NAME_1": "NA","county": "NuevoMorelos","VARNAME_2": "NA","NL_NAME_2": "NA","TYPE_2": "Município","ENGTYPE_2": "Municipality","CC_2": "NA","HASC_2": "NA","name": "Nuevo_Morelos.county","area_km2": 303.0922,"hist_schema_id": "Elevation0-9000","hist_area_km2": {"200": 11.4261,"225": 35.72,"250": 48.0959,"275": 43.3088,"300": 44.1248,"325": 23.7761,"350": 15.6475,"375": 10.9858,"400": 9.654,"425": 10.0846,"450": 8.9294,"475": 7.8324,"500": 6.7167,"525": 5.1504,"550": 4.896,"575": 3.9757,"600": 3.76,"625": 3.2899,"650": 2.6631,"675": 1.4688,"700": 0.9988,"725": 0.4504,"750": 0.1371}}}