{"type":"Feature","properties":{"GID_2":"MEX.20.120_2","GID_0":"MEX","country":"México","GID_1":"MEX.20_1","province":"Oaxaca","NL_NAME_1":"NA","county":"SanBartoloméAyautla","VARNAME_2":"NA","NL_NAME_2":"NA","TYPE_2":"Município","ENGTYPE_2":"Municipality","CC_2":"NA","HASC_2":"NA","name":"San_Bartolomé_Ayautla.county"},
"geometry":{"type": "MultiPolygon","coordinates": [[[[-96.7095,18.0058,203.8128],[-96.7059,18.0074,235.8895],[-96.7046,18.0107,198.7096],[-96.6932,18.0125,224.72559999999999],[-96.6852,18.0118,224.3826],[-96.682,18.0173,240.7025],[-96.6761,18.0213,153.7188],[-96.6727,18.0211,153.0283],[-96.665,18.0157,158.5403],[-96.6421,18.0182,156.2897],[-96.634,18.0275,134.9144],[-96.636,18.0372,163.9194],[-96.6303,18.0458,116.1915],[-96.6325,18.0509,237.8424],[-96.634,18.0495,217.3722],[-96.6357,18.0519,297.9058],[-96.6405,18.0516,260.5482],[-96.6418,18.0535,294.0195],[-96.648,18.054,778.126],[-96.6479,18.0592,671.8752],[-96.6394,18.0649,746.5942],[-96.6477,18.0818,1616.2496],[-96.6618,18.1036,1830.3318],[-96.6781,18.1084,1942.3074],[-96.6802,18.1106,1972.2197],[-96.6829,18.1075,1816.1775],[-96.6858,18.1064,1751.1975],[-96.6894,18.108,1795.6288],[-96.6967,18.103,2013.6254],[-96.7062,18.1109,1371.0367],[-96.7112,18.1074,1326.3792],[-96.6707,18.0827,2001.2456],[-96.6783,18.0443,1259.7804],[-96.6815,18.0436,1061.801],[-96.6885,18.0504,1104.0282],[-96.6978,18.0506,1222.0671],[-96.7064,18.0552,1490.5742],[-96.7137,18.0537,1668.7927],[-96.7172,18.0483,1458.9795],[-96.7209,18.0474,1478.651],[-96.7253,18.0518,1530.5709],[-96.7253,18.0437,1164.4305],[-96.7195,18.0361,893.3966],[-96.7212,18.0204,391.0048],[-96.7198,18.0142,226.8462],[-96.7158,18.0077,260.6805],[-96.7095,18.0058,203.8128]]]]}}