{"type":"Feature","properties":{"GID_2":"MEX.10.25_2","GID_0":"MEX","country":"México","GID_1":"MEX.10_1","province":"Durango","NL_NAME_1":"NA","county":"Rodeo","VARNAME_2":"NA","NL_NAME_2":"NA","TYPE_2":"Município","ENGTYPE_2":"Municipality","CC_2":"NA","HASC_2":"NA","name":"Rodeo.county"},
"geometry":{"type": "MultiPolygon","coordinates": [[[[-104.5916,24.9572,1830.0092],[-104.4994,24.9838,1695.528],[-104.5014,24.9901,1721.1184],[-104.4929,24.9915,1644.092],[-104.4722,25.0023,1517.6156],[-104.4711,25.0045,1498.3796],[-104.4758,25.0146,1425.7557],[-104.4753,25.0176,1441.1985],[-104.4719,25.0211,1447.5103],[-104.4733,25.0271,1405.8337],[-104.4715,25.028,1411.6738],[-104.4662,25.0288,1441.9734],[-104.4629,25.0272,1439.2085],[-104.4611,25.0283,1445.6356],[-104.4532,25.0269,1485.7268],[-104.4452,25.0202,1535.4586],[-104.4325,25.0216,1644.9514],[-104.4268,25.0251,1812.8835],[-104.4166,25.0208,1776.043],[-104.4133,25.0152,1730.8011],[-104.4087,25.0171,1694.3472],[-104.4084,25.0242,1669.791],[-104.4049,25.0271,1661.9103],[-104.4057,25.0279,1661.9103],[-104.3967,25.0261,1658.3834],[-104.3988,25.0146,1765.1891],[-104.3914,25.0182,1807.6843],[-104.3682,25.0193,1751.3995],[-104.3566,25.0219,1764.4789],[-104.3626,25.0569,1875.2776],[-104.3748,25.0712,1849.5022],[-104.3744,25.1105,1661.0186],[-104.3835,25.1339,1301.7904],[-104.3828,25.1359,1290.551],[-104.3801,25.1357,1290.1194],[-104.366,25.1286,1304.2224],[-104.367,25.1295,1291.3154],[-104.3654,25.1835,1682.1709],[-104.3568,25.1895,1904.4639],[-104.3668,25.1987,1911.9182],[-104.3679,25.2563,1746.1482],[-104.3821,25.2518,1985.0027],[-104.3698,25.2591,1783.2732],[-104.4024,25.3146,1899.181],[-104.4152,25.3098,1965.9969],[-104.4968,25.3658,2014.7805],[-104.5474,25.3952,2184.9749],[-104.6124,25.4282,1830.3068],[-104.6222,25.4264,1596.4675],[-104.6424,25.3988,1623.1173],[-104.6254,25.395,1554.532],[-104.6323,25.3774,1554.5833],[-104.6439,25.3612,1449.5656],[-104.6594,25.3703,1585.4009],[-104.6678,25.3596,1563.6989],[-104.6744,25.3404,1419.0597],[-104.7097,25.3617,1444.1686],[-104.7154,25.3432,1380.5542],[-104.7132,25.3388,1410.1887],[-104.719,25.3312,1383.7278],[-104.7167,25.3286,1370.9559],[-104.7088,25.3269,1372.8445],[-104.7017,25.3277,1374.9591],[-104.7034,25.3168,1374.9124],[-104.7195,25.3045,1499.7179],[-104.7188,25.3022,1524.6379],[-104.7228,25.2991,1506.0659],[-104.7398,25.2869,1646.2908],[-104.7567,25.2925,1892.7356],[-104.7476,25.3123,1826.5038],[-104.7802,25.2944,1863.2083],[-104.7902,25.3002,1858.9904],[-104.7943,25.2867,1815.8583],[-104.8102,25.278,1994.1733],[-104.8056,25.2674,2038.5619],[-104.7983,25.2736,1939.1885],[-104.8251,25.217,2448.5769],[-104.7715,25.18,2528.0222],[-104.7853,25.1505,2273.0276],[-104.7697,25.1511,2258.26],[-104.7743,25.1272,2281.5437],[-104.7409,25.1488,2381.261],[-104.7154,25.1297,2016.4895],[-104.7129,25.131,2059.8701],[-104.7105,25.1299,2027.1898],[-104.6988,25.1311,1948.535],[-104.6921,25.1353,1886.4517],[-104.6904,25.1393,1865.584],[-104.6889,25.1361,1894.3131],[-104.6899,25.1352,1925.865],[-104.6875,25.1355,1940.1498],[-104.6874,25.1339,1953.1785],[-104.6831,25.1308,1907.7861],[-104.6848,25.1265,1892.3414],[-104.6807,25.1207,1864.4365],[-104.682,25.119,1853.6316],[-104.6851,25.1191,1875.075],[-104.6871,25.1158,1858.3813],[-104.6831,25.1107,1772.5935],[-104.6804,25.1139,1858.6685],[-104.6508,25.1287,1995.3154],[-104.6249,25.0906,1553.4673],[-104.6199,25.0588,1793.2144],[-104.6204,25.028199999999998,1648.1757],[-104.6272,24.9959,2105.8757],[-104.5955,24.9656,1876.7112],[-104.5941,24.9562,1750.2063],[-104.5916,24.9572,1830.0092]]]]}}