{"type":"Feature","properties":{"GID_2":"MEX.14.86_2","GID_0":"MEX","country":"México","GID_1":"MEX.14_1","province":"Jalisco","NL_NAME_1":"NA","county":"TalpadeAllende","VARNAME_2":"NA","NL_NAME_2":"NA","TYPE_2":"Município","ENGTYPE_2":"Municipality","CC_2":"NA","HASC_2":"NA","name":"Talpade_Allende.county"},
"geometry":{"type": "MultiPolygon","coordinates": [[[[-104.7077,20.2672,1537.2668],[-104.7106,20.2702,1551.1357],[-104.7121,20.2684,1630.0776],[-104.7164,20.2691,1676.3364],[-104.7186,20.2677,1740.1619],[-104.7201,20.2692,1810.0699],[-104.7205,20.2748,1903.6138],[-104.7226,20.2773,2008.329],[-104.725,20.2857,1872.969],[-104.7246,20.2962,1742.0935],[-104.7261,20.2964,1742.9734],[-104.7265,20.3016,1712.0079],[-104.7252,20.3038,1619.6322],[-104.7364,20.3106,1557.2078],[-104.7346,20.3139,1535.0779],[-104.7349,20.3183,1523.2021],[-104.7312,20.3252,1514.3608],[-104.7318,20.3298,1511.7244],[-104.7284,20.336,1486.2966],[-104.7248,20.3386,1477.3369],[-104.7245,20.3415,1474.189],[-104.7306,20.3423,1496.4944],[-104.7366,20.3478,1530.0742],[-104.7479,20.3478,1632.2904],[-104.754,20.3552,1695.252],[-104.7609,20.3602,1859.0188],[-104.7616,20.3677,2207.8887],[-104.7643,20.3708,2130.0989],[-104.7618,20.3808,1634.6162],[-104.7529,20.3926,1447.9412],[-104.7544,20.3998,1458.2976],[-104.7567,20.4004,1429.7753],[-104.7605,20.3964,1434.5765],[-104.768,20.3962,1468.0347],[-104.7772,20.3999,1630.0675],[-104.7831,20.4053,1878.7488],[-104.8084,20.4116,1302.382],[-104.8019,20.4186,1523.1578],[-104.8015,20.4225,1607.0562],[-104.8115,20.4292,1937.9996],[-104.8125,20.434,1898.8647],[-104.8249,20.4455,1351.0134],[-104.8228,20.4499,1539.6777],[-104.8132,20.455,1823.9556],[-104.8145,20.4617,1818.3695],[-104.8113,20.4678,1711.7837],[-104.8202,20.4748,1809.2122],[-104.8335,20.481,1323.6505],[-104.8305,20.4833,1502.3689],[-104.817,20.4862,1521.5834],[-104.8223,20.4951,1575.3553],[-104.8238,20.5021,1730.7361],[-104.8289,20.5089,1567.4601],[-104.834,20.5119,1458.9153],[-104.8373,20.5129,1426.6459],[-104.8421,20.5077,1652.2246],[-104.8507,20.5109,1643.8458],[-104.8571,20.5153,1580.7058],[-104.8631,20.5209,1499.9371],[-104.8643,20.5289,1384.5869],[-104.8675,20.5301,1398.427],[-104.8709,20.5349,1417.1643],[-104.8769,20.5298,1269.4552],[-104.8864,20.5256,1100.5471],[-104.8919,20.5278,1095.7322],[-104.9006,20.5362,1093.054],[-104.8988,20.539,1091.9861],[-104.8996,20.5441,1127.2549],[-104.9061,20.5453,1135.9453],[-104.904,20.5507,1098.3615],[-104.9061,20.5526,1096.7996],[-104.9024,20.5554,1066.4458],[-104.9025,20.5573,1106.8324],[-104.9062,20.5554,1118.5446],[-104.9214,20.5396,1328.5444],[-104.9448,20.5341,1452.8698],[-104.9616,20.5348,1615.2775],[-104.9586,20.5332,1584.3435],[-104.9587,20.5301,1649.8622],[-104.955,20.5266,1621.9211],[-104.9563,20.5246,1694.5432],[-104.9486,20.5182,1773.7271],[-104.9492,20.5159,1782.5604],[-104.9526,20.514,1805.5583],[-104.9503,20.5097,1839.3857],[-104.9515,20.5076,1869.8616],[-104.953,20.5067,1857.7306],[-104.9551,20.5093,1863.5739],[-104.9622,20.5037,1746.8717],[-104.9712,20.5056,1518.1664],[-104.9769,20.5089,1331.3063],[-104.98779999999999,20.4983,1204.0859],[-104.9914,20.4968,1191.4874],[-104.9943,20.4979,1153.7803],[-104.9935,20.4964,1168.7423],[-104.9839,20.4932,1482.4047],[-104.981,20.4893,1565.022],[-104.9827,20.4851,1732.6078],[-104.9793,20.4852,1772.3096],[-104.9703,20.4798,2003.6631],[-104.9677,20.4776,2150.7166],[-104.9723,20.4749,1913.6719],[-104.9682,20.4747,2207.6895],[-104.9653,20.4714,2258.9495],[-104.9703,20.4669,2183.592],[-104.9699,20.4656,2183.592],[-104.9663,20.4649,2242.7253],[-104.9664,20.4637,2219.3071],[-104.9706,20.4606,2112.0461],[-104.9717,20.4565,2067.3921],[-104.979,20.4515,2057.4985],[-104.978,20.4445,2313.7063],[-104.9763,20.4428,2267.9685],[-104.977,20.4359,2359.8279],[-104.9868,20.4401,2118.2241],[-104.9873,20.443,1875.6217],[-104.9918,20.4415,1717.2429],[-104.997,20.4431,1653.1084],[-105.0032,20.4422,1403.2932],[-105.0071,20.4495,1335.4268],[-105.0131,20.4475,1270.3538],[-105.0156,20.4488,1285.8026],[-105.0162,20.4445,1289.8208],[-105.0226,20.4445,1430.4006],[-105.0279,20.4412,1501.2548],[-105.0311,20.4423,1578.46],[-105.0348,20.4391,1733.287],[-105.0368,20.439,1800.0063],[-105.0413,20.4428,1962.3896],[-105.0459,20.4426,2297.4209],[-105.052,20.4523,2007.9998],[-105.0548,20.4536,1927.4191],[-105.0549,20.4557,1862.5349],[-105.0583,20.4564,1913.5226],[-105.0561,20.4585,1816.0935],[-105.0589,20.4632,1753.2848],[-105.0592,20.47,1626.3859],[-105.0573,20.4771,1444.6912],[-105.0544,20.4777,1353.3643],[-105.0451,20.4851,1260.1938],[-105.0558,20.4855,1460.4827],[-105.0574,20.4905,1516.2605],[-105.0591,20.4897,1493.0286],[-105.0592,20.4922,1625.1863],[-105.0621,20.4898,1567.5432],[-105.0712,20.4896,1762.9728],[-105.0735,20.4859,1823.0636],[-105.0813,20.4911,1621.3169],[-105.0818,20.493,1593.5024],[-105.0866,20.4944,1552.3628],[-105.0933,20.4995,1443.37],[-105.1003,20.4993,1184.429],[-105.1042,20.5022,1115.0002],[-105.1075,20.5003,1043.734],[-105.1131,20.5012,972.1891],[-105.1123,20.5056,1026.9951],[-105.1032,20.517,1199.7688],[-105.1029,20.52,1129.6184],[-105.099,20.5233,1068.9963],[-105.0987,20.5356,976.3122],[-105.1047,20.5288,1026.345],[-105.1192,20.5267,1283.8551],[-105.1237,20.5219,921.0066],[-105.1294,20.5215,745.5133],[-105.1311,20.5131,714.1714],[-105.134,20.5126,617.4403],[-105.1375,20.5137,709.7057],[-105.1381,20.5167,601.4931],[-105.1412,20.5182,593.0411],[-105.1403,20.5211,580.5882],[-105.1422,20.5214,584.5938],[-105.1405,20.5231,585.9512],[-105.1424,20.5256,537.8329],[-105.1442,20.5264,519.0927],[-105.1467,20.5237,629.1465],[-105.1464,20.5292,501.2089],[-105.1491,20.5274,492.9138],[-105.15,20.5296,530.8653],[-105.1522,20.5276,482.7817],[-105.1553,20.5294,471.1595],[-105.1556,20.5324,487.9205],[-105.1629,20.5311,493.5026],[-105.1627,20.5361,472.2359],[-105.1646,20.5395,420.1431],[-105.1686,20.5293,593.6348],[-105.1686,20.5246,626.4853],[-105.1739,20.5201,670.3064],[-105.1737,20.5189,670.3064],[-105.1825,20.5187,717.8684],[-105.1863,20.5167,802.8022],[-105.1884,20.5135,852.0018],[-105.1949,20.5128,899.9031],[-105.2019,20.5001,1133.4094],[-105.2017,20.497,1175.6484],[-105.1973,20.4914,1296.6771],[-105.2004,20.4835,1539.8706],[-105.2103,20.4919,1189.1477],[-105.2198,20.4875,1022.6613],[-105.2226,20.4794,1254.9104],[-105.2354,20.4578,1323.2651],[-105.2327,20.4538,1253.4872],[-105.2336,20.4473,1027.4531],[-105.2291,20.4421,858.4709],[-105.2292,20.4398,811.6131],[-105.2319,20.4413,772.6771],[-105.235,20.438,677.5955],[-105.235,20.4353,678.4767],[-105.2338,20.4369,667.2373],[-105.2312,20.4346,680.2436],[-105.2358,20.4318,682.3914],[-105.2315,20.4317,694.7415],[-105.2312,20.4299,695.794],[-105.2264,20.43,691.1857],[-105.2262,20.4257,695.2115],[-105.2246,20.4252,686.3986],[-105.2268,20.4233,694.088],[-105.2214,20.4218,695.9957],[-105.225,20.421,696.6371],[-105.2238,20.4186,786.672],[-105.22,20.4164,782.2783],[-105.2176,20.4106,750.601],[-105.2192,20.4094,751.13],[-105.2183,20.405,782.6266],[-105.2197,20.4014,786.3058],[-105.2173,20.3966,813.7155],[-105.21,20.3941,813.2852],[-105.2082,20.395,809.0281],[-105.2079,20.3918,845.844],[-105.2045,20.3922,836.0747],[-105.2055,20.3901,901.3745],[-105.2045,20.3893,851.4687],[-105.2027,20.3907,845.1556],[-105.2014,20.3884,901.2926],[-105.198,20.3907,894.2195],[-105.197,20.3891,881.537],[-105.1948,20.3894,870.2763],[-105.196,20.3854,916.1702],[-105.193,20.3843,913.9836],[-105.1929,20.3806,968.4713],[-105.1879,20.3811,951.2287],[-105.1843,20.3841,1004.0417],[-105.1818,20.3816,1000.2505],[-105.179,20.3842,1023.9131],[-105.1702,20.3814,1033.9535],[-105.1622,20.3822,1086.7849],[-105.1614,20.3801,1115.6725],[-105.1589,20.3808,1110.7283],[-105.1588,20.3792,1102.356],[-105.1575,20.3792,1157.9751],[-105.1574,20.3736,1201.2582],[-105.1552,20.3718,1226.8558],[-105.1597,20.3715,1381.0317],[-105.1654,20.3679,1137.906],[-105.1719,20.3711,1067.2867],[-105.1713,20.3646,1157.3606],[-105.1771,20.3583,1316.7543],[-105.1825,20.3315,1756.9031],[-105.1816,20.3161,1474.1925],[-105.1842,20.3116,1386.4341],[-105.1843,20.3056,1289.2604],[-105.1807,20.3048,1250.0526],[-105.1792,20.2994,1181.5303],[-105.1751,20.2936,1140.6399],[-105.1757,20.2924,1140.6399],[-105.1732,20.2884,1087.2046],[-105.1754,20.2862,1081.9065],[-105.1752,20.2832,1041.8008],[-105.1735,20.2824,1029.8569],[-105.1734,20.2801,1030.3423],[-105.1765,20.2781,1042.1187],[-105.1767,20.2745,974.6884],[-105.1798,20.2726,957.4583],[-105.1841,20.2653,932.9623],[-105.1848,20.2598,850.1979],[-105.1908,20.2587,728.358],[-105.1938,20.2531,659.1782],[-105.1977,20.253,621.4563],[-105.2017,20.2505,663.7797],[-105.1989,20.245,595.7073],[-105.2001,20.2433,549.0667],[-105.1994,20.2389,547.2617],[-105.1951,20.2379,514.7522],[-105.1933,20.235,517.8359],[-105.1866,20.238,490.7919],[-105.1845,20.2352,475.2959],[-105.1806,20.2355,483.2145],[-105.1817,20.2324,452.049],[-105.1708,20.2319,426.5237],[-105.1496,20.222,417.2227],[-105.1489,20.2156,424.6093],[-105.1504,20.2144,378.6341],[-105.1479,20.2084,371.1838],[-105.1486,20.2061,361.3477],[-105.1402,20.1917,338.0645],[-105.1311,20.1898,384.1463],[-105.129,20.191,353.2646],[-105.1237,20.189,334.3697],[-105.1191,20.19,318.3968],[-105.1173,20.1921,354.8358],[-105.1081,20.196,297.2976],[-105.1082,20.2001,293.7678],[-105.1059,20.2002,321.9137],[-105.1045,20.1949,317.0284],[-105.0997,20.1957,315.8605],[-105.098,20.1924,310.1349],[-105.0928,20.1891,279.692],[-105.097,20.185,312.5982],[-105.0959,20.1807,274.9235],[-105.0932,20.1781,255.1705],[-105.0967,20.1761,304.2648],[-105.0953,20.1723,252.0887],[-105.0918,20.173,249.1759],[-105.087,20.1709,276.3037],[-105.0851,20.1683,258.7094],[-105.0814,20.1678,246.3382],[-105.0774,20.1714,235.1859],[-105.0733,20.1718,232.0786],[-105.0678,20.1651,223.715],[-105.0644,20.157,225.9155],[-105.0538,20.1557,208.7545],[-105.0526,20.1512,206.4973],[-105.048,20.1458,197.8944],[-105.0415,20.1404,222.3459],[-105.0332,20.1366,186.5202],[-105.0318,20.1314,183.1978],[-105.0268,20.1275,181.0586],[-105.0264,20.1234,177.5303],[-105.0145,20.1257,232.0716],[-105.0074,20.125,269.6407],[-104.9872,20.1142,526.3883],[-104.9858,20.1114,636.0995],[-104.9801,20.1094,727.2141],[-104.9824,20.1023,1072.8893],[-104.9852,20.1004,1128.6646],[-104.9822,20.0983,1105.7952],[-104.9827,20.0901,1115.4608],[-104.9772,20.0771,826.8312],[-104.9788,20.0744,786.8362],[-104.9728,20.0764,871.1057],[-104.9644,20.0749,1026.891],[-104.9614,20.0648,1244.061],[-104.95,20.0596,1277.1943],[-104.9437,20.0524,852.9565],[-104.9282,20.0546,576.0574],[-104.9243,20.0566,518.0069],[-104.915,20.0547,422.0333],[-104.9104,20.0609,399.5279],[-104.9046,20.0563,351.6136],[-104.9036,20.0531,318.9366],[-104.8958,20.0514,286.4041],[-104.8939,20.0485,283.6753],[-104.8947,20.0447,276.6052],[-104.8921,20.0415,263.1339],[-104.893,20.0398,259.2804],[-104.8909,20.04,261.3273],[-104.8786,20.0461,276.1122],[-104.871,20.0461,274.896],[-104.8564,20.0579,291.7322],[-104.8488,20.0591,312.9075],[-104.8477,20.0609,314.9113],[-104.8443,20.0601,316.2685],[-104.8404,20.0555,339.6725],[-104.8348,20.0597,341.3342],[-104.8194,20.0587,374.8351],[-104.8174,20.0614,359.8855],[-104.8139,20.0566,369.6266],[-104.8117,20.0581,367.8331],[-104.8085,20.0578,366.3228],[-104.8072,20.0609,378.4248],[-104.8048,20.0621,383.8617],[-104.7961,20.0616,408.0729],[-104.7955,20.065,402.0245],[-104.7928,20.0663,408.3304],[-104.7873,20.0639,410.78],[-104.7775,20.066,430.1818],[-104.7744,20.0683,446.4169],[-104.7701,20.0722,452.989],[-104.7724,20.0757,454.8904],[-104.7699,20.0773,456.4949],[-104.7683,20.0831,478.169],[-104.7693,20.0864,480.723],[-104.7666,20.0884,513.5262],[-104.7639,20.0972,568.8227],[-104.7646,20.1009,630.813],[-104.7664,20.1014,632.0427],[-104.7718,20.1099,761.0244],[-104.7703,20.1107,731.9969],[-104.7711,20.1136,746.6566],[-104.769,20.1145,706.9568],[-104.7691,20.1224,718.5746],[-104.7643,20.1199,686.5337],[-104.7585,20.1218,783.0289],[-104.7574,20.1288,907.2227],[-104.7545,20.1309,940.4662],[-104.7515,20.1371,1011.0569],[-104.7483,20.1394,1065.2341],[-104.746,20.1392,1104.0229],[-104.7454,20.1423,1117.9203],[-104.7421,20.142,1169.2352],[-104.7325,20.1459,1280.8745],[-104.728,20.1495,1420.2114],[-104.7278,20.1475,1488.0302],[-104.7239,20.1494,1549.2183],[-104.7228,20.1472,1627.1526],[-104.7187,20.1503,1765.4694],[-104.718,20.1466,1632.8938],[-104.7112,20.1505,1647.7266],[-104.7091,20.1458,1693.0005],[-104.708,20.1467,1693.0005],[-104.7054,20.1449,1715.1644],[-104.7061,20.1506,1889.9186],[-104.7011,20.1548,2075.0254],[-104.7037,20.156,2090.2593],[-104.7048,20.1599,2189.4194],[-104.7023,20.1636,2169.7104],[-104.7106,20.1683,2169.8535],[-104.7079,20.1696,2182.4404],[-104.7087,20.1711,2136.3813],[-104.7067,20.1735,2157.3262],[-104.7056,20.1799,2092.4038],[-104.7081,20.1879,2146.7363],[-104.707,20.1935,2153.6279],[-104.7075,20.2003,1924.6709],[-104.7086,20.2004,1924.6709],[-104.7044,20.2125,1792.1814],[-104.7078,20.2146,1782.6189],[-104.7084,20.2198,1757.3123],[-104.7119,20.2202,1799.998],[-104.7099,20.2316,1708.6646],[-104.7068,20.2336,1700.6368],[-104.7066,20.2355,1670.3765],[-104.7109,20.2377,1656.3589],[-104.7109,20.244,1657.9186],[-104.7157,20.2465,1652.3914],[-104.7182,20.2589,1563.1624],[-104.7133,20.2604,1596.1766],[-104.7115,20.2645,1557.1805],[-104.7077,20.2672,1537.2668]]]]}}