{"type":"Feature","properties":{"GID_2":"MEX.20.45_2","GID_0":"MEX","country":"México","GID_1":"MEX.20_1","province":"Oaxaca","NL_NAME_1":"NA","county":"IxtlándeJuárez","VARNAME_2":"NA","NL_NAME_2":"NA","TYPE_2":"Município","ENGTYPE_2":"Municipality","CC_2":"NA","HASC_2":"NA","name":"Ixtlánde_Juárez.county"},
"geometry":{"type": "MultiPolygon","coordinates": [[[[-96.2867,17.6573,224.0787],[-96.2854,17.6536,244.0693],[-96.2915,17.6535,271.1707],[-96.2899,17.6486,278.5804],[-96.2921,17.6472,320.4518],[-96.2924,17.644,236.9252],[-96.2957,17.6449,261.4662],[-96.2994,17.6438,259.5364],[-96.3015,17.6477,272.4328],[-96.3041,17.647,274.0429],[-96.307,17.6426,299.311],[-96.3057,17.6393,331.4382],[-96.3109,17.6388,303.3585],[-96.3042,17.6338,341.204],[-96.3029,17.63,340.3007],[-96.2959,17.6318,355.2467],[-96.2946,17.6283,357.3713],[-96.2996,17.6239,386.2115],[-96.2994,17.6184,400.2229],[-96.2983,17.6147,418.5082],[-96.2949,17.6134,444.3546],[-96.2944,17.6057,440.0306],[-96.2976,17.6045,490.4749],[-96.3001,17.6055,518.4868],[-96.3058,17.6021,539.6548],[-96.3115,17.6015,542.5498],[-96.3173,17.5964,598.449],[-96.3196,17.5913,581.3497],[-96.3246,17.5885,642.1323],[-96.3312,17.5875,650.8057],[-96.3397,17.5822,725.8469],[-96.3475,17.5899,831.0762],[-96.3521,17.5917,849.7272],[-96.3556,17.5895,933.2313],[-96.3552,17.5847,1013.0673],[-96.3569,17.5823,1025.2863],[-96.3626,17.5833,1070.9069],[-96.3692,17.5814,1179.9557],[-96.3707,17.5777,1213.7163],[-96.3696,17.574,1235.0984],[-96.3748,17.5699,1398.8881],[-96.3866,17.5732,1487.5651],[-96.3958,17.57,1625.0049],[-96.394,17.5617,1593.6565],[-96.3959,17.5526,1721.9573],[-96.3985,17.5491,1684.8364],[-96.3954,17.5422,1694.1566],[-96.3912,17.5404,1688.9324],[-96.3907,17.537,1729.611],[-96.3915,17.5337,1962.6646],[-96.3945,17.5311,1781.5859],[-96.3947,17.5224,1832.7632],[-96.3971,17.5179,1907.5765],[-96.3969,17.5144,1895.2123],[-96.4002,17.5094,1950.3416],[-96.3999,17.5064,1908.9425],[-96.3977,17.5047,2033.7566],[-96.3981,17.5011,1928.7889],[-96.4083,17.4951,2038.5229],[-96.4104,17.4919,2092.2495],[-96.411,17.4864,2054.248],[-96.4161,17.4787,2091.1499],[-96.4239,17.4756,2084.6865],[-96.4231,17.4715,2104.312],[-96.431,17.463,2132.895],[-96.4341,17.4625,2131.5168],[-96.4466,17.4504,2623.8667],[-96.4505,17.4499,2745.679],[-96.4534,17.4476,2770.3103],[-96.4573,17.4439,2918.1992],[-96.4605,17.4364,2963.9211],[-96.4711,17.427,2987.1118],[-96.4807,17.4218,2968.8899],[-96.4868,17.4162,3051.9863],[-96.4942,17.4128,3078.5747],[-96.4935,17.3957,2953.3838],[-96.4992,17.3812,2749.4529],[-96.5056,17.3704,2442.6519],[-96.5091,17.3585,2547.585],[-96.5225,17.3453,2090.9575],[-96.5217,17.3352,1949.9412],[-96.5278,17.3097,1487.1165],[-96.521,17.3072,1488.3971],[-96.5173,17.3114,1499.3914],[-96.5127,17.3088,1503.4722],[-96.5098,17.3123,1557.2783],[-96.5102,17.3157,1606.6219],[-96.5057,17.3234,1973.7166],[-96.4982,17.3261,1943.7439],[-96.4959,17.3247,1843.3188],[-96.495,17.3284,1902.269],[-96.4901,17.3198,1862.4979],[-96.4885,17.3194,1906.2273],[-96.4894,17.3177,1828.7446],[-96.4861,17.308,1900.0719],[-96.4905,17.3071,1897.6779],[-96.4992,17.309,1702.7732],[-96.4961,17.2983,1541.4255],[-96.4916,17.2933,1552.4619],[-96.4838,17.2918,1599.699],[-96.479,17.2941,1656.2896],[-96.4751,17.2915,1734.4155],[-96.4708,17.2924,1867.2462],[-96.4577,17.2889,2027.7714],[-96.4589,17.2948,1883.8054],[-96.4648,17.301,1687.6147],[-96.4661,17.3086,1828.1117],[-96.471,17.3123,2042.4879],[-96.4572,17.3212,2061.312],[-96.4441,17.3355,2347.3677],[-96.4348,17.3421,2636.2224],[-96.4022,17.3418,3011.0566],[-96.3848,17.358,2654.521],[-96.3825,17.362,2790.4351],[-96.3787,17.3551,2820.8257],[-96.3702,17.3662,2481.6924],[-96.3574,17.3692,2316.7253],[-96.3394,17.3812,1933.4763],[-96.3303,17.3744,1525.6741],[-96.319,17.3763,1086.9668],[-96.3218,17.3819,1027.009],[-96.3198,17.3849,979.5405],[-96.3164,17.3864,973.6257],[-96.3144,17.3951,1006.4144],[-96.3117,17.3956,965.4543],[-96.3144,17.3986,944.2881],[-96.3117,17.4029,978.8793],[-96.3105,17.412,872.8041],[-96.3152,17.423,731.2858],[-96.3133,17.4251,605.5773],[-96.3154,17.4293,591.6747],[-96.3128,17.4359,579.434],[-96.3061,17.441,525.4121],[-96.3076,17.4453,541.2041],[-96.3069,17.4498,643.1559],[-96.3037,17.455,530.2094],[-96.2944,17.4619,490.2032],[-96.2783,17.4679,406.3477],[-96.2777,17.4698,399.2552],[-96.2719,17.4729,400.8158],[-96.2683,17.4801,385.8671],[-96.2683,17.484,391.9752],[-96.2715,17.4863,344.2875],[-96.2715,17.4902,337.699],[-96.2827,17.4979,344.1751],[-96.2847,17.5025,314.7993],[-96.2829,17.5058,399.2148],[-96.2832,17.512,378.8282],[-96.2774,17.5173,299.808],[-96.2738,17.5248,319.6804],[-96.2739,17.5298,324.7957],[-96.2701,17.534,272.0071],[-96.2638,17.5372,288.0734],[-96.2439,17.5366,262.7119],[-96.2362,17.5412,236.3907],[-96.2344,17.5431,231.7026],[-96.2347,17.5508,228.914],[-96.2323,17.561,247.261],[-96.2277,17.5672,222.6269],[-96.2174,17.5678,197.9567],[-96.2127,17.5715,187.3044],[-96.2023,17.5704,184.5741],[-96.2005,17.567,219.8644],[-96.1928,17.5681,185.7669],[-96.1884,17.5669,204.9509],[-96.1773,17.5729,223.6295],[-96.1729,17.5777,175.9907],[-96.178,17.5796,267.7369],[-96.1751,17.5856,163.4527],[-96.1682,17.5896,169.1235],[-96.1718,17.5926,249.4759],[-96.164,17.5992,168.0219],[-96.1674,17.6039,152.0962],[-96.1608,17.6069,180.5128],[-96.1624,17.6135,156.54],[-96.1615,17.6171,219.7553],[-96.1554,17.6205,166.7801],[-96.1525,17.6178,130.2382],[-96.1516,17.6143,174.1129],[-96.1468,17.6147,147.0262],[-96.147,17.6164,155.6778],[-96.1508,17.6183,125.7855],[-96.1504,17.6271,207.435],[-96.1538,17.6285,171.4066],[-96.1501,17.634,161.035],[-96.1507,17.6386,129.8251],[-96.1462,17.6405,138.2821],[-96.1411,17.6367,127.4527],[-96.1404,17.639,139.1826],[-96.1434,17.645,143.0081],[-96.1413,17.6471,157.5973],[-96.1398,17.6459,135.4047],[-96.1396,17.6419,130.4498],[-96.1333,17.6383,137.0748],[-96.1301,17.6463,128.7754],[-96.1326,17.6504,129.7991],[-96.1288,17.6525,133.1731],[-96.1258,17.6509,113.6474],[-96.1233,17.6532,124.4542],[-96.1299,17.6564,107.0979],[-96.1381,17.6574,100.8249],[-96.136,17.6614,97.3393],[-96.1654,17.6645,384.4761],[-96.2361,17.65,593.7972],[-96.2382,17.6525,623.5814],[-96.248,17.6496,852.0627],[-96.2503,17.6503,881.4225],[-96.2524,17.6564,1069.4541],[-96.2542,17.6546,1015.8186],[-96.2596,17.6543,766.8389],[-96.2786,17.6586,495.5396],[-96.2867,17.6573,224.0787]],
[[-96.3752,17.4397,1866.2622],[-96.3552,17.4313,1246.6968],[-96.3487,17.426,1234.3708],[-96.3385,17.4234,953.7986],[-96.3373,17.4204,791.1655],[-96.3398,17.4158,768.2196],[-96.3447,17.4137,843.6838],[-96.3486,17.4086,956.6791],[-96.3528,17.4086,923.6371],[-96.3554,17.4058,920.8045],[-96.3591,17.4065,954.4827],[-96.3612,17.401,983.4644],[-96.3654,17.4029,1051.3439],[-96.3661,17.4055,1044.7777],[-96.369,17.4057,1035.6792],[-96.3698,17.4036,1131.2163],[-96.3739,17.4029,1144.8419],[-96.3732,17.398,1167.3765],[-96.3768,17.3979,1206.6665],[-96.3793,17.3951,1344.0862],[-96.3821,17.3981,1299.6227],[-96.3838,17.3941,1408.7843],[-96.3873,17.3938,1443.6123],[-96.3926,17.3968,1567.0809],[-96.3983,17.3959,1730.7498],[-96.4073,17.3988,1938.22],[-96.4132,17.3976,2098.2034],[-96.4169,17.3987,2384.6353],[-96.416,17.4005,2261.0669],[-96.4096,17.4027,2127.5911],[-96.407,17.4086,1760.0294],[-96.4043,17.4102,1558.7626],[-96.3952,17.4072,1420.6388],[-96.3898,17.4067,1400.7048],[-96.3884,17.4091,1394.0671],[-96.3852,17.4065,1264.9513],[-96.3817,17.4078,1264.6035],[-96.3843,17.4126,1280.3154],[-96.3886,17.4132,1482.2029],[-96.3878,17.4158,1448.6448],[-96.3955,17.4195,1532.5642],[-96.4,17.4316,1814.9808],[-96.41,17.4364,2207.271],[-96.4191,17.4371,2879.5259],[-96.4164,17.443,2879.7007],[-96.4087,17.4504,2914.8318],[-96.405,17.4576,2875.8333],[-96.3772,17.4426,1856.5239],[-96.3752,17.4397,1866.2622]]]]}}