{"type":"Feature","properties":{"GID_2":"MEX.13.60_2","GID_0":"MEX","country":"México","GID_1":"MEX.13_1","province":"Hidalgo","NL_NAME_1":"NA","county":"TenangodeDoria","VARNAME_2":"NA","NL_NAME_2":"NA","TYPE_2":"Município","ENGTYPE_2":"Municipality","CC_2":"NA","HASC_2":"NA","name":"Tenangode_Doria.county"},
"geometry":{"type": "MultiPolygon","coordinates": [[[[-98.175299999999993,20.4104,697.8342],[-98.1796,20.4075,660.8323],[-98.1825,20.4082,673.5623],[-98.1833,20.403,756.1401],[-98.1884,20.4009,747.0169],[-98.1916,20.3931,770.1271],[-98.1987,20.3873,783.9664],[-98.2052,20.3864,824.3375],[-98.2079,20.3822,824.8024],[-98.2107,20.3818,846.3787],[-98.2145,20.3841,851.6778],[-98.2193,20.3792,840.8262],[-98.2206,20.3821,900.2877],[-98.2237,20.3839,880.542],[-98.232,20.3856,993.3268],[-98.2366,20.3837,1082.8579],[-98.2375,20.3815,1198.5887],[-98.2427,20.3782,1112.8662],[-98.2451,20.3789,1125.4366],[-98.2455,20.3806,1226.7782],[-98.2567,20.3817,1273.9775],[-98.2618,20.3743,1616.6576],[-98.2701,20.368,1729.0549],[-98.2724,20.3682,1684.9673],[-98.2755,20.3751,1372.7334],[-98.2796,20.3724,1382.4833],[-98.2806,20.3691,1553.8038],[-98.2794,20.3684,1556.5066],[-98.2804,20.367,1536.8828],[-98.2785,20.3583,1693.5308],[-98.2803,20.3534,1952.0509],[-98.2865,20.3446,2197.707],[-98.2904,20.3506,1826.6727],[-98.2904,20.3532,1703.0083],[-98.2928,20.3493,1835.155],[-98.2903,20.3347,2185.6099],[-98.292,20.3308,2189.8],[-98.3109,20.3226,2594.5322],[-98.3118,20.3193,2498.0217],[-98.3162,20.3159,2377.439],[-98.3167,20.3123,2320.2183],[-98.3196,20.3113,2309.5713],[-98.3153,20.3049,2344.6584],[-98.311,20.3035,2370.3743],[-98.3104,20.302,2409.7117],[-98.3045,20.3018,2506.6548],[-98.3029,20.2994,2616.9858],[-98.3001,20.2993,2674.3083],[-98.2933,20.2918,2811.146],[-98.2946,20.289,2743.4878],[-98.2891,20.278199999999998,2414.5034],[-98.2891,20.2697,2356.6152],[-98.2849,20.267,2305.9556],[-98.2844,20.2628,2279.1348],[-98.2806,20.2662,2281.8616],[-98.2755,20.2661,2252.01],[-98.2748,20.2688,2262.8955],[-98.266,20.2736,2303.5461],[-98.2604,20.2855,2419.6208],[-98.2562,20.2863,2534.8428],[-98.2576,20.2981,2089.7864],[-98.254,20.3013,1935.7499],[-98.2466,20.3012,1810.1837],[-98.2422,20.3041,1750.0608],[-98.2365,20.3043,1592.5739],[-98.2327,20.3006,1492.27],[-98.2305,20.2953,1450.8462],[-98.2248,20.2951,1311.2859],[-98.2159,20.2915,1247.8777],[-98.2065,20.2962,1192.7422],[-98.2004,20.2921,1165.2474],[-98.1945,20.2908,1091.7759],[-98.1914,20.2914,1040.6802],[-98.1899,20.2944,998.7463],[-98.1791,20.2938,974.7818],[-98.1781,20.2973,1062.0574],[-98.1804,20.3034,1108.7418],[-98.1779,20.3094,1274.9951],[-98.1795,20.3128,1318.3943],[-98.1779,20.3205,1664.3643],[-98.1797,20.3268,1789.2876],[-98.1792,20.3324,2031.7421],[-98.1818,20.3363,2138.6838],[-98.1719,20.3334,2040.2104],[-98.1633,20.3278,1683.0231],[-98.1576,20.3325,1608.0784],[-98.1466,20.3303,1494.3491],[-98.1426,20.332,1604.9473],[-98.145,20.3348,1381.3302],[-98.1392,20.3327,1473.2301],[-98.1315,20.3365,1691.5856],[-98.1268,20.3362,1726.05],[-98.1242,20.3415,1842.8959],[-98.1272,20.3444,1939.1532],[-98.1262,20.3463,1920.6729],[-98.124,20.3485,1741.2151],[-98.1174,20.3501,1678.6515],[-98.1156,20.3538,1482.9362],[-98.1125,20.3543,1433.1116],[-98.1133,20.3609,1540.5884],[-98.1156,20.3632,1517.3804],[-98.1067,20.3681,1479.3912],[-98.1084,20.374,1052.2997],[-98.102,20.3751,1367.8005],[-98.1019,20.3803,1461.3337],[-98.0939,20.3866,1624.8153],[-98.0969,20.3887,1614.4854],[-98.1028,20.3895,1275.1819],[-98.1022,20.3909,1198.1064],[-98.1042,20.394,1122.0261],[-98.1066,20.3947,1095.8069],[-98.1074,20.3934,1108.6628],[-98.1104,20.3972,996.39],[-98.1149,20.3974,839.7261],[-98.1158,20.4018,746.3825],[-98.1119,20.4044,690.9791],[-98.108,20.4035,728.4058],[-98.1069,20.4048,684.3068],[-98.1071,20.4066,652.6324],[-98.113,20.4093,676.5852],[-98.1243,20.406,717.7726],[-98.1245,20.4014,982.5672],[-98.1266,20.3985,749.3459],[-98.1376,20.4,803.756],[-98.1376,20.3981,803.9337],[-98.1404,20.3984,796.6378],[-98.1439,20.3914,855.7673],[-98.1592,20.3877,971.8247],[-98.1617,20.3926,1566.5258],[-98.171,20.3984,1478.2717],[-98.1739,20.4024,894.7431],[-98.175299999999993,20.4104,697.8342]]]]}}