{"type": "Feature","bbox": [-88.6883,20.761,-88.5657,20.9169],"geometry": {"type": "MultiPolygon","coordinates": [[[[-88.6605,20.9137,24.9984],[-88.6622,20.899,26.4966],[-88.6666,20.8871,27.3131],[-88.6621,20.8854,26.5814],[-88.6725,20.8723,30.5667],[-88.6783,20.8606,24.4357],[-88.6622,20.8514,26.0754],[-88.6631,20.8281,30.0513],[-88.6813,20.8237,32.3331],[-88.6822,20.8156,30.1034],[-88.6811,20.8124,29.4738],[-88.6791,20.8094,30.2655],[-88.6723,20.8085,30.1684],[-88.6731,20.7977,25.7889],[-88.6744,20.791,31.631],[-88.6825,20.79,29.4465],[-88.6883,20.7636,20.7151],[-88.6672,20.761,32.4548],[-88.6663,20.765,33.8404],[-88.663,20.7623,25.7395],[-88.6595,20.7837,26.9123],[-88.6461,20.7742,26.7126],[-88.6407,20.7915,33.9332],[-88.639,20.8076,31.5642],[-88.6221,20.8008,30.4612],[-88.6207,20.8229,29.619],[-88.5921,20.8111,34.1663],[-88.5705,20.8372,32.4379],[-88.5657,20.8567,29.7063],[-88.5765,20.8608,32.7027],[-88.5764,20.8497,32.4656],[-88.5794,20.843,31.619],[-88.5888,20.8438,29.0069],[-88.5878,20.8602,33.0376],[-88.6022,20.8638,28.8072],[-88.5986,20.8777,32.6217],[-88.6052,20.8787,29.5421],[-88.6182,20.8938,27.4333],[-88.6159,20.9106,24.0465],[-88.6281,20.9153,27.7398],[-88.6377,20.9169,27.5935],[-88.6323,20.9065,27.6372],[-88.6463,20.907,26.1229],[-88.6461,20.9124,30.2825],[-88.6605,20.9137,24.9984]]]]}
,"properties": {"GID_2": "MEX.31.60_2","GID_0": "MEX","country": "México","GID_1": "MEX.31_1","province": "Yucatán","NL_NAME_1": "NA","county": "QuintanaRoo","VARNAME_2": "NA","NL_NAME_2": "NA","TYPE_2": "Município","ENGTYPE_2": "Municipality","CC_2": "NA","HASC_2": "NA","name": "Quintana_Roo.county","area_km2": 103.43281,"hist_schema_id": "Elevation0-9000","hist_area_km2": {"0": 0.45563,"25": 102.91773,"50": 0.05946}}}