{"type":"Feature","properties":{"GID_2":"MEX.8.9_2","GID_0":"MEX","country":"México","GID_1":"MEX.8_1","province":"Colima","NL_NAME_1":"NA","county":"Tecomán","VARNAME_2":"NA","NL_NAME_2":"NA","TYPE_2":"Município","ENGTYPE_2":"Municipality","CC_2":"NA","HASC_2":"NA","name":"Tecomán.county"},
"geometry":{"type": "MultiPolygon","coordinates": [[[[-114.7183,18.3603,107.8068],[-114.7265,18.3604,172.9937],[-114.7345,18.3655,153.1965],[-114.7405,18.3655,171.8242],[-114.7567,18.3574,94.1485],[-114.7593,18.3447,26.0172],[-114.7523,18.339,7.715],[-114.7408,18.3438,31.4812],[-114.7383,18.3407,1.0616],[-114.7366,18.3425,9.1908],[-114.7356,18.3405,5.0411],[-114.733,18.3417,0.0],[-114.7326,18.3453,1.1745],[-114.73,18.3488,0.63],[-114.7245,18.3469,0.0],[-114.7239,18.3455,0.6967],[-114.7262,18.3433,2.7174],[-114.7251,18.3428,2.7174],[-114.7207,18.3461,1.4216],[-114.7126,18.3479,0.4721],[-114.7101,18.3502,1.2768],[-114.7027,18.3488,121.2021],[-114.698,18.345,0.0],[-114.6832,18.3584,113.8972],[-114.6921,18.3646,136.2923],[-114.696,18.3617,227.3928],[-114.7183,18.3603,107.8068]]],
[[[-110.985,18.8569,13.7952],[-110.987,18.8562,16.9594],[-110.9873,18.858,17.8881],[-110.9901,18.8584,51.0031],[-110.9928,18.8574,38.2043],[-110.9908,18.8538,82.1472],[-110.9974,18.8521,65.7585],[-110.9986,18.8541,0.0],[-111.0001,18.8444,98.8155],[-111.0029,18.8452,83.0938],[-111.0101,18.8389,0.0],[-111.0082,18.8367,0.0],[-111.0102,18.8359,0.0],[-111.009,18.8323,19.6396],[-111.0109,18.8304,0.0],[-111.0102,18.8273,35.0672],[-111.0139,18.8261,4.153],[-111.0126,18.8238,55.6389],[-111.0167,18.8167,108.7096],[-111.0274,18.8178,36.3994],[-111.0302,18.8161,62.2244],[-111.0307,18.8118,141.0681],[-111.0394,18.8132,27.1509],[-111.0404,18.8092,96.6226],[-111.0429,18.808,85.4825],[-111.0452,18.8092,3.2231],[-111.0475,18.8062,0.0],[-111.0454,18.805,0.0],[-111.0476,18.7986,0.0],[-111.0429,18.7957,25.6538],[-111.0443,18.787,19.2822],[-111.0496,18.7859,47.1008],[-111.0486,18.7827,0.0],[-111.0541,18.7803,0.0],[-111.0565,18.7769,0.0],[-111.056,18.776,0.0],[-111.0546,18.7779,0.0],[-111.0524,18.7777,0.0],[-111.0525,18.7752,0.0],[-111.0499,18.7768,0.0],[-111.0505,18.7786,0.0],[-111.048,18.7822,0.0],[-111.0415,18.7805,0.0],[-111.037,18.7841,4.4794],[-111.035,18.7772,0.0],[-111.0291,18.7747,0.0],[-111.0304,18.7726,0.0],[-111.0235,18.7726,0.0],[-111.0235,18.7654,0.0],[-111.021,18.7637,0.0],[-111.0209,18.7614,0.0],[-111.0167,18.7615,1.7752],[-111.017,18.7595,0.4075],[-111.0198,18.7582,0.0],[-111.0176,18.7569,0.9279],[-111.019,18.7536,0.0],[-111.0173,18.7511,0.0],[-111.0156,18.7508,0.0],[-111.0133,18.7531,0.0],[-111.0109,18.7514,0.0],[-111.0109,18.7494,0.0],[-111.0075,18.749,0.0],[-111.0008,18.7546,0.0],[-110.9979,18.7508,0.0],[-110.9885,18.7482,1.8018],[-110.9903,18.7455,0.0],[-110.9895,18.7463,0.0],[-110.9856,18.7412,0.0],[-110.9826,18.7413,0.0],[-110.9814,18.7436,0.0],[-110.9729,18.7424,0.0],[-110.9705,18.7407,0.0],[-110.971,18.7395,0.0],[-110.9649,18.7372,0.0],[-110.9649,18.7318,0.0],[-110.9632,18.7343,0.0],[-110.9614,18.7329,0.0],[-110.962,18.7301,0.0],[-110.956,18.7277,23.9053],[-110.9592,18.725,0.0],[-110.9568,18.7234,3.4529],[-110.9595,18.7198,0.0],[-110.9522,18.716,0.0],[-110.9501,18.7184,0.0],[-110.9507,18.7233,17.0934],[-110.9438,18.7187,0.0],[-110.9418,18.727,20.3341],[-110.9297,18.7246,0.0],[-110.922,18.729,0.0],[-110.9181,18.7467,22.8847],[-110.9206,18.7649,98.3921],[-110.917,18.7733,0.0],[-110.9145,18.7747,0.0],[-110.9168,18.7747,7.064],[-110.9157,18.7773,136.7733],[-110.9179,18.7785,157.519],[-110.9195,18.787,127.6099],[-110.9186,18.7908,85.878],[-110.9281,18.8011,246.9511],[-110.9283,18.8031,223.267],[-110.9324,18.8059,184.0928],[-110.933,18.81,131.461],[-110.9371,18.8141,140.5248],[-110.9409,18.8153,192.163],[-110.9402,18.8196,97.6902],[-110.9424,18.8273,78.8521],[-110.9462,18.8273,114.7097],[-110.9468,18.8314,116.9674],[-110.9497,18.8328,84.8538],[-110.9522,18.8291,113.2767],[-110.9591,18.8302,194.4909],[-110.9682,18.8444,63.4217],[-110.9705,18.8446,92.1481],[-110.9711,18.8467,59.2147],[-110.9755,18.845,72.5589],[-110.9783,18.8459,93.9033],[-110.98,18.854,13.4483],[-110.982,18.8513,27.8375],[-110.9841,18.8532,23.2403],[-110.9875,18.8519,75.6],[-110.9882,18.8535,62.1876],[-110.985,18.8569,13.7952]]],
[[[-103.9716,18.8688,4.1254],[-103.97,18.8678,8.047],[-103.971,18.8644,0.0],[-103.9699,18.8634,0.0],[-103.964,18.8698,1.1567],[-103.96,18.8695,1.5475],[-103.9576,18.8723,3.7436],[-103.9573,18.8792,6.9971],[-103.9587,18.8752,5.8018],[-103.9618,18.873,5.2375],[-103.9675,18.8744,5.2541],[-103.9716,18.8688,4.1254]]],
[[[-103.9364,18.9589,36.9247],[-103.9337,18.9549,36.1616],[-103.9417,18.958,28.8734],[-103.9466,18.9569,24.7194],[-103.9422,18.9503,23.0824],[-103.9423,18.9463,24.517],[-103.9458,18.9434,20.5377],[-103.9426,18.9347,18.2543],[-103.9434,18.9222,16.1892],[-103.9395,18.9171,20.6712],[-103.9415,18.9113,16.6947],[-103.945,18.9099,11.6345],[-103.9506,18.9016,8.3478],[-103.9496,18.8962,11.8762],[-103.9536,18.8924,9.3253],[-103.9526,18.8855,5.1374],[-103.9556,18.8804,2.8182],[-103.9561,18.876,2.7136],[-103.9518,18.8814,6.8738],[-103.9498,18.8818,7.5217],[-103.9543,18.8771,3.2941],[-103.9584,18.8692,1.5475],[-103.9658,18.8671,1.817],[-103.9687,18.8621,0.0],[-103.9484,18.8428,0.0],[-103.8985,18.8126,0.0],[-103.8974,18.8166,8.6766],[-103.8957,18.8172,8.7806],[-103.8975,18.8121,0.0],[-103.8367,18.7728,0.0],[-103.8361,18.7753,3.479],[-103.8323,18.7743,3.3821],[-103.8317,18.7725,3.1545],[-103.8359,18.7744,3.479],[-103.8359,18.7722,0.0],[-103.8038,18.7492,0.7701],[-103.8049,18.7583,8.276],[-103.803,18.7625,7.6336],[-103.8033,18.7529,6.9589],[-103.798,18.7471,4.107],[-103.8018,18.7493,3.3952],[-103.8022,18.7479,0.0],[-103.749,18.6995,0.0],[-103.7405,18.6893,0.4586],[-103.7388,18.6846,0.0],[-103.7386,18.6883,3.056],[-103.7364,18.6883,0.25],[-103.73779999999999,18.6993,4.4772],[-103.7353,18.7014,7.0135],[-103.7273,18.7032,3.2386],[-103.7257,18.7077,3.6322],[-103.7189,18.7104,5.0686],[-103.7127,18.7264,5.2436],[-103.7086,18.7299,6.7855],[-103.7036,18.739,10.4675],[-103.7032,18.7485,13.1001],[-103.7003,18.7544,9.5056],[-103.6976,18.7559,9.7982],[-103.6895,18.7545,10.9085],[-103.6854,18.7573,11.6254],[-103.683,18.7669,12.1942],[-103.679,18.7732,12.644],[-103.6694,18.7745,12.5],[-103.6618,18.779,17.6864],[-103.6585,18.7792,19.9626],[-103.6537,18.7765,14.0],[-103.6451,18.7823,17.2459],[-103.638,18.7832,19.5602],[-103.6345,18.7886,17.7751],[-103.6286,18.7918,21.8638],[-103.62,18.8014,18.5],[-103.6216,18.8101,19.5],[-103.6207,18.8204,24.0011],[-103.6246,18.8261,24.7264],[-103.6503,18.8408,764.5601],[-103.6515,18.8447,855.5496],[-103.6533,18.8455,676.1313],[-103.6522,18.8489,455.3189],[-103.6686,18.8585,103.497],[-103.671,18.8545,98.4236],[-103.6942,18.8655,357.2093],[-103.6867,18.8816,118.0954],[-103.6916,18.8833,122.2776],[-103.6956,18.8822,134.9018],[-103.7051,18.8901,418.4402],[-103.7027,18.8917,327.5918],[-103.7109,18.8942,384.229],[-103.711,18.9009,389.5935],[-103.7208,18.9015,405.5918],[-103.7288,18.9129,509.7683],[-103.7308,18.9122,499.8444],[-103.728,18.9039,459.3671],[-103.7282,18.9037,440.9638],[-103.73,18.9078,503.8322],[-103.732,18.9077,517.4061],[-103.7356,18.9025,580.3218],[-103.7377,18.904,514.889],[-103.7411,18.9008,484.2285],[-103.7383,18.9042,551.5656],[-103.7408,18.9176,625.6154],[-103.7452,18.9174,590.9355],[-103.748,18.909,524.097],[-103.7692,18.911,21.0151],[-103.7639,18.9212,26.907],[-103.767,18.9227,56.586],[-103.7693,18.9194,29.6796],[-103.7722,18.9183,20.5428],[-103.7723,18.916,20.4505],[-103.7753,18.9161,20.0],[-103.7762,18.9178,23.1365],[-103.7515,18.9449,92.7166],[-103.7622,18.9487,45.6684],[-103.7651,18.9406,35.6744],[-103.7763,18.943,35.8244],[-103.7699,18.9483,39.2816],[-103.784,18.9561,166.5862],[-103.7776,18.9779,426.3506],[-103.7807,18.9999,791.5985],[-103.7699,19.0001,713.9186],[-103.7719,19.0218,407.1511],[-103.7679,19.027,567.8341],[-103.772,19.0379,550.5171],[-103.7707,19.0455,486.2387],[-103.7741,19.0599,618.1378],[-103.7686,19.0681,713.7501],[-103.7761,19.072,490.1226],[-103.773,19.0787,467.8924],[-103.7845,19.0782,495.4277],[-103.785,19.0751,557.4565],[-103.7907,19.0742,561.6912],[-103.7873,19.0657,418.0962],[-103.7827,19.0631,389.6369],[-103.7835,19.0593,366.0689],[-103.7889,19.0594,401.0491],[-103.8573,19.0456,304.6445],[-103.856,19.0806,233.7668],[-103.8612,19.0868,271.9791],[-103.8524,19.0842,252.0282],[-103.8507,19.0879,318.0644],[-103.8484,19.1079,480.8904],[-103.8564,19.1063,479.4246],[-103.8678,19.1011,699.9723],[-103.872,19.1038,628.7916],[-103.8766,19.1109,425.9475],[-103.8838,19.1123,198.6021],[-103.8823,19.1151,194.9166],[-103.8843,19.1214,196.4907],[-103.8852,19.1178,196.6003],[-103.8884,19.1162,193.0397],[-103.8879,19.1129,187.5723],[-103.8922,19.11,187.8826],[-103.8969,19.1032,180.332],[-103.8978,19.1005,179.0405],[-103.8963,19.0977,183.7741],[-103.9019,19.0884,162.3009],[-103.9034,19.0813,154.5014],[-103.9145,19.0598,131.952],[-103.9143,19.0485,115.4048],[-103.9163,19.047,117.321],[-103.9175,19.0376,116.8788],[-103.9152,19.0379,113.0297],[-103.9111,19.0346,104.9611],[-103.9135,19.0358,133.7888],[-103.9125,19.0303,98.969],[-103.9184,19.0167,88.4633],[-103.9168,19.0161,89.0901],[-103.9165,19.0095,83.2676],[-103.9144,19.0096,81.1205],[-103.9141,18.9975,68.5329],[-103.9218,18.9769,52.4026],[-103.9224,18.9664,40.7815],[-103.9234,18.9636,38.8569],[-103.9291,18.9595,38.525],[-103.9364,18.9589,36.9247]]],
[[[-103.9511,18.8982,6.905],[-103.9511,18.8966,6.7845],[-103.9506,18.8974,6.905],[-103.9518,18.9016,8.3478],[-103.9493,18.9068,10.5152],[-103.9424,18.9124,12.2386],[-103.9403,18.9167,19.2363],[-103.9444,18.9239,20.1759],[-103.9448,18.9196,14.9687],[-103.9485,18.9175,18.7453],[-103.9496,18.9124,16.9137],[-103.9529,18.9079,15.8192],[-103.953,18.9039,13.8976],[-103.9511,18.8982,6.905]]]]}}