{"type":"Feature","properties":{"GID_2":"MEX.21.184_2","GID_0":"MEX","country":"México","GID_1":"MEX.21_1","province":"Puebla","NL_NAME_1":"NA","county":"Tlapacoya","VARNAME_2":"NA","NL_NAME_2":"NA","TYPE_2":"Município","ENGTYPE_2":"Municipality","CC_2":"NA","HASC_2":"NA","name":"Tlapacoya.county"},
"geometry":{"type": "MultiPolygon","coordinates": [[[[-97.8397,20.0913,705.4929],[-97.8396,20.0946,993.307],[-97.8419,20.0954,990.5444],[-97.839,20.103,1115.0397],[-97.83,20.101,992.179],[-97.8143,20.1044,574.8146],[-97.8131,20.1112,837.8962],[-97.8088,20.1146,1082.6353],[-97.8069,20.1197,1272.4642],[-97.8047,20.1193,1335.1276],[-97.8061,20.1227,1071.7012],[-97.8043,20.1285,896.5961],[-97.792,20.1373,543.4034],[-97.7923,20.1413,472.4956],[-97.7866,20.1454,420.0583],[-97.7904,20.1463,455.3467],[-97.7944,20.1533,577.41],[-97.7978,20.1542,694.6052],[-97.7901,20.1596,682.1788],[-97.7886,20.1619,723.3456],[-97.7894,20.1637,740.5655],[-97.7862,20.166,722.7414],[-97.7869,20.1674,746.2798],[-97.7891,20.1672,662.8866],[-97.7965,20.1714,423.5128],[-97.8085,20.1676,494.2579],[-97.8168,20.1766,700.3358],[-97.8148,20.1819,694.5831],[-97.8163,20.1847,690.9311],[-97.8158,20.1903,684.4811],[-97.8211,20.1907,663.5656],[-97.8254,20.185,675.5078],[-97.8315,20.183,741.1931],[-97.8301,20.1789,773.106],[-97.8312,20.1758,765.6282],[-97.8284,20.1745,757.241],[-97.8305,20.1705,803.8001],[-97.8337,20.1692,902.8973],[-97.8318,20.1652,997.7809],[-97.8335,20.1628,1118.366],[-97.8432,20.159,1177.048],[-97.8454,20.1554,1320.5646],[-97.8454,20.1523,1331.9216],[-97.859,20.148,1274.199],[-97.86,20.1387,803.7288],[-97.858,20.1371,805.8881],[-97.8594,20.1332,784.3504],[-97.8609,20.132,841.3999],[-97.8656,20.1332,944.9746],[-97.8712,20.1305,1134.8431],[-97.8763,20.1308,1267.8629],[-97.8773,20.1321,1309.1216],[-97.8797,20.1311,1351.6726],[-97.8772,20.128,1228.7324],[-97.8836,20.1241,1477.8164],[-97.8893,20.1259,1734.791],[-97.8867,20.121,1668.8009],[-97.8909,20.1174,1464.0643],[-97.8904,20.1139,1414.9413],[-97.8927,20.1085,1301.3899],[-97.8905,20.0997,1166.5903],[-97.8851,20.0957,1021.2967],[-97.8814,20.0958,948.7316],[-97.8789,20.0913,879.923],[-97.8799,20.0898,841.5145],[-97.876,20.086,816.6292],[-97.8696,20.0858,812.3752],[-97.8677,20.0838,798.8974],[-97.8631,20.0828,804.455],[-97.856,20.0856,807.6431],[-97.85,20.0853,797.8539],[-97.8397,20.0913,705.4929]]]]}}