{"type":"Feature","properties":{"GID_2":"MEX.31.90_2","GID_0":"MEX","country":"México","GID_1":"MEX.31_1","province":"Yucatán","NL_NAME_1":"NA","county":"Timucuy","VARNAME_2":"NA","NL_NAME_2":"NA","TYPE_2":"Município","ENGTYPE_2":"Municipality","CC_2":"NA","HASC_2":"NA","name":"Timucuy.county"},
"geometry":{"type": "MultiPolygon","coordinates": [[[[-89.5305,20.617,17.5934],[-89.5242,20.6017,18.8625],[-89.5283,20.6297,17.1176],[-89.5182,20.6781,18.9748],[-89.4996,20.6956,17.7336],[-89.5207,20.6964,17.9867],[-89.5373,20.7144,15.8238],[-89.5396,20.7016,18.5002],[-89.5526,20.7089,19.0224],[-89.5546,20.7219,19.2716],[-89.5512,20.7359,17.4712],[-89.5712,20.7371,15.5128],[-89.5702,20.7451,14.0685],[-89.5649,20.7448,16.5036],[-89.5635,20.7538,15.5784],[-89.571,20.7559,16.544],[-89.5691,20.7617,17.8986],[-89.5752,20.7641,15.5028],[-89.5731,20.7701,13.4504],[-89.5671,20.768,18.166],[-89.5644,20.7765,20.329],[-89.556,20.7743,19.8368],[-89.5618,20.757,16.7281],[-89.561,20.7524,16.6697],[-89.5578,20.7517,16.7164],[-89.5574,20.7569,18.7501],[-89.5561,20.757,18.7501],[-89.5555,20.7619,18.5924],[-89.5534,20.7616,19.8433],[-89.5525,20.7664,19.0179],[-89.5469,20.7634,19.5632],[-89.5475,20.7625,19.5632],[-89.5437,20.7587,19.5537],[-89.5447,20.7578,19.7707],[-89.5138,20.7595,19.1017],[-89.5137,20.7519,18.3909],[-89.505,20.7507,18.4683],[-89.5037,20.7638,14.5471],[-89.5079,20.7649,14.1288],[-89.5075,20.7716,17.7225],[-89.5141,20.7692,17.2003],[-89.5138,20.7736,16.1896],[-89.5096,20.7825,17.4945],[-89.501,20.7778,17.5736],[-89.4946,20.7764,17.0035],[-89.4851,20.7812,15.3944],[-89.4821,20.7808,15.2044],[-89.481,20.7832,14.5704],[-89.4828,20.7936,14.9777],[-89.4872,20.8015,17.7267],[-89.4845,20.8123,17.3075],[-89.4895,20.8133,15.1181],[-89.4966,20.8182,17.5038],[-89.4975,20.8249,18.6536],[-89.4962,20.8314,16.7416],[-89.5002,20.8316,17.2334],[-89.5007,20.8343,16.8113],[-89.5044,20.8369,16.0669],[-89.5065,20.8296,15.6959],[-89.5102,20.8308,12.0636],[-89.5075,20.8454,16.3592],[-89.4955,20.8429,16.0504],[-89.5055,20.8507,15.4231],[-89.5014,20.8515,13.115],[-89.4955,20.8496,15.8376],[-89.4942,20.8578,11.9443],[-89.491,20.8584,11.978],[-89.506,20.8782,15.1579],[-89.5174,20.8765,12.6706],[-89.5163,20.8804,15.8719],[-89.5233,20.8836,13.8646],[-89.5235,20.8796,16.4642],[-89.5273,20.8798,13.8968],[-89.5276,20.8727,12.2126],[-89.5339,20.8721,11.2676],[-89.5331,20.8743,13.5515],[-89.5394,20.8757,14.2209],[-89.5423,20.8726,13.6079],[-89.5335,20.8687,13.5941],[-89.5345,20.8648,13.0698],[-89.5395,20.8611,12.8904],[-89.5326,20.8532,12.9358],[-89.527,20.8574,15.7388],[-89.5222,20.8539,13.3073],[-89.5246,20.8529,13.4843],[-89.5248,20.8486,14.1278],[-89.5253,20.8506,13.0204],[-89.5437,20.8509,16.8944],[-89.5381,20.8375,16.9133],[-89.5701,20.8415,11.5161],[-89.5784,20.83,15.7577],[-89.585,20.8387,15.9634],[-89.5853,20.8287,16.1426],[-89.5839,20.8227,14.878],[-89.5866,20.819,14.3043],[-89.5814,20.815,15.5812],[-89.5807,20.8186,11.7116],[-89.5757,20.818,14.4848],[-89.5764,20.8143,15.6785],[-89.564,20.8138,13.9392],[-89.5648,20.8075,14.0948],[-89.5541,20.8078,16.3608],[-89.5549,20.7991,17.5748],[-89.5672,20.8002,16.9795],[-89.5688,20.788,18.9056],[-89.5648,20.7871,17.5342],[-89.5791,20.7618,19.7612],[-89.5858,20.7451,14.0263],[-89.5801,20.743,14.3062],[-89.5759,20.7433,14.4634],[-89.5775,20.7299,15.7392],[-89.5835,20.7315,17.4578],[-89.5871,20.7282,16.8228],[-89.5767,20.7121,17.1898],[-89.5608,20.7105,18.1455],[-89.5643,20.6797,16.9224],[-89.5547,20.6793,18.2013],[-89.5574,20.65,19.9899],[-89.5663,20.651,20.3819],[-89.5674,20.6398,20.9318],[-89.5402,20.6308,19.5199],[-89.5305,20.617,17.5934]]]]}}