{"type": "Feature","bbox": [-98.2273,19.1632,-98.0317,19.2583],"geometry": {"type": "MultiPolygon","coordinates": [[[[-98.0317,19.2309,4364.5889],[-98.0523,19.234,3612.1851],[-98.0643,19.2336,3339.7219],[-98.068,19.2355,3280.1235],[-98.0716,19.2353,3234.3132],[-98.0753,19.2381,3132.7983],[-98.0875,19.2393,2978.04],[-98.1065,19.2467,2795.3123],[-98.1125,19.2467,2731.4722],[-98.1196,19.2491,2676.4863],[-98.1333,19.2481,2588.6348],[-98.1421,19.2517,2536.8804],[-98.1441,19.2511,2510.8804],[-98.1473,19.2536,2491.3445],[-98.1502,19.2537,2487.8228],[-98.1504,19.2519,2487.3975],[-98.1651,19.2555,2420.6147],[-98.1703,19.2544,2391.1807],[-98.1693,19.256,2399.0303],[-98.1707,19.2583,2392.8123],[-98.174,19.2565,2379.2197],[-98.1795,19.2573,2364.7617],[-98.18,19.2553,2362.3159],[-98.1813,19.2553,2357.22],[-98.1807,19.2574,2359.5737],[-98.1889,19.2581,2332.8147],[-98.1891,19.2523,2331.8218],[-98.1924,19.249,2324.0789],[-98.1989,19.2485,2301.2817],[-98.2042,19.25,2293.5325],[-98.2027,19.2479,2297.207],[-98.2058,19.2466,2284.8555],[-98.2073,19.2465,2280.4766],[-98.2072,19.2491,2281.6877],[-98.2095,19.2457,2275.5442],[-98.2161,19.2459,2261.6572],[-98.2171,19.2418,2260.1848],[-98.2083,19.2413,2279.9739],[-98.2094,19.2361,2269.3186],[-98.2162,19.234,2256.2061],[-98.2263,19.2347,2238.3176],[-98.2273,19.2308,2237.0056],[-98.2229,19.227,2242.3435],[-98.211,19.2276,2268.2839],[-98.2114,19.2258,2268.1372],[-98.2073,19.2244,2275.7166],[-98.2075,19.2274,2276.4612],[-98.1912,19.2289,2325.1465],[-98.1893,19.2312,2327.4456],[-98.1826,19.2297,2353.791],[-98.1755,19.231,2386.5063],[-98.1747,19.2248,2390.3809],[-98.1642,19.2234,2435.8665],[-98.1609,19.2207,2451.9248],[-98.1415,19.219,2566.1387],[-98.1237,19.2225,2701.9478],[-98.1227,19.222,2702.582],[-98.127,19.2147,2640.0461],[-98.1102,19.2166,2780.1003],[-98.1104,19.2053,2745.4648],[-98.1052,19.1936,2738.4321],[-98.1035,19.194,2758.4907],[-98.1032,19.1872,2743.5869],[-98.1007,19.1834,2729.9375],[-98.1017,19.1766,2715.9839],[-98.0996,19.1632,2666.5005],[-98.0776,19.1769,2860.9451],[-98.0696,19.1852,2969.6523],[-98.0686,19.19,3024.8765],[-98.0628,19.1949,3100.7656],[-98.0593,19.2012,3215.4482],[-98.0505,19.2072,3365.6099],[-98.0476,19.2071,3482.6584],[-98.0415,19.2102,3621.929],[-98.0346,19.2188,3938.0947],[-98.0352,19.2241,4089.7314],[-98.0317,19.2309,4364.5889]]]]}
,"properties": {"GID_2": "MEX.29.44_2","GID_0": "MEX","country": "México","GID_1": "MEX.29_1","province": "Tlaxcala","NL_NAME_1": "NA","county": "Teolocholco","VARNAME_2": "NA","NL_NAME_2": "NA","TYPE_2": "Município","ENGTYPE_2": "Municipality","CC_2": "NA","HASC_2": "NA","name": "Teolocholco.county","area_km2": 77.21744,"hist_schema_id": "Elevation0-9000","hist_area_km2": {"2225": 0.08008,"2250": 1.12107,"2275": 1.9618,"2300": 2.32211,"2325": 2.10188,"2350": 2.44213,"2375": 2.12186,"2400": 2.08186,"2425": 1.92173,"2450": 1.78163,"2475": 1.82168,"2500": 1.78164,"2525": 1.56145,"2550": 1.5014,"2575": 1.28119,"2600": 1.32123,"2625": 1.081,"2650": 1.04097,"2675": 1.12108,"2700": 1.4615,"2725": 1.64178,"2750": 2.06231,"2775": 2.62291,"2800": 2.66295,"2825": 2.64285,"2850": 2.20239,"2875": 2.50272,"2900": 2.00216,"2925": 1.7419,"2950": 1.62175,"2975": 1.52164,"3000": 1.74187,"3025": 1.18127,"3050": 1.18125,"3075": 1.28135,"3100": 1.10117,"3125": 1.18124,"3150": 0.961,"3175": 0.90094,"3200": 1.04107,"3225": 0.7808,"3250": 0.92093,"3275": 0.80082,"3300": 0.56058,"3325": 0.60062,"3350": 0.64066,"3375": 0.40041,"3400": 0.62064,"3425": 0.42042,"3450": 0.38039,"3475": 0.44045,"3500": 0.40041,"3525": 0.42042,"3550": 0.22022,"3575": 0.2002,"3600": 0.32032,"3625": 0.18018,"3650": 0.3003,"3675": 0.16016,"3700": 0.18018,"3725": 0.24024,"3750": 0.24024,"3775": 0.1001,"3800": 0.12012,"3825": 0.18018,"3850": 0.22022,"3875": 0.16016,"3900": 0.24024,"3925": 0.18018,"3950": 0.1001,"3975": 0.2002,"4000": 0.12012,"4025": 0.08008,"4050": 0.04004,"4075": 0.02002,"4100": 0.04004,"4125": 0.08008,"4150": 0.06006,"4175": 0.02002,"4200": 0.04004,"4225": 0.02002,"4300": 0.02002,"4325": 0.02002,"4350": 0.02002}}}