{"type":"Feature","properties":{"GID_2":"MEX.23.5_2","GID_0":"MEX","country":"México","GID_1":"MEX.23_1","province":"QuintanaRoo","NL_NAME_1":"NA","county":"IslaMujeres","VARNAME_2":"NA","NL_NAME_2":"NA","TYPE_2":"Município","ENGTYPE_2":"Municipality","CC_2":"NA","HASC_2":"NA","name":"Isla_Mujeres.county"},
"geometry":{"type": "MultiPolygon","coordinates": [[[[-86.734,21.2305,1.6407],[-86.7301,21.2214,3.574],[-86.7403,21.2342,0.8946],[-86.7389,21.2357,2.0775],[-86.7403,21.2394,0.8882],[-86.7426,21.2387,0.3538],[-86.7433,21.2373,0.0],[-86.7319,21.2209,2.1674],[-86.7181,21.2054,0.0],[-86.7107,21.2018,0.7874],[-86.7151,21.2065,5.4737],[-86.7224,21.2227,0.0],[-86.7389,21.2455,0.0],[-86.7473,21.2617,3.5866],[-86.75,21.2621,0.0],[-86.7531,21.2579,0.8917],[-86.7454,21.2544,0.5092],[-86.738,21.2361,2.0775],[-86.734,21.2305,1.6407]]],
[[[-86.8274,21.2957,0.0],[-86.8272,21.2966,0.0],[-86.8274,21.2963,0.0],[-86.8274,21.2957,0.0]]],
[[[-86.8804,21.4246,0.2047],[-86.8791,21.4257,0.0],[-86.8827,21.4254,0.4794],[-86.8826,21.4248,0.4794],[-86.8804,21.4246,0.2047]]],
[[[-87.1992,21.4171,4.9347],[-87.1858,21.4235,0.2982],[-87.1709,21.4231,0.0],[-87.1728,21.426,0.234],[-87.1714,21.43,0.3396],[-87.1741,21.4322,1.2751],[-87.1745,21.4359,0.1562],[-87.1829,21.4377,0.1993],[-87.1848,21.4368,0.5552],[-87.1853,21.4334,1.2012],[-87.1885,21.4397,0.0],[-87.2041,21.4446,1.0495],[-87.2164,21.4429,-0.2672],[-87.2213,21.4382,0.272],[-87.2216,21.4304,0.9468],[-87.2231,21.4289,0.3028],[-87.2218,21.4246,1.0494],[-87.2196,21.4228,4.0589],[-87.2176,21.4238,1.4714],[-87.2171,21.4219,0.6007],[-87.2189,21.4195,3.652],[-87.1992,21.4171,4.9347]]],
[[[-86.8706,21.4308,0.1921],[-86.8735,21.4304,0.308],[-86.881,21.4348,0.2885],[-86.8876,21.4315,0.3712],[-86.8873,21.4299,-0.152],[-86.8835,21.4282,0.714],[-86.8841,21.4265,0.2243],[-86.879,21.4284,1.1617],[-86.8774,21.4266,1.1969],[-86.8784,21.4249,0.7004],[-86.8748,21.4263,0.8341],[-86.8773,21.4225,0.146],[-86.8855,21.421,0.0],[-86.8883,21.4168,0.2617],[-86.8784,21.4209,0.3992],[-86.8749,21.4257,0.5204],[-86.8688,21.4299,0.7063],[-86.8706,21.4308,0.1921]]],
[[[-86.8566,21.4328,1.1484],[-86.854,21.4335,0.0],[-86.8526,21.4361,0.5806],[-86.8689,21.4313,0.1921],[-86.8663,21.4302,0.6398],[-86.8566,21.4328,1.1484]]],
[[[-86.8392,21.2121,9.8241],[-86.802,21.212,0.0],[-86.8008,21.2139,1.1826],[-86.8016,21.2399,0.0],[-86.8122,21.2645,0.0],[-86.8156,21.275,2.5722],[-86.8166,21.2849,0.5022],[-86.8136,21.3,3.7778],[-86.8073,21.3134,1.7901],[-86.7965,21.3299,0.0],[-86.7914,21.3422,0.0],[-86.7902,21.348,0.0],[-86.7914,21.3764,0.6757],[-86.7902,21.3842,0.0],[-86.7965,21.4063,0.843],[-86.7977,21.4072,0.249],[-86.7999,21.4023,0.5693],[-86.7963,21.396,1.043],[-86.7969,21.3931,0.0],[-86.7944,21.3882,1.6214],[-86.7968,21.3876,0.0272],[-86.7951,21.3859,2.0898],[-86.7999,21.3894,0.2933],[-86.8019,21.3929,0.0],[-86.8054,21.4075,1.5913],[-86.8091,21.4122,0.0],[-86.815,21.4138,0.0],[-86.8226,21.4199,0.6117],[-86.8243,21.4178,0.486],[-86.8208,21.414,1.0619],[-86.8267,21.4147,1.3015],[-86.8137,21.4097,0.0],[-86.815,21.4082,0.0],[-86.8121,21.4075,2.0882],[-86.8131,21.4065,0.0],[-86.8099,21.4024,0.9525],[-86.8132,21.4035,1.4614],[-86.8212,21.4109,0.4184],[-86.8253,21.4109,0.4833],[-86.8202,21.4091,0.4823],[-86.8226,21.4056,1.315],[-86.8217,21.4048,0.2006],[-86.811,21.4006,0.5153],[-86.8075,21.395,1.794],[-86.8107,21.3967,1.2936],[-86.813,21.3934,1.0576],[-86.8082,21.3907,2.093],[-86.8023,21.3766,0.3761],[-86.7973,21.3751,0.0],[-86.797,21.3762,0.8498],[-86.795,21.3742,0.0],[-86.7937,21.3694,2.3045],[-86.7952,21.3643,0.0],[-86.7944,21.3489,1.962],[-86.7922,21.3421,0.0],[-86.7968,21.3307,0.6552],[-86.8,21.3274,1.3887],[-86.8088,21.3214,4.1168],[-86.8136,21.3209,0.0],[-86.8202,21.3169,3.0836],[-86.8218,21.3144,0.0],[-86.8223,21.3053,1.3835],[-86.8273,21.2974,1.3983],[-86.8255,21.2977,1.3983],[-86.8247,21.2898,0.4676],[-86.823,21.29,2.3106],[-86.8195,21.2829,2.8271],[-86.8307,21.2769,2.1917],[-86.8304,21.2688,0.0],[-86.8279,21.267,3.2339],[-86.8313,21.2618,1.0284],[-86.8301,21.2574,0.0],[-86.8311,21.2549,0.0],[-86.83,21.2558,0.4874],[-86.824,21.2528,1.3636],[-86.8202,21.2458,1.7835],[-86.8227,21.2456,0.0],[-86.8235,21.244,0.5592],[-86.8312,21.248,1.9772],[-86.8341,21.2466,1.784],[-86.8375,21.2473,0.0],[-86.8432,21.2517,1.532],[-86.8447,21.2504,1.5361],[-86.8496,21.2517,2.0108],[-86.8509,21.2539,0.6144],[-86.8567,21.2722,0.5539],[-86.8545,21.2757,1.0915],[-86.8625,21.287,0.0187],[-86.8616,21.2922,1.3914],[-86.8598,21.2942,1.053],[-86.8638,21.299,0.0],[-86.865,21.3042,0.2092],[-86.865,21.3147,-0.1928],[-86.8622,21.3183,0.0],[-86.8627,21.322,0.2788],[-86.868,21.3067,0.125],[-86.8666,21.2993,0.4879],[-86.8641,21.2985,0.4423],[-86.8632,21.2964,0.0505],[-86.866,21.294,0.4076],[-86.866,21.292,-0.135],[-86.864,21.2862,0.0187],[-86.8592,21.2817,-0.1293],[-86.8579,21.277,0.0807],[-86.8597,21.2753,0.4437],[-86.8573,21.2707,0.1007],[-86.857,21.264,-0.0156],[-86.8578,21.2607,0.0264],[-86.86,21.2607,0.6069],[-86.8604,21.2662,0.0574],[-86.8643,21.2762,-0.1544],[-86.8639,21.2831,-0.0213],[-86.8676,21.2885,4.8134],[-86.8701,21.3072,-0.1159],[-86.8676,21.3166,0.5445],[-86.8694,21.3165,0.4901],[-86.8695,21.3182,0.0527],[-86.8656,21.3279,0.7834],[-86.8755,21.3454,1.2024],[-86.8782,21.3576,0.0],[-86.8799,21.3594,0.3941],[-86.8806,21.3681,0.0],[-86.8862,21.3859,0.5781],[-86.8851,21.3916,0.0],[-86.8877,21.3959,0.2636],[-86.8865,21.3993,0.0],[-86.8875,21.4047,0.3436],[-86.8931,21.4111,0.6393],[-86.898,21.4108,1.1411],[-86.9003,21.4182,0.9506],[-86.9039,21.4202,0.5825],[-86.908,21.4266,-0.0675],[-86.909,21.4328,1.1821],[-86.9125,21.4367,1.0888],[-86.9141,21.4357,0.912],[-86.9185,21.4385,0.3794],[-86.9224,21.4472,0.0],[-86.926,21.4495,0.0],[-86.9275,21.4557,0.8514],[-86.932,21.4576,0.2295],[-86.9362,21.4694,0.3668],[-86.9433,21.4759,-0.2695],[-86.9451,21.4805,0.4817],[-86.9475,21.481,0.1205],[-86.9494,21.4848,0.6492],[-86.9547,21.4891,1.095],[-86.954,21.4909,0.1731],[-86.9525,21.4898,0.3968],[-86.9492,21.4915,0.0577],[-86.9483,21.4977,0.5313],[-86.951,21.5021,1.0571],[-86.9539,21.5153,0.3455],[-86.956,21.5155,0.6495],[-86.9599,21.5237,0.1785],[-86.9628,21.5246,2.0292],[-86.9658,21.5224,2.8863],[-86.9634,21.528,0.4712],[-86.974,21.5399,-0.213],[-86.9765,21.5478,0.3353],[-86.9776,21.5486,0.3353],[-86.9817,21.5433,2.8275],[-86.9783,21.541,0.1534],[-86.9769,21.5423,-0.0398],[-86.9782,21.5438,0.0921],[-86.9775,21.5469,0.4597],[-86.9726,21.5358,-0.1815],[-86.9658,21.5295,0.4508],[-86.9701,21.5309,0.0],[-86.9696,21.5291,0.0],[-86.9736,21.525,0.7409],[-86.9718,21.5235,2.3647],[-86.9687,21.5245,2.9521],[-86.9687,21.5225,3.6181],[-86.974,21.5219,1.7999],[-86.9764,21.5201,0.354],[-86.9719,21.5158,0.3076],[-86.9758,21.5149,0.0],[-86.9748,21.5103,6.2566],[-86.9827,21.5189,0.4726],[-86.9826,21.5249,0.2635],[-86.9857,21.5251,0.0748],[-86.987799999999993,21.5234,0.3848],[-87.0028,21.5385,7.1866],[-87.0008,21.5386,0.4624],[-87.0027,21.5413,0.1786],[-87.0016,21.5454,0.0116],[-87.0033,21.5434,0.1484],[-87.0045,21.5447,0.0299],[-87.0062,21.5438,0.0299],[-87.0091,21.5474,-0.1362],[-87.0085,21.5502,-0.483],[-87.0068,21.5503,-0.483],[-87.0043,21.5465,0.0],[-87.0058,21.5516,0.2185],[-87.0119,21.5502,-0.1493],[-87.0148,21.5533,-0.2781],[-87.0157,21.5508,0.3133],[-87.0222,21.5542,0.0742],[-87.0187,21.5581,-0.3547],[-87.0243,21.557,0.3059],[-87.0245,21.5554,7.1694],[-87.0335,21.56,2.3818],[-87.0433,21.5615,-0.2481],[-87.0392,21.5626,0.0],[-87.0418,21.565,0.3487],[-87.0455,21.5626,0.285],[-87.0441,21.5604,0.7441],[-87.0472,21.5596,0.0583],[-87.0486,21.563,-0.0909],[-87.0533,21.5672,0.0],[-87.055,21.566,0.1497],[-87.0624,21.5671,-0.4114],[-87.065,21.5702,0.1049],[-87.0787,21.5784,3.3184],[-87.0772,21.5832,2.1214],[-87.0825,21.5846,0.5986],[-87.0855,21.5893,0.3088],[-87.094,21.5883,0.0474],[-87.0938,21.584,0.0794],[-87.0951,21.5832,0.385],[-87.102,21.584,0.0],[-87.1065,21.5734,1.2113],[-87.1105,21.5704,2.7854],[-87.1122,21.5719,0.0],[-87.1118,21.569,0.0],[-87.1286,21.5541,0.0],[-87.1251,21.5512,0.3323],[-87.1152,21.551,3.1305],[-87.1036,21.5462,0.0528],[-87.1022,21.5391,0.2575],[-87.1007,21.5379,0.2094],[-87.1014,21.5356,0.0],[-87.0988,21.5323,0.4253],[-87.0995,21.5276,0.3543],[-87.1016,21.526,0.0],[-87.1052,21.5246,0.8764],[-87.1081,21.5255,0.0],[-87.1076,21.5195,0.2363],[-87.11,21.519,0.0],[-87.1093,21.5103,3.5406],[-87.1064,21.5053,0.7989],[-87.109,21.5059,0.0],[-87.1074,21.5035,0.1514],[-87.1082,21.4986,0.2344],[-87.1102,21.4982,0.0],[-87.1085,21.4955,0.1304],[-87.1105,21.4919,0.0],[-87.1092,21.4905,0.8318],[-87.1095,21.4856,0.0],[-87.111,21.4836,1.3295],[-87.1135,21.4835,0.6913],[-87.1107,21.4784,0.0352],[-87.1113,21.4711,0.7902],[-87.1145,21.4699,1.1514],[-87.1155,21.4671,0.5934],[-87.119,21.4682,0.4929],[-87.1189,21.4704,0.0],[-87.1217,21.4695,0.4558],[-87.1237,21.4644,0.3284],[-87.1323,21.4596,0.3084],[-87.1419,21.4604,1.0452],[-87.1493,21.4648,0.764],[-87.1574,21.4634,-0.0236],[-87.165,21.4533,0.0],[-87.1657,21.45,0.6706],[-87.1738,21.4452,0.1768],[-87.1851,21.4431,0.985],[-87.186,21.4416,0.4878],[-87.1858,21.4395,0.2097],[-87.1784,21.4368,0.0],[-87.1725,21.438,0.9523],[-87.1733,21.436,0.1562],[-87.1704,21.4334,3.5071],[-87.1683,21.423,4.2],[-87.1275,21.4218,5.9118],[-87.1262,21.3636,14.8939],[-87.0997,21.3622,10.0846],[-87.1017,21.212,11.7341],[-86.9975,21.2121,7.452],[-86.9975,21.2172,7.1874],[-86.9781,21.2172,11.8572],[-86.9781,21.2121,11.5557],[-86.9146,21.212,10.4237],[-86.9145,21.2101,10.2997],[-86.8651,21.2101,12.5328],[-86.866,21.212,12.5389],[-86.848,21.212,9.6709],[-86.847,21.2104,8.7479],[-86.8396,21.213,9.8241],[-86.8392,21.2121,9.8241]]],
[[[-86.9286,21.4701,0.0712],[-86.9325,21.4717,-0.0039],[-86.932,21.4689,-0.2588],[-86.934,21.4668,0.0],[-86.9315,21.4686,0.1721],[-86.9284,21.4677,0.2303],[-86.9286,21.4701,0.0712]]],
[[[-86.9109,21.4675,1.0314],[-86.9166,21.4744,0.308],[-86.9174,21.4703,0.395],[-86.9123,21.4662,0.094],[-86.9109,21.4675,1.0314]]],
[[[-86.9324,21.4726,0.0],[-86.9326,21.4742,0.5081],[-86.9368,21.4749,0.0],[-86.9355,21.471,0.0],[-86.9324,21.4726,0.0]]],
[[[-87.0069,21.5615,1.0257],[-87.0049,21.5663,2.283],[-87.006,21.5678,1.1227],[-87.0101,21.5643,1.1606],[-87.0089,21.5612,2.0203],[-87.0069,21.5615,1.0257]]],
[[[-86.9809,21.5478,0.6447],[-86.9804,21.5486,0.6447],[-86.9829,21.5512,0.4523],[-86.9841,21.5538,0.3618],[-86.9918,21.5632,0.501],[-86.9931,21.5605,1.3724],[-86.9883,21.5576,0.0],[-86.987799999999993,21.5549,0.0134],[-86.9858,21.5556,0.0],[-86.9848,21.551,1.239],[-86.9868,21.5511,1.9055],[-86.9886,21.5485,1.9361],[-86.9887,21.5519,0.987],[-86.99,21.5523,1.1339],[-86.9922,21.5482,3.1208],[-86.9973,21.5486,0.0],[-86.9975,21.5425,0.0],[-86.9953,21.5456,1.2832],[-86.9931,21.5439,1.9307],[-86.988,21.5466,3.4502],[-86.9851,21.5449,2.4509],[-86.985,21.5498,2.3636],[-86.9836,21.5478,3.0458],[-86.9809,21.5478,0.6447]]],
[[[-87.1118,21.5999,0.2936],[-87.1164,21.5968,0.2085],[-87.1139,21.5954,0.1211],[-87.111,21.5989,1.3252],[-87.1086,21.5984,0.0],[-87.108,21.6003,0.4076],[-87.1068,21.5969,0.0],[-87.1055,21.5994,0.5504],[-87.1067,21.5989,0.5504],[-87.1067,21.6009,0.3093],[-87.1048,21.6014,0.9425],[-87.1024,21.5992,-0.0888],[-87.0999,21.6027,1.1444],[-87.0985,21.6,0.3413],[-87.1016,21.5966,0.0],[-87.1001,21.5955,0.6074],[-87.0949,21.5977,0.0474],[-87.0949,21.5942,0.2836],[-87.0932,21.5939,0.2836],[-87.0933,21.5959,0.0861],[-87.0911,21.5966,0.1099],[-87.0913,21.5933,0.9801],[-87.0872,21.5902,0.1938],[-87.085,21.591,0.2345],[-87.0845,21.5939,-0.0607],[-87.0818,21.5935,-0.504],[-87.0798,21.5949,0.2378],[-87.0779,21.5945,0.1007],[-87.0764,21.5913,0.0252],[-87.0752,21.5928,0.0074],[-87.0765,21.5945,0.1007],[-87.0743,21.594,0.1669],[-87.0728,21.5906,0.0303],[-87.0718,21.5914,0.0437],[-87.0731,21.5941,0.1669],[-87.0699,21.5947,0.0321],[-87.0622,21.5913,0.088],[-87.0592,21.5917,0.499],[-87.0573,21.5892,-0.1529],[-87.058,21.5882,0.0],[-87.0555,21.5868,0.0],[-87.0462,21.5855,0.742],[-87.0464,21.5873,0.0],[-87.0506,21.59,0.7104],[-87.0664,21.595,0.6658],[-87.0838,21.5967,0.5279],[-87.0975,21.6046,0.4879],[-87.1062,21.6046,0.8037],[-87.1118,21.5999,0.2936]]],
[[[-87.0282,21.583,0.9602],[-87.0353,21.5851,0.2016],[-87.0421,21.5847,0.0],[-87.0413,21.5834,0.2719],[-87.0359,21.5844,0.2315],[-87.0339,21.5783,0.3843],[-87.031,21.5789,0.1316],[-87.0315,21.5761,0.0],[-87.0295,21.5783,0.3979],[-87.0231,21.5802,-0.0225],[-87.021,21.5763,0.0072],[-87.0144,21.5747,-0.0723],[-87.0173,21.5735,0.0],[-87.0145,21.5698,0.1716],[-87.01,21.5693,0.2377],[-87.0095,21.5713,1.189],[-87.0072,21.5684,0.4279],[-87.0014,21.5704,0.0066],[-86.999,21.5692,0.5953],[-86.9967,21.5651,0.0],[-86.9925,21.564,0.4027],[-86.9988,21.57,0.5953],[-87.0098,21.5746,1.3024],[-87.0202,21.5814,0.5875],[-87.0282,21.583,0.9602]]],
[[[-87.0306,21.5757,0.3396],[-87.0303,21.5746,0.8346],[-87.0297,21.5745,0.8346],[-87.0296,21.5754,0.8346],[-87.0306,21.5757,0.3396]]],
[[[-86.9209,21.4737,0.0],[-86.9191,21.472,0.0],[-86.9175,21.4758,0.0],[-86.9222,21.4779,0.5865],[-86.9235,21.4771,0.5865],[-86.9208,21.4758,0.9283],[-86.9209,21.4737,0.0]]],
[[[-86.7945,21.4848,1.9372],[-86.7948,21.4845,0.0],[-86.794,21.4842,1.9372],[-86.7945,21.4848,1.9372]]],
[[[-86.7969,21.5086,0.8533],[-86.8,21.5228,0.9216],[-86.8038,21.5317,0.0],[-86.7996,21.5187,2.2298],[-86.7998,21.5124,0.9082],[-86.7988,21.5135,0.9082],[-86.7981,21.5121,2.0303],[-86.7987,21.5096,1.9301],[-86.8015,21.509,1.1832],[-86.799,21.4941,0.245],[-86.7975,21.4918,0.0],[-86.7998,21.5028,0.4346],[-86.7988,21.5037,0.4346],[-86.797,21.5033,0.0],[-86.7938,21.496,2.0157],[-86.7951,21.4936,0.0],[-86.7909,21.4839,1.5215],[-86.7934,21.4834,0.4633],[-86.7887,21.4756,1.6253],[-86.7897,21.4651,0.0],[-86.7876,21.461,0.592],[-86.7856,21.4605,0.0],[-86.7924,21.4942,0.327],[-86.7969,21.5086,0.8533]]]]}}