{"type":"Feature","properties":{"GID_2":"MEX.5.2_2","GID_0":"MEX","country":"México","GID_1":"MEX.5_1","province":"Chiapas","NL_NAME_1":"NA","county":"Acala","VARNAME_2":"NA","NL_NAME_2":"NA","TYPE_2":"Município","ENGTYPE_2":"Municipality","CC_2":"NA","HASC_2":"NA","name":"Acala.county"},
"geometry":{"type": "MultiPolygon","coordinates": [[[[-92.7352,16.586,493.8588],[-92.7384,16.5908,511.6818],[-92.7377,16.5978,594.4208],[-92.7269,16.5955,476.6214],[-92.729,16.5976,469.8138],[-92.7278,16.5995,472.2322],[-92.7331,16.6015,498.0665],[-92.7346,16.6049,487.7238],[-92.736,16.6046,507.7762],[-92.7406,16.6094,533.6714],[-92.743,16.6093,551.2974],[-92.7487,16.6137,638.3932],[-92.749,16.6075,633.111],[-92.7476,16.6046,617.3062],[-92.7497,16.6021,545.9475],[-92.7514,16.6024,545.9475],[-92.7496,16.5993,543.2316],[-92.7503,16.5976,550.0427],[-92.7482,16.5958,522.6023],[-92.7489,16.5927,511.7104],[-92.7557,16.5894,593.4751],[-92.7593,16.5913,585.2834],[-92.7592,16.5938,605.4043],[-92.7634,16.6008,633.3695],[-92.7655,16.6122,620.9617],[-92.7699,16.6163,649.5624],[-92.7679,16.6192,657.5887],[-92.7709,16.6234,663.7314],[-92.7728,16.6317,681.0925],[-92.7752,16.6349,695.0779],[-92.7823,16.6388,749.986],[-92.7875,16.6449,796.2395],[-92.7841,16.6549,1145.8765],[-92.7988,16.6613,1139.2125],[-92.8087,16.6617,1047.9503],[-92.8258,16.6726,1149.8304],[-92.8309,16.6652,1004.0939],[-92.833,16.6672,979.2103],[-92.8434,16.6591,886.1388],[-92.8457,16.6515,877.8702],[-92.9067,16.6483,502.9449],[-92.9199,16.6417,417.59],[-92.9222,16.6353,406.9269],[-92.9312,16.6276,429.4968],[-92.9326,16.6231,492.093],[-92.9315,16.6199,503.9286],[-92.9506,16.5916,473.7884],[-92.9555,16.5808,568.7946],[-92.9543,16.5794,555.9024],[-92.9582,16.5729,658.59],[-92.9569,16.5564,739.0618],[-92.9523,16.5601,683.3279],[-92.9513,16.5519,678.1835],[-92.947,16.545,669.5468],[-92.9505,16.5389,745.691],[-92.943,16.5322,732.2394],[-92.947,16.5256,769.0397],[-92.9487,16.5257,778.5225],[-92.948,16.5189,748.1833],[-92.9457,16.5166,741.4983],[-92.9455,16.5137,734.4683],[-92.9407,16.5103,727.8003],[-92.9368,16.5041,721.4012],[-92.9472,16.4995,776.8549],[-92.9458,16.4953,770.2604],[-92.9475,16.4947,738.4109],[-92.9416,16.4833,797.8335],[-92.9342,16.4862,727.3123],[-92.9299,16.4778,706.1959],[-92.9152,16.4862,668.8094],[-92.905,16.4691,639.1459],[-92.9005,16.4717,641.6317],[-92.9052,16.4766,642.7145],[-92.8991,16.4811,595.7526],[-92.8946,16.4754,604.835],[-92.8827,16.4816,502.2346],[-92.8792,16.476,492.988],[-92.8775,16.4771,492.13],[-92.8748,16.4755,493.2176],[-92.8742,16.4728,505.3824],[-92.8726,16.4722,502.7841],[-92.8703,16.474,491.1448],[-92.8698,16.4722,492.9274],[-92.8652,16.4698,498.6],[-92.8678,16.4672,511.6507],[-92.8688,16.4624,536.1469],[-92.8669,16.4567,587.7837],[-92.8619,16.4531,594.3838],[-92.852,16.4594,541.149],[-92.8417,16.4278,661.0532],[-92.8455,16.4224,674.6089],[-92.8492,16.4215,718.5657],[-92.8486,16.4202,711.158],[-92.8526,16.4173,689.6143],[-92.8556,16.4246,693.3076],[-92.8586,16.4231,691.4988],[-92.8646,16.4275,701.9894],[-92.8674,16.4323,719.752],[-92.8701,16.4303,709.9678],[-92.8754,16.4428,698.2562],[-92.886,16.436,689.3611],[-92.8883,16.4385,673.4631],[-92.8923,16.4338,746.5642],[-92.8822,16.4129,765.3321],[-92.8784,16.4103,746.7601],[-92.8743,16.4099,713.6431],[-92.8666,16.4132,687.3394],[-92.8611,16.4117,678.7714],[-92.854,16.4124,677.4081],[-92.8398,16.4181,683.9742],[-92.8377,16.4215,694.8557],[-92.8382,16.4242,709.6584],[-92.8339,16.4277,689.8958],[-92.8327,16.4259,697.2296],[-92.8313,16.4265,695.3276],[-92.8288,16.4294,678.2972],[-92.819,16.4229,682.1562],[-92.8228,16.4169,691.9788],[-92.836,16.4071,715.709],[-92.8361,16.4031,712.2495],[-92.8323,16.3999,695.1895],[-92.8299,16.4002,698.6217],[-92.8296,16.395,674.1334],[-92.8267,16.3923,656.2224],[-92.8229,16.3906,652.019],[-92.8145,16.3903,621.4829],[-92.8121,16.3866,618.7717],[-92.8061,16.3835,518.0],[-92.8035,16.3866,555.1803],[-92.7979,16.3841,518.0],[-92.7971,16.3886,518.0],[-92.7914,16.3922,538.1371],[-92.7912,16.3944,611.0211],[-92.7816,16.395,551.0195],[-92.7718,16.4094,508.6669],[-92.7655,16.41,432.5063],[-92.7475,16.4228,417.0168],[-92.7454,16.4263,453.7358],[-92.7517,16.4331,414.5712],[-92.757,16.4356,413.5414],[-92.7606,16.4456,410.9445],[-92.7645,16.4505,409.5],[-92.7645,16.4537,410.3738],[-92.7605,16.4555,424.2648],[-92.7515,16.4521,409.8007],[-92.7489,16.4553,413.9575],[-92.7514,16.4568,410.2549],[-92.7522,16.4595,412.0769],[-92.7472,16.4674,413.3777],[-92.7436,16.479,408.0475],[-92.7323,16.4762,413.7401],[-92.7289,16.4787,411.9428],[-92.7305,16.4851,421.3203],[-92.7356,16.4893,407.2325],[-92.7545,16.4952,406.8295],[-92.7559,16.4989,410.1407],[-92.7519,16.5043,413.8071],[-92.7517,16.5073,405.5228],[-92.7562,16.5117,403.0],[-92.7628,16.5135,405.8065],[-92.7663,16.5166,438.504],[-92.7646,16.521,418.3119],[-92.7516,16.5241,405.0621],[-92.7454,16.5289,401.6193],[-92.7446,16.5338,402.7267],[-92.7465,16.5393,401.9184],[-92.7545,16.5412,423.6757],[-92.7592,16.5384,402.5757],[-92.764,16.5289,399.6453],[-92.7663,16.5281,399.6705],[-92.7809,16.5307,398.6288],[-92.7836,16.5331,399.5252],[-92.7845,16.5371,400.1812],[-92.784,16.5416,397.5],[-92.7777,16.5463,397.6652],[-92.7758,16.5502,401.1376],[-92.7762,16.5534,410.8118],[-92.7699,16.5589,426.634],[-92.7689,16.5616,444.7253],[-92.7669,16.5577,434.3192],[-92.7601,16.5595,440.1532],[-92.7592,16.555,429.866],[-92.7508,16.5575,491.0472],[-92.745,16.5653,470.4826],[-92.7485,16.5683,460.8166],[-92.7453,16.5757,470.2161],[-92.746,16.5788,473.9328],[-92.7441,16.58,479.7227],[-92.7439,16.5896,548.0803],[-92.7352,16.586,493.8588]]]]}}