{"type": "Feature","id": "2710","bbox": [-107.12627,22.3191,-102.49025,26.83859],"geometry": {"type": "Polygon","coordinates": [[[-105.7561,26.69129,1974.9612],[-105.78294,26.69243,2061.0088],[-105.8085,26.69325,2477.1904],[-105.84937,26.71457,2613.145],[-105.88927,26.74142,2792.8306],[-105.92831,26.77028,2252.9429],[-105.96632,26.79759,2386.5249],[-105.98177,26.80764,2375.4688],[-105.99717,26.81774,2330.9048],[-106.01249,26.82803,2194.3213],[-106.02753,26.83859,2119.0591],[-106.0336,26.83164,2151.9602],[-106.03967,26.82459,2163.4604],[-106.04546,26.81736,2158.0901],[-106.05058,26.80958,2163.52],[-106.06055,26.79074,2258.0452],[-106.07145,26.77237,2188.7302],[-106.08228,26.75395,2223.4827],[-106.09199,26.73493,2237.2739],[-106.10269,26.74801,2179.8672],[-106.11463,26.76095,2068.6365],[-106.12856,26.76772,2131.0649],[-106.1452,26.76227,2063.1272],[-106.15788,26.74206,1928.9484],[-106.16129,26.71382,1868.0625],[-106.16062,26.68388,1871.8796],[-106.16098,26.65855,1865.5474],[-106.16196,26.64775,1873.0131],[-106.16331,26.63367,1872.0947],[-106.16571,26.62052,1850.9847],[-106.16979,26.61261,1973.8159],[-106.18558,26.60225,2313.7212],[-106.20553,26.58887,2171.5088],[-106.22131,26.57417,2190.436],[-106.22483,26.55967,2048.7759],[-106.21692,26.53952,2114.1826],[-106.20917,26.51936,2227.9043],[-106.20168,26.49916,2286.4287],[-106.19473,26.47867,2390.7708],[-106.19101,26.45818,2358.9915],[-106.19571,26.44534,2190.9041],[-106.20801,26.43681,2171.1812],[-106.22723,26.42924,2157.6123],[-106.27079,26.41717,2508.1147],[-106.31436,26.40511,2827.7109],[-106.3579,26.39309,2752.0957],[-106.40151,26.38103,2673.2537],[-106.43215,26.36178,2831.4707],[-106.43735,26.33354,2710.7969],[-106.4273,26.30134,2742.3872],[-106.41244,26.27031,2859.27],[-106.39642,26.23749,2923.2698],[-106.38149,26.20308,2857.1794],[-106.3735,26.16758,2871.3079],[-106.37831,26.13151,2898.3801],[-106.38466,26.1113,2832.9304],[-106.39117,26.08936,2706.3115],[-106.39931,26.06831,2766.6707],[-106.41042,26.05074,2938.5479],[-106.4265,26.03911,2928.1741],[-106.44339,26.03673,2714.5884],[-106.46117,26.0381,2816.9165],[-106.47988,26.03764,2646.729],[-106.5121,26.02167,2588.1045],[-106.52486,25.99278,2398.5964],[-106.5268,25.95656,2559.1987],[-106.5268,25.91873,2385.4902],[-106.52827,25.89144,2323.0945],[-106.52967,25.86413,2312.0183],[-106.53114,25.83682,2538.479],[-106.53259,25.80948,2449.9998],[-106.53623,25.79202,2306.4827],[-106.5445,25.77993,2233.4331],[-106.55675,25.76972,1895.2469],[-106.57235,25.75789,2525.5522],[-106.57677,25.75416,2510.0981],[-106.58119,25.75047,2301.0195],[-106.58561,25.7468,2285.7275],[-106.59003,25.74308,2329.8777],[-106.60886,25.72799,2357.7148],[-106.62762,25.71293,2362.0042],[-106.64643,25.69784,2416.981],[-106.66522,25.68275,2155.0151],[-106.68209,25.66753,2225.6206],[-106.70105,25.64965,1683.9518],[-106.7209,25.63322,1404.0812],[-106.74035,25.62247,1623.592],[-106.75924,25.6203,2021.2332],[-106.78187,25.62278,2083.0459],[-106.80446,25.62704,2137.2498],[-106.8235,25.63019,2226.9148],[-106.8519,25.63306,2266.7307],[-106.88021,25.63585,2485.3831],[-106.90856,25.63875,2518.6079],[-106.93693,25.64159,2608.5122],[-106.95334,25.62603,2787.1599],[-106.97021,25.61001,2666.6838],[-106.98532,25.59275,2450.2671],[-106.99651,25.5735,2491.8582],[-107.00923,25.55216,2431.9268],[-107.02576,25.53526,2395.936],[-107.04403,25.51942,1767.8679],[-107.06199,25.50149,1795.567],[-107.08271,25.46527,1131.8993],[-107.09612,25.42031,1492.3169],[-107.1047,25.37326,906.7891],[-107.11085,25.33081,609.8876],[-107.11875,25.28505,588.6567],[-107.12568,25.2374,661.225],[-107.12627,25.18991,1668.1729],[-107.11534,25.14454,876.9878],[-107.1003,25.10276,683.0186],[-107.0877,25.05961,661.1362],[-107.07416,25.01697,387.5285],[-107.05648,24.97687,446.934],[-107.05062,24.95946,393.7395],[-107.04424,24.93907,288.2739],[-107.03638,24.91969,239.9434],[-107.02599,24.9051,201.8785],[-107.0116,24.89667,219.8004],[-106.99473,24.89176,200.5419],[-106.97765,24.88696,217.4815],[-106.96254,24.87879,192.2687],[-106.95422,24.86678,365.7901],[-106.95267,24.85378,446.7977],[-106.95329,24.84003,423.8621],[-106.95148,24.82595,343.5677],[-106.94347,24.80944,318.1244],[-106.93236,24.79955,429.8543],[-106.91784,24.79438,442.4022],[-106.89939,24.7919,581.9271],[-106.88347,24.7919,769.6205],[-106.86848,24.79221,862.4374],[-106.85461,24.78918,638.594],[-106.84203,24.77911,721.3516],[-106.83079,24.76162,523.5779],[-106.82182,24.74531,422.0508],[-106.81012,24.732,380.9684],[-106.79079,24.72332,400.981],[-106.75637,24.70353,334.0889],[-106.73717,24.67087,380.3188],[-106.72198,24.63359,220.7199],[-106.69955,24.59995,364.5743],[-106.68596,24.58796,477.0339],[-106.67436,24.57796,457.2337],[-106.66444,24.56612,523.5469],[-106.65591,24.54855,582.9697],[-106.65062,24.53592,494.7998],[-106.64465,24.52377,472.0432],[-106.63816,24.51181,502.7932],[-106.63147,24.49995,711.0251],[-106.62183,24.48194,637.3094],[-106.6153,24.46608,560.8237],[-106.61137,24.44928,628.3625],[-106.60966,24.42856,620.4342],[-106.6099,24.41197,784.7416],[-106.60969,24.39613,365.1584],[-106.6061,24.38143,551.0212],[-106.59594,24.36805,462.7823],[-106.57868,24.35236,497.5893],[-106.56137,24.3364,415.363],[-106.54372,24.32079,364.1763],[-106.52533,24.30648,727.4311],[-106.50639,24.29379,961.2654],[-106.49174,24.28733,1215.4197],[-106.47621,24.28565,1355.0995],[-106.45469,24.28743,1337.8308],[-106.43792,24.2881,1911.979],[-106.42104,24.28798,1567.4248],[-106.40461,24.2896,1239.0676],[-106.38908,24.29555,1044.3103],[-106.37601,24.30679,1182.1849],[-106.36508,24.32118,1550.7837],[-106.35456,24.33619,1799.724],[-106.34273,24.34932,1645.2979],[-106.30924,24.3744,1797.2003],[-106.274,24.39094,2310.7617],[-106.23633,24.39681,2500.1741],[-106.19558,24.38978,2696.658],[-106.18403,24.38515,2793.1113],[-106.17307,24.37929,2611.302],[-106.16261,24.37262,2694.4941],[-106.15253,24.36526,2727.2505],[-106.12778,24.34474,2222.7998],[-106.10295,24.32428,1793.5779],[-106.07814,24.30381,2044.1858],[-106.05334,24.28327,2193.2217],[-106.03502,24.26095,2799.9485],[-106.02086,24.23188,2536.8303],[-106.00923,24.20131,1780.3191],[-105.99867,24.17431,1185.8887],[-105.98735,24.14822,1304.6392],[-105.97614,24.12233,1116.7048],[-105.96358,24.09719,1164.7639],[-105.94836,24.07326,874.4776],[-105.9297,24.05618,1462.7433],[-105.90937,24.05153,1606.4119],[-105.88686,24.05553,1411.8794],[-105.86188,24.06445,1590.599],[-105.87175,24.03101,1333.4358],[-105.88653,24.00099,1340.5942],[-105.90255,23.97159,1596.0154],[-105.91611,23.94017,1527.0103],[-105.92229,23.90195,1406.1775],[-105.9197,23.86128,1541.5343],[-105.91294,23.82051,652.087],[-105.90668,23.78201,795.5153],[-105.90433,23.76491,469.0552],[-105.90203,23.74775,838.8488],[-105.89968,23.73064,1188.8545],[-105.89735,23.71354,1046.9015],[-105.89211,23.69685,1799.6836],[-105.88229,23.68096,1407.0688],[-105.87167,23.6646,1710.5608],[-105.86405,23.64677,1746.4832],[-105.85932,23.62497,1937.5583],[-105.8532,23.60143,2179.428],[-105.84304,23.58052,2159.5605],[-105.82604,23.56657,1878.8849],[-105.8117,23.56022,1776.8846],[-105.79664,23.55582,1603.099],[-105.78121,23.55293,1266.9602],[-105.76561,23.55107,885.985],[-105.75995,23.52818,728.2849],[-105.74357,23.50756,1051.0176],[-105.72566,23.48699,745.8691],[-105.71532,23.46415,961.0828],[-105.71731,23.45474,976.5397],[-105.72199,23.44617,817.7737],[-105.72333,23.43821,656.2023],[-105.71532,23.43066,660.1105],[-105.70711,23.42333,458.1099],[-105.7044,23.41371,451.5425],[-105.70564,23.40296,490.3408],[-105.70933,23.39232,549.2346],[-105.71339,23.37754,514.6596],[-105.7085,23.36627,568.7193],[-105.69962,23.35584,657.2009],[-105.69148,23.34359,437.751],[-105.68848,23.33139,623.2682],[-105.68876,23.31966,461.8676],[-105.68946,23.30829,283.5915],[-105.68783,23.29723,360.5615],[-105.67794,23.28235,366.3538],[-105.66334,23.27305,623.8545],[-105.64747,23.26478,253.6708],[-105.63391,23.25326,554.9203],[-105.62952,23.24494,308.2241],[-105.62644,23.23605,256.1407],[-105.62207,23.22757,496.4278],[-105.61394,23.22096,1059.0051],[-105.59905,23.21021,825.0472],[-105.58215,23.19424,795.8228],[-105.5652,23.17714,571.6754],[-105.55012,23.16298,898.5051],[-105.51544,23.14603,1276.4478],[-105.47539,23.14262,1442.4747],[-105.43327,23.14603,1453.442],[-105.39235,23.14975,1500.7117],[-105.39142,23.1206,1836.9164],[-105.39049,23.09151,1410.7815],[-105.38956,23.06247,1485.9048],[-105.38863,23.03332,1650.1459],[-105.33698,23.03472,1284.4042],[-105.28313,23.0372,1183.6183],[-105.22959,23.03741,1092.5061],[-105.17882,23.03162,694.7002],[-105.13148,23.01704,558.8666],[-105.08296,22.99524,1413.4504],[-105.03531,22.97105,1386.9524],[-104.99072,22.9493,1104.183],[-104.96989,22.93829,1606.9417],[-104.95591,22.92847,1204.5853],[-104.94548,22.9156,1423.1741],[-104.93527,22.8955,1019.8892],[-104.92356,22.86915,1088.0765],[-104.91191,22.8429,661.4661],[-104.90028,22.81659,810.3449],[-104.88858,22.79029,808.0529],[-104.89729,22.77799,664.1807],[-104.91992,22.75685,707.2787],[-104.94444,22.73572,783.8121],[-104.95878,22.72352,753.0057],[-104.97751,22.70575,761.3627],[-104.98857,22.69164,1205.3906],[-104.99421,22.67505,1338.9441],[-104.99661,22.64952,1490.1409],[-104.99901,22.62549,1389.4468],[-105.00219,22.5934,1733.2252],[-105.00255,22.56291,1240.9557],[-104.99666,22.54348,1181.5228],[-104.97072,22.54173,793.1897],[-104.94237,22.55625,1131.1963],[-104.91558,22.57697,789.5421],[-104.89424,22.59397,657.2388],[-104.86424,22.61454,1422.9095],[-104.83427,22.63505,1234.4802],[-104.80432,22.65567,1597.552],[-104.77435,22.67624,1877.072],[-104.75373,22.67397,2254.6421],[-104.72146,22.65841,2253.8857],[-104.68903,22.63908,2167.8435],[-104.66792,22.62565,2041.432],[-104.65916,22.6166,1969.5021],[-104.65363,22.60451,1978.0221],[-104.64996,22.59113,1998.9054],[-104.64673,22.57831,1530.3041],[-104.63813,22.54374,1527.2561],[-104.62898,22.51051,1682.1147],[-104.61384,22.48147,1385.6168],[-104.58743,22.45956,1228.6968],[-104.56227,22.44452,1022.8716],[-104.53348,22.42742,846.7762],[-104.50413,22.41558,537.222],[-104.47716,22.41677,625.6863],[-104.44153,22.43124,792.4926],[-104.40587,22.44581,937.7557],[-104.37026,22.46039,1727.4612],[-104.33463,22.47486,1873.1722],[-104.32903,22.43589,2346.7695],[-104.32342,22.39677,2286.7925],[-104.31761,22.35776,1695.2958],[-104.31143,22.3191,1938.4193],[-104.29577,22.37026,1904.0129],[-104.28006,22.42132,2289.335],[-104.2643,22.47248,2359.6394],[-104.24864,22.52359,2122.5376],[-104.23526,22.56234,2231.646],[-104.22071,22.6027,2501.7312],[-104.2088,22.64368,1891.0762],[-104.20338,22.68404,2200.5405],[-104.20084,22.79251,2047.9983],[-104.198,22.90098,1950.478],[-104.19428,23.0094,2790.8101],[-104.18906,23.11771,2650.6479],[-104.1842,23.14169,2169.1323],[-104.17718,23.15507,1952.2472],[-104.16462,23.16365,1809.8264],[-104.14304,23.17331,2149.313],[-104.13428,23.18675,2355.3794],[-104.12969,23.21083,2359.6062],[-104.12762,23.23688,2608.8608],[-104.12607,23.25589,2575.0913],[-104.1224,23.29434,2524.8203],[-104.11883,23.33279,2682.0518],[-104.11522,23.37124,2564.7886],[-104.11165,23.40963,2349.2959],[-104.10899,23.43531,2318.2876],[-104.10364,23.4504,2217.9287],[-104.09214,23.46141,2398.6604],[-104.07114,23.47479,2577.7129],[-104.04096,23.49288,2435.0132],[-104.01034,23.51097,2259.2966],[-103.98047,23.53004,2147.3186],[-103.95249,23.55122,2094.7532],[-103.94096,23.56709,2050.0312],[-103.93639,23.58574,2043.4084],[-103.93474,23.60554,2014.5984],[-103.93192,23.62481,1973.2932],[-103.91792,23.65305,2009.6981],[-103.8974,23.66427,2056.1343],[-103.8742,23.6584,2117.1855],[-103.85234,23.63541,2159.4556],[-103.83337,23.62998,2195.4011],[-103.81924,23.64631,2352.1357],[-103.8104,23.67129,2626.1069],[-103.80725,23.69197,2570.9243],[-103.81844,23.71705,2319.2915],[-103.84337,23.73346,2237.0476],[-103.86823,23.74933,2109.9199],[-103.87895,23.77307,2093.071],[-103.87218,23.78713,2155.7839],[-103.86296,23.79999,2202.887],[-103.8543,23.81307,2338.7544],[-103.84919,23.82774,2503.9028],[-103.85141,23.85074,2518.5181],[-103.86293,23.86963,2526.9287],[-103.87936,23.88593,2351.9651],[-103.89655,23.90105,2218.5679],[-103.9045,23.92477,2301.7661],[-103.87342,23.93353,2275.6926],[-103.83942,23.94513,2164.4824],[-103.83844,23.9773,2149.7954],[-103.84417,24.00339,2230.7395],[-103.84107,24.02815,2297.3892],[-103.83867,24.05075,2420.8311],[-103.84676,24.0707,2460.2207],[-103.83593,24.08504,2373.5112],[-103.79929,24.1039,2589.7214],[-103.75767,24.1214,2397.8396],[-103.73188,24.13165,2294.6882],[-103.72467,24.13444,2343.2061],[-103.71749,24.13724,2333.7905],[-103.71028,24.14003,2317.1523],[-103.7031,24.14284,2320.752],[-103.67044,24.16176,2212.6494],[-103.65023,24.18382,2164.3127],[-103.63349,24.20969,2116.7261],[-103.61142,24.24002,2101.7705],[-103.60313,24.25348,2083.3223],[-103.5977,24.26663,2072.9192],[-103.5906,24.27854,2049.2229],[-103.57732,24.28852,2034.6799],[-103.56065,24.29211,2065.9058],[-103.54187,24.2933,2010.4816],[-103.52662,24.29792,2015.6678],[-103.52034,24.31193,2047.7944],[-103.52251,24.32787,2042.5532],[-103.5161,24.34056,2012.3198],[-103.50373,24.34885,1982.9725],[-103.48794,24.35151,1964.9032],[-103.4705,24.35066,1943.8105],[-103.44949,24.35004,1920.3638],[-103.42911,24.35234,1905.5051],[-103.41319,24.3603,1909.6506],[-103.40505,24.37469,1915.1722],[-103.40335,24.39159,1898.4961],[-103.40265,24.40913,1879.0337],[-103.39769,24.42546,1843.2948],[-103.37056,24.44928,1825.2751],[-103.32777,24.46892,1856.8285],[-103.28214,24.48318,2137.2422],[-103.24661,24.49109,1962.3735],[-103.15791,24.47411,1983.4911],[-103.06913,24.45711,1811.9358],[-102.98043,24.44008,1804.4656],[-102.89162,24.42308,1653.0002],[-102.84496,24.41564,1741.3145],[-102.80088,24.40998,1680.595],[-102.75713,24.40931,1686.7324],[-102.7115,24.41686,1701.1322],[-102.66667,24.42887,1773.4286],[-102.62153,24.4399,1791.7021],[-102.57588,24.44828,1786.1458],[-102.52963,24.45236,1796.0887],[-102.50467,24.45461,1754.181],[-102.49325,24.46045,1745.8606],[-102.49025,24.47419,1757.515],[-102.49046,24.49995,1829.5922],[-102.49046,24.51698,1701.3813],[-102.49056,24.53395,1687.0258],[-102.49061,24.55101,1634.828],[-102.49066,24.56798,1607.8657],[-102.49097,24.63199,1570.8252],[-102.49118,24.69601,1569.2249],[-102.49149,24.76001,1579.1705],[-102.4917,24.82401,1640.4673],[-102.50281,24.86143,1773.4355],[-102.52911,24.89827,1585.5198],[-102.56105,24.93277,1519.9812],[-102.58869,24.96302,1450.8223],[-102.61045,24.99057,1405.0273],[-102.63148,25.01899,1404.0312],[-102.65091,25.04839,1417.176],[-102.66817,25.07893,1476.7927],[-102.69047,25.05273,1505.2531],[-102.71274,25.02664,1441.4418],[-102.73504,25.00046,1432.8516],[-102.75731,24.97426,1513.1329],[-102.77264,24.95339,1552.2986],[-102.79297,24.92636,1629.7791],[-102.81579,24.90437,1599.8104],[-102.83855,24.89866,1625.204],[-102.83971,24.85605,1544.6279],[-102.84085,24.8135,1534.0151],[-102.84196,24.77087,1707.4926],[-102.8431,24.72828,1482.3495],[-102.86416,24.74456,1481.8907],[-102.88645,24.76084,1471.427],[-102.90955,24.77572,1464.0491],[-102.93286,24.78787,1457.3508],[-102.97187,24.80665,1446.5017],[-103.01311,24.81949,1543.1458],[-103.05551,24.82905,1479.8828],[-103.09784,24.83812,1438.1677],[-103.13954,24.84784,1421.7566],[-103.18561,24.86321,1377.7742],[-103.22617,24.88722,1354.7073],[-103.25147,24.92298,1349.0189],[-103.25734,24.96189,1352.0348],[-103.25677,25.00251,1328.4484],[-103.25956,25.04072,1391.1055],[-103.27532,25.07214,1300.2908],[-103.30899,25.09614,1295.9863],[-103.3502,25.11707,1269.4219],[-103.38797,25.14061,1251.5535],[-103.41141,25.17247,1293.4163],[-103.42169,25.19593,1236.215],[-103.43523,25.21567,1245.0562],[-103.452,25.23283,1285.0542],[-103.47192,25.24856,1216.5453],[-103.48613,25.25843,1213.364],[-103.49799,25.26828,1210.9073],[-103.50616,25.28055,1207.6123],[-103.50921,25.29781,1228.3644],[-103.50458,25.326,1402.3054],[-103.4945,25.35238,1203.3049],[-103.47985,25.37726,1185.7964],[-103.46146,25.4008,1182.9492],[-103.45278,25.40597,1179.8699],[-103.44167,25.40848,1177.3156],[-103.43105,25.41127,1173.7317],[-103.42384,25.41747,1171.8712],[-103.42487,25.42749,1171.8606],[-103.43353,25.43863,1173.2262],[-103.44492,25.44899,1174.1292],[-103.45402,25.45669,1181.1912],[-103.47029,25.471,1248.8021],[-103.48357,25.48529,1328.9191],[-103.49156,25.50232,1182.8647],[-103.49179,25.52485,1132.5815],[-103.48779,25.54095,1131.9059],[-103.47712,25.55185,1131.0444],[-103.46332,25.56058,1129.4883],[-103.44996,25.57033,1117.9199],[-103.4405,25.57906,1124.2485],[-103.42913,25.58374,1124.3912],[-103.41815,25.58779,1127.2275],[-103.40988,25.59441,1126.507],[-103.40149,25.60547,1124.8711],[-103.39309,25.61459,1122.5543],[-103.38451,25.62316,1121.3601],[-103.37521,25.6327,1121.0336],[-103.3649,25.64838,1117.3052],[-103.35901,25.66277,1116.3191],[-103.35059,25.67484,1116.1074],[-103.33271,25.68352,1113.4812],[-103.32017,25.69872,1114.8763],[-103.31731,25.72732,1111.9368],[-103.31948,25.75879,1110.3262],[-103.32188,25.78266,1107.9852],[-103.32219,25.78791,1107.8641],[-103.3225,25.79315,1108.8612],[-103.32284,25.79835,1108.4266],[-103.3232,25.80362,1106.5686],[-103.32524,25.83279,1103.7019],[-103.32787,25.86157,1101.3511],[-103.33126,25.89028,1100.3625],[-103.33573,25.91919,1098.7979],[-103.34172,25.96942,1094.8958],[-103.34741,26.02164,1093.0586],[-103.34953,26.07373,1092.5083],[-103.34534,26.12386,1097.2292],[-103.32893,26.17238,1269.8064],[-103.30439,26.21708,1514.1755],[-103.28134,26.2624,1663.817],[-103.26958,26.31289,1742.1331],[-103.2849,26.36369,1427.692],[-103.3257,26.40867,1221.9048],[-103.3758,26.44748,1119.1342],[-103.41898,26.47955,1094.5634],[-103.45828,26.51156,1122.259],[-103.49807,26.54288,1232.9728],[-103.53814,26.57393,1285.1073],[-103.57819,26.60494,1206.4333],[-103.59044,26.61468,1190.4406],[-103.60274,26.6244,1221.2336],[-103.61499,26.63419,1202.4275],[-103.62726,26.64393,1199.3889],[-103.70581,26.67305,1162.0115],[-103.78436,26.70214,1128.8636],[-103.86296,26.73129,1105.1324],[-103.94153,26.76041,1105.1498],[-103.96696,26.76927,1115.7802],[-103.9884,26.7747,1131.1825],[-104.01036,26.77687,1159.792],[-104.03721,26.77609,1187.8993],[-104.07555,26.7747,1192.6624],[-104.11558,26.77309,1219.3173],[-104.15495,26.76772,1221.9847],[-104.19115,26.7549,1212.377],[-104.23459,26.72323,1208.6689],[-104.27169,26.68178,1208.87],[-104.30538,26.63605,1214.7622],[-104.33887,26.59166,1237.2716],[-104.38404,26.53657,1291.0588],[-104.42925,26.48156,1361.6782],[-104.4745,26.42653,1425.624],[-104.51979,26.37154,1384.9611],[-104.55705,26.34051,1425.7693],[-104.59777,26.351,1487.1205],[-104.63759,26.38172,1439.0801],[-104.67211,26.41151,1456.7806],[-104.7234,26.44441,1490.1006],[-104.77678,26.4695,1511.7505],[-104.83334,26.48678,1546.2468],[-104.89403,26.49624,1620.2659],[-104.91682,26.49962,1594.5786],[-104.94142,26.5036,1614.7197],[-104.96581,26.50575,1640.5806],[-104.98803,26.50358,1676.8763],[-105.00172,26.49128,1694.9335],[-105.01348,26.47187,1719.1201],[-105.02637,26.45947,1716.1632],[-105.04351,26.46823,1730.9854],[-105.05748,26.48603,1719.0107],[-105.08058,26.51526,1712.8611],[-105.10348,26.54202,1662.8175],[-105.11683,26.55241,1670.2471],[-105.14492,26.53967,1694.8268],[-105.17303,26.52704,1757.3339],[-105.20117,26.51435,1772.9652],[-105.22933,26.50166,1805.7465],[-105.24951,26.49104,1832.0829],[-105.27918,26.47526,1750.1963],[-105.30842,26.46211,1698.3573],[-105.32747,26.45947,1718.8477],[-105.35625,26.47378,1692.7841],[-105.38501,26.48802,1832.5896],[-105.41384,26.50228,1984.2983],[-105.44252,26.51652,2069.9592],[-105.4709,26.5306,1838.2692],[-105.49927,26.54468,1791.7041],[-105.52758,26.55874,1820.2544],[-105.55593,26.57282,1843.2847],[-105.57823,26.58659,1852.9099],[-105.59755,26.60318,1888.6814],[-105.61543,26.62166,1862.8777],[-105.6336,26.64116,1902.234],[-105.65016,26.66359,2026.9919],[-105.66396,26.68519,2095.0852],[-105.68042,26.69894,1882.9474],[-105.70478,26.6977,2158.3633],[-105.72954,26.69222,2249.0938],[-105.7561,26.69129,1974.9612]]]}
,"properties": {"ISO3166-1-Alpha-3": "MEX","country": "Mexico","fill": "#00F","name": "Durango","area_km2": 121279.78,"hist_schema_id": "Elevation0-9000","hist_area_km2": {"175": 1.81,"200": 7.79,"225": 19.75,"250": 28.24,"275": 37.43,"300": 46.07,"325": 55.11,"350": 62.08,"375": 73.02,"400": 84.52,"425": 99.27,"450": 113.65,"475": 124.57,"500": 137.24,"525": 155.36,"550": 166.97,"575": 182.17,"600": 188.93,"625": 195.2,"650": 199.23,"675": 203.62,"700": 206.17,"725": 211.03,"750": 214.07,"775": 219.5,"800": 227.92,"825": 234.07,"850": 242.19,"875": 243.91,"900": 242.17,"925": 248.3,"950": 251.43,"975": 252.03,"1000": 254.61,"1025": 256.51,"1050": 261.99,"1075": 261.1,"1100": 2650.66,"1125": 1772.31,"1150": 1392.28,"1175": 1341.55,"1200": 1298.07,"1225": 1117.15,"1250": 1028.43,"1275": 984.88,"1300": 993.24,"1325": 1006.45,"1350": 1071.27,"1375": 1018.98,"1400": 1014.03,"1425": 1070.21,"1450": 1123.09,"1475": 1191.02,"1500": 1313.11,"1525": 1357.08,"1550": 1451.66,"1575": 1974.03,"1600": 1714.83,"1625": 1674.94,"1650": 1658.28,"1675": 1708.23,"1700": 1823.21,"1725": 1940.64,"1750": 2015.03,"1775": 2115.13,"1800": 2137.24,"1825": 2229.93,"1850": 2616.63,"1875": 3272.92,"1900": 2882.84,"1925": 2975.46,"1950": 3080.82,"1975": 3003.03,"2000": 2548.66,"2025": 2294.85,"2050": 2102.69,"2075": 2016.13,"2100": 1911.8,"2125": 1789.37,"2150": 1672.5,"2175": 1637.62,"2200": 1544.26,"2225": 1494.73,"2250": 1466.43,"2275": 1437.47,"2300": 1440.2,"2325": 1472.4,"2350": 1584.14,"2375": 1651.9,"2400": 1704.71,"2425": 1755.42,"2450": 1800.01,"2475": 1779.57,"2500": 1743.22,"2525": 1700.42,"2550": 1669.38,"2575": 1602.97,"2600": 1491.97,"2625": 1359.9,"2650": 1186.14,"2675": 1052.85,"2700": 927.72,"2725": 806.11,"2750": 671.61,"2775": 563.79,"2800": 472.76,"2825": 406.05,"2850": 336.83,"2875": 280.46,"2900": 230.97,"2925": 183.87,"2950": 138.39,"2975": 99.12,"3000": 72.32,"3025": 53.26,"3050": 38.13,"3075": 27.01,"3100": 13.71,"3125": 7.28,"3150": 4.12,"3175": 3.48,"3200": 1.0}}}