{"type":"Feature","properties":{"featurecla":"River","scalerank":11,"rivernum":22295,"dissolve":"22295River","name":"Pixtla1","name_alt":null,"note":"ID is link back to CEC data","name_full":"Rio Pixtla","min_zoom":6.7,"strokeweig":0.2,"uident":2015401,"min_label":7.7},
"geometry":{"type": "LineString","coordinates": [[-106.82652747304122,23.717718817181535,0.0],[-106.7911677725204,23.740505275514863,23.3029],[-106.77375240793705,23.754502671348206,12.7161],[-106.71369381418705,23.785183009889863,117.2955],[-106.7044978506454,23.797145900514863,80.1473],[-106.6979060537704,23.831895249473206,50.839],[-106.69172115793705,23.842393296348206,83.3517],[-106.67772376210372,23.852362371869035,41.2535],[-106.65160071522872,23.864284572389863,39.3441],[-106.64020748606205,23.875433660931535,43.7508],[-106.6290583975204,23.900254624473206,123.2005],[-106.63206946522872,23.926052150514863,94.8026],[-106.60997473866622,23.943955796348206,71.7379],[-106.62205969960372,23.989935614056535,133.4574],[-106.61949622304122,24.013617254681535,120.2705],[-106.6102595693954,24.018500067181535,116.3457],[-106.59215247304122,24.015407619264863,180.6133],[-106.57380123606205,24.006659246869035,81.6989],[-106.53844153554122,23.961533921348206,149.3363],[-106.53254147043705,23.932725327598206,102.0041],[-106.52037512929122,23.930934963014863,144.2041],[-106.50072180897872,23.956976629681535,184.5918],[-106.49303137929122,23.960720119264863,142.6064],[-106.47443600168705,23.951524155723206,144.0184],[-106.45738684804122,23.953436590619035,188.2757],[-106.43907630116622,23.943386134889863,148.0096],[-106.41148841054122,23.961981512494035,160.602],[-106.38182532460372,23.962673244264863,187.9709],[-106.36652584543705,23.973211981244035,339.8145],[-106.35822506418705,23.986273504681535,204.8622],[-106.33063717356205,23.981634832806535,224.1955],[-106.31261145741622,23.984483140098206,371.58],[-106.29938717356205,23.972357489056535,257.2182],[-106.28107662668705,23.974717515098206,283.1888],[-106.24006100168705,23.990545965619035,353.894],[-106.21068274647872,23.994452215619035,351.5485],[-106.18980872304122,24.003200588014863,500.3755],[-106.1764216787704,24.005479233848206,433.4482],[-106.14679928293705,24.004461981244035,503.9774],[-106.13141842356205,24.012803452598206,617.7101],[-106.11595618397872,24.027451890098206,665.1855],[-106.09190833241622,24.038397528119035,566.4971],[-106.07380123606205,24.048041082806535,437.5211],[-106.0216365225204,24.069118556764863,606.3934],[-106.01227779856205,24.075222072389863,648.7045],[-105.9823298818954,24.087917384889863,1236.7728],[-105.98167884022872,24.088161525514863,1236.7728],[-105.93781490793705,24.113836981244035,860.6906],[-105.91283118397872,24.119940496869035,840.3286],[-105.90367591054122,24.128281968223206,936.2919],[-105.90282141835372,24.129461981244035,863.2524],[-105.90062415272872,24.142604884889863,768.6948],[-105.8810115225204,24.160752671348206,1317.9133],[-105.87791907460372,24.162380275514863,1337.7112],[-105.86156165272872,24.183946030723206,1102.6005],[-105.8443904287704,24.185573634889863,932.4786],[-105.81725012929122,24.202215887494035,972.054],[-105.78868567616622,24.193548895306535,998.1128],[-105.76496334543705,24.193386134889863,1049.507],[-105.74815833241622,24.204413153119035,1338.6394],[-105.72980709543705,24.209824936973206,1647.051],[-105.7130427725204,24.207831121869035,1251.4147]]}}