{"type":"Feature","properties":{"featurecla":"River","scalerank":8,"rivernum":810,"dissolve":"810River","name":"San20","name_alt":null,"note":null,"min_zoom":7.0,"strokeweig":0.2,"name_en":"San Pedro","min_label":8.0},
"geometry":{"type": "LineString","coordinates": [[-104.27744140624999,23.809833074994117,1709.9502],[-104.2804443359375,23.79254791874412,1753.4724],[-104.280517578125,23.783807684369123,1765.932],[-104.27890625,23.775018621869123,1754.8842],[-104.273486328125,23.76581452030662,1779.3025],[-104.256884765625,23.750262762494117,1666.1179],[-104.252001953125,23.74030182499412,1693.4482],[-104.253662109375,23.71552155155662,1704.0419],[-104.26523437499999,23.69245026249412,1771.1726],[-104.298388671875,23.651874090619117,1667.7883],[-104.311572265625,23.640497137494123,1726.6813],[-104.342529296875,23.623895574994123,1662.1261],[-104.3552734375,23.612567449994117,1492.5503],[-104.36289062499999,23.596454168744117,1473.0669],[-104.36943359375,23.53900787968162,1443.325],[-104.375,23.517840887494117,1470.5229],[-104.43540039062499,23.397723699994117,1400.303],[-104.4418212890625,23.375848699994123,1432.4197],[-104.442138671875,23.314813543744123,1799.9447],[-104.4482421875,23.283075262494123,1407.8386],[-104.460009765625,23.25275299686912,1424.8911],[-104.479052734375,23.227557684369117,1320.3926],[-104.5070068359375,23.211200262494117,1206.1086],[-104.5170166015625,23.209735418744117,1172.6251],[-104.5348388671875,23.213006903119123,1372.3453],[-104.54423828125,23.213739324994123,1662.6781],[-104.55302734375,23.21198151249412,1610.6978],[-104.5779296875,23.20294830936912,1697.863],[-104.58701171874999,23.20221588749412,1651.4371],[-104.6136962890625,23.204364324994117,1640.4661],[-104.630615234375,23.201776434369123,1734.9011],[-104.671435546875,23.18195221561912,1067.8718],[-104.73193359375,23.16974518436912,1105.6425],[-104.7521240234375,23.161151434369117,981.1057],[-104.82285156249999,23.10333893436912,839.0488],[-104.850390625,23.09259674686912,908.1496],[-104.8893310546875,23.08795807499412,1293.0872],[-104.90380859375,23.08209869999412,1068.9741],[-104.993896484375,23.02484772343162,927.5518],[-105.0099365234375,23.00324127811912,1093.6844],[-105.016650390625,22.97736237186912,1174.0232],[-105.013427734375,22.94611237186912,1125.9888],[-105.00927734375,22.93390534061912,824.4435],[-104.99838867187499,22.91058991093162,770.5955],[-104.99423828124999,22.89826080936912,768.3905],[-104.99326171874999,22.88300202030662,771.0563],[-104.99448242187499,22.851336981244117,667.049],[-104.9896728515625,22.839471746869123,480.991],[-104.9816162109375,22.834979559369117,605.2557],[-104.96030273437499,22.833124090619123,1078.5251],[-104.951171875,22.831170965619123,1029.9646],[-104.939013671875,22.82440827030662,508.6581],[-104.933349609375,22.81781647343162,770.6531],[-104.92705078125,22.797137762494117,1001.8528],[-104.9064208984375,22.753778387494123,719.2668],[-104.9061767578125,22.73883698124412,464.3431],[-104.91240234375,22.70465729374412,412.2245],[-104.91269531249999,22.67365143436912,439.0936],[-104.89267578124999,22.58698151249412,345.2533],[-104.893115234375,22.56452057499412,613.2353],[-104.898486328125,22.54279205936912,481.7716],[-104.90854492187499,22.52289459843162,746.8909],[-104.92392578124999,22.50495026249412,481.641],[-104.940234375,22.49518463749412,389.1654],[-104.9589111328125,22.49140045780662,632.6973],[-104.98129882812499,22.49115631718162,380.1537],[-104.9990234375,22.48908112186912,288.3253],[-105.0194580078125,22.48236725468162,613.9839],[-105.0375244140625,22.471942449994117,485.7144],[-105.0482666015625,22.458758856244117,520.5972],[-105.050537109375,22.43671295780662,299.5455],[-105.0116455078125,22.284540106244123,240.0992],[-104.94833984374999,22.16608307499412,257.2474]]}}