{"type":"Feature","properties":{"featurecla":"River","scalerank":11,"rivernum":22983,"dissolve":"22983River","name":"Humaya1","name_alt":null,"note":"ID is link back to CEC data","name_full":"Rio Humaya","min_zoom":6.7,"strokeweig":0.2,"uident":2005801,"min_label":7.7},
"geometry":{"type": "LineString","coordinates": [[-106.25121009022872,25.814764715619035,2601.3613],[-106.27061926991622,25.805039780723206,2528.3184],[-106.28758704335372,25.789577541139863,2484.9053],[-106.29478919179122,25.772772528119035,2490.6628],[-106.2984919912704,25.766872463014863,2339.77],[-106.30846106679122,25.767116603639863,2343.2615],[-106.3185115225204,25.763495184369035,2459.2437],[-106.3263240225204,25.742295640098206,2407.0579],[-106.3539119131454,25.723985093223206,2198.1836],[-106.36204993397872,25.723334051556535,2380.4851],[-106.3719783193954,25.738552150514863,2239.083],[-106.3885798818954,25.741156317181535,2436.7004],[-106.47081458241622,25.740790106244035,2244.3784],[-106.49791419179122,25.722845770306535,2173.5896],[-106.5304255850204,25.707871811973206,1466.6561],[-106.54430091054122,25.689032293744035,1711.1135],[-106.58356686106205,25.663519598431535,1588.7905],[-106.6097712881454,25.644558009889863,1415.793],[-106.6217341787704,25.630967515098206,1395.4971],[-106.6400447256454,25.600856838014863,1570.0071],[-106.65827389231205,25.588324285931535,1360.7251],[-106.66535397043705,25.573553778119035,1165.083],[-106.6595759756454,25.558701890098206,1315.095],[-106.65269934804122,25.551621811973206,822.7537],[-106.65265865793705,25.531113999473206,1455.3807],[-106.65534420481205,25.511582749473206,1101.6444],[-106.67100989491622,25.497259832806535,1327.8561],[-106.67650305897872,25.489081121869035,1015.9257],[-106.68797766835372,25.466172593223206,1192.1897],[-106.69237219960372,25.452907619264863,983.1934],[-106.68561764231205,25.424424546348206,1031.1462],[-106.68512936106205,25.407009181764863,959.687],[-106.68952389231205,25.402411199994035,1141.0203],[-106.6974177725204,25.377305405723206,759.2342],[-106.70832272043705,25.374050197389863,785.4003],[-106.74787350168705,25.348415431764863,705.4641],[-106.77765865793705,25.344834702598206,805.8312],[-106.7997126943954,25.351507879681535,678.9485],[-106.8192439443954,25.335964259889863,851.7479],[-106.82941647043705,25.331976629681535,745.8167],[-106.84992428293705,25.327948309369035,847.4255],[-106.8592830068954,25.329128322389863,814.4039],[-106.89622962147872,25.334906317181535,794.4119],[-106.90514075429122,25.331854559369035,1143.1395],[-106.91100012929122,25.330755926556535,1168.098],[-106.9093318350204,25.319199936973206,705.8071],[-106.91510982981205,25.310736395306535,913.3809],[-106.9327693350204,25.304225978639863,1328.1975],[-106.96247311106205,25.299261785931535,517.4923],[-106.9784236318954,25.278753973431535,881.5706],[-107.0138240225204,25.276556707806535,749.3508],[-107.05785071522872,25.280300197389863,293.898],[-107.07396399647872,25.286973374473206,356.9717],[-107.0948787100204,25.301865952598206,334.9908],[-107.13361568918705,25.340521551556535,395.0681],[-107.14216061106205,25.344549871869035,429.0403],[-107.1544490225204,25.346258856244035,638.2495],[-107.16454016835372,25.338649806764863,372.4622],[-107.21727454335372,25.351100978639863,280.8082],[-107.22752844960372,25.357774155723206,380.843],[-107.23546301991622,25.335720119264863,671.4562],[-107.25324459543705,25.316188869264863,443.3271],[-107.27672278554122,25.311590887494035,282.9648],[-107.30968176991622,25.324733791139863,205.7799],[-107.3363337881454,25.333929754681535,271.3066],[-107.3544001943954,25.333197332806535,290.7025],[-107.35944576731205,25.335557358848206,275.4114],[-107.36583411366622,25.333441473431535,183.3029],[-107.36558997304122,25.308132228639863,252.9188],[-107.37116451731205,25.305772202598206,174.401],[-107.3895564443954,25.310817775514863,222.9694],[-107.38434811106205,25.293972072389863,164.6191],[-107.3753962881454,25.278998114056535,158.1497],[-107.37804114491622,25.250799871869035,159.885]]}}