{"type":"Feature","properties":{"featurecla":"River","scalerank":11,"rivernum":22298,"dissolve":"22298River","name":"Santa Clara","name_alt":null,"note":"ID is link back to CEC data","name_full":"Santa Clara","min_zoom":6.7,"strokeweig":0.2,"uident":2014301,"min_label":7.7},
"geometry":{"type": "LineString","coordinates": [[-103.1959529287704,24.869330145306535,1370.6936],[-103.1903376943954,24.808783270306535,1413.0088],[-103.19367428293707,24.779364324994035,1446.5538],[-103.22508704335372,24.744330145306535,1487.5344],[-103.23127193918707,24.731309311973206,1491.1034],[-103.23448645741622,24.705674546348206,1514.1899],[-103.2340388662704,24.694891668744035,1531.6619],[-103.23985755116622,24.680039780723206,1575.2101],[-103.2667537100204,24.664821681764863,1588.2151],[-103.30284583241622,24.643662827598206,1644.1096],[-103.31468665272872,24.621649481244035,1655.0625],[-103.3150935537704,24.620632228639863,1655.0625],[-103.34679114491622,24.523382879681535,1819.5593],[-103.35277259022872,24.508571681764863,1817.3757],[-103.3702693350204,24.481472072389863,1824.7542],[-103.3705134756454,24.449286199994035,1825.2751],[-103.39769446522872,24.425482489056535,1843.2948],[-103.40265865793707,24.409125067181535,1879.0337],[-103.40339107981207,24.391628322389863,1898.4961],[-103.40501868397872,24.374701239056535,1915.1722],[-103.41319739491622,24.360296942181535,1909.6506],[-103.4291072256454,24.352362371869035,1905.5051],[-103.44953365793707,24.350043035931535,1920.3638],[-103.47052975168707,24.350653387494035,1948.9468],[-103.4879451162704,24.351507879681535,1964.9032],[-103.50373287668707,24.348822332806535,1982.9725],[-103.51610266835372,24.340602931764863,2012.3198],[-103.52253170481207,24.327907619264863,2042.5532],[-103.52037512929122,24.311957098431535,2047.7944],[-103.52660071522872,24.297919012494035,2015.6678],[-103.54185950429122,24.293280340619035,2010.4816],[-103.56065833241622,24.292100327598206,2065.9058],[-103.57603919179122,24.288763739056535,2038.2815],[-103.56859290272872,24.245876369264863,2080.1079],[-103.56969153554122,24.229559637494035,2091.4915]]}}