{"type":"Feature","properties":{"featurecla":"River","scalerank":11,"rivernum":22292,"dissolve":"22292River","name":"Baluarte1","name_alt":null,"note":"ID is link back to CEC data","name_full":"Rio Baluarte","min_zoom":6.7,"strokeweig":0.2,"uident":2021501,"min_label":7.7},
"geometry":{"type": "LineString","coordinates": [[-105.26227779856207,23.734971421348206,1947.767],[-105.29320227772872,23.684434311973206,1827.6725],[-105.28795325429122,23.662461655723206,1765.5586],[-105.28831946522872,23.659247137494035,1891.2412],[-105.2938533193954,23.648016668744035,1878.6448],[-105.29332434804122,23.637152410931535,1694.8167],[-105.28376217356207,23.624090887494035,1676.9312],[-105.27277584543707,23.605169989056535,1913.7904],[-105.27936764231207,23.584987697389863,1978.8491],[-105.2792048818954,23.584662176556535,1957.3031],[-105.27228756418707,23.572943426556535,1652.5254],[-105.25519772043707,23.563015041139863,1387.1086],[-105.25316321522872,23.548529364056535,1619.3085],[-105.26130123606207,23.531073309369035,1835.4882],[-105.26378333241622,23.510524806764863,1806.6406],[-105.25767981679122,23.490830796348206,1395.7463],[-105.23713131418707,23.465114650514863,1195.7026],[-105.22288977772872,23.456406968223206,1174.8123],[-105.21495520741622,23.448838608848206,892.9668],[-105.22813880116622,23.419541733848206,1370.6897],[-105.2315974600204,23.388698634889863,1479.8943],[-105.23688717356207,23.376084702598206,1623.8208],[-105.24864661366622,23.360215561973206,1302.0013],[-105.25007076731207,23.344020900514863,973.4564],[-105.25519772043707,23.333685614056535,1424.6549],[-105.28917395741622,23.307155666139863,913.4996],[-105.30256100168707,23.304551499473206,1310.252],[-105.3070369131454,23.293076890098206,1096.365],[-105.31541907460372,23.286566473431535,868.9133],[-105.29576575429122,23.237901108848206,517.9115],[-105.2909236318954,23.196153061973206,723.7795],[-105.27155514231207,23.164496160931535,543.2271],[-105.2665095693954,23.155340887494035,441.8898],[-105.25340735585372,23.131618556764863,411.3367],[-105.2494197256454,23.113796291139863,497.2702],[-105.24693762929122,23.102850653119035,598.8795],[-105.2391658193954,23.095485744264863,412.9034],[-105.22032630116622,23.077663478639863,426.3716],[-105.2189021475204,23.065537827598206,386.397],[-105.21812903554122,23.058376369264863,498.2003],[-105.2123103506454,23.053900457806535,395.4673],[-105.20494544179122,23.048163153119035,381.7382],[-105.20588131418707,23.027614650514863,861.3182],[-105.2315974600204,23.014349676556535,757.3363],[-105.24058997304122,22.997666733848206,391.964],[-105.2528376943954,22.988714910931535,241.8372],[-105.26121985585372,22.986843166139863,326.4927],[-105.25812740793707,22.969061590619035,342.5543],[-105.27000891835372,22.931748765098206,675.5036],[-105.28644772043707,22.909776108848206,534.0693],[-105.28917395741622,22.898057358848206,316.4224],[-105.2965388662704,22.888780015098206,491.8223],[-105.32160397043707,22.871527410931535,347.1083],[-105.32750403554122,22.861680405723206,346.6722],[-105.32282467356207,22.825303452598206,163.9646],[-105.32721920481207,22.814072983848206,160.8781],[-105.32843990793707,22.799912827598206,350.7582],[-105.33600826731205,22.791856186973206,156.8864],[-105.35533606679122,22.791327215619035,104.2632],[-105.34406490793705,22.764186916139863,104.1312],[-105.33861243397872,22.748806056764863,97.4289],[-105.34386145741622,22.733018296348206,101.6394],[-105.34166419179122,22.723903713014863,99.3595],[-105.32892818918707,22.702093817181535,89.9202],[-105.31749426991622,22.647772528119035,54.2745],[-105.34325110585372,22.623358465619035,62.4294],[-105.34935462147872,22.609238999473206,52.8891],[-105.35651607981205,22.574896551556535,58.818],[-105.35627193918705,22.544623114056535,42.1996],[-105.35326087147872,22.537054754681535,46.091],[-105.34532630116622,22.533514715619035,30.9512],[-105.36229407460372,22.502305405723206,26.8583],[-105.3829646475204,22.481227931764863,26.9326],[-105.38996334543705,22.452907619264863,17.9043],[-105.40782630116622,22.416449285931535,14.7954],[-105.41808020741622,22.407578843223206,11.697],[-105.4571833975204,22.397975978639863,12.9781],[-105.47166907460372,22.390570379681535,9.6578],[-105.48607337147872,22.381455796348206,7.8156],[-105.49986731679122,22.368109442181535,6.7336],[-105.51671301991622,22.373643296348206,5.835],[-105.5323787100204,22.363308009889863,3.253],[-105.53770911366622,22.363592840619035,7.0786],[-105.54698645741622,22.372829494264863,4.5004],[-105.5555720693954,22.373846746869035,3.0633],[-105.56403561106205,22.370550848431535,2.2485],[-105.5980525381454,22.379177150514863,3.9255],[-105.66954505116622,22.386664129681535,2.4601]]}}