{"type":"Feature","properties":{"featurecla":"River","scalerank":11,"rivernum":22298,"dissolve":"22298River","name":"Santa Clara","name_alt":null,"note":"ID is link back to CEC data","name_full":"Santa Clara","min_zoom":6.7,"strokeweig":0.15,"uident":2014301,"min_label":7.7},
"geometry":{"type": "LineString","coordinates": [[-103.56969153554122,24.229559637494035,2091.4915],[-103.5707087881454,24.213690496869035,2095.3811],[-103.56187903554122,24.180202541139863,2112.5332],[-103.56688391835372,24.160508530723206,2121.8225],[-103.57140051991622,24.149684963014863,2135.48],[-103.57673092356207,24.139024155723206,2138.8298],[-103.63060462147872,24.104356186973206,2209.9209],[-103.64411373606207,24.102850653119035,2218.906],[-103.68321692616622,24.113796291139863,2293.6582],[-103.69420325429122,24.113877671348206,2306.2588],[-103.70685787668707,24.110866603639863,2340.8596],[-103.73936926991622,24.103054103639863,2345.5105],[-103.79051673085372,24.107733465619035,2557.1047],[-103.79625403554122,24.103583074994035,2563.1379]]}}