{"type":"Feature","properties":{"featurecla":"River","scalerank":10,"rivernum":22294,"dissolve":"22294River","name":"Presidio1","name_alt":null,"note":"ID is link back to CEC data","name_full":"Rio Presidio","min_zoom":6.0,"strokeweig":0.2,"uident":2017701,"min_label":7.0},
"geometry":{"type": "LineString","coordinates": [[-106.29246985585372,23.099920965619035,5.2471],[-106.28099524647872,23.122626043744035,4.0842],[-106.25031490793705,23.168239650514863,10.4007],[-106.23814856679122,23.194647528119035,11.5397],[-106.2345271475204,23.210313218223206,12.7061],[-106.2372126943954,23.228623765098206,16.0554],[-106.24543209543705,23.259833074994035,19.6966],[-106.24901282460372,23.289007879681535,28.7619],[-106.25763912668705,23.316514390098206,37.755],[-106.25853430897872,23.327215887494035,37.589],[-106.25300045481205,23.358506577598206,92.445],[-106.2411189443954,23.364365952598206,71.1947],[-106.21861731679122,23.388251043744035,101.3783],[-106.21873938710372,23.409002996869035,58.9697],[-106.21251380116622,23.417018947389863,53.1281],[-106.21564693918705,23.419297593223206,61.856],[-106.2269587881454,23.434597072389863,70.3726],[-106.24351966054122,23.447088934369035,63.5653],[-106.2377009756454,23.458441473431535,66.2826],[-106.2171931631454,23.472194728639863,132.927],[-106.2057185537704,23.515895900514863,120.5],[-106.1952205068954,23.559108791139863,192.134],[-106.18700110585372,23.569199936973206,150.8565],[-106.15632076731205,23.588893947389863,179.1442],[-106.14745032460372,23.590440171348206,170.8444],[-106.12950598866622,23.580837306764863,151.0932],[-106.12303626210372,23.586778061973206,270.085],[-106.11742102772872,23.599798895306535,185.9749],[-106.09430904856205,23.620428778119035,165.4267],[-106.07823645741622,23.624701239056535,212.0139],[-106.06843014231205,23.635321356244035,303.4239],[-106.07201087147872,23.650010483848206,232.1438],[-106.0733943350204,23.655625718223206,292.2464],[-106.06867428293705,23.661973374473206,216.239],[-106.05797278554122,23.663885809369035,333.3723],[-106.04710852772872,23.665798244264863,351.0194],[-106.04596920481205,23.675116278119035,239.8202],[-106.0453181631454,23.680446681764863,244.1748],[-106.03058834543705,23.691758530723206,345.8006],[-106.03058834543705,23.712184963014863,390.1659],[-106.02904212147872,23.720974025514863,348.0457],[-106.01964270741622,23.730902410931535,434.3749],[-106.00682532460372,23.755194403119035,459.6453],[-105.98485266835372,23.768825588014863,400.5959],[-105.96226966054122,23.772080796348206,412.9681],[-105.94737708241622,23.782822983848206,505.6188],[-105.93797766835372,23.801377671348206,836.7813],[-105.93293209543705,23.811387436973206,616.2778],[-105.8927302725204,23.847520249473206,588.6168],[-105.87214107981205,23.870306707806535,739.6647],[-105.82774817616622,23.890977280723206,1058.6912],[-105.81932532460372,23.892360744264863,586.3782],[-105.78307044179122,23.886257228639863,1112.4666],[-105.73277747304122,23.895534572389863,1035.7654],[-105.72301184804122,23.899115301556535,931.5541],[-105.7215876943954,23.918524481244035,742.6808],[-105.71605384022872,23.929510809369035,989.1611],[-105.69957434804122,23.929754949994035,1058.5276],[-105.67650305897872,23.921738999473206,880.9973],[-105.65925045481205,23.925156968223206,1193.2683],[-105.65607662668705,23.943182684369035,1472.4561],[-105.63744055897872,23.958807684369035,1080.4711],[-105.60041256418705,23.962998765098206,1720.8904],[-105.59504147043705,23.987087306764863,2204.7346],[-105.58617102772872,24.005438543744035,1821.754],[-105.5880427725204,24.018133856244035,1611.1025],[-105.58629309804122,24.025987046348206,1779.3867],[-105.57428951731205,24.041612046348206,2076.762],[-105.5619197256454,24.048773504681535,2210.0789],[-105.5404353506454,24.060980535931535,2220.9033],[-105.51915442616622,24.050604559369035,2059.1599],[-105.4911189443954,24.037909246869035,2239.2544],[-105.47760982981205,24.027858791139863,2196.0154]]}}