{"type":"Feature","properties":{"GID_2":"MEX.10.35_2","GID_0":"MEX","country":"México","GID_1":"MEX.10_1","province":"Durango","NL_NAME_1":"NA","county":"Tamazula","VARNAME_2":"NA","NL_NAME_2":"NA","TYPE_2":"Município","ENGTYPE_2":"Municipality","CC_2":"NA","HASC_2":"NA","name":"Tamazula.county"},
"geometry":{"type": "MultiPolygon","coordinates": [[[[-106.9943,25.6622,2771.7954],[-106.9733,25.6296,2606.1577],[-107.0342,25.5963,2344.6201],[-107.11,25.5606,828.1224],[-107.1131,25.5611,827.4696],[-107.1211,25.5564,789.9718],[-107.1195,25.5542,769.6503],[-107.1246,25.5504,746.775],[-107.1312,25.5502,734.7698],[-107.1326,25.5527,720.2701],[-107.1383,25.5522,685.192],[-107.1394,25.5532,685.192],[-107.1387,25.5601,803.1345],[-107.1701,25.5595,576.4835],[-107.1692,25.5577,571.2288],[-107.1739,25.5566,548.3479],[-107.1726,25.5517,556.5175],[-107.1752,25.5492,621.3408],[-107.1716,25.5461,576.8374],[-107.1718,25.5428,556.5465],[-107.1762,25.5444,559.8664],[-107.1769,25.5408,615.6412],[-107.1737,25.5389,626.8082],[-107.1734,25.5337,564.4388],[-107.1695,25.5325,565.0342],[-107.1743,25.5291,526.5267],[-107.172,25.5238,513.2308],[-107.176,25.5227,516.9535],[-107.1751,25.5202,519.3649],[-107.1781,25.5152,498.8576],[-107.1721,25.5074,545.1556],[-107.1663,25.503,618.2176],[-107.1477,25.505,1137.1185],[-107.1398,25.4966,745.5609],[-107.1393,25.4896,525.4669],[-107.1406,25.4862,501.2151],[-107.1462,25.4835,493.0665],[-107.1472,25.4793,530.9039],[-107.1511,25.4767,467.3651],[-107.1506,25.4739,481.4324],[-107.1526,25.4697,470.689],[-107.1512,25.4672,448.6765],[-107.153,25.4661,456.4645],[-107.1519,25.4635,474.0726],[-107.1531,25.4611,460.8871],[-107.1505,25.458,435.6098],[-107.1566,25.4564,443.9091],[-107.1558,25.4469,489.5674],[-107.161,25.4448,428.9131],[-107.1587,25.442,416.8386],[-107.1647,25.4396,418.7198],[-107.1849,25.4368,1141.1063],[-107.2101,25.4171,610.558],[-107.1716,25.3264,556.8279],[-107.2078,25.3316,451.9437],[-107.1572,25.2618,744.16],[-107.1454,25.2578,844.8208],[-107.1211,25.2431,591.0535],[-107.1317,25.2322,784.5795],[-107.1304,25.2295,957.7209],[-107.132,25.2267,952.4611],[-107.1488,25.2245,884.8582],[-107.129,25.1884,1832.1593],[-107.1249,25.1866,1804.4789],[-107.1299,25.0531,375.7956],[-107.0674,25.0302,654.4399],[-107.0636,25.0253,585.37],[-107.0664,25.0229,503.7469],[-107.0665,25.0204,499.356],[-107.062,25.0124,459.8076],[-107.0604,25.0024,513.7082],[-107.0183,24.9336,316.2176],[-107.0251,24.9284,261.893],[-107.0211,24.9099,201.6725],[-107.0006,24.9282,589.9041],[-106.9732,24.9096,219.6759],[-106.951,24.888,327.515],[-106.9463,24.889,305.4435],[-106.9345,24.8805,381.3658],[-106.9306,24.8735,476.4013],[-106.9329,24.8715,424.1473],[-106.9271,24.8666,682.237],[-106.9514,24.859,394.1098],[-106.9508,24.8579,437.5811],[-106.9464,24.8585,612.2237],[-106.944,24.8515,624.9305],[-106.9431,24.8431,679.0699],[-106.9465,24.8398,473.8249],[-106.9381,24.8353,596.6776],[-106.9307,24.8209,402.5725],[-106.9193,24.814,607.0751],[-106.9029,24.8284,888.3062],[-106.8659,24.823,1242.4242],[-106.7961,24.7534,626.2012],[-106.793,24.7439,783.4393],[-106.7843,24.7415,451.0623],[-106.7151,24.6721,415.3884],[-106.7059,24.6653,464.3988],[-106.6891,24.6238,569.7403],[-106.6836,24.5985,483.3417],[-106.6455,24.529,500.1909],[-106.6322,24.53,586.4711],[-106.6226,24.5249,490.7431],[-106.6301,24.5065,553.0655],[-106.6248,24.5002,716.8334],[-106.61,24.4979,925.9301],[-106.6004,24.4832,628.3833],[-106.6001,24.4866,661.0116],[-106.5985,24.4871,710.6696],[-106.5991,24.491,689.0707],[-106.5974,24.4909,687.2957],[-106.5937,24.4951,586.1034],[-106.5916,24.4914,592.9832],[-106.5871,24.4926,568.0937],[-106.5838,24.4908,541.4058],[-106.5801,24.4872,548.4243],[-106.5787,24.4822,580.3643],[-106.5762,24.4819,594.5704],[-106.5732,24.4776,616.337],[-106.5671,24.4759,595.3987],[-106.5648,24.4734,583.3358],[-106.56,24.4727,611.9291],[-106.5595,24.4696,619.6927],[-106.5628,24.4588,501.7545],[-106.5683,24.4531,478.4874],[-106.5693,24.4462,466.1511],[-106.5676,24.4422,452.6818],[-106.5693,24.437,444.8264],[-106.6016,24.4146,794.7905],[-106.5953,24.4095,433.2886],[-106.5835,24.3903,819.4512],[-106.586,24.379,732.8967],[-106.5341,24.3095,563.9938],[-106.5332,24.3027,573.1744],[-106.528,24.2951,593.8318],[-106.5171,24.287,864.9167],[-106.5091,24.2911,1074.3434],[-106.4697,24.2779,1482.594],[-106.4295,24.2851,1814.0994],[-106.3675,24.3019,966.7905],[-106.3592,24.3075,1359.639],[-106.3526,24.3165,1546.3796],[-106.3461,24.3449,1493.1932],[-106.3441,24.3488,1574.8568],[-106.3363,24.3557,2000.0432],[-106.3278,24.3611,1970.4438],[-106.2689,24.3748,1975.7458],[-106.1944,24.3518,2697.9033],[-106.17,24.3337,1889.0459],[-106.1525,24.3388,2926.7891],[-106.1546,24.3422,2860.8757],[-106.1606,24.3714,2807.8059],[-106.1713,24.4473,2672.9109],[-106.2059,24.4781,2440.6013],[-106.1804,24.4884,1468.9324],[-106.1735,24.4888,1516.1885],[-106.1826,24.499,1864.3556],[-106.1767,24.5134,1782.7305],[-106.1427,24.5257,1162.9784],[-106.1551,24.5402,700.1638],[-106.1582,24.5493,649.3023],[-106.1633,24.5505,722.4623],[-106.1663,24.5535,772.4138],[-106.1669,24.561,636.7947],[-106.1767,24.56,621.9484],[-106.1684,24.581,1447.4703],[-106.2007,24.6043,1665.1766],[-106.197,24.6098,1721.9407],[-106.2018,24.6426,1918.8408],[-106.2272,24.6813,2573.979],[-106.1506,24.7337,2166.9407],[-106.2227,24.7375,2528.575],[-106.2206,24.7447,2433.5884],[-106.2266,24.7498,2348.6597],[-106.2266,24.752,2387.4775],[-106.2517,24.7521,2144.6472],[-106.2579,24.7537,1932.317],[-106.2626,24.7591,1888.799],[-106.2701,24.7614,1767.475],[-106.2805,24.7709,1695.8943],[-106.2863,24.7734,1625.6653],[-106.2886,24.7697,1628.105],[-106.295,24.7684,1582.3149],[-106.2967,24.7666,1578.0823],[-106.2993,24.7586,1576.085],[-106.2967,24.7541,1453.338],[-106.2966,24.7503,1455.1887],[-106.3021,24.7452,1067.9241],[-106.3108,24.7444,889.0014],[-106.3189,24.7474,800.7328],[-106.3233,24.7462,769.1783],[-106.3265,24.7487,750.6548],[-106.3323,24.7473,725.5881],[-106.3334,24.749,731.8053],[-106.3359,24.7466,694.6819],[-106.3393,24.7484,677.4379],[-106.3427,24.7467,670.4168],[-106.3481,24.7495,648.0131],[-106.349,24.7477,633.0702],[-106.3524,24.7489,708.4907],[-106.3541,24.747,622.2122],[-106.3563,24.7486,595.9487],[-106.3579,24.7478,596.1537],[-106.3589,24.7498,611.0419],[-106.3616,24.7482,591.0731],[-106.3673,24.7498,567.8577],[-106.3751,24.747,528.5635],[-106.3744,24.7449,543.6213],[-106.3769,24.747,524.6334],[-106.3811,24.7444,519.6257],[-106.3843,24.7531,485.5168],[-106.3907,24.7527,506.8804],[-106.3952,24.7493,500.2435],[-106.4184,24.7829,1153.7007],[-106.4322,24.7704,1371.903],[-106.4858,24.7386,1082.6492],[-106.4965,24.7152,1298.2751],[-106.5271,24.7072,307.8674],[-106.5176,24.7153,417.4809],[-106.5149,24.7283,319.3213],[-106.5113,24.7311,329.4965],[-106.5095,24.7354,367.5903],[-106.5131,24.7401,330.0718],[-106.5111,24.7418,333.9896],[-106.5072,24.741,402.3924],[-106.5064,24.7432,348.8138],[-106.5066,24.747,357.2211],[-106.5097,24.7531,353.9761],[-106.5023,24.7537,373.7594],[-106.5017,24.7599,386.513],[-106.5036,24.7633,357.8516],[-106.5033,24.7664,362.6552],[-106.4952,24.7659,376.8485],[-106.4972,24.7761,421.1525],[-106.4916,24.7808,391.3182],[-106.4905,24.789,391.0268],[-106.486,24.7917,391.058],[-106.4885,24.7968,411.0471],[-106.4916,24.7967,479.2826],[-106.4908,24.8032,493.5383],[-106.4934,24.8035,474.4745],[-106.4954,24.8064,419.9631],[-106.4933,24.8125,460.1946],[-106.5009,24.8155,439.7889],[-106.5015,24.8209,466.7612],[-106.5043,24.8209,447.1936],[-106.5059,24.8241,455.3206],[-106.5114,24.8261,463.0533],[-106.5219,24.8382,496.208],[-106.5281,24.8417,516.606],[-106.5315,24.8327,591.4727],[-106.5367,24.8337,693.6858],[-106.5348,24.8324,639.7006],[-106.5348,24.8298,695.6501],[-106.5398,24.8272,743.5143],[-106.5457,24.8277,858.045],[-106.5495,24.8263,908.5929],[-106.5465,24.834,843.6422],[-106.5384,24.8386,672.2329],[-106.5352,24.8425,563.8656],[-106.5425,24.8467,603.4354],[-106.55,24.847,627.1325],[-106.5515,24.8503,608.2887],[-106.5539,24.8513,641.919],[-106.5541,24.8566,688.3651],[-106.5616,24.8592,829.652],[-106.562,24.8569,739.3744],[-106.5659,24.857,780.5577],[-106.5687,24.8694,834.4435],[-106.5668,24.8731,868.1991],[-106.5694,24.8771,942.4266],[-106.5683,24.8791,926.6619],[-106.5706,24.8801,967.7934],[-106.5713,24.8856,982.5984],[-106.5694,24.8873,1026.7219],[-106.5723,24.892,1033.1246],[-106.5772,24.8919,1082.673],[-106.5774,24.8949,1131.5867],[-106.5812,24.8955,1171.2673],[-106.5803,24.8986,1212.3647],[-106.5827,24.9022,1260.3789],[-106.5806,24.905,1272.25],[-106.5818,24.9075,1300.8312],[-106.58,24.9101,1348.1353],[-106.581,24.9125,1358.9827],[-106.5829,24.912,1420.8497],[-106.5851,24.9142,1384.6721],[-106.5833,24.9157,1485.9319],[-106.5847,24.917,1410.9132],[-106.5825,24.9208,1467.4838],[-106.584,24.9244,1517.1404],[-106.5853,24.9235,1486.1375],[-106.5888,24.9298,1615.9314],[-106.6118,24.9503,2265.0679],[-106.6244,24.948,2188.8472],[-106.6375,24.9476,2352.5945],[-106.6625,24.9607,2569.6709],[-106.6834,25.0121,1651.7983],[-106.678,25.0231,984.5161],[-106.6609,25.0271,1098.0073],[-106.6669,25.04,741.8513],[-106.6669,25.0441,632.2568],[-106.6642,25.0558,734.1718],[-106.6594,25.0659,1160.1436],[-106.6877,25.0644,764.2892],[-106.6842,25.0846,1337.0818],[-106.6799,25.094,1026.4075],[-106.7541,25.1348,1557.6421],[-106.7553,25.1319,1687.9202],[-106.7624,25.1325,1737.5227],[-106.832,25.1006,1703.9059],[-106.8514,25.0995,1382.2104],[-106.8656,25.0917,1370.8821],[-106.8653,25.0931,1338.6818],[-106.877,25.1091,1278.8678],[-106.8894,25.1337,452.878],[-106.8879,25.1357,493.4297],[-106.8852,25.1355,458.8286],[-106.8841,25.1383,443.437],[-106.88,25.1369,474.9038],[-106.8795,25.1407,464.1799],[-106.8762,25.1415,460.2848],[-106.8738,25.1464,472.5164],[-106.8691,25.1458,478.4707],[-106.8685,25.1417,538.7933],[-106.8611,25.1413,469.5671],[-106.8601,25.1421,479.0554],[-106.8621,25.146,529.9543],[-106.8594,25.1459,518.5122],[-106.8576,25.1492,514.8899],[-106.8526,25.1487,514.953],[-106.8556,25.1529,523.344],[-106.8547,25.1566,506.986],[-106.8581,25.1592,491.5555],[-106.8548,25.1644,513.2425],[-106.8567,25.167,531.1637],[-106.8534,25.172,553.9948],[-106.8551,25.1754,508.8426],[-106.8525,25.1752,533.4368],[-106.8509,25.177,562.8643],[-106.8518,25.1801,617.0546],[-106.8429,25.1835,541.8389],[-106.8484,25.1847,582.0118],[-106.8488,25.1868,621.2963],[-106.8511,25.1865,599.6825],[-106.8506,25.1901,646.0161],[-106.8532,25.1882,670.9016],[-106.8563,25.1896,686.8858],[-106.8587,25.1886,716.2233],[-106.8564,25.1916,713.8835],[-106.857,25.1962,801.9043],[-106.8611,25.1963,791.7588],[-106.8664,25.2,813.8322],[-106.8686,25.2,848.1238],[-106.8678,25.2032,950.5044],[-106.8713,25.2026,885.6516],[-106.8729,25.2059,958.8167],[-106.8764,25.2076,981.8408],[-106.8839,25.208,1044.0521],[-106.8834,25.21,1172.1816],[-106.8905,25.2249,1702.9504],[-106.9448,25.2576,1236.1255],[-106.9548,25.2821,358.3951],[-106.9502,25.2838,370.1643],[-106.9459,25.2813,373.1043],[-106.9414,25.2811,375.9546],[-106.9334,25.287,455.4138],[-106.9245,25.2841,376.5518],[-106.917,25.2857,451.4343],[-106.9162,25.2876,387.9825],[-106.9115,25.2899,403.3597],[-106.9015,25.2916,437.4445],[-106.8986,25.2954,477.3488],[-106.8989,25.3002,428.2528],[-106.9065,25.3088,453.1379],[-106.9051,25.3196,442.9378],[-106.9003,25.3222,445.0742],[-106.8922,25.3227,498.773],[-106.8834,25.3277,467.5783],[-106.8757,25.3267,464.1436],[-106.8668,25.3194,468.7356],[-106.8577,25.3171,462.4805],[-106.854,25.3184,480.0109],[-106.8657,25.324,647.7252],[-106.8697,25.3362,1165.6609],[-106.8132,25.3887,2080.5171],[-106.783,25.4096,2541.0205],[-106.7406,25.3862,1478.9965],[-106.6749,25.3995,601.1958],[-106.6746,25.4016,608.3558],[-106.6799,25.4066,607.3874],[-106.6751,25.4113,614.3044],[-106.6756,25.4144,610.8494],[-106.6787,25.4158,622.1485],[-106.6767,25.4253,634.9114],[-106.6808,25.4299,653.2806],[-106.6788,25.4352,636.5365],[-106.69,25.4443,657.8597],[-106.6887,25.4476,660.7346],[-106.6823,25.4523,709.4254],[-106.6796,25.4579,716.9478],[-106.6767,25.4601,730.8612],[-106.6752,25.4681,680.4272],[-106.6694,25.4717,679.0942],[-106.6698,25.4778,696.0851],[-106.6682,25.481,692.6266],[-106.6631,25.4838,690.3046],[-106.6597,25.493,701.405],[-106.6483,25.4976,888.3397],[-106.645,25.5038,752.4344],[-106.6452,25.5089,770.9504],[-106.6426,25.5118,812.1339],[-106.6474,25.516,795.6515],[-106.6456,25.5208,928.189],[-106.6478,25.5249,775.3507],[-106.6455,25.5317,923.2745],[-106.6527,25.5493,782.9426],[-106.6517,25.5536,901.4552],[-106.6528,25.5588,836.4202],[-106.6593,25.5645,816.1516],[-106.6647,25.5638,922.6327],[-106.6714,25.5674,868.1206],[-106.677,25.5764,898.4936],[-106.6777,25.5837,892.1062],[-106.6802,25.5893,892.7799],[-106.6831,25.5908,892.2076],[-106.6856,25.5897,885.0511],[-106.708,25.6025,960.4897],[-106.682,25.5792,1132.3717],[-106.6988,25.5808,1182.0283],[-106.6989,25.5862,900.538],[-106.7058,25.5973,918.8311],[-106.7025,25.5812,1065.2708],[-106.7448,25.5852,2300.4082],[-106.8178,25.5734,2120.4978],[-106.8738,25.5719,2363.3853],[-106.8992,25.6437,2536.1316],[-106.8938,25.6443,2613.5862],[-106.9068,25.6466,2635.4429],[-106.9224,25.6461,2716.4717],[-106.9943,25.6622,2771.7954]]]]}}