{"type":"Feature","properties":{"GID_2":"MEX.5.10_2","GID_0":"MEX","country":"México","GID_1":"MEX.5_1","province":"Chiapas","NL_NAME_1":"NA","county":"Arriaga","VARNAME_2":"NA","NL_NAME_2":"NA","TYPE_2":"Município","ENGTYPE_2":"Municipality","CC_2":"NA","HASC_2":"NA","name":"Arriaga.county"},
"geometry":{"type": "MultiPolygon","coordinates": [[[[-93.9465,16.3687,1199.2299],[-93.9589,16.3704,1046.7971],[-93.9616,16.3672,878.8796],[-93.9773,16.3723,868.7006],[-93.9757,16.3784,937.2971],[-93.985,16.3762,753.4255],[-93.9856,16.3716,810.7108],[-93.9831,16.369,856.4744],[-93.9855,16.3661,792.7377],[-94.0001,16.373,436.5065],[-94.007,16.3788,365.4255],[-94.0139,16.3813,471.2328],[-94.0066,16.3931,769.2228],[-94.0157,16.3982,726.5284],[-94.019,16.3928,591.8673],[-94.0205,16.4017,655.0009],[-94.0303,16.3999,625.1293],[-94.0342,16.4055,737.5569],[-94.0377,16.4054,694.3503],[-94.0415,16.4022,581.079],[-94.0542,16.4006,363.8742],[-94.0587,16.4193,347.3561],[-94.0702,16.4256,311.2764],[-94.1025,16.4075,361.5209],[-94.0507,16.3297,400.2773],[-94.0516,16.3275,467.0026],[-94.033,16.2759,393.5001],[-94.0435,16.2557,587.7473],[-94.0351,16.2483,517.6223],[-94.0352,16.2396,316.1135],[-94.0385,16.2302,333.1878],[-94.047,16.2207,44.236],[-94.0485,16.2162,20.825],[-94.0954,16.1855,6.5501],[-94.1096,16.1791,4.0356],[-94.1017,16.1403,0.0],[-94.0921,16.1362,0.0],[-94.0891,16.1327,1.7241],[-94.0862,16.1245,0.2834],[-94.0746,16.1183,0.0],[-94.0692,16.117,0.0],[-94.0626,16.1192,1.8991],[-94.0576,16.1187,0.0],[-94.035,16.1065,0.0],[-94.009,16.1084,1.1671],[-94.0015,16.1005,1.8056],[-93.9875,16.0972,2.3634],[-93.9818,16.0938,0.5486],[-93.975,16.0965,1.3613],[-93.9674,16.0966,0.93],[-93.9588,16.092,0.0],[-93.9355,16.0943,1.8045],[-93.9204,16.0899,0.0],[-93.9131,16.0861,1.3914],[-93.8999,16.0849,0.9621],[-93.9003,16.0934,1.5175],[-93.9041,16.0943,2.895],[-93.9157,16.091,2.6782],[-93.9191,16.096,2.6577],[-93.9135,16.1255,8.4314],[-93.9093,16.127,11.3775],[-93.9109,16.1307,11.7951],[-93.9066,16.1322,13.7352],[-93.9021,16.1365,12.8933],[-93.8936,16.1717,26.341],[-93.8807,16.1676,27.3275],[-93.8821,16.1762,29.8031],[-93.8684,16.1867,38.5289],[-93.8621,16.1898,47.2231],[-93.858,16.1951,54.7727],[-93.8384,16.2038,78.7106],[-93.8328,16.1975,122.9963],[-93.8043,16.2123,213.9959],[-93.7991,16.2061,417.386],[-93.8017,16.1954,299.5504],[-93.782,16.1942,512.8317],[-93.7807,16.202,473.1582],[-93.7701,16.2027,645.4874],[-93.7679,16.2085,531.6664],[-93.771,16.2303,281.2671],[-93.7482,16.2508,1078.7607],[-93.748,16.2542,1214.3553],[-93.7438,16.2583,1196.738],[-93.7414,16.2585,1425.657],[-93.7218,16.2886,1433.0999],[-93.7232,16.295,1599.1801],[-93.728,16.2978,1649.9569],[-93.7407,16.298,1161.0863],[-93.7431,16.3095,1225.9873],[-93.7464,16.3115,1009.3702],[-93.7519,16.3271,1094.0026],[-93.7827,16.3376,923.7704],[-93.7924,16.3446,960.2218],[-93.8146,16.3436,991.0925],[-93.8205,16.3458,955.8575],[-93.8174,16.3508,865.6697],[-93.8224,16.3458,926.9313],[-93.8277,16.3347,560.9531],[-93.8352,16.3307,597.2589],[-93.8323,16.3268,625.651],[-93.8446,16.3215,829.325],[-93.8512,16.3244,734.7173],[-93.8525,16.3275,786.861],[-93.846,16.3314,926.5922],[-93.8569,16.3397,739.2253],[-93.8666,16.3443,782.1559],[-93.8994,16.3484,1005.7219],[-93.8965,16.3518,826.7375],[-93.9046,16.3518,1089.5111],[-93.9036,16.3555,904.6228],[-93.929,16.3562,1379.7191],[-93.9267,16.3615,1557.2449],[-93.9465,16.3687,1199.2299]]]]}}