{"type": "Feature","bbox": [-100.2161,23.9395,-99.5709,24.5067],"geometry": {"type": "MultiPolygon","coordinates": [[[[-99.6173,24.464,1319.4038],[-99.6286,24.4922,1441.0135],[-99.6364,24.5067,1254.9493],[-99.7198,24.4837,1812.5557],[-99.7103,24.4421,1627.5201],[-99.743,24.4193,1824.8591],[-99.7406,24.4091,2117.7109],[-99.7411,24.3994,2000.8696],[-99.744,24.3917,2120.3206],[-99.7625,24.3902,1540.5469],[-99.7751,24.4105,1720.5402],[-99.7923,24.4067,2124.8252],[-99.8034,24.4281,2114.2874],[-99.8012,24.4291,2072.6724],[-99.8085,24.4464,2197.9578],[-99.8362,24.4727,2790.4475],[-99.8396,24.4716,2781.7986],[-99.8478,24.4856,2802.8618],[-99.8386,24.4959,1987.9259],[-99.8548,24.501,2192.1553],[-99.8845,24.4794,2437.6101],[-99.8942,24.4702,2533.3687],[-99.8887,24.4541,2541.6921],[-99.9087,24.448,2630.5728],[-99.9179,24.4515,2651.4695],[-99.9114,24.4599,2286.6807],[-99.9389,24.4648,2604.2109],[-99.9574,24.4629,2428.2314],[-99.9743,24.4745,2634.5828],[-99.9939,24.465,2320.7407],[-99.9993,24.4643,2372.9263],[-99.9981,24.4545,2459.9766],[-100.0098,24.4547,2376.1611],[-100.0235,24.4595,2593.1987],[-100.0613,24.4557,2381.178],[-100.0601,24.4517,2365.561],[-100.0766,24.4421,2312.0754],[-100.0911,24.4525,2635.9355],[-100.067,24.3538,2119.0808],[-100.0735,24.3098,1867.3564],[-100.1061,24.2993,1770.2627],[-100.1152,24.3103,1921.7267],[-100.1535,24.2988,1670.3175],[-100.1671,24.284,1643.363],[-100.1738,24.2828,1643.8572],[-100.1695,24.2633,1634.6746],[-100.1742,24.2648,1645.019],[-100.187,24.2637,1672.526],[-100.1871,24.2472,1673.813],[-100.1939,24.2454,1693.1414],[-100.1958,24.2493,1704.8219],[-100.2161,24.2492,1784.6074],[-100.1984,24.2126,1889.7949],[-100.2032,24.2123,1932.5892],[-100.1662,24.1598,1647.0996],[-100.1794,24.147,1600.9886],[-100.1777,24.1458,1600.0815],[-100.1798,24.1424,1599.7693],[-100.182,24.1444,1601.012],[-100.1939,24.133,1611.2214],[-100.1939,24.1203,1617.64],[-100.154,24.0948,1582.281],[-100.1708,24.0755,1613.0519],[-100.1131,24.0554,1579.5754],[-100.101,24.0544,1578.8788],[-100.1035,24.0354,1578.13],[-100.1202,24.0313,1577.4824],[-100.1206,24.0005,1581.3501],[-100.1233,24.0008,1582.5181],[-100.121,23.9722,1666.1686],[-100.1038,23.9734,1624.3618],[-100.1026,23.9577,1647.1741],[-100.0635,23.9604,1579.3779],[-100.0619,23.9395,1584.1078],[-100.0086,23.9426,1673.7812],[-99.9855,23.9909,1842.0022],[-99.9728,24.0051,1870.6567],[-99.9182,24.0025,2264.0923],[-99.8782,24.0172,2160.033],[-99.8798,23.9896,2405.709],[-99.8675,23.9977,2374.3901],[-99.862,23.9904,1998.5775],[-99.853,23.9982,2261.0793],[-99.8421,23.9835,2050.8635],[-99.8442,23.9913,2293.6033],[-99.8395,23.9971,2486.1523],[-99.8366,24.0052,2428.614],[-99.7889,24.0121,1442.1168],[-99.7866,24.015,1347.7092],[-99.7833,24.0102,1391.5249],[-99.7807,24.0101,1303.0295],[-99.7748,23.9945,1323.9381],[-99.7682,23.9908,1423.6207],[-99.7686,23.986,1401.5916],[-99.7667,23.9845,1392.7815],[-99.758,23.9889,1664.2646],[-99.7491,23.9971,2050.49],[-99.755,24.0114,2495.6494],[-99.7484,24.0238,2668.3687],[-99.7429,24.0288,2714.8953],[-99.7208,24.0277,2430.4155],[-99.6893,24.0332,2536.3877],[-99.6759,24.0389,1723.786],[-99.5788,24.0369,2197.2852],[-99.5709,24.0394,1904.5114],[-99.6571,24.118,2112.1863],[-99.6478,24.2181,1849.7385],[-99.6431,24.2254,1774.6619],[-99.6202,24.2784,883.5775],[-99.5943,24.3309,1344.3486],[-99.5893,24.3508,1217.1721],[-99.5899,24.3961,1350.3977],[-99.6115,24.4528,1647.2843],[-99.6173,24.464,1319.4038]]]]}
,"properties": {"GID_2": "MEX.19.6_2","GID_0": "MEX","country": "México","GID_1": "MEX.19_1","province": "NuevoLeón","NL_NAME_1": "NA","county": "Aramberri","VARNAME_2": "NA","NL_NAME_2": "NA","TYPE_2": "Município","ENGTYPE_2": "Municipality","CC_2": "NA","HASC_2": "NA","name": "Aramberri.county","area_km2": 2695.234,"hist_schema_id": "Elevation0-9000","hist_area_km2": {"500": 0.174,"525": 0.579,"550": 1.429,"575": 3.399,"600": 3.611,"625": 3.65,"650": 3.805,"675": 5.273,"700": 6.934,"725": 7.475,"750": 8.17,"775": 8.364,"800": 8.674,"825": 9.08,"850": 9.023,"875": 9.275,"900": 10.551,"925": 11.538,"950": 13.142,"975": 16.18,"1000": 17.187,"1025": 20.976,"1050": 24.263,"1075": 24.729,"1100": 25.368,"1125": 27.109,"1150": 27.207,"1175": 30.146,"1200": 32.137,"1225": 35.02,"1250": 37.091,"1275": 34.366,"1300": 34.966,"1325": 34.23,"1350": 33.34,"1375": 33.319,"1400": 32.625,"1425": 31.792,"1450": 32.178,"1475": 30.883,"1500": 28.603,"1525": 29.105,"1550": 27.539,"1575": 236.434,"1600": 113.117,"1625": 83.572,"1650": 69.295,"1675": 57.62,"1700": 50.558,"1725": 47.386,"1750": 48.468,"1775": 44.753,"1800": 40.903,"1825": 38.698,"1850": 41.845,"1875": 44.083,"1900": 42.169,"1925": 42.282,"1950": 55.031,"1975": 67.883,"2000": 65.832,"2025": 57.62,"2050": 53.871,"2075": 49.155,"2100": 44.418,"2125": 42.582,"2150": 40.413,"2175": 36.915,"2200": 34.09,"2225": 33.142,"2250": 31.518,"2275": 30.875,"2300": 34.022,"2325": 33.016,"2350": 27.067,"2375": 20.151,"2400": 17.254,"2425": 15.631,"2450": 12.773,"2475": 10.994,"2500": 8.947,"2525": 8.829,"2550": 6.433,"2575": 5.912,"2600": 5.583,"2625": 4.25,"2650": 3.014,"2675": 2.859,"2700": 2.376,"2725": 1.391,"2750": 0.831,"2775": 0.734,"2800": 0.541,"2825": 0.599,"2850": 0.386,"2875": 0.522,"2900": 0.251,"2925": 0.367,"2950": 0.232,"2975": 0.29,"3000": 0.097,"3025": 0.155,"3050": 0.135,"3075": 0.213,"3100": 0.193,"3125": 0.077,"3150": 0.058}}}