{"type": "Feature","bbox": [-87.3234,20.7284,-86.7406,21.2318],"geometry": {"type": "MultiPolygon","coordinates": [[[[-86.9153,20.8105,1.4263],[-86.9101,20.8125,2.6127],[-86.9047,20.8124,0.5337],[-86.8934,20.8286,2.0148],[-86.8743,20.8474,1.3254],[-86.8655,20.8719,2.1822],[-86.8641,20.8819,0.0],[-86.8605,20.8912,3.0853],[-86.8469,20.904,0.0],[-86.8442,20.9202,0.8368],[-86.8381,20.9287,1.5001],[-86.8368,20.9456,0.0],[-86.8342,20.9572,0.7943],[-86.8299,20.9669,2.0644],[-86.8287,20.9796,0.0],[-86.8218,21.0018,3.1549],[-86.813,21.0231,0.0],[-86.8091,21.0301,1.8765],[-86.7995,21.0359,2.6627],[-86.793,21.0351,0.3839],[-86.7868,21.03,0.0],[-86.7788,21.0323,2.7011],[-86.7774,21.0367,1.2092],[-86.7793,21.0362,0.6014],[-86.7814,21.0391,1.0968],[-86.7819,21.0501,0.0],[-86.7707,21.0851,11.2867],[-86.7611,21.1085,4.1744],[-86.7525,21.1245,1.1817],[-86.7459,21.1332,3.9191],[-86.7406,21.1353,0.0],[-86.7407,21.1379,0.0],[-86.7435,21.1363,6.1139],[-86.7462,21.1368,3.6317],[-86.7499,21.1397,3.0361],[-86.756,21.1367,2.0682],[-86.7621,21.1366,3.4391],[-86.7799,21.146,0.0],[-86.7881,21.1435,1.4781],[-86.7888,21.1472,0.4848],[-86.7973,21.1542,1.8025],[-86.8013,21.1603,0.4735],[-86.8006,21.1575,0.0],[-86.8023,21.1588,0.4735],[-86.8071,21.1836,3.7857],[-86.804,21.2078,3.3034],[-86.802,21.212,0.0],[-86.8392,21.212,8.0008],[-86.8396,21.213,9.8241],[-86.847,21.2104,8.7479],[-86.848,21.212,9.6709],[-86.866,21.212,12.5389],[-86.8651,21.2101,12.5328],[-86.9145,21.2101,10.2997],[-86.9146,21.212,10.4237],[-86.9781,21.2121,11.5557],[-86.9781,21.2172,11.8572],[-86.9975,21.2172,7.1874],[-86.9975,21.2121,7.452],[-87.1017,21.212,11.7341],[-87.1009,21.2301,10.2001],[-87.1548,21.2318,13.6345],[-87.1537,21.1861,14.4279],[-87.1931,21.1894,5.6613],[-87.1925,21.14,2.2535],[-87.2067,21.1406,11.9581],[-87.2129,21.0996,2.8047],[-87.3204,21.1012,14.1058],[-87.3234,20.872,9.4486],[-87.1678,20.8709,18.5995],[-87.1659,20.8205,21.2904],[-87.1677,20.7663,18.8777],[-87.197,20.766,20.3395],[-87.1375,20.7284,16.641],[-87.1112,20.7587,14.981],[-87.1017,20.7537,15.649],[-87.0927,20.7657,9.7794],[-87.0951,20.7656,13.3727],[-87.0952,20.7698,13.0607],[-87.1178,20.7693,17.882],[-87.1179,20.7601,18.5572],[-87.1228,20.7602,18.2702],[-87.1226,20.7781,17.3308],[-87.1178,20.7785,17.9631],[-87.1179,20.7878,16.7207],[-87.1089,20.7881,17.0402],[-87.1089,20.7966,17.3448],[-87.099,20.797,15.9509],[-87.099,20.8063,17.0683],[-87.0943,20.8063,17.6277],[-87.094,20.7971,16.216],[-87.0893,20.7974,14.9665],[-87.0895,20.8063,16.4791],[-87.0801,20.8066,15.4063],[-87.0797,20.8114,14.9537],[-86.9207,20.8121,6.0307],[-86.9153,20.8105,1.4263]]]]}
,"properties": {"GID_2": "MEX.23.2_2","GID_0": "MEX","country": "México","GID_1": "MEX.23_1","province": "QuintanaRoo","NL_NAME_1": "NA","county": "BenitoJuárez","VARNAME_2": "NA","NL_NAME_2": "NA","TYPE_2": "Município","ENGTYPE_2": "Municipality","CC_2": "NA","HASC_2": "NA","name": "Benito_Juárez.county","area_km2": 2116.21,"hist_schema_id": "Elevation0-9000","hist_area_km2": {"0": 1370.351,"25": 745.859}}}