{"type":"Feature","properties":{"GID_2":"MEX.20.244_2","GID_0":"MEX","country":"México","GID_1":"MEX.20_1","province":"Oaxaca","NL_NAME_1":"NA","county":"SanMartínItunyoso","VARNAME_2":"NA","NL_NAME_2":"NA","TYPE_2":"Município","ENGTYPE_2":"Municipality","CC_2":"NA","HASC_2":"NA","name":"San_Martín_Itunyoso.county"},
"geometry":{"type": "MultiPolygon","coordinates": [[[[-97.816,17.2286,2460.6624],[-97.8086,17.2371,2366.4631],[-97.8098,17.2434,2169.8911],[-97.8117,17.2414,2225.4458],[-97.8208,17.2384,2307.8523],[-97.8284,17.2394,2419.6882],[-97.8306,17.2416,2438.2764],[-97.8365,17.2418,2541.468],[-97.8301,17.2501,2462.4192],[-97.8285,17.257,2389.8311],[-97.8314,17.2633,2257.3892],[-97.8369,17.2644,2292.1211],[-97.8399,17.2593,2273.0449],[-97.8462,17.2581,2296.2188],[-97.8613,17.2492,2341.0142],[-97.8649,17.242,2321.4014],[-97.8733,17.2454,2315.9338],[-97.8751,17.2436,2283.7322],[-97.8802,17.2428,2268.6882],[-97.8831,17.2384,2381.2061],[-97.8845,17.2394,2343.5164],[-97.8878,17.2366,2486.9668],[-97.8847,17.2327,2565.3074],[-97.8918,17.2324,2577.7832],[-97.8948,17.2338,2603.1814],[-97.9048,17.2193,2487.5293],[-97.91,17.2158,2559.9863],[-97.9152,17.2064,2722.8992],[-97.9158,17.2024,2784.6509],[-97.8999,17.1799,2412.4248],[-97.8919,17.1785,2207.0383],[-97.8849,17.1832,2068.3428],[-97.8827,17.183,1972.6057],[-97.8832,17.1878,2022.6917],[-97.8801,17.1913,2075.4167],[-97.8808,17.1937,2089.1792],[-97.8785,17.1999,2260.0952],[-97.8749,17.1964,2293.1267],[-97.8711,17.1987,2357.9829],[-97.871,17.2006,2401.3589],[-97.8675,17.2004,2341.9116],[-97.8549,17.2078,2434.9265],[-97.8521,17.2075,2427.2754],[-97.8471,17.2006,2458.0505],[-97.8496,17.1949,2487.7722],[-97.8473,17.1925,2534.8928],[-97.8419,17.1913,2739.5195],[-97.8407,17.1858,2703.0938],[-97.8356,17.1848,2619.8228],[-97.8347,17.1821,2549.9756],[-97.8306,17.1815,2489.5593],[-97.8296,17.1843,2476.8057],[-97.8248,17.1837,2381.8093],[-97.8215,17.1865,2368.5615],[-97.8179,17.1927,2266.3616],[-97.8059,17.1969,2175.4028],[-97.802,17.2016,2115.0325],[-97.8028,17.2088,2140.9648],[-97.8011,17.2124,2061.9351],[-97.8037,17.2167,2201.3811],[-97.8042,17.2259,2414.6196],[-97.8084,17.2276,2489.5044],[-97.821,17.2273,2536.4043],[-97.816,17.2286,2460.6624]]]]}}