{"type":"Feature","properties":{"GID_2":"MEX.13.9_2","GID_0":"MEX","country":"México","GID_1":"MEX.13_1","province":"Hidalgo","NL_NAME_1":"NA","county":"Atitalaquia","VARNAME_2":"NA","NL_NAME_2":"NA","TYPE_2":"Município","ENGTYPE_2":"Municipality","CC_2":"NA","HASC_2":"NA","name":"Atitalaquia.county"},
"geometry":{"type": "MultiPolygon","coordinates": [[[[-99.1731,20.088,2112.8071],[-99.1696,20.0955,2106.7241],[-99.1784,20.0964,2095.0532],[-99.2032,20.0929,2079.4104],[-99.2003,20.0859,2093.946],[-99.2056,20.0812,2093.8508],[-99.2074,20.0827,2089.5125],[-99.2192,20.0796,2076.0054],[-99.2194,20.083,2072.1584],[-99.2405,20.0789,2077.887],[-99.2413,20.0758,2084.5864],[-99.2439,20.0757,2086.8491],[-99.2429,20.072,2091.8027],[-99.2447,20.0718,2092.2046],[-99.2435,20.0691,2094.2195],[-99.2607,20.0644,2099.7334],[-99.2548,20.0588,2113.2227],[-99.2686,20.0577,2103.7722],[-99.2712,20.0611,2095.6895],[-99.2753,20.0624,2097.3413],[-99.2905,20.0595,2098.0554],[-99.2924,20.0346,2158.2651],[-99.2876,20.0336,2164.3328],[-99.2873,20.0396,2134.062],[-99.2706,20.0315,2155.1694],[-99.2673,20.0343,2154.2571],[-99.2621,20.0274,2175.7024],[-99.2608,20.0273,2175.7024],[-99.2616,20.0303,2172.917],[-99.2433,20.0299,2137.6519],[-99.2435,20.024,2127.8088],[-99.2314,20.0231,2213.0588],[-99.2159,20.0259,2120.4365],[-99.2196,20.0285,2126.4795],[-99.1978,20.035,2146.1321],[-99.1976,20.039,2144.9841],[-99.1927,20.0471,2146.0791],[-99.1874,20.0441,2162.5691],[-99.1871,20.0415,2167.3792],[-99.182,20.0409,2188.1172],[-99.1817,20.0423,2189.5312],[-99.182,20.0403,2188.8596],[-99.1737,20.0364,2219.9678],[-99.1635,20.038,2268.467],[-99.1587,20.036,2283.3604],[-99.1491,20.035,2334.2866],[-99.1444,20.0456,2664.5176],[-99.1526,20.0434,2443.085],[-99.1546,20.047,2323.3818],[-99.1581,20.0476,2286.3694],[-99.1633,20.0529,2228.9517],[-99.166,20.0574,2204.7056],[-99.1737,20.0608,2177.7012],[-99.1772,20.0658,2173.864],[-99.1808,20.0653,2154.5098],[-99.1824,20.0676,2144.5591],[-99.1857,20.0668,2144.5986],[-99.189,20.0728,2125.7527],[-99.1817,20.0783,2127.7251],[-99.1731,20.088,2112.8071]]]]}}