{"type":"Feature","properties":{"GID_2":"MEX.20.33_2","GID_0":"MEX","country":"México","GID_1":"MEX.20_1","province":"Oaxaca","NL_NAME_1":"NA","county":"GuadalupedeRamírez","VARNAME_2":"NA","NL_NAME_2":"NA","TYPE_2":"Município","ENGTYPE_2":"Municipality","CC_2":"NA","HASC_2":"NA","name":"Guadalupede_Ramírez.county"},
"geometry":{"type": "MultiPolygon","coordinates": [[[[-98.1436,17.7594,1120.8732],[-98.1465,17.764,1105.45],[-98.1521,17.7637,1129.8805],[-98.154,17.7659,1139.999],[-98.1612,17.7667,1299.7456],[-98.1601,17.7688,1276.3407],[-98.1643,17.77,1201.3401],[-98.1634,17.7714,1186.4252],[-98.1769,17.7733,1423.6802],[-98.1766,17.7715,1365.8752],[-98.1779,17.7735,1423.6802],[-98.1876,17.7744,1385.0925],[-98.1885,17.7758,1413.3807],[-98.1923,17.7751,1423.9087],[-98.1936,17.7733,1437.0227],[-98.195,17.7744,1429.5525],[-98.2009,17.774,1444.0242],[-98.2085,17.7817,1490.3894],[-98.2118,17.7803,1536.9603],[-98.2133,17.7751,1578.178],[-98.2165,17.7759,1582.4838],[-98.2179,17.7718,1619.3658],[-98.2217,17.7714,1611.186],[-98.2199,17.7687,1660.8574],[-98.2112,17.7635,1643.2126],[-98.2136,17.7624,1626.7596],[-98.214,17.7548,1695.7095],[-98.2175,17.7544,1671.5737],[-98.2184,17.7521,1659.1575],[-98.2188,17.7504,1645.313],[-98.2151,17.7482,1599.2473],[-98.2157,17.7464,1646.074],[-98.2054,17.7466,1548.7151],[-98.2033,17.7433,1406.1715],[-98.2003,17.7437,1421.8494],[-98.2001,17.7468,1361.2296],[-98.1987,17.7473,1381.2197],[-98.2006,17.7594,1512.3213],[-98.1914,17.7589,1436.9288],[-98.1815,17.7557,1402.7261],[-98.1531,17.7337,1467.8545],[-98.1242,17.7284,1145.8143],[-98.1201,17.7294,1377.5205],[-98.1115,17.755,1527.8695],[-98.1304,17.7591,1287.2947],[-98.1436,17.7594,1120.8732]]]]}}