{"type":"Feature","properties":{"GID_2":"MEX.21.105_2","GID_0":"MEX","country":"México","GID_1":"MEX.21_1","province":"Puebla","NL_NAME_1":"NA","county":"NicolásBravo","VARNAME_2":"NA","NL_NAME_2":"NA","TYPE_2":"Município","ENGTYPE_2":"Municipality","CC_2":"NA","HASC_2":"NA","name":"Nicolás_Bravo.county"},
"geometry":{"type": "MultiPolygon","coordinates": [[[[-97.4013,18.5767,2417.9392],[-97.4141,18.572,1880.8538],[-97.4148,18.5606,1875.2634],[-97.4209,18.5599,1914.1104],[-97.4246,18.5553,1877.2317],[-97.425299999999993,18.5511,1831.9963],[-97.4225,18.551,1844.2699],[-97.4223,18.5493,1841.5581],[-97.4198,18.5481,1839.9136],[-97.4204,18.5466,1833.3835],[-97.4191,18.5466,1833.3835],[-97.4196,18.5409,1814.2322],[-97.4173,18.5498,1849.9037],[-97.4164,18.5487,1876.6416],[-97.412,18.5489,1909.9346],[-97.4105,18.5526,1990.9146],[-97.408,18.5537,2016.151],[-97.4099,18.5607,1908.9222],[-97.4078,18.5624,1932.4092],[-97.4039,18.5639,1998.6119],[-97.3962,18.5707,2174.561],[-97.3926,18.571,2202.3018],[-97.3875,18.5758,2425.248],[-97.3799,18.5743,2142.7856],[-97.3772,18.5801,2263.0664],[-97.3742,18.5817,2313.8887],[-97.3732,18.58,2339.8169],[-97.366,18.5862,2536.5159],[-97.355,18.5915,2624.0835],[-97.3486,18.5926,2754.8196],[-97.3443,18.5881,2803.4304],[-97.3311,18.5859,2658.0999],[-97.3146,18.591,2545.9873],[-97.3192,18.5781,2822.3257],[-97.3124,18.5728,2840.4417],[-97.3071,18.5768,2656.958],[-97.3066,18.5817,2587.2998],[-97.3012,18.5873,2513.8237],[-97.2972,18.5875,2519.667],[-97.2933,18.5844,2470.5649],[-97.2899,18.5855,2288.9739],[-97.2874,18.59,2413.3699],[-97.2822,18.5925,2499.4548],[-97.2788,18.5964,2546.6572],[-97.2811,18.5975,2569.98],[-97.2839,18.5946,2567.2095],[-97.2885,18.5942,2595.4937],[-97.2925,18.5956,2562.2207],[-97.2935,18.5972,2483.2334],[-97.2912,18.6022,2575.2197],[-97.2767,18.6103,2651.3784],[-97.2727,18.6108,2561.3215],[-97.2707,18.6092,2473.1492],[-97.2697,18.6105,2486.1626],[-97.2752,18.6261,2647.5244],[-97.2736,18.6331,2654.3745],[-97.2783,18.6377,2737.7446],[-97.278,18.6433,2826.2544],[-97.2809,18.6475,2847.4805],[-97.2819,18.6525,2887.3804],[-97.2912,18.6555,2684.8865],[-97.2939,18.6649,2827.0906],[-97.2971,18.6642,2869.6877],[-97.298,18.6695,2709.9114],[-97.3032,18.6743,2558.7202],[-97.3057,18.6722,2681.219],[-97.3095,18.6738,2609.8972],[-97.3161,18.6695,2603.2649],[-97.315,18.6666,2671.6082],[-97.3182,18.6672,2468.5176],[-97.3232,18.6643,2472.9209],[-97.3254,18.6691,2561.8208],[-97.3304,18.6731,2503.635],[-97.3306,18.6754,2454.5825],[-97.3282,18.6776,2420.7131],[-97.3311,18.6795,2417.4905],[-97.331,18.6831,2394.8279],[-97.3348,18.6791,2363.3569],[-97.3373,18.6786,2320.1133],[-97.3382,18.6813,2469.7317],[-97.344,18.6858,2287.9575],[-97.347,18.6805,2234.2505],[-97.3533,18.6804,2191.5522],[-97.3709,18.6701,2180.2656],[-97.3782,18.6609,2089.2185],[-97.3828,18.6605,2156.8328],[-97.3895,18.6569,2134.3462],[-97.3924,18.6581,2059.5828],[-97.3973,18.6522,2042.1595],[-97.3999,18.6575,2073.2505],[-97.4022,18.6579,2081.6167],[-97.4046,18.6452,2055.3425],[-97.409,18.633,2016.5117],[-97.4048,18.631,2012.0913],[-97.401,18.6314,2025.8927],[-97.4024,18.6288,2018.7085],[-97.3899,18.6319,2073.3455],[-97.3817,18.6289,2109.2212],[-97.3787,18.63,2120.5603],[-97.3731,18.629,2149.1562],[-97.3738,18.6252,2238.7202],[-97.3722,18.6212,2353.2117],[-97.3616,18.611,2633.8823],[-97.361,18.6032,2511.0471],[-97.3682,18.599,2409.6594],[-97.3726,18.5921,2308.0918],[-97.3748,18.5915,2252.6697],[-97.3799,18.5853,2183.1274],[-97.3801,18.5828,2175.418],[-97.3836,18.587,2239.239],[-97.3872,18.588,2412.9988],[-97.3955,18.578,2323.6599],[-97.4013,18.5767,2417.9392]]]]}}