{"type": "Feature","bbox": [-98.8626,20.7212,-98.6928,20.976],"geometry": {"type": "MultiPolygon","coordinates": [[[[-98.7531,20.7408,2166.552],[-98.7465,20.7406,2009.0677],[-98.7441,20.7358,1946.0078],[-98.7357,20.7299,1575.0894],[-98.7388,20.727,1769.0106],[-98.7386,20.7234,2025.7551],[-98.7288,20.7212,1558.553],[-98.7254,20.7227,1480.1921],[-98.7245,20.7271,1437.9702],[-98.7199,20.7285,1432.4218],[-98.7155,20.7339,1369.3711],[-98.7049,20.7381,1362.546],[-98.7043,20.74,1372.7706],[-98.7107,20.7483,1497.2465],[-98.7162,20.7494,1514.9146],[-98.7039,20.7569,1832.0493],[-98.6976,20.759,2020.8389],[-98.6928,20.7643,1772.6893],[-98.6951,20.7678,1744.2592],[-98.7002,20.7668,1899.2776],[-98.6962,20.7725,1798.313],[-98.6979,20.7734,1817.1571],[-98.6993,20.7716,1855.5325],[-98.7065,20.7756,1896.3683],[-98.7055,20.7766,1896.3683],[-98.7102,20.7836,1923.0674],[-98.7085,20.7867,1925.5139],[-98.7178,20.7924,1812.6718],[-98.7196,20.7912,1846.0392],[-98.7217,20.7941,1801.4169],[-98.7185,20.7983,1645.4307],[-98.7147,20.8001,1546.7261],[-98.7145,20.8042,1445.1304],[-98.7097,20.8098,1321.9258],[-98.7089,20.8161,1247.9807],[-98.7046,20.8191,1209.179],[-98.7023,20.8247,1175.3635],[-98.7097,20.8272,1269.8862],[-98.7184,20.8276,1298.1293],[-98.7283,20.8315,1442.8833],[-98.7346,20.8316,1271.594],[-98.7417,20.8293,1127.1761],[-98.7459,20.8304,1112.0547],[-98.7509,20.8393,915.3431],[-98.739,20.8424,1263.334],[-98.7366,20.8446,1318.5204],[-98.7523,20.8601,1180.7075],[-98.7533,20.863,1270.6918],[-98.7497,20.8651,1154.7548],[-98.7422,20.8685,923.8773],[-98.7395,20.8656,1029.9736],[-98.7376,20.8517,1521.0449],[-98.7302,20.8471,1490.1722],[-98.727,20.848,1678.9669],[-98.7193,20.8578,1684.4478],[-98.7146,20.8553,1513.7163],[-98.7064,20.8638,1440.9058],[-98.7119,20.8687,1535.2134],[-98.7164,20.8816,1261.1166],[-98.7222,20.8823,1119.5493],[-98.7185,20.8744,1349.4644],[-98.7224,20.8735,1366.8298],[-98.7372,20.8803,1162.2198],[-98.7391,20.8839,1039.4214],[-98.7419,20.8838,974.3613],[-98.7458,20.8886,875.7827],[-98.7548,20.8917,737.0007],[-98.7581,20.8912,723.3425],[-98.7615,20.8941,713.2045],[-98.7621,20.8993,728.4465],[-98.7678,20.9072,662.6738],[-98.7676,20.9086,662.6738],[-98.7645,20.9092,653.5822],[-98.7678,20.9116,649.5852],[-98.7665,20.9118,657.9875],[-98.7664,20.9166,643.3777],[-98.7692,20.9184,669.1761],[-98.7673,20.921,603.0586],[-98.7705,20.922,606.4207],[-98.7686,20.9255,588.778],[-98.7715,20.9271,602.3857],[-98.7728,20.934,567.793],[-98.7771,20.9393,543.9084],[-98.7781,20.943,501.3633],[-98.7764,20.945,509.7755],[-98.7726,20.9431,563.8323],[-98.7719,20.9447,522.3776],[-98.7651,20.9441,550.8667],[-98.7686,20.9471,625.5683],[-98.7637,20.9536,806.3887],[-98.7644,20.9602,939.6255],[-98.7613,20.9659,1098.9304],[-98.7698,20.9686,1214.3293],[-98.8028,20.9685,772.4252],[-98.8178,20.9736,396.1175],[-98.8205,20.9699,393.6525],[-98.8182,20.9681,386.4024],[-98.8215,20.9662,446.1173],[-98.8298,20.9679,573.5832],[-98.8383,20.976,1097.9496],[-98.8418,20.9747,1126.988],[-98.8428,20.9717,1132.9354],[-98.8511,20.9718,1080.1519],[-98.8554,20.9747,979.5031],[-98.86,20.9721,1031.7008],[-98.8572,20.9702,1056.3385],[-98.857,20.9626,1398.7539],[-98.844,20.9369,667.9835],[-98.8452,20.934,621.9703],[-98.8577,20.9246,734.7079],[-98.8617,20.915,847.8201],[-98.8609,20.9043,913.1157],[-98.8626,20.9024,849.8712],[-98.8579,20.8937,1012.4116],[-98.8585,20.8906,1056.0153],[-98.8518,20.8835,1550.9521],[-98.8501,20.8765,1686.9781],[-98.8474,20.8826,1599.8708],[-98.8477,20.8855,1622.8751],[-98.8438,20.8881,1496.6161],[-98.827,20.8697,908.3143],[-98.8227,20.8686,824.3896],[-98.8151,20.869,763.8033],[-98.813,20.872,734.2133],[-98.8039,20.878,729.3976],[-98.7974,20.8793,666.3225],[-98.7995,20.876,748.0476],[-98.7992,20.8719,674.7933],[-98.7963,20.8708,706.6932],[-98.7935,20.8654,770.8264],[-98.7909,20.8654,729.3736],[-98.7911,20.8626,716.9567],[-98.7881,20.8619,696.8477],[-98.7815,20.8547,715.6793],[-98.7846,20.8517,738.6036],[-98.7842,20.8332,776.1534],[-98.7873,20.8275,855.4443],[-98.7845,20.8221,821.864],[-98.7847,20.8154,843.8235],[-98.78,20.8054,912.5668],[-98.7813,20.803,874.9358],[-98.7807,20.8004,862.4155],[-98.7732,20.7963,889.4628],[-98.7743,20.7934,923.1281],[-98.7712,20.7918,958.5497],[-98.7657,20.7846,1012.4282],[-98.7655,20.7782,1032.3491],[-98.7617,20.7759,1089.4664],[-98.7613,20.773,1077.4558],[-98.7556,20.7668,1182.6909],[-98.7567,20.7642,1274.3412],[-98.7549,20.7619,1325.6265],[-98.7569,20.7536,1655.2803],[-98.7531,20.7408,2166.552]]]]}
,"properties": {"GID_2": "MEX.13.42_2","GID_0": "MEX","country": "México","GID_1": "MEX.13_1","province": "Hidalgo","NL_NAME_1": "NA","county": "MolangodeEscamilla","VARNAME_2": "NA","NL_NAME_2": "NA","TYPE_2": "Município","ENGTYPE_2": "Municipality","CC_2": "NA","HASC_2": "NA","name": "Molangode_Escamilla.county","area_km2": 198.9907,"hist_schema_id": "Elevation0-9000","hist_area_km2": {"350": 0.0198,"375": 0.4356,"400": 0.495,"425": 0.594,"450": 1.0494,"475": 1.188,"500": 1.5049,"525": 1.4257,"550": 1.8811,"575": 1.6237,"600": 1.9802,"625": 2.099,"650": 2.713,"675": 2.5745,"700": 3.1093,"725": 3.5847,"750": 4.0998,"775": 3.6839,"800": 4.3576,"825": 3.7039,"850": 4.7933,"875": 4.2983,"900": 4.6152,"925": 4.8331,"950": 4.5361,"975": 3.9219,"1000": 4.2588,"1025": 4.0014,"1050": 4.5361,"1075": 4.3975,"1100": 4.1996,"1125": 4.5562,"1150": 4.0214,"1175": 4.1008,"1200": 4.1801,"1225": 4.6161,"1250": 4.2598,"1275": 4.4384,"1300": 4.0422,"1325": 4.6169,"1350": 4.1414,"1375": 4.5973,"1400": 4.2207,"1425": 4.1019,"1450": 4.4785,"1475": 3.864,"1500": 4.122,"1525": 3.9636,"1550": 3.7057,"1575": 3.0126,"1600": 3.1712,"1625": 3.0127,"1650": 3.0325,"1675": 2.3388,"1700": 2.0616,"1725": 1.6851,"1750": 1.6057,"1775": 1.6257,"1800": 1.2688,"1825": 1.3877,"1850": 0.9912,"1875": 1.1895,"1900": 1.1102,"1925": 0.8723,"1950": 0.793,"1975": 0.8525,"2000": 0.7533,"2025": 0.7335,"2050": 0.337,"2075": 0.2577,"2100": 0.1388,"2125": 0.0595,"2150": 0.0198,"2175": 0.0595,"2200": 0.0198,"2225": 0.0397,"2275": 0.0198}}}