{"type": "Feature","bbox": [-98.4588,19.576,-98.362,19.6167],"geometry": {"type": "MultiPolygon","coordinates": [[[[-98.4096,19.6167,2501.2561],[-98.4118,19.6048,2505.3857],[-98.447,19.611,2507.6047],[-98.4508,19.6061,2515.1426],[-98.4527,19.6065,2514.9983],[-98.4531,19.6029,2517.9446],[-98.4551,19.6032,2516.6423],[-98.4555,19.5979,2523.1804],[-98.4585,19.599,2522.0596],[-98.4588,19.5968,2525.3359],[-98.4266,19.5842,2539.9604],[-98.4306,19.5794,2540.9028],[-98.4166,19.5791,2530.6226],[-98.4148,19.5803,2530.6226],[-98.3851,19.576,2513.7048],[-98.3798,19.5834,2511.7703],[-98.3744,19.5775,2514.5381],[-98.362,19.5864,2511.3972],[-98.3662,19.5945,2509.4294],[-98.3766,19.5878,2510.3574],[-98.3817,19.6094,2504.8447],[-98.4096,19.6167,2501.2561]]]]}
,"properties": {"GID_2": "MEX.29.7_2","GID_0": "MEX","country": "México","GID_1": "MEX.29_1","province": "Tlaxcala","NL_NAME_1": "NA","county": "BenitoJuárez","VARNAME_2": "NA","NL_NAME_2": "NA","TYPE_2": "Município","ENGTYPE_2": "Municipality","CC_2": "NA","HASC_2": "NA","name": "Benito_Juárez.county","area_km2": 25.8867,"hist_schema_id": "Elevation0-9000","hist_area_km2": {"2500": 16.11903,"2525": 9.28825,"2550": 0.47942}}}