{"type":"Feature","properties":{"GID_2":"MEX.15.88_2","GID_0":"MEX","country":"México","GID_1":"MEX.15_1","province":"México","NL_NAME_1":"NA","county":"Temascaltepec","VARNAME_2":"NA","NL_NAME_2":"NA","TYPE_2":"Município","ENGTYPE_2":"Municipality","CC_2":"NA","HASC_2":"NA","name":"Temascaltepec.county"},
"geometry":{"type": "MultiPolygon","coordinates": [[[[-99.9708,19.1865,3052.8799],[-99.9593,19.1755,2920.1519],[-99.9632,19.1638,3003.0105],[-99.9668,19.1613,2980.5327],[-99.971,19.1548,2948.0566],[-99.9751,19.142,2922.4141],[-99.9882,19.1351,2463.7607],[-99.991,19.1382,2482.5928],[-99.9919,19.1431,2496.2583],[-99.9943,19.143,2552.5315],[-99.9952,19.138,2569.8499],[-99.9931,19.1354,2476.9692],[-99.9908,19.1353,2473.5859],[-99.9913,19.133,2458.3643],[-99.9949,19.1333,2432.5381],[-99.9911,19.1288,2462.2349],[-99.9927,19.1245,2424.8237],[-99.9907,19.1238,2422.8118],[-99.9907,19.1208,2390.8213],[-99.9928,19.1175,2386.228],[-100.0036,19.1108,2212.6721],[-100.0064,19.114,2286.8503],[-100.0062,19.1225,2319.7854],[-100.0125,19.1233,2393.6155],[-100.0115,19.1209,2364.2458],[-100.015,19.1147,2304.3203],[-100.0202,19.1135,2271.5398],[-100.0268,19.1219,2378.7192],[-100.0422,19.1197,2497.167],[-100.0467,19.1172,2332.7625],[-100.0509,19.123,2256.4644],[-100.058,19.1244,2207.3096],[-100.0595,19.1215,2225.3711],[-100.0573,19.118,2247.1982],[-100.0588,19.1149,2258.6621],[-100.0581,19.1121,2238.5845],[-100.0613,19.1111,2339.2153],[-100.0588,19.1015,2148.3965],[-100.0599,19.0893,2092.5173],[-100.0569,19.0849,2081.7085],[-100.0603,19.0814,2112.1802],[-100.0639,19.0809,2146.3613],[-100.067,19.0831,2143.0461],[-100.07,19.081,2173.3955],[-100.0731,19.0814,2187.9443],[-100.0769,19.0838,2204.4644],[-100.0781,19.0899,2255.5146],[-100.0822,19.091,2390.1514],[-100.0819,19.093,2425.939],[-100.0847,19.0923,2413.4165],[-100.0864,19.0936,2398.718],[-100.0861,19.0921,2398.718],[-100.0887,19.0923,2399.219],[-100.0898,19.087,2413.8547],[-100.098,19.0842,2519.6414],[-100.0983,19.0787,2466.5071],[-100.1042,19.0824,2418.5396],[-100.1106,19.0821,2385.2339],[-100.1146,19.0801,2383.1699],[-100.1185,19.0812,2380.5334],[-100.1246,19.0896,2355.9128],[-100.1309,19.0907,2314.0198],[-100.1294,19.0932,2324.4006],[-100.1366,19.0968,2347.0693],[-100.1371,19.0933,2285.021],[-100.1434,19.0903,2248.9761],[-100.1644,19.0898,2505.0869],[-100.1894,19.0975,2410.7632],[-100.1982,19.1032,2407.8438],[-100.2054,19.1123,2443.5305],[-100.2149,19.1181,2283.1187],[-100.2134,19.1104,2065.2246],[-100.2202,19.0964,1780.2506],[-100.219,19.094,1713.9065],[-100.2204,19.0898,1640.8213],[-100.219,19.0883,1659.3508],[-100.2206,19.0788,1582.8259],[-100.2256,19.0709,1523.667],[-100.2255,19.0685,1497.5837],[-100.2288,19.0673,1500.0264],[-100.2313,19.069,1463.4225],[-100.2371,19.0642,1414.337],[-100.2373,19.0554,1337.5258],[-100.2354,19.0548,1351.2106],[-100.2369,19.053,1320.3413],[-100.2349,19.0533,1313.5654],[-100.2334,19.0493,1299.728],[-100.2321,19.0492,1299.728],[-100.2326,19.0437,1306.7053],[-100.2292,19.0393,1312.9438],[-100.2286,19.0371,1290.2997],[-100.23,19.0357,1300.4182],[-100.2283,19.0307,1220.557],[-100.2316,19.0216,1183.9025],[-100.2401,19.0145,1124.2866],[-100.2364,19.0143,1140.8204],[-100.2359,19.0126,1141.8516],[-100.2326,19.0148,1147.8752],[-100.2273,19.0127,1160.6366],[-100.2245,19.0134,1166.4491],[-100.2208,19.01,1186.8448],[-100.2181,19.0102,1179.46],[-100.2193,19.0056,1207.6562],[-100.2142,19.0049,1184.0925],[-100.2112,19.0009,1260.4647],[-100.2087,19.0023,1238.9436],[-100.2085,18.9997,1207.2018],[-100.206,19.0016,1212.6731],[-100.1973,18.9992,1236.7428],[-100.1933,18.9957,1244.1779],[-100.1876,18.9957,1262.6295],[-100.1871,18.9938,1272.381],[-100.1788,18.9871,1281.5001],[-100.179,18.985,1316.0891],[-100.1742,18.979,1301.3357],[-100.167,18.9813,1348.5476],[-100.1584,18.9871,1374.7367],[-100.1572,18.9947,1412.4144],[-100.1513,19.0032,1481.0181],[-100.1553,19.0065,1429.9675],[-100.1528,19.0099,1419.2772],[-100.1502,19.0101,1487.2186],[-100.1488,19.0123,1475.425],[-100.1413,19.0126,1481.5144],[-100.1405,19.0147,1477.2754],[-100.1381,19.0137,1553.1544],[-100.1365,19.0187,1503.4243],[-100.1269,19.0188,1489.4487],[-100.1233,19.0223,1502.7288],[-100.1238,19.0205,1487.4868],[-100.1091,19.0193,1525.3342],[-100.1066,19.0154,1612.9435],[-100.0998,19.0154,1542.386],[-100.0966,19.013,1539.5264],[-100.0934,19.0174,1596.5239],[-100.087,19.0187,1598.802],[-100.0796,19.0165,1733.5439],[-100.0754,19.0183,1752.8029],[-100.0573,19.0172,1849.865],[-100.054,19.018,1895.426],[-100.0535,19.02,1872.9856],[-100.046,19.0252,1943.1641],[-100.0392,19.0335,2028.8473],[-100.0196,19.0293,2132.396],[-100.0156,19.0305,2138.1433],[-100.0126,19.0345,2044.0677],[-100.0,19.0323,2057.6562],[-99.9939,19.026,2182.3503],[-99.9737,19.0175,2377.0859],[-99.9662,19.0182,2379.0818],[-99.9598,19.0165,2402.7202],[-99.9437,19.0177,2456.5859],[-99.9375,19.0201,2752.7664],[-99.9277,19.0194,2792.4915],[-99.9482,19.0086,2807.3945],[-99.9519,19.0022,2767.3237],[-99.9589,18.9978,2751.2324],[-99.9322,18.9911,2841.4155],[-99.9327,18.9884,2883.4119],[-99.902,18.9832,2782.5786],[-99.8956,19.0197,2943.1875],[-99.8817,19.0168,2894.6912],[-99.8835,19.0054,2851.3018],[-99.8521,18.9955,2855.634],[-99.8529,19.03,2963.7412],[-99.8431,19.0271,3003.0625],[-99.8354,19.0276,2910.6521],[-99.8371,19.0349,2954.2439],[-99.8392,19.0367,2995.6902],[-99.8271,19.0379,2978.696],[-99.8164,19.0415,3007.5715],[-99.8308,19.0536,3087.2964],[-99.8453,19.0502,3042.103],[-99.8456,19.0541,3068.8591],[-99.8338,19.0667,3226.5093],[-99.8297,19.0677,3209.7271],[-99.8299,19.0743,3300.6116],[-99.8366,19.0769,3187.959],[-99.8479,19.077,3178.4993],[-99.8427,19.0865,3196.9956],[-99.8341,19.1248,3424.8984],[-99.8344,19.1344,3353.0591],[-99.8407,19.1504,3188.4302],[-99.8583,19.1553,2942.3242],[-99.8652,19.1543,2858.5227],[-99.8697,19.1572,2807.5161],[-99.8784,19.1593,2754.5579],[-99.8708,19.159,2816.2183],[-99.8577,19.1657,3013.9573],[-99.8511,19.1659,3013.6147],[-99.8507,19.1685,3065.408],[-99.847,19.1691,3134.2869],[-99.8456,19.1756,3353.3911],[-99.8502,19.1781,3165.4104],[-99.847,19.1855,3255.4143],[-99.8575,19.1976,3348.679],[-99.8602,19.193,3159.3032],[-99.8842,19.2049,3063.0781],[-99.8771,19.2165,3278.2734],[-99.8668,19.2172,3445.1274],[-99.8739,19.2363,3603.1084],[-99.8801,19.2352,3551.6201],[-99.8807,19.2294,3430.1672],[-99.8975,19.2237,3392.8154],[-99.901,19.2246,3416.8091],[-99.9006,19.2334,3414.5273],[-99.9053,19.2317,3307.1863],[-99.9146,19.2038,3328.5007],[-99.9285,19.1944,2926.6689],[-99.9596,19.1883,3231.9316],[-99.9652,19.1886,3151.6934],[-99.9708,19.1865,3052.8799]]]]}}