{"type":"Feature","properties":{"GID_2":"MEX.20.324_2","GID_0":"MEX","country":"México","GID_1":"MEX.20_1","province":"Oaxaca","NL_NAME_1":"NA","county":"SanPedroOcopetatillo","VARNAME_2":"NA","NL_NAME_2":"NA","TYPE_2":"Município","ENGTYPE_2":"Municipality","CC_2":"NA","HASC_2":"NA","name":"San_Pedro_Ocopetatillo.county"},
"geometry":{"type": "MultiPolygon","coordinates": [[[[-96.9023,18.1957,1834.3694],[-96.9047,18.2001,1997.3953],[-96.9065,18.2005,2017.326],[-96.9219,18.19,1975.1293],[-96.9251,18.1722,2080.9539],[-96.9174,18.1716,1933.4109],[-96.9137,18.1694,1901.7288],[-96.9014,18.1716,1903.8525],[-96.9013,18.1769,1686.7957],[-96.8995,18.1796,1502.9312],[-96.9015,18.1849,1548.64],[-96.8994,18.1931,1731.77],[-96.9023,18.1957,1834.3694]]]]}}