{"type":"Feature","properties":{"GID_2":"MEX.20.143_2","GID_0":"MEX","country":"México","GID_1":"MEX.20_1","province":"Oaxaca","NL_NAME_1":"NA","county":"SanFranciscodelMar","VARNAME_2":"NA","NL_NAME_2":"NA","TYPE_2":"Município","ENGTYPE_2":"Municipality","CC_2":"NA","HASC_2":"NA","name":"San_Franciscodel_Mar.county"},
"geometry":{"type": "MultiPolygon","coordinates": [[[[-94.1338,16.1203,0.0],[-94.125,16.1209,0.0],[-94.1249,16.1217,0.0],[-94.1354,16.1215,0.0],[-94.1338,16.1203,0.0]]],
[[[-94.1138,16.1181,0.8355],[-94.1124,16.1171,0.8355],[-94.1112,16.1213,1.2589],[-94.1152,16.1268,0.2341],[-94.1205,16.1283,0.0],[-94.1279,16.1279,0.0],[-94.1154,16.1237,0.7735],[-94.1138,16.1181,0.8355]]],
[[[-94.4553,16.3543,12.0459],[-94.4629,16.3541,12.6731],[-94.4656,16.3393,9.9247],[-94.4601,16.3402,8.882],[-94.4598,16.3427,8.3811],[-94.4573,16.3447,8.3307],[-94.455,16.3437,8.6177],[-94.4534,16.3399,9.9317],[-94.4591,16.3382,7.6564],[-94.4604,16.3344,7.5],[-94.4534,16.3291,7.8849],[-94.4547,16.3247,9.3924],[-94.4484,16.3242,10.5131],[-94.4472,16.3192,10.5989],[-94.4439,16.318,15.883],[-94.4455,16.3166,12.0581],[-94.4433,16.3152,6.2124],[-94.4419,16.3161,12.896],[-94.4395,16.3135,6.0604],[-94.441,16.3092,6.2798],[-94.4441,16.3077,9.8064],[-94.4477,16.3082,4.241],[-94.451,16.2986,4.0472],[-94.4615,16.2989,5.4813],[-94.462,16.2847,7.6344],[-94.4513,16.2832,3.5598],[-94.4507,16.2713,2.4143],[-94.4446,16.2713,2.1622],[-94.4457,16.2824,3.3977],[-94.4333,16.2809,2.1905],[-94.4318,16.2758,3.5436],[-94.4338,16.2686,3.248],[-94.429,16.2632,3.0385],[-94.4456,16.2457,2.4668],[-94.464,16.2476,4.9708],[-94.465,16.2257,0.0],[-94.4933,16.2258,1.2887],[-94.4934,16.2307,2.8477],[-94.5047,16.2404,0.7338],[-94.505,16.2507,3.5775],[-94.5101,16.2545,4.2089],[-94.5259,16.2818,4.9995],[-94.5329,16.2725,3.0443],[-94.5336,16.2683,2.8054],[-94.536,16.2706,4.2584],[-94.5364,16.2753,2.9662],[-94.5339,16.283,3.0392],[-94.5358,16.2814,3.103],[-94.5466,16.2836,2.4673],[-94.5486,16.2806,2.9325],[-94.5511,16.2689,2.5],[-94.5564,16.2613,3.2905],[-94.5588,16.2597,0.0],[-94.5539,16.2778,5.0631],[-94.5566,16.2819,1.7751],[-94.5588,16.2804,0.6449],[-94.5553,16.2761,2.6195],[-94.5599,16.2579,1.832],[-94.5919,16.2323,0.0],[-94.591,16.2256,0.0],[-94.5896,16.2318,2.6596],[-94.5829,16.2325,0.0],[-94.5727,16.2385,1.785],[-94.5738,16.2294,0.0],[-94.5697,16.2227,0.0],[-94.5702,16.221,2.0142],[-94.5954,16.2173,0.0],[-94.6067,16.214,0.76],[-94.6124,16.2155,0.8446],[-94.614,16.2173,3.1336],[-94.6137,16.2205,1.87],[-94.6081,16.2188,0.2769],[-94.6095,16.2228,3.7406],[-94.616,16.2245,9.1508],[-94.6291,16.2199,5.4305],[-94.6325,16.2281,0.6113],[-94.6352,16.2292,0.0],[-94.6619,16.2198,3.1846],[-94.6696,16.2204,4.2912],[-94.6739,16.2263,5.2993],[-94.6743,16.2332,1.4249],[-94.6613,16.2385,0.0],[-94.6568,16.2436,1.2131],[-94.6473,16.2377,1.129],[-94.6411,16.2433,0.0],[-94.6419,16.2387,3.0556],[-94.6406,16.2366,0.0],[-94.6355,16.2316,0.0],[-94.6304,16.2296,0.4353],[-94.6229,16.2323,5.5058],[-94.6178,16.2413,3.6328],[-94.6089,16.2414,0.0],[-94.6132,16.2477,3.2862],[-94.6201,16.2521,0.0],[-94.6213,16.2569,1.2223],[-94.6192,16.2639,1.0783],[-94.6277,16.2668,0.0],[-94.6595,16.2512,0.3532],[-94.7318,16.2314,0.0],[-94.7333,16.2295,0.0],[-94.7287,16.2174,0.8693],[-94.703,16.2164,2.7533],[-94.6977,16.2149,0.6604],[-94.7022,16.2135,4.0158],[-94.7218,16.2148,0.8734],[-94.7262,16.2128,0.0],[-94.7268,16.2105,0.0],[-94.725,16.2094,0.0],[-94.7153,16.2104,0.0],[-94.6841,16.2085,0.0],[-94.54,16.1919,0.0],[-94.4801,16.1817,0.0],[-94.384,16.1583,0.0],[-94.2948,16.1306,1.7247],[-94.2024,16.0968,0.0],[-94.1665,16.0809,0.0],[-94.0918,16.044,0.0],[-93.9607,15.9865,0.0],[-93.9486,15.9916,0.0],[-93.9568,15.9985,0.0],[-93.9604,15.9968,0.0],[-93.9621,15.9933,0.3103],[-93.9702,15.9958,0.0],[-93.9693,15.9939,1.4116],[-93.9707,15.9942,1.7835],[-93.9731,15.9955,0.0],[-93.9776,16.0026,0.6145],[-93.9906,16.0028,2.0279],[-93.9927,16.0039,2.0922],[-93.9934,16.0067,2.0293],[-93.9961,16.0057,2.8415],[-94.0002,16.0067,4.5728],[-94.0368,16.0225,1.0918],[-94.0395,16.0294,2.3605],[-94.0486,16.0379,5.1064],[-94.0565,16.0494,4.2134],[-94.0608,16.0638,3.9838],[-94.0663,16.0754,2.7544],[-94.0766,16.0866,3.1824],[-94.088,16.092,2.0662],[-94.1222,16.0994,0.267],[-94.1443,16.1105,0.0],[-94.1579,16.112,0.0],[-94.1626,16.1111,0.4164],[-94.1641,16.1155,0.0],[-94.1614,16.1227,1.1886],[-94.1628,16.1271,0.0],[-94.1704,16.1315,1.2724],[-94.177,16.1385,0.0],[-94.1992,16.1519,1.0784],[-94.2044,16.1521,1.2545],[-94.217,16.1356,0.7478],[-94.2203,16.1379,0.7344],[-94.2494,16.1466,0.3157],[-94.2583,16.145,0.5942],[-94.2554,16.1413,0.4494],[-94.2515,16.1443,0.7434],[-94.2476,16.1426,0.7657],[-94.2463,16.1387,0.0],[-94.2507,16.136,1.8267],[-94.2592,16.139,0.9772],[-94.2912,16.1436,6.7818],[-94.2994,16.1472,1.5056],[-94.3032,16.1472,1.6994],[-94.3044,16.1495,4.0729],[-94.3004,16.1525,0.4617],[-94.3029,16.1543,0.3931],[-94.3514,16.1697,0.817],[-94.3693,16.1713,1.4108],[-94.4217,16.1838,0.8859],[-94.4209,16.186,1.0208],[-94.4251,16.1929,0.7357],[-94.4239,16.1939,0.0],[-94.4125,16.1927,0.0],[-94.4016,16.1845,1.2299],[-94.4001,16.186,3.1784],[-94.4108,16.1943,1.2438],[-94.4224,16.1983,0.6569],[-94.4312,16.2078,1.5055],[-94.4419,16.2145,3.8625],[-94.4421,16.2161,1.2694],[-94.4351,16.2213,0.5888],[-94.4256,16.2212,0.265],[-94.4225,16.2238,0.3979],[-94.4136,16.2218,0.7764],[-94.4185,16.2214,0.0],[-94.4171,16.221,0.0],[-94.4083,16.2202,0.0],[-94.4072,16.2216,0.4328],[-94.4181,16.2244,0.7496],[-94.4403,16.2271,1.0707],[-94.4415,16.2285,2.8133],[-94.44,16.2337,1.9195],[-94.4437,16.2362,2.1273],[-94.4346,16.2449,0.6265],[-94.4308,16.2448,0.0],[-94.4301,16.247,0.0],[-94.4249,16.2441,0.391],[-94.4236,16.2384,0.0],[-94.4199,16.2453,1.1702],[-94.4186,16.2428,0.6329],[-94.4204,16.2383,0.0],[-94.4149,16.2376,0.0],[-94.4179,16.2402,0.3965],[-94.417,16.2411,1.0351],[-94.411,16.2352,0.0],[-94.4099,16.236,0.8391],[-94.4169,16.2452,0.9428],[-94.4143,16.2511,0.0],[-94.4118,16.25,0.0],[-94.4094,16.2577,1.4569],[-94.4067,16.2585,0.5484],[-94.4135,16.2637,0.7164],[-94.4134,16.2744,0.0],[-94.417,16.2719,1.4561],[-94.4189,16.2762,0.4648],[-94.4166,16.2819,0.5113],[-94.4113,16.2863,0.33],[-94.4213,16.2838,2.2219],[-94.4071,16.3476,70.8499],[-94.4109,16.3533,26.6285],[-94.4216,16.353,23.8159],[-94.4256,16.3555,26.834],[-94.4553,16.3543,12.0459]]],
[[[-94.3899,16.2108,0.0],[-94.3869,16.2126,0.0],[-94.3928,16.2172,0.0],[-94.4063,16.2214,0.4328],[-94.4053,16.2195,0.0],[-94.3961,16.2161,0.0],[-94.3899,16.2108,0.0]]],
[[[-94.7336,16.2192,0.0],[-94.7316,16.2215,4.7748],[-94.7335,16.2261,2.5157],[-94.7357,16.2272,0.0],[-94.737799999999993,16.2229,0.0],[-94.7336,16.2192,0.0]]],
[[[-94.5989,16.2236,0.0],[-94.5975,16.2229,0.0],[-94.5997,16.2289,0.0],[-94.6015,16.2285,3.0644],[-94.6019,16.228,0.0],[-94.5989,16.2236,0.0]]],
[[[-94.6083,16.3685,2.9983],[-94.6132,16.353,0.0],[-94.5933,16.3347,0.0],[-94.5948,16.3396,0.0],[-94.5937,16.3403,0.0],[-94.587,16.3401,0.0],[-94.5856,16.3364,0.0],[-94.5817,16.3371,0.8049],[-94.5814,16.3321,0.0],[-94.584,16.329,0.0],[-94.5806,16.3275,3.0882],[-94.5845,16.3204,0.0],[-94.589,16.3065,2.4191],[-94.6027,16.2862,0.4743],[-94.6079,16.2808,0.0],[-94.6242,16.2697,0.0],[-94.6178,16.264,1.2305],[-94.6187,16.2545,0.0],[-94.6089,16.2471,1.6406],[-94.6062,16.247,0.0],[-94.6051,16.2486,0.0],[-94.6069,16.2557,0.0],[-94.6062,16.2604,0.0],[-94.6047,16.2613,0.0],[-94.6012,16.2595,0.0],[-94.6,16.2606,0.299],[-94.6025,16.2689,0.6934],[-94.6014,16.2729,0.0],[-94.588,16.2847,0.0],[-94.5878,16.2901,1.9793],[-94.5822,16.2983,1.9134],[-94.5746,16.3034,0.0],[-94.5698,16.3043,0.566],[-94.5618,16.299,2.3096],[-94.5642,16.2946,4.0257],[-94.5623,16.2859,3.447],[-94.5561,16.29,2.3745],[-94.5531,16.2946,9.3817],[-94.5445,16.2926,12.3415],[-94.5431,16.3015,5.8328],[-94.5416,16.2991,7.5307],[-94.5365,16.2992,8.0474],[-94.5321,16.2973,9.2711],[-94.5285,16.3002,5.4273],[-94.5249,16.2993,7.6037],[-94.523,16.3058,6.5081],[-94.5192,16.3054,6.2896],[-94.5144,16.3076,5.7448],[-94.5167,16.3111,7.4596],[-94.5158,16.3127,6.604],[-94.5094,16.3091,7.3158],[-94.5113,16.3076,6.5079],[-94.5108,16.3052,6.6056],[-94.5132,16.3002,6.4831],[-94.5105,16.2968,6.4319],[-94.4942,16.3065,10.5105],[-94.4975,16.3109,8.9679],[-94.4955,16.3119,8.6981],[-94.4936,16.3176,10.9412],[-94.4887,16.3218,10.0684],[-94.4922,16.3259,9.6435],[-94.4916,16.3338,8.7562],[-94.4902,16.3373,9.6922],[-94.4861,16.3407,11.6276],[-94.4889,16.3502,14.012],[-94.4947,16.3498,11.8408],[-94.5075,16.3413,10.0528],[-94.5077,16.3435,9.9092],[-94.5091,16.3433,9.2321],[-94.5135,16.3647,10.0037],[-94.5322,16.3615,10.5343],[-94.5522,16.3606,7.9825],[-94.5727,16.368,5.5638],[-94.5669,16.3887,7.7187],[-94.5676,16.3933,8.9415],[-94.5714,16.3931,9.9973],[-94.5715,16.397,9.4786],[-94.5795,16.3962,11.5596],[-94.5796,16.4117,14.4558],[-94.6265,16.409,34.4577],[-94.6107,16.3816,10.4903],[-94.6086,16.3766,15.0761],[-94.6083,16.3685,2.9983]]]]}}