{"type": "Feature","bbox": [-96.2618,17.2286,-96.2267,17.2631],"geometry": {"type": "MultiPolygon","coordinates": [[[[-96.2509,17.2612,1247.3555],[-96.2519,17.2579,1497.6947],[-96.2618,17.2472,1648.5361],[-96.2534,17.2366,1968.7048],[-96.249,17.2323,1930.0947],[-96.2393,17.2286,1758.9976],[-96.2267,17.2335,1808.4756],[-96.2315,17.2442,1332.8376],[-96.23,17.2508,1209.3137],[-96.2314,17.2528,1129.3276],[-96.2292,17.2574,1063.7327],[-96.2325,17.2568,1063.4369],[-96.2357,17.2591,1094.0955],[-96.2442,17.2583,1161.0239],[-96.2447,17.2617,1178.5469],[-96.2466,17.2631,1186.1943],[-96.2509,17.2612,1247.3555]]]]}
,"properties": {"GID_2": "MEX.20.124_2","GID_0": "MEX","country": "México","GID_1": "MEX.20_1","province": "Oaxaca","NL_NAME_1": "NA","county": "SanBartoloméZoogocho","VARNAME_2": "NA","NL_NAME_2": "NA","TYPE_2": "Município","ENGTYPE_2": "Municipality","CC_2": "NA","HASC_2": "NA","name": "San_Bartolomé_Zoogocho.county","area_km2": 8.869084,"hist_schema_id": "Elevation0-9000","hist_area_km2": {"1025": 0.020248,"1050": 0.040496,"1075": 0.121487,"1100": 0.141735,"1125": 0.161984,"1150": 0.161982,"1175": 0.121488,"1200": 0.36447,"1225": 0.323972,"1250": 0.263225,"1275": 0.364477,"1300": 0.263228,"1325": 0.242983,"1350": 0.344228,"1375": 0.323981,"1400": 0.364475,"1425": 0.344229,"1450": 0.202488,"1475": 0.364482,"1500": 0.303736,"1525": 0.283489,"1550": 0.344232,"1575": 0.263242,"1600": 0.32399,"1625": 0.384741,"1650": 0.222745,"1675": 0.263245,"1700": 0.202498,"1725": 0.202498,"1750": 0.243,"1775": 0.243,"1800": 0.202503,"1825": 0.202502,"1850": 0.162003,"1875": 0.182252,"1900": 0.101251,"1925": 0.040501,"1950": 0.081,"1975": 0.081}}}