{"type":"Feature","properties":{"GID_2":"MEX.21.30_2","GID_0":"MEX","country":"México","GID_1":"MEX.21_1","province":"Puebla","NL_NAME_1":"NA","county":"CañadaMorelos","VARNAME_2":"NA","NL_NAME_2":"NA","TYPE_2":"Município","ENGTYPE_2":"Municipality","CC_2":"NA","HASC_2":"NA","name":"Cañada_Morelos.county"},
"geometry":{"type": "MultiPolygon","coordinates": [[[[-97.3308,18.7639,2631.7764],[-97.3303,18.7671,2655.8708],[-97.3341,18.7666,2664.2715],[-97.337,18.7684,2662.7363],[-97.3402,18.7784,2505.0803],[-97.3487,18.7776,2518.1802],[-97.3529,18.7744,2521.0251],[-97.3541,18.7761,2521.0886],[-97.3537,18.7889,2545.9053],[-97.352,18.7929,2511.7798],[-97.3427,18.8011,2475.5137],[-97.3378,18.7991,2450.9863],[-97.3364,18.8031,2458.1941],[-97.3332,18.8043,2479.7688],[-97.3325,18.8079,2470.7332],[-97.3263,18.8102,2443.1528],[-97.3263,18.8116,2443.9224],[-97.3333,18.8124,2452.4453],[-97.3348,18.8138,2458.8438],[-97.3333,18.8145,2431.0081],[-97.3463,18.8181,2556.6401],[-97.3455,18.8123,2506.2339],[-97.3436,18.8105,2467.4968],[-97.3636,18.8167,2588.5469],[-97.3627,18.8138,2572.2842],[-97.3653,18.8125,2558.6733],[-97.3734,18.8145,2512.29],[-97.3846,18.8121,2474.0042],[-97.4082,18.8181,2358.4226],[-97.4102,18.8221,2363.4167],[-97.4123,18.8163,2356.2419],[-97.4098,18.8122,2354.0396],[-97.4087,18.8027,2347.564],[-97.4199,18.804,2365.4714],[-97.4265,18.8077,2396.2695],[-97.4323,18.8071,2424.3657],[-97.4383,18.8031,2537.2041],[-97.4478,18.8016,2418.8469],[-97.4536,18.793,2390.998],[-97.4648,18.7863,2342.4243],[-97.4589,18.7803,2487.5542],[-97.4539,18.7825,2506.0969],[-97.4555,18.78,2438.5938],[-97.4543,18.776,2398.7249],[-97.4655,18.7615,2354.8047],[-97.491,18.7757,2277.3877],[-97.4959,18.7813,2261.9851],[-97.5047,18.7858,2245.7815],[-97.503,18.7796,2259.7124],[-97.5062,18.7738,2258.7351],[-97.5111,18.7766,2256.8459],[-97.5137,18.7642,2283.2419],[-97.5194,18.7594,2295.4673],[-97.5231,18.7538,2320.759],[-97.5235,18.7506,2320.1436],[-97.5174,18.7549,2333.9099],[-97.5137,18.7546,2326.3892],[-97.5126,18.7512,2344.9666],[-97.5083,18.7515,2330.7644],[-97.5085,18.7368,2417.1211],[-97.5049,18.7325,2446.8511],[-97.5113,18.7325,2440.9546],[-97.5142,18.7254,2411.2068],[-97.5201,18.7238,2375.9934],[-97.4954,18.7047,2494.9258],[-97.4894,18.699,2528.2209],[-97.4895,18.6964,2565.3242],[-97.4938,18.6829,2708.9209],[-97.4983,18.6842,2610.5291],[-97.5051,18.675,2476.2827],[-97.5052,18.6705,2491.0649],[-97.508,18.6668,2360.2861],[-97.5086,18.6627,2322.3315],[-97.5015,18.6648,2476.7671],[-97.4927,18.6605,2837.8228],[-97.4892,18.6558,2587.6206],[-97.4918,18.6471,2361.1868],[-97.4913,18.6443,2272.6494],[-97.4884,18.6459,2381.9009],[-97.486,18.6437,2480.1262],[-97.4819,18.6443,2604.5417],[-97.4764,18.6394,2430.6465],[-97.4733,18.6321,2240.0408],[-97.4689,18.6286,2146.1113],[-97.4653,18.6361,2201.5044],[-97.4591,18.637,2187.3342],[-97.4573,18.643,2232.8789],[-97.4532,18.6486,2278.9688],[-97.4525,18.6526,2297.989],[-97.4567,18.6591,2220.0212],[-97.4562,18.6655,2205.0107],[-97.4524,18.6582,2183.3076],[-97.4442,18.6499,2129.1926],[-97.4425,18.6462,2122.4097],[-97.4348,18.6397,2080.8738],[-97.423,18.6354,2053.7463],[-97.4225,18.6407,2063.801],[-97.4147,18.6403,2145.3374],[-97.4169,18.6493,2090.3569],[-97.4098,18.656,2147.3069],[-97.4163,18.6551,2107.2212],[-97.4179,18.6595,2127.1934],[-97.416,18.6616,2170.1741],[-97.4105,18.663,2264.5269],[-97.4011,18.6722,2131.6511],[-97.4017,18.6809,2175.7466],[-97.4001,18.6929,2236.7061],[-97.3919,18.7009,2338.8423],[-97.3898,18.7153,2440.6562],[-97.3774,18.7084,2407.8723],[-97.3711,18.7103,2417.3525],[-97.3703,18.7138,2451.1221],[-97.3597,18.7121,2400.564],[-97.3557,18.7165,2428.7173],[-97.3522,18.7146,2427.9956],[-97.349,18.7161,2415.0217],[-97.35,18.7171,2451.3372],[-97.347,18.7222,2464.4927],[-97.3421,18.7258,2434.5923],[-97.3472,18.7274,2394.3425],[-97.3455,18.7339,2430.1094],[-97.3395,18.7424,2449.9785],[-97.3415,18.7416,2429.1265],[-97.3442,18.7494,2517.5474],[-97.3404,18.7587,2541.9658],[-97.3346,18.7625,2612.606],[-97.3312,18.7624,2609.4668],[-97.3308,18.7639,2631.7764]]]]}}