{"type":"Feature","properties":{"GID_1":"MEX.22_1","GID_0":"MEX","country":"México","province":"Querétaro","VARNAME_1":"QuerétarodeArteaga","NL_NAME_1":"NA","TYPE_1":"Estado","ENGTYPE_1":"State","CC_1":"NA","HASC_1":"MX.QE","ISO_1":"NA","name":"Querétaro.province"},
"geometry":{"type": "MultiPolygon","coordinates": [[[[-99.9435,20.0629,3092.0549],[-99.9263,20.0643,3295.8916],[-99.9274,20.0671,3250.3149],[-99.9238,20.0841,3037.156],[-99.9361,20.0991,2689.8154],[-99.9376,20.1046,2508.7837],[-99.9372,20.1133,2434.8169],[-99.9422,20.1201,2435.8743],[-99.9392,20.1353,2358.9207],[-99.9308,20.1431,2323.6614],[-99.9376,20.153,2261.9336],[-99.9362,20.1625,2268.3909],[-99.9297,20.1617,2301.5874],[-99.9272,20.1571,2308.6414],[-99.9229,20.1566,2272.2385],[-99.9219,20.1587,2313.4292],[-99.9263,20.1596,2303.8416],[-99.9272,20.1628,2287.3071],[-99.9352,20.1653,2251.2358],[-99.9358,20.1693,2247.5693],[-99.9323,20.174,2285.3154],[-99.9398,20.1762,2243.5],[-99.9412,20.179,2264.3428],[-99.9371,20.1817,2297.3252],[-99.9424,20.1817,2253.7515],[-99.9471,20.1845,2292.9561],[-99.9481,20.1868,2280.8164],[-99.9463,20.1892,2277.5601],[-99.9537,20.1927,2278.7197],[-99.9561,20.1968,2263.5261],[-99.9608,20.2001,2253.0415],[-99.9607,20.2017,2254.2881],[-99.9652,20.2012,2212.3892],[-99.9643,20.2046,2210.0654],[-99.967,20.208,2216.1853],[-99.9645,20.2163,2146.2312],[-99.9699,20.2184,2132.0317],[-99.9687,20.2215,2131.1174],[-99.9757,20.2323,2135.894],[-99.9733,20.2369,2083.1328],[-99.9761,20.2397,2092.0193],[-99.9783,20.2389,2082.0728],[-99.9812,20.2439,2088.3945],[-99.9794,20.2475,2072.2747],[-99.9809,20.2531,2071.522],[-99.9865,20.2571,2069.281],[-99.9849,20.2648,2090.3049],[-99.9811,20.2715,2058.5332],[-99.977,20.2724,2059.8496],[-99.9744,20.2696,2143.8904],[-99.9754,20.2674,2115.3145],[-99.9742,20.2628,2097.3623],[-99.9582,20.2518,2149.1499],[-99.9555,20.243,2116.2351],[-99.9527,20.2404,2129.4558],[-99.9509,20.2159,2230.2842],[-99.9185,20.2118,2234.9866],[-99.9187,20.2162,2235.6892],[-99.9205,20.2173,2220.7812],[-99.923,20.2257,2232.7461],[-99.9224,20.2311,2185.9871],[-99.9284,20.2327,2133.3535],[-99.9341,20.2498,2154.6265],[-99.9285,20.2502,2216.166],[-99.9304,20.2649,2220.9121],[-99.9296,20.2685,2200.001],[-99.9266,20.2694,2191.9377],[-99.9255,20.2731,2193.3677],[-99.9234,20.2736,2194.4927],[-99.9238,20.2758,2195.675],[-99.9204,20.278,2194.5518],[-99.9195,20.2817,2192.4502],[-99.9152,20.2855,2204.4314],[-99.9114,20.2856,2205.6887],[-99.8774,20.2714,2243.9292],[-99.8591,20.2685,2256.5146],[-99.8281,20.543,1855.4326],[-99.8213,20.5406,1858.606],[-99.8046,20.5448,1877.0723],[-99.7949,20.5511,1839.5168],[-99.7853,20.5534,1817.9512],[-99.7793,20.5593,1810.4983],[-99.7775,20.5585,1783.1772],[-99.7739,20.56,1793.3546],[-99.7697,20.5575,1832.1648],[-99.7684,20.5598,1844.3352],[-99.7563,20.5614,1819.0563],[-99.7534,20.563,1747.9092],[-99.7459,20.5593,1724.1313],[-99.7387,20.5605,1718.5377],[-99.7335,20.5677,1723.5247],[-99.7314,20.5679,1709.3909],[-99.7282,20.5751,1718.3054],[-99.7145,20.5769,1676.8812],[-99.7126,20.5781,1682.6776],[-99.712,20.5813,1658.8936],[-99.709,20.5808,1658.7946],[-99.7051,20.5767,1698.8704],[-99.6964,20.5744,1643.6764],[-99.6942,20.5764,1646.26],[-99.6961,20.5788,1654.7581],[-99.6949,20.581,1685.5557],[-99.6905,20.5814,1633.4926],[-99.6844,20.5791,1641.6227],[-99.6825,20.5837,1630.1044],[-99.6787,20.5853,1615.0571],[-99.6803,20.5889,1670.6582],[-99.6741,20.5886,1648.502],[-99.6694,20.5908,1601.3469],[-99.6686,20.5936,1598.5833],[-99.6633,20.5941,1611.0054],[-99.6579,20.6018,1605.6675],[-99.6477,20.6015,1587.1566],[-99.6425,20.6043,1591.7299],[-99.6346,20.6057,1573.5333],[-99.6316,20.6031,1554.0],[-99.6242,20.6006,1611.2612],[-99.6225,20.5977,1603.6357],[-99.6242,20.594,1559.1289],[-99.6195,20.5914,1554.0],[-99.6164,20.5944,1582.5471],[-99.6129,20.595,1554.0],[-99.6125,20.5993,1554.0],[-99.6094,20.6004,1562.0371],[-99.6074,20.6064,1554.0],[-99.5984,20.6077,1554.0],[-99.5927,20.6108,1554.0],[-99.5938,20.616,1561.4934],[-99.5897,20.6204,1557.1624],[-99.5877,20.6208,1554.0],[-99.5817,20.6179,1554.0],[-99.5789,20.6188,1554.0],[-99.5786,20.6285,1554.0],[-99.5753,20.6307,1554.0],[-99.5735,20.635,1554.0],[-99.5682,20.6361,1554.0],[-99.5653,20.6404,1554.0],[-99.5569,20.6436,1554.0],[-99.5388,20.6437,1554.0],[-99.536,20.6506,1554.0],[-99.527,20.6566,1554.0],[-99.5188,20.6585,1554.0],[-99.5019,20.659,1554.0],[-99.5013,20.6644,1674.8149],[-99.5043,20.6687,1676.1754],[-99.5009,20.671,1659.6144],[-99.5006,20.673,1653.1938],[-99.5038,20.6718,1656.0211],[-99.511,20.6784,1679.2925],[-99.5049,20.6808,1600.1959],[-99.5062,20.6823,1442.208],[-99.5055,20.6847,1372.2695],[-99.5089,20.6862,1353.2461],[-99.5096,20.6897,1339.5511],[-99.5227,20.7017,1316.8933],[-99.5264,20.7027,1315.2273],[-99.5284,20.7051,1525.2017],[-99.5343,20.706,1364.3651],[-99.5357,20.7117,1324.7814],[-99.5394,20.7139,1419.6472],[-99.5397,20.7168,1459.451],[-99.5437,20.7184,1519.364],[-99.5433,20.7212,1352.5836],[-99.5453,20.7236,1336.5842],[-99.5441,20.7258,1606.6141],[-99.5474,20.7284,1327.8868],[-99.5485,20.7372,1407.411],[-99.5428,20.7462,1372.881],[-99.5394,20.7467,1448.7681],[-99.5375,20.7495,1293.647],[-99.5287,20.752,1162.0283],[-99.5255,20.7562,1150.3381],[-99.5217,20.7545,1148.8483],[-99.5184,20.7599,1153.3583],[-99.5097,20.7657,1172.2094],[-99.5038,20.7658,1149.722],[-99.5065,20.7717,1147.3776],[-99.5024,20.7739,1145.5244],[-99.5012,20.7796,1160.4863],[-99.4971,20.7808,1157.1343],[-99.4963,20.7824,1131.5682],[-99.4974,20.7847,1123.53],[-99.5022,20.7872,1158.5297],[-99.5038,20.7948,1172.8824],[-99.4973,20.7909,1120.0703],[-99.4915,20.795,1143.7059],[-99.4887,20.7994,1123.8896],[-99.4893,20.8022,1145.4204],[-99.4976,20.8023,1115.8909],[-99.4997,20.8043,1109.0167],[-99.4941,20.8068,1108.7191],[-99.4932,20.8111,1197.6379],[-99.4853,20.8178,1160.1627],[-99.4847,20.8264,1220.9939],[-99.4887,20.8329,1070.8525],[-99.4826,20.8392,1067.9062],[-99.4792,20.8393,1034.7212],[-99.4756,20.8429,1027.2272],[-99.4693,20.8447,990.0201],[-99.4655,20.8492,1040.6036],[-99.4592,20.8479,967.4043],[-99.4565,20.849,953.8604],[-99.4556,20.8501,1000.8499],[-99.457,20.8554,958.2102],[-99.4544,20.858,954.8197],[-99.4521,20.8578,954.9382],[-99.4482,20.8527,942.9135],[-99.4461,20.853,953.7266],[-99.4455,20.8545,1017.0709],[-99.4486,20.8585,940.695],[-99.443,20.8705,942.0103],[-99.4407,20.8718,933.6656],[-99.4402,20.878,931.1979],[-99.442,20.8813,954.5786],[-99.4376,20.8853,972.4049],[-99.435,20.8907,937.1637],[-99.4352,20.8994,923.2124],[-99.4126,20.9054,964.5956],[-99.4127,20.9137,892.4181],[-99.4151,20.9185,929.8343],[-99.4134,20.9222,956.0411],[-99.4156,20.9249,912.6852],[-99.403,20.9302,889.9453],[-99.4023,20.9342,898.1874],[-99.404,20.9359,933.7916],[-99.4066,20.9341,925.6068],[-99.4072,20.9371,923.9717],[-99.3977,20.9431,893.8242],[-99.3906,20.9523,887.8149],[-99.3927,20.9583,894.1759],[-99.3912,20.9635,940.8324],[-99.3883,20.9662,1049.0483],[-99.3947,20.9731,1193.5813],[-99.3963,20.9811,1383.8011],[-99.3934,20.9827,1039.6251],[-99.3913,20.9867,1037.2432],[-99.3937,20.9904,1100.1714],[-99.3919,20.9975,1059.4363],[-99.3897,21.0004,1057.3285],[-99.39,21.0041,983.0003],[-99.384,21.0074,1118.3699],[-99.3832,21.0122,1097.417],[-99.3851,21.0155,945.032],[-99.3846,21.0181,822.9482],[-99.3773,21.021,1000.4505],[-99.3752,21.0243,860.9435],[-99.3684,21.0248,878.6906],[-99.3665,21.0338,826.4846],[-99.3675,21.0375,851.6436],[-99.3632,21.0417,803.7549],[-99.3648,21.0438,779.979],[-99.3642,21.0492,754.9637],[-99.3679,21.0495,797.0361],[-99.3719,21.0558,791.4391],[-99.3771,21.0566,762.9395],[-99.3767,21.0594,739.7055],[-99.3736,21.0621,835.3347],[-99.3694,21.0608,907.7714],[-99.3682,21.0618,907.7714],[-99.3663,21.0662,747.6411],[-99.3674,21.0695,717.9417],[-99.3723,21.0733,723.8752],[-99.3758,21.0734,691.1613],[-99.3842,21.0679,918.4071],[-99.3877,21.0678,861.4747],[-99.3896,21.0718,969.3132],[-99.388,21.0765,986.8899],[-99.3888,21.0793,828.8345],[-99.3943,21.0794,1080.3044],[-99.3945,21.0853,802.9257],[-99.3987,21.089,736.2428],[-99.3995,21.0952,709.2791],[-99.397,21.0984,719.7502],[-99.3974,21.102,661.6317],[-99.3915,21.101,650.2977],[-99.3885,21.1041,627.7964],[-99.3821,21.1013,624.0237],[-99.3793,21.1018,647.3507],[-99.3769,21.0982,631.1445],[-99.3718,21.1018,608.1941],[-99.3668,21.1019,667.1986],[-99.361,21.1048,639.4871],[-99.3588,21.0997,583.1683],[-99.3533,21.1029,608.7499],[-99.3464,21.1009,571.2124],[-99.344,21.1073,563.649],[-99.3412,21.1101,569.2046],[-99.3439,21.1145,612.5134],[-99.3418,21.1237,581.448],[-99.3376,21.1261,563.8806],[-99.3359,21.1303,552.8031],[-99.3311,21.1301,584.6789],[-99.3254,21.134,576.0001],[-99.3233,21.1396,593.4955],[-99.3092,21.1473,618.0796],[-99.3049,21.1444,643.6249],[-99.3024,21.1393,531.5721],[-99.2981,21.1417,556.489],[-99.2945,21.141,565.3206],[-99.2885,21.1358,588.5275],[-99.2869,21.131,573.7865],[-99.2832,21.1318,582.3205],[-99.2839,21.1254,600.7419],[-99.2823,21.1221,604.0692],[-99.2778,21.1203,572.7655],[-99.2757,21.1234,541.8369],[-99.2723,21.1216,553.4862],[-99.2703,21.119,558.6866],[-99.2722,21.1148,551.025],[-99.2713,21.1131,572.3634],[-99.2618,21.1094,529.3143],[-99.256,21.1042,527.8142],[-99.2473,21.1013,632.7538],[-99.2342,21.1128,504.6287],[-99.2306,21.1076,476.6039],[-99.2261,21.108,475.6751],[-99.2236,21.1057,470.7102],[-99.2154,21.1062,530.4608],[-99.2095,21.1102,595.3623],[-99.21,21.1151,528.1456],[-99.2062,21.1187,548.1563],[-99.1958,21.1219,476.5284],[-99.1846,21.1223,470.1253],[-99.1802,21.1274,526.5723],[-99.1755,21.1384,453.7466],[-99.171,21.1375,443.5978],[-99.1673,21.1401,423.9751],[-99.1635,21.1399,454.7999],[-99.1501,21.1479,420.2636],[-99.1442,21.1451,404.7404],[-99.1391,21.1508,424.147],[-99.1349,21.1526,441.6363],[-99.1306,21.1524,458.8435],[-99.1264,21.1466,384.218],[-99.1115,21.1485,354.6226],[-99.1122,21.154,351.8898],[-99.1109,21.1566,336.8502],[-99.1035,21.1534,374.1143],[-99.096,21.1547,352.3758],[-99.0909,21.153,339.0297],[-99.084,21.1596,353.498],[-99.077,21.1591,339.7442],[-99.0769,21.1624,327.6288],[-99.0706,21.167,391.2211],[-99.0776,21.1705,314.1763],[-99.0765,21.1735,330.8127],[-99.0717,21.1722,303.0203],[-99.0647,21.1751,317.5443],[-99.0624,21.1743,349.0577],[-99.0598,21.1675,316.602],[-99.0643,21.167,310.2507],[-99.0727,21.158,302.4534],[-99.0613,21.1542,285.3063],[-99.0575,21.1597,297.7407],[-99.0547,21.1595,287.6008],[-99.0541,21.1655,363.2918],[-99.0486,21.1698,412.7604],[-99.0467,21.1741,464.278],[-99.0479,21.1779,438.4178],[-99.0431,21.1787,634.4567],[-99.0504,21.2099,956.9024],[-99.0526,21.2128,1058.5271],[-99.0524,21.2195,987.5637],[-99.0561,21.2224,1227.0984],[-99.0675,21.2233,1537.0728],[-99.0735,21.2304,1551.9357],[-99.0734,21.2388,1546.0171],[-99.0699,21.2431,1548.5516],[-99.0568,21.247,1502.7661],[-99.0554,21.2505,1418.551],[-99.0512,21.2534,1195.5366],[-99.0523,21.27,1026.9877],[-99.0506,21.2747,736.8105],[-99.0532,21.2816,537.4697],[-99.0579,21.2847,522.3375],[-99.0614,21.2795,529.2399],[-99.0755,21.2888,1519.022],[-99.078,21.2927,1727.5869],[-99.0799,21.293,1732.9218],[-99.0789,21.2952,1763.6301],[-99.083,21.2963,1552.8185],[-99.091,21.2947,1625.5808],[-99.0932,21.2917,1754.4227],[-99.1043,21.2896,1551.9795],[-99.1058,21.302,1910.6509],[-99.121,21.3097,2021.7585],[-99.1276,21.3183,2129.5513],[-99.1028,21.3179,1420.0057],[-99.1029,21.3212,1566.8707],[-99.1378,21.3298,2451.2595],[-99.1295,21.362,2297.2705],[-99.0926,21.3634,2364.0332],[-99.0979,21.3776,2011.2004],[-99.0928,21.3817,2220.5178],[-99.0981,21.4084,2383.9541],[-99.1059,21.4116,2517.6348],[-99.1052,21.4205,2416.3579],[-99.126,21.4605,2062.0615],[-99.1291,21.4713,1642.7631],[-99.1298,21.5017,1414.9961],[-99.1369,21.5141,1397.561],[-99.1423,21.5354,1285.3833],[-99.1305,21.579,1377.5098],[-99.1283,21.5817,1343.6545],[-99.1283,21.5898,1327.515],[-99.1304,21.5923,1190.8252],[-99.1306,21.5966,1261.6951],[-99.1351,21.5973,1136.958],[-99.1387,21.6038,1249.7493],[-99.1719,21.627,843.2947],[-99.1689,21.631,848.6754],[-99.1732,21.6381,727.2552],[-99.1817,21.6614,656.2389],[-99.1882,21.67,211.4288],[-99.1983,21.665,205.2753],[-99.2108,21.6675,207.6201],[-99.2177,21.6666,185.2511],[-99.2167,21.6534,209.5523],[-99.2227,21.6469,192.7388],[-99.2225,21.6433,191.2489],[-99.2254,21.6403,239.2607],[-99.2251,21.6333,225.799],[-99.2267,21.6318,211.607],[-99.2319,21.6313,212.6914],[-99.2406,21.6238,294.2438],[-99.2435,21.6151,245.3002],[-99.2553,21.6099,233.7358],[-99.2598,21.6117,220.201],[-99.2641,21.6109,220.8345],[-99.2739,21.6062,220.2887],[-99.2807,21.6079,215.8696],[-99.2824,21.5932,270.1866],[-99.2817,21.585,249.8777],[-99.274,21.5678,266.5794],[-99.2744,21.5653,279.6835],[-99.2793,21.5601,272.0201],[-99.2907,21.558,259.956],[-99.2914,21.5556,364.7004],[-99.2893,21.5504,278.6951],[-99.2969,21.5446,294.216],[-99.2984,21.5404,406.0942],[-99.3055,21.5329,330.6614],[-99.3079,21.532,379.3487],[-99.3146,21.5348,365.7576],[-99.3201,21.5335,351.747],[-99.3273,21.5352,369.4407],[-99.3331,21.5379,351.8688],[-99.3409,21.5472,337.8643],[-99.3499,21.5524,340.9952],[-99.3637,21.5533,319.4115],[-99.3759,21.5479,346.5751],[-99.3764,21.5345,351.8139],[-99.3787,21.5296,343.3773],[-99.3701,21.5221,372.994],[-99.3729,21.5139,341.9705],[-99.372,21.5071,362.1587],[-99.3744,21.5033,329.4442],[-99.3789,21.5005,347.6241],[-99.3836,21.4987,385.6349],[-99.3867,21.5004,334.9756],[-99.3873,21.4941,387.6645],[-99.3847,21.4905,351.1428],[-99.3824,21.4809,351.4418],[-99.3884,21.4696,408.6622],[-99.3889,21.4649,360.3342],[-99.3909,21.4637,391.8651],[-99.3954,21.465,359.8856],[-99.3986,21.4634,413.0602],[-99.3956,21.4542,410.1171],[-99.3981,21.4489,368.6349],[-99.3969,21.4451,399.7545],[-99.3985,21.4428,377.9378],[-99.4025,21.4416,368.0914],[-99.4015,21.4378,368.5994],[-99.4059,21.4283,374.1021],[-99.4155,21.4291,384.754],[-99.4363,21.4499,381.5673],[-99.4474,21.4435,421.7463],[-99.4698,21.4465,398.7227],[-99.4736,21.4411,384.7672],[-99.4708,21.4366,388.185],[-99.4753,21.434,393.5203],[-99.4839,21.4328,400.8804],[-99.4884,21.422,453.2498],[-99.4975,21.4192,497.0835],[-99.5056,21.4189,474.396],[-99.5223,21.4283,472.7456],[-99.5315,21.4286,519.9866],[-99.5371,21.4315,538.5855],[-99.5408,21.4296,506.4559],[-99.5444,21.4302,500.3618],[-99.5519,21.4284,542.7124],[-99.5566,21.4366,1078.7947],[-99.5493,21.4471,1401.9004],[-99.5557,21.4498,1374.4723],[-99.5603,21.454,1413.0823],[-99.5644,21.4537,1479.1993],[-99.5732,21.4663,1501.0383],[-99.5903,21.4777,1473.1384],[-99.592,21.4863,1383.3623],[-99.6099,21.4939,1412.4478],[-99.6258,21.5073,1385.6215],[-99.6256,21.5112,1343.4362],[-99.6304,21.5198,1337.5048],[-99.6434,21.5345,1299.1049],[-99.6441,21.5427,1236.0635],[-99.6595,21.5679,1112.02],[-99.6664,21.5678,1044.8085],[-99.6947,21.5726,982.7024],[-99.7003,21.5727,1008.3903],[-99.7055,21.5707,992.4811],[-99.7467,21.5784,1084.931],[-99.7528,21.5439,1048.2886],[-99.7521,21.5393,910.3149],[-99.7504,21.539,910.3149],[-99.752,21.5385,885.3787],[-99.7509,21.5356,859.2968],[-99.7492,21.5373,887.0392],[-99.7464,21.5364,877.2242],[-99.7467,21.5315,800.4344],[-99.7482,21.5311,780.3585],[-99.7513,21.534,826.7565],[-99.7526,21.5327,762.968],[-99.751,21.5295,704.7126],[-99.7486,21.5295,727.4119],[-99.7486,21.527,654.7481],[-99.7501,21.5266,654.7481],[-99.7493,21.5232,611.0466],[-99.755,21.5208,653.7927],[-99.7567,21.5142,691.6679],[-99.762,21.5133,648.7681],[-99.7658,21.5093,673.603],[-99.771,21.5068,655.4054],[-99.7774,21.496,679.1539],[-99.7741,21.4918,719.3619],[-99.7753,21.4887,861.0991],[-99.7729,21.4859,863.108],[-99.7746,21.4829,782.1344],[-99.7731,21.4763,891.6846],[-99.7773,21.4702,939.7747],[-99.7741,21.4704,860.1766],[-99.7718,21.4663,888.7128],[-99.777,21.46,968.9601],[-99.7743,21.4563,953.523],[-99.7782,21.4465,1046.611],[-99.7762,21.4425,1040.3464],[-99.7788,21.4409,1044.6567],[-99.7806,21.4348,1171.8955],[-99.7787,21.4333,1197.432],[-99.7797,21.4299,1183.2964],[-99.7759,21.427,1227.5283],[-99.7804,21.4142,1202.3],[-99.7763,21.4076,1211.0332],[-99.7721,21.4064,1243.147],[-99.7733,21.4008,1242.1865],[-99.7794,21.3946,1288.2573],[-99.779,21.3903,1336.4884],[-99.7803,21.3894,1336.4884],[-99.7762,21.3833,1471.5863],[-99.7755,21.375,1553.7708],[-99.781,21.3685,1640.2867],[-99.7945,21.3574,2007.6638],[-99.7921,21.3439,2131.4128],[-99.7776,21.3432,2497.582],[-99.7843,21.3325,2498.1611],[-99.7849,21.3279,2432.3643],[-99.7878,21.3296,2482.3855],[-99.784,21.3201,2378.592],[-99.7799,21.313,2176.0525],[-99.7722,21.3093,2074.5017],[-99.7724,21.308,2000.6039],[-99.7657,21.3034,2167.1382],[-99.7579,21.2921,2027.5134],[-99.7524,21.2918,1816.0957],[-99.7342,21.3014,2220.8669],[-99.7343,21.3083,2300.0308],[-99.7373,21.3129,2318.7759],[-99.7076,21.3145,1707.4005],[-99.6983,21.3096,2154.5305],[-99.6856,21.3083,2134.4766],[-99.6713,21.3012,1891.7379],[-99.678,21.2888,1013.6447],[-99.6991,21.2667,1815.3976],[-99.6987,21.2408,2578.3428],[-99.6919,21.2341,2592.4231],[-99.6879,21.2258,2529.426],[-99.7385,21.2358,1689.5435],[-99.7465,21.2253,1637.3773],[-99.7581,21.2164,1742.4739],[-99.7685,21.2117,1796.6144],[-99.7732,21.2071,1816.9198],[-99.7758,21.2073,1825.1205],[-99.777,21.1959,1890.0209],[-99.8001,21.1799,2398.9385],[-99.808,21.1763,2362.1108],[-99.8074,21.1753,2311.4978],[-99.8151,21.167,2395.1221],[-99.818,21.1669,2377.9902],[-99.8172,21.1656,2377.9902],[-99.8313,21.1573,2239.9922],[-99.8417,21.1589,2288.333],[-99.8493,21.1642,2293.3945],[-99.859,21.1646,2232.5825],[-99.8716,21.1697,2095.4131],[-99.8793,21.168,2158.3091],[-99.8853,21.1702,2261.1233],[-99.8883,21.1696,2370.8723],[-99.8886,21.1738,2391.9917],[-99.8952,21.1776,2265.1487],[-99.8993,21.1839,2175.6296],[-99.922,21.1905,2096.5681],[-99.9295,21.1907,2082.3159],[-99.9426,21.1944,2023.9152],[-99.9454,21.2099,1989.5103],[-99.949,21.2101,2023.1849],[-99.9547,21.2057,2057.9124],[-99.9551,21.2071,2027.2131],[-99.9479,21.2124,2006.9192],[-99.9786,21.216,2055.572],[-99.9864,21.2183,1926.0275],[-100.0111,21.1895,2496.0479],[-100.0012,21.1885,2363.3611],[-99.9964,21.1826,2206.1787],[-100.0041,21.1737,2468.3071],[-100.0024,21.1687,2485.9204],[-100.0059,21.1611,2314.2422],[-100.0029,21.159,2201.9844],[-100.003,21.1574,2202.4683],[-100.0071,21.1567,2213.8704],[-100.0084,21.1484,1868.1731],[-100.0129,21.1385,1678.8112],[-100.0168,21.123,1585.4033],[-100.02,21.1188,1632.5911],[-100.0208,21.1138,1706.5587],[-100.0245,21.1095,1813.0106],[-100.0275,21.1003,2017.4508],[-100.0219,21.1001,1900.2543],[-100.0219,21.093,2069.8335],[-100.0247,21.0828,2320.0554],[-100.0233,21.078,2283.1404],[-100.0264,21.0736,2390.6196],[-100.0203,21.064,2287.8296],[-100.0217,21.0613,2327.0974],[-100.0201,21.0598,2316.418],[-100.0198,21.0551,2362.3296],[-100.0067,21.0464,2341.1465],[-100.0109,21.0431,2373.0139],[-100.0122,21.036,2441.9121],[-100.0111,21.0285,2478.3953],[-100.0166,21.0235,2561.3816],[-100.0186,21.0176,2594.7825],[-100.0226,21.0146,2476.2207],[-100.0291,21.0151,2494.3491],[-100.0406,21.0222,2554.5674],[-100.0484,21.025,2505.6841],[-100.0485,21.0232,2362.4084],[-100.0545,21.0278,2445.4246],[-100.0612,21.0285,2270.1958],[-100.0689,21.0228,2180.3608],[-100.0686,21.0202,2319.1045],[-100.0648,21.0172,2452.3608],[-100.0607,21.0058,2557.8728],[-100.0714,20.9923,2378.7886],[-100.0728,20.9932,2378.7886],[-100.0738,20.9918,2382.5259],[-100.0732,20.9877,2387.4473],[-100.0699,20.9835,2406.2212],[-100.0764,20.9781,2432.9312],[-100.078,20.9727,2449.145],[-100.0698,20.9648,2331.9141],[-100.0688,20.9579,2221.6609],[-100.0807,20.9499,2330.54],[-100.0737,20.9477,2342.1475],[-100.0721,20.9448,2300.6528],[-100.0669,20.9422,2250.1914],[-100.0642,20.9363,2317.5269],[-100.0927,20.9317,2515.656],[-100.1178,20.9222,2758.4521],[-100.127,20.9281,2796.5808],[-100.1288,20.9344,2732.3887],[-100.1344,20.9348,2724.7478],[-100.1353,20.9373,2683.0928],[-100.1784,20.9387,3186.7678],[-100.1815,20.9304,3178.9978],[-100.1845,20.9314,3179.0269],[-100.1842,20.9332,3211.5017],[-100.1878,20.9325,3281.2275],[-100.2009,20.937,2911.8086],[-100.2393,20.9608,2274.0588],[-100.2636,20.971,2374.0042],[-100.2678,20.9686,2347.0642],[-100.2721,20.963,2415.958],[-100.2679,20.9574,2378.2329],[-100.2618,20.9534,2411.8254],[-100.2634,20.9493,2473.9897],[-100.2627,20.9335,2592.9775],[-100.2655,20.9292,2745.9448],[-100.2992,20.9313,2760.8425],[-100.3042,20.9283,2612.2322],[-100.3054,20.9238,2621.5273],[-100.3037,20.9195,2589.2808],[-100.2984,20.9153,2518.8506],[-100.3336,20.8907,2660.9124],[-100.3813,20.8905,2285.5093],[-100.3944,20.8922,2168.0962],[-100.4134,20.8874,2103.7231],[-100.454,20.9002,2478.4377],[-100.4532,20.9232,2350.1907],[-100.461,20.9233,2300.1765],[-100.4722,20.9284,2332.5452],[-100.47,20.907,2539.6458],[-100.4854,20.9088,2391.136],[-100.485,20.9008,2414.5615],[-100.4916,20.8962,2481.8792],[-100.4923,20.8926,2389.7493],[-100.5027,20.8755,2270.2981],[-100.509,20.8707,2199.011],[-100.5073,20.8695,2177.5588],[-100.502,20.8529,2115.969],[-100.525,20.845,2332.1868],[-100.5318,20.8402,2300.5293],[-100.5593,20.8299,2701.0518],[-100.5663,20.8208,2575.481],[-100.5697,20.8212,2595.4705],[-100.5776,20.8167,2664.6489],[-100.5778,20.8084,2531.8457],[-100.5734,20.8037,2702.9307],[-100.5707,20.8059,2423.3855],[-100.5583,20.8046,2305.7878],[-100.5641,20.7747,2417.8328],[-100.5629,20.7685,2330.3882],[-100.5595,20.7626,2339.355],[-100.5481,20.7496,2338.3948],[-100.5489,20.7364,2259.7012],[-100.5844,20.7289,2237.3433],[-100.5883,20.7224,2186.8523],[-100.5965,20.7173,2133.6128],[-100.5902,20.7107,2153.9109],[-100.5813,20.6929,2082.5127],[-100.5808,20.6898,2086.5649],[-100.5842,20.6829,2072.2363],[-100.5836,20.6784,2017.762],[-100.574,20.6721,1991.7847],[-100.5619,20.6714,1978.9426],[-100.5511,20.6338,1850.7328],[-100.537,20.6385,1886.1492],[-100.5295,20.6387,1910.8107],[-100.5261,20.6327,1913.7445],[-100.5271,20.6298,1894.8929],[-100.5215,20.6249,1841.9685],[-100.5184,20.6258,1850.697],[-100.5163,20.6226,1866.0394],[-100.5143,20.6238,1864.7832],[-100.4979,20.6158,1877.2175],[-100.4962,20.6162,1828.7383],[-100.4943,20.6105,1834.6187],[-100.4957,20.6092,1883.5699],[-100.4912,20.5988,1815.3872],[-100.4897,20.5982,1801.1559],[-100.4864,20.5884,1798.1985],[-100.4875,20.5879,1802.8282],[-100.4822,20.5764,1800.801],[-100.4821,20.5715,1806.1899],[-100.4839,20.5714,1814.8314],[-100.485,20.5538,1834.2285],[-100.5048,20.555,1816.063],[-100.5085,20.5262,1839.994],[-100.5077,20.5185,1853.1361],[-100.5032,20.5197,1871.3018],[-100.5011,20.5126,1862.099],[-100.5098,20.5065,1853.0308],[-100.4974,20.5048,1885.4484],[-100.5003,20.5002,1893.5581],[-100.4977,20.4914,1908.8287],[-100.4924,20.4904,1985.0156],[-100.4925,20.4814,2002.1279],[-100.4909,20.4754,1985.7559],[-100.4884,20.4733,1995.6377],[-100.4899,20.4615,2121.3911],[-100.4895,20.4314,2046.3104],[-100.4885,20.4258,2023.7588],[-100.4783,20.4163,2059.0173],[-100.4759,20.4033,2054.6763],[-100.4762,20.3896,2066.6094],[-100.4678,20.3866,2091.1548],[-100.4435,20.387,2127.5576],[-100.41,20.376,2147.5632],[-100.4095,20.3707,2153.7166],[-100.405,20.3671,2155.9624],[-100.4033,20.3608,2165.4675],[-100.394,20.3502,2194.7998],[-100.3908,20.3364,2256.8625],[-100.392,20.3143,2375.4116],[-100.386,20.3065,2404.7363],[-100.3813,20.3031,2440.1482],[-100.3792,20.3019,2441.7334],[-100.3695,20.3025,2447.2974],[-100.3592,20.2935,2481.22],[-100.3507,20.2884,2453.0068],[-100.3458,20.298,2482.7388],[-100.3075,20.2856,2555.5642],[-100.3093,20.2824,2500.6082],[-100.2605,20.2675,2739.4241],[-100.2451,20.2504,2898.2075],[-100.2243,20.2379,2640.1741],[-100.2216,20.2346,2625.6985],[-100.2072,20.2294,2608.7026],[-100.1965,20.2223,2613.4478],[-100.1845,20.2116,2583.7737],[-100.1839,20.209,2583.1143],[-100.1811,20.2088,2580.9961],[-100.1842,20.1894,2620.9802],[-100.1853,20.1943,2609.1365],[-100.1884,20.1942,2596.3213],[-100.1919,20.176,2658.6284],[-100.2033,20.1718,2693.3643],[-100.2038,20.167,2690.1519],[-100.2096,20.1635,2649.0312],[-100.2094,20.1613,2634.2319],[-100.2133,20.1568,2601.0735],[-100.2219,20.1506,2569.5532],[-100.2275,20.15,2561.5229],[-100.2294,20.1469,2564.2778],[-100.2356,20.1435,2531.5215],[-100.1974,20.1299,2418.7563],[-100.2015,20.0777,2358.3655],[-100.2029,20.0766,2361.9099],[-100.1975,20.0771,2357.4646],[-100.1932,20.0748,2355.2402],[-100.1893,20.0764,2358.4958],[-100.1879,20.0799,2354.863],[-100.185,20.0803,2355.6304],[-100.1835,20.0827,2355.8989],[-100.1798,20.083,2357.4929],[-100.1789,20.0813,2356.7332],[-100.1831,20.0739,2362.4521],[-100.1767,20.0709,2363.915],[-100.1728,20.0733,2358.6802],[-100.1717,20.0782,2357.7581],[-100.1668,20.0748,2356.8159],[-100.1645,20.0783,2356.9905],[-100.1635,20.0763,2357.646],[-100.1581,20.0747,2359.1353],[-100.1573,20.0711,2360.9678],[-100.1623,20.0673,2364.1006],[-100.1588,20.0658,2357.2026],[-100.1623,20.0643,2358.0522],[-100.1622,20.0625,2357.6523],[-100.1522,20.0573,2358.3884],[-100.1468,20.0575,2359.4827],[-100.1433,20.0508,2359.0132],[-100.1381,20.0476,2358.8816],[-100.1379,20.0443,2360.2986],[-100.1338,20.0433,2359.0288],[-100.1327,20.0406,2358.6245],[-100.1266,20.0381,2360.3672],[-100.1203,20.0389,2359.7837],[-100.1186,20.0378,2360.0283],[-100.1196,20.036,2360.6299],[-100.1185,20.0338,2360.9512],[-100.1113,20.034,2361.0122],[-100.1108,20.0311,2361.3794],[-100.1055,20.0267,2362.3433],[-100.1016,20.0267,2360.9465],[-100.097,20.0233,2361.6001],[-100.0971,20.0273,2360.9167],[-100.0913,20.0243,2362.042],[-100.0882,20.0167,2361.5967],[-100.0888,20.015,2361.0486],[-100.0846,20.0225,2363.7166],[-100.085,20.0248,2363.5928],[-100.0813,20.0289,2365.9934],[-100.0796,20.0301,2365.9934],[-100.0724,20.0292,2405.7361],[-100.0722,20.0312,2379.2266],[-100.0656,20.0314,2406.02],[-100.0662,20.0362,2447.0737],[-100.0629,20.0369,2461.5793],[-100.0617,20.0388,2423.7666],[-100.0578,20.0399,2440.3706],[-100.0463,20.0361,2462.1025],[-100.0438,20.0366,2461.0544],[-100.0276,20.0566,2519.0095],[-100.0203,20.0597,2508.7964],[-100.0141,20.0593,2529.3999],[-100.0056,20.0642,2571.5],[-100.0004,20.0775,2535.3865],[-99.9785,20.074,2780.0681],[-99.9802,20.0591,2786.552],[-99.9691,20.0619,2969.6143],[-99.9641,20.0604,3056.7886],[-99.9615,20.0623,3024.0698],[-99.957,20.061,3044.9065],[-99.9435,20.0629,3092.0549]]]]}}