{"type":"Feature","properties":{"GID_2":"MEX.4.9_2","GID_0":"MEX","country":"México","GID_1":"MEX.4_1","province":"Campeche","NL_NAME_1":"NA","county":"Hopelchén","VARNAME_2":"NA","NL_NAME_2":"NA","TYPE_2":"Município","ENGTYPE_2":"Municipality","CC_2":"NA","HASC_2":"NA","name":"Hopelchén.county"},
"geometry":{"type": "MultiPolygon","coordinates": [[[[-89.1486,18.8773,106.5029],[-89.1471,18.995,83.8693],[-89.1358,19.1324,99.0896],[-89.147,19.1332,97.7076],[-89.1467,19.4239,121.9539],[-89.4125,19.6494,94.9661],[-89.4481,19.6984,97.4823],[-89.4683,19.7002,84.1591],[-89.4772,19.7111,94.8684],[-89.4917,19.7422,79.2885],[-89.4791,19.7406,83.6726],[-89.4759,19.7712,121.3799],[-89.5257,19.7756,77.7655],[-89.5361,19.7975,79.2214],[-89.5774,19.8535,109.4332],[-89.5718,19.853,114.4702],[-89.5875,19.8744,132.7509],[-89.5868,19.9205,142.4802],[-89.5974,19.9211,137.1314],[-89.5958,19.9374,132.3643],[-89.6047,19.9383,128.5434],[-89.5987,19.9982,137.2871],[-89.7485,20.1793,71.1266],[-89.7528,20.1765,73.0181],[-89.7735,20.1531,86.4971],[-89.7878,20.1444,101.543],[-89.794,20.1362,94.0098],[-89.8029,20.1649,79.1853],[-89.8025,20.2016,71.8423],[-89.8435,20.2093,76.7445],[-89.8558,20.1102,78.1667],[-89.8589,20.0674,140.8687],[-89.8612,20.0675,137.7695],[-89.8661,20.0625,139.3071],[-89.868,20.0211,132.6091],[-89.9051,20.0241,93.7729],[-89.9077,19.9849,121.0713],[-89.9104,19.9806,117.4717],[-89.91,19.971,98.1273],[-89.9171,19.9706,85.4579],[-89.918,19.9589,99.3917],[-89.9225,19.9585,97.5343],[-89.9223,19.9454,110.6738],[-89.9027,19.9452,93.9615],[-89.9046,19.9202,84.4027],[-90.0,19.9169,97.0611],[-89.9998,19.9036,105.0633],[-89.9935,19.9036,68.8062],[-89.9936,19.8901,103.6895],[-90.0077,19.8923,84.5158],[-90.0361,19.9029,62.9964],[-90.036,19.8449,73.8872],[-90.0044,19.8398,77.9882],[-89.9967,19.8491,74.6252],[-90.0,19.7851,92.5556],[-90.0199,19.7871,83.7657],[-90.0192,19.7942,92.8158],[-90.0237,19.804,103.8945],[-90.0241,19.8114,100.3513],[-90.0553,19.8222,84.5333],[-90.0659,19.791,97.5732],[-90.0518,19.7891,65.2051],[-90.0313,19.7744,89.9135],[-90.0577,19.7244,82.1627],[-90.0612,19.7268,79.9202],[-90.0857,19.6777,110.8678],[-90.0706,19.6767,120.0654],[-90.0348,19.6658,134.1909],[-90.009,19.6939,106.3205],[-90.0059,19.6939,113.3375],[-90.0121,19.6868,112.6108],[-90.004,19.6841,113.862],[-90.0036,19.6768,117.4567],[-89.9905,19.6752,100.7193],[-89.9926,19.6704,99.9917],[-89.9834,19.6694,94.1435],[-89.987,19.6402,103.6107],[-90.0101,19.6322,103.8042],[-90.0019,19.602,88.1243],[-89.9984,19.6015,86.438],[-89.9925,19.5477,84.2178],[-89.9858,19.5471,89.7746],[-89.9857,19.5485,89.7746],[-89.95,19.5362,121.1168],[-89.9571,19.5072,100.965],[-89.9853,19.5034,82.731],[-89.9805,19.4711,91.7385],[-89.9888,19.4744,90.1635],[-89.9904,19.4634,98.8923],[-89.982,19.4619,95.5744],[-89.9795,19.4468,111.8134],[-89.9688,19.4398,132.6303],[-89.9707,19.4347,127.1256],[-89.964,19.4295,133.6095],[-89.9659,19.4259,119.4544],[-89.9238,19.4051,157.7716],[-89.8644,19.4112,159.7803],[-89.8611,19.3729,150.4829],[-89.8653,19.2939,149.944],[-89.9128,19.2958,153.7131],[-89.9221,19.2163,106.8321],[-89.9298,19.0248,128.0127],[-89.7775,19.0318,162.4277],[-89.7723,19.0648,157.9768],[-89.5881,19.06,239.9571],[-89.5757,19.162,176.1744],[-89.4805,19.1526,227.1746],[-89.4821,19.1345,236.088],[-89.4797,19.1345,250.2737],[-89.4771,18.9522,255.7757],[-89.369,18.9571,180.1986],[-89.3011,18.9533,132.7119],[-89.2335,18.9565,107.6732],[-89.236,18.927,114.1175],[-89.2289,18.873,145.1458],[-89.2069,18.8756,146.6121],[-89.1486,18.8773,106.5029]]]]}}