{"type":"Feature","properties":{"GID_2":"MEX.20.509_2","GID_0":"MEX","country":"México","GID_1":"MEX.20_1","province":"Oaxaca","NL_NAME_1":"NA","county":"SantoDomingoChihuitán","VARNAME_2":"NA","NL_NAME_2":"NA","TYPE_2":"Município","ENGTYPE_2":"Municipality","CC_2":"NA","HASC_2":"NA","name":"Santo_Domingo_Chihuitán.county"},
"geometry":{"type": "MultiPolygon","coordinates": [[[[-95.1596,16.5489,112.6167],[-95.1594,16.568,126.1176],[-95.1462,16.5649,85.3822],[-95.141,16.5877,77.7533],[-95.1396,16.5873,78.4907],[-95.1382,16.591,70.6104],[-95.1326,16.5887,66.3941],[-95.1333,16.5943,63.8499],[-95.1391,16.5946,65.5235],[-95.1411,16.5994,69.3976],[-95.1515,16.6087,85.3903],[-95.1544,16.6576,180.2161],[-95.1644,16.6543,161.066],[-95.1693,16.6949,728.3582],[-95.1622,16.7112,880.3229],[-95.1997,16.7117,801.5884],[-95.2011,16.6724,243.8038],[-95.1991,16.6693,240.6924],[-95.1984,16.6235,137.1757],[-95.1932,16.6214,93.3849],[-95.1892,16.6149,100.4408],[-95.1854,16.6118,89.8745],[-95.1799,16.6093,88.291],[-95.1773,16.6111,84.8149],[-95.1783,16.6031,99.3447],[-95.1802,16.6011,100.605],[-95.1827,16.6017,101.9381],[-95.1849,16.589,114.5845],[-95.1869,16.5525,166.6915],[-95.166,16.5512,133.2675],[-95.1596,16.5489,112.6167]]]]}}