{"type": "Feature","bbox": [-96.3106,15.9485,-96.1173,16.0854],"geometry": {"type": "MultiPolygon","coordinates": [[[[-96.2959,16.0851,1974.4229],[-96.3005,16.0796,1695.127],[-96.2865,16.0608,1850.1499],[-96.2865,16.0437,1675.2755],[-96.2819,16.0439,1590.8114],[-96.2772,16.039,1257.3715],[-96.2838,16.0389,1486.4784],[-96.2921,16.035,1720.0175],[-96.2922,16.0296,1616.2664],[-96.2846,16.0205,1153.4299],[-96.2889,16.0189,1232.9661],[-96.294,16.0217,1444.252],[-96.2974,16.0116,1063.8077],[-96.3101,16.0126,899.8445],[-96.3106,16.0084,984.9095],[-96.3036,16.0048,1185.0713],[-96.2967,16.0035,1466.2451],[-96.2926,16.0002,1159.5891],[-96.2924,15.9961,1007.6495],[-96.2899,15.9943,1042.0345],[-96.2876,15.9943,1156.4838],[-96.2855,15.9968,1294.329],[-96.2804,15.9966,1159.4092],[-96.2758,15.9933,1094.5869],[-96.276,15.9899,995.9202],[-96.2737,15.9851,877.2342],[-96.2757,15.9797,635.4487],[-96.2811,15.975,490.8944],[-96.2808,15.9705,507.4567],[-96.2698,15.969,503.6591],[-96.2639,15.9701,478.3533],[-96.2632,15.9658,472.8929],[-96.2651,15.9633,455.4711],[-96.2601,15.9614,487.472],[-96.2588,15.9593,446.8623],[-96.2549,15.9615,438.7268],[-96.2529,15.9573,464.0141],[-96.2535,15.9526,421.1328],[-96.2514,15.953,428.5856],[-96.2478,15.9574,417.5404],[-96.2476,15.9546,427.9897],[-96.2448,15.9534,423.3267],[-96.2455,15.9638,408.4689],[-96.2441,15.9636,383.906],[-96.2435,15.96,383.2717],[-96.2419,15.9591,383.2717],[-96.2415,15.9637,378.2622],[-96.2364,15.9609,369.7868],[-96.2326,15.9647,364.7867],[-96.2292,15.965,353.36],[-96.2263,15.964,393.8593],[-96.2231,15.9592,353.0501],[-96.2173,15.9592,335.1314],[-96.2146,15.9559,343.2328],[-96.218,15.9514,323.1982],[-96.2171,15.9496,336.3928],[-96.2149,15.9486,348.8743],[-96.2127,15.9503,314.2658],[-96.2094,15.9485,300.0959],[-96.2067,15.9494,334.1417],[-96.2066,15.9525,335.9387],[-96.2032,15.9528,332.6808],[-96.202,15.9555,383.9533],[-96.1991,15.9552,358.3485],[-96.1946,15.9623,369.2228],[-96.1951,15.9686,370.9532],[-96.1999,15.9719,456.3354],[-96.2027,15.9712,524.2865],[-96.2055,15.9744,669.9231],[-96.2022,15.9762,669.1594],[-96.1895,15.9689,382.8181],[-96.1791,15.9721,429.4504],[-96.1483,15.9598,1819.4648],[-96.1439,15.9626,1818.8994],[-96.1372,15.9876,1584.1429],[-96.1346,15.986,1503.9595],[-96.1291,15.9878,1483.9684],[-96.1269,15.984,1464.5083],[-96.1229,15.9857,1276.3473],[-96.125,15.9893,1259.8765],[-96.1212,15.9907,1212.2098],[-96.1213,15.9934,1175.8455],[-96.1173,15.997,1076.9456],[-96.1192,16.0009,1226.8718],[-96.1247,16.005,1664.2097],[-96.1259,16.0102,1815.7375],[-96.1185,16.0057,1425.9349],[-96.1179,16.0065,1373.8066],[-96.1259,16.0166,2072.8809],[-96.1252,16.0205,2427.9397],[-96.1233,16.0203,2270.1001],[-96.1278,16.0231,2538.1658],[-96.1324,16.0304,2030.4153],[-96.1407,16.0273,1896.1997],[-96.1448,16.0319,1774.1508],[-96.1512,16.0346,1236.3105],[-96.1613,16.0336,1079.7522],[-96.167,16.0347,741.0287],[-96.1679,16.0267,695.5988],[-96.1716,16.0232,632.7073],[-96.1687,16.0201,664.8098],[-96.1693,16.0152,663.9749],[-96.1723,16.0109,596.1481],[-96.1768,16.0094,586.564],[-96.18,16.0113,573.6934],[-96.1857,16.0087,543.138],[-96.1872,16.0166,792.3425],[-96.1931,16.0193,920.8214],[-96.2014,16.0194,1068.3041],[-96.2101,16.0136,1611.0005],[-96.2106,16.0213,1775.1191],[-96.2148,16.0291,1999.0742],[-96.2221,16.0257,1635.8396],[-96.2241,16.0231,1494.025],[-96.2302,16.0287,1749.2295],[-96.2363,16.0309,1327.0344],[-96.2337,16.0361,1477.4966],[-96.2382,16.0352,1464.7671],[-96.2408,16.038,1758.0945],[-96.2567,16.0462,1814.1108],[-96.2608,16.0449,1602.6052],[-96.2648,16.0468,1508.4185],[-96.2686,16.051,1642.9839],[-96.2666,16.0709,2549.3601],[-96.2626,16.0749,2806.1448],[-96.2656,16.0762,2908.8403],[-96.2654,16.0781,2992.4292],[-96.2592,16.079,3042.4321],[-96.272,16.0805,2813.519],[-96.2831,16.0854,2438.719],[-96.2959,16.0851,1974.4229]]]]}
,"properties": {"GID_2": "MEX.20.498_2","GID_0": "MEX","country": "México","GID_1": "MEX.20_1","province": "Oaxaca","NL_NAME_1": "NA","county": "SantiagoXanica","VARNAME_2": "NA","NL_NAME_2": "NA","TYPE_2": "Município","ENGTYPE_2": "Municipality","CC_2": "NA","HASC_2": "NA","name": "Santiago_Xanica.county","area_km2": 137.527,"hist_schema_id": "Elevation0-9000","hist_area_km2": {"300": 0.0408,"325": 0.1223,"350": 0.4689,"375": 0.5504,"400": 0.6727,"425": 1.0192,"450": 1.2638,"475": 1.5899,"500": 1.8345,"525": 2.1403,"550": 2.2625,"575": 2.3033,"600": 2.5479,"625": 2.609,"650": 3.2612,"675": 3.3835,"700": 3.6484,"725": 3.2,"750": 3.4649,"775": 3.3833,"800": 3.0776,"825": 3.4852,"850": 3.2406,"875": 3.424,"900": 2.9348,"925": 2.8125,"950": 3.0367,"975": 2.5883,"1000": 2.9347,"1025": 3.1182,"1050": 2.9348,"1075": 2.7717,"1100": 2.3029,"1125": 2.8328,"1150": 2.2622,"1175": 2.3029,"1200": 2.3437,"1225": 2.2622,"1250": 2.3437,"1275": 1.9972,"1300": 2.2622,"1325": 1.8749,"1350": 1.8342,"1375": 1.5488,"1400": 1.3451,"1425": 2.0583,"1450": 1.5081,"1475": 1.773,"1500": 1.3247,"1525": 1.773,"1550": 1.4266,"1575": 1.4877,"1600": 1.7934,"1625": 1.2839,"1650": 1.1004,"1675": 0.8355,"1700": 0.8151,"1725": 0.9578,"1750": 1.0393,"1775": 0.8355,"1800": 0.8967,"1825": 0.8559,"1850": 0.6521,"1875": 0.7336,"1900": 0.4075,"1925": 0.5502,"1950": 0.5502,"1975": 0.6317,"2000": 0.3464,"2025": 0.3464,"2050": 0.3057,"2075": 0.4279,"2100": 0.489,"2125": 0.4483,"2150": 0.3464,"2175": 0.3871,"2200": 0.2852,"2225": 0.2853,"2250": 0.4075,"2275": 0.2649,"2300": 0.2853,"2325": 0.2853,"2350": 0.2037,"2375": 0.2037,"2400": 0.2649,"2425": 0.2037,"2450": 0.1426,"2475": 0.2037,"2500": 0.163,"2525": 0.2649,"2550": 0.1834,"2575": 0.1834,"2600": 0.0815,"2625": 0.1222,"2650": 0.163,"2675": 0.1834,"2700": 0.1426,"2725": 0.1222,"2750": 0.1019,"2775": 0.0407,"2800": 0.1834,"2825": 0.1019,"2850": 0.0815,"2875": 0.1019,"2900": 0.0611,"2925": 0.0611,"2950": 0.0407,"2975": 0.0611,"3075": 0.0204}}}