{"type": "Feature","bbox": [-98.1968,16.3932,-98.0182,16.4955],"geometry": {"type": "MultiPolygon","coordinates": [[[[-98.1085,16.4955,82.9282],[-98.1267,16.4954,80.341],[-98.1425,16.4875,80.5349],[-98.1451,16.4876,78.2295],[-98.1568,16.4806,84.0926],[-98.168,16.4796,73.6706],[-98.1748,16.4776,75.2811],[-98.1769,16.4754,81.6198],[-98.1884,16.4727,70.5575],[-98.19,16.4702,75.0244],[-98.1942,16.4682,76.7373],[-98.1968,16.4535,116.2691],[-98.1825,16.4506,166.784],[-98.157,16.4511,153.9606],[-98.1544,16.4291,166.6963],[-98.1486,16.4273,168.8867],[-98.1446,16.4336,173.1203],[-98.1418,16.4295,199.6489],[-98.1427,16.4203,221.9845],[-98.1332,16.4152,220.3037],[-98.1326,16.4162,216.2767],[-98.125,16.4103,227.1942],[-98.1221,16.4077,257.5933],[-98.1232,16.4029,253.0896],[-98.1189,16.4028,275.0528],[-98.1169,16.4046,258.0333],[-98.1126,16.3986,257.7823],[-98.1097,16.3972,247.0557],[-98.1016,16.399,240.0403],[-98.0946,16.3966,262.9483],[-98.0908,16.3992,245.2043],[-98.0858,16.3932,280.5121],[-98.0624,16.3932,304.4108],[-98.0442,16.4007,499.1414],[-98.0353,16.3997,716.2582],[-98.0182,16.4145,493.3299],[-98.0347,16.4287,397.905],[-98.0675,16.4439,265.8352],[-98.087,16.4575,213.3755],[-98.0972,16.4717,191.7346],[-98.1052,16.4768,158.7969],[-98.109,16.4846,109.0478],[-98.1085,16.4955,82.9282]]]]}
,"properties": {"GID_2": "MEX.20.287_2","GID_0": "MEX","country": "México","GID_1": "MEX.20_1","province": "Oaxaca","NL_NAME_1": "NA","county": "SanMiguelTlacamama","VARNAME_2": "NA","NL_NAME_2": "NA","TYPE_2": "Município","ENGTYPE_2": "Municipality","CC_2": "NA","HASC_2": "NA","name": "San_Miguel_Tlacamama.county","area_km2": 104.42197,"hist_schema_id": "Elevation0-9000","hist_area_km2": {"75": 2.13481,"100": 4.63556,"125": 6.66883,"150": 8.17363,"175": 9.06875,"200": 13.15666,"225": 23.95548,"250": 17.8356,"275": 7.32173,"300": 3.72199,"325": 1.5457,"350": 1.07792,"375": 0.95589,"400": 0.48812,"425": 0.69151,"450": 0.5288,"475": 0.77286,"500": 0.67117,"525": 0.38643,"550": 0.1017,"575": 0.14237,"600": 0.08136,"625": 0.1017,"650": 0.1017,"675": 0.02034,"700": 0.08136}}}