{"type":"Feature","properties":{"GID_2":"MEX.31.48_2","GID_0":"MEX","country":"México","GID_1":"MEX.31_1","province":"Yucatán","NL_NAME_1":"NA","county":"Maxcanú","VARNAME_2":"NA","NL_NAME_2":"NA","TYPE_2":"Município","ENGTYPE_2":"Municipality","CC_2":"NA","HASC_2":"NA","name":"Maxcanú.county"},
"geometry":{"type": "MultiPolygon","coordinates": [[[[-90.3819,20.7473,2.6759],[-90.3361,20.7473,3.2928],[-90.337,20.6257,1.7093],[-90.3218,20.6265,3.9426],[-90.3168,20.6475,4.1676],[-90.3256,20.6495,1.3652],[-90.3245,20.7103,3.2557],[-90.2861,20.6886,1.9889],[-90.2886,20.6849,1.6409],[-90.2778,20.6745,3.9613],[-90.2733,20.6807,1.4302],[-90.2255,20.65,4.1311],[-90.2251,20.6319,4.8108],[-90.2155,20.6316,3.3066],[-90.2154,20.622,5.789],[-90.1982,20.6205,5.4722],[-90.1984,20.6244,4.0269],[-90.1857,20.6253,5.5365],[-90.186,20.6099,5.6653],[-90.1975,20.61,6.1399],[-90.1928,20.5904,6.6009],[-90.1655,20.5803,7.8604],[-90.1629,20.5847,6.8039],[-90.1541,20.5917,6.8414],[-90.1461,20.5886,6.1197],[-90.1394,20.588,8.4779],[-90.1349,20.5809,7.8031],[-90.1332,20.5934,6.8755],[-90.1192,20.5919,6.2541],[-90.1201,20.5856,7.0097],[-90.109,20.5834,10.7795],[-90.1112,20.5594,8.7899],[-90.0984,20.5593,9.1964],[-90.0541,20.5547,11.1362],[-90.0679,20.5165,10.722],[-90.0485,20.5142,14.7082],[-90.0458,20.5057,17.0802],[-90.0376,20.4997,17.0424],[-90.0335,20.536,16.4906],[-90.0221,20.5338,27.0016],[-90.0226,20.5271,23.2611],[-90.014,20.5261,28.9213],[-90.0132,20.5205,27.5539],[-90.0078,20.5212,31.0131],[-90.0024,20.5188,34.191],[-90.0047,20.5139,31.8902],[-89.9967,20.5107,33.0621],[-89.9987,20.5048,28.4171],[-89.9978,20.4998,32.2711],[-89.9996,20.4978,32.3783],[-90.0022,20.4983,29.1562],[-90.0042,20.487,29.1592],[-89.9025,20.3648,32.8948],[-89.902,20.3702,48.0934],[-89.8859,20.3714,40.4749],[-89.8935,20.3544,52.2089],[-89.8707,20.3521,61.8453],[-89.8699,20.3792,53.9121],[-89.8557,20.3778,67.8326],[-89.8504,20.3829,63.2502],[-89.8331,20.4208,43.9966],[-89.8298,20.433,44.6326],[-89.8252,20.464,59.8442],[-89.8866,20.4694,44.4833],[-89.8832,20.492,37.0896],[-89.9119,20.4938,30.6278],[-89.9098,20.5121,47.2112],[-89.9208,20.5141,48.2292],[-89.9186,20.5192,46.7763],[-89.9471,20.5218,46.4992],[-89.926,20.5575,51.6413],[-89.9621,20.5705,47.7943],[-89.9604,20.584,14.6467],[-89.9628,20.5856,15.6896],[-89.9611,20.5888,15.0783],[-89.9598,20.5886,14.2266],[-89.9587,20.597,14.7383],[-89.9694,20.597,14.1664],[-89.9658,20.6052,16.7725],[-89.9792,20.6153,14.0387],[-89.9788,20.6193,12.9307],[-89.9748,20.625,12.2479],[-89.9744,20.6326,12.7188],[-89.9954,20.6362,10.8469],[-89.9947,20.6391,10.862],[-90.0011,20.6403,13.009],[-89.9994,20.6483,12.5444],[-90.0046,20.6489,9.9569],[-90.0043,20.6517,8.8894],[-90.0256,20.6551,11.3445],[-90.0217,20.6761,13.9817],[-89.9852,20.6699,15.5987],[-89.9862,20.6601,13.3573],[-89.9769,20.6506,12.6328],[-89.9255,20.6641,12.5398],[-89.922,20.6909,14.3979],[-89.9356,20.6912,15.3697],[-89.9462,20.6936,13.6214],[-89.9471,20.6902,14.2063],[-89.9569,20.6927,14.3308],[-89.9553,20.6964,15.0151],[-89.9508,20.6946,12.6594],[-89.9387,20.7206,14.4102],[-89.9692,20.7249,11.6598],[-89.9699,20.7189,10.786],[-89.9854,20.728,12.7423],[-90.0,20.733,14.4594],[-90.0074,20.7323,13.7138],[-90.0178,20.7346,10.0697],[-90.0231,20.7383,10.0425],[-90.0297,20.74,8.4769],[-90.0787,20.7459,10.4488],[-90.0846,20.775,11.4653],[-90.0825,20.7883,11.3118],[-90.1038,20.7897,10.3648],[-90.106,20.7688,10.9233],[-90.1112,20.7694,9.0179],[-90.1144,20.7794,9.957],[-90.1107,20.7926,7.6141],[-90.1118,20.8044,10.9888],[-90.1192,20.8369,8.9037],[-90.1231,20.8355,7.6065],[-90.1435,20.8393,7.9118],[-90.1462,20.8367,7.1404],[-90.1598,20.8415,4.5842],[-90.1238,20.778,7.0712],[-90.1677,20.7845,7.6857],[-90.1813,20.789,5.6154],[-90.1818,20.7838,7.0762],[-90.1877,20.7823,7.732],[-90.1953,20.7709,7.6511],[-90.1935,20.7589,7.6],[-90.207,20.7448,6.0866],[-90.2307,20.7642,4.8775],[-90.2594,20.7342,9.0798],[-90.2785,20.7506,4.7628],[-90.3818,20.7495,2.6476],[-90.3819,20.7473,2.6759]]]]}}