{"type":"Feature","properties":{"GID_2":"MEX.29.25_2","GID_0":"MEX","country":"México","GID_1":"MEX.29_1","province":"Tlaxcala","NL_NAME_1":"NA","county":"Natívitas","VARNAME_2":"NA","NL_NAME_2":"NA","TYPE_2":"Município","ENGTYPE_2":"Municipality","CC_2":"NA","HASC_2":"NA","name":"Natívitas.county"},
"geometry":{"type": "MultiPolygon","coordinates": [[[[-98.3398,19.1861,2196.7429],[-98.3427,19.1779,2201.4497],[-98.3239,19.1687,2188.1384],[-98.3122,19.1904,2189.7302],[-98.3167,19.1921,2190.7705],[-98.3021,19.1977,2187.2246],[-98.3043,19.2016,2188.4832],[-98.303,19.2093,2190.0098],[-98.3006,19.2084,2189.3779],[-98.3031,19.2163,2191.3726],[-98.2978,19.2183,2192.9556],[-98.2988,19.2206,2192.1892],[-98.305,19.222,2192.1475],[-98.3071,19.2297,2193.7361],[-98.3108,19.2309,2194.1255],[-98.3103,19.2331,2194.9666],[-98.3154,19.2382,2221.5061],[-98.3248,19.2399,2302.9905],[-98.3245,19.2417,2314.8516],[-98.3284,19.2425,2336.4617],[-98.3283,19.2437,2336.4617],[-98.3307,19.2427,2338.376],[-98.3328,19.2447,2350.127],[-98.3324,19.2516,2311.405],[-98.3261,19.2533,2325.8992],[-98.3242,19.2523,2325.8992],[-98.3199,19.262,2209.6287],[-98.3154,19.259,2203.3594],[-98.3113,19.2639,2202.7656],[-98.3078,19.264,2204.0569],[-98.3082,19.2624,2203.6084],[-98.3022,19.2631,2202.7383],[-98.2982,19.2767,2209.7659],[-98.2984,19.2828,2210.3442],[-98.3149,19.2868,2209.8381],[-98.3208,19.2924,2210.7959],[-98.3284,19.2867,2240.0986],[-98.3245,19.2808,2248.731],[-98.3254,19.2799,2240.4219],[-98.3318,19.2774,2213.1333],[-98.3384,19.2722,2210.0273],[-98.349,19.2708,2210.0479],[-98.3533,19.2675,2210.915],[-98.3587,19.2499,2209.6831],[-98.373,19.2551,2227.0959],[-98.378,19.2546,2268.4749],[-98.3767,19.2524,2264.5488],[-98.3773,19.2475,2225.7107],[-98.3704,19.236,2210.0342],[-98.3645,19.2331,2207.042],[-98.3689,19.2261,2209.2292],[-98.3544,19.2209,2202.1611],[-98.3519,19.219,2201.3425],[-98.3442,19.2053,2198.7344],[-98.3368,19.2036,2195.4678],[-98.3349,19.2045,2197.2329],[-98.3307,19.2002,2194.7424],[-98.3349,19.1938,2193.1921],[-98.3379,19.1921,2194.3979],[-98.3398,19.1861,2196.7429]]]]}}