{"type": "Feature","bbox": [-100.2933,20.9222,-100.0067,21.1561],"geometry": {"type": "MultiPolygon","coordinates": [[[[-100.2933,21.0923,2182.4932],[-100.2801,21.0887,2205.9395],[-100.281,21.0721,2143.2151],[-100.2729,21.0719,2146.2417],[-100.2721,21.0691,2153.3491],[-100.2671,21.0687,2166.2629],[-100.2646,21.0642,2144.5562],[-100.2662,21.0612,2135.9331],[-100.2694,21.0621,2156.3813],[-100.266,21.0588,2143.833],[-100.2673,21.0569,2146.8711],[-100.2617,21.0559,2203.4985],[-100.2549,21.0463,2270.8633],[-100.2542,21.0443,2222.4214],[-100.2595,21.038,2250.4866],[-100.2543,21.0336,2275.7302],[-100.2572,21.0274,2256.2012],[-100.2569,21.0249,2289.959],[-100.2609,21.0234,2341.9978],[-100.2581,21.0221,2308.8455],[-100.2573,21.0109,2301.2578],[-100.2494,21.0118,2471.3286],[-100.2469,21.0088,2507.2839],[-100.2474,21.0062,2511.0703],[-100.2531,21.0045,2392.3528],[-100.2515,21.0005,2383.1846],[-100.2472,20.9972,2529.7471],[-100.2493,20.9832,2622.8154],[-100.2385,20.9788,2546.457],[-100.2292,20.9798,2132.3677],[-100.2455,20.9633,2263.1494],[-100.2009,20.937,2911.8086],[-100.1878,20.9325,3281.2275],[-100.1842,20.9332,3211.5017],[-100.1845,20.9314,3179.0269],[-100.1815,20.9304,3178.9978],[-100.1784,20.9387,3186.7678],[-100.1353,20.9373,2683.0928],[-100.1344,20.9348,2724.7478],[-100.1288,20.9344,2732.3887],[-100.127,20.9281,2796.5808],[-100.1178,20.9222,2758.4521],[-100.0927,20.9317,2515.656],[-100.0642,20.9363,2317.5269],[-100.0669,20.9422,2250.1914],[-100.0721,20.9448,2300.6528],[-100.0737,20.9477,2342.1475],[-100.0807,20.9499,2330.54],[-100.0688,20.9579,2221.6609],[-100.0698,20.9648,2331.9141],[-100.078,20.9727,2449.145],[-100.0764,20.9781,2432.9312],[-100.0699,20.9835,2406.2212],[-100.0732,20.9877,2387.4473],[-100.0738,20.9918,2382.5259],[-100.0728,20.9932,2378.7886],[-100.0714,20.9923,2378.7886],[-100.0607,21.0058,2557.8728],[-100.0648,21.0172,2452.3608],[-100.0686,21.0202,2319.1045],[-100.0689,21.0228,2180.3608],[-100.0612,21.0285,2270.1958],[-100.0545,21.0278,2445.4246],[-100.0485,21.0232,2362.4084],[-100.0484,21.025,2505.6841],[-100.0406,21.0222,2554.5674],[-100.0291,21.0151,2494.3491],[-100.0226,21.0146,2476.2207],[-100.0186,21.0176,2594.7825],[-100.0166,21.0235,2561.3816],[-100.0111,21.0285,2478.3953],[-100.0122,21.036,2441.9121],[-100.0109,21.0431,2373.0139],[-100.0067,21.0464,2341.1465],[-100.0147,21.051,2416.9297],[-100.0177,21.0476,2251.6118],[-100.0214,21.047,2179.9009],[-100.028,21.0508,2211.2766],[-100.0346,21.0521,2225.4695],[-100.0362,21.049,2193.5037],[-100.0413,21.049,2286.9604],[-100.0434,21.0467,2158.5112],[-100.0455,21.0493,2232.4807],[-100.0483,21.0491,2126.0579],[-100.0518,21.0537,2100.6189],[-100.0534,21.0534,2042.8687],[-100.0546,21.0502,1951.8582],[-100.0592,21.0546,1908.748],[-100.0632,21.0548,1895.6311],[-100.0625,21.0597,2077.1736],[-100.0645,21.0606,2088.4666],[-100.0692,21.0614,2080.6724],[-100.0744,21.0586,1866.7649],[-100.0802,21.0705,1776.6763],[-100.0767,21.0726,1772.6127],[-100.0766,21.0773,1796.8583],[-100.07,21.0766,1937.2058],[-100.0695,21.0796,1886.6365],[-100.0679,21.0802,1897.1881],[-100.0714,21.0861,1963.1875],[-100.0711,21.091,1826.6951],[-100.0772,21.0942,1827.738],[-100.0808,21.094,1972.3998],[-100.0815,21.0959,2034.4065],[-100.0898,21.0971,1965.6178],[-100.1102,21.107,1973.2347],[-100.1118,21.1093,2038.1825],[-100.1043,21.1135,1958.3513],[-100.1049,21.1148,1996.2545],[-100.1081,21.1126,2032.4747],[-100.1078,21.1266,1605.8269],[-100.1119,21.1261,1607.397],[-100.1273,21.131,1654.5361],[-100.1307,21.1441,1971.9575],[-100.1412,21.1409,1904.8163],[-100.1424,21.1428,1988.2639],[-100.1475,21.1442,1932.1791],[-100.1489,21.1476,1966.7009],[-100.1479,21.1525,1994.1602],[-100.1525,21.1561,2104.9814],[-100.1554,21.1496,1923.1938],[-100.1619,21.1453,1760.3885],[-100.1635,21.1365,1699.5955],[-100.1741,21.1317,1855.8914],[-100.1883,21.1312,1769.2385],[-100.1941,21.1265,1869.8701],[-100.2048,21.1221,2065.875],[-100.2069,21.1074,2204.3513],[-100.2349,21.1172,2218.4451],[-100.2401,21.1205,2185.7881],[-100.2437,21.1138,1998.2594],[-100.2409,21.1121,1983.7317],[-100.2537,21.0873,2216.4128],[-100.2922,21.0979,2152.519],[-100.2933,21.0923,2182.4932]]]]}
,"properties": {"GID_2": "MEX.11.40_2","GID_0": "MEX","country": "México","GID_1": "MEX.11_1","province": "Guanajuato","NL_NAME_1": "NA","county": "TierraBlanca","VARNAME_2": "NA","NL_NAME_2": "NA","TYPE_2": "Município","ENGTYPE_2": "Municipality","CC_2": "NA","HASC_2": "NA","name": "Tierra_Blanca.county","area_km2": 411.0315,"hist_schema_id": "Elevation0-9000","hist_area_km2": {"1600": 0.0791,"1625": 0.6329,"1650": 1.3844,"1675": 2.8282,"1700": 4.292,"1725": 5.6571,"1750": 8.5059,"1775": 9.515,"1800": 10.8605,"1825": 12.7401,"1850": 12.9779,"1875": 13.0574,"1900": 11.4553,"1925": 11.3963,"1950": 11.5349,"1975": 12.0297,"2000": 13.771,"2025": 14.1076,"2050": 13.3764,"2075": 13.0602,"2100": 12.9818,"2125": 13.7143,"2150": 16.4054,"2175": 15.5545,"2200": 12.805,"2225": 12.3104,"2250": 11.6183,"2275": 11.3416,"2300": 11.6589,"2325": 11.7779,"2350": 11.8177,"2375": 11.5999,"2400": 10.4324,"2425": 9.3042,"2450": 8.7501,"2475": 6.3549,"2500": 4.7513,"2525": 4.6724,"2550": 3.4252,"2575": 3.2669,"2600": 3.0888,"2625": 3.2077,"2650": 1.9602,"2675": 1.2672,"2700": 1.6435,"2725": 1.5643,"2750": 1.5445,"2775": 0.9504,"2800": 1.0098,"2825": 0.6732,"2850": 0.6732,"2875": 0.6138,"2900": 0.5346,"2925": 0.5148,"2950": 0.5742,"2975": 0.594,"3000": 0.3762,"3025": 0.3366,"3050": 0.3366,"3075": 0.4554,"3100": 0.3366,"3125": 0.1782,"3150": 0.2178,"3175": 0.1782,"3200": 0.1386,"3225": 0.0792,"3250": 0.0594,"3275": 0.0594,"3300": 0.0198,"3325": 0.0396}}}