{"type": "Feature","bbox": [-96.9681,18.0724,-96.8612,18.1499],"geometry": {"type": "MultiPolygon","coordinates": [[[[-96.8612,18.1286,1323.6501],[-96.8799,18.1305,1738.5907],[-96.8816,18.1287,1726.6389],[-96.8848,18.1294,1840.3801],[-96.8824,18.135,1868.0524],[-96.8832,18.1476,1322.032],[-96.8929,18.1452,1360.4647],[-96.9028,18.1488,1401.1764],[-96.9065,18.1475,1471.9155],[-96.9074,18.1499,1428.6965],[-96.9122,18.1468,1511.5227],[-96.9152,18.1487,1489.515],[-96.9189,18.148,1494.8533],[-96.925299999999993,18.1441,1560.4323],[-96.9295,18.1474,1622.2719],[-96.9355,18.1426,1641.8318],[-96.9404,18.1413,1692.5374],[-96.9412,18.1371,1781.5121],[-96.9439,18.1348,1777.3059],[-96.9476,18.1336,1823.5465],[-96.9504,18.1356,1880.1968],[-96.9609,18.1293,2115.8501],[-96.9653,18.1203,2611.0542],[-96.9679,18.1241,2498.1638],[-96.9659,18.1194,2611.0542],[-96.9681,18.111,2605.6125],[-96.9663,18.0903,2428.8923],[-96.9651,18.0882,2352.4377],[-96.9575,18.0909,2049.1851],[-96.9451,18.0866,1670.2161],[-96.9396,18.0867,1387.6011],[-96.9351,18.0762,1219.1803],[-96.9314,18.0729,1190.095],[-96.9288,18.0778,1373.157],[-96.9159,18.0854,1977.1642],[-96.9052,18.0813,2308.3574],[-96.8978,18.0823,2301.8933],[-96.8966,18.0802,2205.7546],[-96.8979,18.0756,2151.1533],[-96.8901,18.0724,2353.9099],[-96.8659,18.1061,1542.4412],[-96.8695,18.1158,1347.1888],[-96.8612,18.1286,1323.6501]]]]}
,"properties": {"GID_2": "MEX.20.238_2","GID_0": "MEX","country": "México","GID_1": "MEX.20_1","province": "Oaxaca","NL_NAME_1": "NA","county": "SanLucasZoquiápam","VARNAME_2": "NA","NL_NAME_2": "NA","TYPE_2": "Município","ENGTYPE_2": "Municipality","CC_2": "NA","HASC_2": "NA","name": "San_Lucas_Zoquiápam.county","area_km2": 65.45244,"hist_schema_id": "Elevation0-9000","hist_area_km2": {"1225": 0.06047,"1250": 0.04031,"1275": 0.04031,"1300": 0.12092,"1325": 0.30226,"1350": 0.34257,"1375": 0.54409,"1400": 0.70527,"1425": 0.68511,"1450": 1.08816,"1475": 0.84633,"1500": 1.3904,"1525": 1.49117,"1550": 1.49115,"1575": 1.30982,"1600": 1.89421,"1625": 1.6121,"1650": 1.87406,"1675": 1.95465,"1700": 2.05542,"1725": 2.05542,"1750": 1.89423,"1775": 2.29726,"1800": 1.91438,"1825": 2.29727,"1850": 1.95469,"1875": 2.0353,"1900": 1.79349,"1925": 2.05548,"1950": 2.13611,"1975": 1.87412,"2000": 1.69273,"2025": 1.65246,"2050": 1.89428,"2075": 1.75323,"2100": 1.77337,"2125": 1.69278,"2150": 1.53157,"2175": 1.85402,"2200": 1.65252,"2225": 1.39053,"2250": 1.28975,"2275": 1.18902,"2300": 0.72549,"2325": 0.64488,"2350": 0.38288,"2375": 0.26198,"2400": 0.20151,"2425": 0.18136,"2450": 0.4232,"2475": 0.24182,"2500": 0.26198,"2525": 0.10076,"2550": 0.12091,"2575": 0.14106,"2600": 0.06045,"2625": 0.16121,"2650": 0.02015}}}