{"type":"Feature","properties":{"GID_2":"MEX.20.32_2","GID_0":"MEX","country":"México","GID_1":"MEX.20_1","province":"Oaxaca","NL_NAME_1":"NA","county":"FresnillodeTrujano","VARNAME_2":"NA","NL_NAME_2":"NA","TYPE_2":"Município","ENGTYPE_2":"Municipality","CC_2":"NA","HASC_2":"NA","name":"Fresnillode_Trujano.county"},
"geometry":{"type": "MultiPolygon","coordinates": [[[[-98.166,17.9193,1035.0311],[-98.1649,17.9221,1220.4735],[-98.1616,17.9229,1250.0741],[-98.1617,17.926,1307.1147],[-98.1599,17.9254,1301.2505],[-98.1598,17.9266,1316.9596],[-98.1525,17.9179,1187.7095],[-98.1566,17.9148,1201.3962],[-98.1554,17.9059,1108.4449],[-98.1515,17.9049,1058.3468],[-98.1454,17.9091,1052.2014],[-98.145,17.9064,1032.0159],[-98.1486,17.9038,1050.4576],[-98.1496,17.9005,1063.1985],[-98.1559,17.8994,1085.4252],[-98.1558,17.8973,1049.9548],[-98.1424,17.8966,1086.7377],[-98.1419,17.8921,1093.915],[-98.1404,17.891,1110.979],[-98.1358,17.8942,1150.5338],[-98.1305,17.8937,1228.7521],[-98.1268,17.8888,1210.1351],[-98.1138,17.886,1174.6501],[-98.1084,17.8779,1262.5455],[-98.1,17.8833,1210.5024],[-98.1041,17.8933,1121.5261],[-98.1,17.8926,1159.1948],[-98.0927,17.8947,1243.9703],[-98.0775,17.9023,1309.8695],[-98.0808,17.9119,1302.1743],[-98.0957,17.9064,1206.0493],[-98.0965,17.9205,1185.2227],[-98.0953,17.9277,1345.9447],[-98.1097,17.9455,1317.0244],[-98.1099,17.9518,1260.4539],[-98.1115,17.9509,1253.4253],[-98.112,17.9573,1255.282],[-98.1102,17.9566,1279.9681],[-98.1105,17.9808,1147.3037],[-98.1161,17.976,1127.5885],[-98.125,17.9793,1114.2867],[-98.1265,17.9776,1117.0634],[-98.1282,17.9793,1114.7622],[-98.1286,17.9777,1121.3324],[-98.1306,17.9784,1106.8259],[-98.1327,17.9758,1133.8708],[-98.1347,17.9759,1101.3573],[-98.1344,17.9746,1091.1516],[-98.1375,17.9757,1075.7169],[-98.1401,17.9724,1077.2958],[-98.1442,17.9719,1043.3738],[-98.1441,17.9706,1043.3738],[-98.1484,17.9719,1033.0928],[-98.1503,17.9708,1032.6648],[-98.156,17.9628,1021.9764],[-98.1623,17.9626,1048.8822],[-98.1657,17.954,1026.5559],[-98.1696,17.9528,1024.7244],[-98.1707,17.9426,1019.1804],[-98.1736,17.9419,1025.6302],[-98.169,17.9349,1051.8395],[-98.1694,17.9328,1029.4861],[-98.1729,17.9323,1043.7925],[-98.172,17.9226,1061.1475],[-98.166,17.9193,1035.0311]]]]}}