{"type": "Feature","bbox": [-89.1767,21.2064,-89.0684,21.3676],"geometry": {"type": "MultiPolygon","coordinates": [[[[-89.0803,21.2177,7.1683],[-89.079,21.2199,8.4543],[-89.0803,21.2282,6.4338],[-89.0789,21.238,6.7075],[-89.0841,21.2373,5.5342],[-89.0851,21.2386,5.1601],[-89.0817,21.2392,6.6963],[-89.0807,21.2578,6.8234],[-89.0774,21.2685,6.3997],[-89.0755,21.267,6.3409],[-89.0727,21.2934,4.7098],[-89.0767,21.2946,3.8988],[-89.0773,21.2876,5.5237],[-89.0845,21.2885,6.0899],[-89.0835,21.2949,4.0051],[-89.0789,21.2949,4.3354],[-89.0798,21.3115,5.1098],[-89.0983,21.3134,4.0382],[-89.0969,21.3228,4.1005],[-89.0855,21.3438,1.4165],[-89.0765,21.3429,1.3238],[-89.0729,21.3442,0.6306],[-89.0684,21.3676,0.0],[-89.0788,21.3657,0.0],[-89.0815,21.3632,-0.2924],[-89.0839,21.3638,0.0],[-89.11,21.3578,0.7159],[-89.1437,21.3566,0.3922],[-89.1438,21.3554,1.0721],[-89.1407,21.355,0.9246],[-89.144,21.3547,1.0721],[-89.1445,21.3564,0.3922],[-89.158,21.3551,0.9437],[-89.1607,21.3311,2.5371],[-89.175299999999993,21.332,1.3827],[-89.1767,21.3132,5.8176],[-89.1628,21.3103,3.7151],[-89.1631,21.3075,5.7232],[-89.1582,21.3069,3.4766],[-89.1575,21.3124,5.4414],[-89.1467,21.3113,3.9785],[-89.1501,21.2964,6.6981],[-89.1661,21.2981,7.5225],[-89.1679,21.2827,6.05],[-89.17,21.2829,5.0249],[-89.1718,21.2649,5.7233],[-89.1556,21.2634,6.5596],[-89.1529,21.2489,6.2342],[-89.1508,21.2487,7.2147],[-89.1521,21.2452,7.1183],[-89.1487,21.2448,7.0095],[-89.1496,21.2372,6.7113],[-89.147,21.2224,7.239],[-89.1491,21.217,6.7793],[-89.1447,21.2169,6.9996],[-89.1455,21.2083,6.9679],[-89.1427,21.2064,7.6268],[-89.1395,21.2098,7.2892],[-89.1149,21.2093,5.8492],[-89.1181,21.2248,7.063],[-89.1179,21.226,6.6011],[-89.1136,21.2254,5.9174],[-89.114,21.2275,5.9795],[-89.1095,21.2271,8.1763],[-89.109,21.2243,7.4216],[-89.1133,21.2248,5.9174],[-89.1109,21.2115,5.6492],[-89.1069,21.2122,7.3108],[-89.1076,21.2171,6.9872],[-89.0956,21.2173,8.6611],[-89.0825,21.2135,8.0391],[-89.0803,21.2177,7.1683]]]]}
,"properties": {"GID_2": "MEX.31.106_2","GID_0": "MEX","country": "México","GID_1": "MEX.31_1","province": "Yucatán","NL_NAME_1": "NA","county": "Yobaín","VARNAME_2": "NA","NL_NAME_2": "NA","TYPE_2": "Município","ENGTYPE_2": "Municipality","CC_2": "NA","HASC_2": "NA","name": "Yobaín.county","area_km2": 132.0651,"hist_schema_id": "Elevation0-9000","hist_area_km2": {"0": 132.0651}}}