{"type": "Feature","bbox": [-96.9857,19.1755,-96.8033,19.2897],"geometry": {"type": "MultiPolygon","coordinates": [[[[-96.8604,19.1756,958.3658],[-96.8634,19.182,990.2469],[-96.8653,19.1826,1002.8258],[-96.8568,19.1841,954.5735],[-96.8598,19.188,966.9949],[-96.8593,19.1901,966.5178],[-96.8715,19.1942,1014.1615],[-96.863,19.1945,977.8501],[-96.8592,19.1965,967.0278],[-96.8522,19.1952,937.2839],[-96.8483,19.2008,831.6053],[-96.8448,19.2018,827.8075],[-96.8365,19.2006,827.656],[-96.8327,19.2029,796.9757],[-96.8194,19.2014,788.2609],[-96.8155,19.2075,811.4698],[-96.8137,19.2067,786.5045],[-96.8131,19.2088,805.9456],[-96.8067,19.21,785.4452],[-96.8073,19.2196,796.5693],[-96.8069,19.2215,794.976],[-96.8037,19.2234,785.4531],[-96.8033,19.2267,765.3937],[-96.8046,19.2273,782.8138],[-96.8068,19.2253,783.5497],[-96.8079,19.2263,784.7947],[-96.8081,19.225,786.9744],[-96.8115,19.2265,796.9068],[-96.8123,19.2243,806.0266],[-96.8124,19.2272,814.4377],[-96.8151,19.2273,820.444],[-96.8153,19.2301,814.2381],[-96.8183,19.2334,789.5491],[-96.8231,19.2323,805.1395],[-96.8284,19.234,846.6375],[-96.8312,19.2376,851.1493],[-96.8258,19.2467,811.9934],[-96.8271,19.249,614.8416],[-96.8339,19.2457,761.6664],[-96.836,19.2397,853.1599],[-96.8569,19.2266,929.1734],[-96.8809,19.218,915.0326],[-96.887,19.217,1021.472],[-96.8941,19.224,1029.496],[-96.9171,19.2292,1192.6212],[-96.9175,19.2322,1115.7106],[-96.9076,19.2381,1038.1101],[-96.8998,19.2406,996.6376],[-96.8974,19.2472,1050.4888],[-96.8992,19.2479,979.1152],[-96.8987,19.2522,997.6623],[-96.8931,19.2539,908.9546],[-96.8892,19.2588,937.8981],[-96.8774,19.262,947.4154],[-96.8708,19.273,816.65239999999994],[-96.8603,19.2804,798.1104],[-96.8544,19.281,724.5914],[-96.8534,19.2884,858.2792],[-96.8613,19.2867,828.224],[-96.8686,19.2897,910.918],[-96.8737,19.2893,921.847],[-96.8875,19.2834,950.4231],[-96.8887,19.287,782.9561],[-96.8928,19.2827,795.1773],[-96.8998,19.2798,828.3616],[-96.9137,19.2773,940.4787],[-96.9237,19.2674,962.8129],[-96.9344,19.2616,1009.0932],[-96.9368,19.2538,1048.1772],[-96.9447,19.2485,1153.9915],[-96.9479,19.2427,1187.5754],[-96.9492,19.2438,1193.476],[-96.9494,19.2423,1187.5754],[-96.9504,19.2429,1227.8669],[-96.952,19.2411,1271.4772],[-96.9508,19.2396,1222.8768],[-96.9581,19.2352,1289.0864],[-96.9597,19.2359,1273.3147],[-96.9631,19.2314,1318.8383],[-96.9644,19.2262,1363.0],[-96.9673,19.2255,1370.6619],[-96.9667,19.224,1391.1218],[-96.9686,19.2229,1399.3865],[-96.9761,19.2237,1451.0442],[-96.9762,19.2218,1446.8795],[-96.9794,19.2193,1475.7251],[-96.9778,19.2176,1457.5554],[-96.9857,19.2169,1507.4427],[-96.9814,19.2143,1465.7821],[-96.9779,19.2155,1463.5579],[-96.9767,19.2124,1457.1248],[-96.9776,19.2106,1454.7808],[-96.9752,19.2099,1430.6836],[-96.9764,19.2076,1433.0801],[-96.9723,19.2045,1399.1639],[-96.9697,19.2046,1378.2979],[-96.9689,19.2025,1371.615],[-96.9701,19.2019,1363.3229],[-96.967,19.1993,1361.7885],[-96.9679,19.1972,1363.3896],[-96.9663,19.1913,1297.2074],[-96.9592,19.1853,1273.5233],[-96.9534,19.1876,1305.3297],[-96.9564,19.1938,1341.1309],[-96.953,19.1948,1347.7332],[-96.9509,19.2022,1336.3105],[-96.946,19.2023,1333.0647],[-96.9451,19.2005,1313.8799],[-96.9427,19.2004,1302.0181],[-96.942,19.1977,1308.338],[-96.9334,19.1948,1283.1721],[-96.9296,19.1956,1277.1379],[-96.9256,19.1929,1233.1804],[-96.9237,19.1934,1215.4301],[-96.9215,19.1988,1229.1095],[-96.9136,19.1997,1197.5592],[-96.9091,19.1932,1167.0293],[-96.9051,19.1914,1120.0718],[-96.8989,19.1915,1088.1125],[-96.8942,19.1886,1091.7864],[-96.8871,19.187,1057.7734],[-96.8831,19.1809,1015.1035],[-96.8781,19.1794,1004.0887],[-96.8712,19.1807,1007.9487],[-96.8655,19.1755,960.5293],[-96.8604,19.1756,958.3658]]]]}
,"properties": {"GID_2": "MEX.30.193_2","GID_0": "MEX","country": "México","GID_1": "MEX.30_1","province": "Veracruz","NL_NAME_1": "NA","county": "Totutla","VARNAME_2": "NA","NL_NAME_2": "NA","TYPE_2": "Município","ENGTYPE_2": "Municipality","CC_2": "NA","HASC_2": "NA","name": "Totutla.county","area_km2": 97.69607,"hist_schema_id": "Elevation0-9000","hist_area_km2": {"650": 0.02001,"675": 0.10007,"700": 0.1601,"725": 0.18012,"750": 0.36027,"775": 0.56048,"800": 1.78173,"825": 3.1832,"850": 4.22412,"875": 3.88374,"900": 4.02375,"925": 4.78432,"950": 5.00451,"975": 5.3852,"1000": 5.68555,"1025": 4.72455,"1050": 4.66454,"1075": 3.84381,"1100": 3.72369,"1125": 3.54347,"1150": 3.34329,"1175": 3.46338,"1200": 3.02297,"1225": 3.56352,"1250": 3.10311,"1275": 3.32344,"1300": 3.0432,"1325": 3.02323,"1350": 2.84306,"1375": 2.86307,"1400": 2.64278,"1425": 1.74183,"1450": 1.40146,"1475": 0.3804,"1500": 0.1001}}}