{"type": "Feature","bbox": [-96.596,16.9871,-96.4631,17.114],"geometry": {"type": "MultiPolygon","coordinates": [[[[-96.5816,17.0164,1615.5636],[-96.578,17.0159,1630.9196],[-96.5689,17.0105,1596.3384],[-96.569,17.0192,1618.0828],[-96.5606,17.0162,1614.0211],[-96.5552,17.032,1646.5128],[-96.554,17.0455,1734.6704],[-96.5422,17.0665,2438.0674],[-96.5363,17.0592,2289.8269],[-96.5381,17.0508,1857.8975],[-96.5372,17.0446,1806.8663],[-96.5275,17.0097,1779.8796],[-96.529,17.0043,1644.6749],[-96.5255,16.9947,1602.1167],[-96.4969,16.9871,1648.8961],[-96.4669,17.0514,2560.5483],[-96.47,17.0597,2579.3335],[-96.4685,17.0733,2647.4167],[-96.4655,17.0748,2722.5962],[-96.4631,17.0808,2723.7231],[-96.4698,17.0924,2839.6194],[-96.4672,17.107,3066.0449],[-96.4738,17.1118,3048.9062],[-96.4799,17.111,3038.5107],[-96.4816,17.1132,3015.3799],[-96.4907,17.1132,2935.6113],[-96.5067,17.1027,2878.9565],[-96.5115,17.1043,2874.6426],[-96.5157,17.1098,2844.5586],[-96.5233,17.114,2893.2129],[-96.5346,17.106,2626.8865],[-96.5477,17.0874,2429.6455],[-96.5467,17.0843,2378.1565],[-96.5889,17.057,2021.9108],[-96.5904,17.0519,1846.2469],[-96.596,17.048,1704.0576],[-96.5871,17.0431,1704.9395],[-96.5809,17.0373,1857.5051],[-96.5805,17.0326,1717.9209],[-96.5784,17.0297,1707.2053],[-96.5816,17.0164,1615.5636]]]]}
,"properties": {"GID_2": "MEX.20.545_2","GID_0": "MEX","country": "México","GID_1": "MEX.20_1","province": "Oaxaca","NL_NAME_1": "NA","county": "TeotitlándelValle","VARNAME_2": "NA","NL_NAME_2": "NA","TYPE_2": "Município","ENGTYPE_2": "Municipality","CC_2": "NA","HASC_2": "NA","name": "Teotitlándel_Valle.county","area_km2": 108.56466,"hist_schema_id": "Elevation0-9000","hist_area_km2": {"1600": 1.19625,"1625": 6.42719,"1650": 7.78524,"1675": 5.71704,"1700": 3.24361,"1725": 3.36515,"1750": 3.02044,"1775": 2.83797,"1800": 2.85819,"1825": 2.89869,"1850": 2.45268,"1875": 3.24324,"1900": 2.8783,"1925": 2.59452,"1950": 2.83775,"1975": 2.79719,"2000": 2.45258,"2025": 2.77686,"2050": 2.39176,"2075": 2.18904,"2100": 2.10795,"2125": 2.33089,"2150": 2.04712,"2175": 2.06737,"2200": 2.10791,"2225": 2.06731,"2250": 2.12812,"2275": 1.74299,"2300": 2.1889,"2325": 1.82405,"2350": 1.62136,"2375": 1.68217,"2400": 1.70242,"2425": 1.52001,"2450": 1.13491,"2475": 1.05383,"2500": 1.09439,"2525": 1.01329,"2550": 0.8309,"2575": 0.81063,"2600": 0.66878,"2625": 0.91194,"2650": 0.74982,"2675": 0.60795,"2700": 0.70929,"2725": 0.77007,"2750": 0.77006,"2775": 0.58767,"2800": 0.52688,"2825": 0.6282,"2850": 0.56741,"2875": 0.46608,"2900": 0.42555,"2925": 0.22291,"2950": 0.26343,"2975": 0.18238,"3000": 0.2229,"3025": 0.10132,"3050": 0.02026,"3075": 0.12158}}}