{"type": "Feature","bbox": [-89.295,21.162,-89.2182,21.2767],"geometry": {"type": "MultiPolygon","coordinates": [[[[-89.2922,21.172,6.2203],[-89.2868,21.1738,7.6873],[-89.2789,21.1737,6.2839],[-89.2754,21.1732,7.134],[-89.2756,21.1707,6.9989],[-89.2594,21.1687,7.6972],[-89.2587,21.1822,6.3072],[-89.2531,21.1805,7.304],[-89.2552,21.1763,7.7979],[-89.2551,21.1676,7.7486],[-89.2519,21.1675,9.437],[-89.2474,21.1747,8.7113],[-89.2395,21.1744,7.9543],[-89.2333,21.1827,5.8865],[-89.2257,21.1784,5.9982],[-89.2377,21.1628,7.2906],[-89.2194,21.162,6.2347],[-89.2182,21.1697,6.2331],[-89.2217,21.1763,6.0536],[-89.2203,21.1765,5.8962],[-89.2191,21.1845,6.2451],[-89.2311,21.1917,6.0455],[-89.2346,21.2129,6.8441],[-89.2276,21.2122,7.0808],[-89.2264,21.2184,6.6517],[-89.2388,21.2199,6.4808],[-89.2393,21.2161,6.3051],[-89.2418,21.2164,7.0938],[-89.2324,21.2333,6.6899],[-89.2375,21.2337,7.0044],[-89.2406,21.2282,5.5903],[-89.246,21.2289,5.7711],[-89.2426,21.2403,6.8745],[-89.2462,21.2432,5.9943],[-89.2193,21.2628,5.6086],[-89.2239,21.2731,6.0573],[-89.2279,21.2703,6.144],[-89.2476,21.2727,5.5619],[-89.2472,21.276,6.7641],[-89.2538,21.2767,5.8463],[-89.2554,21.2723,6.0142],[-89.2661,21.2749,5.8292],[-89.2672,21.2644,5.8029],[-89.2706,21.2646,5.9845],[-89.2715,21.2539,5.446],[-89.2782,21.2636,5.2123],[-89.2803,21.2623,5.567],[-89.2858,21.2525,7.0617],[-89.2864,21.2432,7.2619],[-89.2784,21.2423,5.9483],[-89.2786,21.239,8.374],[-89.2692,21.2379,6.2799],[-89.2716,21.2137,7.1067],[-89.2921,21.2136,8.263],[-89.2934,21.2081,5.9959],[-89.287,21.2062,6.8125],[-89.2887,21.1896,7.7925],[-89.2858,21.1893,8.2273],[-89.2861,21.187,7.3705],[-89.2889,21.1872,6.9146],[-89.2891,21.185,8.3626],[-89.2849,21.1845,7.773],[-89.2856,21.1789,7.9182],[-89.295,21.1798,9.1969],[-89.2922,21.172,6.2203]]]]}
,"properties": {"GID_2": "MEX.31.82_2","GID_0": "MEX","country": "México","GID_1": "MEX.31_1","province": "Yucatán","NL_NAME_1": "NA","county": "TelchacPueblo","VARNAME_2": "NA","NL_NAME_2": "NA","TYPE_2": "Município","ENGTYPE_2": "Municipality","CC_2": "NA","HASC_2": "NA","name": "Telchac_Pueblo.county","area_km2": 58.06952,"hist_schema_id": "Elevation0-9000","hist_area_km2": {"0": 58.06952}}}