{"type":"Feature","properties":{"GID_2":"MEX.5.50_2","GID_0":"MEX","country":"México","GID_1":"MEX.5_1","province":"Chiapas","NL_NAME_1":"NA","county":"LaGrandeza","VARNAME_2":"NA","NL_NAME_2":"NA","TYPE_2":"Município","ENGTYPE_2":"Municipality","CC_2":"NA","HASC_2":"NA","name":"La_Grandeza.county"},
"geometry":{"type": "MultiPolygon","coordinates": [[[[-92.1858,15.5504,2248.3953],[-92.1883,15.5484,2232.9221],[-92.2162,15.5583,2163.7397],[-92.2428,15.5568,1587.4697],[-92.2507,15.5593,2111.6155],[-92.2407,15.5371,1629.2656],[-92.2399,15.5233,1705.9581],[-92.2369,15.5195,1793.0083],[-92.2339,15.5068,1878.6226],[-92.2359,15.5016,1947.6997],[-92.2351,15.4939,2039.4431],[-92.2372,15.4873,2052.9246],[-92.2398,15.4843,2054.231],[-92.245,15.4716,2263.5251],[-92.2481,15.4685,2443.7458],[-92.2509,15.4684,2695.689],[-92.2205,15.4606,2591.8987],[-92.2065,15.4599,2650.8286],[-92.1955,15.514099999999999,2402.1431],[-92.1858,15.5504,2248.3953]]]]}}