{"type": "Feature","bbox": [-95.8088,17.5185,-95.5112,17.7506],"geometry": {"type": "MultiPolygon","coordinates": [[[[-95.5726,17.5486,64.7833],[-95.568,17.5513,59.8474],[-95.5662,17.5486,65.6971],[-95.5607,17.5463,68.5338],[-95.5579,17.5493,55.9446],[-95.5555,17.5586,56.8084],[-95.5518,17.5538,58.1878],[-95.5491,17.5532,61.3781],[-95.5456,17.5545,61.1209],[-95.5402,17.5604,53.0013],[-95.5388,17.5603,53.5001],[-95.5377,17.557,65.2905],[-95.5327,17.5557,52.9914],[-95.5251,17.5617,71.9059],[-95.5312,17.569,49.2162],[-95.5303,17.5711,59.272],[-95.5334,17.5716,65.8409],[-95.549,17.5657,62.0597],[-95.5539,17.5671,68.1888],[-95.5541,17.5804,95.6918],[-95.5552,17.5806,101.2208],[-95.5539,17.5811,87.2443],[-95.555,17.583,99.0536],[-95.5587,17.582,103.619],[-95.5627,17.5889,111.2179],[-95.5647,17.5879,107.4145],[-95.5658,17.5899,110.9067],[-95.5637,17.5894,111.2179],[-95.5633,17.5913,109.8693],[-95.5667,17.5974,109.1336],[-95.53,17.6179,83.4587],[-95.5294,17.6168,83.5515],[-95.5253,17.619,91.7305],[-95.5259,17.62,78.4986],[-95.5112,17.6283,68.0168],[-95.5202,17.64,83.2735],[-95.5212,17.6425,79.4321],[-95.52,17.6444,87.5275],[-95.522,17.6445,94.1389],[-95.5234,17.648,90.8584],[-95.5269,17.6459,97.9085],[-95.5271,17.6425,90.4216],[-95.5307,17.6411,80.998],[-95.5269,17.6345,75.9628],[-95.529,17.6353,76.2057],[-95.5337,17.6327,86.2227],[-95.5342,17.6373,82.3186],[-95.5481,17.6345,96.7386],[-95.5508,17.6412,107.4319],[-95.5465,17.6428,103.7366],[-95.5513,17.6526,116.2058],[-95.5595,17.6496,107.7806],[-95.5605,17.6522,107.0916],[-95.5653,17.6502,116.6143],[-95.5657,17.6512,112.2829],[-95.5745,17.6476,114.4728],[-95.5753,17.6496,123.7389],[-95.5798,17.65,126.3454],[-95.5809,17.6427,120.7043],[-95.588,17.6413,120.7176],[-95.587,17.6367,121.5639],[-95.5918,17.636,124.5192],[-95.5967,17.66,98.1113],[-95.5893,17.6607,94.7601],[-95.5923,17.6682,97.1635],[-95.5955,17.6684,92.5635],[-95.5966,17.6713,87.9742],[-95.6,17.6686,89.0842],[-95.6023,17.6759,93.6917],[-95.5985,17.6763,89.0292],[-95.6023,17.6856,77.4461],[-95.6035,17.6841,87.6982],[-95.6098,17.6876,93.4453],[-95.612,17.6819,99.4893],[-95.6184,17.6838,84.2369],[-95.6188,17.6827,83.8351],[-95.6264,17.6838,106.3613],[-95.6234,17.6965,79.4506],[-95.6255,17.6947,87.7124],[-95.6258,17.6925,109.5421],[-95.6368,17.6891,91.0946],[-95.6513,17.6949,84.0226],[-95.6597,17.7178,129.1845],[-95.6552,17.7193,125.6181],[-95.6607,17.7321,118.9439],[-95.6746,17.7275,132.4347],[-95.6829,17.7493,130.3322],[-95.6866,17.7506,135.0379],[-95.7202,17.7211,116.5428],[-95.7353,17.7172,126.9107],[-95.7407,17.7179,123.4275],[-95.749,17.7227,129.0081],[-95.7521,17.6969,111.3796],[-95.7581,17.6979,93.1567],[-95.7598,17.6862,99.3861],[-95.7666,17.687,85.855],[-95.7686,17.6734,106.0262],[-95.7664,17.673,108.4045],[-95.7668,17.6693,109.9038],[-95.7736,17.6294,161.7937],[-95.7725,17.6193,160.5147],[-95.7737,17.6059,111.8086],[-95.7772,17.6043,98.6764],[-95.776,17.6087,108.819],[-95.7804,17.6111,122.1464],[-95.7891,17.6109,123.1714],[-95.789,17.6083,127.3888],[-95.7947,17.6035,98.489],[-95.7962,17.606,94.5186],[-95.8035,17.6071,116.4017],[-95.8076,17.6018,115.0293],[-95.8088,17.5932,74.3134],[-95.8075,17.5918,74.5608],[-95.803,17.5914,75.8531],[-95.8025,17.5895,74.8473],[-95.7956,17.5862,76.5263],[-95.7919,17.5864,76.2485],[-95.7923,17.5889,77.7583],[-95.7894,17.5949,83.9906],[-95.7927,17.5964,95.1182],[-95.793,17.6014,122.5188],[-95.7911,17.6034,130.3768],[-95.7818,17.603,95.4832],[-95.7715,17.5997,92.1851],[-95.7735,17.5979,84.9721],[-95.7739,17.5945,80.0773],[-95.7716,17.5887,84.6789],[-95.7649,17.5893,82.6222],[-95.7589,17.585,84.0955],[-95.7507,17.5864,86.099],[-95.7476,17.5835,88.0866],[-95.7449,17.586,90.0702],[-95.7412,17.5807,89.748],[-95.7376,17.5805,92.7265],[-95.7338,17.5755,96.973],[-95.7269,17.578,115.7063],[-95.7296,17.5711,109.1612],[-95.7281,17.5655,129.3114],[-95.7249,17.5628,135.4734],[-95.724,17.5573,147.7619],[-95.7281,17.552,116.6273],[-95.722,17.5492,123.3488],[-95.7205,17.5435,162.5027],[-95.7218,17.5396,170.4327],[-95.7251,17.5362,194.1301],[-95.7174,17.5373,164.1832],[-95.7152,17.5356,154.3012],[-95.7133,17.5362,145.4956],[-95.7088,17.5319,152.6366],[-95.7083,17.5344,119.4114],[-95.7066,17.534,121.5933],[-95.7064,17.5265,145.7115],[-95.7021,17.5185,90.3854],[-95.6997,17.5224,98.5147],[-95.691,17.5249,89.1168],[-95.6903,17.5272,82.8032],[-95.6922,17.5309,82.3378],[-95.6899,17.5314,84.2411],[-95.6893,17.5349,83.5391],[-95.6852,17.5375,98.7976],[-95.6803,17.5341,83.5434],[-95.674,17.5338,81.7618],[-95.6649,17.5354,78.6269],[-95.6597,17.5388,79.8058],[-95.6485,17.5399,84.2462],[-95.6468,17.5423,81.4968],[-95.6499,17.5455,71.0682],[-95.6501,17.5512,76.4049],[-95.6544,17.556,68.4124],[-95.6541,17.5604,68.9393],[-95.647,17.5557,70.2767],[-95.6473,17.5509,72.185],[-95.6445,17.5465,75.6813],[-95.6372,17.5488,80.1416],[-95.6302,17.5465,69.6225],[-95.6271,17.548,65.2646],[-95.6242,17.5435,66.1658],[-95.62,17.541,64.8896],[-95.6155,17.5427,76.816],[-95.6071,17.5398,60.8722],[-95.6058,17.5406,85.7666],[-95.608,17.545,78.1897],[-95.6051,17.549,86.1273],[-95.6036,17.5445,61.4192],[-95.5993,17.5437,93.6958],[-95.5988,17.5346,68.0626],[-95.5958,17.5378,76.3649],[-95.59,17.5383,71.3476],[-95.5867,17.5349,69.1714],[-95.5796,17.5376,63.9533],[-95.5776,17.539,62.2173],[-95.5784,17.5446,59.221],[-95.5726,17.5486,64.7833]]]]}
,"properties": {"GID_2": "MEX.30.148_2","GID_0": "MEX","country": "México","GID_1": "MEX.30_1","province": "Veracruz","NL_NAME_1": "NA","county": "SantiagoSochiapan","VARNAME_2": "NA","NL_NAME_2": "NA","TYPE_2": "Município","ENGTYPE_2": "Municipality","CC_2": "NA","HASC_2": "NA","name": "Santiago_Sochiapan.county","area_km2": 400.6022,"hist_schema_id": "Elevation0-9000","hist_area_km2": {"50": 2.4864,"75": 29.4676,"100": 118.8597,"125": 175.0623,"150": 66.5019,"175": 7.7193,"200": 0.5052}}}