{"type":"Feature","properties":{"GID_2":"MEX.5.98_2","GID_0":"MEX","country":"México","GID_1":"MEX.5_1","province":"Chiapas","NL_NAME_1":"NA","county":"Tapachula","VARNAME_2":"NA","NL_NAME_2":"NA","TYPE_2":"Município","ENGTYPE_2":"Municipality","CC_2":"NA","HASC_2":"NA","name":"Tapachula.county"},
"geometry":{"type": "MultiPolygon","coordinates": [[[[-92.184,15.2276,2211.9512],[-92.1911,15.2263,2027.2438],[-92.1932,15.2278,1985.6021],[-92.1944,15.224,1946.9363],[-92.2023,15.2206,1854.2053],[-92.2051,15.2123,1955.2886],[-92.2155,15.2096,2221.3379],[-92.2227,15.2039,2324.5779],[-92.2466,15.2123,2450.3875],[-92.2503,15.2058,2255.4814],[-92.2344,15.1989,2552.5981],[-92.2434,15.1891,1904.6732],[-92.2523,15.1878,1596.0728],[-92.2594,15.1826,1457.1912],[-92.2678,15.1838,1490.8696],[-92.2712,15.1738,1322.1958],[-92.2768,15.1771,1250.9636],[-92.2822,15.1711,1095.7454],[-92.284,15.1641,1016.0192],[-92.2865,15.1638,1013.1612],[-92.2896,15.1847,1532.2186],[-92.2941,15.1841,1313.5261],[-92.2928,15.1976,1678.8458],[-92.2672,15.1948,1845.9875],[-92.2762,15.2189,2225.5754],[-92.3049,15.2337,2305.6016],[-92.3058,15.2288,2390.8711],[-92.327,15.2355,1714.4425],[-92.3293,15.2146,1647.5009],[-92.332,15.2142,1581.6987],[-92.3339,15.2099,1556.3416],[-92.3335,15.2054,1468.9974],[-92.3349,15.2042,1454.3043],[-92.3333,15.2022,1459.2797],[-92.3348,15.2004,1422.0554],[-92.3332,15.2003,1338.8965],[-92.3346,15.1878,1177.9135],[-92.3418,15.181,1023.3838],[-92.3435,15.1765,881.879],[-92.3519,15.1706,812.0046],[-92.3496,15.169,825.0679],[-92.3507,15.163,722.13],[-92.362,15.157,519.5988],[-92.3616,15.1607,469.0991],[-92.3666,15.1568,411.2021],[-92.368,15.1532,368.4081],[-92.3791,15.1487,270.5201],[-92.3832,15.1442,230.1047],[-92.3795,15.1452,284.9493],[-92.3577,15.1426,779.6627],[-92.365,15.1305,603.3204],[-92.3701,15.1311,566.8521],[-92.3736,15.1093,161.7746],[-92.3671,15.1103,146.2276],[-92.3649,15.1099,171.7782],[-92.3651,15.1067,225.3447],[-92.3329,15.1046,588.6859],[-92.3331,15.088,578.7502],[-92.3248,15.0879,458.6895],[-92.3252,15.0814,426.2817],[-92.3211,15.0812,304.0573],[-92.3178,15.0752,279.6092],[-92.3202,15.0726,252.2385],[-92.3223,15.0737,245.201],[-92.3236,15.0726,245.201],[-92.3226,15.0684,227.0105],[-92.3275,15.0596,210.2767],[-92.3272,15.0524,197.6609],[-92.3382,15.0555,335.0697],[-92.34,15.0581,348.3345],[-92.3377,15.0579,360.622],[-92.3371,15.0617,373.3466],[-92.3405,15.0622,369.4902],[-92.3401,15.0646,385.683],[-92.3435,15.0649,375.1174],[-92.3446,15.0559,304.6774],[-92.3424,15.0544,332.4852],[-92.3432,15.047,305.8527],[-92.3396,15.0465,167.6199],[-92.3392,15.0429,157.0103],[-92.3527,15.0394,183.7202],[-92.359,15.0407,266.5388],[-92.359,15.044,263.6642],[-92.365,15.0447,125.5333],[-92.3659,15.037,225.6593],[-92.3751,15.038,182.7988],[-92.3758,15.0325,217.3413],[-92.3641,15.0312,103.7653],[-92.3599,15.0359,123.4913],[-92.3544,15.0352,151.6264],[-92.3488,15.0394,131.4678],[-92.3367,15.038,295.4193],[-92.3364,15.036,331.1389],[-92.3325,15.0359,336.8437],[-92.3329,15.0297,339.4966],[-92.3359,15.0299,337.7812],[-92.3361,15.0275,315.0473],[-92.3229,15.026,302.2384],[-92.3225,15.029,357.9829],[-92.3153,15.0148,258.017],[-92.3189,15.0113,226.9857],[-92.32,15.0059,205.9429],[-92.3126,15.0008,305.9865],[-92.3129,14.9972,233.056],[-92.3065,14.9967,217.6101],[-92.3027,14.9942,289.3119],[-92.3018,14.983,273.6664],[-92.3073,14.9805,242.9047],[-92.3123,14.9819,227.3383],[-92.314,14.9795,219.1942],[-92.3072,14.9735,236.6341],[-92.312,14.9727,207.7125],[-92.3141,14.9686,196.8146],[-92.3169,14.9674,187.4152],[-92.3166,14.9631,210.1551],[-92.3251,14.9651,149.4835],[-92.3283,14.9616,138.8442],[-92.3299,14.9619,138.8442],[-92.3286,14.9611,138.8442],[-92.333,14.9597,146.3891],[-92.3334,14.9618,135.2711],[-92.3467,14.9636,135.6107],[-92.3486,14.9555,122.883],[-92.3631,14.9577,107.9415],[-92.3637,14.9478,68.3196],[-92.3716,14.9442,40.2784],[-92.3739,14.9502,80.4835],[-92.3801,14.949,70.6665],[-92.3763,14.9526,77.6367],[-92.3795,14.9549,73.7559],[-92.3868,14.949,39.0338],[-92.3867,14.9443,27.9549],[-92.4051,14.9442,21.2254],[-92.4042,14.952,20.0135],[-92.4121,14.954,16.1325],[-92.4148,14.9525,15.349],[-92.4144,14.9564,18.701],[-92.4131,14.9568,19.8906],[-92.4157,14.9616,23.5397],[-92.4303,14.9534,13.4557],[-92.4264,14.9495,15.7238],[-92.4258,14.9446,19.4984],[-92.4162,14.9232,22.9611],[-92.4005,14.9145,30.4157],[-92.3994,14.9121,29.6561],[-92.3881,14.9089,29.9425],[-92.3875,14.9074,29.6066],[-92.3877,14.8721,32.5807],[-92.3857,14.8679,30.2562],[-92.391,14.8637,27.0351],[-92.3891,14.8614,28.0476],[-92.3979,14.8547,23.4934],[-92.397,14.8532,22.5223],[-92.3987,14.8519,24.1687],[-92.3968,14.8418,22.1651],[-92.3986,14.8351,24.0879],[-92.3961,14.8291,19.7015],[-92.394,14.8286,19.8094],[-92.3878,14.8176,24.2412],[-92.3856,14.8099,22.2372],[-92.3917,14.8055,16.4906],[-92.3961,14.8108,18.3337],[-92.4056,14.8071,16.2338],[-92.4075,14.8057,18.0146],[-92.407,14.8037,16.0649],[-92.4088,14.8061,15.06],[-92.417,14.8001,12.3959],[-92.4103,14.7924,17.348],[-92.4215,14.7838,9.5871],[-92.4328,14.7837,8.4417],[-92.4259,14.7804,8.2868],[-92.435,14.7788,5.3274],[-92.4391,14.7608,1.9473],[-92.4467,14.761,8.3131],[-92.4553,14.7551,9.474],[-92.462,14.7613,4.417],[-92.4664,14.7575,0.9739],[-92.4326,14.7284,2.9788],[-92.4285,14.7215,4.6239],[-92.4106,14.7054,0.4079],[-92.4087,14.7017,0.0],[-92.4074,14.7058,1.2081],[-92.405,14.707,0.0],[-92.4042,14.713,1.7252],[-92.4019,14.7133,3.7844],[-92.4034,14.7042,0.0],[-92.3942,14.7041,2.8014],[-92.3942,14.7024,0.5803],[-92.3969,14.7024,0.0],[-92.3978,14.7002,4.0153],[-92.3994,14.7034,3.9233],[-92.4036,14.7036,1.1469],[-92.4098,14.6963,0.4547],[-92.3693,14.6647,2.668],[-92.3194,14.6188,0.0],[-92.3165,14.6213,3.1034],[-92.3169,14.6251,6.2693],[-92.3146,14.6307,5.2724],[-92.3118,14.6297,5.0502],[-92.3102,14.636,5.675],[-92.305,14.6387,6.0446],[-92.3066,14.6429,5.9673],[-92.3021,14.6456,7.0474],[-92.3029,14.6499,5.8549],[-92.3022,14.6486,6.5958],[-92.3002,14.6492,8.139],[-92.2993,14.6565,8.4903],[-92.2951,14.6558,8.6391],[-92.2937,14.6612,10.7313],[-92.2899,14.6616,10.6112],[-92.2904,14.6634,10.5394],[-92.2957,14.6652,10.8095],[-92.2891,14.6684,9.2977],[-92.2905,14.6706,9.8899],[-92.2885,14.6733,11.6883],[-92.2902,14.6784,9.1766],[-92.288,14.6779,13.7264],[-92.2862,14.6812,10.2132],[-92.2828,14.6825,11.9693],[-92.2848,14.6879,15.387],[-92.284,14.6919,17.0349],[-92.2801,14.6946,12.9416],[-92.2812,14.6967,16.8947],[-92.2793,14.6966,11.8045],[-92.2758,14.7038,14.8162],[-92.2717,14.7028,16.942],[-92.2714,14.7083,14.6275],[-92.2675,14.71,15.9092],[-92.2703,14.7184,22.0985],[-92.2648,14.7264,24.7311],[-92.2658,14.7314,20.4181],[-92.2621,14.7343,21.7851],[-92.2659,14.7367,21.8313],[-92.2608,14.7466,24.4896],[-92.2635,14.7495,23.613],[-92.2665,14.7478,31.9369],[-92.2669,14.7495,31.6325],[-92.2644,14.7515,27.6462],[-92.2631,14.7499,23.613],[-92.2617,14.7508,28.4415],[-92.2613,14.7569,25.8889],[-92.2633,14.7558,23.1553],[-92.2643,14.7571,27.1293],[-92.2627,14.7604,24.7269],[-92.2604,14.7602,25.9124],[-92.2598,14.7616,32.7233],[-92.2648,14.7655,29.2333],[-92.2621,14.7662,22.7028],[-92.2608,14.7691,28.8697],[-92.2625,14.7701,25.5217],[-92.2643,14.7756,39.2701],[-92.262,14.7783,28.4028],[-92.2648,14.7807,35.3231],[-92.261,14.7809,26.3405],[-92.2585,14.785,29.3429],[-92.2534,14.7826,35.6131],[-92.2509,14.785,32.2321],[-92.2509,14.7867,27.6007],[-92.2536,14.7886,28.3478],[-92.2532,14.7907,52.0995],[-92.2588,14.7922,44.5386],[-92.2571,14.7947,33.7745],[-92.2559,14.7929,43.2476],[-92.2541,14.7931,46.4398],[-92.2568,14.8017,48.8937],[-92.254,14.806,46.1674],[-92.2554,14.8086,51.7519],[-92.2573,14.8074,42.0237],[-92.2587,14.8093,56.8659],[-92.2566,14.8123,59.3981],[-92.2591,14.8141,62.7573],[-92.2559,14.8162,53.1771],[-92.2593,14.8179,54.4578],[-92.2559,14.82,53.7559],[-92.2585,14.8204,69.3713],[-92.2563,14.8235,56.39],[-92.2596,14.8259,58.1158],[-92.26,14.8285,76.3863],[-92.2586,14.8317,73.7533],[-92.2547,14.834,64.12],[-92.254,14.8412,72.9397],[-92.2515,14.8419,74.2595],[-92.2537,14.8481,73.0637],[-92.2524,14.8515,72.6658],[-92.2529,14.8607,89.8107],[-92.2511,14.8619,81.7766],[-92.2516,14.8651,82.83],[-92.2491,14.8651,95.4395],[-92.2507,14.87,98.3151],[-92.2487,14.8706,98.332],[-92.2493,14.8771,99.2266],[-92.2461,14.8781,101.3318],[-92.2455,14.8815,103.7353],[-92.241,14.8844,136.4257],[-92.2403,14.8928,116.7412],[-92.2354,14.8964,119.7481],[-92.2357,14.8984,134.8219],[-92.2341,14.8994,124.6532],[-92.2355,14.9058,165.8796],[-92.229,14.9171,202.0552],[-92.229,14.9221,213.7012],[-92.2259,14.9287,229.4901],[-92.2265,14.9352,254.0983],[-92.2229,14.9347,219.5534],[-92.2224,14.9363,218.7329],[-92.2194,14.9363,236.1938],[-92.2188,14.9401,248.8186],[-92.2228,14.9404,231.304],[-92.2223,14.9422,265.9972],[-92.2262,14.942,272.3419],[-92.2262,14.9442,271.3947],[-92.2223,14.9442,273.1547],[-92.2217,14.9496,306.3844],[-92.2234,14.9509,302.623],[-92.2205,14.9515,336.1973],[-92.2197,14.9534,349.1492],[-92.2214,14.9536,331.5455],[-92.221,14.9572,368.0679],[-92.2172,14.9561,362.1496],[-92.2181,14.9569,362.1496],[-92.2168,14.9597,381.315],[-92.2151,14.9597,374.7848],[-92.214,14.9621,392.743],[-92.2026,14.961,376.1304],[-92.2008,14.9656,396.461],[-92.1984,14.9661,404.5345],[-92.1982,14.9698,418.559],[-92.2008,14.9694,420.7288],[-92.2008,14.9736,429.6442],[-92.2067,14.9745,399.6675],[-92.2097,14.9785,406.0012],[-92.2072,14.9831,415.7384],[-92.2079,14.992,476.6288],[-92.2012,14.9949,461.8538],[-92.1904,14.9911,472.3122],[-92.1901,14.9928,470.7224],[-92.1881,14.9931,472.5284],[-92.1895,15.0,497.4257],[-92.186,15.0277,614.7922],[-92.2056,15.0303,576.7152],[-92.2061,15.0319,586.9814],[-92.224,15.0325,406.3739],[-92.2237,15.0368,411.7303],[-92.2269,15.041,421.5924],[-92.226,15.0462,452.4983],[-92.2236,15.047,443.1007],[-92.2189,15.0568,487.0336],[-92.2191,15.0607,493.2411],[-92.2207,15.0624,480.5466],[-92.2148,15.0768,525.6804],[-92.2166,15.0789,592.9258],[-92.2145,15.0782,552.0894],[-92.2126,15.0817,541.6378],[-92.2133,15.0856,576.8906],[-92.2109,15.0859,579.8508],[-92.2134,15.0883,609.4274],[-92.2096,15.092,621.8941],[-92.2097,15.0967,591.2514],[-92.2064,15.099,692.3536],[-92.2051,15.107,656.6522],[-92.2023,15.1104,775.5723],[-92.205,15.116,703.5581],[-92.2037,15.1202,744.592],[-92.2052,15.1255,747.1619],[-92.2029,15.1278,751.1808],[-92.2039,15.1293,783.2879],[-92.1983,15.1336,861.0492],[-92.1974,15.1372,1009.3318],[-92.1929,15.1371,941.5989],[-92.1848,15.1439,978.5521],[-92.1838,15.1534,960.1653],[-92.1765,15.1634,1178.8469],[-92.1822,15.1679,1088.9185],[-92.1799,15.1699,1116.9501],[-92.1815,15.1723,1125.6213],[-92.178,15.18,1181.614],[-92.1789,15.1835,1205.261],[-92.1709,15.188,1289.5209],[-92.17,15.1909,1448.1324],[-92.1648,15.1949,1455.2949],[-92.1629,15.2011,1955.8058],[-92.184,15.2276,2211.9512]]]]}}