{"type": "Feature","bbox": [-93.4143,17.3316,-93.0024,17.6873],"geometry": {"type": "MultiPolygon","coordinates": [[[[-93.1697,17.3974,606.7113],[-93.1738,17.4028,579.3657],[-93.1693,17.4154,304.4765],[-93.1667,17.4153,278.9839],[-93.1602,17.4193,265.4367],[-93.1549,17.4254,163.063],[-93.1482,17.4253,232.7707],[-93.1456,17.4283,210.7477],[-93.1396,17.4285,138.623],[-93.1323,17.438,78.0245],[-93.1312,17.4471,62.7381],[-93.1201,17.4551,60.5844],[-93.1208,17.4643,48.2441],[-93.1146,17.4672,46.5671],[-93.1083,17.4746,42.5713],[-93.1014,17.4758,40.9799],[-93.1019,17.4854,35.6206],[-93.0956,17.4864,43.4415],[-93.0928,17.4817,52.7619],[-93.0871,17.4793,132.1712],[-93.0865,17.4917,74.8159],[-93.0774,17.4919,46.877],[-93.0763,17.4882,44.1829],[-93.079,17.4882,108.7794],[-93.0795,17.4829,127.7665],[-93.0777,17.4832,71.6695],[-93.0738,17.4851,48.9536],[-93.0736,17.4958,33.8224],[-93.055,17.491,149.7077],[-93.0531,17.4953,165.3984],[-93.051,17.495,183.5704],[-93.0519,17.4976,146.9405],[-93.0496,17.4956,183.2641],[-93.0274,17.4952,366.8792],[-93.0266,17.4969,435.8433],[-93.0303,17.5027,503.5677],[-93.0279,17.5068,497.9164],[-93.0279,17.5146,308.3445],[-93.0252,17.5187,261.4146],[-93.0207,17.5193,187.5075],[-93.017,17.5218,179.2089],[-93.0188,17.528,159.1434],[-93.0165,17.5276,129.1311],[-93.0173,17.5337,108.191],[-93.0159,17.534,100.7924],[-93.0144,17.5306,101.3847],[-93.0123,17.53,250.6941],[-93.0047,17.5313,431.6252],[-93.0024,17.5402,202.7367],[-93.0046,17.5481,79.1374],[-93.0043,17.5552,30.0072],[-93.0057,17.5556,30.5778],[-93.0058,17.5593,36.6414],[-93.0077,17.5613,27.2418],[-93.0058,17.5643,26.676],[-93.0071,17.5656,25.4294],[-93.0045,17.5692,36.6118],[-93.0061,17.5714,28.6009],[-93.0042,17.5759,35.0468],[-93.0059,17.5767,25.4073],[-93.0044,17.5776,28.9014],[-93.0058,17.5789,25.0835],[-93.0044,17.5795,27.4671],[-93.0071,17.5815,20.9179],[-93.0108,17.5806,23.5188],[-93.0105,17.5828,19.9432],[-93.0169,17.5931,19.0629],[-93.0316,17.5994,16.1625],[-93.0338,17.6039,14.8197],[-93.0405,17.6098,15.2906],[-93.0402,17.612,14.5267],[-93.0419,17.6136,14.5419],[-93.0409,17.6153,13.8271],[-93.0441,17.62,15.9418],[-93.0426,17.6261,17.9312],[-93.0451,17.64,14.6816],[-93.0455,17.6591,17.2117],[-93.0437,17.66,16.1286],[-93.0434,17.6634,15.9932],[-93.0451,17.6671,16.455],[-93.0408,17.6674,16.5457],[-93.0408,17.6703,16.0057],[-93.0444,17.6734,15.9666],[-93.0404,17.6747,15.8482],[-93.0419,17.6805,15.7215],[-93.0379,17.6807,15.0556],[-93.0407,17.6823,15.2736],[-93.038,17.6826,15.721],[-93.0385,17.6842,16.2402],[-93.0418,17.6873,20.1042],[-93.067,17.6717,14.6282],[-93.0611,17.6719,13.0826],[-93.0622,17.6698,14.3231],[-93.0598,17.6649,11.2134],[-93.065,17.667,17.9136],[-93.0654,17.6638,18.1851],[-93.069,17.6636,13.5936],[-93.0691,17.6662,12.9193],[-93.0707,17.6662,12.0331],[-93.0719,17.6618,12.1552],[-93.0744,17.661,12.3476],[-93.076,17.6516,19.8068],[-93.0902,17.6149,19.9197],[-93.0943,17.6092,18.5616],[-93.0854,17.6072,20.6066],[-93.0846,17.6102,18.9001],[-93.0798,17.6101,15.2644],[-93.078,17.5833,21.9039],[-93.0756,17.5783,21.78],[-93.0776,17.5727,22.9839],[-93.081,17.5733,26.5623],[-93.0947,17.5854,25.5174],[-93.0971,17.5845,21.353],[-93.0974,17.581,20.1359],[-93.1013,17.5749,21.934],[-93.1031,17.5783,20.6645],[-93.1081,17.5804,27.4329],[-93.1088,17.5834,25.7635],[-93.1117,17.5815,28.6918],[-93.1131,17.5837,23.5133],[-93.1188,17.5832,43.4865],[-93.1198,17.5879,36.1361],[-93.1237,17.5887,47.268],[-93.1248,17.581,72.3555],[-93.1291,17.5829,63.6002],[-93.131,17.5814,57.4069],[-93.1324,17.5847,70.136],[-93.1378,17.5871,65.4989],[-93.1376,17.5837,94.6172],[-93.142,17.5811,108.492],[-93.1495,17.5804,152.7946],[-93.153,17.5842,132.5108],[-93.1564,17.5833,162.1884],[-93.1569,17.5848,146.4903],[-93.1591,17.5847,160.56],[-93.1592,17.5873,150.72],[-93.1625,17.5892,142.2552],[-93.1633,17.5794,186.0895],[-93.1663,17.5805,187.0854],[-93.1696,17.5763,194.134],[-93.1663,17.5717,219.4057],[-93.1706,17.5683,167.2511],[-93.1695,17.5668,185.2205],[-93.1747,17.5635,251.6453],[-93.1786,17.5646,234.4004],[-93.1786,17.5611,249.0773],[-93.1846,17.5615,211.637],[-93.1858,17.563,227.4633],[-93.19,17.561,180.6473],[-93.2061,17.5645,190.8129],[-93.207,17.5628,175.4462],[-93.2093,17.5659,155.6951],[-93.2112,17.5651,146.3562],[-93.2128,17.5666,129.4163],[-93.2184,17.578,118.037],[-93.2176,17.581,131.1535],[-93.2115,17.5852,170.249],[-93.2111,17.587,164.914],[-93.2134,17.5891,117.6469],[-93.2168,17.5851,160.2235],[-93.22,17.5895,159.685],[-93.219,17.5917,150.6882],[-93.2245,17.5972,121.4324],[-93.2292,17.5955,132.0331],[-93.2312,17.5974,123.3136],[-93.2385,17.5984,113.2702],[-93.2462,17.5924,57.7009],[-93.237799999999993,17.5898,63.0377],[-93.2356,17.5879,59.543],[-93.2368,17.5868,57.339],[-93.2347,17.5839,64.4485],[-93.231,17.5839,89.2875],[-93.2309,17.5775,65.2305],[-93.2337,17.5738,74.2047],[-93.2341,17.5677,69.0433],[-93.2388,17.5681,66.906],[-93.2409,17.5639,62.9492],[-93.2436,17.5627,59.3696],[-93.2432,17.5603,63.1191],[-93.2553,17.5555,155.1742],[-93.2613,17.5713,116.0481],[-93.2697,17.5676,83.3636],[-93.2714,17.5689,79.3346],[-93.2714,17.5722,74.8886],[-93.2756,17.5736,75.9608],[-93.2683,17.5791,69.4969],[-93.2682,17.5819,70.5357],[-93.2732,17.5789,70.6667],[-93.2779,17.5809,72.8553],[-93.2815,17.5881,64.2257],[-93.2794,17.5958,56.4345],[-93.28,17.6005,59.4404],[-93.2888,17.598,51.7007],[-93.2874,17.6084,59.1094],[-93.2979,17.6059,53.6838],[-93.3072,17.5998,54.9969],[-93.3225,17.6157,37.8722],[-93.3277,17.6162,41.0361],[-93.3173,17.6396,47.565],[-93.326,17.6533,37.3937],[-93.3279,17.6598,36.0339],[-93.3371,17.6652,33.9711],[-93.3461,17.6667,32.4786],[-93.346,17.6681,31.1486],[-93.3484,17.6688,37.6657],[-93.3605,17.6651,51.1229],[-93.3563,17.648,37.0463],[-93.362,17.6463,44.6888],[-93.3824,17.6448,33.8249],[-93.3834,17.6336,35.3717],[-93.401,17.6245,34.2324],[-93.4083,17.6182,34.5],[-93.4124,17.6022,35.5],[-93.4116,17.5974,37.1394],[-93.4143,17.5927,38.8758],[-93.408,17.5763,44.4454],[-93.3953,17.5647,42.684],[-93.3936,17.5649,42.1301],[-93.3944,17.5639,42.684],[-93.389,17.5626,45.7979],[-93.3879,17.5642,44.9244],[-93.3837,17.5639,43.8431],[-93.3835,17.5557,48.2828],[-93.3662,17.5379,77.3865],[-93.3683,17.531,178.579],[-93.3654,17.5306,172.9475],[-93.364,17.5281,195.1363],[-93.3614,17.5287,205.1681],[-93.3601,17.5253,209.9264],[-93.361,17.5223,203.2282],[-93.366,17.5251,180.5745],[-93.3698,17.5182,211.4712],[-93.3753,17.5203,191.2759],[-93.3792,17.5141,207.1652],[-93.3713,17.5099,221.1463],[-93.3732,17.5048,222.5403],[-93.3713,17.5039,224.9527],[-93.3719,17.5012,165.0281],[-93.3323,17.5008,281.0128],[-93.3279,17.506,233.9022],[-93.3223,17.5016,237.7047],[-93.3181,17.5021,254.5729],[-93.3188,17.5041,201.3394],[-93.3167,17.5066,174.8429],[-93.3138,17.5074,170.8933],[-93.3092,17.5057,205.5764],[-93.3072,17.5066,219.4399],[-93.307,17.5103,150.7565],[-93.2995,17.5098,166.4133],[-93.2969,17.5136,145.3315],[-93.2992,17.5151,119.2448],[-93.2971,17.5178,133.9485],[-93.2895,17.5124,113.704],[-93.2874,17.5177,116.2246],[-93.2858,17.5179,101.6714],[-93.2849,17.5239,104.3827],[-93.2805,17.5269,114.7586],[-93.2683,17.5273,177.9814],[-93.267,17.5295,169.7481],[-93.2726,17.5311,151.1548],[-93.2709,17.5326,162.2971],[-93.2728,17.5361,114.2466],[-93.2707,17.5378,115.9822],[-93.2519,17.5454,134.8746],[-93.2469,17.5435,86.4562],[-93.2406,17.5381,97.8564],[-93.2361,17.5367,106.3267],[-93.2343,17.5388,77.5071],[-93.2327,17.5369,98.8409],[-93.2341,17.5332,125.2912],[-93.2329,17.5269,154.1958],[-93.2295,17.5248,126.774],[-93.2318,17.522,166.8937],[-93.2302,17.5215,168.9284],[-93.2332,17.5205,166.8937],[-93.2342,17.5184,167.7392],[-93.2336,17.5149,173.7836],[-93.2307,17.5136,195.3693],[-93.2294,17.5106,214.192],[-93.2304,17.5082,270.1149],[-93.2266,17.5059,296.562],[-93.2192,17.5061,299.2433],[-93.2122,17.4989,175.4358],[-93.2009,17.491,267.7645],[-93.1994,17.4856,394.3057],[-93.195,17.4797,468.2003],[-93.1997,17.474,445.1139],[-93.2122,17.4688,293.411],[-93.2166,17.4514,537.3253],[-93.224,17.4542,539.4824],[-93.2426,17.4425,349.7751],[-93.2551,17.4226,724.9136],[-93.2576,17.4064,713.8168],[-93.2499,17.4067,695.7476],[-93.2489,17.3661,799.9843],[-93.242,17.3678,900.9982],[-93.226,17.3529,989.7465],[-93.2301,17.3483,790.7519],[-93.2262,17.3442,698.1522],[-93.2235,17.3369,507.2841],[-93.2184,17.3318,348.7219],[-93.2158,17.3316,392.9922],[-93.216,17.3337,357.6668],[-93.2123,17.3338,378.5936],[-93.2077,17.3375,419.9581],[-93.2038,17.3381,411.1527],[-93.1956,17.3442,522.0926],[-93.1944,17.3426,448.6285],[-93.1892,17.3442,547.9626],[-93.1864,17.3432,553.1299],[-93.1792,17.3363,559.16],[-93.1742,17.3433,686.6181],[-93.1772,17.3443,657.2766],[-93.1772,17.3504,728.17],[-93.1718,17.3492,808.5482],[-93.1714,17.3554,618.2139],[-93.1755,17.3567,733.0344],[-93.175299999999993,17.3622,579.0505],[-93.1826,17.3619,599.2434],[-93.1996,17.3662,663.5261],[-93.1983,17.3692,635.7499],[-93.2,17.3741,596.4234],[-93.1998,17.3856,537.9265],[-93.2076,17.3819,568.1694],[-93.2102,17.3917,516.2333],[-93.208,17.4045,413.109],[-93.2048,17.4094,371.0671],[-93.1912,17.408,647.7233],[-93.1911,17.4016,649.0345],[-93.1894,17.4015,630.4902],[-93.1883,17.3974,501.3947],[-93.1823,17.3984,560.8611],[-93.1746,17.3965,531.5393],[-93.1697,17.3974,606.7113]]]]}
,"properties": {"GID_2": "MEX.5.76_2","GID_0": "MEX","country": "México","GID_1": "MEX.5_1","province": "Chiapas","NL_NAME_1": "NA","county": "Pichucalco","VARNAME_2": "NA","NL_NAME_2": "NA","TYPE_2": "Município","ENGTYPE_2": "Municipality","CC_2": "NA","HASC_2": "NA","name": "Pichucalco.county","area_km2": 593.4447,"hist_schema_id": "Elevation0-9000","hist_area_km2": {"0": 2.5253,"25": 113.3046,"50": 123.4347,"75": 57.0484,"100": 34.2892,"125": 27.0724,"150": 23.8583,"175": 21.1894,"200": 21.7353,"225": 20.6234,"250": 17.8745,"275": 14.3366,"300": 11.3851,"325": 9.9699,"350": 7.7862,"375": 6.5933,"400": 5.9463,"425": 5.0769,"450": 5.3199,"475": 5.5021,"500": 4.6729,"525": 5.0777,"550": 5.0171,"575": 4.916,"600": 5.321,"625": 4.9977,"650": 4.8966,"675": 4.7145,"700": 3.7433,"725": 3.1159,"750": 2.5089,"775": 1.902,"800": 1.2343,"825": 1.0319,"850": 0.8296,"875": 0.8297,"900": 0.5666,"925": 0.4857,"950": 0.425,"975": 0.4452,"1000": 0.6476,"1025": 0.6476,"1050": 0.4452,"1075": 0.1012}}}