{"type": "Feature","bbox": [-102.6119,19.7108,-102.3972,19.9008],"geometry": {"type": "MultiPolygon","coordinates": [[[[-102.6058,19.8663,1922.2714],[-102.595,19.8682,1875.5475],[-102.5877,19.8673,1839.0356],[-102.5866,19.8634,1817.2263],[-102.5829,19.8615,1808.8944],[-102.5827,19.8579,1800.0941],[-102.5733,19.8511,1843.6539],[-102.5587,19.8338,2130.0608],[-102.5579,19.8183,1992.8561],[-102.5595,19.8099,1904.1354],[-102.553,19.8055,1832.9883],[-102.5495,19.7986,1761.1145],[-102.5501,19.7956,1758.4161],[-102.5527,19.7938,1735.1462],[-102.542,19.7935,1843.7009],[-102.5399,19.7895,1875.6349],[-102.5374,19.777,1905.23],[-102.533,19.7651,2245.363],[-102.5349,19.7639,2245.6167],[-102.5337,19.7602,2108.2026],[-102.539,19.7567,1908.6552],[-102.5405,19.753,1845.2709],[-102.5456,19.7504,1741.0269],[-102.5505,19.7424,1668.4856],[-102.5625,19.7324,1595.0867],[-102.556,19.727,1594.8693],[-102.545,19.7221,1601.5858],[-102.5436,19.7264,1609.4741],[-102.5297,19.7194,1605.1329],[-102.5227,19.7175,1629.7373],[-102.522,19.7185,1629.7373],[-102.5204,19.7165,1636.1215],[-102.5138,19.715,1645.585],[-102.5074,19.7235,1808.7991],[-102.4924,19.7194,1604.2048],[-102.4884,19.724,1609.4434],[-102.473,19.7186,1683.1592],[-102.4614,19.7204,1828.9229],[-102.4599,19.7183,1831.2252],[-102.4458,19.7156,1843.5934],[-102.4428,19.7108,1792.6868],[-102.4419,19.7154,1812.8011],[-102.4381,19.7187,1857.2935],[-102.4263,19.7202,1935.7786],[-102.4188,19.7253,1994.8265],[-102.4168,19.7294,1983.0176],[-102.4175,19.7335,2014.2356],[-102.4149,19.7358,2013.2386],[-102.4112,19.7462,2097.7295],[-102.4057,19.7551,2166.9487],[-102.4035,19.767,2193.3193],[-102.3972,19.7853,2227.2156],[-102.407,19.7946,2261.9187],[-102.409,19.8045,2317.1021],[-102.4566,19.7891,1979.5264],[-102.4605,19.7902,1907.9325],[-102.4655,19.7891,1821.9583],[-102.467,19.7916,1778.8201],[-102.4705,19.793,1750.0328],[-102.4773,19.7935,1716.5189],[-102.483,19.7931,1702.7896],[-102.4892,19.789,1699.5779],[-102.4908,19.7991,1725.484],[-102.4928,19.8008,1748.9288],[-102.5076,19.8027,1737.5876],[-102.512,19.8051,1736.3435],[-102.5157,19.8046,1744.6669],[-102.5214,19.8097,1756.0779],[-102.5327,19.8092,1780.5273],[-102.5346,19.8124,1779.1871],[-102.5335,19.8172,1811.3269],[-102.5355,19.8217,1817.575],[-102.53,19.8383,1816.4944],[-102.5311,19.8441,1831.8491],[-102.5286,19.8461,1838.5305],[-102.5181,19.8466,1843.5941],[-102.5157,19.8481,1838.6949],[-102.5155,19.8549,1853.1754],[-102.5206,19.8692,1850.7894],[-102.5228,19.8699,1844.0093],[-102.529,19.8668,1831.5187],[-102.5334,19.8675,1842.9871],[-102.5358,19.865,1811.0244],[-102.5378,19.8653,1819.6416],[-102.5422,19.872,1826.6632],[-102.5419,19.88,1799.9973],[-102.5541,19.8821,1782.9514],[-102.5715,19.8928,1767.0565],[-102.5736,19.896,1770.0762],[-102.573,19.9008,1760.9261],[-102.5969,19.8991,1936.136],[-102.6003,19.8954,1877.5383],[-102.5985,19.8928,1890.2051],[-102.6068,19.8889,1984.7703],[-102.6087,19.8819,2020.7593],[-102.6119,19.8806,2024.5426],[-102.6113,19.8778,1990.7201],[-102.6095,19.8772,1985.9382],[-102.6111,19.8745,2017.2349],[-102.6058,19.8663,1922.2714]]]]}
,"properties": {"GID_2": "MEX.16.92_2","GID_0": "MEX","country": "México","GID_1": "MEX.16_1","province": "Michoacán","NL_NAME_1": "NA","county": "Tingüindín","VARNAME_2": "NA","NL_NAME_2": "NA","TYPE_2": "Município","ENGTYPE_2": "Municipality","CC_2": "NA","HASC_2": "NA","name": "Tingüindín.county","area_km2": 173.8677,"hist_schema_id": "Elevation0-9000","hist_area_km2": {"1600": 2.5346,"1625": 4.9495,"1650": 6.5858,"1675": 11.0946,"1700": 12.2908,"1725": 11.4725,"1750": 7.5023,"1775": 17.6305,"1800": 11.0905,"1825": 8.8569,"1850": 8.5972,"1875": 8.797,"1900": 5.9843,"1925": 5.5261,"1950": 3.7303,"1975": 4.1293,"2000": 3.3715,"2025": 3.4716,"2050": 3.8909,"2075": 3.7112,"2100": 3.811,"2125": 2.9928,"2150": 2.913,"2175": 2.534,"2200": 3.8308,"2225": 2.3542,"2250": 1.0774,"2275": 0.7581,"2300": 0.8379,"2325": 0.798,"2350": 0.4988,"2375": 0.5387,"2400": 0.5187,"2425": 0.2594,"2450": 0.5586,"2475": 0.4589,"2500": 0.4589,"2525": 0.4389,"2550": 0.3392,"2575": 0.379,"2600": 0.399,"2625": 0.3391,"2650": 0.3192,"2675": 0.2593,"2700": 0.2593,"2725": 0.1596,"2750": 0.1396,"2775": 0.1396,"2800": 0.0598,"2825": 0.1197,"2850": 0.0798,"2875": 0.0199}}}