{"type":"Feature","properties":{"GID_2":"MEX.28.26_2","GID_0":"MEX","country":"México","GID_1":"MEX.28_1","province":"Tamaulipas","NL_NAME_1":"NA","county":"Miquihuana","VARNAME_2":"NA","NL_NAME_2":"NA","TYPE_2":"Município","ENGTYPE_2":"Municipality","CC_2":"NA","HASC_2":"NA","name":"Miquihuana.county"},
"geometry":{"type": "MultiPolygon","coordinates": [[[[-99.9477,23.4972,1739.9048],[-99.9248,23.4921,1731.2013],[-99.9184,23.5069,1544.7742],[-99.9124,23.5163,1877.5889],[-99.9087,23.5302,1504.6216],[-99.871,23.551,1518.4673],[-99.8815,23.5089,2139.2734],[-99.8472,23.4961,1672.4514],[-99.817,23.5257,2026.686],[-99.7954,23.4855,2827.2598],[-99.7689,23.4828,2503.2058],[-99.7672,23.511,2657.8916],[-99.7581,23.5102,2599.104],[-99.7474,23.5169,2320.6628],[-99.7333,23.5203,2545.8069],[-99.7126,23.5374,2265.3057],[-99.6794,23.5085,2039.9863],[-99.6609,23.4793,1944.2738],[-99.6579,23.4593,2055.7712],[-99.6492,23.4375,1965.915],[-99.6425,23.3977,2275.1047],[-99.6443,23.3916,2207.0007],[-99.6345,23.3958,2243.1011],[-99.6258,23.4036,2270.2434],[-99.6192,23.4272,1689.0905],[-99.5814,23.4239,2371.6895],[-99.6422,23.5981,2517.522],[-99.6717,23.6524,3081.657],[-99.6803,23.675,2876.4368],[-99.6746,23.6792,2840.4644],[-99.6655,23.6778,2728.4724],[-99.6639,23.6744,2760.9302],[-99.6576,23.6776,2596.5554],[-99.6453,23.6997,2536.5205],[-99.6661,23.7496,2464.4121],[-99.6599,23.7707,1758.7358],[-99.6834,23.7766,2112.3181],[-99.769,23.7845,2676.4138],[-99.8055,23.7843,2501.3628],[-99.8607,23.7745,3493.0918],[-99.8911,23.7038,2307.2686],[-99.9158,23.6651,1537.6287],[-99.9612,23.5569,1457.9318],[-99.9477,23.4972,1739.9048]]]]}}