{"type": "Feature","bbox": [-97.8251,20.4084,-97.541,20.6016],"geometry": {"type": "MultiPolygon","coordinates": [[[[-97.7826,20.5837,373.1479],[-97.7831,20.5753,278.1511],[-97.7875,20.5595,371.4132],[-97.7811,20.5477,398.6494],[-97.7747,20.5447,341.8024],[-97.7736,20.5412,316.1614],[-97.7784,20.5364,285.1642],[-97.783,20.5343,266.5185],[-97.7898,20.5359,250.6483],[-97.7951,20.5331,244.5992],[-97.7949,20.5298,266.2525],[-97.7936,20.5294,266.2525],[-97.7943,20.5266,305.1227],[-97.7993,20.527,325.353],[-97.8014,20.5238,362.2034],[-97.8047,20.526,422.2228],[-97.8185,20.5271,432.4125],[-97.8251,20.5186,426.8047],[-97.8165,20.5097,435.8514],[-97.815,20.5115,429.0902],[-97.8132,20.5101,429.5691],[-97.8139,20.5089,438.049],[-97.8101,20.5066,429.9901],[-97.8122,20.5,442.2635],[-97.811,20.4957,442.5302],[-97.8135,20.4944,443.3501],[-97.8134,20.4915,444.8474],[-97.8053,20.4829,476.0649],[-97.797,20.4782,451.9459],[-97.7936,20.482,448.2601],[-97.7891,20.4831,439.5033],[-97.7878,20.482,464.0228],[-97.7936,20.4734,477.8727],[-97.7982,20.4733,488.5206],[-97.8016,20.4708,479.0572],[-97.7929,20.4669,465.8362],[-97.789,20.4736,475.3331],[-97.7837,20.4708,460.6059],[-97.778,20.4713,450.5447],[-97.7781,20.4752,432.4834],[-97.7764,20.4731,453.1576],[-97.7748,20.4736,453.1576],[-97.7738,20.4768,431.9307],[-97.7688,20.4763,420.1021],[-97.7677,20.4795,422.3062],[-97.7653,20.4808,433.4842],[-97.7577,20.478,417.1958],[-97.7589,20.4753,413.4755],[-97.756,20.4741,382.0667],[-97.7514,20.4688,247.0556],[-97.7463,20.4675,228.2242],[-97.7406,20.4604,178.4979],[-97.7389,20.4558,164.1991],[-97.7338,20.4521,155.6047],[-97.7287,20.4573,145.7168],[-97.7258,20.4582,140.9972],[-97.7231,20.4575,150.7716],[-97.7208,20.4535,190.9654],[-97.7092,20.4551,137.4567],[-97.7077,20.4481,162.5162],[-97.7015,20.4458,159.3638],[-97.6996,20.4434,131.6209],[-97.6991,20.4346,126.6594],[-97.6977,20.4325,123.3392],[-97.6881,20.4274,122.6552],[-97.68,20.4253,118.6074],[-97.6756,20.4194,118.511],[-97.6731,20.4189,128.197],[-97.6739,20.4112,113.3577],[-97.6721,20.4085,113.4107],[-97.6651,20.4084,112.6198],[-97.661,20.413,118.2709],[-97.6553,20.41,106.2793],[-97.6496,20.411,106.1194],[-97.6464,20.4085,105.3264],[-97.6439,20.409,103.336],[-97.6411,20.4119,101.1231],[-97.6413,20.4163,99.4024],[-97.6376,20.4179,98.8066],[-97.6366,20.4226,103.2145],[-97.6374,20.4298,98.0232],[-97.6355,20.4324,97.3929],[-97.6407,20.4423,95.9536],[-97.6361,20.4516,92.3249],[-97.6341,20.4528,88.3113],[-97.6278,20.4503,92.004],[-97.6239,20.4577,86.9045],[-97.6166,20.4553,98.8564],[-97.6072,20.462,85.9205],[-97.601,20.461,78.75],[-97.5959,20.464,79.1173],[-97.5937,20.4679,77.8767],[-97.5863,20.4725,75.9262],[-97.582,20.4826,74.9794],[-97.5767,20.4869,79.0008],[-97.5778,20.49,70.4732],[-97.5621,20.4901,66.4926],[-97.5561,20.4847,64.5421],[-97.5504,20.4865,66.6929],[-97.5449,20.4846,63.203],[-97.5433,20.4847,62.4043],[-97.541,20.4897,67.0531],[-97.5521,20.5074,143.8891],[-97.5536,20.5045,212.9239],[-97.5563,20.5085,210.2449],[-97.5549,20.5104,224.1573],[-97.5559,20.5114,223.0217],[-97.5575,20.5103,205.1464],[-97.5726,20.5322,174.5629],[-97.5746,20.5323,190.6141],[-97.5783,20.5374,243.2277],[-97.5788,20.5389,234.0808],[-97.575,20.5433,270.8325],[-97.5786,20.545,177.9259],[-97.5804,20.5478,139.1745],[-97.5835,20.5483,157.4067],[-97.5832,20.5516,184.2273],[-97.5893,20.5565,81.7723],[-97.5874,20.5574,122.6532],[-97.5897,20.5589,113.3897],[-97.588,20.5611,95.987],[-97.5892,20.5609,95.987],[-97.59,20.5597,113.3897],[-97.59,20.5561,83.6481],[-97.6026,20.5593,85.1998],[-97.6101,20.5639,97.0107],[-97.6254,20.5636,104.6947],[-97.6254,20.5584,101.6781],[-97.629,20.5559,102.168],[-97.6303,20.5568,102.168],[-97.6364,20.5553,105.4679],[-97.6367,20.5537,138.9607],[-97.6383,20.5555,109.2878],[-97.6377,20.559,118.5433],[-97.6462,20.5627,117.7354],[-97.6459,20.5659,125.9488],[-97.6482,20.5663,124.5805],[-97.6478,20.5652,130.8309],[-97.6506,20.565,156.5725],[-97.6576,20.5557,230.7802],[-97.6558,20.5475,220.5928],[-97.6564,20.5454,216.5798],[-97.659,20.5451,225.1104],[-97.6616,20.5458,232.5559],[-97.6677,20.5516,274.7993],[-97.6706,20.5527,292.3871],[-97.6727,20.5517,281.4734],[-97.6763,20.5555,284.6492],[-97.6848,20.5543,260.4571],[-97.6805,20.5671,212.549],[-97.6845,20.5695,217.548],[-97.6852,20.5734,225.1712],[-97.6942,20.5707,161.1095],[-97.6994,20.5724,145.1331],[-97.6999,20.5707,145.2593],[-97.7019,20.5719,151.2641],[-97.7012,20.5742,149.054],[-97.7035,20.5748,155.6237],[-97.7041,20.5729,152.0033],[-97.7049,20.5748,198.8827],[-97.7124,20.5788,333.3289],[-97.7304,20.578,376.7839],[-97.7348,20.5796,288.8363],[-97.7337,20.5866,201.3699],[-97.7402,20.6016,144.5026],[-97.7449,20.6012,148.9884],[-97.7492,20.5991,159.4504],[-97.7492,20.5976,157.7256],[-97.7527,20.5978,162.4289],[-97.7525,20.5965,163.4313],[-97.7551,20.5969,165.8998],[-97.7568,20.5943,173.4567],[-97.7606,20.5925,188.6235],[-97.7653,20.5923,192.3806],[-97.7683,20.5947,192.6521],[-97.7746,20.5904,210.7485],[-97.779,20.5841,312.8401],[-97.7826,20.5837,373.1479]]]]}
,"properties": {"GID_2": "MEX.21.194_2","GID_0": "MEX","country": "México","GID_1": "MEX.21_1","province": "Puebla","NL_NAME_1": "NA","county": "VenustianoCarranza","VARNAME_2": "NA","NL_NAME_2": "NA","TYPE_2": "Município","ENGTYPE_2": "Municipality","CC_2": "NA","HASC_2": "NA","name": "Venustiano_Carranza.county","area_km2": 317.7747,"hist_schema_id": "Elevation0-9000","hist_area_km2": {"75": 9.9506,"100": 23.6141,"125": 18.4899,"150": 20.435,"175": 21.7648,"200": 22.8366,"225": 25.0011,"250": 23.8692,"275": 23.3526,"300": 19.3008,"325": 24.8237,"350": 16.4221,"375": 11.497,"400": 15.6677,"425": 25.2993,"450": 10.4458,"475": 3.8326,"500": 0.9134,"525": 0.2581}}}