{"type": "Feature","bbox": [-97.7831,19.6177,-97.5591,19.8103],"geometry": {"type": "MultiPolygon","coordinates": [[[[-97.5999,19.6888,2548.0808],[-97.599,19.69,2542.6709],[-97.5964,19.689,2537.031],[-97.5958,19.6904,2537.031],[-97.5929,19.6894,2533.5093],[-97.5923,19.6907,2533.1699],[-97.5893,19.6896,2530.8584],[-97.5887,19.691,2533.3403],[-97.5858,19.6899,2531.3157],[-97.5852,19.6913,2535.0356],[-97.5823,19.6902,2529.7815],[-97.5819,19.6916,2535.6753],[-97.5787,19.6904,2523.6802],[-97.5715,19.6914,2538.2358],[-97.5669,19.6936,2569.5479],[-97.5643,19.6924,2582.1951],[-97.5638,19.6942,2592.3738],[-97.5612,19.693,2610.1157],[-97.5591,19.696,2639.905],[-97.5722,19.7022,2556.7546],[-97.5788,19.7078,2550.522],[-97.5807,19.7106,2519.6619],[-97.5796,19.7156,2473.3096],[-97.5869,19.7141,2489.5928],[-97.5929,19.7202,2431.1855],[-97.5967,19.719,2390.0049],[-97.5985,19.7195,2384.5942],[-97.5978,19.7211,2381.1548],[-97.6,19.7204,2385.7388],[-97.5985,19.7353,2366.4082],[-97.6057,19.7395,2370.0337],[-97.6085,19.7429,2378.5022],[-97.6208,19.7371,2688.6377],[-97.6192,19.7434,2482.6052],[-97.6169,19.745,2434.05],[-97.6182,19.7537,2481.0955],[-97.612799999999993,19.7639,2687.8442],[-97.6193,19.7674,2603.9126],[-97.6204,19.7695,2595.531],[-97.6239,19.7702,2658.2847],[-97.624,19.7727,2677.8462],[-97.6266,19.7717,2551.1272],[-97.6288,19.7755,2438.1094],[-97.6269,19.7779,2472.3115],[-97.6288,19.7796,2468.5889],[-97.6331,19.7793,2503.5056],[-97.6338,19.7817,2496.0347],[-97.6403,19.7857,2438.2275],[-97.6426,19.7931,2395.7676],[-97.6549,19.7922,2138.7744],[-97.66,19.7935,1924.9092],[-97.6616,19.7917,2038.017],[-97.667,19.7919,2198.9456],[-97.6669,19.7896,2198.4795],[-97.6808,19.7958,1732.5521],[-97.6844,19.8034,1752.0864],[-97.682,19.8043,1744.7212],[-97.6802,19.8075,1736.635],[-97.6822,19.8091,1762.3883],[-97.6846,19.8072,1754.8966],[-97.6895,19.8103,1795.0447],[-97.6934,19.8095,1834.8704],[-97.6993,19.8039,1986.0403],[-97.7061,19.8027,2108.9719],[-97.7092,19.8006,2244.5178],[-97.7115,19.8013,2274.7612],[-97.7145,19.807,2403.4055],[-97.7177,19.8088,2548.7219],[-97.7181,19.8037,2239.5046],[-97.7153,19.8012,2164.2517],[-97.7145,19.7969,2026.0675],[-97.7268,19.7969,2419.6565],[-97.7353,19.7932,2741.178],[-97.7211,19.7909,2307.1333],[-97.7222,19.788,2388.1855],[-97.7266,19.7879,2465.2661],[-97.7215,19.7819,2139.114],[-97.7335,19.7796,2532.375],[-97.7327,19.7752,2513.8738],[-97.7357,19.7755,2559.8105],[-97.737799999999993,19.7783,2547.4075],[-97.7408,19.7772,2505.6321],[-97.7385,19.7734,2398.665],[-97.7435,19.7724,2500.0767],[-97.7403,19.7706,2516.1035],[-97.7437,19.7699,2453.8425],[-97.7417,19.7673,2411.4465],[-97.7439,19.7626,2233.7358],[-97.7407,19.7561,2090.6338],[-97.7439,19.7586,2158.418],[-97.7548,19.7619,2551.4175],[-97.7577,19.7652,2826.9385],[-97.7609,19.7562,2717.0425],[-97.7666,19.75,2713.3589],[-97.765,19.7435,2706.0388],[-97.7531,19.7347,2716.689],[-97.7549,19.7332,2753.8516],[-97.7542,19.7281,2820.0022],[-97.76,19.724,2768.7214],[-97.765,19.7109,2873.1467],[-97.7678,19.7112,2854.9707],[-97.7735,19.7083,2909.9785],[-97.7776,19.7109,2786.0818],[-97.7831,19.7084,2734.5591],[-97.7814,19.7054,2854.7292],[-97.774,19.7043,2988.1797],[-97.767,19.6905,2593.0293],[-97.7633,19.6872,2465.571],[-97.7591,19.686,2415.8489],[-97.7671,19.6769,2666.9822],[-97.7681,19.672,2764.9644],[-97.7643,19.6714,2499.7417],[-97.7648,19.6691,2700.0225],[-97.7622,19.6687,2489.5012],[-97.7655,19.6641,2767.417],[-97.762,19.6599,2615.6685],[-97.7522,19.6602,2216.8901],[-97.7476,19.6581,2130.2998],[-97.7407,19.6505,2032.3011],[-97.7363,19.65,1982.8453],[-97.7379,19.6464,1986.4507],[-97.7423,19.6438,1992.2909],[-97.7415,19.639,2003.1718],[-97.735,19.6407,2083.0544],[-97.731,19.6359,2162.1729],[-97.7219,19.6335,2377.1704],[-97.7058,19.6354,2625.8433],[-97.7036,19.6322,2703.4502],[-97.7037,19.6292,2741.394],[-97.6985,19.6281,2889.5562],[-97.6946,19.6177,2543.3037],[-97.6889,19.6215,2491.3035],[-97.6844,19.6313,2643.1057],[-97.6862,19.6435,2362.9773],[-97.6833,19.6426,2393.2144],[-97.6798,19.6383,2543.144],[-97.6705,19.6536,2325.1289],[-97.6677,19.6496,2545.3208],[-97.6553,19.6409,2518.4429],[-97.6268,19.6408,2888.8101],[-97.6193,19.6552,2808.8875],[-97.6213,19.6761,2713.7905],[-97.6163,19.6857,2588.6216],[-97.6083,19.6906,2644.1428],[-97.6107,19.6808,2552.803],[-97.6064,19.6784,2545.3423],[-97.6043,19.6823,2572.062],[-97.6029,19.682,2543.1655],[-97.6023,19.6862,2552.9888],[-97.6006,19.6855,2544.2515],[-97.5999,19.6888,2548.0808]]]]}
,"properties": {"GID_2": "MEX.21.212_2","GID_0": "MEX","country": "México","GID_1": "MEX.21_1","province": "Puebla","NL_NAME_1": "NA","county": "Zautla","VARNAME_2": "NA","NL_NAME_2": "NA","TYPE_2": "Município","ENGTYPE_2": "Municipality","CC_2": "NA","HASC_2": "NA","name": "Zautla.county","area_km2": 267.4968,"hist_schema_id": "Elevation0-9000","hist_area_km2": {"1725": 0.2593,"1750": 0.6584,"1775": 1.3566,"1800": 2.1348,"1825": 2.3145,"1850": 3.0129,"1875": 3.053,"1900": 4.1108,"1925": 5.9672,"1950": 6.267,"1975": 8.5827,"2000": 7.7443,"2025": 7.2454,"2050": 7.0656,"2075": 7.4448,"2100": 7.0255,"2125": 7.9837,"2150": 7.9039,"2175": 7.7242,"2200": 7.8639,"2225": 7.6645,"2250": 7.5846,"2275": 8.2234,"2300": 8.0039,"2325": 8.5228,"2350": 8.8824,"2375": 10.778,"2400": 11.1573,"2425": 10.7382,"2450": 8.7623,"2475": 8.2436,"2500": 7.5848,"2525": 8.8427,"2550": 9.202,"2575": 7.0265,"2600": 6.0084,"2625": 4.212,"2650": 3.6131,"2675": 3.0143,"2700": 2.3355,"2725": 1.8763,"2750": 1.7766,"2775": 1.4372,"2800": 1.537,"2825": 1.1777,"2850": 1.1378,"2875": 0.6387,"2900": 0.5389,"2925": 0.3992,"2950": 0.1996,"2975": 0.3194,"3000": 0.1796,"3025": 0.0998,"3050": 0.0599}}}