{"type": "Feature","bbox": [-99.1288,19.5885,-99.0725,19.664],"geometry": {"type": "MultiPolygon","coordinates": [[[[-99.1179,19.5906,2955.7104],[-99.1064,19.5911,2769.1091],[-99.1004,19.5885,2869.6628],[-99.0883,19.5892,2743.291],[-99.0865,19.5972,2806.8423],[-99.0922,19.6004,2672.2117],[-99.0894,19.6102,2401.4546],[-99.0824,19.6193,2304.6826],[-99.0831,19.6207,2291.9207],[-99.0743,19.6364,2242.5496],[-99.0725,19.6571,2239.8489],[-99.106,19.664,2240.9336],[-99.1084,19.6495,2241.1187],[-99.1203,19.6531,2242.1716],[-99.1249,19.6381,2244.8169],[-99.1285,19.6367,2243.3496],[-99.1255,19.6254,2310.4019],[-99.1288,19.6018,2679.447],[-99.1276,19.5958,2854.5803],[-99.1179,19.5906,2955.7104]]]]}
,"properties": {"GID_2": "MEX.15.27_2","GID_0": "MEX","country": "México","GID_1": "MEX.15_1","province": "México","NL_NAME_1": "NA","county": "CoacalcodeBerriozábal","VARNAME_2": "NA","NL_NAME_2": "NA","TYPE_2": "Município","ENGTYPE_2": "Municipality","CC_2": "NA","HASC_2": "NA","name": "Coacalcode_Berriozábal.county","area_km2": 35.06808,"hist_schema_id": "Elevation0-9000","hist_area_km2": {"2250": 16.77336,"2275": 1.99703,"2300": 1.73746,"2325": 1.23822,"2350": 1.07846,"2375": 1.11842,"2400": 1.03855,"2425": 0.8588,"2450": 0.99862,"2475": 0.83885,"2500": 0.79891,"2525": 0.49933,"2550": 0.55926,"2575": 0.3795,"2600": 0.47936,"2625": 0.3795,"2650": 0.35953,"2675": 0.4594,"2700": 0.47938,"2725": 0.51933,"2750": 0.55928,"2775": 0.49936,"2800": 0.27964,"2825": 0.31959,"2850": 0.23969,"2875": 0.11985,"2900": 0.13982,"2925": 0.11985,"2950": 0.09987,"2975": 0.0799,"3000": 0.01997}}}