{"type": "Feature","bbox": [-96.8374,19.7849,-96.702,19.9084],"geometry": {"type": "MultiPolygon","coordinates": [[[[-96.7411,19.8167,1040.1288],[-96.7429,19.8223,1005.584],[-96.7408,19.8273,1055.2614],[-96.7351,19.8343,854.282],[-96.7305,19.8349,774.1844],[-96.73,19.8369,772.9965],[-96.7263,19.8383,726.6901],[-96.7202,19.845,557.4063],[-96.7272,19.8466,577.3735],[-96.7223,19.8544,470.4624],[-96.7289,19.8595,446.7374],[-96.7269,19.8619,424.2307],[-96.7241,19.8593,403.5262],[-96.7186,19.8699,279.3624],[-96.7062,19.8764,347.8033],[-96.702,19.8841,366.7054],[-96.7154,19.878,247.1742],[-96.7177,19.8815,240.7251],[-96.7182,19.8864,236.5108],[-96.7121,19.8887,291.164],[-96.7092,19.892,330.2489],[-96.7128,19.8952,334.5845],[-96.7163,19.9025,295.0066],[-96.7196,19.9029,205.5246],[-96.7215,19.9054,205.9403],[-96.7242,19.9033,212.3799],[-96.7257,19.9058,216.9028],[-96.7395,19.9084,230.5409],[-96.7496,19.8944,283.0501],[-96.7557,19.8889,297.9146],[-96.7672,19.9011,335.871],[-96.7708,19.9027,301.3308],[-96.771,19.9048,283.9012],[-96.7761,19.9028,322.1378],[-96.7787,19.9037,338.9963],[-96.7819,19.8999,374.7131],[-96.7875,19.8973,431.1194],[-96.7911,19.8987,453.4426],[-96.7952,19.896,470.16],[-96.7966,19.897,481.1457],[-96.7958,19.8953,487.5725],[-96.7984,19.8935,540.7615],[-96.7989,19.8881,608.9266],[-96.797,19.8859,580.2352],[-96.8023,19.8853,648.7019],[-96.8081,19.8797,715.0892],[-96.8047,19.8748,757.6893],[-96.8084,19.8748,761.366],[-96.8077,19.8689,798.8357],[-96.8272,19.8505,638.2245],[-96.829,19.8456,726.7974],[-96.828,19.8399,798.6541],[-96.832,19.8382,839.3668],[-96.8364,19.8323,997.9224],[-96.8349,19.8257,1048.0629],[-96.8374,19.8228,1077.4038],[-96.8372,19.8196,1139.5201],[-96.8305,19.813,1376.0364],[-96.8322,19.8098,1421.0784],[-96.8307,19.8042,1478.9974],[-96.8244,19.801,1720.021],[-96.8239,19.7969,1754.8057],[-96.8219,19.7947,1777.0953],[-96.8146,19.7959,1233.7886],[-96.8107,19.7983,1037.9642],[-96.81,19.8021,1072.402],[-96.8064,19.8062,930.8665],[-96.8005,19.8033,1249.9773],[-96.7955,19.8078,1058.6372],[-96.7926,19.8034,930.9307],[-96.7966,19.7959,1174.4268],[-96.8011,19.7937,1526.7939],[-96.802,19.7901,1660.9994],[-96.8008,19.7857,1664.979],[-96.7973,19.7849,1673.1224],[-96.7907,19.789,1411.5732],[-96.7885,19.7915,1387.1172],[-96.7879,19.7968,1323.4557],[-96.7824,19.8012,859.8469],[-96.7802,19.7995,867.2122],[-96.783,19.7947,993.2205],[-96.7745,19.7895,1090.4382],[-96.7674,19.7881,1251.4988],[-96.7635,19.7928,1583.0328],[-96.7572,19.7909,1855.0061],[-96.7541,19.7921,1982.3669],[-96.7484,19.8091,1431.2288],[-96.7411,19.8167,1040.1288]]]]}
,"properties": {"GID_2": "MEX.30.206_2","GID_0": "MEX","country": "México","GID_1": "MEX.30_1","province": "Veracruz","NL_NAME_1": "NA","county": "Yecuatla","VARNAME_2": "NA","NL_NAME_2": "NA","TYPE_2": "Município","ENGTYPE_2": "Municipality","CC_2": "NA","HASC_2": "NA","name": "Yecuatla.county","area_km2": 112.81585,"hist_schema_id": "Elevation0-9000","hist_area_km2": {"200": 0.37879,"225": 2.29269,"250": 3.34947,"275": 3.52901,"300": 3.92786,"325": 4.18713,"350": 4.24698,"375": 3.46944,"400": 3.09067,"425": 2.93122,"450": 3.40984,"475": 3.17058,"500": 2.63221,"525": 2.93136,"550": 2.47275,"575": 2.61235,"600": 2.51274,"625": 2.67227,"650": 2.01419,"675": 2.11393,"700": 2.89171,"725": 3.37044,"750": 3.13109,"775": 2.35339,"800": 2.35348,"825": 2.01441,"850": 1.73521,"875": 1.53575,"900": 1.71528,"925": 1.53583,"950": 1.27651,"975": 1.51585,"1000": 1.53585,"1025": 1.69537,"1050": 1.4361,"1075": 1.17683,"1100": 1.4561,"1125": 1.47603,"1150": 1.27656,"1175": 1.31648,"1200": 1.05716,"1225": 1.03721,"1250": 1.13696,"1275": 0.99733,"1300": 0.93747,"1325": 0.79785,"1350": 0.83776,"1375": 0.87765,"1400": 0.75799,"1425": 0.79788,"1450": 0.8577,"1475": 0.93748,"1500": 0.81781,"1525": 0.61836,"1550": 0.81785,"1575": 0.43885,"1600": 0.37902,"1625": 0.37902,"1650": 0.33912,"1675": 0.57849,"1700": 0.65829,"1725": 0.49872,"1750": 0.27928,"1775": 0.17954,"1800": 0.11969,"1825": 0.27928,"1850": 0.17954,"1875": 0.13964,"1900": 0.0798,"1925": 0.0798,"1950": 0.05985,"1975": 0.0798,"2000": 0.0399}}}