{"type": "Feature","bbox": [-99.5194,19.1622,-99.4754,19.1878],"geometry": {"type": "MultiPolygon","coordinates": [[[[-99.4802,19.1711,2616.6409],[-99.4769,19.1745,2602.1575],[-99.4789,19.1776,2606.8247],[-99.476,19.1779,2617.3003],[-99.4754,19.1803,2618.0422],[-99.4813,19.1797,2611.1868],[-99.4814,19.1822,2599.959],[-99.4959,19.1842,2576.8481],[-99.4951,19.1866,2576.1279],[-99.5104,19.1878,2573.9465],[-99.5113,19.1842,2573.5925],[-99.517,19.1836,2572.9573],[-99.5194,19.1776,2572.0542],[-99.5179,19.1682,2570.79],[-99.4993,19.1622,2570.1958],[-99.494,19.1641,2575.0488],[-99.4932,19.1699,2593.8865],[-99.4869,19.1687,2588.0251],[-99.4866,19.17,2592.7861],[-99.4821,19.1694,2618.3511],[-99.4802,19.1711,2616.6409]]]]}
,"properties": {"GID_2": "MEX.15.12_2","GID_0": "MEX","country": "México","GID_1": "MEX.15_1","province": "México","NL_NAME_1": "NA","county": "Atizapán","VARNAME_2": "NA","NL_NAME_2": "NA","TYPE_2": "Município","ENGTYPE_2": "Municipality","CC_2": "NA","HASC_2": "NA","name": "Atizapán.county","area_km2": 8.571053,"hist_schema_id": "Elevation0-9000","hist_area_km2": {"2575": 6.708639,"2600": 1.521971,"2625": 0.340442}}}