{"type":"Feature","properties":{"featurecla":"River","scalerank":8,"rivernum":697,"dissolve":"697River","name":"San17","name_alt":null,"note":null,"min_zoom":7.0,"strokeweig":0.2,"name_en":"San Juan","min_label":8.0},
"geometry":{"type": "LineString","coordinates": [[-99.832446289062489,25.166522528119117,485.4789],[-99.8056640625,25.172381903119117,392.1299],[-99.781591796874991,25.18109772343162,376.2043],[-99.653369140624989,25.25849030155662,299.5276],[-99.633959960937489,25.274432684369117,284.7344],[-99.585375976562489,25.331415106244123,252.7841],[-99.54931640625,25.39716217655662,225.7855],[-99.54375,25.415545965619117,217.1139],[-99.536474609374991,25.45477936405662,204.4717],[-99.53076171875,25.471698309369117,201.3154],[-99.514331054687489,25.49079010624412,193.6842],[-99.495410156249989,25.494012762494123,189.9202],[-99.473803710937489,25.492303778119123,187.2403],[-99.449072265624991,25.496698309369123,182.9123],[-99.4423828125,25.50226471561912,181.6994],[-99.432299804687489,25.51691315311912,181.4987],[-99.423681640624991,25.52094147343162,179.8622],[-99.41162109375,25.519305731244117,175.7224],[-99.388769531249991,25.50702545780662,174.0411],[-99.375,25.504657293744117,172.7493],[-99.355224609375,25.51337311405662,172.9776],[-99.335986328124989,25.53302643436912,165.603],[-99.320849609374989,25.556756903119123,164.9499],[-99.313330078124991,25.577997137494123,162.7478],[-99.304125976562489,25.634051824994117,160.0],[-99.294726562499989,25.66071198124412,160.0],[-99.279394531249991,25.684344793744117,160.0],[-99.243896484375,25.71564362186912,140.6042],[-99.233203124999989,25.73078034061912,135.9221],[-99.2255859375,25.759540106244117,154.0582],[-99.217626953124991,25.77997467655662,127.8118],[-99.205249023437489,25.78644440311912,128.6355],[-99.190771484374991,25.791620184369123,125.0912],[-99.176123046874991,25.807977606244123,121.2802],[-99.172045898437489,25.86383698124412,116.0914],[-99.178881835937489,25.923456121869123,111.2095],[-99.179003906249989,25.94318268436912,109.4972],[-99.172290039062489,25.96381256718162,107.8161],[-99.17138671875,25.96845123905662,106.611],[-99.174121093749989,25.97736237186912,93.9775],[-99.182470703124991,25.992059637494123,104.7511],[-99.185546875,26.000751043744117,104.3097],[-99.189550781249991,26.035760809369116,100.783],[-99.189501953124989,26.056170965619117,91.2169],[-99.186132812499991,26.069940496869116,97.2643],[-99.172045898437489,26.08014557499412,95.7137],[-99.156835937499991,26.076434637494117,103.4713],[-99.140234374999991,26.06830475468162,92.2576],[-99.122119140624989,26.065204168744117,90.6293],[-99.099707031249991,26.07343170780662,89.9585],[-99.053466796875,26.098016668744116,83.9213],[-99.021582031249991,26.09979889530662,80.9478]]}}