{"type":"Feature","properties":{"GID_2":"MEX.18.20_2","GID_0":"MEX","country":"México","GID_1":"MEX.18_1","province":"Nayarit","NL_NAME_1":"NA","county":"Xalisco","VARNAME_2":"NA","NL_NAME_2":"NA","TYPE_2":"Município","ENGTYPE_2":"Municipality","CC_2":"NA","HASC_2":"NA","name":"Xalisco.county"},
"geometry":{"type": "MultiPolygon","coordinates": [[[[-104.8025,21.3264,1184.1549],[-104.7964,21.3223,1098.2944],[-104.7978,21.3276,1081.2675],[-104.8045,21.333,1041.7108],[-104.7796,21.3725,1150.1277],[-104.7789,21.3787,1112.0859],[-104.7602,21.3769,1069.6857],[-104.7583,21.3945,1104.5198],[-104.7769,21.3965,1061.1758],[-104.8039,21.4128,938.4821],[-104.8215,21.4015,925.6278],[-104.8327,21.4149,920.9288],[-104.8353,21.4125,920.7893],[-104.8434,21.4154,919.3837],[-104.8471,21.4187,919.1],[-104.847,21.4243,918.1322],[-104.8498,21.4306,921.3375],[-104.8567,21.4279,921.9883],[-104.858,21.4345,926.6683],[-104.8557,21.4336,925.6039],[-104.8538,21.4384,924.1257],[-104.8522,21.4377,922.8094],[-104.8518,21.4413,923.0874],[-104.861,21.4447,928.1874],[-104.8613,21.4434,928.5227],[-104.8638,21.4438,930.5063],[-104.8649,21.4471,930.2314],[-104.862,21.4468,929.3243],[-104.8647,21.4545,929.5914],[-104.8767,21.4538,946.6248],[-104.882,21.4625,949.3438],[-104.8892,21.4637,970.9439],[-104.8885,21.4697,980.1809],[-104.8938,21.4676,1024.8601],[-104.894,21.4689,1015.8419],[-104.8983,21.469,1062.5967],[-104.8979,21.4705,1041.0671],[-104.9017,21.4668,1060.7939],[-104.9051,21.4689,1095.6895],[-104.9093,21.4677,1097.1653],[-104.9125,21.4687,1089.7317],[-104.9135,21.4671,1059.486],[-104.9198,21.4691,1152.8571],[-104.9544,21.4712,1991.4529],[-104.9753,21.4772,1944.0635],[-104.9978,21.4935,1598.8405],[-105.0069,21.4932,1602.2253],[-105.0163,21.4965,1474.6992],[-105.0347,21.4749,959.116],[-105.0333,21.4692,955.7543],[-105.0343,21.4678,951.381],[-105.0467,21.4587,816.1409],[-105.0522,21.4579,603.4163],[-105.0588,21.4592,565.4249],[-105.0673,21.4553,515.0912],[-105.0736,21.4553,428.5972],[-105.0791,21.4531,412.6158],[-105.083,21.4539,395.5289],[-105.0886,21.4511,365.1937],[-105.0885,21.4486,400.5862],[-105.0923,21.4476,401.9658],[-105.0931,21.4415,509.3588],[-105.0967,21.4398,500.4236],[-105.096,21.4387,493.2323],[-105.0932,21.4396,504.4188],[-105.0931,21.4368,522.5046],[-105.0973,21.4055,390.6866],[-105.1114,21.39,349.8381],[-105.1373,21.3942,463.9998],[-105.1423,21.3776,357.6091],[-105.1534,21.3765,430.0301],[-105.1499,21.3688,200.2069],[-105.1495,21.3559,217.3899],[-105.1405,21.3514,225.5813],[-105.1278,21.3411,132.2223],[-105.1115,21.3244,277.1548],[-105.1008,21.3228,343.3596],[-105.0989,21.3166,367.2518],[-105.0733,21.3352,224.7328],[-105.0601,21.3229,377.2169],[-105.0528,21.3316,364.2688],[-105.0525,21.3368,305.7708],[-105.0488,21.3395,341.2694],[-105.0484,21.342,288.9033],[-105.0404,21.341,300.8637],[-105.0348,21.3488,543.4454],[-105.0303,21.3433,490.0032],[-105.009,21.3344,461.8743],[-105.0034,21.3367,489.1378],[-105.0008,21.3352,520.6033],[-104.9961,21.3374,513.0784],[-104.9892,21.3256,541.9443],[-104.983,21.3229,585.0685],[-104.9779,21.3233,575.353],[-104.9778,21.3213,567.4635],[-104.9816,21.3186,581.8885],[-104.979,21.3171,589.4846],[-104.9728,21.3183,602.6541],[-104.9718,21.3151,646.183],[-104.9631,21.3122,669.8358],[-104.9617,21.3076,668.9442],[-104.9578,21.3043,676.0617],[-104.9563,21.3053,676.0617],[-104.9557,21.3096,696.1234],[-104.9533,21.307,697.4985],[-104.9538,21.3047,718.0792],[-104.9479,21.3061,724.8878],[-104.9459,21.3091,711.9362],[-104.9415,21.309,767.1438],[-104.9424,21.3069,743.3655],[-104.941,21.3043,724.4346],[-104.937,21.3069,716.9229],[-104.9356,21.3055,775.6855],[-104.9376,21.3043,732.5201],[-104.9374,21.302,740.9062],[-104.93,21.3024,764.3592],[-104.9296,21.3044,820.716],[-104.9229,21.3022,784.6483],[-104.9169,21.3057,788.4421],[-104.9147,21.3041,793.7434],[-104.9133,21.3056,790.8009],[-104.9115,21.3029,811.1965],[-104.9104,21.3055,793.4008],[-104.9083,21.3053,814.0747],[-104.9067,21.3072,808.4407],[-104.9096,21.3075,798.1439],[-104.9092,21.3091,814.8456],[-104.9045,21.3101,798.1853],[-104.9093,21.3122,853.7834],[-104.904,21.3139,828.7102],[-104.8921,21.3107,841.6962],[-104.8814,21.3131,957.3124],[-104.8817,21.3176,850.8784],[-104.8777,21.3182,903.7184],[-104.8808,21.3245,885.8707],[-104.8769,21.3238,887.889],[-104.8779,21.3277,865.8997],[-104.8748,21.3279,871.2845],[-104.8724,21.3318,878.7858],[-104.8697,21.3326,885.9543],[-104.8704,21.335,912.0983],[-104.8686,21.3363,886.1932],[-104.8604,21.3345,1007.3613],[-104.8585,21.3366,993.9323],[-104.8413,21.3315,1069.3594],[-104.8278,21.3364,1008.9781],[-104.8256,21.3324,1040.4644],[-104.8215,21.3335,1049.6377],[-104.8204,21.3299,1111.5143],[-104.8216,21.3285,1093.9569],[-104.8192,21.3248,1116.0704],[-104.8135,21.323,1167.757],[-104.8113,21.3261,1118.0935],[-104.8076,21.3258,1158.824],[-104.8069,21.3301,1190.4641],[-104.8025,21.3264,1184.1549]]]]}}