{"type":"Feature","properties":{"GID_2":"MEX.31.34_2","GID_0":"MEX","country":"México","GID_1":"MEX.31_1","province":"Yucatán","NL_NAME_1":"NA","county":"Hocabá","VARNAME_2":"NA","NL_NAME_2":"NA","TYPE_2":"Município","ENGTYPE_2":"Municipality","CC_2":"NA","HASC_2":"NA","name":"Hocabá.county"},
"geometry":{"type": "MultiPolygon","coordinates": [[[[-89.239,20.8571,19.1597],[-89.252,20.8576,18.0249],[-89.2519,20.8594,17.355],[-89.2542,20.8597,17.1643],[-89.2541,20.8558,17.4649],[-89.2521,20.856,17.6661],[-89.2533,20.8487,16.6179],[-89.2683,20.85,19.0342],[-89.2674,20.8574,16.9863],[-89.2849,20.8588,17.0983],[-89.2804,20.8544,18.5059],[-89.2782,20.8488,20.0587],[-89.2733,20.8472,18.8678],[-89.2706,20.8421,20.1139],[-89.2712,20.838,18.9023],[-89.2824,20.8406,20.3987],[-89.2881,20.8374,20.5509],[-89.2905,20.828,18.9912],[-89.2932,20.8277,20.511],[-89.2898,20.8215,19.0572],[-89.2912,20.821,19.3392],[-89.297,20.8241,20.048],[-89.2962,20.8221,19.4124],[-89.2982,20.8212,20.3424],[-89.3058,20.8212,19.0982],[-89.32,20.8247,18.9842],[-89.3341,20.8074,18.2405],[-89.3326,20.7868,19.3642],[-89.3275,20.7884,20.5759],[-89.3244,20.8102,19.7239],[-89.3157,20.8034,15.8347],[-89.3157,20.8047,16.7205],[-89.3125,20.8052,16.2976],[-89.3116,20.8106,19.1301],[-89.3093,20.8113,19.5156],[-89.3097,20.8055,20.7478],[-89.305,20.8058,18.8436],[-89.3051,20.7939,20.4671],[-89.2947,20.791,23.3339],[-89.2946,20.7943,21.4339],[-89.2907,20.7886,23.6511],[-89.2901,20.7843,24.2375],[-89.2856,20.7847,24.5712],[-89.2881,20.7647,22.3957],[-89.292,20.7659,22.8478],[-89.2925,20.7625,20.3015],[-89.286,20.7597,23.9683],[-89.2854,20.7638,21.3366],[-89.2814,20.7625,21.6686],[-89.2823,20.7681,21.7722],[-89.2783,20.7682,21.5356],[-89.2789,20.7629,20.6093],[-89.274,20.7624,21.4235],[-89.2721,20.7676,20.036],[-89.2688,20.7663,19.2119],[-89.2638,20.7753,22.3713],[-89.2578,20.773,24.3704],[-89.2551,20.781,24.6102],[-89.2503,20.7795,23.7624],[-89.2494,20.7822,20.3616],[-89.2433,20.7799,20.5192],[-89.2325,20.7797,22.5774],[-89.232,20.7842,23.1514],[-89.2195,20.7848,23.7199],[-89.2193,20.7878,24.6418],[-89.2168,20.7884,23.9809],[-89.1927,20.7861,17.5615],[-89.1923,20.7823,17.7387],[-89.1947,20.7791,18.9493],[-89.1919,20.7786,18.5918],[-89.192,20.775,21.5799],[-89.1838,20.7721,17.8802],[-89.1841,20.77,18.8207],[-89.172,20.7692,17.2514],[-89.1716,20.7666,19.6533],[-89.1653,20.765,19.6051],[-89.1671,20.7605,17.6742],[-89.1591,20.7596,19.6959],[-89.163,20.7712,17.4811],[-89.1517,20.7709,19.3259],[-89.1518,20.7741,17.4186],[-89.1472,20.7733,18.3579],[-89.1468,20.7789,21.4596],[-89.1521,20.7794,20.2466],[-89.151,20.7833,17.955],[-89.1485,20.783,20.5548],[-89.147,20.7887,20.7346],[-89.1503,20.7895,19.3337],[-89.1508,20.7965,19.8026],[-89.1617,20.7956,16.0399],[-89.1612,20.793,16.4951],[-89.1651,20.7931,17.8013],[-89.1647,20.79,18.7983],[-89.153,20.7902,18.0295],[-89.1536,20.787,19.9633],[-89.1577,20.7869,18.4146],[-89.1577,20.784,18.6694],[-89.1606,20.7841,17.7768],[-89.1613,20.7866,18.8679],[-89.1678,20.786,17.2255],[-89.171,20.7875,16.5248],[-89.1702,20.794,17.0897],[-89.1729,20.7944,16.1157],[-89.1724,20.7989,15.4364],[-89.1762,20.7992,16.5961],[-89.1775,20.7968,16.6737],[-89.1823,20.7988,17.1873],[-89.1827,20.7964,17.7136],[-89.186,20.7959,19.2392],[-89.1882,20.7979,18.7719],[-89.1926,20.7959,19.0221],[-89.1946,20.7972,21.3755],[-89.1953,20.7931,18.0746],[-89.2021,20.7942,19.3224],[-89.2023,20.7978,24.8964],[-89.2011,20.7977,24.6152],[-89.1994,20.8059,23.7561],[-89.1897,20.8011,17.4259],[-89.1883,20.8026,18.5636],[-89.1826,20.8016,16.9129],[-89.1829,20.804,18.3555],[-89.1881,20.807,18.2723],[-89.1887,20.8106,18.0849],[-89.1933,20.8106,19.7762],[-89.1932,20.8077,20.5665],[-89.2006,20.8086,21.6262],[-89.2006,20.8111,20.0826],[-89.1968,20.8104,22.516],[-89.1964,20.8133,22.4989],[-89.1951,20.8131,20.8323],[-89.1949,20.8164,19.9854],[-89.1967,20.8165,21.1597],[-89.1948,20.8202,20.8372],[-89.1977,20.82,19.9174],[-89.1975,20.8243,20.3959],[-89.2007,20.824,17.234],[-89.2003,20.8285,19.2783],[-89.2035,20.8272,19.546],[-89.2048,20.8336,19.3015],[-89.2069,20.8349,21.0337],[-89.2113,20.8353,20.2461],[-89.2114,20.8331,20.5438],[-89.2229,20.839,20.2447],[-89.2244,20.8433,21.054],[-89.2367,20.8446,18.8599],[-89.2351,20.854,20.0259],[-89.239,20.8542,19.4685],[-89.239,20.8571,19.1597]]]]}}