{"type":"Feature","properties":{"GID_2":"MEX.14.59_2","GID_0":"MEX","country":"México","GID_1":"MEX.14_1","province":"Jalisco","NL_NAME_1":"NA","county":"Mazamitla","VARNAME_2":"NA","NL_NAME_2":"NA","TYPE_2":"Município","ENGTYPE_2":"Municipality","CC_2":"NA","HASC_2":"NA","name":"Mazamitla.county"},
"geometry":{"type": "MultiPolygon","coordinates": [[[[-103.1814,19.8847,1927.3793],[-103.1866,19.8801,1853.7727],[-103.1949,19.876,1754.5858],[-103.1921,19.871,1756.2808],[-103.1931,19.8692,1749.8035],[-103.1887,19.8636,1750.8793],[-103.1848,19.8595,1613.8191],[-103.1763,19.8545,2009.5275],[-103.1553,19.8531,1497.8892],[-103.1567,19.8472,1482.1078],[-103.148,19.8438,1640.7615],[-103.1458,19.8446,1677.6783],[-103.1455,19.8432,1677.6038],[-103.1308,19.8469,1902.2111],[-103.1264,19.8567,1856.0808],[-103.1233,19.8564,1840.2208],[-103.1143,19.8606,1771.4222],[-103.1128,19.8587,1782.8137],[-103.1011,19.8563,1728.1097],[-103.0976,19.8506,1710.2094],[-103.0937,19.848,1708.9819],[-103.0973,19.8442,1808.2366],[-103.0929,19.8356,1607.8102],[-103.0933,19.8333,1566.3295],[-103.0916,19.8342,1580.7085],[-103.0919,19.8331,1586.0051],[-103.0892,19.833,1609.73],[-103.0877,19.8302,1761.438],[-103.0823,19.8298,1746.6205],[-103.0802,19.831,1703.4985],[-103.0786,19.8281,1677.8943],[-103.0738,19.8306,1690.7542],[-103.069,19.8248,1623.7717],[-103.0648,19.8238,1575.7],[-103.0606,19.8199,1517.9368],[-103.0586,19.8145,1497.0361],[-103.056,19.8129,1496.5161],[-103.0506,19.8151,1475.0267],[-103.0464,19.8094,1465.1602],[-103.0467,19.8051,1501.4352],[-103.0368,19.8092,1533.0582],[-103.0315,19.8073,1634.1575],[-103.0205,19.8,1839.8833],[-103.0201,19.7939,1999.3098],[-103.0168,19.7877,1992.2833],[-103.0108,19.7893,1895.4108],[-103.0083,19.7915,1951.6616],[-103.0078,19.7902,1916.2754],[-103.0097,19.7886,1880.7494],[-103.0004,19.7848,1857.8933],[-102.9959,19.7903,1688.5957],[-102.9962,19.7944,1708.269],[-102.9982,19.7938,1689.5859],[-102.998,19.7987,1714.0049],[-103.0011,19.802,1703.8024],[-102.9993,19.8032,1783.688],[-102.9985,19.8075,1756.2195],[-102.9973,19.8062,1755.9149],[-102.9967,19.8096,1767.8247],[-102.9934,19.8139,1869.4996],[-102.9912,19.8145,1929.8732],[-102.9928,19.818,1804.4692],[-102.9905,19.82,1821.7852],[-102.9902,19.8244,1820.6545],[-102.9821,19.8281,1860.1049],[-102.9816,19.8301,1872.4164],[-102.9868,19.843,1969.2448],[-102.9821,19.8462,2051.1528],[-102.9855,19.8529,2137.3049],[-102.9848,19.8592,2236.4021],[-102.994,19.8702,2573.9714],[-102.9802,19.8689,2422.8135],[-102.978,19.8765,2684.2112],[-102.9792,19.8784,2777.7524],[-102.9867,19.8781,2782.5747],[-102.987,19.882,2757.5728],[-102.9978,19.8917,2688.9492],[-102.9934,19.9075,2545.9355],[-102.9941,19.9189,2253.1475],[-102.9905,19.9357,2042.7529],[-102.9936,19.9343,2073.793],[-103.0008,19.9351,2130.0591],[-103.001,19.9386,2129.1946],[-102.9999,19.9387,2129.1946],[-103.0033,19.9407,2089.6831],[-103.0063,19.9405,2095.3586],[-103.0063,19.9505,2121.5095],[-103.0087,19.9571,2127.634],[-103.0122,19.9594,2085.4072],[-103.0208,19.9605,2111.843],[-103.0217,19.9622,2097.5679],[-103.0252,19.9605,2079.4927],[-103.0261,19.9642,2029.1299],[-103.0294,19.9674,1992.4227],[-103.0348,19.9679,1965.1687],[-103.0406,19.9789,1896.422],[-103.0455,19.9836,1884.9066],[-103.0494,19.9907,1843.3347],[-103.0515,19.9916,1842.0337],[-103.0504,19.9967,1820.9829],[-103.0543,19.9966,1833.4995],[-103.0583,19.9945,1845.1384],[-103.0589,19.992,1879.6598],[-103.0621,19.9896,1883.5359],[-103.0647,19.9891,1882.1678],[-103.0648,19.9861,1896.5975],[-103.0676,19.984,1902.1838],[-103.0638,19.9774,2010.3221],[-103.0643,19.9741,2026.3215],[-103.0693,19.9754,2037.2435],[-103.0736,19.9737,2037.272],[-103.0773,19.9692,2017.0922],[-103.0784,19.9707,1999.6946],[-103.0814,19.9692,2023.9053],[-103.0834,19.9619,2125.2119],[-103.0862,19.9642,2085.4199],[-103.0902,19.9631,2066.8701],[-103.0966,19.9683,2023.2312],[-103.1071,19.9712,2074.8701],[-103.1195,19.9681,2195.2061],[-103.1323,19.9671,2372.1797],[-103.1398,19.9722,2244.3059],[-103.1479,19.9752,2327.6345],[-103.1538,19.9684,2228.031],[-103.1555,19.9624,2221.5127],[-103.1582,19.9608,2208.3896],[-103.1572,19.9581,2189.9414],[-103.1583,19.952,2127.9707],[-103.1524,19.942,1921.9635],[-103.1505,19.9297,1877.6487],[-103.1558,19.9256,1862.1168],[-103.1608,19.9273,1862.7855],[-103.1622,19.926,1866.868],[-103.1615,19.9211,1854.7842],[-103.1645,19.917,1881.1414],[-103.1662,19.9179,1861.3418],[-103.1677,19.9154,1882.0248],[-103.166,19.9104,1848.2539],[-103.1704,19.9022,1832.1503],[-103.1691,19.9011,1815.0793],[-103.1647,19.9026,1865.2452],[-103.1668,19.8828,1793.3824],[-103.1643,19.88,1790.8334],[-103.1658,19.8777,1792.934],[-103.1677,19.8788,1790.0427],[-103.1672,19.88,1790.0427],[-103.1753,19.8801,1863.6193],[-103.1787,19.8843,1919.9902],[-103.1814,19.8847,1927.3793]]]]}}