{"type": "Feature","bbox": [-96.8608,19.6989,-96.6532,19.8176],"geometry": {"type": "MultiPolygon","coordinates": [[[[-96.8136,19.6989,1656.1747],[-96.8055,19.699,1537.0244],[-96.8038,19.7004,1671.7822],[-96.7951,19.6998,1736.4374],[-96.7953,19.7059,1841.0872],[-96.7929,19.7085,1879.7019],[-96.7945,19.7103,1935.9465],[-96.792,19.7133,1938.2151],[-96.7933,19.7138,1917.2732],[-96.7918,19.7169,1959.3877],[-96.7905,19.7166,1966.7616],[-96.789,19.7115,1883.0911],[-96.7731,19.7131,1898.9141],[-96.7811,19.7214,2088.2549],[-96.7816,19.7249,2120.6484],[-96.7784,19.7279,2174.3633],[-96.7738,19.7284,2147.9326],[-96.7699,19.7354,2287.9189],[-96.768,19.7337,2220.3276],[-96.7695,19.7274,2114.842],[-96.7679,19.7274,2141.2766],[-96.7652,19.732,2178.8962],[-96.7624,19.7323,2159.7285],[-96.7603,19.729,2248.3313],[-96.7572,19.7295,2218.5325],[-96.7506,19.7265,2037.6431],[-96.7489,19.7224,1987.4174],[-96.7501,19.7217,1989.1309],[-96.7498,19.7151,1880.2498],[-96.7413,19.709,1741.6782],[-96.7391,19.7141,1838.6421],[-96.7355,19.7131,1826.3446],[-96.7298,19.7192,1971.8798],[-96.7247,19.7174,1889.5566],[-96.7225,19.719,1825.3391],[-96.7169,19.7183,1772.0261],[-96.7168,19.7249,1527.2681],[-96.7152,19.7257,1486.5082],[-96.7114,19.7237,1609.2672],[-96.7093,19.7273,1552.7446],[-96.7076,19.7264,1623.6077],[-96.705,19.728,1655.5098],[-96.6997,19.7237,1567.2815],[-96.6931,19.726,1516.2075],[-96.6903,19.7213,1336.1504],[-96.6879,19.7208,1253.655],[-96.6855,19.7291,1147.6233],[-96.6891,19.7306,1224.6885],[-96.689,19.7344,1317.8965],[-96.6823,19.7404,1277.49],[-96.68,19.7393,1236.5693],[-96.6791,19.7366,1178.4751],[-96.6729,19.7371,1348.6602],[-96.6713,19.7351,1228.0552],[-96.6726,19.732,1092.7817],[-96.67,19.7291,1062.9478],[-96.6714,19.7216,945.9896],[-96.6686,19.7202,926.9349],[-96.6683,19.717,884.8156],[-96.6656,19.7156,882.2],[-96.6592,19.7237,1250.3479],[-96.659,19.7279,1048.8877],[-96.6564,19.7298,1010.032],[-96.6564,19.7334,868.2617],[-96.6532,19.7367,730.5142],[-96.6592,19.7365,807.1526],[-96.6606,19.7388,907.5554],[-96.6716,19.7409,1260.8688],[-96.6742,19.7425,1255.2227],[-96.6756,19.7473,1178.5358],[-96.6839,19.7449,1355.092],[-96.6861,19.7485,1446.7307],[-96.688,19.7482,1611.6151],[-96.6883,19.7475,1653.3591],[-96.6928,19.7496,1777.59],[-96.6938,19.7507,1794.5803],[-96.6915,19.7591,1751.2498],[-96.6952,19.7594,1619.2095],[-96.7017,19.7575,1219.5435],[-96.7038,19.7553,1183.4731],[-96.7074,19.7551,1051.7029],[-96.7094,19.7625,968.4956],[-96.7126,19.7617,905.0607],[-96.7187,19.7683,789.2954],[-96.7191,19.7768,691.1132],[-96.721,19.7805,673.2231],[-96.7219,19.7791,709.7704],[-96.7315,19.7802,1216.4014],[-96.7296,19.7857,915.5867],[-96.7374,19.7856,1037.5107],[-96.7469,19.7887,1261.198],[-96.7498,19.7961,1847.1238],[-96.7477,19.7995,1496.1022],[-96.7419,19.7997,1161.0786],[-96.7384,19.8042,975.6688],[-96.7361,19.8113,1028.7188],[-96.7389,19.8162,976.5342],[-96.7416,19.8168,1040.1288],[-96.7471,19.8115,1313.8632],[-96.7524,19.7945,1920.6261],[-96.755,19.7913,1932.8088],[-96.7635,19.7928,1583.0328],[-96.7674,19.7881,1251.4988],[-96.7745,19.7895,1090.4382],[-96.783,19.7947,993.2205],[-96.7802,19.7995,867.2122],[-96.7824,19.8012,859.8469],[-96.7879,19.7968,1323.4557],[-96.7885,19.7915,1387.1172],[-96.7907,19.789,1411.5732],[-96.7984,19.7847,1673.1224],[-96.8008,19.7857,1664.979],[-96.802,19.7901,1660.9994],[-96.8006,19.7945,1474.3386],[-96.7966,19.7959,1174.4268],[-96.793,19.8022,930.9307],[-96.7955,19.8078,1058.6372],[-96.8005,19.8033,1249.9773],[-96.8064,19.8062,930.8665],[-96.81,19.8021,1072.402],[-96.8107,19.7983,1037.9642],[-96.8146,19.7959,1233.7886],[-96.8227,19.7948,1760.4261],[-96.8244,19.801,1720.021],[-96.831,19.8049,1478.9974],[-96.8322,19.8098,1421.0784],[-96.8304,19.8123,1376.0364],[-96.8335,19.817,1283.6646],[-96.8491,19.8176,1579.916],[-96.8481,19.8131,1649.1885],[-96.849,19.8078,1416.8914],[-96.8403,19.7943,1743.1069],[-96.8412,19.7915,1763.46],[-96.8384,19.7905,1778.1407],[-96.8376,19.788,1793.3605],[-96.8394,19.7826,1807.6375],[-96.8385,19.7811,1827.4414],[-96.8403,19.7771,1848.3896],[-96.8444,19.7759,1879.4502],[-96.852,19.7772,1454.3378],[-96.855,19.78,1023.9286],[-96.86,19.7795,911.5728],[-96.8608,19.7729,972.7888],[-96.8574,19.7703,1036.1721],[-96.8534,19.7715,1069.8486],[-96.847,19.7648,1303.1642],[-96.8409,19.7637,1385.6862],[-96.8373,19.7508,1975.7594],[-96.8413,19.7475,1991.6299],[-96.8412,19.7443,2024.5137],[-96.8431,19.7424,2038.8167],[-96.8417,19.7395,2060.5938],[-96.8379,19.7392,2068.1785],[-96.84,19.7368,2011.4692],[-96.8381,19.7199,1960.4514],[-96.8341,19.7228,1972.4216],[-96.8358,19.7187,1955.1648],[-96.8345,19.7146,1902.1812],[-96.8202,19.711,1938.2522],[-96.8185,19.6995,1822.463],[-96.8136,19.6989,1656.1747]]]]}
,"properties": {"GID_2": "MEX.30.39_2","GID_0": "MEX","country": "México","GID_1": "MEX.30_1","province": "Veracruz","NL_NAME_1": "NA","county": "Chiconquiaco","VARNAME_2": "NA","NL_NAME_2": "NA","TYPE_2": "Município","ENGTYPE_2": "Municipality","CC_2": "NA","HASC_2": "NA","name": "Chiconquiaco.county","area_km2": 133.8545,"hist_schema_id": "Elevation0-9000","hist_area_km2": {"675": 0.1197,"700": 0.0399,"725": 0.0798,"750": 0.2594,"775": 0.2594,"800": 0.2195,"825": 0.4988,"850": 0.3392,"875": 0.5387,"900": 0.6784,"925": 0.7982,"950": 0.7982,"975": 1.0376,"1000": 0.9378,"1025": 1.2172,"1050": 1.7958,"1075": 1.4167,"1100": 1.5963,"1125": 1.7359,"1150": 1.5962,"1175": 1.9355,"1200": 1.8557,"1225": 2.0552,"1250": 2.0353,"1275": 2.8135,"1300": 2.5541,"1325": 2.2148,"1350": 2.4543,"1375": 2.0752,"1400": 2.2348,"1425": 2.155,"1450": 2.6539,"1475": 2.4543,"1500": 2.195,"1525": 2.3945,"1550": 2.3347,"1575": 2.5542,"1600": 2.7337,"1625": 2.8334,"1650": 2.7536,"1675": 2.7935,"1700": 3.1127,"1725": 2.514,"1750": 2.2747,"1775": 2.3944,"1800": 2.6538,"1825": 3.6715,"1850": 3.6515,"1875": 3.492,"1900": 3.6917,"1925": 4.4103,"1950": 5.0889,"1975": 5.3683,"2000": 5.9071,"2025": 5.2684,"2050": 5.1088,"2075": 2.1752,"2100": 1.5166,"2125": 0.8581,"2150": 0.918,"2175": 0.898,"2200": 1.0576,"2225": 0.7783,"2250": 0.4989,"2275": 0.2195,"2300": 0.2195,"2325": 0.02,"2350": 0.0399}}}