{"type":"Feature","properties":{"GID_2":"MEX.20.490_2","GID_0":"MEX","country":"México","GID_1":"MEX.20_1","province":"Oaxaca","NL_NAME_1":"NA","county":"SantiagoTenango","VARNAME_2":"NA","NL_NAME_2":"NA","TYPE_2":"Município","ENGTYPE_2":"Municipality","CC_2":"NA","HASC_2":"NA","name":"Santiago_Tenango.county"},
"geometry":{"type": "MultiPolygon","coordinates": [[[[-96.9953,17.2072,2343.0088],[-96.9754,17.2235,2423.2292],[-96.9685,17.2244,2456.4766],[-96.9652,17.2508,2121.02],[-96.9639,17.2888,1928.797],[-96.9598,17.3138,1990.8101],[-96.9629,17.3145,1963.1573],[-96.9746,17.3413,1976.2017],[-96.9791,17.3421,2089.9377],[-96.9823,17.3451,2045.1749],[-96.9842,17.3516,1948.8782],[-96.9832,17.3546,1940.8342],[-96.9886,17.3658,1795.283],[-96.9883,17.374,1686.2202],[-96.9914,17.3756,1641.1064],[-96.9917,17.378,1640.5135],[-96.9963,17.3791,1621.5737],[-96.9965,17.3879,1601.2268],[-97.0035,17.3834,1849.5881],[-97.0104,17.3762,1835.0072],[-97.0124,17.364,1828.1086],[-97.0205,17.3494,1700.3936],[-97.0217,17.3456,1698.2026],[-97.0202,17.3456,1662.6122],[-97.0206,17.3428,1689.3066],[-97.0232,17.3423,1709.5491],[-97.0233,17.3398,1705.8129],[-97.0218,17.3403,1705.8129],[-97.0202,17.3381,1715.2117],[-97.0301,17.3332,1787.3135],[-97.0336,17.329,1818.2441],[-97.0322,17.3208,1888.405],[-97.0342,17.2975,2062.863],[-97.0281,17.2873,1929.0409],[-97.0338,17.2844,1943.1294],[-97.0318,17.279,1969.1488],[-97.0346,17.2654,2072.4077],[-97.033,17.2632,2076.7029],[-97.0301,17.2437,2166.6519],[-97.0329,17.2357,2214.6465],[-97.0314,17.2319,2235.6418],[-96.9953,17.2072,2343.0088]]]]}}