{"type": "Feature","bbox": [-100.1158,18.9102,-99.9277,19.0345],"geometry": {"type": "MultiPolygon","coordinates": [[[[-99.9589,18.9978,2751.2324],[-99.9519,19.0022,2767.3237],[-99.9482,19.0086,2807.3945],[-99.9277,19.0194,2792.4915],[-99.9375,19.0201,2752.7664],[-99.9437,19.0177,2456.5859],[-99.9598,19.0165,2402.7202],[-99.9662,19.0182,2379.0818],[-99.9779,19.0182,2349.7585],[-99.9946,19.0264,2182.3503],[-99.9989,19.0301,2073.3853],[-99.9983,19.0319,2037.254],[-100.0126,19.0345,2044.0677],[-100.0156,19.0305,2138.1433],[-100.0196,19.0293,2132.396],[-100.0392,19.0335,2028.8473],[-100.0454,19.0258,1942.3766],[-100.0558,19.0174,1841.3447],[-100.0754,19.0183,1752.8029],[-100.0796,19.0165,1733.5439],[-100.087,19.0187,1598.802],[-100.0934,19.0174,1596.5239],[-100.1026,19.0027,1738.9653],[-100.0996,18.9956,1755.5323],[-100.0914,18.9913,1763.7076],[-100.0756,18.977,1840.1941],[-100.0772,18.9724,1809.6411],[-100.0848,18.9639,1778.3503],[-100.0841,18.9576,1791.9668],[-100.0862,18.9571,1789.3345],[-100.0874,18.9539,1891.0768],[-100.0922,18.9551,1879.1672],[-100.0967,18.9588,1843.4823],[-100.1031,18.9532,1880.2938],[-100.1084,18.952,1877.7073],[-100.1131,18.9449,1906.7732],[-100.1158,18.9366,1890.1049],[-100.1089,18.9292,1812.9136],[-100.1058,18.9221,1682.1418],[-100.1007,18.9195,1772.0161],[-100.0958,18.9218,1743.7432],[-100.089,18.9165,1615.407],[-100.0834,18.9145,1496.7474],[-100.0795,18.9102,1402.6641],[-100.0745,18.9188,1520.6504],[-100.06,18.9305,1630.9012],[-100.0376,18.9322,2193.7573],[-100.0302,18.9392,2527.5798],[-100.0219,18.9403,2615.9961],[-100.0151,18.9386,2686.5852],[-100.0083,18.9477,2698.1831],[-99.9956,18.9543,2752.0127],[-99.9881,18.9712,2795.5764],[-99.9846,18.9739,2899.7974],[-99.9818,18.9728,2914.282],[-99.9736,18.9799,2770.8774],[-99.9666,18.9875,2805.1885],[-99.965,18.993,2818.1709],[-99.9589,18.9978,2751.2324]]]]}
,"properties": {"GID_2": "MEX.15.79_2","GID_0": "MEX","country": "México","GID_1": "MEX.15_1","province": "México","NL_NAME_1": "NA","county": "SanSimóndeGuerrero","VARNAME_2": "NA","NL_NAME_2": "NA","TYPE_2": "Município","ENGTYPE_2": "Municipality","CC_2": "NA","HASC_2": "NA","name": "San_Simónde_Guerrero.county","area_km2": 131.264,"hist_schema_id": "Elevation0-9000","hist_area_km2": {"1400": 0.0802,"1425": 0.0802,"1450": 0.2607,"1475": 0.2006,"1500": 0.5215,"1525": 0.6217,"1550": 1.6043,"1575": 1.6042,"1600": 2.3062,"1625": 2.5667,"1650": 3.3887,"1675": 4.6718,"1700": 6.4562,"1725": 8.3811,"1750": 7.3585,"1775": 5.4738,"1800": 5.7544,"1825": 4.7718,"1850": 4.2504,"1875": 4.6311,"1900": 3.2478,"1925": 2.9871,"1950": 2.7866,"1975": 3.4482,"2000": 2.8267,"2025": 2.4058,"2050": 2.1452,"2075": 2.2054,"2100": 2.9069,"2125": 3.8289,"2150": 3.0672,"2175": 2.4459,"2200": 1.8644,"2225": 1.5237,"2250": 1.4636,"2275": 1.3032,"2300": 1.2431,"2325": 1.203,"2350": 1.4836,"2375": 1.203,"2400": 1.4636,"2425": 1.2631,"2450": 1.3433,"2475": 1.2832,"2500": 1.3633,"2525": 1.4235,"2550": 1.3834,"2575": 1.5438,"2600": 1.3633,"2625": 1.2832,"2650": 1.1027,"2675": 1.2631,"2700": 1.0024,"2725": 0.8821,"2750": 0.6415,"2775": 0.6014,"2800": 0.6616,"2825": 0.401,"2850": 0.2606,"2875": 0.0802,"2900": 0.0602,"2925": 0.0201}}}