{"type":"Feature","properties":{"GID_2":"MEX.14.19_2","GID_0":"MEX","country":"México","GID_1":"MEX.14_1","province":"Jalisco","NL_NAME_1":"NA","county":"CasimiroCastillo","VARNAME_2":"NA","NL_NAME_2":"NA","TYPE_2":"Município","ENGTYPE_2":"Municipality","CC_2":"NA","HASC_2":"NA","name":"Casimiro_Castillo.county"},
"geometry":{"type": "MultiPolygon","coordinates": [[[[-104.4676,19.7767,1394.1115],[-104.4705,19.7723,1461.8065],[-104.4742,19.7717,1538.1775],[-104.4667,19.761,1387.3699],[-104.4715,19.7516,1023.8806],[-104.4743,19.7496,969.5775],[-104.4739,19.745,910.6555],[-104.476,19.7427,891.6408],[-104.4742,19.7411,882.0277],[-104.4773,19.7305,783.9538],[-104.4765,19.7278,744.5154],[-104.4785,19.7241,713.1094],[-104.4761,19.7216,702.6417],[-104.4774,19.7183,685.5618],[-104.4738,19.7109,623.2465],[-104.4766,19.7077,571.6362],[-104.4752,19.7047,548.0566],[-104.4775,19.6979,488.2025],[-104.4801,19.6961,464.1311],[-104.479,19.68,394.7355],[-104.4807,19.6763,377.2782],[-104.4816,19.6782,386.8836],[-104.4935,19.6846,621.312],[-104.4966,19.6887,668.4486],[-104.5007,19.6866,737.4128],[-104.5104,19.6905,721.1053],[-104.5135,19.6894,782.6333],[-104.5175,19.6844,612.6429],[-104.5208,19.6833,455.5476],[-104.5231,19.6765,417.6026],[-104.5212,19.6725,400.9092],[-104.5185,19.6717,382.7529],[-104.52,19.6697,399.0111],[-104.515,19.6652,345.7386],[-104.5117,19.6571,325.3462],[-104.5166,19.6582,328.8412],[-104.5199,19.6527,325.6755],[-104.5202,19.6567,330.0688],[-104.5252,19.6585,334.412],[-104.5262,19.6625,347.1967],[-104.5291,19.6634,362.2816],[-104.5312,19.6696,374.5562],[-104.5416,19.6652,692.9865],[-104.548,19.6495,612.3442],[-104.5495,19.6364,581.3078],[-104.5557,19.6283,307.9272],[-104.5616,19.6304,347.8632],[-104.57,19.6369,318.6221],[-104.5788,19.6376,322.1611],[-104.5802,19.6412,325.3492],[-104.5856,19.642,329.7471],[-104.5875,19.6463,329.9381],[-104.5904,19.6435,341.9971],[-104.5927,19.6445,363.2484],[-104.5948,19.6364,366.8494],[-104.5983,19.6325,417.5125],[-104.5971,19.6239,381.8747],[-104.5989,19.6232,398.8986],[-104.5971,19.6145,389.9758],[-104.6022,19.6104,431.1912],[-104.601,19.6036,477.2362],[-104.6039,19.6014,504.61],[-104.6065,19.6029,482.6077],[-104.6081,19.6014,500.3315],[-104.6103,19.602,529.6861],[-104.616,19.596,536.8873],[-104.6204,19.5953,495.6752],[-104.6172,19.5924,529.0854],[-104.6147,19.5841,677.6569],[-104.6178,19.5795,839.2562],[-104.6093,19.5781,607.5992],[-104.6056,19.5734,454.8073],[-104.6059,19.5554,294.0765],[-104.6046,19.5547,294.0765],[-104.6034,19.5575,307.22],[-104.5985,19.5586,339.6331],[-104.5954,19.5646,481.7588],[-104.5841,19.5688,810.2655],[-104.5819,19.5601,567.9147],[-104.583,19.5566,526.5401],[-104.5711,19.553,291.841],[-104.5719,19.5477,298.304],[-104.5662,19.5458,277.9922],[-104.5596,19.5377,270.7276],[-104.5572,19.5388,271.0724],[-104.5568,19.5436,271.7732],[-104.5475,19.5405,272.8131],[-104.5441,19.543,272.1171],[-104.5351,19.525,293.6876],[-104.5278,19.5253,289.2702],[-104.5513,19.501,295.0394],[-104.5428,19.4872,359.6832],[-104.5402,19.4852,383.2849],[-104.5364,19.475,467.5971],[-104.5311,19.4702,514.3696],[-104.5288,19.4634,583.4647],[-104.5125,19.4592,582.735],[-104.507,19.4596,551.1008],[-104.5068,19.4576,542.9672],[-104.5054,19.4578,538.705],[-104.5054,19.4536,536.3409],[-104.5039,19.4549,533.7733],[-104.5021,19.454,540.6928],[-104.5023,19.4587,558.4001],[-104.4927,19.4557,576.2396],[-104.4881,19.4571,669.3387],[-104.4781,19.4551,625.5548],[-104.4751,19.4559,605.6379],[-104.4712,19.4526,593.8865],[-104.4701,19.4559,648.0637],[-104.4651,19.4537,619.9045],[-104.4641,19.4569,610.8256],[-104.4625,19.4559,610.8256],[-104.4623,19.4529,595.9296],[-104.4564,19.4505,587.6426],[-104.458,19.4565,600.2079],[-104.4571,19.4576,604.7725],[-104.4517,19.4603,605.7412],[-104.4487,19.4594,594.3257],[-104.4457,19.4618,586.014],[-104.4482,19.4631,594.7756],[-104.4483,19.4683,601.9592],[-104.451,19.4711,621.5583],[-104.4511,19.4788,670.1553],[-104.4587,19.4837,777.8879],[-104.4589,19.4885,973.7896],[-104.4635,19.4905,1135.7043],[-104.4623,19.4946,1217.4885],[-104.4647,19.4974,1236.2026],[-104.4655,19.5046,1474.2781],[-104.469,19.5087,1499.7583],[-104.4565,19.5111,927.079],[-104.4523,19.5165,671.1248],[-104.4394,19.5211,502.3801],[-104.4366,19.5184,527.1116],[-104.4314,19.5173,539.1174],[-104.4254,19.5199,605.9631],[-104.4206,19.5177,798.809],[-104.4147,19.5178,734.4856],[-104.4131,19.5192,730.9772],[-104.4059,19.517,770.455],[-104.397,19.52,1019.4939],[-104.3941,19.5195,1078.6648],[-104.3931,19.5172,1021.7667],[-104.3831,19.5195,1194.7581],[-104.3781,19.5228,1395.0482],[-104.3785,19.5278,1319.8574],[-104.3765,19.5279,1264.5725],[-104.3794,19.5321,1231.4575],[-104.3748,19.5344,1501.9194],[-104.3667,19.5464,1367.248],[-104.3629,19.5489,1213.6218],[-104.3644,19.5522,1200.2523],[-104.3587,19.5563,1241.4608],[-104.3581,19.5604,1190.2587],[-104.365,19.5621,1124.7504],[-104.3593,19.5728,1249.6139],[-104.3587,19.5828,1368.0364],[-104.3556,19.5842,1334.6769],[-104.3592,19.5901,1448.967],[-104.3595,19.5971,1645.2383],[-104.3525,19.5988,1658.5757],[-104.3478,19.6032,1619.3396],[-104.351,19.6137,1255.5548],[-104.3607,19.6157,1053.2463],[-104.3637,19.618,1003.7875],[-104.3754,19.6184,862.5095],[-104.3904,19.6263,619.2797],[-104.3811,19.6269,707.524],[-104.373,19.634,810.704],[-104.3724,19.6387,891.5782],[-104.3749,19.6413,1007.5519],[-104.374,19.6455,1128.8945],[-104.3758,19.647,1128.8945],[-104.3744,19.6488,1248.5696],[-104.3765,19.6517,1250.4633],[-104.3755,19.6529,1358.0251],[-104.3776,19.6548,1388.0232],[-104.3749,19.6586,1721.7188],[-104.3795,19.6613,1774.3899],[-104.3782,19.6647,1686.4038],[-104.3798,19.6668,1625.6541],[-104.3764,19.6728,1584.6062],[-104.3787,19.6755,1470.3223],[-104.3745,19.6789,1215.7778],[-104.3687,19.6898,957.7188],[-104.3752,19.6907,1045.6086],[-104.3779,19.6939,1202.0488],[-104.3869,19.6981,1324.5428],[-104.3879,19.7012,1357.3105],[-104.3862,19.7059,1584.4277],[-104.3866,19.7107,1548.2422],[-104.3927,19.7152,1424.3164],[-104.3891,19.7177,1479.9585],[-104.3846,19.7181,1436.2905],[-104.3828,19.7223,1320.8851],[-104.3839,19.7294,1202.5135],[-104.38,19.7303,1102.752],[-104.3756,19.7338,1025.4525],[-104.3733,19.733,971.8283],[-104.3707,19.7414,913.139],[-104.3741,19.7403,965.9384],[-104.3728,19.7439,935.8282],[-104.3853,19.7416,1220.3954],[-104.3788,19.7355,994.2746],[-104.388,19.7396,1125.9329],[-104.3932,19.7354,1215.0767],[-104.3965,19.7359,1266.7794],[-104.4046,19.7317,1463.1422],[-104.4086,19.7326,1495.957],[-104.4248,19.7438,1367.8049],[-104.4262,19.7512,1128.8916],[-104.4253,19.7594,1017.4871],[-104.4367,19.7559,1049.881],[-104.4409,19.7586,1068.1384],[-104.4456,19.7578,1088.9813],[-104.4502,19.7596,1159.5543],[-104.4537,19.7583,1161.5607],[-104.4565,19.7599,1247.4708],[-104.4574,19.7653,1244.1948],[-104.4597,19.7664,1300.676],[-104.4639,19.7748,1426.2848],[-104.4676,19.7767,1394.1115]]]]}}