{"type":"Feature","properties":{"GID_2":"MEX.20.390_2","GID_0":"MEX","country":"México","GID_1":"MEX.20_1","province":"Oaxaca","NL_NAME_1":"NA","county":"SantaCruzZenzontepec","VARNAME_2":"NA","NL_NAME_2":"NA","TYPE_2":"Município","ENGTYPE_2":"Municipality","CC_2":"NA","HASC_2":"NA","name":"Santa_Cruz_Zenzontepec.county"},
"geometry":{"type": "MultiPolygon","coordinates": [[[[-97.38,16.5598,998.0248],[-97.3899,16.5795,795.8777],[-97.4047,16.5971,734.0673],[-97.412,16.5933,684.4424],[-97.4291,16.597,613.8975],[-97.4294,16.5935,632.4567],[-97.4323,16.5939,606.8149],[-97.4329,16.5926,636.8036],[-97.4393,16.5956,727.4783],[-97.4438,16.5944,817.4679],[-97.4551,16.6018,1171.7491],[-97.4575,16.6019,1211.2368],[-97.4587,16.5984,1423.5009],[-97.4655,16.5927,1561.8383],[-97.4656,16.5878,1318.4805],[-97.4678,16.5844,1124.6815],[-97.4672,16.5803,851.0225],[-97.47,16.5784,803.8491],[-97.489,16.5799,1254.0127],[-97.4957,16.5747,1707.855],[-97.497,16.5795,1730.058],[-97.5041,16.578,1792.3092],[-97.5304,16.5807,1213.2745],[-97.5428,16.5786,1080.6838],[-97.5482,16.5796,1069.58],[-97.5485,16.5832,926.0603],[-97.5749,16.5733,322.0859],[-97.5709,16.5712,383.3355],[-97.5699,16.5687,328.9896],[-97.5698,16.5562,304.3951],[-97.5661,16.552,306.4523],[-97.5604,16.5375,305.7429],[-97.5514,16.5275,292.2121],[-97.5469,16.516,294.959],[-97.5478,16.5132,334.1375],[-97.5545,16.5133,468.5278],[-97.5573,16.5089,658.5927],[-97.5615,16.5084,755.9115],[-97.5655,16.503,1038.6311],[-97.5591,16.5036,882.5505],[-97.5559,16.5016,830.9788],[-97.5465,16.5052,561.2137],[-97.5394,16.504,301.0314],[-97.5385,16.4968,276.4222],[-97.5406,16.4913,300.4139],[-97.5406,16.4803,254.4906],[-97.5413,16.4791,254.4906],[-97.5476,16.4798,249.035],[-97.5535,16.4779,255.1203],[-97.5543,16.4721,294.8946],[-97.5609,16.4682,245.051],[-97.5652,16.4591,276.8877],[-97.5681,16.4599,243.2166],[-97.571,16.4671,228.0034],[-97.5725,16.4677,228.0034],[-97.5777,16.4623,252.6863],[-97.5878,16.4592,227.3919],[-97.594,16.4478,232.3018],[-97.6021,16.4459,222.4066],[-97.6064,16.4411,217.1897],[-97.6083,16.436,211.8467],[-97.6104,16.436,205.4953],[-97.6138,16.4396,210.8029],[-97.6183,16.4378,211.5009],[-97.6191,16.433,211.1271],[-97.617,16.4278,235.3882],[-97.6121,16.4233,217.7888],[-97.6043,16.4265,253.4406],[-97.5934,16.4189,292.7204],[-97.6104,16.413,400.4544],[-97.6081,16.4119,214.4251],[-97.611,16.4089,259.5192],[-97.6126,16.3981,207.8932],[-97.61,16.3914,171.295],[-97.6059,16.3879,187.2898],[-97.5977,16.387,559.3255],[-97.5927,16.3824,295.1293],[-97.5894,16.3844,348.8108],[-97.5519,16.3595,1029.2385],[-97.4823,16.362,1353.8606],[-97.4681,16.3493,1437.4606],[-97.445,16.339,1536.0317],[-97.4404,16.3506,1755.5615],[-97.4334,16.3556,1810.2188],[-97.4319,16.3641,1925.0414],[-97.4362,16.3733,2025.1475],[-97.4317,16.3793,1805.6211],[-97.4273,16.3805,1642.938],[-97.4143,16.3897,1323.4487],[-97.4023,16.3951,980.1636],[-97.3961,16.3957,1117.3718],[-97.3833,16.4257,806.3119],[-97.3791,16.4426,562.549],[-97.3818,16.4453,623.7427],[-97.3788,16.4495,557.7375],[-97.3813,16.4525,471.6527],[-97.3874,16.455,474.1658],[-97.392,16.4703,814.8317],[-97.3914,16.4772,835.3848],[-97.3929,16.4788,815.1572],[-97.387,16.4867,989.2448],[-97.3862,16.4917,989.3768],[-97.3887,16.4932,1014.4512],[-97.3903,16.5014,1015.3223],[-97.403,16.5124,1086.2466],[-97.4,16.5231,1156.1708],[-97.4032,16.5279,1214.8752],[-97.405,16.5348,1418.0178],[-97.4036,16.54,1568.6143],[-97.3988,16.5449,1830.406],[-97.3789,16.5582,938.3381],[-97.38,16.5598,998.0248]]]]}}