{"type": "Feature","bbox": [-102.0859,20.1089,-101.956,20.2481],"geometry": {"type": "MultiPolygon","coordinates": [[[[-101.9931875,20.113775,2033.8096],[-101.9935,20.1124,2034.5836],[-101.9934,20.1125,2034.5836],[-101.9931875,20.113775,2033.8096]]],
[[[-101.9931875,20.113775,2033.8096],[-101.993,20.1146,2025.5647],[-101.9931,20.1143,2033.8096],[-101.9931875,20.113775,2033.8096]]],
[[[-101.9927,20.1148,2025.5647],[-101.9851,20.1122,2028.0619],[-101.9802,20.1124,2004.124],[-101.9797,20.1109,2012.0499],[-101.9744,20.1089,2005.9507],[-101.9748,20.1119,2006.3657],[-101.967,20.1128,1949.7614],[-101.9622,20.1239,1895.3772],[-101.9578,20.1271,1868.9177],[-101.9599,20.1303,1878.106],[-101.9585,20.1352,1876.0845],[-101.9621,20.1371,1858.4751],[-101.9751,20.1526,1871.8607],[-101.9693,20.1636,1848.8286],[-101.9704,20.1721,1834.1123],[-101.9689,20.1806,1816.7271],[-101.9703,20.1831,1814.6062],[-101.956,20.182,1686.5135],[-101.9619,20.1901,1835.2977],[-101.9649,20.1898,1835.7501],[-101.9668,20.1949,1812.3368],[-101.9697,20.1955,1808.1056],[-101.9697,20.1998,1806.0886],[-101.9762,20.2016,1806.5587],[-101.969,20.218,1778.0571],[-101.9712,20.2203,1776.3523],[-101.9721,20.2285,1775.8325],[-101.974,20.2282,1774.1107],[-101.9767,20.2322,1769.4491],[-101.9828,20.2346,1756.1975],[-101.9918,20.2306,1740.3135],[-102.0008,20.231,1750.2198],[-102.0004,20.2336,1747.0101],[-102.0013,20.233,1745.3975],[-102.0057,20.2405,1737.7821],[-102.0051,20.2438,1736.2048],[-102.0106,20.2481,1723.0498],[-102.0233,20.2417,1754.7361],[-102.0315,20.2317,1774.6509],[-102.0557,20.2316,1879.1636],[-102.0574,20.2308,1878.2734],[-102.0578,20.2278,1856.734],[-102.0591,20.2298,1870.0289],[-102.0655,20.2296,1869.1736],[-102.0699,20.2262,1814.8239],[-102.0761,20.227,1788.8146],[-102.0773,20.2285,1796.2106],[-102.0842,20.2223,1766.0245],[-102.0859,20.2225,1764.7526],[-102.0853,20.2182,1786.9216],[-102.0834,20.2185,1783.5148],[-102.0821,20.2127,1789.4093],[-102.0798,20.2132,1800.9062],[-102.0693,20.2036,1860.4586],[-102.0616,20.2044,1833.8245],[-102.0585,20.2004,1840.6055],[-102.0568,20.2004,1845.719],[-102.0552,20.1953,1863.2969],[-102.0527,20.1931,1866.9634],[-102.0513,20.1856,1880.4827],[-102.0531,20.1833,1882.9346],[-102.0534,20.1786,1884.8652],[-102.0518,20.1776,1900.7128],[-102.0577,20.1677,1883.5117],[-102.0574,20.1625,1869.0227],[-102.0534,20.1622,1885.1803],[-102.0463,20.1509,1987.9893],[-102.0432,20.151,1996.7965],[-102.0443,20.1488,2018.8573],[-102.0415,20.1465,2046.5203],[-102.0352,20.1462,2110.3005],[-102.0302,20.1372,2418.2617],[-102.0243,20.1367,2330.5249],[-102.014,20.1328,2564.5559],[-102.011,20.1244,2509.2368],[-102.0021,20.1206,2179.7112],[-101.9961,20.1201,2068.4487],[-101.9922,20.1171,2020.1359],[-101.9927,20.1148,2025.5647]]]]}
,"properties": {"GID_2": "MEX.16.110_2","GID_0": "MEX","country": "México","GID_1": "MEX.16_1","province": "Michoacán","NL_NAME_1": "NA","county": "Zináparo","VARNAME_2": "NA","NL_NAME_2": "NA","TYPE_2": "Município","ENGTYPE_2": "Municipality","CC_2": "NA","HASC_2": "NA","name": "Zináparo.county","area_km2": 113.17329,"hist_schema_id": "Elevation0-9000","hist_area_km2": {"1725": 0.53711,"1750": 8.85324,"1775": 12.5942,"1800": 13.57025,"1825": 16.01835,"1850": 13.98917,"1875": 9.45319,"1900": 8.59807,"1925": 5.27456,"1950": 4.04076,"1975": 4.00098,"2000": 4.00116,"2025": 2.48829,"2050": 1.25406,"2075": 1.21425,"2100": 1.03508,"2125": 0.91567,"2150": 0.67681,"2175": 0.73652,"2200": 0.47775,"2225": 0.57728,"2250": 0.45784,"2275": 0.43794,"2300": 0.43794,"2325": 0.35832,"2350": 0.3185,"2375": 0.17916,"2400": 0.19907,"2425": 0.17916,"2450": 0.11944,"2475": 0.09954,"2500": 0.05972,"2525": 0.01991}}}