{"type":"Feature","properties":{"GID_2":"MEX.30.31_2","GID_0":"MEX","country":"México","GID_1":"MEX.30_1","province":"Veracruz","NL_NAME_1":"NA","county":"CarrilloPuerto","VARNAME_2":"NA","NL_NAME_2":"NA","TYPE_2":"Município","ENGTYPE_2":"Municipality","CC_2":"NA","HASC_2":"NA","name":"Carrillo_Puerto.county"},
"geometry":{"type": "MultiPolygon","coordinates": [[[[-96.5281,18.8646,109.5991],[-96.5297,18.8667,129.5806],[-96.5315,18.8657,111.8916],[-96.5333,18.8683,114.182],[-96.5367,18.869,117.6218],[-96.5366,18.8713,129.3656],[-96.5424,18.8723,129.8232],[-96.5412,18.8739,135.6408],[-96.543,18.8737,129.8232],[-96.5453,18.8767,136.3993],[-96.549,18.876,165.8485],[-96.5472,18.8783,142.006],[-96.5499,18.8791,153.8132],[-96.5504,18.882,146.1128],[-96.5512,18.8804,178.3622],[-96.5525,18.8819,163.3105],[-96.5558,18.8804,206.632],[-96.5581,18.8825,162.5274],[-96.5602,18.8805,187.8141],[-96.5635,18.881,198.8817],[-96.5686,18.8893,224.6216],[-96.5722,18.8891,228.9848],[-96.5701,18.8877,223.6414],[-96.5706,18.8848,226.0705],[-96.568,18.8794,214.8164],[-96.5698,18.8795,212.815],[-96.5711,18.8819,217.4695],[-96.5737,18.8766,190.496],[-96.5797,18.8766,197.3313],[-96.5858,18.8792,227.3326],[-96.5881,18.8773,242.3304],[-96.5851,18.8744,233.815],[-96.5909,18.8766,246.6244],[-96.6006,18.8884,264.7785],[-96.6174,18.8874,272.2383],[-96.6225,18.8841,270.6097],[-96.6279,18.8839,278.6017],[-96.6255,18.8799,270.9547],[-96.6354,18.8781,271.161],[-96.6446,18.8739,267.6872],[-96.6393,18.8658,250.2858],[-96.6354,18.8643,245.31],[-96.636,18.8603,231.4122],[-96.642,18.8606,246.7189],[-96.6428,18.8586,251.6194],[-96.6429,18.8555,227.1104],[-96.6364,18.8522,223.833],[-96.64,18.8474,179.4205],[-96.6422,18.8475,166.3367],[-96.6424,18.8518,217.8632],[-96.6456,18.8508,196.3164],[-96.648,18.848,222.3175],[-96.6481,18.8521,229.3307],[-96.6594,18.8538,224.7921],[-96.6606,18.8566,211.476],[-96.6626,18.8532,225.9615],[-96.6667,18.8526,229.5613],[-96.6687,18.8475,238.3807],[-96.6702,18.8477,260.0919],[-96.6709,18.8511,254.9484],[-96.674,18.8486,267.9808],[-96.6746,18.8516,238.6535],[-96.679,18.8502,278.1012],[-96.6814,18.8525,265.6483],[-96.689,18.8534,269.9986],[-96.6879,18.8142,309.2881],[-96.6989,18.8165,330.2632],[-96.7014,18.806,332.248],[-96.6877,18.8025,314.9451],[-96.6842,18.7835,292.0874],[-96.6849,18.7773,289.8284],[-96.6814,18.7779,285.1993],[-96.666,18.7736,265.5602],[-96.6571,18.7683,237.1271],[-96.647,18.7665,242.9448],[-96.6401,18.7719,221.4175],[-96.6331,18.7713,216.6556],[-96.63,18.7726,205.2501],[-96.6255,18.7704,219.62],[-96.6242,18.772,203.1145],[-96.6225,18.7705,203.1145],[-96.613,18.7697,203.1616],[-96.6129,18.7675,189.6289],[-96.6092,18.7682,185.4507],[-96.6083,18.7663,197.167],[-96.6019,18.7657,171.4589],[-96.6,18.7619,188.8577],[-96.5971,18.7624,192.6313],[-96.5936,18.7602,183.8564],[-96.5737,18.7614,149.6833],[-96.5711,18.7588,144.5413],[-96.5632,18.762,129.7325],[-96.5612,18.7596,129.6894],[-96.5597,18.7623,158.4803],[-96.5544,18.7608,171.082],[-96.5545,18.7584,138.5362],[-96.551,18.7556,104.8047],[-96.5491,18.7581,121.9106],[-96.5469,18.7552,152.0998],[-96.5449,18.7562,116.7566],[-96.5425,18.7545,108.2231],[-96.5391,18.7565,104.3792],[-96.5332,18.7571,135.5988],[-96.5316,18.7556,107.4784],[-96.528,18.7576,120.0066],[-96.5233,18.754,96.4416],[-96.5197,18.7547,94.3753],[-96.5184,18.7573,141.1452],[-96.5151,18.7555,88.6624],[-96.511,18.7612,86.786],[-96.5074,18.761,83.5305],[-96.5078,18.7638,104.7189],[-96.5034,18.7639,88.1358],[-96.4992,18.7663,82.3532],[-96.4993,18.7688,86.6812],[-96.5016,18.7703,79.5065],[-96.4979,18.7729,73.017],[-96.4984,18.7748,73.3886],[-96.4944,18.7771,80.5064],[-96.4894,18.7755,69.7139],[-96.4835,18.7801,70.9644],[-96.4819,18.7789,110.1623],[-96.4822,18.7746,70.934],[-96.4809,18.7743,70.934],[-96.4763,18.7782,73.102],[-96.4738,18.7771,60.863],[-96.4714,18.7786,77.0725],[-96.4692,18.7819,64.013],[-96.4707,18.7855,92.5802],[-96.4658,18.786,56.4496],[-96.4646,18.7962,61.4985],[-96.4684,18.799,85.9399],[-96.4688,18.801,88.6777],[-96.4718,18.802,99.6298],[-96.4724,18.8047,98.8373],[-96.4709,18.8073,79.5219],[-96.4678,18.8077,78.5963],[-96.4681,18.8105,96.463],[-96.4659,18.8136,74.1365],[-96.4691,18.8184,43.6777],[-96.4728,18.8171,46.4987],[-96.4805,18.8215,90.1857],[-96.4808,18.8248,54.8771],[-96.484,18.827,55.7598],[-96.4842,18.8309,80.6685],[-96.4874,18.8326,73.352],[-96.4875,18.8371,66.9331],[-96.4968,18.8409,65.5661],[-96.4966,18.8427,88.2903],[-96.4991,18.8432,114.5213],[-96.5023,18.8479,112.9344],[-96.5041,18.8463,75.1962],[-96.506,18.8467,98.5226],[-96.5068,18.8527,100.7519],[-96.511,18.8542,106.8686],[-96.5124,18.8531,123.1855],[-96.5142,18.8547,102.1884],[-96.5154,18.8537,139.4603],[-96.516,18.8586,111.3091],[-96.5187,18.8589,107.8602],[-96.5177,18.8607,114.4314],[-96.5204,18.8605,129.2746],[-96.5212,18.8624,115.3731],[-96.5248,18.8612,125.407],[-96.5251,18.8643,117.1721],[-96.528,18.8634,135.2883],[-96.5281,18.8646,109.5991]]]]}}