{"type":"Feature","properties":{"GID_2":"MEX.27.7_2","GID_0":"MEX","country":"México","GID_1":"MEX.27_1","province":"Tabasco","NL_NAME_1":"NA","county":"EmilianoZapata","VARNAME_2":"NA","NL_NAME_2":"NA","TYPE_2":"Município","ENGTYPE_2":"Municipality","CC_2":"NA","HASC_2":"NA","name":"Emiliano_Zapata.county"},
"geometry":{"type": "MultiPolygon","coordinates": [[[[-91.7387,17.9362,10.7327],[-91.7395,17.9352,11.2518],[-91.7605,17.9576,14.2518],[-91.7614,17.946,10.6308],[-91.7571,17.9397,11.2603],[-91.7623,17.939,10.6257],[-91.768,17.9485,10.612],[-91.7855,17.9234,11.9841],[-91.8145,17.9005,5.9763],[-91.8109,17.8994,5.3531],[-91.8093,17.8968,4.0],[-91.8089,17.8836,4.0],[-91.8044,17.8689,4.0],[-91.798,17.8621,4.0],[-91.7819,17.8543,4.0],[-91.7797,17.8513,4.0],[-91.7807,17.8471,4.0],[-91.7904,17.8354,4.0],[-91.7924,17.8245,4.0],[-91.7908,17.8142,4.0],[-91.7822,17.792,4.0],[-91.7823,17.7825,4.0],[-91.7886,17.7565,4.0],[-91.7912,17.7565,8.1455],[-91.792,17.7501,7.3093],[-91.7902,17.746,9.2604],[-91.7984,17.7442,4.5],[-91.8103,17.7513,4.5],[-91.8307,17.7377,25.8947],[-91.8213,17.732,16.3411],[-91.8184,17.7274,20.5437],[-91.7954,17.7227,4.3077],[-91.7865,17.719,3.0],[-91.784,17.7167,3.0],[-91.7827,17.7106,3.0],[-91.7805,17.7078,3.0],[-91.776,17.7092,3.0],[-91.7766,17.7154,10.6571],[-91.7715,17.71,3.5903],[-91.7679,17.7031,3.0],[-91.7539,17.7053,3.0],[-91.7482,17.7002,5.328],[-91.7444,17.7067,11.0844],[-91.7388,17.7108,6.8792],[-91.7386,17.7069,12.4809],[-91.7414,17.7058,10.0065],[-91.7379,17.7054,10.6337],[-91.7382,17.7028,11.0305],[-91.7365,17.7006,12.6253],[-91.734,17.7002,11.0248],[-91.7333,17.6966,30.6258],[-91.7248,17.6921,8.6021],[-91.7192,17.6933,11.2495],[-91.7199,17.6975,6.0065],[-91.7175,17.6984,5.4927],[-91.7185,17.6948,9.2955],[-91.7146,17.695,8.112],[-91.7172,17.6928,12.8636],[-91.7171,17.6877,12.2522],[-91.7127,17.6893,7.926],[-91.7082,17.6881,7.6759],[-91.7045,17.6899,6.2692],[-91.704,17.6922,9.0353],[-91.701,17.6897,9.0145],[-91.701,17.6789,9.6611],[-91.6967,17.6796,6.8205],[-91.6991,17.6828,7.8213],[-91.6969,17.6832,9.4802],[-91.6966,17.6854,9.1678],[-91.6937,17.685,7.6773],[-91.683,17.6756,6.8846],[-91.6832,17.6727,5.5318],[-91.6814,17.6701,7.4543],[-91.6784,17.6713,6.7737],[-91.6792,17.6745,5.8763],[-91.6769,17.6753,5.0],[-91.673,17.6835,4.5],[-91.6658,17.6835,4.5],[-91.6645,17.6821,11.655],[-91.6657,17.68,4.5],[-91.661,17.6788,23.9035],[-91.6585,17.6748,11.8752],[-91.6547,17.6762,18.1615],[-91.6593,17.6703,7.995],[-91.659,17.6659,16.4005],[-91.6643,17.6667,7.3301],[-91.6604,17.6655,8.196],[-91.6606,17.6636,12.9975],[-91.6624,17.6642,7.7571],[-91.6636,17.6622,7.587],[-91.6614,17.6627,8.6723],[-91.6606,17.6603,11.4557],[-91.6632,17.658,7.3437],[-91.6587,17.6565,16.822],[-91.6588,17.6542,9.9016],[-91.6606,17.6529,7.4234],[-91.6598,17.6492,7.7446],[-91.6565,17.6495,10.091],[-91.6541,17.6452,8.5],[-91.6553,17.643,6.8219],[-91.6567,17.6456,7.9568],[-91.6565,17.6431,6.8219],[-91.6585,17.6425,7.909],[-91.6588,17.6397,7.1731],[-91.6559,17.6419,7.7092],[-91.656,17.6396,8.7846],[-91.6528,17.6386,19.068],[-91.6533,17.6358,8.5037],[-91.6562,17.636,9.1393],[-91.6544,17.634,8.029],[-91.6581,17.6345,8.8825],[-91.6579,17.632,9.0916],[-91.6543,17.633,7.9832],[-91.6559,17.6318,9.9262],[-91.6549,17.6305,7.6952],[-91.6599,17.6304,9.6148],[-91.6567,17.6278,8.3183],[-91.657,17.6254,9.2467],[-91.6522,17.6248,9.1434],[-91.6518,17.6259,9.8907],[-91.6446,17.6219,15.887],[-91.6473,17.621,8.9148],[-91.6467,17.6179,7.9686],[-91.6479,17.619,8.4835],[-91.6497,17.6178,8.8105],[-91.6497,17.6193,8.9476],[-91.6522,17.6198,9.544],[-91.6508,17.6173,8.8105],[-91.657,17.6153,9.0897],[-91.6568,17.6122,8.9109],[-91.6595,17.6136,9.8146],[-91.6636,17.6122,8.9761],[-91.6606,17.6113,8.8709],[-91.6622,17.6106,11.6959],[-91.6622,17.6086,11.5789],[-91.6567,17.6058,9.3066],[-91.6569,17.604,10.2008],[-91.6529,17.6032,9.9813],[-91.6531,17.5987,9.6075],[-91.6492,17.598,10.0685],[-91.6477,17.5942,13.1188],[-91.6446,17.5957,9.7522],[-91.6439,17.5937,10.3766],[-91.6471,17.5924,13.4612],[-91.6443,17.5915,10.5868],[-91.6471,17.5902,13.2309],[-91.6447,17.5868,14.5736],[-91.644,17.5879,12.1527],[-91.6423,17.5867,13.8991],[-91.6432,17.5842,11.6811],[-91.6414,17.585,11.4159],[-91.6407,17.5822,11.0418],[-91.6388,17.5815,11.0498],[-91.6406,17.5726,10.2206],[-91.6388,17.5708,16.74],[-91.6416,17.5663,15.0854],[-91.6401,17.561,19.4095],[-91.641,17.558,15.3969],[-91.6397,17.5553,13.4342],[-91.638,17.5567,12.4842],[-91.6378,17.552,13.9735],[-91.6348,17.5505,12.8925],[-91.635,17.5482,13.6749],[-91.6379,17.5471,13.8996],[-91.637,17.5462,15.3443],[-91.6358,17.5474,13.6749],[-91.6348,17.5451,13.2584],[-91.6368,17.5459,15.3443],[-91.6373,17.5431,15.0518],[-91.6357,17.5427,15.3557],[-91.6392,17.5416,17.1203],[-91.6375,17.5414,19.1002],[-91.6389,17.5406,17.1203],[-91.6366,17.5396,14.7272],[-91.637,17.5378,15.1314],[-91.6343,17.5346,17.2934],[-91.6375,17.5321,17.0571],[-91.6401,17.5331,16.8266],[-91.6392,17.5296,15.1642],[-91.6404,17.5282,17.4921],[-91.6425,17.529,16.0945],[-91.6414,17.5272,17.6257],[-91.6429,17.5249,14.8923],[-91.6406,17.5212,13.4197],[-91.6418,17.5189,13.0249],[-91.6443,17.5172,14.2758],[-91.6491,17.5178,16.567],[-91.648,17.5163,22.6376],[-91.6492,17.5157,13.7927],[-91.6492,17.5114,14.2638],[-91.6466,17.5091,16.5533],[-91.6483,17.509,17.0896],[-91.648,17.5072,18.2617],[-91.6499,17.5058,18.4634],[-91.6483,17.5059,21.1713],[-91.6473,17.504,18.7015],[-91.6506,17.5026,15.0297],[-91.6503,17.5002,15.3093],[-91.6524,17.5004,15.3777],[-91.6501,17.4957,14.5974],[-91.6519,17.4975,15.1722],[-91.6545,17.4967,17.595],[-91.6528,17.4957,18.2683],[-91.6542,17.4947,15.7274],[-91.6521,17.4938,15.7383],[-91.6522,17.4922,15.8663],[-91.6558,17.4904,21.5508],[-91.6572,17.4913,18.417],[-91.6568,17.4885,24.0704],[-91.6592,17.4881,19.3776],[-91.6577,17.4867,22.0388],[-91.661,17.4874,19.3776],[-91.6628,17.4798,21.5648],[-91.6643,17.4817,21.2326],[-91.666,17.4803,18.3502],[-91.6669,17.4821,21.0617],[-91.6679,17.4782,17.3423],[-91.6694,17.4797,20.073],[-91.6711,17.4787,16.9995],[-91.6702,17.4764,19.8996],[-91.6726,17.4781,22.5455],[-91.6709,17.4745,23.8639],[-91.6747,17.474,26.3693],[-91.6746,17.4715,23.3327],[-91.6768,17.4759,23.9738],[-91.6767,17.4741,22.8979],[-91.6819,17.4694,21.3323],[-91.6899,17.4751,22.4899],[-91.692,17.4729,21.2628],[-91.6921,17.467,24.1978],[-91.7003,17.4678,20.1496],[-91.673,17.4618,28.631],[-91.6716,17.4645,32.5042],[-91.6652,17.4617,33.6284],[-91.672,17.4441,165.614],[-91.6433,17.431,101.7182],[-91.6427,17.432,101.7182],[-91.6373,17.43,106.5975],[-91.6349,17.4365,87.757],[-91.6202,17.4317,80.6157],[-91.6025,17.4331,72.9364],[-91.6026,17.4356,80.9265],[-91.5966,17.439,84.8253],[-91.5958,17.4409,73.7566],[-91.5981,17.4552,48.958],[-91.5954,17.4567,49.0283],[-91.5948,17.4617,48.8855],[-91.5885,17.4759,37.3301],[-91.5833,17.4746,37.3602],[-91.5839,17.4784,41.7333],[-91.5787,17.4834,58.3859],[-91.5786,17.4888,53.7817],[-91.5651,17.4914,41.0388],[-91.5682,17.4998,79.9716],[-91.5774,17.5435,54.4941],[-91.576,17.5474,74.6513],[-91.5789,17.5531,80.5298],[-91.5754,17.5576,92.8017],[-91.5847,17.5683,80.9006],[-91.5766,17.5815,62.2664],[-91.5731,17.5826,60.8364],[-91.5751,17.5894,65.2698],[-91.5743,17.5948,69.265],[-91.5627,17.5957,61.6312],[-91.5541,17.6186,73.4641],[-91.5661,17.6299,78.4158],[-91.5659,17.6382,72.8601],[-91.5718,17.6493,28.9124],[-91.5705,17.6495,31.1209],[-91.5697,17.6571,25.9942],[-91.5728,17.684,17.1245],[-91.5637,17.6889,13.2956],[-91.562,17.6991,14.1059],[-91.5742,17.7024,10.4135],[-91.5705,17.7127,13.3255],[-91.5667,17.7127,16.0697],[-91.5664,17.722,10.072],[-91.5688,17.7227,0.0],[-91.5689,17.7252,0.0],[-91.5634,17.7266,9.309],[-91.5695,17.732,9.9742],[-91.5722,17.7419,9.1627],[-91.57,17.744,11.4455],[-91.5706,17.7618,13.3984],[-91.5984,17.7616,10.7446],[-91.6174,17.7659,7.9465],[-91.6205,17.762,6.0],[-91.6253,17.7598,6.8009],[-91.654,17.7615,6.0],[-91.6553,17.7574,8.8311],[-91.6521,17.7544,6.7118],[-91.6209,17.7412,6.0],[-91.6164,17.7335,6.0],[-91.618,17.7266,6.0],[-91.6234,17.7233,6.0],[-91.6295,17.7237,7.8894],[-91.6408,17.7276,6.0],[-91.653,17.7368,6.0],[-91.6601,17.7388,6.0],[-91.6659,17.7357,6.0],[-91.6718,17.7287,5.5],[-91.6726,17.7164,10.2169],[-91.6809,17.7093,6.5707],[-91.6892,17.7087,8.031],[-91.7023,17.7138,4.5],[-91.709,17.7143,4.5],[-91.7105,17.7432,10.2758],[-91.6986,17.747,10.239],[-91.7128,17.7651,2.0],[-91.7127,17.7861,10.1709],[-91.7102,17.786,5.2754],[-91.6863,17.8305,13.4939],[-91.6909,17.8323,12.2618],[-91.6917,17.8345,12.3338],[-91.6788,17.8438,13.5272],[-91.684,17.8505,13.1339],[-91.6785,17.8545,13.2824],[-91.6855,17.8623,12.9508],[-91.6751,17.8726,13.047],[-91.6807,17.876,12.4597],[-91.6719,17.8947,12.3799],[-91.7128,17.9189,13.8412],[-91.7124,17.9216,12.1453],[-91.7251,17.9245,9.8322],[-91.7251,17.9267,9.1712],[-91.7387,17.9362,10.7327]]]]}}