{"type":"Feature","properties":{"GID_2":"MEX.20.175_2","GID_0":"MEX","country":"México","GID_1":"MEX.20_1","province":"Oaxaca","NL_NAME_1":"NA","county":"SanJoséTenango","VARNAME_2":"NA","NL_NAME_2":"NA","TYPE_2":"Município","ENGTYPE_2":"Municipality","CC_2":"NA","HASC_2":"NA","name":"San_José_Tenango.county"},
"geometry":{"type": "MultiPolygon","coordinates": [[[[-96.7384,18.111,1411.8865],[-96.7229,18.1052,1504.969],[-96.7137,18.1066,1465.3022],[-96.7062,18.1109,1371.0367],[-96.6967,18.103,2013.6254],[-96.6894,18.108,1795.6288],[-96.6858,18.1064,1751.1975],[-96.6829,18.1075,1816.1775],[-96.6802,18.1106,1972.2197],[-96.6781,18.1084,1942.3074],[-96.6618,18.1036,1830.3318],[-96.6477,18.0818,1616.2496],[-96.6391,18.0643,746.5942],[-96.6314,18.0634,653.2536],[-96.6286,18.064,733.3062],[-96.6251,18.0677,987.4631],[-96.6215,18.0753,1675.9619],[-96.6037,18.0702,1564.9268],[-96.592,18.0831,1487.1837],[-96.5835,18.083,1429.7302],[-96.5823,18.085,1339.6077],[-96.5768,18.0817,1267.2666],[-96.5755,18.0867,1121.4034],[-96.5702,18.0948,1145.4341],[-96.5606,18.1014,467.4794],[-96.5575,18.113,941.8918],[-96.567,18.1094,951.5818],[-96.5763,18.1101,908.8407],[-96.5835,18.1087,1013.4078],[-96.588,18.1165,1007.7109],[-96.5944,18.1166,1094.8071],[-96.5969,18.1216,1016.174],[-96.5958,18.1259,910.8333],[-96.5794,18.1402,710.5365],[-96.5975,18.1642,797.1121],[-96.5821,18.1676,548.5191],[-96.5969,18.1804,431.0586],[-96.6251,18.1925,247.0456],[-96.6207,18.1935,80.1312],[-96.6238,18.204,317.2272],[-96.6163,18.2024,396.8689],[-96.6133,18.2088,116.6869],[-96.6176,18.2111,267.8007],[-96.6237,18.2198,233.8215],[-96.6258,18.2103,569.5015],[-96.6337,18.211,480.1677],[-96.6366,18.2165,368.9965],[-96.6343,18.2199,331.6658],[-96.6398,18.2201,338.7784],[-96.661,18.2292,100.1675],[-96.6634,18.2352,101.5888],[-96.6673,18.2372,99.6],[-96.6673,18.2432,157.9119],[-96.6751,18.2492,373.7595],[-96.679,18.2467,263.3206],[-96.6826,18.2614,256.9859],[-96.6914,18.2615,411.4525],[-96.6991,18.2661,378.5391],[-96.7007,18.2543,744.7786],[-96.7129,18.2508,730.6964],[-96.753,18.2262,1106.0836],[-96.75,18.193,1570.2888],[-96.755,18.1893,1477.8806],[-96.7453,18.1768,1126.5004],[-96.7451,18.1746,1123.1213],[-96.7464,18.1695,1294.0653],[-96.7455,18.1587,1203.2301],[-96.7482,18.1512,1137.7117],[-96.7449,18.1411,1289.8687],[-96.7481,18.1316,1376.8036],[-96.7448,18.1276,1056.7664],[-96.7425,18.129,1023.351],[-96.7384,18.111,1411.8865]]]]}}