{"type":"Feature","properties":{"GID_2":"MEX.15.111_2","GID_0":"MEX","country":"México","GID_1":"MEX.15_1","province":"México","NL_NAME_1":"NA","county":"Tultepec","VARNAME_2":"NA","NL_NAME_2":"NA","TYPE_2":"Município","ENGTYPE_2":"Municipality","CC_2":"NA","HASC_2":"NA","name":"Tultepec.county"},
"geometry":{"type": "MultiPolygon","coordinates": [[[[-99.106,19.664,2240.9336],[-99.1181,19.6672,2243.4783],[-99.1101,19.6887,2241.7812],[-99.0975,19.6856,2239.6072],[-99.0961,19.6896,2239.0891],[-99.0755,19.6835,2240.7786],[-99.0876,19.7082,2239.1235],[-99.1066,19.7108,2261.377],[-99.1061,19.708,2302.1528],[-99.1109,19.6986,2302.5774],[-99.1304,19.7061,2327.689],[-99.1316,19.6988,2329.1963],[-99.1399,19.6935,2293.7515],[-99.1429,19.6801,2249.6592],[-99.1444,19.6796,2247.7192],[-99.1418,19.6774,2249.7866],[-99.1493,19.6605,2245.563],[-99.1503,19.6495,2243.4988],[-99.1403,19.6458,2242.844],[-99.1377,19.6481,2242.929],[-99.1324,19.6469,2242.0251],[-99.1304,19.6522,2240.855],[-99.1216,19.6495,2242.2319],[-99.1203,19.6531,2242.1716],[-99.1084,19.6495,2241.1187],[-99.106,19.664,2240.9336]]]]}}