{"type":"Feature","properties":{"GID_2":"MEX.20.473_2","GID_0":"MEX","country":"México","GID_1":"MEX.20_1","province":"Oaxaca","NL_NAME_1":"NA","county":"SantiagoLachiguiri","VARNAME_2":"NA","NL_NAME_2":"NA","TYPE_2":"Município","ENGTYPE_2":"Municipality","CC_2":"NA","HASC_2":"NA","name":"Santiago_Lachiguiri.county"},
"geometry":{"type": "MultiPolygon","coordinates": [[[[-95.4328,16.9377,651.3068],[-95.4407,16.9481,1055.5332],[-95.4484,16.925,1203.6682],[-95.4933,16.9738,534.7639],[-95.4984,16.972,646.7109],[-95.4976,16.9679,722.3978],[-95.5025,16.9609,942.6392],[-95.5124,16.9595,769.7827],[-95.5145,16.9561,668.4739],[-95.5166,16.957,632.0976],[-95.5303,16.9506,394.0693],[-95.531,16.9442,351.3402],[-95.5278,16.9453,373.0568],[-95.5272,16.9424,385.2948],[-95.5253,16.9425,415.0395],[-95.5234,16.9391,394.1573],[-95.5198,16.9398,416.5609],[-95.5192,16.9379,434.4728],[-95.517,16.9388,445.6809],[-95.5168,16.9359,430.0471],[-95.5127,16.937,449.5087],[-95.5103,16.9335,462.8025],[-95.499,16.9277,509.3129],[-95.4975,16.9238,531.9635],[-95.4945,16.9233,585.2092],[-95.4938,16.9218,546.708],[-95.4862,16.9214,619.4911],[-95.4788,16.9326,856.5447],[-95.4734,16.9327,901.6903],[-95.4602,16.9275,1127.5919],[-95.4566,16.9183,733.7938],[-95.4517,16.9177,854.243],[-95.4684,16.8804,571.0695],[-95.47,16.8857,411.866],[-95.4724,16.8845,420.8481],[-95.4754,16.8889,405.644],[-95.4772,16.8963,426.2692],[-95.479,16.8903,484.7496],[-95.4982,16.8827,574.5424],[-95.5157,16.8903,410.9631],[-95.5206,16.8879,479.5229],[-95.5205,16.8927,426.1686],[-95.5182,16.8936,395.664],[-95.5211,16.8991,367.6522],[-95.5491,16.902,754.6348],[-95.5804,16.8824,451.2817],[-95.5809,16.8753,696.3263],[-95.5773,16.8654,945.1264],[-95.565,16.8444,514.468],[-95.5668,16.8444,538.3409],[-95.5662,16.8429,529.0476],[-95.5737,16.8386,580.9155],[-95.5774,16.8323,621.8262],[-95.5843,16.8307,677.4342],[-95.5893,16.8244,923.2876],[-95.5956,16.8222,1118.4557],[-95.5831,16.8139,642.1665],[-95.5798,16.8159,618.4948],[-95.5716,16.8158,572.8581],[-95.5679,16.8183,566.4597],[-95.5675,16.8204,559.2482],[-95.5636,16.8219,553.2754],[-95.5579,16.8216,546.4025],[-95.5564,16.819,653.0189],[-95.5647,16.8112,815.1967],[-95.5692,16.7794,1096.4731],[-95.5681,16.7686,1245.1511],[-95.6008,16.7391,636.1407],[-95.6124,16.712,486.8059],[-95.6211,16.7221,698.7098],[-95.625,16.7235,718.2024],[-95.6336,16.7214,1075.7983],[-95.6266,16.7272,722.8196],[-95.6279,16.731,747.1971],[-95.6678,16.7069,538.6805],[-95.6825,16.7,315.0519],[-95.6811,16.6981,307.7144],[-95.6714,16.6964,265.7986],[-95.6734,16.6941,270.1839],[-95.6732,16.6917,296.9528],[-95.668,16.6889,256.4759],[-95.6594,16.6907,261.2133],[-95.6491,16.6844,247.3385],[-95.6433,16.6862,244.2105],[-95.643,16.6833,278.6863],[-95.641,16.682,258.5257],[-95.6315,16.6905,246.9934],[-95.6277,16.6884,235.6102],[-95.631,16.6816,275.6167],[-95.6207,16.6785,248.0094],[-95.6132,16.6671,211.2801],[-95.6032,16.6649,204.8594],[-95.6025,16.6626,217.5335],[-95.5955,16.6601,211.2449],[-95.5879,16.6525,198.1691],[-95.5807,16.6532,201.4354],[-95.5803,16.6479,195.987],[-95.5743,16.6457,191.0413],[-95.5759,16.6427,197.6641],[-95.5755,16.6383,248.0641],[-95.569,16.6342,183.9578],[-95.5573,16.6374,185.1227],[-95.5593,16.6218,190.1901],[-95.554,16.6126,164.3792],[-95.5494,16.611,163.1678],[-95.5457,16.6071,174.5319],[-95.5428,16.6066,167.3093],[-95.5424,16.6165,272.9978],[-95.532,16.6271,542.4857],[-95.5018,16.6189,288.3362],[-95.4555,16.667,803.5686],[-95.4856,16.701,1594.0289],[-95.4771,16.7273,1603.5356],[-95.4818,16.7256,1699.6698],[-95.479,16.7358,1236.7494],[-95.4839,16.7417,1567.8291],[-95.4864,16.7402,1619.4327],[-95.4885,16.7414,1608.6783],[-95.4894,16.7475,1489.5385],[-95.487,16.7589,1161.2937],[-95.4817,16.7578,1190.5813],[-95.4774,16.7608,1168.6116],[-95.4748,16.7592,1165.8115],[-95.4738,16.7623,1147.7789],[-95.4637,16.7731,1281.3545],[-95.4701,16.8153,928.2662],[-95.4868,16.8349,560.73],[-95.483,16.8392,493.9785],[-95.4786,16.839,596.1146],[-95.4703,16.8427,862.476],[-95.4658,16.8428,701.8661],[-95.4583,16.8504,679.4735],[-95.4507,16.8528,729.537],[-95.4458,16.8503,648.8162],[-95.4374,16.8516,603.8412],[-95.4325,16.8568,500.9172],[-95.429,16.8546,472.8799],[-95.4251,16.8607,406.1297],[-95.4196,16.8561,420.4753],[-95.4106,16.8627,776.3155],[-95.4085,16.8693,699.8126],[-95.4132,16.8726,639.5938],[-95.4193,16.8735,639.9317],[-95.4235,16.8761,542.1086],[-95.4217,16.8794,507.8223],[-95.4177,16.8811,571.7283],[-95.4197,16.886,746.4305],[-95.4174,16.8888,864.8265],[-95.4178,16.8933,952.4236],[-95.4154,16.8965,855.3302],[-95.424,16.905,771.2423],[-95.4248,16.9129,647.0414],[-95.4241,16.9145,780.0195],[-95.4209,16.9143,815.3096],[-95.4195,16.918,827.0406],[-95.4328,16.9377,651.3068]],
[[-95.5414,16.7608,1354.672],[-95.5351,16.7594,1245.8497],[-95.5271,16.7606,1472.6023],[-95.533,16.7538,1314.88],[-95.5279,16.7563,1313.2865],[-95.527,16.7551,1277.7521],[-95.5273,16.752,1238.0258],[-95.5323,16.7487,1155.7094],[-95.5331,16.7448,1101.059],[-95.5353,16.7427,1066.0537],[-95.5332,16.743,1080.175],[-95.5346,16.7372,1097.7532],[-95.5302,16.7409,1169.6813],[-95.5267,16.7403,1195.0319],[-95.527,16.7412,1223.4717],[-95.529,16.7417,1208.4124],[-95.5238,16.7419,1280.0],[-95.5219,16.7398,1308.7092],[-95.5281,16.7388,1158.0604],[-95.5378,16.7335,1036.0532],[-95.5408,16.7336,972.8015],[-95.5441,16.7244,954.1927],[-95.5491,16.7287,1071.0331],[-95.5563,16.7299,1092.0709],[-95.5583,16.7286,1234.1915],[-95.557,16.7355,1190.78],[-95.5616,16.7384,1059.7517],[-95.5621,16.7407,1019.0985],[-95.5704,16.748,862.5652],[-95.5625,16.7496,982.9169],[-95.5554,16.7575,1417.7865],[-95.5531,16.7567,1448.7504],[-95.5524,16.7593,1370.0637],[-95.5478,16.7576,1261.7327],[-95.5449,16.759,1307.4175],[-95.543,16.762,1377.4233],[-95.5414,16.7608,1354.672]]]]}}