{"type": "Feature","bbox": [-109.2581,29.5142,-108.8388,30.0535],"geometry": {"type": "MultiPolygon","coordinates": [[[[-108.8388,29.955,2570.7168],[-108.853,29.9844,2176.9111],[-108.8551,30.0418,1911.9678],[-108.8529,30.0491,1996.9354],[-108.8951,30.0492,2200.959],[-108.8968,30.034,2127.5786],[-108.9768,30.0242,1562.6663],[-108.9815,30.0251,1526.2261],[-109.0,30.0237,1499.599],[-109.0362,30.0302,1318.6868],[-109.0468,30.0379,1397.5205],[-109.0362,30.0426,1573.6409],[-109.068,30.0441,1553.1305],[-109.0714,30.0483,1586.1178],[-109.0764,30.0507,1603.5164],[-109.0839,30.0506,1614.0703],[-109.0973,30.0535,1555.2209],[-109.102,30.0517,1521.681],[-109.1039,30.0463,1520.0592],[-109.1083,30.0418,1483.6304],[-109.1254,30.0434,1593.5751],[-109.1157,30.021,1251.9597],[-109.1408,30.0199,1225.0884],[-109.1381,30.0069,1252.8826],[-109.1766,30.009,1043.4106],[-109.1748,29.963,1251.037],[-109.1635,29.9625,1082.1824],[-109.1631,29.946,1058.688],[-109.1775,29.9466,1165.197],[-109.1979,29.9102,1055.8212],[-109.201,29.8929,1040.4253],[-109.2194,29.8988,1294.8401],[-109.2226,29.8887,1479.3201],[-109.2428,29.8814,1452.9795],[-109.2463,29.878,1372.3726],[-109.2403,29.8678,1425.4025],[-109.2236,29.8627,1395.905],[-109.2184,29.847,1328.7938],[-109.2314,29.8368,1270.174],[-109.2326,29.7993,1135.8514],[-109.1959,29.7737,1134.7048],[-109.1949,29.7671,1018.6449],[-109.2581,29.7502,1056.4935],[-109.2329,29.6807,681.5112],[-109.2313,29.6422,583.8436],[-109.2383,29.6378,465.5447],[-109.2416,29.6334,462.7261],[-109.241,29.6309,465.6758],[-109.2365,29.6287,470.8077],[-109.2373,29.6188,464.415],[-109.2339,29.614,489.6511],[-109.2385,29.611,468.9797],[-109.2405,29.6059,470.3867],[-109.238,29.6004,453.332],[-109.2384,29.5945,475.424],[-109.2357,29.5926,480.2631],[-109.2364,29.5885,469.3234],[-109.2411,29.5859,479.0511],[-109.2414,29.581,447.0613],[-109.2398,29.5792,444.5273],[-109.2386,29.5815,452.5763],[-109.2341,29.5824,462.4409],[-109.2281,29.5789,460.1655],[-109.2286,29.5741,511.3924],[-109.2383,29.5722,454.5811],[-109.2396,29.5701,447.2678],[-109.2361,29.566,435.592],[-109.2291,29.5637,440.1866],[-109.2259,29.5594,479.7296],[-109.2253,29.5535,443.1897],[-109.2276,29.5508,449.1082],[-109.2329,29.5485,437.3346],[-109.2309,29.5395,435.5267],[-109.2385,29.5303,419.2452],[-109.2257,29.5287,439.3567],[-109.2269,29.5307,427.1977],[-109.226,29.5324,430.1266],[-109.2208,29.5328,426.7447],[-109.2164,29.5247,431.0268],[-109.214,29.5239,436.4821],[-109.2093,29.5282,459.1289],[-109.2048,29.5358,439.7989],[-109.1908,29.5423,452.1744],[-109.1867,29.5428,449.118],[-109.1837,29.5371,450.2851],[-109.1691,29.5325,454.3322],[-109.163,29.5225,463.5307],[-109.1523,29.5142,450.0571],[-109.126,29.522,887.9191],[-109.1295,29.532,1000.8211],[-109.1249,29.5368,1053.3879],[-109.1481,29.5523,1095.2675],[-109.1461,29.5866,1348.1349],[-109.1512,29.6015,1205.397],[-109.1637,29.6108,1243.7852],[-109.1743,29.6049,1329.8726],[-109.1857,29.6397,866.7476],[-109.1811,29.6485,849.0735],[-109.1786,29.7175,967.4633],[-109.1538,29.6656,1154.3561],[-109.1387,29.6696,1297.4097],[-109.1326,29.6656,1353.0291],[-109.1248,29.669,1267.087],[-109.1213,29.6767,1278.104],[-109.1128,29.6661,1291.5297],[-109.1029,29.6612,1293.0071],[-109.0907,29.668,1018.4724],[-109.0738,29.6671,1192.0298],[-109.0496,29.7305,1061.9928],[-109.0515,29.7311,1065.6138],[-109.0493,29.7311,1061.9928],[-109.0458,29.7455,1129.2173],[-109.0408,29.7575,1175.1887],[-109.0448,29.7792,1166.8781],[-109.0419,29.7854,1180.5994],[-109.0283,29.8018,1317.6624],[-108.999,29.8032,1865.5271],[-108.9988,29.8275,1756.3309],[-109.0003,29.8344,1724.5356],[-108.9959,29.8578,2120.8984],[-108.936,29.8925,1528.0598],[-108.9152,29.8952,1367.2642],[-108.9101,29.9124,1585.5933],[-108.9072,29.9083,1527.3761],[-108.8952,29.9219,1566.542],[-108.8933,29.9319,1570.3728],[-108.8947,29.9426,1687.2371],[-108.876,29.9487,1873.3082],[-108.8594,29.9585,2165.9399],[-108.8388,29.955,2570.7168]]]]}
,"properties": {"GID_2": "MEX.26.8_2","GID_0": "MEX","country": "México","GID_1": "MEX.26_1","province": "Sonora","NL_NAME_1": "NA","county": "Bacadéhuachi","VARNAME_2": "NA","NL_NAME_2": "NA","TYPE_2": "Município","ENGTYPE_2": "Municipality","CC_2": "NA","HASC_2": "NA","name": "Bacadéhuachi.county","area_km2": 1067.678,"hist_schema_id": "Elevation0-9000","hist_area_km2": {"425": 0.9407,"450": 1.8811,"475": 1.881,"500": 1.9916,"525": 3.0604,"550": 4.5343,"575": 5.8052,"600": 6.2651,"625": 8.7518,"650": 12.51,"675": 16.7965,"700": 24.5417,"725": 33.757,"750": 34.4534,"775": 31.5249,"800": 31.3954,"825": 29.8683,"850": 28.4529,"875": 27.5499,"900": 26.7026,"925": 26.1311,"950": 25.9057,"975": 26.9705,"1000": 26.3235,"1025": 25.9342,"1050": 27.6784,"1075": 28.4668,"1100": 28.5763,"1125": 27.5623,"1150": 28.5172,"1175": 28.6229,"1200": 27.5926,"1225": 25.421,"1250": 25.2366,"1275": 23.5971,"1300": 22.1811,"1325": 20.4508,"1350": 19.0347,"1375": 15.9661,"1400": 14.0919,"1425": 13.6506,"1450": 12.3276,"1475": 12.7137,"1500": 11.6475,"1525": 11.6663,"1550": 10.3805,"1575": 9.7374,"1600": 9.444,"1625": 9.6087,"1650": 9.8846,"1675": 9.829,"1700": 8.7632,"1725": 8.855,"1750": 8.0468,"1775": 8.175,"1800": 8.4867,"1825": 7.0354,"1850": 6.8336,"1875": 7.0359,"1900": 6.5581,"1925": 6.0073,"1950": 5.5484,"1975": 5.4195,"2000": 4.1893,"2025": 3.8773,"2050": 3.5097,"2075": 3.1425,"2100": 3.1059,"2125": 2.8487,"2150": 2.8856,"2175": 2.3713,"2200": 1.8934,"2225": 1.5809,"2250": 0.9742,"2275": 0.9558,"2300": 0.4595,"2325": 0.441,"2350": 0.1286,"2375": 0.147,"2400": 0.0918,"2425": 0.1102,"2450": 0.0551,"2475": 0.0551,"2500": 0.0735,"2525": 0.0551,"2550": 0.0735,"2575": 0.0184,"2600": 0.0367,"2625": 0.0184}}}