{"type":"Feature","properties":{"GID_2":"MEX.12.7_2","GID_0":"MEX","country":"México","GID_1":"MEX.12_1","province":"Guerrero","NL_NAME_1":"NA","county":"Apaxtla","VARNAME_2":"NA","NL_NAME_2":"NA","TYPE_2":"Município","ENGTYPE_2":"Municipality","CC_2":"NA","HASC_2":"NA","name":"Apaxtla.county"},
"geometry":{"type": "MultiPolygon","coordinates": [[[[-99.9049,18.2112,1182.2936],[-99.9042,18.2068,1397.059],[-99.913,18.1966,1709.3176],[-99.9169,18.1821,1664.9856],[-99.9218,18.1819,1499.8019],[-99.9329,18.1781,1098.4124],[-99.9358,18.1756,1054.7894],[-99.9402,18.1751,1018.9396],[-99.9438,18.1784,979.8218],[-99.9433,18.1797,979.3076],[-99.9472,18.1816,975.2213],[-99.9479,18.1755,970.5355],[-99.9531,18.171,962.4148],[-99.9511,18.1688,966.2921],[-99.9521,18.1676,959.8014],[-99.9545,18.1688,967.9111],[-99.955,18.1797,1007.0975],[-99.9587,18.1802,1105.8145],[-99.9589,18.1839,1081.8744],[-99.9658,18.1835,1129.9889],[-99.9759,18.1871,1487.8018],[-99.9792,18.1781,1458.9395],[-99.9866,18.1672,1443.3335],[-99.9992,18.1694,1449.1985],[-100.0024,18.1729,1419.6172],[-100.0007,18.1782,1665.3389],[-100.002,18.1821,1684.1046],[-100.0065,18.1886,1709.6833],[-100.0118,18.1918,1729.2471],[-100.0104,18.1956,1700.6611],[-100.0168,18.1998,1810.2722],[-100.0209,18.1985,1676.1115],[-100.0187,18.2087,1865.551],[-100.0097,18.2062,1691.1085],[-100.0045,18.2082,1568.3958],[-99.9987,18.2006,1549.3488],[-99.9941,18.2017,1656.6119],[-99.9913,18.207,1856.5093],[-99.9872,18.2087,1808.979],[-99.9865,18.2113,1624.2153],[-99.9812,18.2102,1470.6119],[-99.9782,18.2124,1409.0083],[-99.9769,18.2109,1367.979],[-99.9643,18.2117,1160.5854],[-99.963,18.2063,1133.6985],[-99.9587,18.2053,1107.1881],[-99.9585,18.2102,1171.9019],[-99.9602,18.2135,1230.886],[-99.9567,18.2134,1095.632],[-99.9546,18.2117,1060.5123],[-99.9563,18.2164,1077.5508],[-99.9551,18.2196,1081.5142],[-99.9179,18.2133,1067.3208],[-99.9182,18.2171,1055.7114],[-99.9152,18.2235,1075.0167],[-99.9157,18.2307,1076.6609],[-99.9381,18.2356,1101.072],[-99.9491,18.2363,1235.3044],[-99.9563,18.2441,1476.153],[-99.9665,18.2495,1591.0809],[-99.9756,18.2467,1775.593],[-99.9701,18.2418,1739.9568],[-99.9656,18.2316,1418.5691],[-99.9625,18.2281,1246.9556],[-99.9749,18.2311,1429.8914],[-99.9791,18.2347,1422.2312],[-99.9825,18.2347,1440.252],[-99.991,18.2391,1520.9492],[-99.9967,18.2382,1572.2524],[-99.9984,18.2397,1572.2357],[-100.0032,18.2368,1652.063],[-100.0076,18.2283,1774.5112],[-100.0154,18.2362,1822.8462],[-100.0262,18.236,1751.6593],[-100.0291,18.2352,1644.2598],[-100.0298,18.2278,1635.6841],[-100.032,18.2263,1558.0542],[-100.0329,18.2226,1351.6544],[-100.0393,18.2213,1262.0234],[-100.0429,18.2163,1205.8948],[-100.047,18.2159,1159.277],[-100.0547,18.2184,1143.674],[-100.0553,18.2112,1289.7028],[-100.0607,18.2104,1433.3942],[-100.0651,18.2067,1599.8997],[-100.0663,18.2123,1241.6716],[-100.083,18.2152,1082.6914],[-100.083,18.2114,1152.54],[-100.0909,18.2092,948.0075],[-100.0914,18.2059,905.5066],[-100.0975,18.2026,892.4591],[-100.0943,18.2005,944.7178],[-100.0906,18.1882,1632.0336],[-100.0816,18.1867,1739.1531],[-100.0819,18.1815,1728.3286],[-100.086,18.1739,1780.4956],[-100.0916,18.1689,1615.5791],[-100.0891,18.1563,1406.772],[-100.0915,18.1502,1457.35],[-100.0862,18.1489,1267.6028],[-100.0843,18.1506,1188.3992],[-100.0823,18.1492,1131.0898],[-100.0818,18.1434,1108.9432],[-100.0723,18.1313,945.2791],[-100.072,18.1273,941.5995],[-100.073,18.1266,905.2192],[-100.0796,18.1294,1027.5131],[-100.0826,18.1288,1101.8322],[-100.0854,18.1312,1139.7014],[-100.091,18.1287,1328.8721],[-100.0931,18.1205,1222.6707],[-100.0915,18.1139,1287.4558],[-100.0933,18.1076,1225.2389],[-100.1109,18.1134,898.2783],[-100.1134,18.1134,972.788],[-100.1149,18.1107,966.6288],[-100.1158,18.1014,932.9922],[-100.1138,18.1004,897.7478],[-100.112,18.0775,853.5054],[-100.1039,18.0688,549.6927],[-100.084,18.0779,1249.6324],[-100.0839,18.052,1023.9683],[-100.1039,18.0498,455.8735],[-100.1051,18.0491,439.1547],[-100.1036,18.0432,425.3548],[-100.1064,18.0351,370.3262],[-100.1099,18.0361,361.4098],[-100.1107,18.0393,343.6695],[-100.1136,18.0387,340.2159],[-100.1141,18.0369,337.8903],[-100.1061,18.0273,372.2079],[-100.1004,18.0168,369.2698],[-100.0921,18.0097,357.3811],[-100.0915,18.0048,341.875],[-100.087,18.0005,374.1758],[-100.0868,17.9969,361.9151],[-100.0894,17.9926,353.4247],[-100.0885,17.989,346.7771],[-100.0789,17.9907,389.561],[-100.0702,17.9862,347.5],[-100.0655,17.9862,351.2292],[-100.0566,17.9923,422.5568],[-100.0506,18.0003,469.4493],[-100.0456,18.0005,599.0509],[-100.0401,17.9966,867.3896],[-100.0398,18.0022,816.7244],[-100.038,18.004,814.4705],[-100.0318,18.0013,696.6295],[-100.0375,18.0058,846.9168],[-100.0384,18.0095,801.6124],[-100.042,18.0113,823.9466],[-100.0434,18.016,855.7212],[-100.0447,18.0163,797.3266],[-100.0512,18.0091,594.3339],[-100.054,18.0132,710.354],[-100.0569,18.0127,702.1083],[-100.0555,18.0155,666.2763],[-100.0602,18.0196,446.3674],[-100.0561,18.0205,479.5587],[-100.0536,18.0243,526.2637],[-100.0536,18.029,559.8887],[-100.05,18.0371,685.1482],[-100.0376,18.0394,858.3796],[-100.0357,18.0383,963.3332],[-100.0334,18.0411,936.0457],[-100.0206,18.0299,1314.2729],[-100.023,18.0257,1184.3253],[-100.0294,18.0233,1178.5011],[-100.0324,18.024,1175.1075],[-100.0327,18.0229,1235.3048],[-100.0284,18.0193,1279.2964],[-100.0274,18.0129,903.3757],[-100.024,18.0078,804.1493],[-100.0242,18.0032,653.7925],[-100.0274,18.0,679.7469],[-100.0245,17.9978,570.941],[-100.0222,17.9929,517.8265],[-100.0213,17.9832,463.9756],[-100.0248,17.9781,463.4044],[-100.0406,17.9875,877.861],[-100.0453,17.9822,719.064],[-100.0477,17.9757,625.5665],[-100.0535,17.973,599.3698],[-100.0517,17.9633,376.6122],[-100.0486,17.9632,353.1795],[-100.0405,17.972,352.3351],[-100.0376,17.9724,356.9755],[-100.0338,17.9656,364.5637],[-100.0322,17.9551,426.1226],[-100.0288,17.9543,357.6877],[-100.0266,17.9597,355.567],[-100.0213,17.9615,361.7152],[-100.0205,17.952,413.274],[-100.018,17.9497,357.75],[-100.0113,17.9551,361.2603],[-100.0055,17.9568,361.7042],[-99.9989,17.9641,370.493],[-99.9938,17.9639,380.886],[-99.991,17.9615,370.4165],[-99.9926,17.9541,421.7147],[-99.9999,17.9541,417.0719],[-100.0016,17.9523,458.7742],[-99.9931,17.9482,464.0],[-99.9804,17.9517,468.7486],[-99.9775,17.9597,464.0],[-99.9737,17.9632,464.0],[-99.969,17.9637,464.0],[-99.9647,17.9578,464.0],[-99.9611,17.9566,464.0],[-99.957,17.9588,464.0],[-99.954,17.9644,464.0],[-99.9519,17.9649,464.0],[-99.9484,17.9607,464.0],[-99.9464,17.9531,464.0],[-99.9305,17.9504,467.3434],[-99.9341,17.9445,464.0],[-99.9325,17.942,464.0],[-99.9071,17.9386,464.0],[-99.9057,17.9484,464.0],[-99.8955,17.9583,464.0],[-99.8936,17.9695,464.0],[-99.8834,17.9732,464.0],[-99.8793,17.98,464.0],[-99.88,17.9881,464.0],[-99.8858,17.995,473.8513],[-99.8819,18.0004,474.4927],[-99.8802,18.0005,473.5826],[-99.8821,18.0022,543.3765],[-99.8791,18.0045,533.1451],[-99.8798,18.0067,523.6307],[-99.8851,18.0104,539.2162],[-99.8845,18.014,559.2482],[-99.8867,18.0171,567.3231],[-99.8844,18.0172,568.5802],[-99.8843,18.0194,589.8041],[-99.8819,18.0185,608.1774],[-99.8831,18.0221,636.7631],[-99.8807,18.0222,619.3182],[-99.8806,18.0243,695.1118],[-99.8779,18.0236,685.6313],[-99.8765,18.0257,673.6419],[-99.8791,18.0268,650.4178],[-99.8771,18.0298,707.5883],[-99.8793,18.0327,686.8856],[-99.8776,18.036,763.8512],[-99.8791,18.0362,694.4516],[-99.8799,18.0392,712.0244],[-99.8738,18.0438,746.6189],[-99.8708,18.0564,769.0102],[-99.8719,18.0592,782.1395],[-99.8734,18.0591,782.1395],[-99.8747,18.0644,813.9641],[-99.8801,18.0658,873.2314],[-99.882,18.0678,944.7759],[-99.884,18.0739,939.8636],[-99.8807,18.0782,942.4613],[-99.8816,18.0814,939.1766],[-99.8803,18.0842,993.3876],[-99.8817,18.0878,960.2026],[-99.8763,18.0935,997.947],[-99.8744,18.0929,1009.4737],[-99.8703,18.0961,1018.4661],[-99.8707,18.0976,1074.6761],[-99.8681,18.0986,1049.2313],[-99.8672,18.1052,1106.9078],[-99.8684,18.1079,1067.502],[-99.8671,18.1116,1110.7249],[-99.8691,18.1134,1097.0371],[-99.8684,18.1156,1132.052],[-99.8731,18.12,1121.7786],[-99.8678,18.1228,1268.6266],[-99.8639,18.1213,1429.3964],[-99.8611,18.1449,1371.2014],[-99.856,18.1526,1326.915],[-99.861,18.1505,1450.5366],[-99.8659,18.1507,1213.2413],[-99.8669,18.1559,1254.198],[-99.8656,18.1627,1258.0183],[-99.8674,18.1684,1290.3199],[-99.8635,18.1745,1389.863],[-99.8631,18.1781,1421.0151],[-99.8625,18.1869,1456.92],[-99.8643,18.1892,1492.6208],[-99.86,18.1965,1567.2244],[-99.8578,18.2036,1569.0054],[-99.8587,18.2053,1545.8104],[-99.8761,18.2139,1678.817],[-99.8783,18.2173,1594.9053],[-99.8953,18.2062,1445.578],[-99.8963,18.2036,1399.0552],[-99.9006,18.2091,1329.5862],[-99.9049,18.2112,1182.2936]]]]}}