{"type": "Feature","bbox": [-105.4422,26.4193,-104.7068,26.9244],"geometry": {"type": "MultiPolygon","coordinates": [[[[-105.3213,26.7785,1564.8761],[-105.3212,26.7714,1561.9357],[-105.3232,26.7716,1562.4645],[-105.3224,26.7671,1563.4087],[-105.3333,26.7679,1570.2563],[-105.3376,26.763,1577.5125],[-105.3379,26.759,1578.9008],[-105.3413,26.7551,1578.827],[-105.3394,26.7465,1585.0116],[-105.3417,26.743,1586.5043],[-105.3494,26.738,1591.2913],[-105.3504,26.7189,1636.2838],[-105.3479,26.7003,1673.7417],[-105.3443,26.6932,1708.719],[-105.3414,26.6912,1726.1599],[-105.3386,26.6835,1736.4294],[-105.3302,26.6802,1720.3098],[-105.3307,26.6678,1734.5692],[-105.3288,26.6645,1745.053],[-105.3416,26.6561,1778.4471],[-105.3505,26.6584,1776.1143],[-105.3393,26.6451,1748.697],[-105.4021,26.5947,1947.2511],[-105.4422,26.5522,1849.9556],[-105.3844,26.5386,1861.8127],[-105.3892,26.524,1803.5227],[-105.3856,26.5226,1807.6067],[-105.3859,26.5247,1793.0068],[-105.3811,26.5296,1781.9381],[-105.3728,26.5297,1760.1537],[-105.3686,26.5343,1778.5287],[-105.3654,26.5315,1728.9275],[-105.3625,26.532,1714.0359],[-105.348,26.5125,1716.832],[-105.3495,26.5087,1739.005],[-105.3485,26.5055,1746.928],[-105.3427,26.5045,1758.2966],[-105.3541,26.4936,1725.4841],[-105.3572,26.4856,1710.2778],[-105.3556,26.4816,1695.3811],[-105.3528,26.4789,1690.4042],[-105.3464,26.4774,1725.4081],[-105.342,26.4795,1706.2507],[-105.3388,26.4781,1691.2114],[-105.3382,26.4739,1677.9315],[-105.334,26.4694,1657.785],[-105.3168,26.4623,1632.4241],[-105.3155,26.4703,1632.1973],[-105.3128,26.4715,1630.9265],[-105.3086,26.4697,1629.9449],[-105.3051,26.4726,1638.3905],[-105.3019,26.4724,1627.1132],[-105.3022,26.4756,1637.7979],[-105.2985,26.482,1622.9159],[-105.2916,26.4809,1629.1099],[-105.292,26.4851,1659.3589],[-105.2879,26.4889,1630.6602],[-105.2779,26.4871,1637.4006],[-105.271,26.4819,1697.6846],[-105.2695,26.4798,1705.7419],[-105.2706,26.4754,1724.1025],[-105.2688,26.4714,1736.139],[-105.2706,26.4665,1780.1661],[-105.2647,26.4621,1757.8942],[-105.1015,26.5214,1698.3076],[-105.0566,26.4193,1740.7383],[-105.0526,26.4298,1724.908],[-105.049,26.4297,1724.0577],[-105.0465,26.4326,1718.2891],[-105.0373,26.4358,1714.6477],[-105.0326,26.4344,1709.2722],[-105.0294,26.4377,1706.4939],[-105.0271,26.4369,1707.6835],[-105.0239,26.4417,1702.3433],[-105.0164,26.4454,1698.7876],[-105.015,26.4483,1693.1232],[-105.0128,26.4462,1692.4568],[-105.0098,26.4486,1690.7268],[-105.0056,26.4485,1688.7581],[-105.0004,26.455,1683.0872],[-105.0,26.4539,1682.5422],[-104.9923,26.4565,1677.4751],[-104.9873,26.4522,1671.0618],[-104.981,26.4544,1667.5281],[-104.9801,26.451,1666.0275],[-104.9737,26.453,1662.5034],[-104.9662,26.4483,1657.8611],[-104.9653,26.4504,1657.3339],[-104.9631,26.4492,1654.5657],[-104.9607,26.454,1654.7665],[-104.9575,26.4558,1650.5535],[-104.9584,26.4594,1653.1011],[-104.9562,26.4628,1662.5883],[-104.9599,26.465,1645.4318],[-104.9654,26.463,1642.3951],[-104.9696,26.466,1645.6404],[-104.9632,26.4734,1637.3447],[-104.9444,26.4683,1624.892],[-104.9439,26.473,1623.7909],[-104.9418,26.4735,1620.6449],[-104.9408,26.4763,1616.9624],[-104.9389,26.476,1633.7489],[-104.9403,26.4794,1617.2566],[-104.9367,26.4837,1610.9614],[-104.9323,26.4875,1607.3652],[-104.9183,26.4938,1598.702],[-104.9086,26.5055,1588.4301],[-104.8989,26.51,1580.7148],[-104.8758,26.5055,1565.6173],[-104.8736,26.508,1569.4915],[-104.8705,26.5042,1563.9832],[-104.8605,26.5058,1558.3339],[-104.8589,26.5046,1555.7618],[-104.8051,26.5478,1526.9469],[-104.796,26.5481,1532.6033],[-104.8009,26.5563,1533.9125],[-104.7824,26.5632,1520.9967],[-104.7717,26.5625,1516.9249],[-104.7689,26.5657,1518.0166],[-104.77,26.5691,1516.3834],[-104.7679,26.5718,1517.1829],[-104.7696,26.5751,1515.8724],[-104.769,26.5811,1514.3555],[-104.7597,26.5906,1521.4303],[-104.7572,26.5968,1527.3629],[-104.7369,26.613,1581.3604],[-104.7295,26.6246,1579.304],[-104.7228,26.6307,1563.3468],[-104.7074,26.6386,1564.1088],[-104.7164,26.6507,1621.9242],[-104.7238,26.6574,1589.2737],[-104.7257,26.6627,1590.5466],[-104.7278,26.6635,1577.192],[-104.729,26.6667,1567.01],[-104.7282,26.6731,1560.9717],[-104.7228,26.6768,1568.855],[-104.7198,26.6931,1611.4194],[-104.7136,26.6992,1597.0592],[-104.7112,26.6992,1610.7386],[-104.7118,26.7043,1586.5159],[-104.718,26.7131,1572.3638],[-104.7068,26.7213,1573.9658],[-104.7071,26.7281,1555.168],[-104.7083,26.7261,1558.8871],[-104.7356,26.7302,1525.7966],[-104.7366,26.7307,1521.4692],[-104.7323,26.7492,1493.2227],[-104.7486,26.751,1480.1221],[-104.7616,26.7519,1502.0049],[-104.7719,26.7504,1465.0496],[-104.8866,26.7241,1563.7896],[-104.8968,26.759,1549.2971],[-104.9711,26.7421,1680.4747],[-104.9591,26.7076,1661.6631],[-104.9917,26.6993,1887.2192],[-105.0201,26.665,1745.246],[-105.0492,26.7494,1720.6459],[-105.0537,26.7711,1660.3835],[-105.0486,26.7741,1664.5981],[-105.0461,26.7808,1645.0146],[-105.048,26.8073,1699.2932],[-105.0514,26.8143,1719.1455],[-105.053,26.8256,1610.1539],[-105.1402,26.8453,1474.0298],[-105.1399,26.848,1472.3192],[-105.1335,26.8573,1468.8523],[-105.0898,26.8502,1521.1953],[-105.0765,26.8804,1480.4786],[-105.1226,26.8951,1455.1567],[-105.1222,26.897,1455.5315],[-105.1259,26.8972,1459.1953],[-105.1279,26.8935,1457.459],[-105.1294,26.8939,1458.9551],[-105.1371,26.8875,1461.0127],[-105.1402,26.8804,1461.7461],[-105.1412,26.8661,1466.96],[-105.1362,26.861,1467.4674],[-105.1369,26.8552,1469.6173],[-105.1413,26.8492,1471.0127],[-105.1434,26.8529,1473.1311],[-105.1414,26.8573,1469.7574],[-105.1454,26.8747,1466.632],[-105.1417,26.8841,1464.8123],[-105.1394,26.8839,1463.0414],[-105.171,26.9244,1515.0031],[-105.1907,26.9223,1525.8245],[-105.1875,26.9202,1525.3789],[-105.1851,26.9133,1524.0314],[-105.1831,26.8991,1504.7318],[-105.1798,26.8892,1484.9149],[-105.1803,26.885,1484.8396],[-105.1746,26.8793,1491.7129],[-105.1626,26.8806,1482.6925],[-105.1586,26.8707,1488.2592],[-105.1541,26.8663,1483.0156],[-105.1542,26.8628,1484.2992],[-105.1585,26.8607,1489.3073],[-105.159,26.8556,1489.0129],[-105.1779,26.8369,1491.0706],[-105.1635,26.8242,1500.5231],[-105.17529999999999,26.8109,1528.0306],[-105.1946,26.8293,1498.3206],[-105.1943,26.8306,1498.0485],[-105.1987,26.8316,1498.6389],[-105.2246,26.856,1533.9733],[-105.2221,26.8195,1512.9243],[-105.2189,26.819,1510.2332],[-105.2165,26.8224,1508.0912],[-105.2132,26.8124,1515.416],[-105.2155,26.812,1519.0363],[-105.2286,26.7667,1584.6738],[-105.2272,26.7562,1590.6553],[-105.2327,26.7495,1598.8906],[-105.2142,26.7437,1589.1836],[-105.2241,26.6859,1598.3882],[-105.213,26.6382,1626.8025],[-105.3088,26.6512,1730.3497],[-105.3094,26.6689,1722.8242],[-105.3192,26.6611,1741.8412],[-105.3198,26.6942,1696.5145],[-105.2849,26.7029,1704.4375],[-105.2774,26.7064,1689.4672],[-105.2728,26.716,1671.6243],[-105.2621,26.7266,1645.9729],[-105.2581,26.7452,1606.5964],[-105.2536,26.7553,1606.3176],[-105.2745,26.7864,1542.5879],[-105.2816,26.7837,1545.6162],[-105.2916,26.7876,1548.4534],[-105.2954,26.7846,1549.299],[-105.2927,26.7774,1550.7998],[-105.2992,26.7742,1554.0902],[-105.3031,26.774,1558.0067],[-105.3072,26.782,1558.7725],[-105.3169,26.7808,1567.5807],[-105.3213,26.7785,1564.8761]]]]}
,"properties": {"GID_2": "MEX.6.16_2","GID_0": "MEX","country": "México","GID_1": "MEX.6_1","province": "Chihuahua","NL_NAME_1": "NA","county": "Coronado","VARNAME_2": "NA","NL_NAME_2": "NA","TYPE_2": "Município","ENGTYPE_2": "Municipality","CC_2": "NA","HASC_2": "NA","name": "Coronado.county","area_km2": 1892.871,"hist_schema_id": "Elevation0-9000","hist_area_km2": {"1450": 2.743,"1475": 81.63,"1500": 128.256,"1525": 149.155,"1550": 167.945,"1575": 183.362,"1600": 194.137,"1625": 183.839,"1650": 178.088,"1675": 178.984,"1700": 162.392,"1725": 115.009,"1750": 66.837,"1775": 34.156,"1800": 22.837,"1825": 15.268,"1850": 10.126,"1875": 7.035,"1900": 4.172,"1925": 2.199,"1950": 1.82,"1975": 0.986,"2000": 0.739,"2025": 0.379,"2050": 0.588,"2075": 0.152,"2100": 0.038}}}