{"type": "Feature","bbox": [-98.1596,21.402,-97.6467,21.9966],"geometry": {"type": "MultiPolygon","coordinates": [[[[-97.9536,21.402,69.1082],[-97.9535,21.404,68.1406],[-97.957,21.407,67.7066],[-97.957,21.4146,73.6525],[-97.9321,21.4276,78.2771],[-97.915,21.4402,86.1096],[-97.9085,21.4425,64.7246],[-97.9065,21.4422,61.4601],[-97.9049,21.4383,54.7971],[-97.8996,21.4337,52.6996],[-97.8842,21.4353,42.4362],[-97.8839,21.4383,40.3478],[-97.8775,21.4438,38.0633],[-97.8736,21.4394,39.4476],[-97.8723,21.4402,36.719],[-97.8706,21.4362,33.5521],[-97.8622,21.4378,34.8497],[-97.8633,21.4357,33.1498],[-97.8607,21.4349,35.0999],[-97.8607,21.4319,33.3467],[-97.8549,21.433,31.535],[-97.8525,21.4302,34.1381],[-97.8501,21.4324,31.6912],[-97.8499,21.4351,31.4431],[-97.8478,21.4323,28.7067],[-97.8446,21.432,43.9069],[-97.8421,21.4351,37.9723],[-97.8439,21.4373,29.9993],[-97.8395,21.4377,26.5603],[-97.8422,21.4417,22.4615],[-97.8359,21.4447,25.8323],[-97.8402,21.4466,22.0232],[-97.8384,21.4468,22.6448],[-97.8381,21.4498,19.464],[-97.8354,21.4527,25.1725],[-97.8368,21.4599,16.7502],[-97.8331,21.4658,16.5787],[-97.8309,21.4666,17.413],[-97.8343,21.4674,13.7209],[-97.8345,21.4697,18.1392],[-97.8256,21.4708,18.2833],[-97.8244,21.4768,14.4419],[-97.8227,21.476,14.9524],[-97.8216,21.4781,13.6914],[-97.8204,21.4759,15.9134],[-97.8185,21.4768,15.7949],[-97.817,21.4794,13.9761],[-97.8212,21.4835,11.9293],[-97.8168,21.4813,10.1046],[-97.8159,21.4841,11.5723],[-97.8137,21.4848,10.7021],[-97.812,21.4904,12.525],[-97.8099,21.4903,10.1922],[-97.8087,21.496,10.2355],[-97.8053,21.4977,11.8675],[-97.7981,21.4929,14.3279],[-97.8007,21.497,8.4984],[-97.8022,21.5053,11.4407],[-97.792,21.5028,6.6137],[-97.7893,21.505,6.7238],[-97.7944,21.5102,8.2312],[-97.7939,21.5122,4.2323],[-97.792,21.5106,4.3143],[-97.7906,21.5114,3.1159],[-97.7927,21.5141,3.9987],[-97.7954,21.5136,6.2334],[-97.7938,21.5164,5.9438],[-97.796,21.5224,9.0398],[-97.7901,21.5253,3.7859],[-97.7794,21.5214,4.0068],[-97.7799,21.5271,2.9386],[-97.7688,21.531,2.7451],[-97.761,21.5279,3.4359],[-97.7533,21.5287,1.8234],[-97.753,21.5267,1.0122],[-97.7575,21.5236,2.3836],[-97.7555,21.5229,4.3758],[-97.7508,21.5279,2.4173],[-97.7501,21.5346,2.9457],[-97.7473,21.538,1.6235],[-97.7336,21.5445,2.1942],[-97.7258,21.5461,3.9927],[-97.7279,21.5529,3.154],[-97.7189,21.5573,1.1708],[-97.7126,21.5674,1.821],[-97.7166,21.5708,2.9653],[-97.7272,21.5743,1.764],[-97.726,21.5775,2.559],[-97.7205,21.5815,9.0804],[-97.7212,21.5857,1.4838],[-97.7277,21.5894,0.7158],[-97.7233,21.5959,2.2995],[-97.7244,21.6057,2.2014],[-97.7221,21.6071,6.186],[-97.7173,21.6057,1.6095],[-97.7042,21.6132,1.9831],[-97.6969,21.6192,2.5393],[-97.6929,21.6181,2.5668],[-97.688,21.614,5.2057],[-97.6789,21.6139,3.6951],[-97.672,21.6069,0.3287],[-97.6674,21.6057,1.0948],[-97.6625,21.6128,1.4601],[-97.6494,21.6215,0.0357],[-97.6467,21.6277,0.0],[-97.6543,21.6287,1.0221],[-97.664,21.6336,1.2699],[-97.6695,21.6432,0.0],[-97.6736,21.6472,0.0],[-97.6821,21.6689,3.4747],[-97.6834,21.683,0.0],[-97.688,21.6979,0.0],[-97.6872,21.7037,0.1834],[-97.6948,21.7131,1.8417],[-97.6915,21.7249,0.0],[-97.6934,21.7367,0.0],[-97.6921,21.7439,0.0],[-97.6971,21.7527,1.9175],[-97.6959,21.7698,0.973],[-97.7013,21.7744,0.0],[-97.7016,21.7764,0.0],[-97.7012,21.7785,0.4565],[-97.696,21.7837,0.0],[-97.7014,21.7854,3.4522],[-97.706,21.7893,0.6032],[-97.7086,21.7957,0.0],[-97.7066,21.8041,0.0],[-97.7144,21.8088,0.5114],[-97.7223,21.8298,1.6456],[-97.7219,21.8346,3.5386],[-97.7191,21.8356,4.6062],[-97.7153,21.8329,1.8499],[-97.7163,21.8372,1.5483],[-97.7067,21.8422,0.0],[-97.7081,21.8469,0.5082],[-97.7059,21.8477,0.9985],[-97.7059,21.8515,0.5729],[-97.7087,21.8545,0.0],[-97.7091,21.858,2.0041],[-97.7061,21.8597,0.9156],[-97.7047,21.8641,0.0],[-97.7053,21.8681,2.856],[-97.7021,21.8806,0.0],[-97.72,21.9156,1.047],[-97.7582,21.9215,24.2903],[-97.7603,21.9315,15.2827],[-97.7712,21.9305,23.0735],[-97.7738,21.9262,29.8145],[-97.7763,21.9272,23.6855],[-97.7777,21.9313,23.2522],[-97.789,21.9317,29.8161],[-97.7897,21.9292,23.9712],[-97.7935,21.9298,15.4838],[-97.7935,21.928,18.864],[-97.7993,21.926,17.2437],[-97.8099,21.9249,2.9795],[-97.814,21.9237,3.1251],[-97.814,21.9224,3.1251],[-97.8185,21.923,2.8094],[-97.8208,21.9263,2.6534],[-97.82,21.9274,2.7147],[-97.8216,21.9278,2.7147],[-97.8204,21.9311,2.2113],[-97.8232,21.9322,2.1006],[-97.8225,21.9374,1.8839],[-97.825,21.9388,4.5548],[-97.8305,21.9361,2.7642],[-97.8337,21.9365,1.8584],[-97.8325,21.9451,1.1165],[-97.8335,21.9478,2.0249],[-97.8361,21.9488,3.0415],[-97.8376,21.9478,2.4282],[-97.8383,21.9415,2.108],[-97.8423,21.9391,2.6433],[-97.844,21.947,2.1541],[-97.8482,21.948,2.6853],[-97.8514,21.9469,1.7138],[-97.8522,21.9421,3.2508],[-97.8547,21.939,3.1243],[-97.8503,21.9343,2.7228],[-97.8507,21.9322,2.4717],[-97.853,21.9318,7.3112],[-97.8572,21.9345,2.3552],[-97.8584,21.9295,4.0544],[-97.866,21.9229,2.3961],[-97.8672,21.9157,2.1451],[-97.8714,21.9164,4.9712],[-97.873,21.9119,5.0719],[-97.8765,21.9088,7.3864],[-97.8858,21.9097,12.9598],[-97.8848,21.9136,22.1669],[-97.8914,21.9131,16.6014],[-97.8939,21.9116,17.2648],[-97.8974,21.9056,16.1117],[-97.904,21.911,33.7133],[-97.9031,21.914,25.1916],[-97.9043,21.9154,25.1916],[-97.9129,21.9167,34.161],[-97.9177,21.9143,33.8112],[-97.9235,21.9173,36.2302],[-97.9264,21.9234,55.9902],[-97.9198,21.9354,31.9277],[-97.9265,21.9389,73.2268],[-97.9648,21.9431,42.4702],[-97.965,21.9411,44.1889],[-97.9684,21.9413,47.299],[-98.0346,21.9489,5.721],[-98.0417,21.9468,5.5298],[-98.0587,21.9487,2.5747],[-98.0568,21.9514,2.8464],[-98.0504,21.9501,5.0806],[-98.0516,21.9545,2.3631],[-98.045,21.9608,2.5756],[-98.0463,21.9669,2.0078],[-98.0423,21.9727,2.3864],[-98.0506,21.9708,1.5119],[-98.0551,21.9728,1.9059],[-98.0634,21.9854,2.5195],[-98.0631,21.9887,2.8658],[-98.0599,21.9904,1.3357],[-98.0594,21.993,1.3331],[-98.065,21.9966,2.8305],[-98.0692,21.9938,1.8426],[-98.0725,21.9953,1.6786],[-98.074,21.9946,4.0453],[-98.073,21.993,1.7742],[-98.0765,21.9903,2.7393],[-98.0788,21.9908,4.5291],[-98.0808,21.9893,2.5697],[-98.0814,21.9864,2.0896],[-98.0857,21.988,2.1756],[-98.0858,21.9841,3.2074],[-98.0892,21.9829,3.5936],[-98.0947,21.9874,2.2567],[-98.0964,21.9841,2.8543],[-98.1012,21.9805,4.5848],[-98.1072,21.9767,6.4289],[-98.1125,21.9758,5.8124],[-98.1117,21.9742,3.7075],[-98.1043,21.9737,2.5333],[-98.0994,21.9714,5.8532],[-98.1009,21.9697,3.2227],[-98.1002,21.9675,3.0848],[-98.1029,21.9658,2.3563],[-98.1007,21.9656,2.7564],[-98.0997,21.9635,2.7673],[-98.0965,21.9653,4.2806],[-98.0929,21.9541,4.1871],[-98.0987,21.9542,3.2597],[-98.1024,21.947,3.8015],[-98.1107,21.9426,3.9848],[-98.117,21.943,3.7022],[-98.1189,21.9393,3.827],[-98.1226,21.9372,3.3945],[-98.124,21.9332,5.2307],[-98.1206,21.93,4.9112],[-98.1218,21.9199,3.8794],[-98.1198,21.9171,5.2309],[-98.1164,21.9175,3.8744],[-98.1145,21.9119,6.966],[-98.1114,21.913,4.0504],[-98.1058,21.9038,8.1708],[-98.1061,21.9,4.7517],[-98.1004,21.8969,4.2367],[-98.0975,21.8931,6.4771],[-98.103,21.8916,4.6577],[-98.0995,21.8892,4.1676],[-98.1012,21.8865,4.912],[-98.1007,21.8801,6.758],[-98.0963,21.8803,3.7805],[-98.0978,21.877,6.8455],[-98.0951,21.8764,2.9361],[-98.094,21.8741,4.4774],[-98.0883,21.876,5.7651],[-98.0927,21.8718,6.3574],[-98.0892,21.8665,5.4496],[-98.0858,21.865,6.2771],[-98.0898,21.8613,8.6771],[-98.0863,21.857,7.2156],[-98.0895,21.8542,6.2655],[-98.0908,21.8565,5.1777],[-98.0943,21.8568,7.0847],[-98.0961,21.8602,6.399],[-98.0975,21.8555,8.3441],[-98.0995,21.8544,5.1709],[-98.0968,21.8515,11.2719],[-98.1007,21.8482,6.8279],[-98.1078,21.8489,7.916],[-98.1123,21.8453,8.1488],[-98.1214,21.8452,7.631],[-98.1256,21.841,8.414],[-98.1239,21.8379,10.2409],[-98.1248,21.835,7.9601],[-98.1295,21.8318,6.9572],[-98.1304,21.8285,8.7883],[-98.1267,21.8269,8.6057],[-98.1271,21.8221,9.2134],[-98.1237,21.8224,10.4956],[-98.1233,21.8151,9.5926],[-98.1252,21.8124,10.6792],[-98.1199,21.8139,10.5254],[-98.123,21.8107,9.6213],[-98.1225,21.8083,10.9045],[-98.1211,21.8099,10.1012],[-98.1196,21.8087,10.9689],[-98.1216,21.8068,10.2366],[-98.123,21.7997,11.9936],[-98.1213,21.7988,11.6763],[-98.1204,21.7944,11.7381],[-98.1252,21.7878,12.498],[-98.1269,21.7808,11.9324],[-98.1314,21.7807,12.5332],[-98.1323,21.7841,12.5418],[-98.1336,21.7844,13.4908],[-98.1393,21.7804,13.7221],[-98.1403,21.7754,13.0752],[-98.1438,21.7746,13.2233],[-98.1464,21.7667,12.3233],[-98.1449,21.7609,14.3694],[-98.1459,21.7577,12.9403],[-98.1444,21.7562,13.0092],[-98.1455,21.7503,15.3543],[-98.1429,21.7459,14.6694],[-98.1374,21.7436,11.6637],[-98.1467,21.739,13.5306],[-98.1488,21.7401,14.4171],[-98.1563,21.7366,22.3011],[-98.1507,21.7338,24.3703],[-98.1422,21.7351,26.5394],[-98.1427,21.729,24.0414],[-98.1379,21.7249,22.2561],[-98.1409,21.7241,21.2907],[-98.1457,21.7265,23.382],[-98.1491,21.726,22.12],[-98.1469,21.7244,25.7496],[-98.1474,21.7182,21.0],[-98.1527,21.7163,21.0],[-98.1537,21.713,21.0],[-98.1524,21.7114,21.0],[-98.1538,21.7101,21.0],[-98.1578,21.7092,21.0],[-98.1595,21.7115,21.0],[-98.1593,21.7095,21.0],[-98.1554,21.7071,21.0],[-98.1596,21.6989,21.0],[-98.1548,21.6951,21.0],[-98.1553,21.6896,21.0],[-98.1486,21.6932,21.0],[-98.1473,21.6885,21.0],[-98.1427,21.6874,21.0],[-98.1492,21.6805,21.0],[-98.1461,21.6775,21.0],[-98.1407,21.6758,21.0],[-98.1435,21.6743,21.0],[-98.1435,21.6723,21.0],[-98.1363,21.6671,21.3372],[-98.1326,21.6683,21.2659],[-98.1302,21.6671,21.3606],[-98.1279,21.6643,21.4037],[-98.1277,21.6596,21.5454],[-98.1156,21.656,23.4624],[-98.1152,21.6524,22.305],[-98.1079,21.6557,24.5318],[-98.106,21.6521,22.215699999999998],[-98.1088,21.6504,28.5135],[-98.1027,21.6454,27.1526],[-98.0987,21.6471,24.2934],[-98.0993,21.6548,24.7727],[-98.096,21.6608,25.8616],[-98.0931,21.6622,28.1832],[-98.0922,21.6662,25.1236],[-98.0905,21.6654,31.0452],[-98.0833,21.6675,27.0199],[-98.0762,21.6634,30.7484],[-98.0735,21.6659,31.6896],[-98.0739,21.6683,29.8599],[-98.0689,21.6713,32.6172],[-98.0702,21.6734,29.4645],[-98.0661,21.6726,31.1449],[-98.066,21.6698,33.69],[-98.0578,21.6702,33.427],[-98.0473,21.6642,32.4714],[-98.0449,21.6651,31.4823],[-98.0426,21.6691,30.0225],[-98.038,21.6675,28.6233],[-98.0332,21.6682,29.6781],[-98.0292,21.6673,29.5656],[-98.0266,21.664,30.6862],[-98.0207,21.6642,30.8925],[-98.0125,21.6598,34.6171],[-98.0065,21.665,31.7325],[-98.0013,21.6618,31.1774],[-97.9967,21.6661,30.8303],[-97.9951,21.6653,30.6517],[-97.9931,21.66,30.8588],[-97.9907,21.658,31.9278],[-97.9909,21.6478,33.3561],[-97.9869,21.6434,33.1741],[-97.9856,21.6339,34.6819],[-97.9891,21.6331,33.4704],[-97.9913,21.6275,37.6637],[-97.9886,21.6272,33.9571],[-97.9901,21.6246,35.5042],[-97.987,21.6196,37.1975],[-97.9813,21.6198,35.6095],[-97.98,21.6177,36.2934],[-97.978,21.6187,36.1396],[-97.9763,21.6166,33.9141],[-97.9821,21.6075,35.9806],[-97.9827,21.6038,36.8993],[-97.9799,21.6018,36.5514],[-97.974,21.6035,36.2293],[-97.9741,21.598,38.5787],[-97.9716,21.5984,37.5948],[-97.9711,21.595,38.6322],[-97.9689,21.5953,38.6406],[-97.9725,21.5909,36.8023],[-97.97,21.588,35.9901],[-97.9775,21.5829,37.4783],[-97.9726,21.5804,41.4238],[-97.9771,21.5675,38.7557],[-97.9745,21.562,43.1851],[-97.9823,21.5543,46.3151],[-97.981,21.5526,44.7615],[-97.9831,21.5417,45.0513],[-97.9803,21.532,44.9895],[-97.9837,21.5243,46.4669],[-97.9827,21.5225,47.0812],[-97.9806,21.5225,47.6421],[-97.9788,21.5189,48.6163],[-97.9782,21.5087,54.053],[-97.983,21.5006,50.7905],[-97.9812,21.4985,51.3062],[-97.9869,21.4954,50.146],[-97.9908,21.4846,52.9738],[-97.9902,21.4824,55.0614],[-97.9922,21.4805,55.5773],[-97.9893,21.48,55.2187],[-97.9881,21.4769,56.0975],[-97.9901,21.4731,55.1164],[-97.9887,21.473,55.1164],[-97.9884,21.4693,59.2246],[-97.9866,21.4679,56.5296],[-97.9884,21.4656,58.1299],[-97.9847,21.464,57.0245],[-97.9859,21.4627,56.1459],[-97.9826,21.4617,56.774],[-97.9771,21.4552,59.9191],[-97.9777,21.4541,59.9191],[-97.9751,21.4516,58.4716],[-97.9766,21.4507,57.2207],[-97.975,21.45,60.5024],[-97.9773,21.4475,58.0485],[-97.9754,21.4468,64.337],[-97.9759,21.4451,60.9776],[-97.9731,21.4412,65.2714],[-97.9698,21.4389,65.8045],[-97.9709,21.4337,62.0856],[-97.9696,21.4335,65.9214],[-97.9687,21.4299,62.1612],[-97.9652,21.4299,66.7787],[-97.9635,21.4265,70.0423],[-97.9681,21.4222,68.1242],[-97.967,21.4203,68.1734],[-97.969,21.4184,66.849],[-97.9687,21.416,69.2402],[-97.9701,21.4163,69.2402],[-97.97,21.4129,70.6891],[-97.966,21.4063,66.6166],[-97.96,21.4077,67.1327],[-97.9536,21.402,69.1082]]]]}
,"properties": {"GID_2": "MEX.30.128_2","GID_0": "MEX","country": "México","GID_1": "MEX.30_1","province": "Veracruz","NL_NAME_1": "NA","county": "OzuluamadeMascareñas","VARNAME_2": "NA","NL_NAME_2": "NA","TYPE_2": "Município","ENGTYPE_2": "Municipality","CC_2": "NA","HASC_2": "NA","name": "Ozuluamade_Mascareñas.county","area_km2": 1960.707,"hist_schema_id": "Elevation0-9000","hist_area_km2": {"0": 299.441,"25": 757.238,"50": 654.476,"75": 214.588,"100": 27.023,"125": 5.537,"150": 1.872,"175": 0.512,"200": 0.02}}}