{"type": "Feature","bbox": [-99.1378,21.2794,-98.8664,21.5028],"geometry": {"type": "MultiPolygon","coordinates": [[[[-98.945,21.3113,231.1451],[-98.9423,21.318,220.1719],[-98.9397,21.3183,216.2379],[-98.9386,21.3201,221.381],[-98.9346,21.32,203.6114],[-98.9357,21.322,205.8458],[-98.9405,21.3214,195.2564],[-98.9407,21.3226,204.3598],[-98.9371,21.323,204.9569],[-98.9363,21.325,186.1814],[-98.9321,21.3243,177.9046],[-98.9339,21.3308,218.8841],[-98.9328,21.3349,155.1676],[-98.9302,21.3337,187.5383],[-98.9262,21.3346,171.169],[-98.9235,21.3329,162.436],[-98.9222,21.3348,165.488],[-98.9156,21.3346,156.7938],[-98.91,21.3385,167.5842],[-98.9111,21.3427,149.4562],[-98.9081,21.3414,150.9217],[-98.9059,21.3379,140.7146],[-98.9036,21.3382,167.0178],[-98.9066,21.3355,188.8188],[-98.9059,21.3344,139.7305],[-98.9013,21.336,141.4605],[-98.8978,21.3345,149.0188],[-98.8904,21.3347,137.2689],[-98.8878,21.3362,225.2181],[-98.8866,21.334,143.4241],[-98.8789,21.3303,180.3733],[-98.8664,21.3346,119.6977],[-98.875,21.3394,584.0565],[-98.8768,21.3427,688.9489],[-98.8923,21.3464,703.5481],[-98.9055,21.353,667.2327],[-98.9243,21.3833,207.4478],[-98.9289,21.3865,291.7871],[-98.9362,21.4144,154.2892],[-98.9367,21.4211,211.5617],[-98.9439,21.4313,206.2488],[-98.9341,21.4386,88.9016],[-98.9368,21.441,85.3311],[-98.9353,21.4433,86.7235],[-98.9382,21.4422,87.8819],[-98.9396,21.4438,87.7906],[-98.937,21.4513,97.9167],[-98.9426,21.4511,88.8708],[-98.9504,21.4463,91.5507],[-98.9546,21.4499,86.7808],[-98.9484,21.4524,87.8645],[-98.949,21.4566,85.6631],[-98.9466,21.4616,87.0857],[-98.9476,21.4649,93.3195],[-98.9574,21.4534,100.1483],[-98.9637,21.4608,104.1399],[-98.9716,21.454,126.4712],[-98.9759,21.4591,113.1072],[-98.9853,21.4572,359.5913],[-98.9842,21.469,209.7398],[-98.9869,21.479,428.246],[-98.9893,21.4827,333.035],[-98.9975,21.4879,496.3064],[-99.0076,21.5028,549.4507],[-99.0171,21.4911,962.6763],[-99.0221,21.4952,999.7344],[-99.0498,21.4818,1318.7209],[-99.0614,21.4836,1031.6885],[-99.0699,21.488,1231.8229],[-99.0709,21.4857,1212.6061],[-99.0722,21.4886,1211.3947],[-99.1293,21.4868,1344.5806],[-99.1291,21.4713,1642.7631],[-99.126,21.4605,2062.0615],[-99.1052,21.4205,2416.3579],[-99.1059,21.4116,2517.6348],[-99.0981,21.4084,2383.9541],[-99.0928,21.3817,2220.5178],[-99.0979,21.3776,2011.2004],[-99.0926,21.3634,2364.0332],[-99.1295,21.362,2297.2705],[-99.1378,21.3298,2451.2595],[-99.1029,21.3212,1566.8707],[-99.1028,21.3179,1420.0057],[-99.1276,21.3183,2129.5513],[-99.121,21.3097,2021.7585],[-99.1058,21.302,1910.6509],[-99.1043,21.2896,1551.9795],[-99.0932,21.2917,1754.4227],[-99.091,21.2947,1625.5808],[-99.083,21.2963,1552.8185],[-99.0789,21.2952,1763.6301],[-99.0799,21.293,1732.9218],[-99.078,21.2927,1727.5869],[-99.0755,21.2888,1519.022],[-99.0614,21.2795,529.2399],[-99.0579,21.2847,522.3375],[-99.0555,21.2825,501.4872],[-99.0465,21.2821,565.7576],[-99.047,21.2798,570.4305],[-99.0435,21.2794,486.8922],[-99.0393,21.2842,519.0025],[-99.0371,21.2826,450.3369],[-99.0319,21.286,443.0146],[-99.0302,21.2839,450.2598],[-99.026,21.2872,497.7252],[-99.0233,21.2872,402.5859],[-99.0205,21.2912,417.9727],[-99.0154,21.2926,406.9499],[-99.0128,21.2954,395.873],[-99.0023,21.298,385.4463],[-98.9957,21.2977,354.5051],[-98.993,21.2995,395.0173],[-98.9894,21.2975,333.1458],[-98.9819,21.2984,298.8291],[-98.9779,21.2964,306.602],[-98.975,21.297,330.8025],[-98.9748,21.3031,271.4185],[-98.97,21.3044,270.44],[-98.9697,21.306,306.7021],[-98.9649,21.3069,249.6712],[-98.9625,21.3025,259.0198],[-98.9597,21.3034,248.3267],[-98.9565,21.3018,283.8522],[-98.9546,21.3067,211.8089],[-98.9526,21.3068,205.6914],[-98.9532,21.3088,230.4833],[-98.945,21.3113,231.1451]]]]}
,"properties": {"GID_2": "MEX.24.57_2","GID_0": "MEX","country": "México","GID_1": "MEX.24_1","province": "SanLuisPotosí","NL_NAME_1": "NA","county": "Xilitla","VARNAME_2": "NA","NL_NAME_2": "NA","TYPE_2": "Município","ENGTYPE_2": "Municipality","CC_2": "NA","HASC_2": "NA","name": "Xilitla.county","area_km2": 399.5847,"hist_schema_id": "Elevation0-9000","hist_area_km2": {"75": 0.2565,"100": 3.8481,"125": 1.0857,"150": 1.2634,"175": 1.4017,"200": 1.7768,"225": 1.7966,"250": 2.1914,"275": 2.8827,"300": 3.0803,"325": 3.4749,"350": 3.7713,"375": 3.7515,"400": 3.3764,"425": 4.1859,"450": 4.6003,"475": 4.3437,"500": 4.4623,"525": 4.9357,"550": 5.9424,"575": 6.7124,"600": 8.1136,"625": 9.3179,"650": 9.4956,"675": 9.1999,"700": 10.464,"725": 9.4377,"750": 8.786,"775": 8.5889,"800": 7.0094,"825": 5.8837,"850": 5.2914,"875": 5.0149,"900": 5.3507,"925": 4.8565,"950": 5.5869,"975": 5.8827,"1000": 5.2308,"1025": 5.5074,"1050": 6.0403,"1075": 5.0921,"1100": 4.5594,"1125": 5.2502,"1150": 5.0135,"1175": 6.4742,"1200": 6.9674,"1225": 6.632,"1250": 6.5733,"1275": 6.7907,"1300": 4.8764,"1325": 5.0742,"1350": 5.5876,"1375": 4.9559,"1400": 5.0353,"1425": 5.5289,"1450": 5.0156,"1475": 5.3708,"1500": 5.3901,"1525": 5.746,"1550": 4.8179,"1575": 4.0479,"1600": 4.0086,"1625": 3.7321,"1650": 3.0211,"1675": 2.3892,"1700": 2.6063,"1725": 2.1719,"1750": 2.3693,"1775": 2.7837,"1800": 2.8035,"1825": 3.2969,"1850": 2.7047,"1875": 2.5467,"1900": 2.7636,"1925": 3.7309,"1950": 3.7902,"1975": 2.8231,"2000": 3.2968,"2025": 3.5138,"2050": 2.7043,"2075": 3.3162,"2100": 2.5266,"2125": 2.0134,"2150": 1.6779,"2175": 1.678,"2200": 1.3029,"2225": 1.4805,"2250": 1.6582,"2275": 1.3226,"2300": 1.5003,"2325": 1.2634,"2350": 0.9476,"2375": 0.7502,"2400": 0.6318,"2425": 0.3356,"2450": 0.4738,"2475": 0.2369,"2500": 0.1382,"2525": 0.1382,"2550": 0.079,"2575": 0.0592}}}