{"type":"Feature","properties":{"GID_2":"MEX.32.6_2","GID_0":"MEX","country":"México","GID_1":"MEX.32_1","province":"Zacatecas","NL_NAME_1":"NA","county":"CañitasdeFelipePescador","VARNAME_2":"NA","NL_NAME_2":"NA","TYPE_2":"Município","ENGTYPE_2":"Municipality","CC_2":"NA","HASC_2":"NA","name":"Cañitasde_Felipe_Pescador.county"},
"geometry":{"type": "MultiPolygon","coordinates": [[[[-102.7015,23.673,2021.2251],[-102.7437,23.676,2059.3479],[-102.7457,23.6782,2060.7969],[-102.7457,23.6745,2063.7578],[-102.7914,23.6868,2060.8174],[-102.7925,23.6857,2061.6323],[-102.794,23.6804,2067.8359],[-102.7928,23.6701,2075.4922],[-102.8,23.6603,2086.23],[-102.8071,23.6633,2080.5073],[-102.8102,23.6605,2082.1318],[-102.8126,23.6543,2087.0007],[-102.8113,23.6491,2091.1108],[-102.8122,23.6428,2097.3135],[-102.8206,23.6298,2109.9331],[-102.8288,23.6027,2123.8018],[-102.8367,23.5919,2160.6631],[-102.8442,23.5748,2147.5439],[-102.8546,23.568,2146.0874],[-102.8734,23.5661,2147.6355],[-102.8764,23.5637,2137.7678],[-102.8778,23.556,2120.0667],[-102.8704,23.5546,2114.2881],[-102.8655,23.5389,2102.4255],[-102.8682,23.5124,2077.0293],[-102.8783,23.4944,2066.3286],[-102.8783,23.4871,2062.4431],[-102.872,23.4812,2057.7737],[-102.8701,23.4754,2049.8833],[-102.8566,23.479,2066.3081],[-102.8387,23.4672,2062.8472],[-102.8407,23.4649,2063.928],[-102.8339,23.4651,2061.8435],[-102.822,23.467,2063.0261],[-102.8221,23.4713,2063.2126],[-102.8113,23.4708,2065.7268],[-102.8078,23.4751,2063.7722],[-102.805,23.4756,2064.8447],[-102.8029,23.4787,2064.27],[-102.8007,23.4793,2062.877],[-102.8007,23.4809,2064.5093],[-102.7939,23.4791,2067.5547],[-102.7904,23.4799,2069.3674],[-102.7903,23.4786,2070.1252],[-102.7885,23.4783,2071.9438],[-102.7881,23.4797,2071.0652],[-102.7823,23.4786,2075.3706],[-102.7819,23.4804,2074.3845],[-102.7799,23.48,2076.3787],[-102.7786,23.4851,2075.856],[-102.7767,23.4844,2078.0137],[-102.7655,23.5286,2064.9121],[-102.7505,23.5298,2072.3467],[-102.7469,23.5385,2069.248],[-102.6826,23.5157,2120.7993],[-102.679,23.5222,2112.6555],[-102.6693,23.5173,2109.5806],[-102.6689,23.5149,2112.1187],[-102.6655,23.516,2107.3413],[-102.6648,23.5178,2105.9773],[-102.6616,23.5162,2104.6169],[-102.6605,23.5221,2102.0684],[-102.6576,23.5212,2096.958],[-102.6544,23.5223,2095.864],[-102.6446,23.5366,2082.3936],[-102.6434,23.5328,2081.0864],[-102.6416,23.5313,2081.9543],[-102.6396,23.5325,2081.0693],[-102.6171,23.5138,2090.2661],[-102.6086,23.4991,2096.5505],[-102.5982,23.4905,2082.0842],[-102.6035,23.5031,2082.7551],[-102.6039,23.5084,2081.8208],[-102.5972,23.5197,2068.4819],[-102.5989,23.5215,2068.5154],[-102.5975,23.5226,2064.8691],[-102.5984,23.5302,2060.6194],[-102.5937,23.5264,2054.7422],[-102.568,23.5163,2055.5288],[-102.5547,23.5423,2045.0564],[-102.5685,23.5481,2037.7921],[-102.5672,23.5571,2015.7603],[-102.5696,23.5586,2017.7622],[-102.5692,23.5614,2022.2119],[-102.575,23.5664,2036.3511],[-102.591,23.5753,2028.5095],[-102.5925,23.5804,2020.3955],[-102.5991,23.581,2021.4458],[-102.6029,23.5794,2019.0032],[-102.6061,23.5811,2017.4464],[-102.6083,23.5882,2018.3616],[-102.6106,23.5887,2021.468],[-102.6091,23.592,2015.4965],[-102.6119,23.5927,2014.4984],[-102.6114,23.5952,2012.7705],[-102.6143,23.596,2013.0416],[-102.617,23.6058,2007.4591],[-102.6194,23.6059,2006.8021],[-102.6214,23.6083,2004.4363],[-102.6185,23.6124,1998.4475],[-102.6241,23.6176,2004.991],[-102.6192,23.6205,1998.9257],[-102.6197,23.6215,1998.9257],[-102.6225,23.6196,2001.2189],[-102.6295,23.6318,2019.4473],[-102.6388,23.6348,2019.1584],[-102.6482,23.6335,2037.4768],[-102.6449,23.6366,2028.8076],[-102.6406,23.6468,2010.4529],[-102.6363,23.6473,2005.5107],[-102.6357,23.6502,2005.5321],[-102.6373,23.6503,2010.8254],[-102.6385,23.6561,2002.6931],[-102.6435,23.6615,1994.4028],[-102.6448,23.6688,1980.7565],[-102.6483,23.6702,1970.1537],[-102.6593,23.6663,1974.1449],[-102.6788,23.6638,1982.412],[-102.6764,23.6676,1984.738],[-102.6786,23.6686,1985.7039],[-102.6774,23.671,1989.3007],[-102.6827,23.6735,1995.6282],[-102.6837,23.6714,1994.0977],[-102.6893,23.6741,2006.8682],[-102.6906,23.6715,2004.5082],[-102.6932,23.6728,2011.5054],[-102.6942,23.6702,2009.4792],[-102.6963,23.671,2015.7222],[-102.6964,23.6729,2016.4312],[-102.7015,23.673,2021.2251]]]]}}