{"type": "Feature","bbox": [-96.648,18.0164,-96.4469,18.1162],"geometry": {"type": "MultiPolygon","coordinates": [[[[-96.4935,18.0164,183.1763],[-96.4935,18.0384,126.5712],[-96.4706,18.047,71.1749],[-96.4651,18.0475,68.6686],[-96.4659,18.0512,75.2065],[-96.4704,18.0513,92.7545],[-96.4699,18.0566,104.7206],[-96.4629,18.0705,90.869],[-96.4582,18.0717,82.1538],[-96.4592,18.0739,75.9299],[-96.4605,18.0734,91.6892],[-96.4598,18.0752,87.4702],[-96.4625,18.0769,82.8532],[-96.4599,18.0852,107.3785],[-96.4469,18.1008,93.6649],[-96.4625,18.1105,125.6483],[-96.4895,18.1162,110.8648],[-96.5067,18.1148,89.9708],[-96.5566,18.1161,938.9794],[-96.5606,18.1014,467.4794],[-96.5702,18.0948,1145.4341],[-96.5755,18.0867,1121.4034],[-96.5768,18.0817,1267.2666],[-96.5823,18.085,1339.6077],[-96.5835,18.083,1429.7302],[-96.592,18.0831,1487.1837],[-96.6037,18.0702,1564.9268],[-96.6215,18.0753,1675.9619],[-96.6226,18.0716,1396.469],[-96.6286,18.064,733.3062],[-96.6394,18.0649,746.5942],[-96.6479,18.0592,671.8752],[-96.648,18.054,778.126],[-96.6418,18.0535,294.0195],[-96.6405,18.0516,260.5482],[-96.6357,18.0519,297.9058],[-96.634,18.0495,217.3722],[-96.6325,18.0509,237.8424],[-96.6303,18.0458,116.1915],[-96.627,18.0459,113.8901],[-96.6233,18.0412,126.3789],[-96.6205,18.0416,122.1615],[-96.6184,18.0442,151.7965],[-96.6133,18.0449,110.8456],[-96.6086,18.0386,119.5803],[-96.6088,18.0316,116.5566],[-96.602,18.0287,125.0146],[-96.597,18.0298,123.8319],[-96.5877,18.0281,107.5246],[-96.5814,18.0336,124.606],[-96.566,18.0347,103.3058],[-96.5492,18.0382,88.9364],[-96.5436,18.0347,95.4287],[-96.541,18.0351,103.3118],[-96.5348,18.0321,109.0197],[-96.5246,18.0226,256.4393],[-96.5167,18.0206,277.1963],[-96.5106,18.0254,370.5447],[-96.4935,18.0164,183.1763]]]]}
,"properties": {"GID_2": "MEX.20.136_2","GID_0": "MEX","country": "México","GID_1": "MEX.20_1","province": "Oaxaca","NL_NAME_1": "NA","county": "SanFelipeJalapadeDíaz","VARNAME_2": "NA","NL_NAME_2": "NA","TYPE_2": "Município","ENGTYPE_2": "Municipality","CC_2": "NA","HASC_2": "NA","name": "San_Felipe_Jalapade_Díaz.county","area_km2": 135.0487,"hist_schema_id": "Elevation0-9000","hist_area_km2": {"50": 0.0202,"75": 13.2022,"100": 36.9041,"125": 21.8086,"150": 10.5024,"175": 5.6445,"200": 3.2255,"225": 2.3989,"250": 2.0965,"275": 2.4996,"300": 2.1368,"325": 1.9755,"350": 1.7134,"375": 1.7537,"400": 2.1568,"425": 1.4715,"450": 1.7537,"475": 1.1691,"500": 1.1087,"525": 1.0683,"550": 0.8466,"575": 1.0885,"600": 0.8264,"625": 0.7861,"650": 0.9272,"675": 0.645,"700": 0.6249,"725": 0.4233,"750": 0.5845,"775": 0.7256,"800": 0.4233,"825": 0.2822,"850": 0.2822,"875": 0.2419,"900": 0.262,"925": 0.3427,"950": 0.3024,"975": 0.2217,"1000": 0.3225,"1025": 0.2217,"1050": 0.3225,"1075": 0.1814,"1100": 0.1411,"1125": 0.1209,"1150": 0.1814,"1175": 0.262,"1200": 0.1411,"1225": 0.2016,"1250": 0.262,"1275": 0.2419,"1300": 0.2822,"1325": 0.262,"1350": 0.3628,"1375": 0.5241,"1400": 0.3628,"1425": 0.5442,"1450": 0.5241,"1475": 0.4031,"1500": 0.645,"1525": 0.5845,"1550": 0.3628,"1575": 0.4031,"1600": 0.4636,"1625": 0.4435,"1650": 0.4031,"1675": 0.5039,"1700": 0.2822,"1725": 0.2016,"1750": 0.1613,"1775": 0.1411,"1800": 0.0806,"1825": 0.0403,"1850": 0.0202}}}