{"type": "Feature","bbox": [-89.243,20.8215,-89.0451,20.9505],"geometry": {"type": "MultiPolygon","coordinates": [[[[-89.2032,20.9505,13.7587],[-89.2106,20.9463,15.1786],[-89.2132,20.9429,16.2793],[-89.2154,20.9307,15.3145],[-89.2144,20.9258,16.8674],[-89.2236,20.9269,16.6475],[-89.2237,20.9314,14.6495],[-89.2334,20.9289,16.1735],[-89.243,20.9328,16.49],[-89.2381,20.9272,16.7733],[-89.2411,20.917,17.1991],[-89.2399,20.9086,17.1394],[-89.2368,20.9105,18.2878],[-89.2377,20.907,15.901],[-89.2322,20.9058,17.967],[-89.2336,20.9006,16.4356],[-89.2284,20.8996,17.2967],[-89.2264,20.9046,17.0822],[-89.2175,20.9009,17.6076],[-89.2097,20.9029,17.5805],[-89.209,20.9001,17.4141],[-89.2145,20.9003,18.403],[-89.2231,20.8882,17.7877],[-89.2181,20.8878,16.6047],[-89.2191,20.8858,18.6284],[-89.2247,20.881,16.5339],[-89.2264,20.8807,15.023],[-89.2293,20.883,17.4305],[-89.2366,20.8824,17.0219],[-89.237,20.8792,17.8732],[-89.2322,20.8798,17.3743],[-89.2325,20.878,17.2281],[-89.2269,20.8769,17.139],[-89.2283,20.87,17.6753],[-89.2394,20.8722,18.1539],[-89.2387,20.8648,18.0729],[-89.2403,20.8608,17.8247],[-89.239,20.8542,19.4685],[-89.2351,20.854,20.0259],[-89.2367,20.8446,18.8599],[-89.2261,20.844,18.7902],[-89.2244,20.8433,21.054],[-89.2229,20.839,20.2447],[-89.2161,20.8356,20.9482],[-89.2152,20.8402,22.0975],[-89.205,20.8371,18.5304],[-89.2029,20.8479,20.9288],[-89.1971,20.846,18.8825],[-89.1987,20.8368,19.2184],[-89.1922,20.8347,18.5004],[-89.1923,20.8417,19.6546],[-89.1942,20.8419,18.5536],[-89.1935,20.8505,17.7738],[-89.1834,20.8495,18.1659],[-89.1838,20.8518,22.6298],[-89.1807,20.8526,21.6704],[-89.171,20.8517,20.6768],[-89.1716,20.8503,20.8207],[-89.1702,20.8501,19.9484],[-89.1677,20.8504,19.4534],[-89.1674,20.8521,20.6697],[-89.161,20.8491,19.2759],[-89.1522,20.8489,21.5073],[-89.1525,20.8444,22.8336],[-89.1467,20.8439,19.2542],[-89.1464,20.8493,21.4616],[-89.1368,20.8478,22.5633],[-89.1355,20.8472,22.3523],[-89.1381,20.8405,21.3041],[-89.1148,20.8401,20.8942],[-89.1141,20.8443,23.8524],[-89.1186,20.8441,21.955],[-89.1194,20.8524,20.5507],[-89.1062,20.8486,21.2382],[-89.1061,20.8472,21.2382],[-89.1009,20.8471,23.1871],[-89.0896,20.8512,21.2028],[-89.0881,20.848,23.6656],[-89.0854,20.8465,23.0908],[-89.0874,20.8366,26.4703],[-89.0807,20.8348,25.6229],[-89.0749,20.8367,23.1949],[-89.0734,20.8309,22.3666],[-89.0759,20.8233,24.0173],[-89.063,20.8215,25.4442],[-89.0534,20.8234,23.6739],[-89.0557,20.8393,23.5019],[-89.0451,20.8415,22.0864],[-89.0472,20.853,26.5416],[-89.0487,20.8594,26.6089],[-89.0616,20.8603,20.0308],[-89.0614,20.8629,22.3699],[-89.0673,20.8651,20.7102],[-89.0635,20.8733,19.7772],[-89.0748,20.879,21.2818],[-89.0787,20.8794,19.0009],[-89.0791,20.878,19.79],[-89.0874,20.8815,21.0106],[-89.103,20.8845,19.3997],[-89.1119,20.89,19.9529],[-89.1121,20.8933,20.4588],[-89.1226,20.8948,17.8749],[-89.1242,20.8849,19.2794],[-89.1265,20.8853,19.3037],[-89.1268,20.8874,18.644],[-89.1333,20.8883,18.143],[-89.1355,20.8809,20.0478],[-89.143,20.8803,18.7032],[-89.1478,20.8849,18.9776],[-89.146,20.8884,18.2073],[-89.1462,20.8903,17.4994],[-89.1492,20.891,19.859],[-89.1479,20.8956,18.8653],[-89.1614,20.8991,16.0796],[-89.1644,20.9014,15.4669],[-89.173,20.9025,16.1277],[-89.1835,20.8932,16.4226],[-89.1876,20.9094,14.7904],[-89.181,20.9153,17.0815],[-89.1789,20.9312,13.8688],[-89.1896,20.9351,16.8124],[-89.1941,20.9461,13.1736],[-89.2048,20.9475,13.6722],[-89.2032,20.9505,13.7587]]]]}
,"properties": {"GID_2": "MEX.31.35_2","GID_0": "MEX","country": "México","GID_1": "MEX.31_1","province": "Yucatán","NL_NAME_1": "NA","county": "Hoctún","VARNAME_2": "NA","NL_NAME_2": "NA","TYPE_2": "Município","ENGTYPE_2": "Municipality","CC_2": "NA","HASC_2": "NA","name": "Hoctún.county","area_km2": 121.55635,"hist_schema_id": "Elevation0-9000","hist_area_km2": {"0": 0.03961,"25": 121.51673}}}