{"type":"Feature","properties":{"GID_1":"MEX.13_1","GID_0":"MEX","country":"México","province":"Hidalgo","VARNAME_1":"NA","NL_NAME_1":"NA","TYPE_1":"Estado","ENGTYPE_1":"State","CC_1":"NA","HASC_1":"MX.HI","ISO_1":"MX-HID","name":"Hidalgo.province"},
"geometry":{"type": "MultiPolygon","coordinates": [[[[-99.2531,19.8602,2396.446],[-99.248,19.8598,2449.3767],[-99.2457,19.8695,2452.1284],[-99.2414,19.8753,2302.2119],[-99.2364,19.8751,2281.7021],[-99.2359,19.8735,2293.9492],[-99.2352,19.8768,2268.2305],[-99.2322,19.8767,2259.3911],[-99.2293,19.874,2289.0042],[-99.2207,19.8842,2371.0193],[-99.2175,19.8914,2432.7603],[-99.2239,19.902,2424.2786],[-99.2202,19.9024,2461.3149],[-99.2192,19.9114,2301.4507],[-99.2152,19.9126,2286.6609],[-99.2156,19.9147,2283.4622],[-99.2107,19.9145,2262.6021],[-99.2056,19.9275,2275.4875],[-99.2069,19.9321,2282.6997],[-99.2092,19.9324,2295.1597],[-99.2115,19.9243,2305.187],[-99.2186,19.9272,2302.9998],[-99.2259,19.9499,2329.2505],[-99.2278,19.9511,2332.3633],[-99.2154,19.9546,2380.4009],[-99.2131,19.9587,2349.6172],[-99.215,19.9598,2326.5913],[-99.2125,19.9655,2266.8076],[-99.2129,19.9636,2298.5928],[-99.2116,19.9633,2298.5928],[-99.2089,19.9664,2272.5354],[-99.21,19.9677,2254.8867],[-99.2034,19.971,2230.3835],[-99.1999,19.9768,2206.563],[-99.1984,19.9778,2195.2976],[-99.1975,19.9759,2202.6189],[-99.1969,19.9848,2179.7881],[-99.1892,19.9848,2166.8313],[-99.1889,19.9895,2156.7039],[-99.1908,19.9904,2157.9619],[-99.1901,19.994,2154.0598],[-99.1832,19.9901,2175.3237],[-99.1772,19.9931,2396.0176],[-99.18,19.9981,2389.1069],[-99.1679,20.0035,2420.0071],[-99.1674,20.0129,2291.3108],[-99.1614,20.0124,2407.6799],[-99.1593,20.017,2332.3574],[-99.1586,20.0272,2604.4492],[-99.1551,20.0259,2585.4238],[-99.1474,20.0278,2631.0996],[-99.1445,20.0262,2745.9648],[-99.1383,20.028199999999998,2735.5464],[-99.1352,20.0271,2750.0032],[-99.1259,20.0317,2812.5542],[-99.1125,20.0292,2659.4619],[-99.1017,20.032,2778.4534],[-99.0958,20.0306,2712.3716],[-99.0894,20.0343,2692.2944],[-99.0854,20.0325,2703.1665],[-99.0797,20.0262,2828.1423],[-99.0783,20.0183,2925.8301],[-99.0683,20.018,2989.1462],[-99.0638,20.0142,2934.6406],[-99.0676,19.985,2423.9346],[-99.0596,19.974,2347.3977],[-99.0561,19.9847,2411.8586],[-99.0585,19.9884,2430.3621],[-99.0476,19.9952,2442.1626],[-99.0485,19.9993,2479.094],[-99.0495,19.9984,2478.8538],[-99.0495,19.9999,2479.094],[-99.0522,20.0013,2497.4001],[-99.0509,20.0016,2497.4001],[-99.0494,20.0077,2584.9028],[-99.0399,20.0128,2475.5369],[-99.0313,20.0149,2420.4856],[-99.0308,20.0029,2419.4045],[-99.0274,20.0016,2393.9106],[-99.0319,19.9966,2395.1399],[-99.0299,19.993,2377.2444],[-99.0307,19.9905,2362.6887],[-99.0328,19.9906,2366.062],[-99.0345,19.9718,2344.1145],[-99.0277,19.9646,2407.5],[-99.0041,19.965,2486.5273],[-99.0075,19.9792,2368.79],[-99.0087,19.9772,2371.3372],[-99.0142,19.9777,2372.7361],[-99.0139,19.9813,2360.9319],[-99.0113,19.9821,2365.1135],[-99.014,19.9834,2359.355],[-99.0131,19.985,2359.7363],[-99.0132,19.9851,2359.7363],[-99.0151,19.984,2358.4138],[-99.0216,19.987,2356.6025],[-99.0203,19.9906,2362.5254],[-99.0186,19.9898,2357.1606],[-99.0179,19.9915,2358.9197],[-99.019,19.9938,2364.3008],[-99.018,19.9955,2367.355],[-99.0133,19.9977,2363.2534],[-99.0133,20.0109,2370.0198],[-99.0053,20.0289,2382.2698],[-99.0048,20.0327,2385.2119],[-99.0059,20.0309,2382.9453],[-99.0079,20.0311,2388.084],[-99.0078,20.0339,2389.21],[-99.0105,20.0355,2399.4177],[-99.0056,20.0532,2405.0557],[-99.0012,20.0524,2411.0547],[-98.9992,20.0542,2411.8867],[-98.9926,20.0657,2337.8477],[-98.989,20.0683,2307.2412],[-98.9895,20.065,2321.7949],[-98.9869,20.0612,2364.0635],[-98.9758,20.0524,2425.5464],[-98.97,20.0454,2435.6614],[-98.9659,20.0424,2462.0635],[-98.9636,20.0433,2482.6213],[-98.9605,20.0394,2504.9119],[-98.9587,20.0396,2505.8198],[-98.9599,20.0326,2481.9985],[-98.964,20.0312,2463.3125],[-98.9602,20.0316,2468.4292],[-98.9606,20.0288,2466.9045],[-98.9553,20.0278,2472.8101],[-98.9543,20.0311,2477.7891],[-98.9518,20.0286,2475.2944],[-98.9509,20.0299,2473.5928],[-98.9479,20.0296,2476.5823],[-98.9467,20.0275,2490.4861],[-98.9443,20.0173,2530.8696],[-98.9475,20.009,2563.7986],[-98.9421,20.0006,2732.0815],[-98.9438,19.985,2680.0278],[-98.9427,19.9791,2695.5703],[-98.9447,19.9751,2554.364],[-98.9483,19.9753,2626.9453],[-98.9485,19.974,2626.9453],[-98.9577,19.9759,2547.7202],[-98.9662,19.974,2482.7993],[-98.9812,19.9547,2407.2878],[-98.9956,19.9569,2471.9258],[-98.9998,19.9418,2518.0518],[-98.9847,19.9463,2404.0498],[-98.9832,19.9386,2373.1819],[-98.9725,19.9359,2356.9136],[-98.97,19.9327,2349.3535],[-98.9683,19.9338,2351.4089],[-98.9661,19.9298,2356.1167],[-98.9618,19.9292,2370.2715],[-98.9623,19.9264,2350.3115],[-98.9604,19.9251,2346.3127],[-98.9561,19.9282,2353.7549],[-98.9527,19.9067,2336.5955],[-98.9568,19.9056,2331.0764],[-98.9551,19.8964,2330.6633],[-98.9614,19.8936,2325.5483],[-98.9535,19.8885,2325.1294],[-98.956,19.8852,2318.2554],[-98.966,19.8917,2319.3643],[-99.0206,19.8677,2270.5576],[-99.0204,19.8641,2269.4495],[-99.0168,19.8615,2268.6201],[-99.017,19.8597,2267.8584],[-99.0156,19.8594,2267.8584],[-99.0002,19.8342,2264.2297],[-99.0082,19.8284,2263.1821],[-98.9609,19.8051,2287.4512],[-98.9605,19.8031,2289.5442],[-98.9547,19.8005,2302.3525],[-98.9554,19.7988,2303.7744],[-98.95,19.7996,2311.3315],[-98.9475,19.8045,2328.7224],[-98.9455,19.8038,2333.783],[-98.9276,19.8434,2296.9966],[-98.9163,19.8393,2308.4814],[-98.9154,19.8419,2307.1726],[-98.906,19.8451,2310.4609],[-98.9079,19.8499,2309.8589],[-98.903,19.8593,2310.8591],[-98.9088,19.8571,2311.2646],[-98.9052,19.8635,2315.2302],[-98.9175,19.8692,2327.1431],[-98.9146,19.8714,2334.9895],[-98.9157,19.8731,2335.6387],[-98.9139,19.8724,2336.656],[-98.9131,19.8735,2336.656],[-98.9148,19.8749,2340.4436],[-98.9124,19.8748,2338.835],[-98.9144,19.8757,2342.7361],[-98.9139,19.8769,2342.7361],[-98.9111,19.8763,2341.312],[-98.9136,19.8774,2346.5347],[-98.9127,19.8792,2350.4736],[-98.9097,19.879,2344.8179],[-98.9118,19.881,2351.6147],[-98.9092,19.8799,2344.8179],[-98.9077,19.8839,2355.1843],[-98.9041,19.8876,2354.4983],[-98.8983,19.8836,2343.3623],[-98.8957,19.8864,2342.6677],[-98.8978,19.8899,2356.5388],[-98.8952,19.8933,2352.2744],[-98.8972,19.8941,2349.6448],[-98.8959,19.8957,2344.1511],[-98.8921,19.8944,2348.0535],[-98.8877,19.8991,2321.4915],[-98.8826,19.9001,2313.0796],[-98.8832,19.9015,2313.0542],[-98.8659,19.8926,2313.6658],[-98.8558,19.9043,2314.5242],[-98.841,19.8923,2317.2083],[-98.844,19.882,2314.5381],[-98.8367,19.8812,2317.7622],[-98.8382,19.8794,2317.9736],[-98.8171,19.8673,2325.6626],[-98.8162,19.869,2325.3257],[-98.8137,19.8659,2324.6309],[-98.8062,19.8646,2328.7288],[-98.7952,19.8564,2337.0752],[-98.7897,19.8619,2334.1035],[-98.7911,19.8651,2343.1807],[-98.7895,19.8685,2353.6055],[-98.7939,19.8721,2391.012],[-98.7875,19.8789,2449.1523],[-98.7806,19.8835,2361.6479],[-98.7615,19.8749,2355.5874],[-98.7524,19.877,2359.0281],[-98.7392,19.8726,2365.0098],[-98.7388,19.8672,2352.5557],[-98.7351,19.8674,2352.3494],[-98.7277,19.864,2358.666],[-98.7185,19.8623,2357.3286],[-98.7128,19.8538,2372.5825],[-98.7113,19.8551,2372.5825],[-98.7093,19.8538,2377.7141],[-98.7081,19.8558,2383.886],[-98.7034,19.8545,2381.1572],[-98.7046,19.8556,2384.2686],[-98.7035,19.8574,2388.2844],[-98.701,19.8561,2383.7429],[-98.7028,19.8586,2388.2844],[-98.7004,19.8566,2380.5625],[-98.6991,19.8584,2388.104],[-98.6891,19.8513,2370.8601],[-98.6854,19.8505,2407.1128],[-98.6808,19.8607,2392.2231],[-98.6727,19.8628,2432.7776],[-98.6718,19.8537,2478.9939],[-98.6976,19.8321,2387.8472],[-98.679,19.8143,2389.3699],[-98.6759,19.8132,2411.0527],[-98.6725,19.8167,2403.231],[-98.6748,19.8324,2382.4692],[-98.6652,19.8354,2406.1689],[-98.6608,19.835,2408.5798],[-98.6546,19.8281,2464.1431],[-98.6555,19.8276,2463.6169],[-98.647,19.8209,2531.9814],[-98.6473,19.8184,2533.9092],[-98.6437,19.8175,2574.0713],[-98.6443,19.8144,2566.6948],[-98.6399,19.812,2634.9878],[-98.638,19.8076,2601.825],[-98.6388,19.8008,2546.7952],[-98.6326,19.7964,2510.2832],[-98.6236,19.7939,2483.3635],[-98.6253,19.7852,2473.9399],[-98.6175,19.7881,2499.853],[-98.6122,19.7864,2534.1819],[-98.6134,19.7817,2531.3738],[-98.6096,19.7771,2554.1719],[-98.6117,19.7741,2526.1001],[-98.5994,19.7682,2456.4751],[-98.6006,19.7649,2452.2495],[-98.5969,19.7658,2449.0566],[-98.6021,19.7562,2448.5464],[-98.6032,19.7326,2452.1292],[-98.6046,19.7329,2453.0488],[-98.6081,19.7251,2504.7397],[-98.6159,19.7295,2492.8154],[-98.6238,19.7256,2519.3789],[-98.6247,19.7274,2496.3972],[-98.6269,19.7256,2503.2678],[-98.6276,19.7218,2543.9392],[-98.6329,19.7222,2518.5225],[-98.6309,19.7177,2547.1333],[-98.6335,19.715,2555.2681],[-98.63,19.7161,2577.627],[-98.6325,19.7133,2582.0015],[-98.6294,19.7097,2623.2412],[-98.6308,19.7047,2622.0537],[-98.6239,19.6964,2720.8389],[-98.6251,19.6914,2773.2729],[-98.6294,19.6873,2806.4209],[-98.6301,19.679,2814.7817],[-98.6322,19.6745,2821.1792],[-98.637,19.6749,2882.8994],[-98.6399,19.6711,2927.5684],[-98.6379,19.669,2903.6807],[-98.6355,19.6708,2883.4551],[-98.6341,19.6681,2841.2109],[-98.63,19.6673,2810.4355],[-98.6279,19.6635,2772.2075],[-98.6233,19.6635,2731.5789],[-98.6197,19.6612,2702.9702],[-98.6244,19.6558,2692.0366],[-98.6295,19.6567,2747.9854],[-98.6349,19.6555,2799.8418],[-98.6438,19.6488,2876.7292],[-98.6531,19.6543,2924.8066],[-98.6555,19.6505,2900.0718],[-98.6581,19.654,2924.8359],[-98.6644,19.657,2949.1348],[-98.6647,19.6607,2988.52],[-98.6654,19.6616,2988.52],[-98.6655,19.6598,2968.6069],[-98.6664,19.6623,3015.4988],[-98.6682,19.6585,2902.1221],[-98.6701,19.6587,2864.0122],[-98.6704,19.6512,2946.7578],[-98.6676,19.6444,2864.8018],[-98.672,19.6367,2806.1528],[-98.6724,19.6251,2746.3057],[-98.6705,19.6248,2736.666],[-98.6687,19.6192,2713.6589],[-98.6619,19.6117,2738.1638],[-98.6617,19.6101,2718.7129],[-98.6656,19.6062,2725.5117],[-98.6631,19.6048,2710.8342],[-98.6577,19.6056,2675.0454],[-98.6549,19.6076,2652.7197],[-98.6496,19.6064,2644.5022],[-98.6459,19.6075,2637.1157],[-98.642,19.6054,2627.0459],[-98.6383,19.5989,2605.3389],[-98.6347,19.5978,2588.7019],[-98.631,19.602,2585.6184],[-98.6259,19.6003,2583.8823],[-98.6098,19.602,2565.1375],[-98.6038,19.6056,2549.792],[-98.6008,19.6083,2547.8394],[-98.6003,19.6114,2544.5796],[-98.5903,19.6194,2534.9978],[-98.5896,19.6229,2535.2415],[-98.585,19.6278,2527.7932],[-98.5799,19.6374,2515.9238],[-98.569,19.6388,2507.9226],[-98.5664,19.6411,2507.041],[-98.5614,19.6376,2513.9697],[-98.5637,19.6271,2525.1631],[-98.5556,19.6281,2522.106],[-98.5557,19.6254,2524.4658],[-98.5502,19.6245,2519.0791],[-98.5504,19.6186,2524.8096],[-98.5356,19.6344,2496.4553],[-98.526,19.6194,2493.5901],[-98.5283,19.6143,2500.9177],[-98.5192,19.6024,2503.0007],[-98.5144,19.604,2500.7722],[-98.5023,19.6032,2505.9233],[-98.4957,19.6074,2503.1792],[-98.4916,19.6074,2505.2632],[-98.4909,19.6102,2504.0215],[-98.4927,19.6138,2502.2771],[-98.4902,19.62,2500.9148],[-98.4875,19.6175,2500.8589],[-98.4838,19.6188,2500.0],[-98.4785,19.618,2500.4451],[-98.4668,19.6137,2506.2791],[-98.466,19.6149,2500.8345],[-98.4613,19.6144,2501.3813],[-98.4604,19.6161,2500.0],[-98.4541,19.6183,2500.6716],[-98.4507,19.6181,2501.4575],[-98.444,19.6157,2500.0],[-98.4433,19.6129,2501.2471],[-98.4414,19.6126,2501.9478],[-98.4388,19.6143,2500.0],[-98.4301,19.6141,2500.0],[-98.4127,19.6175,2501.0398],[-98.3817,19.6094,2504.8447],[-98.3238,19.6853,2538.5],[-98.3209,19.701,2899.8823],[-98.3288,19.698,2613.9873],[-98.33,19.699,2635.6287],[-98.3295,19.7038,2726.9153],[-98.3333,19.7093,2716.3364],[-98.3331,19.7118,2777.4338],[-98.3319,19.7116,2837.5232],[-98.3327,19.7197,2852.6208],[-98.3317,19.7223,2827.6821],[-98.3151,19.7247,2896.0322],[-98.3111,19.7277,2911.3435],[-98.3073,19.727,2929.302],[-98.3016,19.7231,2932.9771],[-98.2927,19.7239,2952.9077],[-98.2933,19.7262,2936.1724],[-98.2797,19.7169,2953.3491],[-98.2823,19.724,2844.854],[-98.2805,19.7263,2796.8413],[-98.2762,19.724,2788.481],[-98.272,19.7246,2818.8428],[-98.2656,19.717,2837.1304],[-98.2596,19.7172,2868.1819],[-98.2363,19.7233,2978.7102],[-98.2314,19.7292,3017.3333],[-98.219,19.737,2973.115],[-98.2151,19.7413,2934.3779],[-98.2093,19.7384,2869.8252],[-98.1957,19.7416,2693.9124],[-98.1978,19.7488,2785.9219],[-98.1955,19.7534,2829.6389],[-98.1987,19.7582,2807.0461],[-98.1978,19.7621,2750.4558],[-98.1935,19.763,2707.3369],[-98.1945,19.7656,2731.8552],[-98.2026,19.768,2771.1213],[-98.2107,19.7743,2741.4648],[-98.2214,19.7736,3022.061],[-98.2162,19.7784,2843.7642],[-98.2256,19.7798,3082.0562],[-98.2258,19.7766,3043.7749],[-98.2298,19.7745,2981.3105],[-98.2348,19.777,2942.8818],[-98.2447,19.7919,2716.2456],[-98.251,19.7951,2695.4971],[-98.2497,19.8061,2646.4756],[-98.2532,19.8118,2634.2642],[-98.2509,19.8128,2629.3127],[-98.2549,19.8192,2620.7219],[-98.261,19.8203,2615.1599],[-98.2646,19.823,2618.5112],[-98.2662,19.8347,2612.6792],[-98.2654,19.8384,2618.4714],[-98.2671,19.8433,2605.3157],[-98.2711,19.8463,2602.6375],[-98.2787,19.8482,2601.0918],[-98.2835,19.847,2599.9756],[-98.2867,19.8491,2606.1865],[-98.296,19.8476,2597.2539],[-98.2995,19.8454,2613.7434],[-98.3053,19.8459,2596.5532],[-98.3017,19.8474,2595.6812],[-98.315,19.8551,2589.4346],[-98.3045,19.8701,2584.0278],[-98.2911,19.8758,2601.5],[-98.2925,19.8793,2594.7407],[-98.289,19.8812,2585.0564],[-98.2879,19.885,2567.2197],[-98.2909,19.8889,2555.4578],[-98.2866,19.8873,2560.9868],[-98.2784,19.8926,2606.4756],[-98.2694,19.8957,2743.8479],[-98.2688,19.9002,2761.96],[-98.266,19.9016,2782.2749],[-98.2678,19.9053,2790.0488],[-98.2678,19.9161,2790.562],[-98.262,19.9163,2800.0422],[-98.2634,19.9152,2820.176],[-98.2578,19.9165,2763.1216],[-98.2563,19.915,2777.6665],[-98.2516,19.918,2675.9546],[-98.2481,19.9175,2680.262],[-98.2483,19.9204,2738.1626],[-98.2453,19.924,2809.8027],[-98.2492,19.9261,2783.3687],[-98.2552,19.9255,2700.3137],[-98.2563,19.9293,2626.8872],[-98.2517,19.9295,2770.1345],[-98.251,19.9349,2793.2231],[-98.2422,19.9411,2810.1733],[-98.2538,19.9461,2655.1936],[-98.2516,19.9481,2662.1523],[-98.2374,19.9498,2805.7986],[-98.2302,19.9494,2804.3811],[-98.2273,19.9474,2822.9629],[-98.2247,19.9485,2817.7769],[-98.2221,19.9469,2798.2341],[-98.221,19.9479,2781.8523],[-98.2262,19.9523,2731.7437],[-98.2267,19.9562,2714.7905],[-98.2224,19.964,2631.1274],[-98.2159,19.9685,2528.0049],[-98.2132,19.9684,2508.033],[-98.2131,19.9654,2547.7183],[-98.2094,19.9642,2498.8376],[-98.2011,19.9645,2537.552],[-98.1978,19.9617,2541.449],[-98.1978,19.9598,2543.9045],[-98.1807,19.9598,2734.9922],[-98.1604,19.9781,2737.6165],[-98.1743,19.9977,2586.1316],[-98.1708,20.0058,2501.842],[-98.1695,20.0057,2525.0906],[-98.1708,20.0107,2491.8755],[-98.164,20.0225,2411.5935],[-98.175,20.0296,2404.8677],[-98.1735,20.0345,2372.436],[-98.1795,20.041,2372.7822],[-98.1809,20.047,2339.9004],[-98.1759,20.0528,2303.0144],[-98.1681,20.0572,2248.3445],[-98.1645,20.0705,2251.8711],[-98.1655,20.074,2243.7388],[-98.1572,20.0849,2243.1387],[-98.1603,20.0902,2204.3501],[-98.1589,20.0917,2222.8818],[-98.1597,20.0926,2212.0879],[-98.1491,20.098,2179.373],[-98.1424,20.0984,2186.2246],[-98.1385,20.1051,2162.8975],[-98.1339,20.1046,2155.0337],[-98.1316,20.1075,2143.6628],[-98.1283,20.1072,2143.616],[-98.127,20.1099,2140.9985],[-98.1281,20.1155,2139.6025],[-98.1239,20.1212,2146.7754],[-98.1246,20.1241,2159.6768],[-98.1219,20.1246,2146.1479],[-98.1166,20.1201,2125.5469],[-98.1129,20.1217,2099.4011],[-98.1085,20.1208,2026.5983],[-98.1016,20.1297,2076.7607],[-98.1036,20.1339,2035.3771],[-98.1031,20.1372,1997.7682],[-98.0979,20.1454,1795.8032],[-98.1006,20.1468,1839.1825],[-98.1051,20.1423,1958.0063],[-98.1256,20.1487,2116.9517],[-98.1315,20.1483,2279.1929],[-98.133,20.1495,2221.262],[-98.1362,20.147,2173.1348],[-98.1396,20.1501,2135.1587],[-98.1398,20.1548,2124.1641],[-98.1381,20.1546,2124.7429],[-98.1367,20.1566,2124.3989],[-98.1348,20.1546,2133.5557],[-98.1326,20.155,2141.1357],[-98.1336,20.1595,2119.9375],[-98.1297,20.1615,2137.5527],[-98.1332,20.1662,2138.658],[-98.1305,20.1664,2157.4995],[-98.1322,20.1671,2150.3701],[-98.1327,20.1702,2152.1401],[-98.1298,20.1766,2122.9429],[-98.1318,20.1786,2096.4111],[-98.1275,20.1825,1954.9923],[-98.128,20.1859,1864.2871],[-98.1297,20.1888,1773.104],[-98.1349,20.1909,1723.4268],[-98.1389,20.1998,1639.948],[-98.1438,20.1995,1575.8491],[-98.1514,20.2079,1479.0952],[-98.1539,20.2086,1499.4653],[-98.1529,20.2125,1414.0704],[-98.1551,20.2174,1377.5272],[-98.1502,20.2213,1324.5325],[-98.147,20.2206,1345.605],[-98.1477,20.2264,1483.5649],[-98.1571,20.2382,1832.3135],[-98.1611,20.2367,1966.3066],[-98.1628,20.241,1843.2346],[-98.1759,20.2542,1626.9404],[-98.1805,20.255,1672.8932],[-98.1803,20.2569,1659.6084],[-98.1849,20.2592,1688.7125],[-98.1924,20.2582,1729.6165],[-98.1954,20.2543,1817.9106],[-98.1978,20.254,1843.3944],[-98.2048,20.245,2076.5906],[-98.2094,20.2439,2090.5022],[-98.2083,20.2394,2094.2251],[-98.213,20.2343,2091.2793],[-98.2168,20.2381,2097.1543],[-98.2214,20.2365,2094.6035],[-98.2291,20.2366,2104.2866],[-98.2348,20.2318,2113.5864],[-98.2356,20.2238,2125.658],[-98.2413,20.2219,2128.1172],[-98.2438,20.2179,2130.2266],[-98.2527,20.2183,2132.2053],[-98.2597,20.2153,2148.4504],[-98.2705,20.2158,2195.5151],[-98.2765,20.2205,2169.8218],[-98.2789,20.2253,2171.9292],[-98.2842,20.25,2257.3599],[-98.2844,20.2628,2279.1348],[-98.2806,20.2662,2281.8616],[-98.2755,20.2661,2252.01],[-98.2748,20.2688,2262.8955],[-98.266,20.2736,2303.5461],[-98.2604,20.2855,2419.6208],[-98.2562,20.2863,2534.8428],[-98.2576,20.2981,2089.7864],[-98.254,20.3013,1935.7499],[-98.2466,20.3012,1810.1837],[-98.2422,20.3041,1750.0608],[-98.2365,20.3043,1592.5739],[-98.2327,20.3006,1492.27],[-98.2305,20.2953,1450.8462],[-98.2248,20.2951,1311.2859],[-98.2159,20.2915,1247.8777],[-98.2065,20.2962,1192.7422],[-98.2004,20.2921,1165.2474],[-98.1945,20.2908,1091.7759],[-98.1914,20.2914,1040.6802],[-98.1899,20.2944,998.7463],[-98.1791,20.2938,974.7818],[-98.1781,20.2973,1062.0574],[-98.1804,20.3034,1108.7418],[-98.1779,20.3094,1274.9951],[-98.1795,20.3128,1318.3943],[-98.1779,20.3205,1664.3643],[-98.1797,20.3268,1789.2876],[-98.1792,20.3324,2031.7421],[-98.1813,20.3365,2138.6838],[-98.1695,20.3323,1949.5624],[-98.1633,20.3278,1683.0231],[-98.1576,20.3325,1608.0784],[-98.1466,20.3303,1494.3491],[-98.1426,20.332,1604.9473],[-98.145,20.3348,1381.3302],[-98.1392,20.3327,1473.2301],[-98.1315,20.3365,1691.5856],[-98.1268,20.3362,1726.05],[-98.1242,20.3415,1842.8959],[-98.1272,20.3444,1939.1532],[-98.1262,20.3463,1920.6729],[-98.124,20.3485,1741.2151],[-98.1174,20.3501,1678.6515],[-98.1156,20.3538,1482.9362],[-98.1125,20.3543,1433.1116],[-98.1133,20.3609,1540.5884],[-98.1156,20.3631,1517.3804],[-98.1067,20.3681,1479.3912],[-98.1084,20.374,1052.2997],[-98.1019,20.3752,1367.8005],[-98.1015,20.3809,1551.1598],[-98.0894,20.3891,1554.421],[-98.0884,20.3964,1190.6405],[-98.0773,20.4031,1196.8311],[-98.0769,20.407,945.0266],[-98.079,20.4089,850.2338],[-98.0719,20.4164,785.9271],[-98.0761,20.4177,618.6866],[-98.0766,20.4208,578.9766],[-98.0743,20.4216,563.7434],[-98.0705,20.4303,576.2178],[-98.0634,20.4359,570.3583],[-98.0613,20.4355,519.4824],[-98.057,20.4387,493.9534],[-98.0536,20.4386,512.8555],[-98.052,20.4419,491.9425],[-98.0468,20.4369,531.6289],[-98.0446,20.4366,522.0331],[-98.0428,20.4406,515.825],[-98.04,20.4402,478.1291],[-98.0338,20.4477,420.8917],[-98.0219,20.4489,420.494],[-98.0171,20.4547,495.4733],[-98.0114,20.4558,477.7652],[-98.014,20.4564,540.5449],[-98.0121,20.4584,420.4677],[-98.015,20.4592,428.1577],[-98.0116,20.4612,433.9014],[-98.0141,20.4662,389.3165],[-98.0083,20.4747,703.9233],[-98.0089,20.4825,334.5808],[-97.9999,20.4825,305.6581],[-97.9979,20.4844,345.882],[-97.999,20.4871,544.2787],[-97.9934,20.4852,347.6703],[-97.9919,20.4928,291.5477],[-97.9888,20.4954,286.9493],[-97.9974,20.5061,629.0211],[-97.9929,20.5076,460.4139],[-97.9916,20.513,408.1988],[-97.9893,20.5155,397.1543],[-97.9853,20.5156,351.1421],[-97.9851,20.5174,340.4104],[-97.9897,20.5183,362.9837],[-97.99,20.5202,357.9444],[-97.9927,20.5199,360.1139],[-97.995,20.523,374.2439],[-97.9979,20.523,384.8231],[-97.9988,20.5252,396.2672],[-98.0035,20.5228,423.9384],[-98.0042,20.5249,401.7853],[-98.0126,20.5252,414.7748],[-98.0138,20.524,434.0428],[-98.0173,20.526,522.3217],[-98.0183,20.5288,733.2665],[-98.0121,20.5295,688.1608],[-98.0083,20.5327,736.1353],[-98.0287,20.5897,260.971],[-98.0177,20.6017,244.5883],[-98.021,20.6268,268.3331],[-98.0294,20.6321,304.637],[-98.036,20.6333,303.8407],[-98.04,20.6319,326.5344],[-98.0668,20.6739,172.6224],[-98.0713,20.6771,181.4257],[-98.0749,20.6765,167.0844],[-98.0768,20.6738,168.0951],[-98.0764,20.6714,171.3353],[-98.0713,20.6699,180.1096],[-98.0703,20.6682,179.7133],[-98.0726,20.6607,177.6848],[-98.072,20.6577,181.5466],[-98.0793,20.6497,189.5793],[-98.0827,20.6422,209.9302],[-98.0806,20.6335,205.371],[-98.0855,20.6298,249.4243],[-98.0872,20.6229,286.3907],[-98.0947,20.6255,296.292],[-98.0982,20.6244,311.6615],[-98.1006,20.6212,283.8495],[-98.0983,20.617,274.9555],[-98.1006,20.6139,260.2357],[-98.1058,20.616,277.5873],[-98.1118,20.6159,263.4086],[-98.108,20.6114,369.8875],[-98.1095,20.6074,267.5804],[-98.1123,20.6072,451.3709],[-98.115,20.6001,458.7146],[-98.1179,20.6007,305.1711],[-98.1187,20.5982,326.6082],[-98.121,20.597,287.3213],[-98.1269,20.5973,433.5349],[-98.1187,20.5941,275.8619],[-98.1237,20.5921,377.9634],[-98.1216,20.5861,333.6152],[-98.1302,20.5909,355.5543],[-98.1319,20.5873,363.2604],[-98.1304,20.5845,395.0671],[-98.1321,20.582,432.6907],[-98.1354,20.5819,294.057],[-98.1381,20.5748,331.4294],[-98.1425,20.5708,331.3331],[-98.1426,20.5685,593.2312],[-98.1475,20.5655,399.368],[-98.1477,20.5627,356.0864],[-98.1537,20.5652,352.0751],[-98.1522,20.5545,340.5946],[-98.1534,20.5524,384.0948],[-98.1581,20.5503,375.4077],[-98.1566,20.5473,407.5688],[-98.1589,20.5456,370.1762],[-98.158,20.5426,373.9423],[-98.1644,20.5412,373.186],[-98.1665,20.5366,432.7235],[-98.1729,20.5297,490.9662],[-98.1776,20.5277,401.9549],[-98.1808,20.5289,506.7819],[-98.1822,20.5262,413.7001],[-98.1856,20.5276,428.3392],[-98.188,20.5258,419.3365],[-98.1883,20.5232,423.1903],[-98.204,20.5279,449.4692],[-98.2104,20.5261,518.1624],[-98.2116,20.5287,449.1764],[-98.2194,20.523,455.4011],[-98.2223,20.5237,461.0423],[-98.2287,20.5208,554.3215],[-98.2325,20.5142,702.2558],[-98.2303,20.5105,572.9985],[-98.2333,20.5098,543.4724],[-98.2341,20.5062,521.8404],[-98.239,20.505,500.6035],[-98.241,20.5006,518.0876],[-98.2458,20.5044,619.3837],[-98.2473,20.5012,599.8706],[-98.2558,20.4999,556.2293],[-98.2576,20.4956,563.2104],[-98.2604,20.4954,562.97],[-98.271,20.4819,680.7281],[-98.2754,20.4812,697.3476],[-98.2755,20.4792,675.9377],[-98.2777,20.4778,676.7088],[-98.2764,20.4755,721.2814],[-98.2773,20.4729,707.7955],[-98.2801,20.4722,713.4576],[-98.2805,20.4694,731.4378],[-98.2873,20.4667,735.7127],[-98.2879,20.4647,756.6495],[-98.2922,20.4649,771.0001],[-98.2946,20.4603,862.2373],[-98.2973,20.4605,869.2018],[-98.2997,20.4587,894.8613],[-98.2991,20.4556,915.4489],[-98.3026,20.4557,890.0667],[-98.3026,20.4541,869.4952],[-98.3044,20.4547,853.2507],[-98.3083,20.4521,922.9811],[-98.309,20.4495,958.2274],[-98.3121,20.4498,915.6319],[-98.3123,20.448,924.8905],[-98.3157,20.4457,906.4698],[-98.3139,20.4395,965.8351],[-98.3181,20.4353,987.2654],[-98.3173,20.4288,985.9757],[-98.3198,20.4244,985.1836],[-98.3161,20.4232,1017.2152],[-98.3185,20.4224,1026.9708],[-98.321,20.418,1035.9788],[-98.3261,20.4183,1036.0046],[-98.3301,20.4157,1118.9628],[-98.3372,20.4141,1212.1494],[-98.3386,20.4111,1167.1113],[-98.3437,20.4103,1250.2982],[-98.3486,20.4066,1253.8601],[-98.3487,20.405,1291.9263],[-98.3588,20.4014,1356.8567],[-98.3598,20.3998,1410.5734],[-98.3705,20.4019,1503.7905],[-98.3766,20.3985,1585.3694],[-98.3807,20.3992,1672.7825],[-98.3861,20.4027,1808.3455],[-98.4183,20.38,2456.3076],[-98.4604,20.3314,2171.0063],[-98.4711,20.3359,2141.1709],[-98.4804,20.3365,2117.9446],[-98.4867,20.3348,2116.7942],[-98.4899,20.3369,2099.5339],[-98.4947,20.3363,2085.8008],[-98.4965,20.3387,2088.5713],[-98.4981,20.3377,2076.3369],[-98.4996,20.3387,2070.7051],[-98.5008,20.3372,2070.7051],[-98.5039,20.3378,2082.4939],[-98.5056,20.3354,2099.6309],[-98.5112,20.3393,2090.019],[-98.5174,20.3369,2043.0757],[-98.5229,20.3426,2020.3546],[-98.5253,20.3419,2063.3188],[-98.5271,20.345,2036.4517],[-98.5343,20.3462,2021.6113],[-98.5351,20.3499,2024.9255],[-98.5389,20.3528,2014.5293],[-98.5404,20.3581,1967.9968],[-98.543,20.3562,1970.8105],[-98.5454,20.3591,2008.0402],[-98.549,20.3603,1977.7089],[-98.5473,20.3615,1957.8934],[-98.5487,20.3647,1976.1418],[-98.5455,20.368,1994.5537],[-98.5465,20.3701,2009.4619],[-98.5431,20.3756,1942.5959],[-98.546,20.3768,1921.9436],[-98.5444,20.3788,1904.5941],[-98.5452,20.3882,1898.9827],[-98.5484,20.3902,1882.0553],[-98.5444,20.3923,1890.355],[-98.5478,20.3929,1874.5237],[-98.5502,20.3957,1879.1067],[-98.5504,20.3993,1863.298],[-98.5487,20.3997,1863.298],[-98.5482,20.4025,1869.53],[-98.5505,20.4063,1868.5858],[-98.5494,20.415,1824.4543],[-98.5507,20.4199,1835.8323],[-98.5495,20.4216,1819.7186],[-98.5513,20.4238,1813.771],[-98.55,20.4259,1863.3361],[-98.5519,20.4273,1806.6265],[-98.5524,20.4319,1776.8834],[-98.55,20.4326,1780.9],[-98.5497,20.4354,1748.7123],[-98.5524,20.4355,1751.0625],[-98.5544,20.4385,1741.4781],[-98.5552,20.4428,1742.5365],[-98.5537,20.4464,1774.1442],[-98.5561,20.4496,1663.5032],[-98.5719,20.4636,1547.124],[-98.5724,20.4669,1547.2903],[-98.5767,20.4707,1524.3142],[-98.5758,20.4728,1555.9244],[-98.5787,20.4732,1546.1073],[-98.5766,20.4761,1535.7579],[-98.5789,20.4763,1519.5752],[-98.5795,20.4793,1538.1907],[-98.5863,20.4829,1494.8442],[-98.5858,20.4849,1478.3564],[-98.5882,20.4875,1484.175],[-98.594,20.4896,1464.4598],[-98.5951,20.4944,1473.4767],[-98.5973,20.4958,1461.2363],[-98.5932,20.4995,1504.0857],[-98.587,20.5012,1567.6746],[-98.5824,20.5055,1591.5498],[-98.5767,20.5043,1635.7288],[-98.5711,20.509,1692.6117],[-98.5667,20.5079,1710.9448],[-98.5576,20.5094,1742.8252],[-98.5585,20.5114,1756.2117],[-98.5546,20.5187,1833.283],[-98.5456,20.521,2026.2603],[-98.5347,20.5307,2082.3376],[-98.5308,20.5402,2158.583],[-98.5261,20.5442,2053.8623],[-98.5245,20.5484,2051.1953],[-98.5257,20.5511,2045.6411],[-98.5241,20.5525,2014.9719],[-98.5226,20.5592,1981.5609],[-98.5241,20.561,1961.8849],[-98.5234,20.5673,1937.9445],[-98.5249,20.5708,1926.0208],[-98.5237,20.572,1945.7646],[-98.5243,20.5755,1909.9298],[-98.5223,20.5772,1901.7827],[-98.523,20.5818,1896.645],[-98.5122,20.5942,1890.2292],[-98.5029,20.5959,1819.5336],[-98.4963,20.5895,1943.9067],[-98.4875,20.5889,2092.6255],[-98.4849,20.5902,2103.0017],[-98.4824,20.5879,2165.3923],[-98.4802,20.589,2077.729],[-98.4785,20.5943,1795.0205],[-98.4812,20.6016,1564.9409],[-98.4801,20.6033,1739.2186],[-98.4836,20.6065,1444.6814],[-98.4895,20.6197,1170.325],[-98.4904,20.627,1101.4973],[-98.4952,20.6366,964.6545],[-98.4948,20.6443,840.1338],[-98.4912,20.6458,850.7881],[-98.4897,20.65,764.5206],[-98.487,20.6501,762.731],[-98.486,20.6544,750.0701],[-98.4795,20.6568,766.077],[-98.4785,20.6592,780.8452],[-98.4751,20.6598,753.5289],[-98.4726,20.6627,699.4367],[-98.47,20.6626,707.83],[-98.4674,20.6661,687.7211],[-98.4637,20.6672,670.5557],[-98.464,20.6741,621.946],[-98.4604,20.6768,630.7376],[-98.4605,20.6832,609.3824],[-98.4585,20.6854,597.3142],[-98.4599,20.6962,572.808],[-98.4492,20.7009,1035.4856],[-98.4459,20.6943,1155.4117],[-98.4454,20.7031,970.5157],[-98.4418,20.7086,800.5309],[-98.4433,20.7099,753.9764],[-98.4393,20.7089,843.8452],[-98.4292,20.7164,1164.6064],[-98.4335,20.7175,1123.1113],[-98.4248,20.7303,916.3717],[-98.4244,20.735,758.5594],[-98.4215,20.7393,650.6139],[-98.4214,20.7443,634.7517],[-98.4255,20.7489,508.4485],[-98.428,20.7445,446.1976],[-98.4339,20.7432,513.787],[-98.4356,20.7398,464.1804],[-98.4403,20.7377,503.9868],[-98.4413,20.7338,625.5297],[-98.4441,20.7313,506.3036],[-98.4434,20.7292,523.7004],[-98.4474,20.7276,511.7962],[-98.4479,20.7246,538.1617],[-98.4542,20.7213,545.6635],[-98.4603,20.7133,555.0008],[-98.4624,20.7142,601.9493],[-98.4665,20.7103,604.4655],[-98.473,20.709,636.0907],[-98.4751,20.706,659.3788],[-98.4836,20.706,705.4399],[-98.4858,20.7035,804.2744],[-98.4972,20.6999,845.4913],[-98.5012,20.6946,945.8815],[-98.5063,20.6941,971.0649],[-98.5088,20.6901,1073.2842],[-98.5109,20.6915,1023.5875],[-98.5148,20.6892,1075.7985],[-98.5174,20.6838,1210.9141],[-98.5251,20.6818,1324.3702],[-98.529,20.6758,1423.8301],[-98.5316,20.6673,1644.7689],[-98.5304,20.6651,1767.0815],[-98.5334,20.6627,1788.6606],[-98.5342,20.6646,1879.4805],[-98.5361,20.6634,1816.7725],[-98.5426,20.6685,1900.74],[-98.5488,20.6823,1343.3009],[-98.5502,20.6894,1158.0884],[-98.54,20.6935,1565.8961],[-98.5387,20.6956,1606.8826],[-98.5403,20.6981,1610.6705],[-98.5342,20.6984,1652.0659],[-98.531,20.702,1629.522],[-98.5311,20.7041,1618.6582],[-98.5291,20.704,1724.618],[-98.5301,20.71,1485.2849],[-98.5304,20.7088,1485.2849],[-98.5326,20.7113,1494.2023],[-98.5322,20.7154,1492.1844],[-98.5302,20.7181,1449.3511],[-98.5245,20.7217,1360.0228],[-98.5204,20.727,1299.8883],[-98.5157,20.7254,1245.9784],[-98.5135,20.7266,1131.0563],[-98.514,20.7282,1074.0156],[-98.511,20.7287,1068.7374],[-98.5064,20.7331,970.7932],[-98.5105,20.7339,1052.4717],[-98.5145,20.7323,1088.0098],[-98.5144,20.7362,1139.7634],[-98.5178,20.7402,1261.1658],[-98.5167,20.7429,1423.7332],[-98.5081,20.7442,1442.4763],[-98.5073,20.7381,1108.2101],[-98.5036,20.7322,960.6079],[-98.4968,20.7368,959.5873],[-98.476,20.7389,853.1951],[-98.4707,20.7449,821.2886],[-98.4576,20.7469,868.1865],[-98.4497,20.7513,721.663],[-98.456,20.7556,1254.5612],[-98.4601,20.7628,1270.7139],[-98.4616,20.7702,1049.3562],[-98.4646,20.7725,940.6227],[-98.4605,20.779,883.6655],[-98.4632,20.7852,595.3253],[-98.4605,20.7881,624.4725],[-98.4559,20.7895,548.7188],[-98.4496,20.8061,615.8802],[-98.4492,20.8101,413.4625],[-98.4522,20.814,825.6533],[-98.4506,20.8215,897.6564],[-98.444,20.829,759.2969],[-98.4437,20.8343,682.8024],[-98.4405,20.8356,571.8813],[-98.4394,20.8383,523.2736],[-98.4332,20.8418,529.6352],[-98.4323,20.841,476.6918],[-98.4295,20.847,444.4283],[-98.4306,20.8477,423.8761],[-98.4276,20.8493,426.4263],[-98.4269,20.8471,409.0363],[-98.4247,20.8499,400.1883],[-98.4218,20.8492,392.3015],[-98.4194,20.8511,390.1364],[-98.417,20.8481,371.553],[-98.4137,20.8486,413.4632],[-98.4114,20.8541,366.0054],[-98.4056,20.8552,361.7365],[-98.4029,20.8584,323.4775],[-98.3982,20.8587,320.9012],[-98.3936,20.8544,304.826],[-98.3896,20.8558,299.0013],[-98.388,20.8538,299.7466],[-98.3819,20.8535,285.3628],[-98.3797,20.8519,292.3582],[-98.373,20.8565,270.894],[-98.3711,20.8623,265.4455],[-98.3681,20.8619,265.23],[-98.3658,20.8639,275.4217],[-98.3634,20.8606,261.069],[-98.36,20.8595,256.7625],[-98.3593,20.8568,280.9954],[-98.3575,20.8568,295.8701],[-98.351,20.8612,249.783],[-98.3489,20.8656,256.917],[-98.3474,20.8631,247.1412],[-98.3451,20.8649,247.1354],[-98.3445,20.8622,276.2996],[-98.3478,20.8589,250.4851],[-98.348,20.8541,253.4052],[-98.3518,20.8488,261.2642],[-98.3498,20.843,262.3611],[-98.3529,20.836,268.9092],[-98.3471,20.8345,270.4227],[-98.3454,20.8318,274.3566],[-98.3397,20.8327,438.3698],[-98.3272,20.8294,751.8813],[-98.3286,20.8205,416.479],[-98.3165,20.8178,867.6727],[-98.3148,20.8098,643.0438],[-98.3447,20.7975,369.8768],[-98.3394,20.7967,360.5101],[-98.3385,20.7931,366.2077],[-98.3353,20.7899,455.5508],[-98.3277,20.7861,439.9973],[-98.3285,20.7841,493.8925],[-98.3252,20.7838,508.4659],[-98.3153,20.7887,823.0476],[-98.3121,20.7977,970.1158],[-98.3078,20.8019,733.2942],[-98.3029,20.7959,960.5303],[-98.2984,20.8014,678.0908],[-98.2978,20.7957,855.2424],[-98.3045,20.7827,548.236],[-98.2988,20.7778,510.7697],[-98.292,20.7855,873.4351],[-98.2844,20.7867,660.9647],[-98.2795,20.7827,525.4294],[-98.2756,20.786,703.4093],[-98.2616,20.786,528.9506],[-98.257,20.7928,510.9152],[-98.254,20.7941,492.7479],[-98.2477,20.7894,630.6871],[-98.2456,20.7933,568.1635],[-98.2489,20.7964,488.9265],[-98.2449,20.8022,422.8524],[-98.2449,20.8009,463.5409],[-98.2374,20.7985,633.8418],[-98.2363,20.7968,641.3145],[-98.2337,20.7976,610.3518],[-98.2327,20.8044,490.3487],[-98.2247,20.8182,374.1088],[-98.2393,20.8176,371.8568],[-98.2479,20.8197,397.1603],[-98.2495,20.8223,442.8507],[-98.252,20.8199,425.5238],[-98.2538,20.8215,407.9412],[-98.2521,20.8278,709.1622],[-98.2589,20.834,690.2045],[-98.2595,20.8376,628.5839],[-98.2582,20.8397,540.4893],[-98.2606,20.8398,534.9547],[-98.2623,20.8469,728.1616],[-98.2546,20.849,532.472],[-98.2588,20.8551,657.3925],[-98.2562,20.859,705.5458],[-98.2655,20.8665,437.4665],[-98.259,20.8749,634.4006],[-98.251,20.8973,410.9665],[-98.2487,20.899,373.9036],[-98.2324,20.9001,294.9869],[-98.2249,20.9064,230.3591],[-98.229,20.9082,228.4711],[-98.2227,20.9134,224.294],[-98.2227,20.9184,221.966],[-98.224,20.919,231.7625],[-98.2298,20.9146,222.8346],[-98.2343,20.9158,226.2857],[-98.2394,20.923,216.3321],[-98.2368,20.929,213.5565],[-98.2374,20.9348,225.1934],[-98.2352,20.9404,246.3134],[-98.2302,20.9448,377.0182],[-98.2297,20.9497,571.6909],[-98.2274,20.9541,712.5883],[-98.2286,20.9576,694.9478],[-98.2257,20.9594,648.4659],[-98.2161,20.9526,407.543],[-98.2135,20.9626,642.619],[-98.2095,20.9671,531.6633],[-98.212,20.9678,537.126],[-98.2098,20.9707,580.2144],[-98.2111,20.9722,574.634],[-98.2169,20.9737,542.1021],[-98.2133,20.9831,476.9423],[-98.215,20.9896,400.5717],[-98.2006,20.9947,328.7441],[-98.1995,20.9991,281.8272],[-98.202,21.0053,231.0045],[-98.2021,21.0117,197.3773],[-98.197,21.0166,172.9221],[-98.189,21.0183,135.9376],[-98.1886,21.0213,155.9764],[-98.1909,21.0263,136.0588],[-98.1883,21.0313,107.0141],[-98.1827,21.03,105.7574],[-98.1805,21.0241,102.6476],[-98.1763,21.0212,102.6973],[-98.173,21.0206,100.6883],[-98.1679,21.0229,105.1104],[-98.1639,21.0176,102.6975],[-98.1612,21.0191,96.347],[-98.1627,21.0283,99.1643],[-98.1598,21.0322,107.5929],[-98.1557,21.0334,97.6287],[-98.1508,21.0472,101.8518],[-98.1507,21.0524,101.2348],[-98.1545,21.0661,94.9766],[-98.1504,21.0695,87.7329],[-98.1474,21.0766,82.3662],[-98.1509,21.0855,86.4127],[-98.171,21.0968,79.9368],[-98.1749,21.1062,78.3741],[-98.1808,21.1068,78.0662],[-98.1833,21.1102,75.8849],[-98.1864,21.1108,77.4434],[-98.202,21.1064,72.3108],[-98.2024,21.1109,72.1308],[-98.1995,21.1158,72.183],[-98.1957,21.1178,71.2958],[-98.1952,21.1204,72.7281],[-98.1969,21.123,71.2949],[-98.2074,21.1287,74.4504],[-98.208,21.1308,71.8254],[-98.2042,21.1353,73.5818],[-98.2051,21.1381,70.9205],[-98.2086,21.1433,71.3989],[-98.2168,21.1447,66.959],[-98.2178,21.1477,70.5555],[-98.2156,21.1501,66.073],[-98.2168,21.1515,67.3082],[-98.2274,21.1504,77.7077],[-98.2292,21.1456,86.0856],[-98.2317,21.1444,81.6108],[-98.2313,21.1424,77.7596],[-98.2342,21.1428,82.3884],[-98.2338,21.1406,82.2454],[-98.2369,21.1434,83.2825],[-98.2394,21.1381,102.9819],[-98.246,21.1346,95.593],[-98.2453,21.1322,96.1793],[-98.2491,21.1294,108.6922],[-98.2571,21.1339,255.7805],[-98.2625,21.1407,317.9129],[-98.2822,21.1364,83.9503],[-98.2812,21.1415,87.7393],[-98.2862,21.1451,79.5713],[-98.2945,21.1472,81.6134],[-98.2957,21.1487,87.8563],[-98.2954,21.156,80.1187],[-98.2902,21.1609,76.9624],[-98.2847,21.1624,76.2296],[-98.2786,21.1726,71.5482],[-98.2789,21.1829,68.4057],[-98.2755,21.1874,69.1054],[-98.2791,21.1928,64.6012],[-98.2872,21.1943,62.9819],[-98.2962,21.188,68.0408],[-98.296,21.183,76.1671],[-98.2996,21.1841,73.6316],[-98.2979,21.1774,77.6491],[-98.3054,21.1813,79.6098],[-98.305,21.183,77.5815],[-98.308,21.1803,79.548],[-98.3084,21.1848,80.0696],[-98.3112,21.1834,80.2643],[-98.3159,21.1869,82.9151],[-98.3211,21.1813,87.57],[-98.3381,21.1728,99.894],[-98.3424,21.1672,101.1197],[-98.3409,21.1648,102.2702],[-98.3421,21.1608,104.9753],[-98.3506,21.1599,104.6468],[-98.3508,21.1571,106.0313],[-98.3537,21.1598,107.244],[-98.3581,21.1563,106.4399],[-98.3595,21.1576,105.8108],[-98.362,21.157,113.797],[-98.3651,21.1581,110.0565],[-98.365,21.1617,111.7475],[-98.3662,21.1622,110.4708],[-98.3677,21.1588,113.8765],[-98.3802,21.1551,117.1564],[-98.3802,21.1584,117.0476],[-98.3836,21.1585,115.6022],[-98.384,21.1609,119.9508],[-98.3868,21.1623,116.4828],[-98.3893,21.1587,119.6898],[-98.3911,21.1605,119.6127],[-98.3978,21.1565,123.3386],[-98.3995,21.1586,120.5112],[-98.4011,21.1559,123.182],[-98.4038,21.1576,127.1581],[-98.4032,21.1544,125.3853],[-98.4045,21.1527,125.5297],[-98.4054,21.1547,123.8134],[-98.4164,21.155,135.0973],[-98.4171,21.1604,138.1815],[-98.4187,21.1624,143.7021],[-98.4204,21.1615,138.7048],[-98.4235,21.1635,183.0066],[-98.4237,21.1672,145.0206],[-98.4303,21.168,155.9032],[-98.4301,21.1728,157.4981],[-98.4324,21.1723,158.644],[-98.433,21.1748,161.5491],[-98.4355,21.1746,176.0972],[-98.437,21.1772,170.8342],[-98.439,21.1762,178.5503],[-98.4451,21.1787,201.4201],[-98.4455,21.1806,227.5118],[-98.4468,21.1798,200.7805],[-98.4494,21.1867,276.5907],[-98.4491,21.1936,306.0508],[-98.4467,21.1996,332.4889],[-98.4494,21.202,352.4291],[-98.4571,21.2029,312.8018],[-98.4596,21.2048,248.2974],[-98.4529,21.21,304.9782],[-98.4569,21.2148,279.7651],[-98.4665,21.2199,299.9963],[-98.4678,21.2238,308.425],[-98.4728,21.2198,168.6738],[-98.4797,21.2239,104.8131],[-98.4792,21.2265,103.7574],[-98.4817,21.2287,98.8231],[-98.4808,21.2307,107.3236],[-98.4693,21.2342,263.8058],[-98.4685,21.2392,224.3281],[-98.4705,21.2445,128.577],[-98.4684,21.2497,95.8323],[-98.477,21.2524,101.6263],[-98.487,21.2507,86.0961],[-98.4931,21.2518,71.5949],[-98.4932,21.2505,71.5949],[-98.499,21.2522,73.5784],[-98.5005,21.2517,72.9756],[-98.4998,21.2478,75.813],[-98.5023,21.246,73.8934],[-98.5083,21.2471,79.1446],[-98.5165,21.2443,80.7509],[-98.5379,21.2639,113.4681],[-98.544,21.2639,123.3017],[-98.5424,21.2691,139.3566],[-98.5258,21.2875,127.3157],[-98.5172,21.3045,139.1289],[-98.4956,21.33,96.5967],[-98.4974,21.3372,102.7422],[-98.4956,21.3404,114.4212],[-98.4852,21.3501,108.4729],[-98.4783,21.3474,116.5564],[-98.4779,21.3438,105.0021],[-98.472,21.3467,151.1619],[-98.4656,21.3471,197.5233],[-98.4636,21.3502,165.8392],[-98.47,21.3575,106.2707],[-98.4697,21.3623,101.5204],[-98.4661,21.3655,98.2628],[-98.4684,21.3703,79.501],[-98.4655,21.3732,70.2853],[-98.4699,21.3834,46.2119],[-98.4687,21.387,47.9901],[-98.4733,21.3912,49.4966],[-98.4815,21.3887,54.8262],[-98.4797,21.3962,53.3528],[-98.4808,21.3977,50.0381],[-98.487,21.3981,50.4317],[-98.4869,21.3924,54.0813],[-98.4889,21.3911,52.268],[-98.4913,21.392,52.5686],[-98.4941,21.3875,55.3019],[-98.4972,21.3861,54.1991],[-98.5012,21.3855,53.4176],[-98.5026,21.3891,53.9401],[-98.5047,21.3892,54.8316],[-98.5071,21.3857,52.9105],[-98.505,21.382,56.1479],[-98.5087,21.3784,54.9122],[-98.5129,21.3771,57.6244],[-98.5131,21.3745,56.5239],[-98.5158,21.3723,58.1793],[-98.5116,21.369,55.3913],[-98.5091,21.3707,58.8651],[-98.5074,21.37,54.145],[-98.5069,21.3661,54.964],[-98.5114,21.3625,55.9114],[-98.5148,21.3652,54.9617],[-98.5154,21.3617,60.1614],[-98.5174,21.3619,56.4463],[-98.5204,21.3647,60.9427],[-98.5205,21.3686,60.2429],[-98.5252,21.366,58.6371],[-98.5275,21.3665,57.9697],[-98.5274,21.3678,61.1874],[-98.5296,21.3678,61.7334],[-98.5282,21.3697,62.1423],[-98.5302,21.3695,62.1214],[-98.5298,21.3711,62.5693],[-98.5315,21.3712,62.6912],[-98.5309,21.3725,60.1872],[-98.5336,21.3745,63.0597],[-98.5325,21.3758,63.6051],[-98.5339,21.3765,63.6051],[-98.5311,21.3776,72.7907],[-98.532,21.3785,64.2283],[-98.5353,21.3787,65.1838],[-98.5345,21.3798,65.753],[-98.536,21.3804,65.753],[-98.5393,21.3791,68.5797],[-98.5391,21.3834,70.473],[-98.5413,21.384,87.747],[-98.545,21.3843,92.588],[-98.5446,21.3809,77.3169],[-98.5461,21.3806,77.3169],[-98.547,21.3835,77.5633],[-98.5496,21.3846,85.3291],[-98.552,21.3795,86.7819],[-98.557,21.3796,107.0304],[-98.5589,21.3774,88.5808],[-98.5615,21.3774,92.6707],[-98.5642,21.3748,88.8559],[-98.5643,21.372,89.5971],[-98.5665,21.3737,91.658],[-98.5677,21.3708,92.5943],[-98.576,21.3746,100.5031],[-98.579,21.3731,103.6256],[-98.5808,21.3741,93.757],[-98.5813,21.3697,104.6994],[-98.5829,21.3701,100.0847],[-98.5835,21.3728,97.7308],[-98.5861,21.3717,98.1054],[-98.5901,21.3728,99.9231],[-98.591,21.3666,102.1526],[-98.5961,21.3642,105.4677],[-98.5969,21.3591,110.5065],[-98.5996,21.3584,112.8088],[-98.5999,21.3601,110.5705],[-98.6024,21.3579,111.9746],[-98.6035,21.3593,110.2759],[-98.6072,21.3582,113.4875],[-98.608,21.3595,112.9049],[-98.6124,21.3594,121.2259],[-98.6142,21.362,123.4475],[-98.619,21.3589,131.4668],[-98.6203,21.3612,129.6018],[-98.6192,21.3625,136.4505],[-98.6235,21.3647,138.026],[-98.6272,21.3598,171.2671],[-98.6286,21.3648,147.09],[-98.6315,21.3656,155.2249],[-98.6345,21.3637,155.4262],[-98.6372,21.364,161.4227],[-98.6386,21.3677,167.5269],[-98.6404,21.366,158.9286],[-98.644,21.3665,173.4693],[-98.6463,21.3587,253.8898],[-98.6452,21.3581,253.8898],[-98.6497,21.3548,330.8918],[-98.6496,21.3526,317.7555],[-98.6519,21.3528,334.2371],[-98.6528,21.3468,245.6043],[-98.6718,21.3483,443.6618],[-98.6751,21.3498,466.8762],[-98.6811,21.3462,492.6],[-98.6836,21.3419,341.0754],[-98.677,21.3366,275.3029],[-98.6707,21.3247,221.5418],[-98.6603,21.3209,205.6712],[-98.6476,21.3123,343.9932],[-98.6314,21.313,170.2111],[-98.6245,21.3097,130.2353],[-98.6249,21.3082,148.549],[-98.6202,21.3071,123.1243],[-98.6189,21.305,111.5286],[-98.6158,21.3047,93.2208],[-98.6122,21.2997,91.589],[-98.6095,21.2993,90.3051],[-98.6047,21.3018,87.3567],[-98.6039,21.298,87.6513],[-98.5991,21.2921,85.7127],[-98.6016,21.2866,87.9083],[-98.596,21.2853,82.9954],[-98.5952,21.2832,88.6805],[-98.5975,21.2827,85.3723],[-98.5985,21.2797,91.5976],[-98.6026,21.2794,111.4738],[-98.6039,21.2764,96.973],[-98.6011,21.2748,106.7017],[-98.6042,21.2723,101.8838],[-98.6031,21.2703,114.4905],[-98.605,21.2685,108.8056],[-98.6023,21.2659,112.1841],[-98.6024,21.2623,123.5429],[-98.6,21.2612,128.2117],[-98.6077,21.2565,220.6028],[-98.6089,21.2527,289.1891],[-98.6069,21.2488,256.8774],[-98.6042,21.2495,244.7987],[-98.5994,21.2477,171.3708],[-98.6023,21.2429,193.909],[-98.6011,21.2328,250.1454],[-98.6039,21.2253,319.074],[-98.6047,21.2203,304.1994],[-98.6036,21.2184,303.4413],[-98.6065,21.2163,184.8094],[-98.6052,21.2152,186.9723],[-98.6087,21.2014,152.59],[-98.618,21.1943,207.0982],[-98.6386,21.185,175.8038],[-98.6392,21.1832,181.9501],[-98.6424,21.1822,177.1109],[-98.6506,21.1835,171.9654],[-98.6505,21.1809,180.6564],[-98.6585,21.1861,234.5327],[-98.6583,21.1828,216.9577],[-98.6638,21.1841,243.2784],[-98.6694,21.1932,176.4294],[-98.6689,21.1949,177.1542],[-98.6731,21.1946,185.5457],[-98.6769,21.1994,167.2357],[-98.6804,21.1985,198.6363],[-98.6827,21.2006,206.4918],[-98.6835,21.1977,189.047],[-98.6866,21.1949,243.5268],[-98.6852,21.1902,200.613],[-98.6917,21.188,204.3837],[-98.6915,21.1847,211.1872],[-98.6946,21.1822,220.9288],[-98.6911,21.1671,285.8497],[-98.6966,21.1615,384.3828],[-98.7018,21.1608,459.3677],[-98.7025,21.1619,459.3677],[-98.7037,21.1685,404.2111],[-98.6994,21.1762,298.1201],[-98.7027,21.1815,252.1096],[-98.7012,21.183,244.3973],[-98.7021,21.1851,241.6488],[-98.7052,21.1872,236.6957],[-98.7088,21.1873,245.0266],[-98.7147,21.1834,225.3454],[-98.7164,21.186,217.7583],[-98.7195,21.1842,158.594],[-98.7189,21.1864,214.8635],[-98.7203,21.1871,214.274],[-98.7238,21.183,179.5658],[-98.7283,21.1843,167.5716],[-98.7265,21.1813,168.5339],[-98.7277,21.1795,170.938],[-98.7355,21.1823,182.01],[-98.737,21.1882,178.4193],[-98.7413,21.1928,152.7082],[-98.7422,21.1913,244.4375],[-98.7405,21.1894,227.6632],[-98.7465,21.1843,370.9583],[-98.7551,21.1867,426.6775],[-98.7673,21.1844,456.2787],[-98.7642,21.1816,413.5651],[-98.7641,21.1796,424.6306],[-98.7659,21.1758,293.6079],[-98.7729,21.172,218.9539],[-98.7763,21.1736,197.019],[-98.7754,21.1751,232.715],[-98.7766,21.182,195.6792],[-98.7792,21.1824,184.0241],[-98.7808,21.186,158.6819],[-98.7908,21.188,165.105],[-98.798,21.1833,195.8614],[-98.7992,21.1849,176.6127],[-98.7974,21.1913,157.793],[-98.8081,21.1932,162.5049],[-98.8081,21.1896,166.3551],[-98.7986,21.1781,173.9934],[-98.792,21.1798,169.4133],[-98.7899,21.1785,181.209],[-98.7907,21.1713,199.9272],[-98.7886,21.167,208.0182],[-98.794,21.1602,213.9276],[-98.7961,21.1607,177.5549],[-98.797,21.1642,236.9373],[-98.7991,21.1648,188.1832],[-98.8138,21.1629,195.1493],[-98.8206,21.1604,222.9379],[-98.8249,21.1614,183.0196],[-98.8285,21.1635,225.3253],[-98.8293,21.1667,216.502],[-98.8325,21.1671,226.8313],[-98.8376,21.1706,260.6379],[-98.8405,21.1691,246.5284],[-98.8436,21.1707,272.668],[-98.8471,21.1766,294.7158],[-98.8479,21.1747,282.2751],[-98.8521,21.1768,313.0782],[-98.8556,21.1801,434.4826],[-98.8564,21.1841,543.7189],[-98.8546,21.1873,602.4756],[-98.8574,21.1893,722.1717],[-98.8638,21.1884,1020.8547],[-98.8747,21.1809,1116.6246],[-98.8827,21.1796,1288.4083],[-98.8829,21.1926,694.8636],[-98.8857,21.1951,568.3317],[-98.8851,21.1963,510.7111],[-98.8954,21.2039,845.9444],[-98.8951,21.2104,776.5883],[-98.9036,21.2127,235.841],[-98.9064,21.2231,179.7296],[-98.9151,21.2252,214.9915],[-98.9148,21.2273,267.1343],[-98.9078,21.2328,188.0217],[-98.8989,21.2313,167.815],[-98.8986,21.233,185.5702],[-98.9016,21.2355,203.6226],[-98.8992,21.236,189.135],[-98.8999,21.2386,217.7261],[-98.9007,21.2403,207.879],[-98.9028,21.2384,259.1554],[-98.91,21.2419,246.9282],[-98.9134,21.2399,287.3286],[-98.9178,21.2398,279.9338],[-98.9229,21.2467,307.5916],[-98.918,21.2516,321.4692],[-98.9177,21.2555,328.0921],[-98.9222,21.2587,321.2226],[-98.9213,21.2632,381.7784],[-98.9279,21.2687,648.7476],[-98.9265,21.2787,755.6903],[-98.9293,21.2927,896.6852],[-98.9326,21.2983,860.3006],[-98.9403,21.2946,546.2179],[-98.945,21.3113,231.1451],[-98.9532,21.3088,230.4833],[-98.9526,21.3068,205.6914],[-98.9546,21.3067,211.8089],[-98.9565,21.3018,283.8522],[-98.9597,21.3034,248.3267],[-98.9625,21.3025,259.0198],[-98.9653,21.3069,249.6712],[-98.9748,21.3031,271.4185],[-98.975,21.297,330.8025],[-98.9779,21.2964,306.602],[-98.9819,21.2984,298.8291],[-98.9894,21.2975,333.1458],[-98.993,21.2995,395.0173],[-98.9957,21.2977,354.5051],[-99.0023,21.298,385.4463],[-99.0134,21.2952,395.873],[-99.0154,21.2926,406.9499],[-99.0221,21.29,439.9069],[-99.0233,21.2872,402.5859],[-99.026,21.2872,497.7252],[-99.0302,21.2839,450.2598],[-99.0317,21.286,443.0146],[-99.0371,21.2826,450.3369],[-99.0393,21.2842,519.0025],[-99.0435,21.2794,486.8922],[-99.0467,21.2797,570.4305],[-99.0465,21.2821,565.7576],[-99.0488,21.2814,539.125],[-99.0498,21.2832,500.3629],[-99.0551,21.2825,501.4872],[-99.0532,21.2816,537.4697],[-99.0506,21.2747,736.8105],[-99.0523,21.27,1026.9877],[-99.0512,21.2534,1195.5366],[-99.0554,21.2505,1418.551],[-99.0568,21.247,1502.7661],[-99.0699,21.2431,1548.5516],[-99.0734,21.2388,1546.0171],[-99.0735,21.2304,1551.9357],[-99.0675,21.2233,1537.0728],[-99.0561,21.2224,1227.0984],[-99.0524,21.2195,987.5637],[-99.0526,21.2128,1058.5271],[-99.0504,21.2099,956.9024],[-99.0431,21.1787,634.4567],[-99.0479,21.1779,438.4178],[-99.0467,21.1741,464.278],[-99.0486,21.1698,412.7604],[-99.0541,21.1655,363.2918],[-99.0547,21.1595,287.6008],[-99.0575,21.1597,297.7407],[-99.0613,21.1542,285.3063],[-99.0727,21.158,302.4534],[-99.0643,21.167,310.2507],[-99.0598,21.1675,316.602],[-99.0624,21.1743,349.0577],[-99.0647,21.1751,317.5443],[-99.0717,21.1722,303.0203],[-99.0765,21.1735,330.8127],[-99.0778,21.1707,314.1763],[-99.0709,21.1676,406.5218],[-99.0712,21.166,412.527],[-99.0769,21.1624,327.6288],[-99.077,21.1591,339.7442],[-99.084,21.1596,353.498],[-99.0906,21.1531,339.0297],[-99.096,21.1547,352.3758],[-99.1035,21.1534,374.1143],[-99.1104,21.1566,336.8502],[-99.1121,21.1546,351.8898],[-99.1107,21.1496,334.2016],[-99.112,21.1483,354.6226],[-99.1268,21.1467,422.1689],[-99.1301,21.1521,458.8435],[-99.1326,21.153,374.2558],[-99.1391,21.1508,424.147],[-99.1442,21.1451,404.7404],[-99.1505,21.1478,420.2636],[-99.1635,21.1399,454.7999],[-99.1673,21.1401,423.9751],[-99.171,21.1375,443.5978],[-99.1762,21.1378,430.0802],[-99.1802,21.1274,526.5723],[-99.1846,21.1223,470.1253],[-99.1958,21.1219,476.5284],[-99.2062,21.1187,548.1563],[-99.21,21.1151,528.1456],[-99.2095,21.1102,595.3623],[-99.2141,21.1068,514.36],[-99.2236,21.1057,470.7102],[-99.2261,21.108,475.6751],[-99.2306,21.1076,476.6039],[-99.2342,21.1128,504.6287],[-99.2477,21.1013,632.7538],[-99.2531,21.1043,555.0828],[-99.256,21.1042,527.8142],[-99.2618,21.1094,529.3143],[-99.2713,21.1131,572.3634],[-99.2722,21.1148,551.025],[-99.2703,21.119,558.6866],[-99.2723,21.1216,553.4862],[-99.2761,21.1234,541.8369],[-99.2782,21.1203,572.7655],[-99.2826,21.1224,604.0692],[-99.2839,21.1254,600.7419],[-99.2832,21.1318,582.3205],[-99.2869,21.131,573.7865],[-99.2885,21.1358,588.5275],[-99.2958,21.1418,567.4943],[-99.3027,21.1394,531.5721],[-99.3049,21.1444,643.6249],[-99.3092,21.1473,618.0796],[-99.3233,21.1396,593.4955],[-99.3254,21.134,576.0001],[-99.3311,21.1301,584.6789],[-99.3359,21.1303,552.8031],[-99.3376,21.1261,563.8806],[-99.3418,21.1237,581.448],[-99.3439,21.1145,612.5134],[-99.3412,21.1101,569.2046],[-99.344,21.1073,563.649],[-99.3464,21.1009,571.2124],[-99.3533,21.1029,608.7499],[-99.3588,21.0997,583.1683],[-99.361,21.1048,639.4871],[-99.3668,21.1019,667.1986],[-99.3718,21.1018,608.1941],[-99.3769,21.0982,631.1445],[-99.3793,21.1018,647.3507],[-99.3821,21.1013,624.0237],[-99.3885,21.1041,627.7964],[-99.3915,21.101,650.2977],[-99.3973,21.1021,729.2839],[-99.397,21.0984,719.7502],[-99.3995,21.0952,709.2791],[-99.3987,21.089,736.2428],[-99.3945,21.0853,802.9257],[-99.3943,21.0794,1080.3044],[-99.3888,21.0793,828.8345],[-99.388,21.0765,986.8899],[-99.3896,21.0718,969.3132],[-99.3877,21.0678,861.4747],[-99.3842,21.0679,918.4071],[-99.3758,21.0734,691.1613],[-99.3723,21.0733,723.8752],[-99.3674,21.0695,717.9417],[-99.3663,21.0662,747.6411],[-99.3682,21.0618,907.7714],[-99.3694,21.0608,907.7714],[-99.3736,21.0621,835.3347],[-99.3767,21.0594,739.7055],[-99.3771,21.0566,762.9395],[-99.3719,21.0558,791.4391],[-99.3679,21.0495,797.0361],[-99.3642,21.0492,754.9637],[-99.3648,21.0438,779.979],[-99.3632,21.0417,803.7549],[-99.3675,21.0375,851.6436],[-99.3665,21.0338,826.4846],[-99.3684,21.0248,878.6906],[-99.3752,21.0243,860.9435],[-99.3773,21.021,1000.4505],[-99.3846,21.0181,822.9482],[-99.3851,21.0155,945.032],[-99.3832,21.0122,1097.417],[-99.384,21.0074,1118.3699],[-99.39,21.0041,983.0003],[-99.3897,21.0004,1057.3285],[-99.3919,20.9975,1059.4363],[-99.3937,20.9904,1100.1714],[-99.3913,20.9867,1037.2432],[-99.3934,20.9827,1039.6251],[-99.3963,20.9811,1383.8011],[-99.3947,20.9731,1193.5813],[-99.3883,20.9662,1049.0483],[-99.3912,20.9635,940.8324],[-99.3927,20.9583,894.1759],[-99.3906,20.9523,887.8149],[-99.3977,20.9431,893.8242],[-99.4072,20.9371,923.9717],[-99.4066,20.9341,925.6068],[-99.404,20.9359,933.7916],[-99.4023,20.9342,898.1874],[-99.403,20.9302,889.9453],[-99.4156,20.9249,912.6852],[-99.4134,20.9222,956.0411],[-99.4151,20.9185,929.8343],[-99.4127,20.9137,892.4181],[-99.4126,20.9054,964.5956],[-99.4352,20.8994,923.2124],[-99.435,20.8907,937.1637],[-99.4376,20.8853,972.4049],[-99.442,20.8813,954.5786],[-99.4402,20.878,931.1979],[-99.4407,20.8718,933.6656],[-99.443,20.8705,942.0103],[-99.4486,20.8585,940.695],[-99.4455,20.8545,1017.0709],[-99.4461,20.853,953.7266],[-99.4482,20.8527,942.9135],[-99.4521,20.8578,954.9382],[-99.4544,20.858,954.8197],[-99.457,20.8554,958.2102],[-99.4556,20.8501,1000.8499],[-99.4565,20.849,953.8604],[-99.4592,20.8479,967.4043],[-99.4655,20.8492,1040.6036],[-99.4693,20.8447,990.0201],[-99.4756,20.8429,1027.2272],[-99.4792,20.8393,1034.7212],[-99.4826,20.8392,1067.9062],[-99.4887,20.8329,1070.8525],[-99.4847,20.8264,1220.9939],[-99.4853,20.8178,1160.1627],[-99.4932,20.8111,1197.6379],[-99.4941,20.8068,1108.7191],[-99.4997,20.8043,1109.0167],[-99.4976,20.8023,1115.8909],[-99.4893,20.8022,1145.4204],[-99.4887,20.7994,1123.8896],[-99.4915,20.795,1143.7059],[-99.4973,20.7909,1120.0703],[-99.5038,20.7948,1172.8824],[-99.5022,20.7872,1158.5297],[-99.4974,20.7847,1123.53],[-99.4963,20.7824,1131.5682],[-99.4971,20.7808,1157.1343],[-99.5012,20.7796,1160.4863],[-99.5024,20.7739,1145.5244],[-99.5065,20.7717,1147.3776],[-99.5038,20.7658,1149.722],[-99.5097,20.7657,1172.2094],[-99.5184,20.7599,1153.3583],[-99.5217,20.7545,1148.8483],[-99.5255,20.7562,1150.3381],[-99.5287,20.752,1162.0283],[-99.5375,20.7495,1293.647],[-99.5394,20.7467,1448.7681],[-99.5428,20.7462,1372.881],[-99.5485,20.7372,1407.411],[-99.5474,20.7284,1327.8868],[-99.5441,20.7258,1606.6141],[-99.5453,20.7236,1336.5842],[-99.5433,20.7212,1352.5836],[-99.5437,20.7184,1519.364],[-99.5397,20.7168,1459.451],[-99.5394,20.7139,1419.6472],[-99.5357,20.7117,1324.7814],[-99.5343,20.706,1364.3651],[-99.5284,20.7051,1525.2017],[-99.5264,20.7027,1315.2273],[-99.5227,20.7017,1316.8933],[-99.5096,20.6897,1339.5511],[-99.5089,20.6862,1353.2461],[-99.5055,20.6847,1372.2695],[-99.5062,20.6823,1442.208],[-99.5049,20.6808,1600.1959],[-99.511,20.6784,1679.2925],[-99.5038,20.6718,1656.0211],[-99.5006,20.673,1653.1938],[-99.5009,20.671,1659.6144],[-99.5043,20.6687,1676.1754],[-99.5013,20.6644,1674.8149],[-99.5019,20.659,1554.0],[-99.5188,20.6585,1554.0],[-99.527,20.6566,1554.0],[-99.536,20.6506,1554.0],[-99.5388,20.6437,1554.0],[-99.5569,20.6436,1554.0],[-99.5653,20.6404,1554.0],[-99.5682,20.6361,1554.0],[-99.5735,20.635,1554.0],[-99.5753,20.6307,1554.0],[-99.5786,20.6285,1554.0],[-99.5789,20.6188,1554.0],[-99.5817,20.6179,1554.0],[-99.5877,20.6208,1554.0],[-99.5897,20.6204,1557.1624],[-99.5938,20.616,1561.4934],[-99.5927,20.6108,1554.0],[-99.5984,20.6077,1554.0],[-99.6074,20.6064,1554.0],[-99.6094,20.6004,1562.0371],[-99.6125,20.5993,1554.0],[-99.6129,20.595,1554.0],[-99.6164,20.5944,1582.5471],[-99.6195,20.5914,1554.0],[-99.6242,20.594,1559.1289],[-99.6225,20.5977,1603.6357],[-99.6242,20.6006,1611.2612],[-99.6316,20.6031,1554.0],[-99.6346,20.6057,1573.5333],[-99.6425,20.6043,1591.7299],[-99.6477,20.6015,1587.1566],[-99.6579,20.6018,1605.6675],[-99.6633,20.5941,1611.0054],[-99.6686,20.5936,1598.5833],[-99.6694,20.5908,1601.3469],[-99.6741,20.5886,1648.502],[-99.6803,20.5889,1670.6582],[-99.6787,20.5853,1615.0571],[-99.6825,20.5837,1630.1044],[-99.6844,20.5791,1641.6227],[-99.6905,20.5814,1633.4926],[-99.6949,20.581,1685.5557],[-99.6961,20.5788,1654.7581],[-99.6942,20.5764,1646.26],[-99.6964,20.5744,1643.6764],[-99.7051,20.5767,1698.8704],[-99.709,20.5808,1658.7946],[-99.712,20.5813,1658.8936],[-99.7126,20.5781,1682.6776],[-99.7145,20.5769,1676.8812],[-99.7282,20.5751,1718.3054],[-99.7314,20.5679,1709.3909],[-99.7335,20.5677,1723.5247],[-99.7387,20.5605,1718.5377],[-99.7459,20.5593,1724.1313],[-99.7534,20.563,1747.9092],[-99.7563,20.5614,1819.0563],[-99.7684,20.5598,1844.3352],[-99.7697,20.5575,1832.1648],[-99.7739,20.56,1793.3546],[-99.7775,20.5585,1783.1772],[-99.7793,20.5593,1810.4983],[-99.7853,20.5534,1817.9512],[-99.7949,20.5511,1839.5168],[-99.8046,20.5448,1877.0723],[-99.8213,20.5406,1858.606],[-99.8281,20.543,1855.4326],[-99.8595,20.2646,2247.3218],[-99.8557,20.2699,2259.3137],[-99.8497,20.2715,2260.364],[-99.8457,20.2749,2263.5669],[-99.8444,20.2763,2264.6372],[-99.846,20.2778,2263.9373],[-99.8419,20.2819,2260.3411],[-99.7904,20.238,2294.5044],[-99.7881,20.23,2312.7114],[-99.7935,20.2314,2309.8984],[-99.7952,20.2277,2312.3032],[-99.7884,20.2231,2322.5615],[-99.7537,20.1909,2454.5869],[-99.7426,20.1836,2480.3689],[-99.7403,20.178,2503.1892],[-99.7358,20.1774,2515.1621],[-99.7292,20.172,2551.5034],[-99.7232,20.1705,2564.8787],[-99.7194,20.1671,2589.4773],[-99.7107,20.1662,2584.6831],[-99.701,20.1727,2515.2627],[-99.6875,20.1712,2555.4722],[-99.6816,20.1703,2569.0725],[-99.6777,20.1668,2614.3008],[-99.6769,20.1625,2642.8872],[-99.6694,20.1793,2544.6375],[-99.6597,20.1808,2523.8076],[-99.6568,20.1691,2567.2234],[-99.6579,20.168,2580.1575],[-99.6551,20.1631,2595.4756],[-99.641,20.1642,2630.8447],[-99.6396,20.1592,2645.5393],[-99.6361,20.1582,2671.3472],[-99.6353,20.1518,2708.3779],[-99.6306,20.1457,2794.3301],[-99.6125,20.1594,2530.0669],[-99.6117,20.1615,2514.6274],[-99.6022,20.1679,2455.3892],[-99.6014,20.1669,2452.0938],[-99.5996,20.1697,2431.5442],[-99.5868,20.1673,2449.3855],[-99.5822,20.1625,2476.6177],[-99.5826,20.1644,2460.1333],[-99.5813,20.1642,2494.0835],[-99.5814,20.162,2480.7976],[-99.5763,20.1621,2579.1931],[-99.5726,20.1643,2595.2422],[-99.5714,20.1702,2519.2593],[-99.5621,20.1691,2513.4668],[-99.5593,20.1708,2486.54],[-99.5507,20.1714,2435.6038],[-99.5504,20.1664,2414.0598],[-99.5483,20.1631,2418.6206],[-99.5347,20.1639,2421.1362],[-99.5335,20.1621,2412.5195],[-99.5318,20.1638,2377.8979],[-99.5287,20.1636,2374.8379],[-99.5259,20.1733,2358.1072],[-99.5175,20.1757,2355.0681],[-99.5122,20.1751,2369.0881],[-99.5018,20.1533,2381.332],[-99.5084,20.1504,2369.7524],[-99.5167,20.1504,2366.5015],[-99.5163,20.1488,2366.5015],[-99.5187,20.1483,2357.5237],[-99.5181,20.1457,2354.1794],[-99.5117,20.1409,2340.8303],[-99.5013,20.127,2325.261],[-99.4966,20.1194,2297.2856],[-99.4971,20.1162,2298.3777],[-99.4949,20.1109,2286.3928],[-99.4926,20.1109,2264.2812],[-99.488,20.1073,2271.668],[-99.4835,20.101,2264.1514],[-99.481,20.0822,2330.772],[-99.4598,20.0655,2302.5364],[-99.4582,20.055,2298.5728],[-99.4484,20.0422,2287.5044],[-99.4369,20.0013,2312.6431],[-99.438,19.9976,2313.1453],[-99.4455,19.9912,2318.4065],[-99.4436,19.9888,2320.3516],[-99.4447,19.9848,2325.3748],[-99.4481,19.9831,2324.6667],[-99.448,19.9817,2325.1589],[-99.4546,19.9812,2342.4307],[-99.4551,19.9797,2342.2188],[-99.4545,19.975,2338.8259],[-99.4517,19.9745,2340.874],[-99.4537,19.9721,2339.8896],[-99.4502,19.9642,2259.7],[-99.452,19.9633,2293.1211],[-99.4587,19.9665,2288.5427],[-99.4643,19.9636,2331.4937],[-99.473,19.9632,2342.7119],[-99.474,19.9615,2371.4348],[-99.4778,19.9606,2360.7031],[-99.4772,19.9548,2393.9531],[-99.4736,19.9544,2401.1743],[-99.484,19.9052,2961.8147],[-99.4804,19.9047,2843.3987],[-99.4774,19.8983,2727.4692],[-99.4709,19.8986,2635.0183],[-99.4641,19.8951,2553.7874],[-99.4639,19.8926,2528.772],[-99.4508,19.8946,2458.3894],[-99.4359,19.9031,2368.6919],[-99.4372,19.8997,2403.8323],[-99.436,19.8961,2482.9639],[-99.4452,19.8843,2469.8718],[-99.4328,19.8754,2344.7705],[-99.4304,19.8709,2329.5964],[-99.4268,19.875,2363.5415],[-99.421,19.8551,2318.3743],[-99.415,19.8505,2272.2761],[-99.3918,19.8599,2348.9204],[-99.3883,19.8574,2344.468],[-99.3802,19.8559,2291.7065],[-99.3732,19.8515,2183.8931],[-99.3744,19.8467,2168.8789],[-99.377,19.845,2170.3879],[-99.3743,19.842,2234.4812],[-99.3744,19.8379,2280.8423],[-99.3787,19.8352,2253.5002],[-99.3814,19.8314,2293.5957],[-99.3815,19.8203,2263.7349],[-99.383,19.8209,2247.9595],[-99.3831,19.8187,2270.23],[-99.3847,19.8186,2248.9072],[-99.3867,19.813,2254.1104],[-99.3864,19.8044,2292.145],[-99.3842,19.8032,2316.1543],[-99.3827,19.7992,2330.6284],[-99.3775,19.7965,2311.0352],[-99.3881,19.7917,2341.6797],[-99.3903,19.7857,2365.4407],[-99.3888,19.7854,2365.3174],[-99.3894,19.7835,2364.6606],[-99.3872,19.783,2348.4832],[-99.3812,19.7841,2271.2417],[-99.383,19.7808,2290.6272],[-99.3859,19.7797,2292.792],[-99.3844,19.7791,2292.792],[-99.3879,19.7779,2313.99],[-99.3868,19.7759,2364.1387],[-99.3858,19.7771,2316.7607],[-99.3843,19.7759,2346.927],[-99.383,19.7714,2356.2073],[-99.3739,19.7759,2262.9404],[-99.3706,19.7818,2269.9077],[-99.3674,19.7801,2354.2566],[-99.3578,19.7816,2295.8506],[-99.3524,19.7759,2369.3511],[-99.3446,19.7795,2270.071],[-99.3427,19.7824,2267.8806],[-99.346,19.7847,2260.3977],[-99.3438,19.7872,2299.3259],[-99.3461,19.7876,2265.9834],[-99.3443,19.7914,2265.3677],[-99.3457,19.7931,2246.0398],[-99.345,19.7955,2231.9038],[-99.3429,19.7961,2317.4365],[-99.3426,19.7941,2324.6418],[-99.3424,19.796,2308.9731],[-99.3403,19.7943,2322.9688],[-99.3387,19.802,2246.22],[-99.3359,19.8013,2240.5391],[-99.3355,19.7977,2272.4773],[-99.3308,19.7967,2298.1326],[-99.3256,19.7931,2345.8872],[-99.3239,19.7929,2358.1235],[-99.3216,19.7957,2323.1057],[-99.3066,19.7977,2271.3523],[-99.3127,19.8052,2237.5967],[-99.3114,19.8091,2222.2026],[-99.3069,19.813,2229.0017],[-99.3077,19.8145,2231.3523],[-99.3082,19.8127,2224.1785],[-99.3086,19.8145,2228.5999],[-99.3119,19.8142,2243.3328],[-99.3086,19.8174,2265.1555],[-99.3086,19.8193,2278.7388],[-99.3059,19.8206,2271.7598],[-99.3062,19.8227,2247.8352],[-99.3031,19.8267,2259.2168],[-99.3009,19.8273,2288.5718],[-99.3011,19.8292,2282.7786],[-99.2969,19.8352,2290.0728],[-99.2863,19.8372,2334.416],[-99.2851,19.8406,2323.9426],[-99.2816,19.8426,2281.8162],[-99.2787,19.8404,2276.4741],[-99.2754,19.8529,2287.9946],[-99.2695,19.8596,2335.9321],[-99.2547,19.8591,2376.8926],[-99.2531,19.8602,2396.446]]]]}}