{"type":"Feature","properties":{"featurecla":"River","scalerank":11,"rivernum":22274,"dissolve":"22274River","name":"Cazones","name_alt":null,"note":"ID is link back to CEC data","name_full":"Cazones","min_zoom":6.7,"strokeweig":0.15,"uident":2028901,"min_label":7.7},
"geometry":{"type": "LineString","coordinates": [[-98.140451626687067,20.183213608848206,2066.5479],[-98.156564907937067,20.215155340619035,1507.2368],[-98.157460090228724,20.226182358848206,1708.2905],[-98.1207576162704,20.270290431764863,1370.7837],[-98.115101691791224,20.285508530723206,969.8538],[-98.114328579812067,20.301865952598206,1214.9358],[-98.108265754291224,20.310980535931535,1001.0727],[-98.103993293353724,20.316473699994035,1044.4333],[-98.074533657937067,20.311712957806535,1017.5208],[-98.067209439187067,20.307888088014863,923.8973],[-98.063343879291224,20.305934963014863,927.1082],[-98.059315558978724,20.306708074994035,900.8116],[-98.0589900381454,20.306748765098206,900.8116],[-98.050648566791224,20.308417059369035,1004.4804],[-98.0401912100204,20.334336655723206,1046.7457],[-98.033436652728724,20.335231838014863,786.9396],[-98.0106501943954,20.331651108848206,641.5223],[-97.991525845437067,20.320379949994035,416.8369],[-97.966379361062067,20.358262436973206,943.9829]]}}