{"type": "Feature","bbox": [-98.709,20.4138,-98.5035,20.6278],"geometry": {"type": "MultiPolygon","coordinates": [[[[-98.5504,20.4325,1780.9],[-98.5497,20.4354,1748.7123],[-98.5524,20.4355,1751.0625],[-98.5545,20.4389,1769.3203],[-98.5552,20.4428,1742.5365],[-98.5539,20.4467,1774.1442],[-98.5719,20.4636,1547.124],[-98.5724,20.4669,1547.2903],[-98.5767,20.4707,1524.3142],[-98.5754,20.4725,1555.9244],[-98.5788,20.4734,1546.1073],[-98.5768,20.4762,1535.7579],[-98.5789,20.4763,1519.5752],[-98.5795,20.4793,1538.1907],[-98.5863,20.4829,1494.8442],[-98.5858,20.4849,1478.3564],[-98.5882,20.4875,1484.175],[-98.594,20.4896,1464.4598],[-98.5951,20.4944,1473.4767],[-98.5973,20.4958,1461.2363],[-98.5932,20.4995,1504.0857],[-98.587,20.5012,1567.6746],[-98.5824,20.5055,1591.5498],[-98.5767,20.5043,1635.7288],[-98.5711,20.509,1692.6117],[-98.5667,20.5079,1710.9448],[-98.5576,20.5094,1742.8252],[-98.5585,20.5114,1756.2117],[-98.5546,20.5187,1833.283],[-98.5456,20.521,2026.2603],[-98.5378,20.527,2060.0994],[-98.5382,20.528199999999998,2064.6143],[-98.5347,20.5307,2082.3376],[-98.5308,20.5402,2158.583],[-98.5261,20.5442,2053.8623],[-98.5245,20.5484,2051.1953],[-98.5257,20.5511,2045.6411],[-98.5241,20.5525,2014.9719],[-98.5226,20.5592,1981.5609],[-98.5241,20.561,1961.8849],[-98.5234,20.5673,1937.9445],[-98.5249,20.5708,1926.0208],[-98.5237,20.572,1945.7646],[-98.5243,20.5755,1909.9298],[-98.5223,20.5772,1901.7827],[-98.523,20.5818,1896.645],[-98.5122,20.5942,1890.2292],[-98.5059,20.5962,1766.6962],[-98.5035,20.6003,1749.1636],[-98.5055,20.6006,1759.6925],[-98.5041,20.6053,1725.5961],[-98.5071,20.6085,1582.7761],[-98.5088,20.6157,1302.0093],[-98.5167,20.6213,1043.7749],[-98.5195,20.6267,1018.3889],[-98.5252,20.6256,1018.9679],[-98.528,20.6278,1078.8414],[-98.5341,20.6277,1152.2966],[-98.5412,20.6256,1169.6647],[-98.5437,20.6239,1171.7039],[-98.5434,20.6217,1254.0171],[-98.5491,20.6189,1243.0253],[-98.5494,20.6146,1255.4727],[-98.5479,20.6141,1274.3826],[-98.5471,20.6104,1284.8907],[-98.55,20.6055,1296.3176],[-98.5535,20.6057,1316.6302],[-98.5567,20.6101,1416.3397],[-98.5652,20.6131,1577.559],[-98.5685,20.6026,1487.5087],[-98.5816,20.5945,1853.7013],[-98.5875,20.5954,1942.1196],[-98.5988,20.590699999999998,1966.5977],[-98.6122,20.5885,1960.1553],[-98.6157,20.5894,1973.295],[-98.6147,20.5914,1981.2446],[-98.6205,20.5928,1973.6864],[-98.621,20.5948,1989.2258],[-98.6231,20.593,1966.6129],[-98.6262,20.5972,1964.3875],[-98.6269,20.5913,1804.1548],[-98.6324,20.5899,1765.6814],[-98.6359,20.5911,1688.6191],[-98.6396,20.5873,1592.0808],[-98.6429,20.5867,1587.6915],[-98.6445,20.5831,1472.2947],[-98.6411,20.5821,1466.2277],[-98.6386,20.5753,1489.403],[-98.6393,20.5696,1489.2662],[-98.6458,20.5627,1423.926],[-98.6471,20.5552,1440.869],[-98.6531,20.5577,1527.5952],[-98.655,20.5608,1616.8314],[-98.6607,20.5615,1756.7472],[-98.6654,20.5678,1892.9219],[-98.6693,20.5638,1923.661],[-98.6696,20.5606,1875.2576],[-98.6763,20.5649,1940.3428],[-98.6795,20.5707,1946.6088],[-98.6856,20.5708,1935.3928],[-98.6811,20.5652,1890.4519],[-98.6815,20.5627,1893.3081],[-98.6789,20.5578,1752.4937],[-98.6826,20.5532,1632.733],[-98.6816,20.5493,1594.9519],[-98.6881,20.5422,1367.0458],[-98.6874,20.5394,1302.2971],[-98.6903,20.5385,1296.3508],[-98.7072,20.5404,1288.0707],[-98.709,20.5381,1384.0168],[-98.7051,20.5361,1348.2814],[-98.7081,20.5293,1461.9097],[-98.7081,20.5251,1581.1613],[-98.6981,20.5272,1520.3447],[-98.6931,20.5302,1443.0237],[-98.6845,20.5297,1312.7781],[-98.6875,20.5271,1343.3513],[-98.6874,20.5149,1496.827],[-98.6894,20.5145,1499.1823],[-98.6902,20.5114,1549.046],[-98.6936,20.5094,1576.9688],[-98.6833,20.5008,1561.2388],[-98.6818,20.4964,1605.5658],[-98.6765,20.4905,1563.5632],[-98.6774,20.4884,1496.2845],[-98.6827,20.4855,1373.1288],[-98.6819,20.4815,1299.5662],[-98.6797,20.4823,1342.8894],[-98.6778,20.4806,1400.3713],[-98.6775,20.476,1330.8914],[-98.6749,20.4759,1357.6423],[-98.6769,20.4743,1353.6448],[-98.6685,20.4709,1313.6901],[-98.6684,20.4676,1311.6351],[-98.6705,20.4672,1308.4614],[-98.6699,20.4621,1307.7781],[-98.6631,20.4597,1312.4849],[-98.6591,20.4494,1335.713],[-98.6566,20.4476,1350.1963],[-98.6583,20.4421,1328.7832],[-98.6605,20.4415,1383.4629],[-98.6623,20.4378,1418.2753],[-98.6574,20.4395,1357.4077],[-98.6554,20.4343,1412.8414],[-98.6571,20.4312,1361.0775],[-98.6522,20.4306,1436.6917],[-98.6459,20.4256,1557.1749],[-98.6368,20.4216,1711.835],[-98.6294,20.4216,1837.0658],[-98.6238,20.4138,1865.5229],[-98.6048,20.4253,1846.3795],[-98.6049,20.4286,1822.8486],[-98.6063,20.4291,1808.0839],[-98.603,20.4307,1803.6295],[-98.5996,20.4371,1751.49],[-98.5937,20.4373,1818.7397],[-98.589,20.4404,1781.0616],[-98.5837,20.4399,1811.9031],[-98.5806,20.4363,1831.4568],[-98.5719,20.4344,1932.8008],[-98.5706,20.4323,1944.2391],[-98.5718,20.4377,1945.3331],[-98.5676,20.4355,1930.8271],[-98.5587,20.4359,1933.7224],[-98.5505,20.4339,1759.4792],[-98.5504,20.4325,1780.9]]]]}
,"properties": {"GID_2": "MEX.13.50_2","GID_0": "MEX","country": "México","GID_1": "MEX.13_1","province": "Hidalgo","NL_NAME_1": "NA","county": "SanAgustínMetzquititlán","VARNAME_2": "NA","NL_NAME_2": "NA","TYPE_2": "Município","ENGTYPE_2": "Municipality","CC_2": "NA","HASC_2": "NA","name": "San_Agustín_Metzquititlán.county","area_km2": 246.8749,"hist_schema_id": "Elevation0-9000","hist_area_km2": {"1000": 0.0198,"1025": 0.0794,"1050": 0.0992,"1075": 0.0992,"1100": 0.1984,"1125": 0.1984,"1150": 0.1587,"1175": 0.2183,"1200": 0.1389,"1225": 0.1587,"1250": 0.2778,"1275": 0.3175,"1300": 2.2833,"1325": 4.6067,"1350": 5.0038,"1375": 5.7783,"1400": 6.0958,"1425": 6.4137,"1450": 6.8704,"1475": 7.7841,"1500": 8.2211,"1525": 8.082,"1550": 8.2013,"1575": 7.5061,"1600": 7.7844,"1625": 7.9834,"1650": 9.3141,"1675": 9.9699,"1700": 12.4332,"1725": 9.6525,"1750": 7.5872,"1775": 6.9117,"1800": 6.1965,"1825": 4.8653,"1850": 5.3616,"1875": 5.7181,"1900": 6.2338,"1925": 9.2705,"1950": 16.6743,"1975": 9.0324,"2000": 7.1667,"2025": 6.3527,"2050": 3.7919,"2075": 2.9184,"2100": 2.4221,"2125": 2.3229,"2150": 2.442,"2175": 1.7074,"2200": 1.6478,"2225": 0.7346,"2250": 0.7743,"2275": 0.536,"2300": 0.1985,"2325": 0.0397,"2350": 0.0199}}}