{"type":"Feature","properties":{"GID_2":"MEX.20.451_2","GID_0":"MEX","country":"México","GID_1":"MEX.20_1","province":"Oaxaca","NL_NAME_1":"NA","county":"SantaMaríaZaniza","VARNAME_2":"NA","NL_NAME_2":"NA","TYPE_2":"Município","ENGTYPE_2":"Municipality","CC_2":"NA","HASC_2":"NA","name":"Santa_María_Zaniza.county"},
"geometry":{"type": "MultiPolygon","coordinates": [[[[-97.4507,16.6646,883.0839],[-97.4286,16.6184,867.6812],[-97.4126,16.6044,1011.7698],[-97.4079,16.5991,735.9698],[-97.4074,16.5965,699.0225],[-97.4047,16.5971,734.0673],[-97.3892,16.5783,795.3813],[-97.3812,16.5865,762.0327],[-97.3711,16.5906,818.6144],[-97.3673,16.5896,797.1853],[-97.3627,16.5807,875.1085],[-97.359,16.5813,872.4677],[-97.3616,16.5857,842.5331],[-97.355,16.5953,856.2516],[-97.3541,16.6022,899.9003],[-97.3499,16.6057,933.5093],[-97.3492,16.6101,983.1667],[-97.3462,16.6133,1053.5315],[-97.3381,16.6177,1222.4716],[-97.331,16.6177,1403.8561],[-97.2948,16.6056,1460.6212],[-97.2859,16.6085,1463.8519],[-97.2799,16.6139,1689.067],[-97.2731,16.6159,1747.0728],[-97.2666,16.6267,1993.5269],[-97.2602,16.6299,1855.4437],[-97.2579,16.6384,1901.0708],[-97.2468,16.6422,1952.1708],[-97.2752,16.6601,2039.2736],[-97.2784,16.6496,2073.5459],[-97.2853,16.6536,1867.4324],[-97.2977,16.6575,1747.6322],[-97.2991,16.6605,1876.1577],[-97.292,16.6703,1946.3983],[-97.3212,16.6895,1544.8373],[-97.4086,16.6858,1625.7837],[-97.4345,16.6783,937.4158],[-97.4507,16.6646,883.0839]]]]}}