{"type":"Feature","properties":{"GID_2":"MEX.20.230_2","GID_0":"MEX","country":"México","GID_1":"MEX.20_1","province":"Oaxaca","NL_NAME_1":"NA","county":"SanLorenzoAlbarradas","VARNAME_2":"NA","NL_NAME_2":"NA","TYPE_2":"Município","ENGTYPE_2":"Municipality","CC_2":"NA","HASC_2":"NA","name":"San_Lorenzo_Albarradas.county"},
"geometry":{"type": "MultiPolygon","coordinates": [[[[-96.1984,16.8107,1836.5996],[-96.1687,16.8146,1003.0071],[-96.1502,16.811,1211.1787],[-96.1509,16.8252,1311.426],[-96.1584,16.8493,1521.8475],[-96.168,16.8574,1387.2323],[-96.1829,16.8578,1070.1532],[-96.1894,16.8615,1099.0507],[-96.1899,16.8638,1125.8711],[-96.1922,16.8627,1084.9502],[-96.1946,16.8651,1096.7457],[-96.2024,16.8649,1105.2507],[-96.2045,16.868,1144.6139],[-96.2089,16.8677,1151.3713],[-96.2162,16.8737,1165.3568],[-96.224,16.8743,1170.9154],[-96.2256,16.8766,1202.3003],[-96.2304,16.8778,1185.2111],[-96.2178,16.8975,1490.8333],[-96.2127,16.8996,1514.4924],[-96.2054,16.8943,1568.4644],[-96.2039,16.8952,1602.1747],[-96.1984,16.9087,1445.5122],[-96.1916,16.9157,1346.2057],[-96.1815,16.9214,1269.7393],[-96.1846,16.9234,1265.9685],[-96.1852,16.9216,1304.9604],[-96.1961,16.9229,1328.8701],[-96.2043,16.9261,1400.9453],[-96.2057,16.9288,1352.2362],[-96.2044,16.9382,1422.5724],[-96.2099,16.941,1390.3663],[-96.2078,16.9437,1415.8848],[-96.2136,16.9449,1438.3917],[-96.2161,16.9501,1484.9834],[-96.2359,16.9581,1494.399],[-96.237799999999993,16.9634,1509.7091],[-96.2413,16.9655,1523.1353],[-96.243,16.9691,1529.1404],[-96.2497,16.9604,1714.5386],[-96.2547,16.9571,1776.8296],[-96.2828,16.9446,2088.1394],[-96.2843,16.9491,2221.8586],[-96.2896,16.9503,2139.2153],[-96.3147,16.8753,2059.2415],[-96.3132,16.8728,2159.4873],[-96.3077,16.8726,2168.3003],[-96.249,16.8503,1523.8004],[-96.2392,16.8449,1441.3806],[-96.2199,16.8627,1505.5569],[-96.2175,16.8672,1395.38],[-96.2053,16.8393,1681.1165],[-96.1984,16.8107,1836.5996]]]]}}