{"type":"Feature","properties":{"GID_2":"MEX.5.71_2","GID_0":"MEX","country":"México","GID_1":"MEX.5_1","province":"Chiapas","NL_NAME_1":"NA","county":"Osumacinta","VARNAME_2":"NA","NL_NAME_2":"NA","TYPE_2":"Município","ENGTYPE_2":"Municipality","CC_2":"NA","HASC_2":"NA","name":"Osumacinta.county"},
"geometry":{"type": "MultiPolygon","coordinates": [[[[-93.0249,16.8921,526.8391],[-93.0472,16.9211,1142.4696],[-93.0454,16.9315,1071.657],[-93.061,16.938,943.4332],[-93.0663,16.9418,901.6106],[-93.074,16.9378,497.4467],[-93.0829,16.9545,896.5045],[-93.093,16.9555,504.9562],[-93.096,16.9453,479.9299],[-93.1058,16.9557,203.9575],[-93.1009,16.9424,337.9983],[-93.1058,16.9295,412.5777],[-93.1146,16.9294,707.965],[-93.1163,16.9244,679.5312],[-93.1198,16.9225,804.375],[-93.1222,16.9156,789.1932],[-93.1249,16.9143,887.764],[-93.1266,16.9159,1044.5571],[-93.1236,16.9338,893.9048],[-93.118,16.9405,773.346],[-93.1213,16.9388,847.9214],[-93.1219,16.9366,879.0208],[-93.1221,16.9386,863.9164],[-93.1237,16.9392,846.6968],[-93.1199,16.9418,810.8425],[-93.1249,16.9416,905.982],[-93.1259,16.9442,978.42],[-93.128,16.9422,993.6484],[-93.1352,16.9436,1123.9685],[-93.1408,16.9424,1200.2251],[-93.1441,16.9465,1305.2064],[-93.1498,16.944,1345.7126],[-93.1492,16.9347,1643.6978],[-93.1409,16.9287,1482.8058],[-93.1349,16.9181,1244.2827],[-93.1351,16.9104,1254.2454],[-93.1408,16.9093,1239.0292],[-93.1346,16.9061,1155.9307],[-93.1345,16.9005,837.6421],[-93.1224,16.8966,479.4305],[-93.1092,16.8843,408.9932],[-93.1075,16.8807,387.3881],[-93.1091,16.8739,559.641],[-93.1082,16.8716,605.6273],[-93.1125,16.858,633.8469],[-93.1095,16.8457,454.2738],[-93.0922,16.8447,1258.8698],[-93.0904,16.8366,499.0117],[-93.0858,16.8401,657.6331],[-93.0762,16.8438,1034.6829],[-93.0678,16.8439,1201.2891],[-93.063,16.8398,846.7209],[-93.0563,16.8444,1257.9797],[-93.0509,16.8388,1224.1102],[-93.0456,16.8472,1409.7627],[-93.0376,16.8444,1573.1237],[-93.0361,16.8472,1557.6417],[-93.0393,16.8502,1555.6732],[-93.0328,16.8494,1335.7148],[-93.0203,16.8708,1233.7363],[-93.0292,16.8708,1274.0442],[-93.0281,16.8699,1282.3398],[-93.0351,16.8635,1443.741],[-93.054,16.8749,1253.8864],[-93.0562,16.8833,978.7503],[-93.0421,16.8874,848.3752],[-93.0336,16.8857,1005.395],[-93.0362,16.8702,1366.1157],[-93.0346,16.8702,1339.1509],[-93.033,16.878,1325.3833],[-93.0311,16.8782,1321.3025],[-93.03,16.8808,1308.6262],[-93.0304,16.8892,712.0565],[-93.0517,16.891,468.4182],[-93.0508,16.8954,382.0],[-93.0538,16.8945,387.9968],[-93.0617,16.896,431.9387],[-93.0595,16.9098,845.9359],[-93.0378,16.9065,665.3441],[-93.0372,16.8961,427.6607],[-93.033,16.8962,459.8724],[-93.0249,16.8921,526.8391]]]]}}