{"type": "Feature","bbox": [-104.3187,19.9753,-104.0654,20.2955],"geometry": {"type": "MultiPolygon","coordinates": [[[[-104.2833,20.2045,1714.2163],[-104.2862,20.2035,1686.0984],[-104.2873,20.205,1685.8896],[-104.2889,20.2014,1656.2861],[-104.2963,20.2043,1543.1379],[-104.3099,20.2022,1455.6403],[-104.3185,20.1951,1418.6611],[-104.3187,20.1937,1411.468],[-104.3054,20.1918,1479.01],[-104.3004,20.1943,1500.7759],[-104.3017,20.195,1500.7759],[-104.3016,20.1976,1519.485],[-104.3001,20.1975,1519.485],[-104.2998,20.1947,1500.7759],[-104.2951,20.1979,1554.8442],[-104.2939,20.1971,1554.8442],[-104.2951,20.1923,1519.991],[-104.2976,20.1918,1508.6794],[-104.3034,20.1835,1465.8485],[-104.3011,20.1782,1464.6469],[-104.3025,20.1754,1456.6699],[-104.3003,20.1744,1461.5146],[-104.3046,20.1738,1450.6409],[-104.2989,20.1733,1454.8773],[-104.2999,20.1698,1465.1855],[-104.2966,20.1691,1461.3708],[-104.2954,20.1657,1475.6254],[-104.2909,20.1619,1495.2703],[-104.2636,20.1826,1527.6007],[-104.2648,20.1813,1523.988],[-104.264,20.1759,1516.6108],[-104.2654,20.176,1522.4595],[-104.2637,20.1727,1508.1323],[-104.2653,20.1682,1500.8289],[-104.2617,20.1688,1501.124],[-104.2582,20.1724,1505.741],[-104.2543,20.1729,1504.175],[-104.2532,20.1745,1504.4681],[-104.2514,20.1736,1503.8682],[-104.2421,20.1761,1510.1837],[-104.229,20.1847,1531.4978],[-104.2303,20.1877,1547.0635],[-104.2277,20.1865,1538.3245],[-104.2248,20.1876,1544.4578],[-104.224,20.1899,1548.3044],[-104.2246,20.1863,1542.2783],[-104.2149,20.19,1489.6536],[-104.2063,20.1877,1471.9653],[-104.2063,20.1838,1475.3346],[-104.2045,20.1852,1471.7493],[-104.1994,20.184,1460.0066],[-104.1962,20.181,1463.3232],[-104.1973,20.1805,1492.1497],[-104.1966,20.1782,1488.3365],[-104.1943,20.1771,1464.0854],[-104.1984,20.1753,1495.5122],[-104.1972,20.1731,1504.7843],[-104.2006,20.1721,1510.3976],[-104.1988,20.171,1505.4364],[-104.2009,20.1633,1496.5647],[-104.2001,20.1601,1482.1692],[-104.2031,20.1486,1470.809],[-104.2056,20.146,1449.9656],[-104.2054,20.1422,1434.2708],[-104.193,20.1397,1433.1115],[-104.1842,20.1426,1433.8308],[-104.1807,20.1487,1434.2957],[-104.1811,20.1505,1434.3982],[-104.1763,20.1467,1441.8986],[-104.1764,20.1418,1440.8929],[-104.1829,20.127,1459.635],[-104.1808,20.1228,1447.5199],[-104.1812,20.1105,1402.4985],[-104.1789,20.1037,1391.9889],[-104.1831,20.1005,1373.1847],[-104.1845,20.0964,1369.2483],[-104.1891,20.0951,1368.2404],[-104.1854,20.091,1351.2039],[-104.187,20.088,1344.5465],[-104.1825,20.0824,1397.0181],[-104.1826,20.0749,1488.135],[-104.1788,20.0704,1633.6835],[-104.1786,20.0672,1672.5482],[-104.1916,20.0538,1938.084],[-104.1938,20.0443,1603.1892],[-104.1926,20.0414,1566.7545],[-104.1952,20.0379,1540.3047],[-104.1923,20.0339,1526.5648],[-104.1883,20.0347,1530.8988],[-104.1874,20.0321,1522.6068],[-104.183,20.0311,1528.8186],[-104.1835,20.0279,1526.1215],[-104.1823,20.028199999999998,1511.0195],[-104.1812,20.0257,1508.7469],[-104.1799,20.0259,1522.1255],[-104.1802,20.0311,1503.9937],[-104.1722,20.0289,1457.038],[-104.1698,20.0313,1444.1753],[-104.161,20.0305,1404.2539],[-104.1646,20.0302,1477.0135],[-104.1636,20.0283,1448.6715],[-104.1613,20.0287,1431.3422],[-104.1589,20.0263,1395.5665],[-104.1538,20.0248,1379.47],[-104.151,20.0172,1358.9922],[-104.1409,20.0157,1359.3098],[-104.1342,20.0011,1720.5621],[-104.1292,19.999,1645.6228],[-104.1272,19.9971,1564.1647],[-104.1281,19.9959,1544.2908],[-104.1257,19.9951,1534.0544],[-104.1257,19.9915,1521.3994],[-104.1284,19.988,1490.0723],[-104.1275,19.9857,1491.0201],[-104.1298,19.9851,1516.5509],[-104.1298,19.9826,1485.3273],[-104.1309,19.9834,1485.3273],[-104.132,19.9811,1502.7921],[-104.1347,19.9816,1499.5717],[-104.1312,19.9772,1542.5382],[-104.1279,19.9758,1553.5701],[-104.1183,19.9765,1558.5851],[-104.1158,19.9753,1585.517],[-104.112,19.9785,1533.8384],[-104.1089,19.9756,1564.6639],[-104.1031,19.9796,1557.8953],[-104.1016,19.979,1561.4307],[-104.0991,19.9806,1560.7042],[-104.0973,19.9793,1569.8632],[-104.0933,19.9825,1560.5316],[-104.0886,19.9903,1478.9786],[-104.0875,19.9893,1407.1984],[-104.0893,19.9817,1401.1859],[-104.0872,19.9797,1372.8907],[-104.0854,19.9824,1275.3795],[-104.075,19.9839,1071.698],[-104.0715,19.9894,1058.4578],[-104.0665,19.99,995.7305],[-104.0654,19.9926,983.7782],[-104.0664,19.9969,1003.6416],[-104.0688,19.9963,1007.5422],[-104.0721,19.9996,1023.8847],[-104.0758,19.9998,1087.373],[-104.0825,20.0075,1123.098],[-104.0864,20.0073,1120.901],[-104.0891,20.0094,1156.418],[-104.0921,20.016,1140.3975],[-104.1006,20.0225,1298.452],[-104.1014,20.0301,1420.2878],[-104.1121,20.0383,1542.2926],[-104.1305,20.0375,1448.9343],[-104.1368,20.0403,1456.7089],[-104.1422,20.0391,1484.1128],[-104.1274,20.0588,1468.9304],[-104.1316,20.0609,1433.1809],[-104.1312,20.0648,1432.6449],[-104.1286,20.0666,1478.4694],[-104.1326,20.0684,1418.2739],[-104.1333,20.0707,1421.2446],[-104.1301,20.0766,1411.5864],[-104.1265,20.0764,1463.7526],[-104.1264,20.0806,1365.8678],[-104.1313,20.0817,1449.8801],[-104.1321,20.0841,1453.3591],[-104.1371,20.0873,1438.1372],[-104.1353,20.0897,1424.1353],[-104.1344,20.0901,1425.7047],[-104.1328,20.0897,1431.3892],[-104.1315,20.0925,1445.3663],[-104.1295,20.0899,1450.5273],[-104.117,20.0978,1576.1774],[-104.1172,20.1002,1581.1277],[-104.1157,20.0989,1589.5522],[-104.1146,20.1178,1533.8734],[-104.1003,20.1438,1613.808],[-104.1107,20.1536,1671.4888],[-104.1093,20.1721,1250.5444],[-104.1143,20.1738,1261.7598],[-104.1195,20.178,1276.3754],[-104.1175,20.1809,1282.5913],[-104.1196,20.1865,1293.193],[-104.1145,20.1903,1362.0465],[-104.1151,20.192,1319.948],[-104.1167,20.1917,1344.6451],[-104.1124,20.2033,1409.7725],[-104.1253,20.2401,2131.7251],[-104.1245,20.2418,2116.8315],[-104.1431,20.2392,1834.4863],[-104.1505,20.2468,1821.6539],[-104.1472,20.2504,1826.0797],[-104.1452,20.2571,1694.8943],[-104.139,20.2637,1722.2136],[-104.1349,20.2638,1722.4629],[-104.1296,20.2669,1741.5498],[-104.1257,20.2745,1871.6785],[-104.1246,20.2795,2006.6548],[-104.1335,20.283,1961.0011],[-104.131,20.2843,2016.325],[-104.1328,20.2878,1995.2764],[-104.1454,20.2879,1902.1509],[-104.1454,20.2901,1895.6969],[-104.1404,20.2915,1898.4166],[-104.1494,20.2955,1745.9683],[-104.1564,20.2951,1628.625],[-104.1788,20.2773,1630.4875],[-104.1854,20.2396,1477.8972],[-104.1935,20.2474,1476.3943],[-104.2372,20.2119,1533.2668],[-104.2397,20.2111,1548.5688],[-104.241,20.2131,1560.5026],[-104.2428,20.2094,1565.7739],[-104.2497,20.2115,1596.2393],[-104.2518,20.2097,1631.363],[-104.2833,20.2045,1714.2163]]]]}
,"properties": {"GID_2": "MEX.14.92_2","GID_0": "MEX","country": "México","GID_1": "MEX.14_1","province": "Jalisco","NL_NAME_1": "NA","county": "Tenamaxtlán","VARNAME_2": "NA","NL_NAME_2": "NA","TYPE_2": "Município","ENGTYPE_2": "Municipality","CC_2": "NA","HASC_2": "NA","name": "Tenamaxtlán.county","area_km2": 281.5945,"hist_schema_id": "Elevation0-9000","hist_area_km2": {"975": 0.1195,"1000": 0.0996,"1025": 0.0996,"1050": 0.1395,"1075": 0.259,"1100": 0.0797,"1125": 0.259,"1150": 0.2988,"1175": 0.9165,"1200": 1.1952,"1225": 1.7728,"1250": 2.1507,"1275": 3.8433,"1300": 4.7992,"1325": 4.6596,"1350": 7.2282,"1375": 11.1706,"1400": 13.5797,"1425": 14.6938,"1450": 33.4594,"1475": 38.0957,"1500": 31.3503,"1525": 28.3631,"1550": 20.8787,"1575": 12.8773,"1600": 8.5178,"1625": 6.348,"1650": 5.2534,"1675": 4.7755,"1700": 4.298,"1725": 3.4023,"1750": 3.2227,"1775": 2.5065,"1800": 2.2081,"1825": 1.7903,"1850": 1.6511,"1875": 1.1139,"1900": 0.7958,"1925": 0.8555,"1950": 0.7559,"1975": 0.6564,"2000": 0.2984,"2025": 0.179,"2050": 0.1194,"2075": 0.179,"2100": 0.0796,"2125": 0.1194,"2150": 0.0796}}}