{"type": "Feature","bbox": [-88.6964,20.6173,-88.3133,20.865],"geometry": {"type": "MultiPolygon","coordinates": [[[[-88.4966,20.622,35.9174],[-88.4918,20.6435,38.2391],[-88.4926,20.6489,38.3075],[-88.4912,20.6561,38.415],[-88.486,20.6572,31.6403],[-88.4858,20.6585,31.6403],[-88.4779,20.6586,30.1843],[-88.4791,20.6522,35.2763],[-88.4833,20.6493,36.8021],[-88.4833,20.6471,33.0094],[-88.4713,20.646,37.2015],[-88.4709,20.6474,36.942],[-88.4621,20.6469,34.3041],[-88.4503,20.6489,35.2944],[-88.4346,20.6421,32.1166],[-88.4284,20.6411,33.2537],[-88.4257,20.6461,32.1245],[-88.4289,20.6537,35.362],[-88.4419,20.6554,34.8358],[-88.4418,20.6605,35.0806],[-88.4365,20.6603,36.6503],[-88.4365,20.6699,33.9599],[-88.4401,20.6696,38.0912],[-88.4377,20.6826,31.3246],[-88.4384,20.6872,35.5428],[-88.4409,20.6874,35.3259],[-88.4398,20.7,38.4275],[-88.4438,20.7004,37.0847],[-88.4397,20.708,31.0726],[-88.4342,20.7082,36.4997],[-88.4345,20.7183,33.4454],[-88.4243,20.7152,34.2747],[-88.4174,20.7149,27.5904],[-88.4179,20.7095,30.6469],[-88.4047,20.7097,32.3528],[-88.4049,20.7044,32.0171],[-88.3939,20.7028,31.6023],[-88.3907,20.7124,28.3228],[-88.3864,20.7133,28.1065],[-88.3864,20.7225,28.832],[-88.3807,20.7386,35.3677],[-88.3836,20.739,34.0253],[-88.3827,20.7408,35.488],[-88.3856,20.7419,35.5288],[-88.3839,20.7524,29.8312],[-88.3863,20.7533,30.1425],[-88.3862,20.7558,31.3165],[-88.3832,20.7605,25.8468],[-88.3792,20.7584,24.5543],[-88.3764,20.762,27.3005],[-88.3717,20.7593,28.5729],[-88.3476,20.7591,32.6454],[-88.3467,20.7636,32.989],[-88.3484,20.7716,31.362],[-88.3422,20.7699,28.6714],[-88.3418,20.7654,30.5567],[-88.3389,20.7647,30.961],[-88.3393,20.7712,33.6522],[-88.3368,20.7768,35.466],[-88.332,20.7749,32.1887],[-88.3266,20.7753,27.5887],[-88.331,20.7818,32.0675],[-88.3273,20.788,31.5717],[-88.326,20.7985,29.2428],[-88.3194,20.8095,32.1053],[-88.3159,20.8074,29.3531],[-88.3133,20.8121,27.9881],[-88.3278,20.8188,28.4656],[-88.3433,20.8193,32.6766],[-88.3438,20.8302,26.9164],[-88.3457,20.8314,28.6928],[-88.3465,20.8362,27.536],[-88.3571,20.838,29.4109],[-88.3584,20.8316,28.2153],[-88.3684,20.8337,31.6683],[-88.3684,20.8152,33.8021],[-88.3732,20.8021,27.9578],[-88.368,20.7993,32.0034],[-88.3547,20.7998,32.2422],[-88.3546,20.7897,31.5266],[-88.3656,20.7924,30.2857],[-88.3751,20.7969,31.153],[-88.3796,20.7883,30.7679],[-88.3907,20.7877,27.9351],[-88.3977,20.8049,34.2429],[-88.3968,20.8168,32.9645],[-88.3985,20.8304,32.793],[-88.4067,20.8422,32.6751],[-88.4104,20.86,32.5705],[-88.4213,20.8592,32.8821],[-88.4207,20.8556,34.9735],[-88.4244,20.8529,33.6223],[-88.4361,20.8543,34.3404],[-88.4342,20.8632,33.7997],[-88.4375,20.865,36.8925],[-88.4441,20.8499,34.7685],[-88.4469,20.8468,37.0314],[-88.4368,20.8485,36.0714],[-88.425299999999993,20.835,36.7007],[-88.4284,20.8266,36.5209],[-88.4282,20.8187,32.3825],[-88.4421,20.8274,36.0542],[-88.4529,20.8322,35.56],[-88.4514,20.8403,35.9418],[-88.4553,20.8414,36.0617],[-88.4632,20.8558,35.3016],[-88.4775,20.8573,28.018],[-88.4772,20.8422,35.5772],[-88.4755,20.8387,35.3204],[-88.4772,20.8326,32.9597],[-88.4808,20.833,31.908],[-88.4857,20.827,29.2468],[-88.4888,20.8142,28.7792],[-88.4929,20.8056,33.8631],[-88.4768,20.8017,35.0257],[-88.48,20.7941,37.9208],[-88.4834,20.7748,36.3863],[-88.4797,20.7731,34.3626],[-88.4808,20.7684,37.16],[-88.4912,20.7718,35.6296],[-88.4867,20.7877,37.2945],[-88.5015,20.791,33.5979],[-88.5042,20.7882,37.0251],[-88.5053,20.7841,33.3682],[-88.5036,20.7787,38.476],[-88.5139,20.7793,33.6134],[-88.517,20.7685,32.7171],[-88.5181,20.7584,37.9046],[-88.5025,20.7571,37.4034],[-88.506,20.745,36.7002],[-88.503,20.744,31.103],[-88.5039,20.7404,31.9258],[-88.5195,20.7444,38.5987],[-88.5282,20.7446,32.6637],[-88.5388,20.7416,36.7658],[-88.5558,20.733,33.4814],[-88.5728,20.7282,27.0134],[-88.5767,20.747,27.0383],[-88.5916,20.7486,28.5467],[-88.5914,20.746,29.0622],[-88.6262,20.7447,28.7423],[-88.622,20.7773,30.4878],[-88.6364,20.7793,31.2331],[-88.6412,20.7526,30.5809],[-88.6426,20.7529,28.5861],[-88.6435,20.7484,29.8646],[-88.6482,20.7475,25.378],[-88.6664,20.7499,22.5909],[-88.677,20.7291,31.9461],[-88.6775,20.7234,30.5909],[-88.6875,20.7033,28.0665],[-88.6964,20.6963,27.301],[-88.6761,20.6955,29.7855],[-88.671,20.6939,26.9396],[-88.6719,20.6493,30.3385],[-88.6592,20.6515,30.0151],[-88.6636,20.6448,35.4403],[-88.6526,20.6427,31.1309],[-88.6554,20.6258,29.0438],[-88.6477,20.6258,30.045],[-88.6477,20.6286,27.5879],[-88.6252,20.6261,34.1287],[-88.625,20.6186,29.38],[-88.6144,20.6173,31.8678],[-88.612,20.6457,34.6656],[-88.6053,20.6471,36.879],[-88.5925,20.6454,32.0496],[-88.5839,20.6422,34.3532],[-88.5844,20.6382,33.1246],[-88.5751,20.6371,32.4034],[-88.5536,20.6389,28.1013],[-88.5469,20.6408,33.9105],[-88.5452,20.6359,31.4068],[-88.5305,20.6384,31.0031],[-88.5143,20.6267,39.6705],[-88.4966,20.622,35.9174]]]]}
,"properties": {"GID_2": "MEX.31.91_2","GID_0": "MEX","country": "México","GID_1": "MEX.31_1","province": "Yucatán","NL_NAME_1": "NA","county": "Tinum","VARNAME_2": "NA","NL_NAME_2": "NA","TYPE_2": "Município","ENGTYPE_2": "Municipality","CC_2": "NA","HASC_2": "NA","name": "Tinum.county","area_km2": 471.8545,"hist_schema_id": "Elevation0-9000","hist_area_km2": {"25": 450.2968,"50": 21.5577}}}