{"type": "Feature","bbox": [-97.2056,16.5838,-96.7504,16.9347],"geometry": {"type": "MultiPolygon","coordinates": [[[[-97.1594,16.8481,1529.2949],[-97.1669,16.8486,1528.733],[-97.1698,16.8467,1550.5128],[-97.1686,16.844,1523.2457],[-97.1698,16.8393,1609.4495],[-97.1684,16.8368,1559.9319],[-97.1699,16.8358,1563.4976],[-97.1688,16.8286,1591.8165],[-97.1719,16.8244,1603.9164],[-97.173,16.819,1578.2612],[-97.1786,16.8173,1625.085],[-97.1781,16.8142,1678.3097],[-97.1799,16.8106,1626.8164],[-97.1789,16.8072,1639.6525],[-97.1882,16.7952,1732.3682],[-97.1873,16.7937,1737.3765],[-97.1884,16.7922,1795.7153],[-97.1863,16.7897,1802.505],[-97.1877,16.7852,1789.1284],[-97.1843,16.7799,1794.17],[-97.1798,16.7793,1825.9392],[-97.1758,16.7767,1882.6187],[-97.1723,16.7654,1917.8978],[-97.1679,16.7642,1934.0137],[-97.1656,16.7583,1989.0752],[-97.1608,16.761,2059.8452],[-97.1462,16.7636,2502.1716],[-97.157,16.7509,2059.7678],[-97.1546,16.7492,2079.2776],[-97.1561,16.7475,2184.2556],[-97.1644,16.7441,2220.1567],[-97.1736,16.7356,2466.3489],[-97.1742,16.7334,2534.6741],[-97.1726,16.7306,2557.9126],[-97.1678,16.7263,2637.2478],[-97.1681,16.7151,2560.5308],[-97.1724,16.7169,2650.7358],[-97.1736,16.7236,2429.4268],[-97.1788,16.7277,2318.3247],[-97.1835,16.7289,2307.7122],[-97.1885,16.7262,2308.1938],[-97.1947,16.7253,2429.0752],[-97.2056,16.7182,2873.3157],[-97.1943,16.7141,2804.833],[-97.1823,16.7073,2834.5688],[-97.1828,16.7009,2652.3459],[-97.1787,16.6931,2412.1211],[-97.172,16.6879,2319.2441],[-97.1636,16.6881,2225.125],[-97.1616,16.6858,2210.6116],[-97.172,16.682,2405.0876],[-97.1758,16.6755,2152.3809],[-97.1876,16.6653,2251.644],[-97.1893,16.6578,2240.7014],[-97.1848,16.659,2165.2993],[-97.1813,16.6623,2136.6392],[-97.1765,16.6609,2084.3748],[-97.1694,16.6616,2055.103],[-97.1618,16.6593,2027.5449],[-97.1548,16.6669,1981.5723],[-97.1524,16.6664,1975.2213],[-97.143,16.6718,1918.8677],[-97.1408,16.671,1929.8555],[-97.1359,16.662,1862.8823],[-97.1356,16.6552,1808.5779],[-97.1331,16.6522,1840.9742],[-97.1262,16.6475,1769.1085],[-97.1147,16.6469,1751.7794],[-97.111,16.6415,1733.5154],[-97.1044,16.6378,1695.9745],[-97.0995,16.6277,1714.3586],[-97.0959,16.6251,1665.0209],[-97.0961,16.6232,1696.5623],[-97.0985,16.6232,1667.2302],[-97.0971,16.6211,1685.0217],[-97.1005,16.6207,1668.053],[-97.0992,16.6176,1716.0566],[-97.1034,16.6167,1639.3101],[-97.1007,16.6138,1638.6589],[-97.1018,16.609,1639.7283],[-97.0999,16.601,1652.6343],[-97.0972,16.6002,1603.3887],[-97.0976,16.598,1590.7747],[-97.0907,16.5939,1588.8673],[-97.0902,16.5914,1598.4935],[-97.0926,16.5891,1584.7999],[-97.0898,16.5879,1573.5096],[-97.0905,16.5838,1585.4282],[-97.0884,16.5839,1632.0308],[-97.0866,16.5889,1763.348],[-97.0882,16.5923,1655.1976],[-97.0795,16.6188,2087.8159],[-97.0842,16.6266,2096.8921],[-97.0829,16.6625,2342.4414],[-97.0749,16.6795,2212.9312],[-97.0763,16.6824,2259.6782],[-97.0748,16.6844,2241.915],[-97.0749,16.6903,2186.0806],[-97.0759,16.693,2206.8994],[-97.0783,16.6936,2236.9485],[-97.0778,16.6979,2247.7107],[-97.0671,16.7017,2513.2107],[-97.0687,16.7076,2384.1538],[-97.0724,16.7068,2332.1516],[-97.08,16.7009,2216.9795],[-97.0824,16.7031,2253.0754],[-97.0888,16.7045,2334.1882],[-97.0847,16.7088,2362.6108],[-97.086,16.7119,2368.135],[-97.0894,16.7125,2397.0645],[-97.0909,16.715699999999998,2411.7349],[-97.0937,16.7163,2395.834],[-97.0938,16.7204,2401.1763],[-97.0977,16.7232,2455.7764],[-97.0962,16.7294,2563.6475],[-97.0922,16.7303,2547.6543],[-97.0915,16.7349,2780.8723],[-97.0691,16.7509,2239.5034],[-97.0471,16.7702,2254.1184],[-97.0401,16.7688,2389.3599],[-97.0317,16.7694,2528.6101],[-97.0219,16.7735,2640.7573],[-97.0272,16.7603,2441.7061],[-97.0215,16.7599,2508.4873],[-97.0207,16.763,2584.8821],[-97.0167,16.7664,2731.9636],[-97.0206,16.7825,2862.5342],[-97.0251,16.791,2724.3328],[-97.0311,16.7939,2607.8325],[-97.0336,16.804,2312.4417],[-97.0403,16.8107,2139.0791],[-97.0424,16.8161,1945.275],[-97.0411,16.821,1981.5861],[-97.0431,16.831,2063.9978],[-97.0464,16.8344,2143.6282],[-97.0599,16.8279,2704.5776],[-97.0656,16.8375,2591.1572],[-97.0753,16.825,2091.3413],[-97.0819,16.8265,1968.0188],[-97.0895,16.8174,1817.0262],[-97.1006,16.8204,1701.9824],[-97.1067,16.8177,1683.45],[-97.1077,16.8146,1686.4645],[-97.1124,16.8153,1699.4651],[-97.1158,16.8215,1606.9402],[-97.1293,16.8308,1577.495],[-97.1139,16.8434,2082.2502],[-97.1136,16.8477,2176.9019],[-97.1116,16.8507,1972.1807],[-97.1125,16.8524,1900.7258],[-97.1235,16.8555,1950.2759],[-97.1299,16.8507,1722.4805],[-97.136,16.8498,1620.8503],[-97.1444,16.84,1542.7083],[-97.1431,16.8388,1542.7083],[-97.1446,16.8336,1614.801],[-97.1592,16.8346,1676.6206],[-97.1619,16.8411,1618.1855],[-97.1589,16.8456,1495.9468],[-97.1594,16.8481,1529.2949]]],
[[[-96.8144,16.7441,1491.5913],[-96.8015,16.7377,1782.6873],[-96.7957,16.7434,1685.0793],[-96.8021,16.7604,1455.9478],[-96.8046,16.7603,1456.174],[-96.8098,16.7752,1467.8199],[-96.8085,16.7761,1462.906],[-96.8118,16.7784,1476.8071],[-96.8193,16.7746,1481.2966],[-96.8227,16.7818,1508.0082],[-96.8306,16.7795,1537.5198],[-96.8389,16.7843,1723.9702],[-96.8374,16.78,1615.8314],[-96.842,16.7749,1557.0356],[-96.8403,16.7721,1529.5485],[-96.8571,16.7743,1645.7755],[-96.8684,16.773,1541.7594],[-96.8675,16.7683,1500.3269],[-96.8647,16.7709,1539.2094],[-96.8653,16.7676,1506.9232],[-96.8641,16.7661,1509.007],[-96.8577,16.7672,1555.6415],[-96.854,16.7658,1538.2429],[-96.8537,16.7697,1557.875],[-96.8509,16.7693,1534.4685],[-96.8474,16.7614,1503.4348],[-96.8426,16.7609,1489.0842],[-96.8361,16.7693,1498.6707],[-96.8311,16.7671,1485.8042],[-96.828,16.7624,1471.7206],[-96.8246,16.7621,1466.8433],[-96.8269,16.7591,1467.9971],[-96.8186,16.7513,1455.254],[-96.8141,16.7549,1455.0063],[-96.8102,16.7503,1476.7715],[-96.8185,16.7462,1471.4813],[-96.8144,16.7441,1491.5913]]],
[[[-96.7681,16.9111,1492.6665],[-96.7658,16.9112,1492.4884],[-96.7643,16.9175,1495.5378],[-96.7671,16.9181,1498.0916],[-96.7691,16.9148,1496.1775],[-96.7785,16.9174,1503.6565],[-96.8006,16.9165,1587.1055],[-96.8123,16.9182,1606.2444],[-96.8134,16.9111,1574.043],[-96.8242,16.9111,1648.9297],[-96.824,16.9061,1629.1558],[-96.8268,16.8956,1643.2012],[-96.8345,16.8875,1723.7363],[-96.8357,16.8883,1723.7363],[-96.8501,16.8768,1802.7256],[-96.8526,16.8626,1764.774],[-96.8583,16.8515,2126.2246],[-96.8279,16.8349,2019.3654],[-96.8149,16.8305,1822.7789],[-96.8133,16.8505,1650.5349],[-96.7981,16.848,1531.2783],[-96.7992,16.8443,1527.5259],[-96.7867,16.843,1496.2009],[-96.7947,16.8394,1515.3618],[-96.7883,16.8379,1499.0581],[-96.7879,16.8394,1499.2137],[-96.7818,16.835,1484.7748],[-96.7553,16.8279,1472.4109],[-96.7568,16.8539,1478.1417],[-96.7588,16.854,1479.6425],[-96.7578,16.8598,1479.0227],[-96.7532,16.8711,1482.4288],[-96.7518,16.8707,1484.4918],[-96.7504,16.8772,1484.7012],[-96.7555,16.8792,1484.7988],[-96.7592,16.8751,1487.3542],[-96.7613,16.875,1486.4303],[-96.7715,16.8812,1492.5536],[-96.7784,16.8831,1497.4318],[-96.7795,16.8871,1501.0712],[-96.7818,16.8885,1502.3666],[-96.7808,16.895,1500.7924],[-96.788,16.8972,1511.1985],[-96.7876,16.906,1517.5056],[-96.7722,16.904,1491.0142],[-96.771,16.9089,1492.1427],[-96.7688,16.9084,1490.6628],[-96.7663,16.9106,1492.4884],[-96.7681,16.9111,1492.6665]]],
[[[-96.902,16.9323,2811.7339],[-96.9016,16.9336,2811.7339],[-96.9051,16.9344,2804.749],[-96.9075,16.9331,2825.7881],[-96.9137,16.9347,2784.7734],[-96.915,16.932,2778.4082],[-96.9203,16.9309,2782.4014],[-96.9273,16.9341,2740.0337],[-96.9426,16.9318,2528.8096],[-96.9488,16.9291,2633.4185],[-96.9498,16.9312,2610.8313],[-96.9559,16.9305,2539.4683],[-96.959,16.9277,2632.3555],[-96.9629,16.9269,2712.8928],[-96.9641,16.9109,2780.1648],[-96.9626,16.9074,2782.8171],[-96.958,16.9049,2665.2004],[-96.9551,16.9006,2566.3074],[-96.9489,16.9016,2369.9155],[-96.9427,16.8976,2198.7051],[-96.9353,16.8966,1990.7142],[-96.9295,16.8886,1934.4247],[-96.9192,16.8805,1864.8517],[-96.9179,16.89,2201.0669],[-96.9213,16.8928,2297.9661],[-96.9254,16.9064,2466.4509],[-96.9218,16.911,2567.6272],[-96.9203,16.9178,2591.1519],[-96.91,16.9249,2696.6079],[-96.9093,16.9239,2696.6079],[-96.9064,16.9277,2731.7896],[-96.9034,16.9274,2801.4067],[-96.902,16.9323,2811.7339]]]]}
,"properties": {"GID_2": "MEX.20.570_2","GID_0": "MEX","country": "México","GID_1": "MEX.20_1","province": "Oaxaca","NL_NAME_1": "NA","county": "ZimatlándeÁlvarez","VARNAME_2": "NA","NL_NAME_2": "NA","TYPE_2": "Município","ENGTYPE_2": "Municipality","CC_2": "NA","HASC_2": "NA","name": "Zimatlánde_Álvarez.county","area_km2": 356.1119,"hist_schema_id": "Elevation0-9000","hist_area_km2": {"1450": 3.4715,"1475": 14.8753,"1500": 14.9138,"1525": 10.6119,"1550": 8.5624,"1575": 7.3045,"1600": 4.7481,"1625": 4.0789,"1650": 3.2065,"1675": 3.0851,"1700": 3.6736,"1725": 3.5929,"1750": 3.8774,"1775": 4.5472,"1800": 4.9941,"1825": 5.461,"1850": 5.0551,"1875": 5.3391,"1900": 6.3341,"1925": 6.0905,"1950": 6.1309,"1975": 6.4968,"2000": 6.6793,"2025": 7.8164,"2050": 7.0246,"2075": 7.7757,"2100": 8.4456,"2125": 7.4306,"2150": 7.5933,"2175": 7.3898,"2200": 7.0247,"2225": 7.2681,"2250": 6.9024,"2275": 7.0444,"2300": 7.3287,"2325": 7.065,"2350": 6.9226,"2375": 6.5976,"2400": 6.3947,"2425": 6.4353,"2450": 6.7804,"2475": 5.7247,"2500": 6.4354,"2525": 5.3798,"2550": 5.5422,"2575": 5.3999,"2600": 6.4354,"2625": 5.7248,"2650": 5.177,"2675": 4.7911,"2700": 4.7504,"2725": 5.0955,"2750": 5.461,"2775": 4.8925,"2800": 4.3444,"2825": 3.1264,"2850": 2.2941,"2875": 1.1166,"2900": 0.7308,"2925": 0.3857,"2950": 0.5278,"2975": 0.3045,"3000": 0.1015}}}