{"type":"Feature","properties":{"featurecla":"River","scalerank":6,"rivernum":324,"dissolve":"324River","name":"Verde13","name_alt":null,"note":null,"min_zoom":5.0,"strokeweig":0.2,"name_en":"Verde","min_label":6.0},
"geometry":{"type": "LineString","coordinates": [[-100.34392089843749,22.11688873905662,1134.4302],[-100.31669921874999,22.10651276249412,1093.8403],[-100.31040039062499,22.10260651249412,1120.1501],[-100.29240722656249,22.068475653119123,1113.9299],[-100.28369140625,22.05829498905662,1099.2844],[-100.275634765625,22.05121491093162,1155.424],[-100.26542968749999,22.04804108280662,1224.0289],[-100.22104492187499,22.04120514530662,1084.4244],[-100.17124023437499,22.026971746869123,1036.6377],[-100.10654296874999,22.01630280155662,1046.397],[-100.090625,22.005487371869123,1019.9065],[-100.07817382812499,21.99201080936912,1015.8093],[-100.06340332031249,21.979754949994117,1010.7124],[-100.05649414062499,21.977313543744117,1012.5983],[-100.03923339843749,21.97504303593162,998.183],[-100.029296875,21.972284246869123,1003.1816],[-99.997900390624991,21.951776434369123,993.3408],[-99.982836914062489,21.94757721561912,989.9343],[-99.944750976562489,21.926141668744123,987.6094],[-99.93310546875,21.91766998905662,987.8242],[-99.875048828124989,21.85932037968162,980.9064],[-99.86181640625,21.841571356244117,936.1677],[-99.857421875,21.82318756718162,942.546],[-99.855712890625,21.80341217655662,1078.5422],[-99.850512695312489,21.781122137494123,965.0814],[-99.847021484374991,21.780536199994117,951.0848],[-99.83349609375,21.781756903119117,843.5923],[-99.830004882812489,21.781122137494123,895.3638],[-99.829199218749991,21.77521393436912,834.3524],[-99.831103515624989,21.76483795780662,913.8469],[-99.8291015625,21.755633856244117,925.8986],[-99.830322265625,21.744891668744117,1032.0405],[-99.830004882812489,21.74017975468162,1000.7182],[-99.8271484375,21.734637762494117,926.0247],[-99.823583984374991,21.733661199994117,842.1296],[-99.819091796875,21.73322174686912,820.9916],[-99.813281249999989,21.729608465619123,919.4229],[-99.809130859374989,21.719842840619123,812.376],[-99.809741210937489,21.709735418744117,868.9911],[-99.80859375,21.70172760624412,825.3367],[-99.798999023437489,21.69855377811912,879.0778],[-99.787768554687489,21.700799871869123,1129.6228],[-99.767822265625,21.710565496869123,947.8829],[-99.754980468749991,21.71283600468162,833.7584],[-99.730029296874989,21.71173737186912,881.4066],[-99.703295898437489,21.70600006718162,1088.7666],[-99.681933593749989,21.69245026249412,1172.6802],[-99.6708984375,21.661151434369117,948.3605],[-99.665625,21.65460846561912,850.9445],[-99.658789062499991,21.650165106244117,767.8092],[-99.651660156249989,21.64984772343162,751.2772],[-99.64794921875,21.65228912968162,721.39],[-99.646533203124989,21.656024481244117,856.2689],[-99.645361328124991,21.664667059369123,759.8514],[-99.643481445312489,21.66986725468162,820.4585],[-99.641357421875,21.672723699994123,876.8102],[-99.638110351562489,21.67438385624412,846.0606],[-99.632861328124989,21.676141668744123,812.8826],[-99.623339843749989,21.680780340619123,697.1295],[-99.568212890624991,21.728631903119123,683.5699],[-99.548144531249989,21.739520574994117,677.4872],[-99.5283203125,21.742547918744123,637.047],[-99.514697265624989,21.73749420780662,632.5388],[-99.49267578125,21.718133856244123,1026.3107],[-99.480883789062489,21.710321356244123,796.366],[-99.447998046875,21.70355866093162,455.7466],[-99.38037109375,21.70795319218162,515.2252],[-99.347338867187489,21.703387762494117,786.9395],[-99.288183593749991,21.663446356244123,644.955],[-99.256201171874991,21.649042059369123,308.989],[-99.230712890625,21.660272528119123,225.2794],[-99.188403320312489,21.72345612186912,365.1994],[-99.171142578125,21.74066803593162,384.6066],[-99.150146484375,21.75079987186912,343.9509],[-99.104589843749991,21.759051824994117,191.6885],[-99.084399414062489,21.76947662968162,549.7546],[-99.073779296874989,21.78204987186912,532.3475],[-99.058203124999991,21.80853912968162,54.1011],[-99.045263671874991,21.819598699994117,51.8688],[-99.02001953125,21.82843659061912,39.9702],[-99.004736328124991,21.83148834843162,37.9833],[-98.996142578124989,21.83014557499412,44.0523],[-98.998046875,21.835956121869117,45.5294],[-98.996191406249991,21.840350653119117,44.0906],[-98.99375,21.84442780155662,41.9269],[-98.993945312499989,21.84931061405662,42.321],[-98.98125,21.837909246869117,44.9754],[-98.964697265624991,21.837030340619123,38.8249],[-98.954394531249989,21.84564850468162,39.3806],[-98.96044921875,21.862420965619123,36.4864],[-98.942553710937489,21.85968659061912,62.0974],[-98.909716796874989,21.84613678593162,37.5861],[-98.891528320312489,21.84320709843162,38.0492],[-98.874853515624991,21.84540436405662,37.422],[-98.845458984375,21.854266668744117,34.4206],[-98.826025390624991,21.85626862186912,32.7454],[-98.816455078124989,21.87787506718162,32.8421],[-98.814794921874991,21.92194244999412,35.7529],[-98.806079101562489,21.95697662968162,29.7347],[-98.774829101562489,21.951776434369123,28.7388],[-98.779589843749989,21.94037506718162,27.1297],[-98.779541015625,21.92658112186912,24.7043],[-98.774658203125,21.917840887494123,26.5308],[-98.764941406249989,21.921405340619117,26.1706],[-98.754077148437489,21.93475983280662,34.7124],[-98.751635742187489,21.943622137494117,25.0832],[-98.75439453125,21.959247137494117,18.158],[-98.753515624999991,21.97846100468162,23.3866],[-98.749926757812489,21.99017975468162,21.9149],[-98.738330078124989,21.99152252811912,20.7877],[-98.71337890625,21.979754949994117,21.6836],[-98.702001953124991,21.99115631718162,21.8927],[-98.690527343749991,21.99762604374412,19.54],[-98.677661132812489,21.995965887494123,18.662],[-98.661865234375,21.983172918744117,17.6367]]}}