{"type":"Feature","properties":{"GID_2":"MEX.5.55_2","GID_0":"MEX","country":"México","GID_1":"MEX.5_1","province":"Chiapas","NL_NAME_1":"NA","county":"LasMargaritas","VARNAME_2":"NA","NL_NAME_2":"NA","TYPE_2":"Município","ENGTYPE_2":"Municipality","CC_2":"NA","HASC_2":"NA","name":"Las_Margaritas.county"},
"geometry":{"type": "MultiPolygon","coordinates": [[[[-91.3197,16.0744,433.0598],[-91.2967,16.0744,871.3736],[-91.3048,16.1078,316.134],[-91.3107,16.1072,465.6342],[-91.3093,16.1087,465.6342],[-91.3277,16.1204,644.4045],[-91.3398,16.1151,640.1344],[-91.3459,16.1238,669.2184],[-91.3399,16.1255,519.2963],[-91.3556,16.1474,485.0435],[-91.3404,16.1678,293.6723],[-91.342,16.1741,312.0435],[-91.3465,16.1767,310.4163],[-91.3503,16.1863,285.25],[-91.3464,16.1943,296.5964],[-91.3441,16.1964,288.1927],[-91.3419,16.196,290.9335],[-91.3407,16.2026,326.6183],[-91.3502,16.2041,341.5023],[-91.3593,16.2034,334.6757],[-91.3684,16.2005,393.3192],[-91.3794,16.2085,333.2114],[-91.3908,16.228,613.4551],[-91.3854,16.2307,457.2664],[-91.39,16.246,488.5155],[-91.3886,16.2528,407.1277],[-91.3875,16.2525,407.1277],[-91.39,16.2596,248.0776],[-91.373,16.2449,235.1925],[-91.3706,16.247,215.7841],[-91.3684,16.2606,222.3651],[-91.3657,16.2614,222.8002],[-91.3573,16.2901,476.4447],[-91.3119,16.3133,219.8423],[-91.3024,16.3135,201.2283],[-91.3002,16.3181,195.2553],[-91.3064,16.3162,195.7783],[-91.319,16.3197,192.3685],[-91.3211,16.3207,190.728],[-91.3213,16.325,193.5908],[-91.3243,16.322,196.6898],[-91.3275,16.322,196.5936],[-91.3287,16.3242,195.5105],[-91.3252,16.3281,208.3365],[-91.329,16.3329,195.439],[-91.3322,16.3333,191.8149],[-91.3311,16.3279,197.2168],[-91.3334,16.327,198.6457],[-91.3385,16.3286,203.0173],[-91.3417,16.3325,199.77],[-91.3382,16.3356,214.5949],[-91.3292,16.3368,196.7356],[-91.3319,16.3415,202.7568],[-91.3272,16.3697,224.2703],[-91.3281,16.3725,200.8229],[-91.3303,16.3732,200.6479],[-91.3369,16.3715,202.1768],[-91.3376,16.3726,206.9016],[-91.3337,16.3753,216.3527],[-91.3307,16.381,201.9551],[-91.3333,16.382,200.9355],[-91.3439,16.3799,205.2717],[-91.3434,16.3813,215.0458],[-91.3354,16.3847,222.5488],[-91.3411,16.3898,197.5],[-91.3407,16.3947,212.3131],[-91.3383,16.3964,208.9016],[-91.3366,16.4012,212.5168],[-91.3361,16.4069,209.7741],[-91.34,16.4071,209.4837],[-91.3422,16.4027,222.3642],[-91.3441,16.4039,221.2777],[-91.3459,16.4023,223.2877],[-91.3625,16.403199999999998,211.5948],[-91.3891,16.3873,262.012],[-91.3968,16.3972,238.3806],[-91.4011,16.3945,441.9692],[-91.4115,16.4091,252.1527],[-91.4211,16.4038,855.5836],[-91.4359,16.4235,797.3698],[-91.4209,16.4432,220.2346],[-91.4455,16.4624,666.1315],[-91.4331,16.4881,226.9481],[-91.4422,16.5021,248.0057],[-91.4516,16.5066,230.5819],[-91.4529,16.5117,221.4881],[-91.4552,16.5136,222.1151],[-91.4615,16.5165,228.0831],[-91.4723,16.5163,241.6009],[-91.4749,16.5176,226.7411],[-91.4799,16.5247,227.9563],[-91.4867,16.5256,319.9007],[-91.4908,16.522,360.8429],[-91.49,16.5169,529.7192],[-91.4865,16.5137,603.2239],[-91.4893,16.5097,832.6096],[-91.4943,16.5031,1154.2073],[-91.4973,16.5043,1146.5687],[-91.5071,16.4967,1180.9009],[-91.534,16.5123,1399.9805],[-91.578,16.4872,330.7471],[-91.5819,16.4908,332.3269],[-91.5849,16.4968,362.5165],[-91.5839,16.5001,525.4077],[-91.5791,16.5053,1004.5542],[-91.5783,16.5102,1043.9924],[-91.5836,16.5146,1072.5287],[-91.5855,16.5314,679.4531],[-91.5901,16.5378,824.5737],[-91.5939,16.5395,791.1392],[-91.6035,16.5341,890.7969],[-91.6103,16.5401,739.7838],[-91.6172,16.5241,564.8493],[-91.6531,16.5362,1307.2877],[-91.6608,16.5452,1281.3124],[-91.6591,16.549,1245.2954],[-91.6668,16.553,1360.4275],[-91.6705,16.561,1396.0824],[-91.6741,16.5787,1597.5995],[-91.6963,16.5679,1278.978],[-91.6876,16.5521,1320.3829],[-91.694,16.5441,1172.3118],[-91.6931,16.5412,1196.0381],[-91.6963,16.5397,1214.6239],[-91.7002,16.5347,1206.3408],[-91.6973,16.5253,1210.0126],[-91.71,16.5161,1298.6892],[-91.7159,16.5154,1301.6484],[-91.7281,16.5104,1304.7043],[-91.7372,16.5095,1327.8344],[-91.7437,16.5133,1337.1761],[-91.7462,16.4993,1332.2562],[-91.7603,16.5,1619.9839],[-91.7635,16.4977,1705.0565],[-91.7648,16.4939,1843.063],[-91.7669,16.494,1783.3807],[-91.7692,16.4952,1756.2361],[-91.7741,16.5084,1767.2683],[-91.7846,16.513,1726.7527],[-91.7661,16.5301,1315.9209],[-91.7883,16.5521,1253.5757],[-91.8232,16.5543,1276.6583],[-91.8281,16.5494,1382.5024],[-91.8249,16.5483,1384.2526],[-91.8194,16.5517,1251.282],[-91.8296,16.5363,1654.0752],[-91.8584,16.5667,1569.1475],[-91.9199,16.5491,1890.9688],[-91.9225,16.589,1474.3274],[-91.9245,16.5925,1481.3622],[-91.923,16.598,1440.4983],[-91.9239,16.6003,1442.5591],[-91.9319,16.5976,1476.5459],[-91.9394,16.5989,1441.2272],[-91.9378,16.5963,1478.6636],[-91.9649,16.5969,1314.8702],[-92.0004,16.5937,1597.2778],[-92.0196,16.6611,1226.2637],[-92.025,16.6569,1330.845],[-92.033,16.674,1306.65],[-92.0429,16.663,1571.6686],[-92.0536,16.6624,1805.318],[-92.0644,16.6586,1938.4973],[-92.07,16.6589,1923.3726],[-92.0983,16.6692,1772.8978],[-92.1159,16.667,1588.8152],[-92.1211,16.6647,1746.0154],[-92.1449,16.6439,1830.9998],[-92.1504,16.6364,1769.7802],[-92.1532,16.632,1735.1521],[-92.1517,16.6066,2017.3314],[-92.1474,16.5983,2080.6216],[-92.1468,16.5938,2054.8955],[-92.1534,16.5673,1993.3298],[-92.1517,16.548,2162.5708],[-92.171,16.4975,2249.2935],[-92.1737,16.4979,2304.5452],[-92.1787,16.4934,2235.667],[-92.1762,16.4935,2227.512],[-92.1827,16.4523,2322.6167],[-92.158,16.4537,2393.1323],[-92.159,16.4228,2329.811],[-92.1553,16.4161,2350.3923],[-92.1756,16.4123,2222.5576],[-92.1683,16.402,2172.2087],[-92.1543,16.4075,2316.4375],[-92.1535,16.4132,2367.2341],[-92.1325,16.4108,2246.7153],[-92.1318,16.4252,2309.4771],[-92.1169,16.4217,2233.6726],[-92.1194,16.3958,1976.2666],[-92.1138,16.3898,1864.3359],[-92.1074,16.3955,1919.9132],[-92.1058,16.3931,1856.8177],[-92.1039,16.3955,1942.5819],[-92.0926,16.3964,1926.9531],[-92.0906,16.3923,1902.0742],[-92.0868,16.391,1831.257],[-92.0875,16.3873,1944.3761],[-92.0785,16.3817,1775.3439],[-92.0831,16.3783,1833.8715],[-92.0827,16.3708,1839.7426],[-92.0758,16.3695,1795.9377],[-92.0729,16.3703,1775.8889],[-92.0643,16.3679,1727.1414],[-92.0624,16.3637,1720.2703],[-92.066,16.3628,1734.5325],[-92.06,16.3601,1734.5448],[-92.0516,16.3533,1686.7627],[-92.0517,16.346,1697.7428],[-92.0582,16.3428,1722.6611],[-92.0544,16.3368,1744.052],[-92.045,16.3321,1690.4869],[-92.0245,16.3411,1630.5519],[-92.0356,16.3301,1731.9347],[-92.0443,16.3262,1680.248],[-92.0451,16.3227,1678.464],[-92.0474,16.3226,1676.5831],[-92.0485,16.3241,1694.717],[-92.0611,16.2967,1671.8278],[-92.0598,16.295,1679.9858],[-92.0576,16.2953,1698.7441],[-92.0576,16.293,1689.4019],[-92.0452,16.2981,1674.136],[-92.0483,16.2946,1677.1177],[-92.0287,16.2889,1625.1923],[-92.0137,16.268,1650.8672],[-92.0147,16.2771,1657.6887],[-92.0045,16.2818,1591.3461],[-92.0031,16.2804,1598.6724],[-92.0001,16.2825,1613.7377],[-91.9863,16.2846,1592.7805],[-91.9792,16.2942,1559.8047],[-91.9798,16.2988,1546.0822],[-91.9654,16.3057,1495.0042],[-91.9597,16.2988,1507.1821],[-91.9635,16.2949,1506.9779],[-91.9671,16.2947,1504.4209],[-91.9619,16.2847,1512.2202],[-91.9583,16.262,1586.8267],[-91.9433,16.2656,1571.3636],[-91.9239,16.267,1544.272],[-91.9178,16.2662,1558.9713],[-91.911,16.2575,1561.1677],[-91.9001,16.2692,1626.1298],[-91.8918,16.2623,1610.9297],[-91.8869,16.261,1629.7954],[-91.8714,16.2612,1599.0103],[-91.8568,16.2551,1625.2031],[-91.8596,16.2462,1687.2465],[-91.8493,16.2371,1654.2273],[-91.853,16.2272,1559.9683],[-91.8416,16.2277,1617.9845],[-91.837,16.2247,1589.0765],[-91.8304,16.2231,1572.0981],[-91.8167,16.2364,1493.559],[-91.82,16.2394,1481.8572],[-91.8185,16.2422,1468.1316],[-91.7893,16.2141,1396.5592],[-91.7825,16.2105,1456.6951],[-91.7779,16.2108,1524.2737],[-91.7676,16.2178,1658.1215],[-91.7656,16.2123,1655.1111],[-91.7507,16.2222,1582.625],[-91.7456,16.2222,1590.6282],[-91.7411,16.2399,1594.7928],[-91.737799999999993,16.2404,1578.9604],[-91.7399,16.2437,1644.2776],[-91.7294,16.25,1345.9087],[-91.7377,16.2563,1389.3583],[-91.7415,16.2573,1514.3901],[-91.7304,16.2668,1146.1807],[-91.7064,16.2655,1316.2317],[-91.6821,16.2765,1399.3973],[-91.68,16.2735,1384.562],[-91.6896,16.2677,1249.7869],[-91.6855,16.2679,1221.149],[-91.6751,16.2619,1082.2185],[-91.6724,16.2549,1101.2512],[-91.67,16.2527,1048.7761],[-91.6667,16.2527,989.4139],[-91.6665,16.2555,991.0878],[-91.6648,16.2536,958.1302],[-91.6593,16.253,928.1863],[-91.6577,16.2567,957.7645],[-91.6488,16.2604,1022.9131],[-91.6463,16.2594,995.8953],[-91.6431,16.2536,1054.6649],[-91.6312,16.2529,1123.7587],[-91.6311,16.2379,1180.7288],[-91.6202,16.2172,995.7627],[-91.6331,16.2172,883.2962],[-91.6332,16.2143,868.0313],[-91.6071,16.2142,1008.184],[-91.606,16.2036,924.2388],[-91.5961,16.2116,1015.2857],[-91.5622,16.1866,829.2266],[-91.5559,16.2013,867.111],[-91.55,16.1979,861.1759],[-91.5562,16.1865,810.1055],[-91.5448,16.1792,790.4871],[-91.5415,16.179,797.219],[-91.5438,16.1822,801.7064],[-91.5409,16.1835,798.6975],[-91.5213,16.1709,733.4701],[-91.5198,16.1735,727.1887],[-91.5168,16.173,786.1346],[-91.5155,16.1674,726.0297],[-91.5076,16.1639,729.8054],[-91.507,16.159,738.8381],[-91.5,16.1503,728.5548],[-91.5182,16.1425,724.9111],[-91.5012,16.1371,740.9381],[-91.5044,16.1319,777.3729],[-91.4959,16.1288,766.8411],[-91.4939,16.118,818.4682],[-91.481,16.1174,745.4135],[-91.4761,16.1099,730.1678],[-91.476,16.0959,710.5624],[-91.4539,16.0949,777.3188],[-91.4429,16.0961,858.321],[-91.4471,16.1085,678.301],[-91.4371,16.1134,792.0699],[-91.4293,16.1115,614.6252],[-91.4234,16.1175,472.8763],[-91.42,16.1171,472.4647],[-91.4166,16.114,463.2703],[-91.4142,16.1164,492.402],[-91.3998,16.1153,727.9691],[-91.4079,16.107,477.5396],[-91.3946,16.091,472.9951],[-91.3897,16.0835,463.3525],[-91.3896,16.0804,481.2433],[-91.3879,16.0812,477.783],[-91.3846,16.0795,464.2644],[-91.3818,16.0743,454.4242],[-91.3197,16.0744,433.0598]]]]}}