{"type":"Feature","properties":{"GID_2":"MEX.26.7_2","GID_0":"MEX","country":"México","GID_1":"MEX.26_1","province":"Sonora","NL_NAME_1":"NA","county":"Atil","VARNAME_2":"NA","NL_NAME_2":"NA","TYPE_2":"Município","ENGTYPE_2":"Municipality","CC_2":"NA","HASC_2":"NA","name":"Atil.county"},
"geometry":{"type": "MultiPolygon","coordinates": [[[[-111.4903,30.6945,993.7616],[-111.4191,30.7371,684.1296],[-111.432,30.7649,705.2015],[-111.4357,30.7694,714.3041],[-111.443,30.7582,715.1388],[-111.4658,30.7814,732.173],[-111.4577,30.8037,699.2572],[-111.4717,30.8255,671.6577],[-111.4446,30.8423,683.6612],[-111.522,30.8416,706.526],[-111.5405,30.9217,762.3865],[-111.5551,30.9162,672.9642],[-111.5531,30.9287,697.8397],[-111.5735,30.9492,747.1504],[-111.569,30.9553,763.1446],[-111.5715,30.9568,758.006],[-111.6115,30.9639,787.5245],[-111.5958,30.8901,633.3478],[-111.6357,30.8859,645.2257],[-111.6353,30.8232,550.2599],[-111.6443,30.8182,547.2374],[-111.6447,30.8169,543.5314],[-111.6394,30.8109,536.0389],[-111.6445,30.8074,530.0791],[-111.6477,30.8071,529.201],[-111.651,30.7993,524.3493],[-111.6458,30.7944,537.3293],[-111.6308,30.8027,540.4482],[-111.6269,30.7925,564.1906],[-111.6023,30.758,645.0331],[-111.5865,30.7574,687.9597],[-111.5879,30.7467,669.9397],[-111.5521,30.7461,728.0011],[-111.5528,30.7406,737.0596],[-111.5584,30.7303,722.9937],[-111.5073,30.7316,944.8133],[-111.4903,30.6945,993.7616]]]]}}