{"type":"Feature","properties":{"GID_2":"MEX.30.18_2","GID_0":"MEX","country":"México","GID_1":"MEX.30_1","province":"Veracruz","NL_NAME_1":"NA","county":"Astacinga","VARNAME_2":"NA","NL_NAME_2":"NA","TYPE_2":"Município","ENGTYPE_2":"Municipality","CC_2":"NA","HASC_2":"NA","name":"Astacinga.county"},
"geometry":{"type": "MultiPolygon","coordinates": [[[[-97.1127,18.5213,1831.1227],[-97.1098,18.5219,1838.8566],[-97.1088,18.5262,1903.0557],[-97.1044,18.5294,1791.3081],[-97.1031,18.538,1781.2817],[-97.1004,18.5396,1783.9756],[-97.0968,18.5393,1753.0496],[-97.0928,18.5446,1744.9874],[-97.0892,18.5457,1755.9968],[-97.0794,18.5548,1746.015],[-97.0711,18.5692,1726.6609],[-97.0521,18.5763,1664.5303],[-97.0481,18.5814,1612.793],[-97.0489,18.5884,1926.4434],[-97.0751,18.5821,2239.7332],[-97.0853,18.5852,2160.4758],[-97.089,18.5799,2092.7117],[-97.1005,18.5756,2247.1113],[-97.1025,18.5782,2149.9539],[-97.1103,18.5757,2294.9282],[-97.1157,18.5762,2366.843],[-97.1183,18.5747,2541.7803],[-97.1192,18.5719,2405.8977],[-97.1289,18.5758,2334.2402],[-97.1326,18.5758,2382.355],[-97.1385,18.5746,2560.7544],[-97.1446,18.5709,2821.1492],[-97.1137,18.5314,2247.5859],[-97.1127,18.5213,1831.1227]]]]}}