{"type": "Feature","bbox": [-98.280230205955093,18.909770940883362,-98.102139909040432,18.980418331394958],"geometry": {"type": "Polygon","coordinates": [[[-98.116710933333451,18.950687554554662,2150.0791],[-98.129368590800112,18.966877581546925,2198.1475],[-98.134519963024914,18.956574837097293,2133.7639],[-98.142026248266774,18.949510098046147,2149.4866],[-98.15174026446212,18.945977728520575,2104.6619],[-98.1635148295474,18.946272092647689,2126.4766],[-98.172345753361341,18.951865011063205,2085.8428],[-98.194128698769077,18.970704315199612,2085.5117],[-98.1983969786125,18.970115586945354,2107.9343],[-98.280230205955093,18.980418331394958,2066.7249],[-98.245642421017124,18.953631195825977,2103.2339],[-98.232543217359762,18.946272092647689,2088.5146],[-98.217972193066743,18.943034087249259,2054.0],[-98.205461717663653,18.942739723122116,2054.7744],[-98.194275880832649,18.940973538359316,2074.5161],[-98.1841203184466,18.932731342799627,2061.116],[-98.189860418925676,18.931553886291113,2066.1658],[-98.205756081790781,18.925666603748482,2078.833],[-98.192362514006291,18.909770940883362,2054.0],[-98.1635148295474,18.91212585390042,2054.0],[-98.13172350381717,18.924489147239939,2054.0],[-98.109057466028034,18.939501717723658,2140.189],[-98.102139909040432,18.939501717723658,2128.8101],[-98.110087740472991,18.944505907884917,2119.928],[-98.116710933333451,18.950687554554662,2150.0791]]]}
,"properties": {"featurecla": "Reservoir","scalerank": 8,"name": "Presa Manuel vila Camacho","name_abb": "Psa. Manuel vila Camacho","name_alt": null,"note": null,"delta": null,"dam_name": null,"year": -99,"admin": null,"min_zoom": 6.0,"min_label": 7.0,"area_km2": 56.69167,"hist_schema_id": "Elevation0-9000","hist_area_km2": {"2050": 13.65769,"2075": 13.9574,"2100": 17.94711,"2125": 8.40226,"2150": 1.34361,"2175": 0.24064,"2200": 0.30078,"2225": 0.16042,"2250": 0.22057,"2275": 0.10026,"2300": 0.20052,"2325": 0.16042}}}