{"type": "Feature","bbox": [-98.4156,18.9247,-98.3444,19.0122],"geometry": {"type": "MultiPolygon","coordinates": [[[[-98.3647,18.9283,1883.3276],[-98.3685,18.9348,1964.3035],[-98.3708,18.947,2006.933],[-98.3696,18.9474,2005.3794],[-98.3709,18.9504,2010.4561],[-98.3694,18.9519,2007.8083],[-98.3679,18.9607,2029.646],[-98.3689,18.9663,2055.3965],[-98.3673,18.9762,2089.1719],[-98.361,18.9797,2128.1401],[-98.3568,18.9779,2147.6843],[-98.35,18.9776,2173.9331],[-98.3444,18.9823,2199.9336],[-98.3542,18.9927,2204.5879],[-98.3812,19.0003,2143.5579],[-98.3837,18.9973,2140.0825],[-98.3941,19.009,2138.8267],[-98.3967,19.0104,2123.7051],[-98.3967,19.0081,2116.2061],[-98.3988,19.0068,2109.1099],[-98.4028,19.0089,2120.595],[-98.4045,19.0122,2128.7446],[-98.4062,19.0121,2128.7446],[-98.4153,19.0058,2160.3845],[-98.4058,18.9897,2135.3247],[-98.4063,18.9866,2126.6504],[-98.4097,18.9827,2120.3091],[-98.4077,18.9799,2110.7627],[-98.409,18.974,2090.8418],[-98.4079,18.9712,2081.0098],[-98.4156,18.9643,2017.4015],[-98.4148,18.9607,2034.7495],[-98.4067,18.9532,1980.6541],[-98.4018,18.9511,1984.5312],[-98.3991,18.9535,1993.0649],[-98.3966,18.9512,1986.059],[-98.395,18.9524,1982.6755],[-98.3893,18.9519,1940.5464],[-98.3873,18.9472,1951.5446],[-98.3886,18.9445,1948.0302],[-98.3848,18.9406,1910.9988],[-98.3823,18.9401,1901.907],[-98.381,18.9354,1895.7345],[-98.3781,18.934,1897.4312],[-98.3762,18.935,1893.8894],[-98.3744,18.9314,1879.4915],[-98.3707,18.9321,1920.5092],[-98.3686,18.9248,1887.4161],[-98.3661,18.9247,1882.1252],[-98.3647,18.9283,1883.3276]]]]}
,"properties": {"GID_2": "MEX.21.149_2","GID_0": "MEX","country": "México","GID_1": "MEX.21_1","province": "Puebla","NL_NAME_1": "NA","county": "SantaIsabelCholula","VARNAME_2": "NA","NL_NAME_2": "NA","TYPE_2": "Município","ENGTYPE_2": "Municipality","CC_2": "NA","HASC_2": "NA","name": "Santa_Isabel_Cholula.county","area_km2": 32.88216,"hist_schema_id": "Elevation0-9000","hist_area_km2": {"1900": 0.5816,"1925": 0.72196,"1950": 1.58424,"1975": 2.66701,"2000": 3.93019,"2025": 2.48636,"2050": 1.84465,"2075": 2.58643,"2100": 3.38827,"2125": 6.85658,"2150": 4.23003,"2175": 1.48358,"2200": 0.52127}}}