{"type": "Feature","bbox": [-103.71448635693285,20.903499173946159,-103.59203088004607,20.979150754619013],"geometry": {"type": "Polygon","coordinates": [[[-103.62529402641195,20.963255091753894,1243.6624],[-103.64722415388326,20.937645412693428,905.3091],[-103.66120644992202,20.929991945388025,1213.6602],[-103.67518874596077,20.928225760625224,1650.2815],[-103.69064286263519,20.93116940189654,1324.9821],[-103.70874625645378,20.937645412693428,1440.4294],[-103.71448635693285,20.918511744429878,731.4996],[-103.69594141692355,20.90614845109036,730.0],[-103.66753527865535,20.903499173946159,949.0446],[-103.64383896642124,20.914096282522905,796.4958],[-103.61072300211893,20.9438270593632,1326.7966],[-103.59806534465227,20.959428358101178,1056.5419],[-103.59203088004607,20.979150754619013,1458.3126],[-103.61175327656389,20.97473529271204,1264.0262],[-103.62529402641195,20.963255091753894,1243.6624]]]}
,"properties": {"featurecla": "Lake","scalerank": 7,"name": "null83","name_abb": null,"name_alt": null,"note": "_untitled_86","delta": null,"dam_name": null,"year": -99,"admin": null,"min_zoom": 5.7,"min_label": 6.7,"area_km2": 35.52614,"hist_schema_id": "Elevation0-9000","hist_area_km2": {"725": 4.19831,"750": 1.12874,"775": 1.36644,"800": 1.44562,"825": 1.48524,"850": 1.66348,"875": 1.62386,"900": 1.54462,"925": 1.52484,"950": 1.46542,"975": 1.80203,"1000": 1.22776,"1025": 1.50496,"1050": 1.46542,"1075": 1.00992,"1100": 1.26732,"1125": 1.02968,"1150": 1.12872,"1175": 0.95053,"1200": 1.10898,"1225": 0.7921,"1250": 0.69304,"1275": 0.41583,"1300": 0.53464,"1325": 0.35646,"1350": 0.35642,"1375": 0.39603,"1400": 0.19801,"1425": 0.29704,"1450": 0.13862,"1475": 0.11882,"1500": 0.07921,"1525": 0.09902,"1550": 0.03961,"1575": 0.13863,"1600": 0.37627,"1625": 0.45549,"1650": 0.07921,"1675": 0.0198}}}