{"type":"Feature","properties":{"GID_2":"MEX.6.17_2","GID_0":"MEX","country":"México","GID_1":"MEX.6_1","province":"Chihuahua","NL_NAME_1":"NA","county":"CoyamedelSotol","VARNAME_2":"NA","NL_NAME_2":"NA","TYPE_2":"Município","ENGTYPE_2":"Municipality","CC_2":"NA","HASC_2":"NA","name":"Coyamedel_Sotol.county"},
"geometry":{"type": "MultiPolygon","coordinates": [[[[-105.9099,29.6662,1355.0093],[-105.8663,29.6545,1308.0061],[-105.8722,29.6324,1295.2061],[-105.8663,29.6287,1290.0743],[-105.8648,29.622,1286.4092],[-105.8608,29.6188,1284.115],[-105.8585,29.6133,1280.832],[-105.8558,29.6277,1286.1566],[-105.857,29.6375,1289.5944],[-105.849,29.6497,1294.3385],[-105.8382,29.6466,1411.886],[-105.6795,29.6468,1419.0023],[-105.6813,29.6448,1407.6531],[-105.6816,29.5917,1441.4355],[-105.6332,29.5915,1430.75],[-105.6338,29.5047,1411.0594],[-105.4428,29.5026,1991.1292],[-105.4434,29.4967,2074.9033],[-105.4499,29.4907,1886.5427],[-105.4668,29.4887,1760.0397],[-105.4694,29.4789,1732.5974],[-105.4719,29.4772,1726.5964],[-105.4728,29.4738,1717.2489],[-105.4803,29.4637,1681.2177],[-105.4784,29.4468,1640.6472],[-105.4795,29.4377,1621.6802],[-105.4781,29.4333,1605.902],[-105.4543,29.4097,1536.4388],[-105.4456,29.4159,1556.8259],[-105.4181,29.4218,1538.212],[-105.395,29.4151,1570.4563],[-105.3695,29.4178,1663.8981],[-105.3659,29.4198,1734.1096],[-105.3498,29.4005,1895.6907],[-105.3527,29.3906,1896.501],[-105.3631,29.3815,1485.3423],[-105.3647,29.3763,1487.4639],[-105.3618,29.3745,1490.6593],[-105.3567,29.3743,1491.1826],[-105.3504,29.3694,1484.4928],[-105.342,29.3657,1498.5455],[-105.3359,29.365,1446.0425],[-105.3314,29.3625,1405.8252],[-105.3286,29.3642,1412.0365],[-105.3268,29.3611,1400.1582],[-105.3203,29.3636,1425.6875],[-105.3234,29.3554,1407.6859],[-105.319,29.3509,1437.719],[-105.3124,29.3476,1474.6401],[-105.3089,29.3373,1405.2899],[-105.3053,29.3357,1391.7273],[-105.2973,29.3409,1460.8501],[-105.2024,29.2396,1153.1603],[-105.158,29.21,1144.0408],[-105.141,29.2047,1087.8257],[-105.0856,29.2053,1061.9371],[-105.0735,29.2135,1000.9329],[-105.0686,29.2128,1036.9844],[-105.069,29.2108,1007.5327],[-105.0655,29.2084,989.2617],[-105.0631,29.201,965.4109],[-105.0607,29.2006,956.1447],[-105.0573,29.188,971.8712],[-105.0478,29.1865,963.6115],[-105.045,29.1834,981.8787],[-105.0454,29.1782,956.1209],[-105.0591,29.1667,998.9191],[-105.0591,29.1628,1010.6395],[-105.0624,29.1585,954.5225],[-105.0609,29.1566,957.8953],[-105.0611,29.1503,970.3943],[-105.0628,29.1468,961.1133],[-105.0671,29.145,956.8745],[-105.0636,29.1266,960.1701],[-105.0708,29.1232,961.081],[-105.0773,29.1222,962.7944],[-105.0768,29.1145,964.0911],[-105.0789,29.1125,965.8033],[-105.0827,29.1123,967.9128],[-105.09,29.1042,964.3236],[-105.0958,29.1051,964.5273],[-105.1077,29.1018,968.9323],[-105.1097,29.0974,970.3505],[-105.1057,29.0962,966.6237],[-105.1043,29.0868,979.2385],[-105.1136,29.0785,974.5018],[-105.1127,29.0767,983.605],[-105.1324,29.0494,998.0481],[-105.0618,28.978,1062.8385],[-105.0614,28.9912,1089.2571],[-105.0378,28.996,1090.5841],[-105.0114,28.989,1123.8655],[-104.9963,28.9877,1146.0757],[-104.9845,28.983,1165.4668],[-104.9779,28.9852,1174.3313],[-104.955,28.9838,1165.5176],[-104.9163,29.0071,1212.6699],[-104.8969,28.9739,1197.5067],[-104.8401,28.9948,1174.4912],[-104.8295,28.9815,1160.684],[-104.8186,28.9622,1148.5205],[-104.7826,28.9641,1148.9235],[-104.7667,29.0234,1203.4922],[-104.6183,29.1403,1246.8494],[-104.6134,29.1935,1351.1646],[-104.5366,29.1941,1256.1248],[-104.583,29.2538,1515.8937],[-104.6004,29.2658,1569.7014],[-104.5514,29.2876,1460.3536],[-104.5435,29.295,1579.4269],[-104.5595,29.3055,1459.3235],[-104.6064,29.3569,1497.2048],[-104.6484,29.3722,1690.3542],[-104.6742,29.3869,1366.6692],[-104.6914,29.3601,1400.4247],[-104.7372,29.4353,1214.5171],[-104.7693,29.4609,938.3414],[-104.8016,29.4928,1164.2166],[-104.7894,29.523,1031.986],[-104.797,29.7135,1681.7365],[-104.8621,29.7256,1143.8082],[-104.8594,29.7279,1155.1262],[-104.8619,29.7329,1169.1284],[-104.8687,29.7343,1160.0308],[-104.8753,29.747,1170.045],[-104.887,29.7561,1186.5508],[-104.892,29.7625,1207.4548],[-104.8977,29.7644,1190.9224],[-104.8981,29.7659,1199.1267],[-104.8432,29.7937,1430.4558],[-104.8385,29.8114,1406.5979],[-104.8363,29.8118,1393.1821],[-104.8348,29.8165,1389.4667],[-104.8358,29.8223,1437.8184],[-104.8312,29.8395,1440.7664],[-104.8317,29.8508,1472.4585],[-104.8271,29.8835,1759.2833],[-104.8537,29.8843,1525.6157],[-104.8501,29.8898,1572.1837],[-104.8552,29.9039,1600.2607],[-104.8606,29.9099,1551.4521],[-104.8601,29.9133,1498.1066],[-104.8618,29.9148,1483.4067],[-104.866,29.9147,1473.3013],[-104.8644,29.9161,1493.6118],[-104.8654,29.9169,1493.6118],[-104.8726,29.9188,1449.9691],[-104.8756,29.9229,1435.7001],[-104.8853,29.9282,1416.5138],[-104.8851,29.9311,1419.9559],[-104.8829,29.9321,1425.7539],[-104.8809,29.936,1438.2925],[-104.8738,29.9312,1439.6271],[-104.8722,29.9376,1456.7886],[-104.8663,29.9438,1476.3597],[-104.8644,29.9519,1491.8728],[-104.8672,29.9637,1534.6755],[-104.8614,29.9697,1572.0698],[-104.8579,29.9726,1604.5027],[-104.836,29.9693,1906.7417],[-104.8282,29.9951,1931.7264],[-104.8632,30.0075,2005.1262],[-104.8774,30.0534,1517.9506],[-104.866,30.0644,1623.7302],[-104.8794,30.084,1611.9147],[-104.8777,30.0946,1471.3169],[-104.8841,30.0995,1427.6431],[-104.8861,30.106,1415.208],[-104.8828,30.1079,1413.1626],[-104.8827,30.1132,1420.0601],[-104.8786,30.1218,1386.4022],[-104.8787,30.1279,1382.9657],[-104.8766,30.1275,1360.4169],[-104.8885,30.1371,1361.2681],[-104.8991,30.1373,1326.6702],[-104.8902,30.143,1500.3086],[-104.8876,30.1514,1478.6995],[-104.8788,30.1638,1484.7401],[-104.8767,30.1748,1443.511],[-104.9038,30.1732,1441.48],[-104.9119,30.2289,1321.5247],[-104.9261,30.2587,1400.318],[-104.9304,30.258,1448.8169],[-104.928,30.2623,1376.9536],[-104.9387,30.2844,1712.2634],[-104.8963,30.3483,1063.2405],[-104.8763,30.381,971.3042],[-104.953,30.3829,1935.5924],[-105.026,30.5078,1158.78],[-105.1022,30.5086,1307.0228],[-105.0929,30.4841,1206.1447],[-105.1714,30.4848,1169.4535],[-105.1667,30.383,1163.998],[-105.2086,30.3829,1184.4971],[-105.2085,30.3545,1179.9536],[-105.2608,30.3557,1226.7267],[-105.2617,30.4283,1242.5132],[-105.3142,30.4287,1305.931],[-105.3143,30.3776,1253.9741],[-105.3677,30.3777,1295.6095],[-105.3518,30.3294,1336.6648],[-105.493,30.3305,1337.7163],[-105.484,30.2933,1335.736],[-105.5216,30.2928,1295.3809],[-105.5194,30.3251,1300.7449],[-105.5631,30.3377,1271.4297],[-105.5697,30.3449,1263.4155],[-105.5637,30.3247,1271.4255],[-105.5704,30.3247,1267.7972],[-105.5882,30.3294,1256.9783],[-105.6248,30.3311,1313.8845],[-105.6251,30.3117,1242.326],[-105.6536,30.3117,1232.0321],[-105.6537,30.3032,1228.7029],[-105.6591,30.3022,1229.4022],[-105.662,30.2972,1235.3484],[-105.671,30.2949,1245.8772],[-105.6772,30.2892,1253.761],[-105.6922,30.2817,1270.6685],[-105.6871,30.2718,1271.2618],[-105.6739,30.2612,1254.0059],[-105.6809,30.2391,1266.5459],[-105.6253,30.2388,1234.6105],[-105.6255,30.1881,1303.2378],[-105.6871,30.219,1275.3318],[-105.6924,30.2122,1273.4351],[-105.6926,30.2073,1271.8436],[-105.6985,30.2059,1274.2887],[-105.7015,30.2019,1277.3081],[-105.7041,30.2013,1277.8408],[-105.7063,30.1953,1282.6541],[-105.7088,30.1951,1282.5271],[-105.7056,30.1904,1288.3622],[-105.7257,30.1759,1296.3939],[-105.7451,30.1659,1300.0193],[-105.7514,30.1656,1304.4619],[-105.753,30.1636,1307.5249],[-105.7657,30.1638,1319.1735],[-105.7743,30.1525,1327.7905],[-105.7835,30.1461,1341.771],[-105.8281,30.1258,1367.6832],[-105.8592,30.0985,1356.1558],[-105.8738,30.0816,1324.6851],[-105.8798,30.0785,1321.9741],[-105.8971,30.064,1321.764],[-105.8995,30.0571,1321.0608],[-105.9053,30.0499,1319.2006],[-105.901,30.0295,1318.9966],[-105.7726,30.0283,1311.3757],[-105.768,29.882,1278.6105],[-105.8098,29.8818,1322.0029],[-105.8057,29.7832,1330.965],[-105.8796,29.7775,1449.6182],[-105.818,29.7473,1312.8951],[-105.8271,29.7011,1308.9027],[-105.8557,29.6932,1328.8243],[-105.8681,29.6958,1345.5979],[-105.8729,29.6938,1350.9261],[-105.8818,29.696,1373.2993],[-105.8883,29.7093,1388.2576],[-105.8974,29.7072,1414.2048],[-105.9091,29.701,1406.0226],[-105.9078,29.6929,1393.6978],[-105.9096,29.6934,1395.6437],[-105.9099,29.6662,1355.0093]]]]}}