{"type": "Feature","bbox": [-101.4601,20.2464,-101.0785,20.5472],"geometry": {"type": "MultiPolygon","coordinates": [[[[-101.4121,20.3857,1695.3989],[-101.4192,20.3756,1694.6157],[-101.4226,20.3765,1694.5618],[-101.4265,20.3805,1695.6666],[-101.4288,20.3792,1694.661],[-101.4341,20.3591,1694.2281],[-101.4372,20.3551,1694.9955],[-101.4429,20.3561,1693.7643],[-101.4408,20.348,1693.5411],[-101.4412,20.34,1693.4429],[-101.4465,20.3317,1697.3346],[-101.4549,20.3327,1693.0604],[-101.4573,20.3254,1695.1628],[-101.4601,20.3235,1692.8789],[-101.4568,20.3193,1694.561],[-101.4509,20.3195,1710.3804],[-101.4515,20.3178,1699.7366],[-101.4549,20.3179,1695.9198],[-101.4567,20.3044,1721.5219],[-101.4402,20.3052,1721.8877],[-101.4404,20.3035,1727.1975],[-101.4497,20.2982,1737.9319],[-101.4446,20.2951,1752.5886],[-101.445,20.2897,1768.7545],[-101.4483,20.2896,1833.1102],[-101.4493,20.2875,1799.4141],[-101.4572,20.2851,1761.3507],[-101.4584,20.276,1780.589],[-101.4538,20.274,1820.6749],[-101.4563,20.2739,1808.3567],[-101.4566,20.2712,1828.6259],[-101.459,20.2702,1802.1611],[-101.4559,20.2672,1895.3192],[-101.4467,20.264,1926.9156],[-101.4369,20.2638,1964.7554],[-101.4355,20.2774,1852.4584],[-101.4206,20.2752,1947.5754],[-101.4156,20.2648,2047.4008],[-101.4065,20.2636,2189.6118],[-101.3953,20.2485,2363.9805],[-101.3614,20.249,2044.2524],[-101.3635,20.2531,2036.5642],[-101.3567,20.254,1982.5653],[-101.3496,20.2636,1871.8456],[-101.3467,20.2654,1861.0348],[-101.3436,20.2716,1846.9248],[-101.3316,20.2683,1862.7095],[-101.3317,20.271,1847.8607],[-101.3286,20.2707,1851.799],[-101.3261,20.2738,1867.7388],[-101.3243,20.2738,1867.7388],[-101.3253,20.2674,1866.8037],[-101.3285,20.266,1873.197],[-101.3242,20.2628,1858.8533],[-101.3237,20.2681,1860.2611],[-101.321,20.2712,1869.8025],[-101.3205,20.2756,1880.4698],[-101.3171,20.2752,1875.0164],[-101.3143,20.2774,1902.2349],[-101.314,20.2746,1897.7554],[-101.3076,20.2766,1918.2444],[-101.3019,20.2745,1936.4172],[-101.3005,20.278199999999998,1959.1166],[-101.3053,20.287,2005.641],[-101.2982,20.2849,2014.5297],[-101.2904,20.285,2061.0408],[-101.2713,20.2871,2208.4072],[-101.2464,20.2935,2205.3965],[-101.2439,20.2879,2140.624],[-101.2446,20.2838,2124.2458],[-101.2329,20.2822,2051.2744],[-101.2258,20.2732,1937.0024],[-101.2244,20.2737,1962.8479],[-101.2263,20.2801,2037.3257],[-101.2229,20.2811,2047.0034],[-101.2229,20.2787,1982.4371],[-101.217,20.2732,1924.1116],[-101.2168,20.2712,1920.1376],[-101.2129,20.2692,1890.0725],[-101.2125,20.2648,1867.3569],[-101.208,20.2648,1853.4597],[-101.2084,20.2601,1814.2397],[-101.2059,20.2546,1784.9734],[-101.2071,20.2493,1775.0416],[-101.2052,20.2464,1743.9818],[-101.2042,20.2478,1736.3757],[-101.1967,20.2488,1730.9531],[-101.1939,20.2516,1728.7877],[-101.1935,20.2544,1731.1569],[-101.1889,20.2578,1736.696],[-101.1784,20.2599,1732.9407],[-101.1763,20.2644,1738.1758],[-101.1691,20.272,1733.7941],[-101.1564,20.274,1730.0953],[-101.1465,20.2663,1732.8193],[-101.1442,20.2624,1732.1636],[-101.1396,20.2638,1734.3389],[-101.1381,20.2658,1730.7588],[-101.1405,20.2705,1734.6301],[-101.1297,20.2745,1732.5986],[-101.1283,20.2768,1731.6826],[-101.1193,20.2781,1732.6765],[-101.1118,20.2769,1732.0327],[-101.1139,20.2899,2086.9036],[-101.1127,20.2917,2090.1047],[-101.1167,20.3024,2070.9436],[-101.1072,20.2997,2024.0743],[-101.1062,20.2972,2031.7234],[-101.1052,20.2986,2007.9777],[-101.0942,20.2909,1770.8651],[-101.0845,20.3012,1773.786],[-101.0785,20.3007,1734.4839],[-101.0794,20.3069,1730.9585],[-101.0967,20.3091,1939.6298],[-101.0985,20.3168,1988.3798],[-101.1095,20.3172,2160.1096],[-101.1095,20.3267,1995.0977],[-101.1061,20.3461,1904.7042],[-101.1127,20.3871,1718.599],[-101.1131,20.3981,1718.864],[-101.1117,20.4012,1718.9575],[-101.102,20.4055,1719.6149],[-101.0981,20.4042,1719.5542],[-101.0873,20.4077,1720.3008],[-101.0861,20.4095,1721.2317],[-101.0873,20.4153,1719.9559],[-101.1003,20.4169,1720.0939],[-101.094,20.425,1718.2833],[-101.1015,20.4352,1717.679],[-101.0931,20.4355,1718.4443],[-101.094,20.4407,1718.5127],[-101.0983,20.4429,1717.9089],[-101.0996,20.4471,1718.0188],[-101.1017,20.4481,1718.1334],[-101.102,20.4505,1718.0009],[-101.1,20.4527,1717.4221],[-101.1005,20.4566,1717.7529],[-101.1027,20.4576,1717.9419],[-101.1013,20.4618,1717.6498],[-101.1092,20.4636,1716.7471],[-101.1126,20.4663,1717.1719],[-101.1146,20.4684,1717.3949],[-101.1134,20.4732,1716.6243],[-101.1151,20.475,1716.8965],[-101.1187,20.4754,1716.597],[-101.1281,20.4899,1717.2144],[-101.1314,20.4899,1717.1156],[-101.139,20.4833,1715.3434],[-101.1376,20.4759,1715.7296],[-101.1392,20.4742,1715.918],[-101.1413,20.4742,1715.3679],[-101.1414,20.4768,1715.4382],[-101.1448,20.4769,1715.2068],[-101.1469,20.4798,1715.205],[-101.1492,20.4786,1715.0341],[-101.1504,20.4806,1714.9429],[-101.1533,20.4779,1714.3025],[-101.1566,20.4849,1714.6812],[-101.1669,20.4842,1717.7183],[-101.182,20.478,1722.5305],[-101.1826,20.468,1716.1434],[-101.2016,20.4711,1720.61],[-101.211,20.4695,1729.1211],[-101.213,20.4643,1740.2185],[-101.2256,20.4554,1784.7179],[-101.2317,20.4606,1774.9019],[-101.2343,20.4507,1824.0515],[-101.2397,20.4519,1847.2997],[-101.24,20.4533,1863.934],[-101.2355,20.4579,1805.6365],[-101.236,20.4615,1789.6158],[-101.2452,20.461,1811.748],[-101.244,20.4646,1758.7705],[-101.2463,20.4788,1714.8193],[-101.2522,20.4804,1712.886],[-101.2522,20.4756,1715.7971],[-101.2534,20.4754,1718.6719],[-101.2535,20.4771,1713.788],[-101.2558,20.4767,1716.0988],[-101.2597,20.4949,1715.4207],[-101.2647,20.4966,1707.6042],[-101.2731,20.4968,1705.8818],[-101.2783,20.5024,1708.4409],[-101.2815,20.5023,1708.7189],[-101.2952,20.4965,1705.3983],[-101.2938,20.4996,1705.2876],[-101.2938,20.5084,1707.5957],[-101.2899,20.5086,1704.8358],[-101.292,20.5152,1703.1472],[-101.2856,20.5193,1703.4417],[-101.2834,20.5235,1709.7161],[-101.2836,20.5308,1704.1106],[-101.2815,20.5313,1703.851],[-101.2819,20.5327,1704.1176],[-101.2925,20.5337,1705.3868],[-101.2947,20.5324,1705.5012],[-101.2956,20.5347,1704.9503],[-101.2986,20.5346,1704.7977],[-101.3059,20.5313,1703.7977],[-101.3061,20.5276,1703.3059],[-101.3098,20.526,1702.8346],[-101.3107,20.5276,1703.6677],[-101.3089,20.5388,1702.7587],[-101.313,20.5395,1702.6372],[-101.3138,20.5365,1704.1179],[-101.3215,20.5351,1702.3291],[-101.3235,20.5387,1701.9926],[-101.3278,20.539,1702.0154],[-101.3399,20.5472,1702.0219],[-101.3424,20.5423,1702.61],[-101.3409,20.5362,1701.2229],[-101.3514,20.5367,1701.0137],[-101.3672,20.5262,1700.0878],[-101.3685,20.5235,1698.6902],[-101.3672,20.5193,1700.4321],[-101.3701,20.5117,1699.4838],[-101.367,20.5045,1700.2173],[-101.3697,20.4918,1699.2092],[-101.372,20.4878,1698.8369],[-101.386,20.4822,1698.8434],[-101.3908,20.4857,1699.4945],[-101.3903,20.4806,1699.4961],[-101.3948,20.4754,1699.9883],[-101.3974,20.477,1699.5718],[-101.3987,20.4829,1697.543],[-101.4015,20.4826,1697.4934],[-101.403,20.4792,1697.3918],[-101.4027,20.4766,1698.2098],[-101.3988,20.4728,1697.782],[-101.3897,20.4579,1697.0361],[-101.39,20.4528,1696.7247],[-101.3871,20.4482,1698.0983],[-101.3886,20.4422,1697.6912],[-101.3839,20.4343,1697.6285],[-101.3844,20.4303,1697.1986],[-101.3807,20.4266,1696.5996],[-101.38,20.4157,1697.4663],[-101.3843,20.4128,1696.4401],[-101.389,20.416,1696.3772],[-101.3926,20.4155,1696.6981],[-101.3972,20.4133,1696.1681],[-101.4013,20.4069,1698.6279],[-101.4069,20.4073,1701.3853],[-101.4072,20.4039,1697.3009],[-101.4036,20.3976,1696.5526],[-101.4052,20.3941,1695.4926],[-101.4099,20.3943,1696.061],[-101.4126,20.3928,1695.3844],[-101.4109,20.3876,1694.8536],[-101.4121,20.3857,1695.3989]]]]}
,"properties": {"GID_2": "MEX.11.42_2","GID_0": "MEX","country": "México","GID_1": "MEX.11_1","province": "Guanajuato","NL_NAME_1": "NA","county": "ValledeSantiago","VARNAME_2": "NA","NL_NAME_2": "NA","TYPE_2": "Município","ENGTYPE_2": "Municipality","CC_2": "NA","HASC_2": "NA","name": "Vallede_Santiago.county","area_km2": 822.0395,"hist_schema_id": "Elevation0-9000","hist_area_km2": {"1675": 0.5563,"1700": 143.2803,"1725": 226.096,"1750": 67.676,"1775": 57.088,"1800": 49.2207,"1825": 47.7741,"1850": 37.2789,"1875": 29.3259,"1900": 24.5939,"1925": 19.2661,"1950": 14.9319,"1975": 12.6059,"2000": 12.2082,"2025": 11.2542,"2050": 9.9223,"2075": 8.6498,"2100": 6.7609,"2125": 6.065,"2150": 6.3832,"2175": 7.0395,"2200": 6.085,"2225": 5.6078,"2250": 4.0965,"2275": 2.7245,"2300": 2.1677,"2325": 1.1336,"2350": 0.8551,"2375": 0.6364,"2400": 0.6562,"2425": 0.0398,"2450": 0.0597}}}