{"type": "Feature","bbox": [-104.4736,19.588,-104.1364,19.926],"geometry": {"type": "MultiPolygon","coordinates": [[[[-104.2903,19.8579,913.8372],[-104.305,19.8638,990.3297],[-104.3082,19.8709,972.4709],[-104.3146,19.8705,1024.5],[-104.3185,19.872,1008.1535],[-104.3215,19.877,949.7238],[-104.3315,19.8776,952.3995],[-104.3334,19.8852,994.0436],[-104.3396,19.8811,972.4691],[-104.3419,19.883,964.1001],[-104.3408,19.8871,1001.909],[-104.3458,19.8898,987.8121],[-104.3509,19.8889,977.2716],[-104.353,19.8903,993.3998],[-104.356,19.8973,1031.4778],[-104.3562,19.9038,1009.6722],[-104.3638,19.9062,1076.2637],[-104.3621,19.9201,1140.7623],[-104.3632,19.9231,1045.2528],[-104.3677,19.926,1087.3945],[-104.3712,19.9245,1097.884],[-104.3754,19.9178,1143.5951],[-104.3803,19.9155,1155.0521],[-104.3829,19.9176,1141.5729],[-104.3879,19.9164,1171.8771],[-104.3907,19.9215,1175.1016],[-104.3963,19.9172,1224.6372],[-104.4024,19.921,1253.4154],[-104.4021,19.9175,1286.793],[-104.4042,19.9166,1257.5138],[-104.4054,19.9184,1271.4133],[-104.4084,19.9155,1272.1268],[-104.4095,19.9196,1275.1826],[-104.4108,19.9194,1275.1826],[-104.4143,19.9144,1348.6373],[-104.4174,19.9138,1377.6434],[-104.4165,19.9127,1359.3624],[-104.4188,19.9089,1371.8628],[-104.416,19.9046,1439.4951],[-104.4199,19.9029,1407.4985],[-104.4217,19.8996,1470.426],[-104.4196,19.8966,1450.3822],[-104.4223,19.8934,1507.5247],[-104.4203,19.8913,1524.6796],[-104.4217,19.8867,1560.9824],[-104.4241,19.8852,1617.0233],[-104.4369,19.8851,1799.0026],[-104.4394,19.8783,1985.499],[-104.445,19.8745,2015.5193],[-104.4444,19.8717,2050.2095],[-104.4472,19.868,2099.7542],[-104.4478,19.8599,2194.6243],[-104.4502,19.8542,2167.9521],[-104.456,19.8468,2190.0413],[-104.4523,19.8461,2157.1584],[-104.4487,19.8426,1997.123],[-104.4488,19.841,1943.3051],[-104.4501,19.8417,1978.7683],[-104.4482,19.8398,1889.9785],[-104.4496,19.8398,1889.9785],[-104.4487,19.8371,1819.2078],[-104.4469,19.8368,1797.0811],[-104.4468,19.8329,1669.405],[-104.437,19.8263,1489.5239],[-104.4363,19.8242,1438.9694],[-104.4396,19.826,1454.5439],[-104.4427,19.8243,1542.6771],[-104.4477,19.8256,1645.4709],[-104.4631,19.8248,1971.5906],[-104.4652,19.815,1812.1985],[-104.4736,19.7996,1809.6293],[-104.4716,19.796,1728.3486],[-104.4732,19.7914,1606.5828],[-104.4709,19.7861,1503.8273],[-104.4714,19.7789,1436.6086],[-104.4639,19.7748,1426.2848],[-104.4597,19.7664,1300.676],[-104.4574,19.7653,1244.1948],[-104.4552,19.7589,1182.3048],[-104.4409,19.7586,1068.1384],[-104.4375,19.7559,1049.881],[-104.4253,19.7594,1017.4871],[-104.4262,19.7512,1128.8916],[-104.4248,19.7438,1367.8049],[-104.4086,19.7326,1495.957],[-104.4046,19.7317,1463.1422],[-104.3965,19.7359,1266.7794],[-104.3932,19.7354,1215.0767],[-104.388,19.7396,1125.9329],[-104.3788,19.7355,994.2746],[-104.3853,19.7416,1220.3954],[-104.3728,19.7439,935.8282],[-104.3741,19.7403,965.9384],[-104.3707,19.7414,913.139],[-104.3733,19.733,971.8283],[-104.3756,19.7338,1025.4525],[-104.38,19.7303,1102.752],[-104.3839,19.7294,1202.5135],[-104.3828,19.7223,1320.8851],[-104.3846,19.7181,1436.2905],[-104.3891,19.7177,1479.9585],[-104.3927,19.7152,1424.3164],[-104.3866,19.7107,1548.2422],[-104.3862,19.7059,1584.4277],[-104.3879,19.7012,1357.3105],[-104.3869,19.6981,1324.5428],[-104.3779,19.6939,1202.0488],[-104.3752,19.6907,1045.6086],[-104.3687,19.6898,957.7188],[-104.3745,19.6789,1215.7778],[-104.3787,19.6755,1470.3223],[-104.3764,19.6728,1584.6062],[-104.3798,19.6668,1625.6541],[-104.3782,19.6647,1686.4038],[-104.3795,19.6613,1774.3899],[-104.3749,19.6586,1721.7188],[-104.3776,19.6548,1388.0232],[-104.3755,19.6529,1358.0251],[-104.3765,19.6517,1250.4633],[-104.3744,19.6488,1248.5696],[-104.3758,19.647,1128.8945],[-104.374,19.6455,1128.8945],[-104.3749,19.6413,1007.5519],[-104.3724,19.6387,891.5782],[-104.373,19.634,810.704],[-104.3811,19.6269,707.524],[-104.3904,19.6263,619.2797],[-104.3754,19.6184,862.5095],[-104.3637,19.618,1003.7875],[-104.3607,19.6157,1053.2463],[-104.351,19.6137,1255.5548],[-104.348,19.606,1438.0205],[-104.3494,19.601,1695.2523],[-104.3405,19.6004,1563.2799],[-104.3422,19.6023,1606.4695],[-104.3366,19.6044,1594.9709],[-104.3341,19.6073,1640.4561],[-104.3316,19.6071,1667.2086],[-104.3344,19.6043,1639.1321],[-104.3283,19.6059,1705.8004],[-104.3257,19.6036,1693.038],[-104.3219,19.6056,1756.0054],[-104.3226,19.6035,1705.239],[-104.3208,19.6036,1773.8539],[-104.3234,19.6001,1746.3279],[-104.3214,19.6002,1738.2111],[-104.3102,19.6069,1924.1196],[-104.2992,19.6038,1960.8728],[-104.2975,19.5978,1971.6727],[-104.294,19.5986,1991.9426],[-104.2922,19.5959,1995.1044],[-104.2812,19.5932,1878.8667],[-104.2744,19.5887,1918.6466],[-104.2647,19.588,1993.9585],[-104.2625,19.5893,2078.9192],[-104.2605,19.5947,2177.4346],[-104.245,19.5938,2024.9014],[-104.2436,19.5967,2004.515],[-104.2353,19.5978,1886.5808],[-104.2314,19.5966,1822.7782],[-104.2284,19.5978,1802.454],[-104.2262,19.5941,1714.9189],[-104.223,19.5927,1633.4314],[-104.2243,19.5911,1623.8586],[-104.2218,19.5912,1613.8057],[-104.2208,19.5944,1613.3301],[-104.2158,19.5935,1558.4512],[-104.2143,19.5969,1530.7277],[-104.2061,19.6002,1556.3923],[-104.2048,19.6052,1522.6965],[-104.1996,19.6134,1474.9655],[-104.2006,19.6161,1438.7675],[-104.2037,19.6173,1488.3773],[-104.2025,19.6198,1435.834],[-104.1991,19.618,1433.7446],[-104.1947,19.6222,1416.9038],[-104.1858,19.6236,1374.8959],[-104.1829,19.6303,1275.7217],[-104.1787,19.632,1238.9019],[-104.1752,19.643,1140.782],[-104.1707,19.6469,1109.5608],[-104.172,19.6493,1095.1702],[-104.171,19.6513,1079.3154],[-104.1625,19.6552,1064.58],[-104.1611,19.6602,1037.7188],[-104.1571,19.6615,1024.5298],[-104.1582,19.6652,1076.2458],[-104.1467,19.6717,956.0771],[-104.1384,19.6909,845.4528],[-104.1364,19.6922,876.3701],[-104.1472,19.6902,850.5809],[-104.1484,19.6915,865.4993],[-104.1499,19.6956,855.9661],[-104.1429,19.6986,865.0323],[-104.1424,19.702,851.8109],[-104.1457,19.7072,853.6555],[-104.1541,19.7061,851.5165],[-104.1521,19.7103,853.8506],[-104.1541,19.7144,852.4524],[-104.1532,19.7165,858.5231],[-104.1562,19.716,855.0217],[-104.1595,19.7215,857.8521],[-104.1584,19.7277,853.874],[-104.1636,19.7366,856.3553],[-104.1669,19.732,856.0087],[-104.1721,19.7326,854.4066],[-104.1752,19.7349,856.8359],[-104.1738,19.7391,856.1423],[-104.1747,19.7411,855.8157],[-104.1811,19.7442,858.4292],[-104.18,19.7393,855.5779],[-104.185,19.7396,856.8353],[-104.187,19.7426,856.4114],[-104.1874,19.7476,856.4094],[-104.1905,19.7481,857.7975],[-104.1913,19.7461,857.7207],[-104.1929,19.7468,858.6799],[-104.1932,19.7498,857.0856],[-104.1965,19.7518,857.4093],[-104.2009,19.7501,858.5344],[-104.2024,19.7527,859.3646],[-104.2063,19.7543,859.3541],[-104.2103,19.7532,861.9674],[-104.2106,19.7563,859.4033],[-104.2157,19.7589,860.2679],[-104.2152,19.7638,864.1269],[-104.2173,19.7681,864.0055],[-104.2174,19.7733,864.2661],[-104.2188,19.7742,865.0414],[-104.2191,19.7729,863.84],[-104.2222,19.7726,863.2046],[-104.2217,19.774,863.8022],[-104.2228,19.7729,863.2046],[-104.2275,19.7752,863.9977],[-104.2257,19.7773,864.5231],[-104.2255,19.79,867.5787],[-104.2316,19.7916,866.0803],[-104.23,19.7947,866.4121],[-104.2359,19.7976,867.7416],[-104.2392,19.8021,868.8716],[-104.241,19.8156,870.8408],[-104.2433,19.8197,871.2537],[-104.2409,19.8205,871.3406],[-104.2419,19.8236,872.2203],[-104.2437,19.8245,873.6657],[-104.249,19.823,874.3563],[-104.256,19.8275,881.0847],[-104.2736,19.8233,884.0543],[-104.2791,19.8262,883.7436],[-104.283,19.8322,886.3282],[-104.2819,19.839,890.8472],[-104.2827,19.8489,901.2324],[-104.2903,19.8579,913.8372]]]]}
,"properties": {"GID_2": "MEX.14.13_2","GID_0": "MEX","country": "México","GID_1": "MEX.14_1","province": "Jalisco","NL_NAME_1": "NA","county": "AutlándeNavarro","VARNAME_2": "NA","NL_NAME_2": "NA","TYPE_2": "Município","ENGTYPE_2": "Municipality","CC_2": "NA","HASC_2": "NA","name": "Autlánde_Navarro.county","area_km2": 706.7544,"hist_schema_id": "Elevation0-9000","hist_area_km2": {"650": 0.0799,"675": 0.0599,"700": 0.0999,"725": 0.0999,"750": 0.1198,"775": 0.2596,"800": 0.1797,"825": 0.2197,"850": 9.6593,"875": 70.896,"900": 55.8136,"925": 38.2934,"950": 24.8031,"975": 21.8505,"1000": 17.042,"1025": 16.7826,"1050": 16.364,"1075": 16.2841,"1100": 15.2264,"1125": 15.3466,"1150": 13.9697,"1175": 14.1495,"1200": 14.409,"1225": 14.4087,"1250": 14.1696,"1275": 12.593,"1300": 12.4136,"1325": 13.152,"1350": 12.3334,"1375": 12.8521,"1400": 13.6695,"1425": 13.6299,"1450": 12.5919,"1475": 12.2531,"1500": 11.9328,"1525": 12.5317,"1550": 11.275,"1575": 10.656,"1600": 10.296,"1625": 10.8951,"1650": 9.1991,"1675": 9.2193,"1700": 8.2413,"1725": 9.0598,"1750": 8.4818,"1775": 7.8031,"1800": 7.544,"1825": 7.1252,"1850": 6.8264,"1875": 6.647,"1900": 6.8468,"1925": 6.7073,"1950": 6.3479,"1975": 5.6488,"2000": 4.7505,"2025": 3.8123,"2050": 3.5324,"2075": 2.5142,"2100": 1.9951,"2125": 1.596,"2150": 1.3567,"2175": 1.197,"2200": 1.1368,"2225": 1.1765,"2250": 1.0968,"2275": 1.1766,"2300": 0.5584,"2325": 0.4587,"2350": 0.5185,"2375": 0.2592,"2400": 0.1994,"2425": 0.0399,"2450": 0.0199}}}