{"type":"Feature","properties":{"GID_2":"MEX.30.67_2","GID_0":"MEX","country":"México","GID_1":"MEX.30_1","province":"Veracruz","NL_NAME_1":"NA","county":"Espinal","VARNAME_2":"NA","NL_NAME_2":"NA","TYPE_2":"Município","ENGTYPE_2":"Municipality","CC_2":"NA","HASC_2":"NA","name":"Espinal.county"},
"geometry":{"type": "MultiPolygon","coordinates": [[[[-97.3793,20.2496,47.0539],[-97.3784,20.2547,48.4301],[-97.3799,20.255,55.1802],[-97.38,20.2584,75.1177],[-97.3865,20.2605,96.062],[-97.3943,20.2671,121.7489],[-97.4012,20.2821,113.8885],[-97.4074,20.2786,169.628],[-97.406,20.2903,70.8938],[-97.4079,20.2908,74.9872],[-97.4073,20.2972,78.0818],[-97.4092,20.2995,83.2438],[-97.3983,20.303,82.4224],[-97.4007,20.3056,94.2911],[-97.4038,20.3068,89.2797],[-97.4047,20.3058,93.2925],[-97.4098,20.31,82.2596],[-97.4161,20.3077,76.8772],[-97.432,20.3231,88.0834],[-97.4382,20.3239,110.2036],[-97.4455,20.3276,103.6349],[-97.4474,20.3251,106.6127],[-97.4519,20.3258,104.6525],[-97.4516,20.3288,111.1021],[-97.4503,20.3283,104.1546],[-97.4498,20.3297,111.1021],[-97.4553,20.3325,113.776],[-97.4587,20.3286,121.9727],[-97.4703,20.3275,127.8192],[-97.4806,20.3313,122.2037],[-97.4813,20.3296,127.1177],[-97.4938,20.3346,148.6063],[-97.5159,20.3395,262.592],[-97.5103,20.3531,231.6513],[-97.5126,20.3535,194.619],[-97.5128,20.3571,199.9481],[-97.5159,20.3575,223.3985],[-97.5152,20.3618,220.0422],[-97.5182,20.3617,228.7145],[-97.5207,20.3694,252.9217],[-97.5255,20.37,224.6164],[-97.5261,20.3655,183.4974],[-97.5279,20.367,161.7699],[-97.5328,20.3661,158.8869],[-97.5326,20.3645,150.4721],[-97.5356,20.364,151.165],[-97.5353,20.3612,148.6863],[-97.5408,20.3603,142.1132],[-97.5458,20.362,132.29],[-97.5484,20.3566,125.2872],[-97.5582,20.3578,130.2942],[-97.5702,20.3562,111.7145],[-97.5745,20.3499,122.0734],[-97.5827,20.347,120.3632],[-97.5841,20.3384,132.6358],[-97.5781,20.3322,136.9367],[-97.58,20.3235,111.8976],[-97.583,20.3193,122.2322],[-97.585,20.3175,127.9282],[-97.5886,20.3174,157.4176],[-97.5955,20.3189,235.0609],[-97.5956,20.3215,245.3286],[-97.5961,20.3198,241.2471],[-97.6008,20.3204,143.9294],[-97.6014,20.3171,150.5794],[-97.6042,20.3174,121.8108],[-97.6048,20.3134,112.934],[-97.603,20.3124,114.8771],[-97.6033,20.3104,109.2004],[-97.6014,20.3101,110.8544],[-97.602,20.3067,109.8435],[-97.5999,20.3064,107.1492],[-97.6005,20.303,105.087],[-97.5985,20.3027,106.4634],[-97.5987,20.3011,107.1477],[-97.5973,20.3026,102.4291],[-97.5946,20.2997,102.338],[-97.5928,20.3011,107.6758],[-97.5891,20.2985,103.6119],[-97.5875,20.2905,142.2898],[-97.5826,20.2824,116.838],[-97.5864,20.2805,117.7023],[-97.6022,20.2815,146.144],[-97.6032,20.2757,158.3762],[-97.6086,20.2761,251.9504],[-97.6075,20.2719,300.3594],[-97.6056,20.2714,277.9019],[-97.6053,20.2629,104.1906],[-97.6013,20.2647,108.6374],[-97.5881,20.2623,100.9887],[-97.5768,20.2706,94.4531],[-97.569,20.2722,95.25],[-97.5597,20.2673,87.7634],[-97.5529,20.2714,86.2534],[-97.5463,20.269,84.2357],[-97.5427,20.2735,84.0593],[-97.5357,20.2699,80.55],[-97.5309,20.2654,77.3539],[-97.5263,20.2661,77.2726],[-97.519,20.2642,71.7451],[-97.5155,20.2661,72.2102],[-97.5046,20.2675,67.326],[-97.4972,20.2637,70.0813],[-97.4964,20.2614,70.0896],[-97.4927,20.2608,69.692],[-97.4919,20.2624,69.2263],[-97.4828,20.2592,67.0896],[-97.4825,20.2565,65.9945],[-97.486,20.2499,66.6925],[-97.4873,20.2499,67.2495],[-97.4862,20.2452,67.3212],[-97.4894,20.2459,69.5152],[-97.4938,20.2437,70.9178],[-97.4974,20.2446,72.6101],[-97.4995,20.2424,75.6092],[-97.5087,20.2446,78.6525],[-97.508,20.2435,76.9761],[-97.5096,20.2424,78.3663],[-97.5098,20.2434,78.3663],[-97.511,20.2412,76.0596],[-97.5145,20.2426,80.0092],[-97.5167,20.2417,82.2601],[-97.5165,20.2394,88.5555],[-97.5194,20.2371,82.7726],[-97.5179,20.2367,84.2804],[-97.5174,20.2319,87.2688],[-97.5208,20.2303,106.2446],[-97.5226,20.2323,86.5492],[-97.5265,20.229,90.4148],[-97.5273,20.2201,111.0404],[-97.5374,20.2155,106.7835],[-97.5409,20.2158,105.995],[-97.5408,20.2138,122.618],[-97.5387,20.2139,112.5662],[-97.537,20.2052,93.505],[-97.5438,20.2051,125.0126],[-97.546,20.2079,122.4727],[-97.5473,20.2055,111.3984],[-97.5498,20.2069,121.8106],[-97.5518,20.2053,124.5717],[-97.5516,20.2012,122.3159],[-97.5493,20.1993,135.544],[-97.5509,20.1984,148.1074],[-97.549,20.1962,135.3114],[-97.5501,20.1956,135.3114],[-97.5486,20.1944,108.0041],[-97.5453,20.1953,113.9268],[-97.5423,20.2024,134.0441],[-97.5353,20.2025,93.5472],[-97.5336,20.1998,125.1508],[-97.531,20.1998,105.9793],[-97.5327,20.1928,194.1259],[-97.5304,20.1887,132.3665],[-97.5273,20.1892,198.6039],[-97.5284,20.1903,125.5039],[-97.5216,20.1907,189.0061],[-97.5242,20.2016,83.8821],[-97.5227,20.2053,85.0902],[-97.5184,20.2056,79.5661],[-97.5184,20.209,90.7819],[-97.5132,20.2083,80.1656],[-97.5125,20.2057,81.4403],[-97.5075,20.2075,78.3776],[-97.5058,20.2065,78.5724],[-97.5054,20.2053,80.0418],[-97.5077,20.2046,77.3371],[-97.5082,20.1993,79.7413],[-97.5061,20.1988,78.9781],[-97.505,20.1962,80.8866],[-97.5088,20.1929,82.1081],[-97.5102,20.1951,80.7765],[-97.515,20.1945,103.6348],[-97.5136,20.1821,143.8633],[-97.5077,20.1838,84.124],[-97.5054,20.179,88.5072],[-97.5138,20.1716,92.6974],[-97.5146,20.17,94.5627],[-97.512,20.1662,101.9199],[-97.5149,20.1629,110.0272],[-97.5158,20.1574,112.2371],[-97.5173,20.1573,112.2371],[-97.5187,20.1542,121.8901],[-97.5097,20.1409,164.8457],[-97.5082,20.145,131.7054],[-97.5041,20.1452,139.3809],[-97.5035,20.1467,125.3426],[-97.5055,20.1525,110.9545],[-97.504,20.1561,100.526],[-97.4953,20.1622,86.7042],[-97.4876,20.1649,82.3864],[-97.4855,20.1733,81.2252],[-97.4776,20.1775,83.3849],[-97.4689,20.1781,72.2438],[-97.4651,20.1802,73.4691],[-97.4625,20.1846,69.3342],[-97.4635,20.1886,68.3589],[-97.4623,20.1932,67.8594],[-97.4647,20.2062,63.5],[-97.4632,20.2105,70.9792],[-97.465,20.219,61.0],[-97.4643,20.2242,60.694],[-97.4596,20.2331,58.248],[-97.4483,20.2414,56.5562],[-97.4453,20.2462,51.8816],[-97.4359,20.2405,50.0714],[-97.4317,20.2409,48.5],[-97.4289,20.2438,48.0],[-97.4208,20.2424,50.3417],[-97.4109,20.236,44.0],[-97.4082,20.2321,45.4458],[-97.3957,20.2432,50.1872],[-97.395,20.2423,50.1872],[-97.3903,20.2461,47.2645],[-97.3793,20.2496,47.0539]]]]}}