{"type":"Feature","properties":{"GID_2":"MEX.19.42_2","GID_0":"MEX","country":"México","GID_1":"MEX.19_1","province":"NuevoLeón","NL_NAME_1":"NA","county":"Pesquería","VARNAME_2":"NA","NL_NAME_2":"NA","TYPE_2":"Município","ENGTYPE_2":"Municipality","CC_2":"NA","HASC_2":"NA","name":"Pesquería.county"},
"geometry":{"type": "MultiPolygon","coordinates": [[[[-100.1068,25.7014,396.5935],[-100.0899,25.6995,397.5074],[-100.0724,25.701,361.9409],[-100.053,25.6975,351.9168],[-100.0525,25.7033,346.5521],[-100.0424,25.7021,338.5195],[-100.0365,25.6992,338.4804],[-100.0391,25.6953,341.7804],[-99.9977,25.6918,313.4532],[-99.9943,25.6891,311.3184],[-99.9982,25.6832,311.7669],[-99.9956,25.6845,311.4875],[-99.9901,25.6822,308.6318],[-99.9874,25.6833,309.1527],[-99.9775,25.6785,301.9045],[-99.9756,25.68,301.9491],[-99.971,25.6797,300.6776],[-99.97,25.6821,298.0264],[-99.9663,25.6823,297.6174],[-99.9648,25.6835,297.0749],[-99.9648,25.6864,297.2676],[-99.9621,25.6856,295.9051],[-99.9617,25.688,294.7451],[-99.9605,25.6878,294.7451],[-99.9607,25.6909,294.1569],[-99.9496,25.6906,291.4694],[-99.9493,25.6928,289.6998],[-99.9469,25.6917,289.9656],[-99.9454,25.6935,288.5744],[-99.9412,25.6924,289.0322],[-99.936,25.6939,288.7045],[-99.9326,25.6925,289.9901],[-99.9317,25.6945,288.0713],[-99.928,25.6946,288.1669],[-99.9237,25.6931,287.2158],[-99.92,25.6893,286.0411],[-99.9163,25.691,285.5435],[-99.9111,25.6866,281.9714],[-99.9089,25.6875,279.6381],[-99.9072,25.6863,281.3118],[-99.9005,25.6878,279.8196],[-99.8996,25.6919,277.8792],[-99.8832,25.6909,275.4286],[-99.8805,25.6889,274.6654],[-99.878,25.6898,272.9184],[-99.8783,25.6887,272.2786],[-99.8716,25.6844,271.2871],[-99.8625,25.686,269.3379],[-99.8576,25.6846,270.0117],[-99.8539,25.6858,268.6874],[-99.8494,25.6849,267.1283],[-99.8485,25.6819,267.9659],[-99.8466,25.6812,265.8321],[-99.8467,25.6734,263.9212],[-99.8312,25.6684,263.7107],[-99.8311,25.6592,259.0168],[-99.8205,25.6591,256.4468],[-99.8172,25.6663,256.3255],[-99.8147,25.6648,254.7892],[-99.8102,25.6716,254.8899],[-99.7989,25.6729,251.4032],[-99.7968,25.669,250.3965],[-99.8017,25.6625,251.1703],[-99.8028,25.658,249.0776],[-99.7999,25.6576,249.0388],[-99.7873,25.6732,249.6918],[-99.7821,25.6714,250.8462],[-99.7786,25.6812,250.4959],[-99.7772,25.6806,250.4959],[-99.7759,25.6845,251.9513],[-99.7737,25.6837,250.6258],[-99.7666,25.6952,253.1215],[-99.7716,25.7026,251.3202],[-99.7764,25.705,247.8307],[-99.7792,25.711,250.6796],[-99.7912,25.7114,249.4309],[-99.7942,25.7199,250.291],[-99.7985,25.725,251.7197],[-99.812,25.7297,256.3378],[-99.8277,25.7392,265.4292],[-99.8429,25.7377,269.669],[-99.8466,25.7402,265.803],[-99.8629,25.7439,275.1442],[-99.8704,25.7441,272.349],[-99.8966,25.7524,282.1487],[-99.9083,25.7543,283.3952],[-99.925299999999993,25.7547,290.7105],[-99.9329,25.7522,287.5425],[-99.9392,25.7538,292.7762],[-99.9442,25.7579,290.851],[-99.9559,25.7607,296.0967],[-99.9644,25.7656,301.2513],[-99.9794,25.765,298.5414],[-99.9901,25.7748,300.7957],[-99.9889,25.7848,306.3214],[-99.9929,25.791,313.866],[-99.992,25.7975,309.54],[-99.9933,25.7997,306.0483],[-99.9984,25.8005,312.9749],[-100.003,25.799,310.6454],[-100.0069,25.8014,313.4861],[-100.0184,25.8035,315.33],[-100.0232,25.8069,315.6452],[-100.0246,25.811,317.7062],[-100.0313,25.8168,318.5437],[-100.0313,25.824,321.0483],[-100.0591,25.8156,341.3637],[-100.0595,25.8186,343.8147],[-100.0659,25.8161,344.2578],[-100.067,25.8182,347.2614],[-100.0706,25.8177,353.6691],[-100.106,25.8326,374.0748],[-100.108,25.8318,379.955],[-100.1075,25.8329,381.5824],[-100.1147,25.8365,377.2952],[-100.1302,25.8303,391.9149],[-100.1297,25.827,390.0931],[-100.1319,25.8211,381.5398],[-100.1281,25.8146,375.1394],[-100.1207,25.8135,374.3394],[-100.107,25.803,363.9817],[-100.1012,25.8004,361.77],[-100.1051,25.7959,368.5857],[-100.1057,25.7924,365.5612],[-100.102,25.7906,362.8186],[-100.101,25.7784,378.8533],[-100.1049,25.7678,379.4725],[-100.1128,25.7596,392.1906],[-100.1352,25.7433,391.1945],[-100.1356,25.7381,394.457],[-100.1389,25.7384,395.1412],[-100.1486,25.7311,400.2258],[-100.1243,25.7346,386.8532],[-100.1249,25.7162,394.1732],[-100.115,25.715699999999998,392.0644],[-100.1156,25.7091,398.2597],[-100.1123,25.71,399.264],[-100.1097,25.7082,397.8103],[-100.1068,25.7014,396.5935]]]]}}