{"type":"Feature","properties":{"GID_2":"MEX.5.31_2","GID_0":"MEX","country":"México","GID_1":"MEX.5_1","province":"Chiapas","NL_NAME_1":"NA","county":"Copainalá","VARNAME_2":"NA","NL_NAME_2":"NA","TYPE_2":"Município","ENGTYPE_2":"Municipality","CC_2":"NA","HASC_2":"NA","name":"Copainalá.county"},
"geometry":{"type": "MultiPolygon","coordinates": [[[[-93.2216,17.0301,177.3324],[-93.2075,17.0313,186.2578],[-93.2015,17.0289,264.3245],[-93.1882,17.0117,181.4606],[-93.1848,17.0027,322.5641],[-93.1759,17.0079,694.7802],[-93.1716,17.0139,672.2087],[-93.1693,17.0114,783.7562],[-93.1492,17.0221,897.3298],[-93.1516,17.0264,909.9611],[-93.1488,17.0258,934.4076],[-93.1425,17.0326,1074.5836],[-93.1431,17.0355,992.755],[-93.1478,17.0409,901.9576],[-93.1355,17.0451,1144.5922],[-93.1351,17.0493,1237.8223],[-93.1381,17.0489,1258.0538],[-93.1391,17.0526,1193.1858],[-93.1361,17.0526,1226.887],[-93.138,17.0531,1218.9279],[-93.1405,17.0628,998.8142],[-93.1442,17.0625,988.1528],[-93.1451,17.06,982.1595],[-93.1483,17.0612,926.3584],[-93.1485,17.0679,1199.1497],[-93.141,17.074,1234.2684],[-93.1396,17.0778,1231.2158],[-93.1464,17.0801,1277.7954],[-93.1481,17.0762,1308.1821],[-93.1578,17.0847,947.149],[-93.143,17.0955,1106.1019],[-93.1513,17.0955,1022.8374],[-93.1633,17.0994,1088.6566],[-93.1677,17.0972,1005.4108],[-93.1678,17.102,988.1249],[-93.1665,17.1028,1080.0503],[-93.18,17.118,1312.9059],[-93.1942,17.1255,1335.3906],[-93.2008,17.1328,1326.3087],[-93.2093,17.1361,991.7733],[-93.1977,17.1645,1437.0138],[-93.1976,17.1723,1260.5183],[-93.1944,17.1738,1289.6012],[-93.195,17.1752,1289.6012],[-93.192,17.1774,1321.647],[-93.1938,17.1856,1534.7158],[-93.1914,17.1886,1587.3892],[-93.1954,17.1943,1664.2427],[-93.1963,17.1949,1695.6816],[-93.1984,17.1891,1631.5735],[-93.2065,17.1847,1455.3087],[-93.2153,17.1863,1658.1613],[-93.2147,17.1823,1551.5582],[-93.2193,17.1869,1641.9714],[-93.2255,17.1996,1574.5735],[-93.2192,17.1996,1593.6947],[-93.2225,17.2053,1616.927],[-93.2215,17.2093,1658.3063],[-93.2226,17.2149,1527.9843],[-93.2438,17.2221,1205.2806],[-93.2462,17.2285,926.4404],[-93.2505,17.2284,832.5988],[-93.2503,17.2221,955.571],[-93.2643,17.2241,733.7193],[-93.2627,17.2204,882.9741],[-93.2662,17.2146,776.0346],[-93.2747,17.2096,976.8757],[-93.2773,17.2092,978.6685],[-93.2842,17.2162,676.1597],[-93.2861,17.2214,496.6713],[-93.2963,17.2195,467.7164],[-93.3002,17.2152,492.3821],[-93.3,17.2103,600.9368],[-93.2921,17.2036,939.3003],[-93.2873,17.2039,919.4977],[-93.2906,17.2024,919.097],[-93.2781,17.1919,637.1589],[-93.293,17.1776,488.2358],[-93.2924,17.1734,494.5367],[-93.294,17.1716,395.7062],[-93.2889,17.1713,553.0242],[-93.2889,17.1584,451.9254],[-93.2937,17.1586,404.0627],[-93.2943,17.1555,499.343],[-93.2987,17.1533,558.684],[-93.296,17.1462,490.8911],[-93.2981,17.1455,421.7905],[-93.2986,17.1384,508.3065],[-93.2949,17.1375,606.1604],[-93.2966,17.1319,592.3699],[-93.3098,17.124,457.303],[-93.3097,17.1221,501.052],[-93.305,17.1168,547.5734],[-93.3088,17.1141,491.5082],[-93.3115,17.117,476.7877],[-93.3142,17.1155,468.519],[-93.315,17.1108,576.1956],[-93.3178,17.1108,553.998],[-93.3214,17.0954,857.0272],[-93.3263,17.0953,841.722],[-93.3299,17.0913,841.3353],[-93.333,17.0912,837.7012],[-93.3346,17.0939,854.9202],[-93.3456,17.0895,718.7246],[-93.3459,17.0864,668.64],[-93.3498,17.0816,595.8448],[-93.3494,17.0796,590.9686],[-93.3506,17.0809,529.9753],[-93.364,17.0834,417.6182],[-93.3642,17.0854,477.9799],[-93.3689,17.0791,485.6282],[-93.3751,17.0798,498.2499],[-93.3788,17.0771,487.8508],[-93.3803,17.0675,522.4421],[-93.3748,17.0648,566.8978],[-93.375,17.0604,697.0903],[-93.3778,17.0568,599.6712],[-93.377,17.0544,601.1663],[-93.3742,17.0554,663.0441],[-93.3721,17.0537,705.0038],[-93.3729,17.0517,615.3932],[-93.3674,17.0464,640.6296],[-93.3705,17.0433,518.9845],[-93.369,17.0416,541.0502],[-93.3725,17.0387,361.6788],[-93.3731,17.0277,211.8157],[-93.3723,17.0265,174.2685],[-93.3696,17.0292,194.2548],[-93.3611,17.0284,168.0],[-93.3585,17.0302,168.0],[-93.3506,17.03,168.0],[-93.3419,17.0254,168.5],[-93.3255,17.0216,194.0471],[-93.3142,17.0138,191.3564],[-93.2968,17.012,169.0],[-93.2875,17.0036,169.5],[-93.2821,17.0041,179.6375],[-93.2767,17.0071,234.6111],[-93.2687,17.0158,264.2271],[-93.2579,17.018,170.0],[-93.2489,17.0225,197.5252],[-93.2432,17.0228,174.1593],[-93.23,17.0287,181.2217],[-93.2216,17.0301,177.3324]]]]}}