{"type":"Feature","properties":{"GID_2":"MEX.18.13_2","GID_0":"MEX","country":"México","GID_1":"MEX.18_1","province":"Nayarit","NL_NAME_1":"NA","county":"SanBlas","VARNAME_2":"NA","NL_NAME_2":"NA","TYPE_2":"Município","ENGTYPE_2":"Municipality","CC_2":"NA","HASC_2":"NA","name":"San_Blas.county"},
"geometry":{"type": "MultiPolygon","coordinates": [[[[-106.2496,21.3319,90.5525],[-106.2574,21.3335,46.992],[-106.2597,21.3309,63.6137],[-106.2566,21.3262,129.4372],[-106.2513,21.3247,205.7368],[-106.2413,21.326,101.9355],[-106.2387,21.3319,47.0532],[-106.2439,21.3317,89.7013],[-106.2496,21.3319,90.5525]]],
[[[-106.23,21.3254,24.514],[-106.2288,21.3256,19.455],[-106.2283,21.33,13.0079],[-106.2313,21.3345,0.6712],[-106.2331,21.3317,12.7626],[-106.2326,21.3283,26.5803],[-106.23,21.3254,24.514]]],
[[[-105.2674,21.5137,0.0],[-105.2664,21.5138,0.7912],[-105.2663,21.5148,0.7912],[-105.267,21.5148,0.0],[-105.2674,21.5137,0.0]]],
[[[-105.1671,21.3526,73.0213],[-105.1495,21.3559,217.3899],[-105.1499,21.3688,200.2069],[-105.1534,21.3765,430.0301],[-105.1423,21.3776,357.6091],[-105.1373,21.3942,463.9998],[-105.1114,21.39,349.8381],[-105.0973,21.4055,390.6866],[-105.0931,21.4368,522.5046],[-105.0932,21.4396,504.4188],[-105.096,21.4387,493.2323],[-105.0967,21.4398,500.4236],[-105.0931,21.4415,509.3588],[-105.0923,21.4476,401.9658],[-105.0885,21.4486,400.5862],[-105.0886,21.4511,365.1937],[-105.083,21.4539,395.5289],[-105.0791,21.4531,412.6158],[-105.0736,21.4553,428.5972],[-105.0673,21.4553,515.0912],[-105.0588,21.4592,565.4249],[-105.0522,21.4579,603.4163],[-105.0467,21.4587,816.1409],[-105.0343,21.4678,951.381],[-105.0333,21.4692,955.7543],[-105.0347,21.4749,959.116],[-105.0222,21.4895,1350.9443],[-105.0376,21.4938,1000.0746],[-105.046,21.5004,1053.1943],[-105.0522,21.5028,986.7921],[-105.0648,21.5257,1266.4839],[-105.062,21.5419,934.9471],[-105.0472,21.5535,683.1862],[-105.0483,21.5629,556.9966],[-105.0577,21.5693,532.9435],[-105.0523,21.5913,375.8814],[-105.0589,21.5898,454.1173],[-105.0496,21.595,285.8109],[-105.0663,21.6018,482.8591],[-105.068,21.6085,381.0754],[-105.0825,21.6186,295.2883],[-105.0838,21.6461,224.6702],[-105.0707,21.6642,190.1407],[-105.0785,21.6696,162.5255],[-105.0791,21.6724,164.1331],[-105.0764,21.674,145.7198],[-105.079,21.6741,134.4165],[-105.0797,21.6759,165.5037],[-105.0888,21.6751,117.0444],[-105.0936,21.6767,151.0337],[-105.102,21.6767,115.9948],[-105.1189,21.6738,74.9764],[-105.1313,21.6959,29.193],[-105.1394,21.7046,36.9177],[-105.1669,21.6925,10.7502],[-105.1702,21.6967,9.9833],[-105.1757,21.6951,10.4941],[-105.1798,21.6976,10.8599],[-105.1862,21.6965,9.6584],[-105.1891,21.6994,7.6941],[-105.1925,21.6979,8.3483],[-105.1988,21.6986,6.7323],[-105.2049,21.6963,7.3894],[-105.2049,21.695,6.1515],[-105.207,21.6959,5.8203],[-105.2061,21.6987,6.313],[-105.2099,21.6994,5.2177],[-105.2173,21.6974,5.376],[-105.2209,21.6949,4.8416],[-105.2206,21.6918,4.4931],[-105.2248,21.6878,4.1503],[-105.2279,21.687,4.1309],[-105.2312,21.6901,4.8024],[-105.2303,21.6918,6.2096],[-105.2368,21.6958,5.611],[-105.2329,21.7059,6.075],[-105.2354,21.7077,6.8893],[-105.2377,21.7088,7.4993],[-105.2455,21.7,5.7571],[-105.2473,21.7026,6.1885],[-105.2484,21.6995,6.0186],[-105.2625,21.7099,8.1018],[-105.2568,21.7163,7.8857],[-105.2712,21.7231,9.0417],[-105.2826,21.7257,8.5931],[-105.2815,21.7346,8.6104],[-105.2985,21.7358,5.2446],[-105.298,21.7299,5.3413],[-105.2962,21.7299,6.2841],[-105.2908,21.717,7.9348],[-105.2917,21.7139,7.657],[-105.2881,21.7112,8.6019],[-105.2985,21.6979,7.5922],[-105.3054,21.6961,7.928],[-105.3116,21.6995,5.84],[-105.3148,21.7028,6.713],[-105.3136,21.7088,7.1125],[-105.3235,21.7077,6.9793],[-105.3208,21.7205,7.4735],[-105.3236,21.7192,6.4758],[-105.3266,21.717,4.0595],[-105.329,21.7104,0.5],[-105.3351,21.7076,3.7746],[-105.3388,21.7028,5.6454],[-105.3499,21.7017,2.128],[-105.3519,21.6996,3.3751],[-105.3521,21.695,6.2295],[-105.3483,21.6871,1.7645],[-105.3512,21.6836,5.7053],[-105.363,21.6818,4.6946],[-105.3698,21.6776,2.1317],[-105.3674,21.6672,2.6418],[-105.3705,21.6623,0.9751],[-105.3745,21.6603,3.6105],[-105.3836,21.6628,0.5655],[-105.3872,21.6752,3.5871],[-105.3895,21.6763,3.1587],[-105.4009,21.6693,0.0],[-105.4031,21.6634,1.3578],[-105.4077,21.6595,0.4439],[-105.4194,21.6614,1.7415],[-105.4195,21.6545,1.7333],[-105.4148,21.6489,2.0603],[-105.4084,21.6489,2.3832],[-105.4087,21.6244,1.5778],[-105.4285,21.6244,2.1655],[-105.4281,21.6301,4.1023],[-105.4306,21.6332,3.0399],[-105.4254,21.6371,2.5597],[-105.4251,21.6408,2.1063],[-105.4233,21.6407,2.975],[-105.4235,21.6427,2.9809],[-105.4218,21.6432,1.7745],[-105.4235,21.6493,5.24],[-105.4292,21.6508,9.0493],[-105.4325,21.6544,0.0],[-105.4345,21.6522,3.6905],[-105.434,21.6494,2.062],[-105.4293,21.6443,4.4377],[-105.4273,21.6397,2.8094],[-105.4285,21.6371,1.7753],[-105.4329,21.6356,0.0],[-105.4371,21.6375,0.0],[-105.4392,21.6427,0.0],[-105.4422,21.6407,0.0],[-105.4419,21.6361,0.0],[-105.4452,21.6303,1.4691],[-105.4441,21.6249,0.0],[-105.4451,21.6258,0.0],[-105.4398,21.6206,0.0],[-105.4162,21.6042,0.0],[-105.4139,21.6063,1.0528],[-105.4111,21.6045,2.1157],[-105.411,21.6011,0.4639],[-105.4133,21.6037,0.0],[-105.414,21.6026,0.0],[-105.4106,21.6,0.0],[-105.3261,21.5533,1.7169],[-105.2903,21.5279,0.372],[-105.2904,21.5324,4.814],[-105.286,21.5316,0.4707],[-105.2869,21.5295,0.7435],[-105.2802,21.5259,1.705],[-105.2678,21.5156,1.1016],[-105.2678,21.5184,3.494],[-105.2634,21.5162,0.0],[-105.2655,21.5144,0.7912],[-105.265,21.5121,0.0],[-105.2573,21.5158,7.0908],[-105.2522,21.5132,2.5922],[-105.2491,21.5134,0.4855],[-105.2473,21.5153,2.5725],[-105.2493,21.5189,3.0631],[-105.2485,21.5235,10.1944],[-105.2437,21.5275,2.8803],[-105.2488,21.5246,22.9565],[-105.2485,21.5268,20.3425],[-105.2473,21.5282,4.4967],[-105.2378,21.5289,4.8124],[-105.2329,21.5279,3.1517],[-105.2321,21.5267,0.859],[-105.2388,21.527,0.0],[-105.2283,21.5239,0.8153],[-105.2151,21.5124,3.1324],[-105.1973,21.4921,2.907],[-105.1964,21.49,25.4981],[-105.201,21.482,4.4567],[-105.1888,21.463,0.0],[-105.1878,21.4466,8.5619],[-105.1945,21.4365,4.3406],[-105.202,21.4361,0.262],[-105.2055,21.4299,0.0],[-105.2049,21.4262,21.0247],[-105.2084,21.4185,29.6627],[-105.2135,21.4154,0.0],[-105.2178,21.4103,34.3917],[-105.2197,21.405,0.0],[-105.2182,21.3949,2.3621],[-105.22,21.3879,0.0],[-105.2229,21.385,22.895],[-105.2307,21.3864,0.0],[-105.229,21.3834,0.0],[-105.2298,21.3758,1.3877],[-105.2322,21.372,39.3907],[-105.2385,21.3721,0.0],[-105.2371,21.3708,27.033],[-105.2369,21.3653,0.0],[-105.2386,21.3621,0.0],[-105.2155,21.3734,12.2539],[-105.2062,21.3704,32.5223],[-105.1935,21.3706,51.809],[-105.19,21.3687,70.85],[-105.1916,21.3665,112.8345],[-105.1906,21.3647,145.0242],[-105.1933,21.3647,88.4988],[-105.192,21.3624,113.247],[-105.1932,21.3612,223.309],[-105.1959,21.362,259.2121],[-105.1986,21.3608,281.9419],[-105.2019,21.3631,178.3358],[-105.2004,21.3602,251.584],[-105.2013,21.3592,179.0528],[-105.1989,21.3578,251.6882],[-105.2024,21.3563,279.4188],[-105.2028,21.354,272.9704],[-105.2046,21.3541,264.4569],[-105.2015,21.3522,293.5175],[-105.2027,21.3502,213.6815],[-105.2127,21.3495,173.4094],[-105.2138,21.3442,8.0497],[-105.2075,21.3401,8.2626],[-105.1803,21.35,106.164],[-105.1671,21.3526,73.0213]]],
[[[-106.4449,21.4355,6.2603],[-106.445,21.4357,6.2603],[-106.445,21.4355,6.2603],[-106.4449,21.4355,6.2603]]],
[[[-106.4799,21.45,0.0],[-106.4795,21.4505,4.2646],[-106.4798,21.4504,0.0],[-106.4799,21.45,0.0]]],
[[[-106.431,21.4917,18.4263],[-106.4336,21.4925,0.0],[-106.4373,21.4974,0.0],[-106.4433,21.4939,6.8932],[-106.4493,21.4929,10.6082],[-106.4605,21.4944,1.1948],[-106.4718,21.4831,39.8652],[-106.4778,21.4814,16.3991],[-106.481,21.4784,68.263],[-106.484,21.4795,0.6681],[-106.4859,21.4745,8.6532],[-106.492,21.4699,0.8063],[-106.4914,21.4686,8.139],[-106.4939,21.4661,2.1649],[-106.4902,21.465699999999998,15.1063],[-106.4891,21.4617,0.0],[-106.4852,21.4601,0.0],[-106.4828,21.4537,0.0],[-106.4803,21.4534,20.3639],[-106.4793,21.45,0.0],[-106.4779,21.4515,5.7124],[-106.4688,21.4513,1.3638],[-106.462,21.4487,12.1935],[-106.4599,21.4458,8.5228],[-106.4568,21.4457,7.4947],[-106.4555,21.4434,0.0],[-106.4488,21.4429,7.878],[-106.4454,21.4397,36.9224],[-106.4443,21.436,6.2603],[-106.442,21.4375,32.1383],[-106.4361,21.4372,50.1495],[-106.4251,21.4328,0.8438],[-106.4221,21.4329,6.4858],[-106.4181,21.4305,66.607],[-106.4173,21.4272,8.9663],[-106.4143,21.4273,50.2758],[-106.4126,21.4228,1.7102],[-106.4088,21.4248,15.4561],[-106.3967,21.4199,1.3435],[-106.3924,21.4214,47.8158],[-106.3921,21.4197,1.7059],[-106.3864,21.4198,8.8606],[-106.3855,21.421,0.0],[-106.3874,21.4211,38.732],[-106.3883,21.4242,1.1089],[-106.3854,21.4282,0.0],[-106.3865,21.4315,30.6337],[-106.3831,21.4363,0.4501],[-106.3837,21.4386,0.354],[-106.3803,21.4484,13.3439],[-106.3667,21.4556,29.9723],[-106.3586,21.4553,0.0],[-106.3617,21.4635,13.7103],[-106.3698,21.4735,1.2966],[-106.3712,21.4807,0.0],[-106.3755,21.4826,0.0],[-106.4014,21.4829,4.4512],[-106.4046,21.4856,0.7577],[-106.4115,21.4858,3.8006],[-106.4144,21.4883,10.2291],[-106.4228,21.488,7.6945],[-106.4244,21.4905,0.0],[-106.431,21.4917,18.4263]]],
[[[-106.6533,21.6935,23.3436],[-106.6556,21.6953,13.834],[-106.6606,21.6925,0.0],[-106.6552,21.6886,0.0],[-106.649,21.6799,17.2722],[-106.6469,21.6669,24.4517],[-106.6487,21.6606,19.4427],[-106.6561,21.6559,2.1688],[-106.6545,21.6558,7.3897],[-106.6439,21.644,0.0],[-106.6413,21.635,0.0],[-106.6366,21.6287,22.1868],[-106.6372,21.6269,0.0],[-106.6295,21.6185,0.0],[-106.6277,21.609,2.9896],[-106.6307,21.6024,52.7552],[-106.629,21.5986,0.0],[-106.5915,21.5784,0.0],[-106.5609,21.5677,4.8303],[-106.5589,21.5646,0.0],[-106.558,21.5663,0.0],[-106.5529,21.5653,68.3002],[-106.5522,21.5617,0.0],[-106.5488,21.564,27.1298],[-106.5462,21.5632,0.0],[-106.5373,21.5546,0.0],[-106.5376,21.5518,36.4664],[-106.5408,21.5508,0.0],[-106.5417,21.5443,4.9823],[-106.5322,21.5448,0.0],[-106.5335,21.5509,1.6819],[-106.527,21.5583,10.9157],[-106.5213,21.5609,2.485],[-106.5211,21.567,3.5228],[-106.5158,21.5709,3.3855],[-106.5118,21.5705,0.0],[-106.5155,21.5801,0.0],[-106.5156,21.5859,0.0],[-106.5121,21.5975,3.1292],[-106.5057,21.6033,1.1427],[-106.5136,21.6061,3.715],[-106.5175,21.6131,0.0],[-106.5374,21.6328,9.4419],[-106.5394,21.6443,3.705],[-106.5349,21.653199999999998,5.2643],[-106.5363,21.6581,2.955],[-106.5505,21.6698,12.1803],[-106.5663,21.6753,103.7556],[-106.5751,21.6819,13.7935],[-106.5961,21.6862,18.2943],[-106.5982,21.6903,32.367],[-106.606,21.69,30.1775],[-106.6079,21.6917,12.3557],[-106.6234,21.6888,12.6452],[-106.6266,21.6919,26.5566],[-106.6438,21.6943,11.5029],[-106.6533,21.6935,23.3436]]],
[[[-106.6732,21.7726,44.8913],[-106.6737,21.7746,18.6374],[-106.6782,21.7735,15.479],[-106.6784,21.7676,16.7619],[-106.6817,21.7587,23.4984],[-106.6873,21.7587,0.0],[-106.6857,21.7565,3.3024],[-106.6875,21.7458,0.0],[-106.678,21.7287,0.0],[-106.6734,21.7291,1.7527],[-106.6589,21.7395,4.8593],[-106.6623,21.7419,28.7288],[-106.6665,21.7485,36.2805],[-106.668,21.7563,39.0909],[-106.6656,21.7575,0.0],[-106.6671,21.761,25.6074],[-106.6711,21.7587,44.7147],[-106.6753,21.7614,40.4662],[-106.6733,21.7645,47.802],[-106.67,21.7652,16.0789],[-106.6716,21.7679,27.6531],[-106.6712,21.7726,21.5267],[-106.6732,21.7726,44.8913]]]]}}