{"type":"Feature","properties":{"GID_2":"MEX.15.43_2","GID_0":"MEX","country":"México","GID_1":"MEX.15_1","province":"México","NL_NAME_1":"NA","county":"IxtapandelOro","VARNAME_2":"NA","NL_NAME_2":"NA","TYPE_2":"Município","ENGTYPE_2":"Municipality","CC_2":"NA","HASC_2":"NA","name":"Ixtapandel_Oro.county"},
"geometry":{"type": "MultiPolygon","coordinates": [[[[-100.3068,19.3269,2461.0532],[-100.3075,19.3221,2336.8533],[-100.3163,19.3194,2522.1807],[-100.32,19.3162,2538.9185],[-100.3233,19.3068,2419.0632],[-100.3207,19.3068,2484.967],[-100.3131,19.2973,2637.9907],[-100.3201,19.2909,2700.5364],[-100.3201,19.2889,2738.6641],[-100.3153,19.2874,2773.7017],[-100.3205,19.2803,2340.7742],[-100.3211,19.2671,2115.0703],[-100.3197,19.2618,2091.9766],[-100.3217,19.2563,1982.1377],[-100.3199,19.253,1949.3923],[-100.3225,19.2507,1917.2174],[-100.3313,19.2305,1875.1036],[-100.3336,19.2309,1897.4832],[-100.3377,19.227,1900.0282],[-100.3305,19.2303,1927.6763],[-100.2994,19.2207,1632.9734],[-100.2915,19.2126,1687.1726],[-100.2884,19.2114,1502.2795],[-100.2776,19.214,1346.177],[-100.2745,19.2129,1432.5923],[-100.2683,19.2071,1728.8905],[-100.2705,19.2026,1701.1339],[-100.2731,19.2023,1548.5649],[-100.2758,19.1988,1401.4789],[-100.2763,19.2004,1401.4789],[-100.2795,19.1981,1279.0605],[-100.2757,19.196,1441.017],[-100.2712,19.1957,1652.0592],[-100.2671,19.2009,1718.535],[-100.2659,19.1957,1454.417],[-100.2641,19.1943,1354.2062],[-100.2611,19.1993,1499.2542],[-100.2512,19.1966,1612.4089],[-100.2508,19.1989,1497.6064],[-100.242,19.1979,1722.7457],[-100.2374,19.2008,1806.5144],[-100.2361,19.2094,1901.2397],[-100.2315,19.2182,2075.8784],[-100.2303,19.2397,1975.0244],[-100.2333,19.2411,2044.1965],[-100.2392,19.2395,2100.2178],[-100.2368,19.2502,2153.0876],[-100.2317,19.2563,2154.3062],[-100.2314,19.2589,2151.2263],[-100.224,19.2601,2149.1294],[-100.22,19.2628,2237.0591],[-100.2295,19.2826,1957.7317],[-100.2327,19.2826,2056.4265],[-100.232,19.2853,1978.7423],[-100.2353,19.2879,1894.2902],[-100.2367,19.2865,1911.0271],[-100.2396,19.2877,1876.2827],[-100.2481,19.283,1773.887],[-100.2504,19.2834,1761.5652],[-100.2528,19.2793,1735.6406],[-100.2538,19.282,1742.9215],[-100.2584,19.284,1968.8811],[-100.2596,19.2894,1894.2849],[-100.2641,19.2896,1949.5005],[-100.2683,19.2922,1985.7979],[-100.2702,19.2973,2066.0867],[-100.273,19.297,2157.5413],[-100.2738,19.2989,2049.1106],[-100.2804,19.3013,2051.6113],[-100.2811,19.3061,2061.123],[-100.2832,19.3072,2068.8501],[-100.2798,19.3116,2118.2468],[-100.2865,19.3246,2199.3875],[-100.2965,19.3233,2182.1733],[-100.3006,19.3292,2251.9883],[-100.3068,19.3269,2461.0532]]]]}}