{"type": "Feature","bbox": [-97.7317,18.971,-97.6115,19.0856],"geometry": {"type": "MultiPolygon","coordinates": [[[[-97.7278,18.9895,2143.6235],[-97.718,18.9905,2153.1831],[-97.7203,18.983,2138.7959],[-97.71,18.979,2140.6692],[-97.7061,18.979,2142.9062],[-97.697,18.9853,2156.8264],[-97.6927,18.9797,2151.2617],[-97.6905,18.9796,2154.9368],[-97.6764,18.9831,2184.0063],[-97.6711,18.9856,2197.5093],[-97.6657,18.9926,2215.2571],[-97.6606,18.9929,2228.2024],[-97.6557,18.9918,2236.1787],[-97.6552,18.9869,2220.7163],[-97.657,18.9814,2207.6824],[-97.6519,18.9814,2217.4568],[-97.6482,18.9848,2229.2234],[-97.6441,18.985,2239.9648],[-97.651,18.9745,2286.0786],[-97.6506,18.9723,2282.2991],[-97.6444,18.9711,2340.4192],[-97.6419,18.971,2350.3623],[-97.6387,18.9756,2296.4092],[-97.6361,18.975,2305.0535],[-97.6222,18.984,2376.8408],[-97.619,18.9836,2408.6216],[-97.6168,18.9804,2497.5637],[-97.6194,18.9885,2475.6091],[-97.6182,18.9948,2313.0854],[-97.6285,18.9978,2281.2236],[-97.6201,19.0067,2345.6436],[-97.6187,19.0127,2374.5679],[-97.6146,19.0175,2398.4966],[-97.6151,19.02,2406.3535],[-97.6115,19.0286,2477.4648],[-97.6144,19.0423,2852.9673],[-97.6185,19.0481,2670.1182],[-97.6168,19.0538,2537.8357],[-97.6244,19.057,2508.1177],[-97.6265,19.0594,2482.4131],[-97.6269,19.0542,2515.6553],[-97.6411,19.0486,2858.749],[-97.6463,19.0509,2861.6489],[-97.6493,19.0551,2618.5857],[-97.6591,19.057,2484.1001],[-97.6565,19.0596,2528.5554],[-97.6516,19.0603,2667.5034],[-97.6542,19.064,2735.804],[-97.6606,19.0682,2719.1389],[-97.6607,19.0772,2584.6167],[-97.6626,19.0779,2587.2473],[-97.6612,19.0807,2514.22],[-97.6692,19.0822,2510.0254],[-97.6725,19.0823,2486.4502],[-97.6798,19.0856,2446.8511],[-97.6822,19.0817,2431.7463],[-97.6758,19.0807,2472.4622],[-97.6765,19.0713,2646.7668],[-97.6815,19.0683,2598.8203],[-97.686,19.0575,2379.5845],[-97.6911,19.0505,2315.5918],[-97.6902,19.0525,2327.1401],[-97.6959,19.0567,2324.562],[-97.6949,19.064,2341.9609],[-97.696,19.0647,2341.9609],[-97.6974,19.0627,2332.6604],[-97.7018,19.0494,2296.1116],[-97.7106,19.0387,2255.3672],[-97.7139,19.0262,2219.573],[-97.7166,19.024,2214.783],[-97.717,19.0201,2208.8237],[-97.7278,18.9992,2160.7363],[-97.7277,18.9938,2152.1216],[-97.7317,18.9914,2143.021],[-97.7278,18.9895,2143.6235]]]]}
,"properties": {"GID_2": "MEX.21.66_2","GID_0": "MEX","country": "México","GID_1": "MEX.21_1","province": "Puebla","NL_NAME_1": "NA","county": "GeneralFelipeÁngeles","VARNAME_2": "NA","NL_NAME_2": "NA","TYPE_2": "Município","ENGTYPE_2": "Municipality","CC_2": "NA","HASC_2": "NA","name": "General_Felipe_Ángeles.county","area_km2": 91.42337,"hist_schema_id": "Elevation0-9000","hist_area_km2": {"2150": 3.98967,"2175": 7.87869,"2200": 8.03864,"2225": 8.07843,"2250": 8.05824,"2275": 8.0982,"2300": 7.11591,"2325": 5.23162,"2350": 3.96873,"2375": 3.00657,"2400": 2.50545,"2425": 2.06442,"2450": 2.30487,"2475": 1.88398,"2500": 2.0042,"2525": 2.10432,"2550": 1.90392,"2575": 2.06425,"2600": 2.02419,"2625": 1.7637,"2650": 2.10439,"2675": 1.34283,"2700": 1.0422,"2725": 0.98205,"2750": 0.68143,"2775": 0.26054,"2800": 0.42089,"2825": 0.18038,"2850": 0.26054,"2875": 0.06012}}}