{"type": "Feature","bbox": [-101.9425,19.4169,-101.7701,19.596],"geometry": {"type": "MultiPolygon","coordinates": [[[[-101.8103,19.5949,2610.3875],[-101.8175,19.5888,2467.9578],[-101.8242,19.5719,2420.8203],[-101.8338,19.5673,2439.4121],[-101.8391,19.5659,2486.4978],[-101.842,19.567,2504.7739],[-101.8502,19.5634,2551.7314],[-101.853,19.5648,2592.1206],[-101.8554,19.5613,2614.9482],[-101.8666,19.5589,2637.9302],[-101.8843,19.5594,2668.9558],[-101.8986,19.5639,2651.8975],[-101.9009,19.5659,2642.7583],[-101.9045,19.564,2644.9194],[-101.9033,19.5615,2684.04],[-101.9046,19.5549,2776.394],[-101.9137,19.5488,3020.6372],[-101.9327,19.5579,2499.0762],[-101.9328,19.5607,2460.2427],[-101.9355,19.5637,2407.4893],[-101.9383,19.5619,2427.771],[-101.9425,19.5551,2486.4644],[-101.9368,19.5355,2551.2847],[-101.9382,19.5242,2356.0537],[-101.9362,19.5192,2263.6702],[-101.9401,19.5072,2310.8267],[-101.9231,19.5119,2412.1763],[-101.9087,19.5047,2218.2791],[-101.9115,19.4963,2092.2468],[-101.91,19.4894,1999.7358],[-101.9062,19.4851,1904.7826],[-101.903,19.4764,1809.6803],[-101.8978,19.4808,1811.7399],[-101.8816,19.4523,1658.2827],[-101.8827,19.4342,1734.7277],[-101.829,19.4169,2205.2896],[-101.8357,19.4282,1989.2999],[-101.8324,19.439,1895.8706],[-101.8308,19.4386,1870.1187],[-101.8315,19.4404,1895.8706],[-101.8009,19.4655,2900.5671],[-101.8062,19.4921,2428.2012],[-101.8093,19.4936,2430.6765],[-101.8088,19.4952,2461.8049],[-101.8122,19.4981,2502.321],[-101.8033,19.5024,2401.6797],[-101.8022,19.5044,2385.0215],[-101.7956,19.5052,2314.4661],[-101.7945,19.5094,2302.2686],[-101.7788,19.517,2290.6021],[-101.775,19.5163,2289.4514],[-101.7745,19.5177,2282.178],[-101.7776,19.5189,2300.4219],[-101.7773,19.5258,2295.6509],[-101.7878,19.5441,2339.2246],[-101.795,19.5535,2342.5435],[-101.7701,19.5675,2570.7871],[-101.7727,19.58,2396.8992],[-101.7736,19.5945,2638.3003],[-101.7773,19.596,2721.1338],[-101.8103,19.5949,2610.3875]]]]}
,"properties": {"GID_2": "MEX.16.91_2","GID_0": "MEX","country": "México","GID_1": "MEX.16_1","province": "Michoacán","NL_NAME_1": "NA","county": "Tingambato","VARNAME_2": "NA","NL_NAME_2": "NA","TYPE_2": "Município","ENGTYPE_2": "Municipality","CC_2": "NA","HASC_2": "NA","name": "Tingambato.county","area_km2": 190.351,"hist_schema_id": "Elevation0-9000","hist_area_km2": {"1575": 0.06,"1600": 0.2799,"1625": 0.8197,"1650": 1.2396,"1675": 2.0593,"1700": 2.2391,"1725": 2.0391,"1750": 1.9791,"1775": 2.1791,"1800": 2.6187,"1825": 3.3184,"1850": 3.2585,"1875": 4.3778,"1900": 3.9978,"1925": 5.237,"1950": 4.8571,"1975": 5.2769,"2000": 4.1774,"2025": 3.5178,"2050": 3.038,"2075": 3.038,"2100": 2.5382,"2125": 2.8381,"2150": 2.2584,"2175": 2.4183,"2200": 2.818,"2225": 3.3776,"2250": 3.0977,"2275": 3.8371,"2300": 4.7363,"2325": 6.215,"2350": 9.4117,"2375": 7.8728,"2400": 9.3909,"2425": 8.5118,"2450": 6.7337,"2475": 6.7534,"2500": 7.3529,"2525": 4.6755,"2550": 4.8753,"2575": 3.6165,"2600": 3.177,"2625": 3.137,"2650": 2.9172,"2675": 4.5954,"2700": 3.5165,"2725": 2.7973,"2750": 1.8182,"2775": 1.5984,"2800": 1.079,"2825": 0.7992,"2850": 0.6394,"2875": 0.3796,"2900": 0.3397,"2925": 0.1798,"2950": 0.1998,"2975": 0.1998,"3000": 0.04}}}