{"type": "Feature","bbox": [-103.6259,21.8009,-103.3371,22.1291],"geometry": {"type": "MultiPolygon","coordinates": [[[[-103.5726,21.8035,1760.2375],[-103.5667,21.8047,1832.7267],[-103.5619,21.8036,1857.854],[-103.5606,21.8011,1858.983],[-103.5548,21.8009,1874.6697],[-103.5365,21.8052,1948.415],[-103.5261,21.8051,2040.55],[-103.5261,21.8097,2075.593],[-103.53,21.8117,2075.0745],[-103.5314,21.8178,2055.8506],[-103.5257,21.8189,2111.2344],[-103.5097,21.8275,2068.8821],[-103.5028,21.8331,2070.8611],[-103.4956,21.8235,2147.9038],[-103.4827,21.8174,2140.0793],[-103.4825,21.8133,2140.7292],[-103.4757,21.8124,2107.6836],[-103.4705,21.8135,2136.8145],[-103.474,21.8197,2130.6267],[-103.4729,21.8246,2120.7261],[-103.4751,21.8266,2129.7446],[-103.4724,21.836,2162.4082],[-103.4698,21.8393,2133.9231],[-103.4667,21.84,2135.9895],[-103.4554,21.8328,2172.123],[-103.4551,21.8354,2164.272],[-103.4572,21.8365,2154.1975],[-103.4572,21.8385,2147.2344],[-103.4559,21.8406,2139.019],[-103.4532,21.8406,2139.9834],[-103.4533,21.8442,2124.1621],[-103.4497,21.8481,2108.7444],[-103.4513,21.8539,2066.3308],[-103.4393,21.8646,2001.5632],[-103.4357,21.8711,1962.6602],[-103.4354,21.8761,1937.7607],[-103.4275,21.8857,1914.6582],[-103.4263,21.8903,1910.3278],[-103.4225,21.8911,1903.2662],[-103.4207,21.8931,1905.9862],[-103.4217,21.8953,1946.4763],[-103.4162,21.8975,1888.8361],[-103.4123,21.9069,1872.7184],[-103.4084,21.9076,1858.1874],[-103.4051,21.9018,1926.6594],[-103.3943,21.8967,1939.502],[-103.3938,21.8982,1944.9583],[-103.3892,21.8987,1969.3588],[-103.3907,21.904,1980.1208],[-103.3898,21.9055,1978.4088],[-103.3748,21.9137,1858.1042],[-103.369,21.9123,1797.5868],[-103.3551,21.9149,1772.5137],[-103.3441,21.9135,1791.386],[-103.3416,21.921,1775.3717],[-103.344,21.9297,1721.4039],[-103.341,21.9322,1714.0104],[-103.3398,21.9387,1703.0144],[-103.3418,21.9395,1681.2437],[-103.3387,21.9423,1655.6282],[-103.3425,21.9433,1626.7478],[-103.3453,21.951,1611.9573],[-103.3482,21.9538,1611.5367],[-103.3446,21.9566,1615.7183],[-103.348,21.9591,1609.7468],[-103.348,21.9611,1615.1078],[-103.3459,21.9635,1608.752],[-103.3423,21.9642,1608.7246],[-103.3411,21.9668,1605.978],[-103.3424,21.9685,1608.3478],[-103.348,21.969,1604.3151],[-103.3492,21.9711,1615.8589],[-103.3405,21.9822,1604.5439],[-103.3404,21.9925,1598.3864],[-103.3378,21.9935,1598.5261],[-103.3371,21.9958,1597.156],[-103.3441,21.9981,1608.2898],[-103.3543,21.9972,1592.2275],[-103.3565,22.0018,1588.3655],[-103.3702,22.0016,1621.1931],[-103.3708,22.0076,1547.8506],[-103.3735,22.0084,1550.0492],[-103.3734,22.0178,1543.925],[-103.3777,22.0196,1543.2134],[-103.3815,22.0191,1539.5876],[-103.3821,22.0119,1538.2711],[-103.3884,22.0095,1571.58],[-103.3886,22.0129,1571.2188],[-103.3848,22.0175,1528.2814],[-103.3846,22.0203,1519.7644],[-103.3867,22.0235,1565.8369],[-103.3769,22.0281,1543.2003],[-103.379,22.0315,1538.4077],[-103.3801,22.0394,1507.8657],[-103.3839,22.0408,1515.8776],[-103.3843,22.0424,1521.0677],[-103.3788,22.0469,1499.3716],[-103.3756,22.0461,1524.2769],[-103.374,22.0517,1495.2031],[-103.3837,22.0533,1481.9708],[-103.3892,22.0479,1483.9708],[-103.3935,22.0559,1487.8357],[-103.3985,22.0548,1468.6235],[-103.3995,22.0742,1460.5269],[-103.4046,22.0764,1462.6736],[-103.4058,22.0813,1460.3496],[-103.4054,22.0831,1474.0779],[-103.3998,22.0863,1450.469],[-103.3992,22.0886,1444.7654],[-103.4078,22.091,1439.2822],[-103.4105,22.0959,1483.9752],[-103.4167,22.0996,1441.8909],[-103.419,22.1028,1458.9061],[-103.4333,22.0991,1426.5808],[-103.4424,22.1101,1427.2733],[-103.448,22.1108,1463.2249],[-103.4493,22.1142,1408.6411],[-103.4533,22.1153,1417.7925],[-103.4617,22.1111,1416.9603],[-103.4593,22.1087,1412.9359],[-103.4592,22.1059,1443.2543],[-103.4665,22.1073,1439.5325],[-103.4732,22.1055,1387.1106],[-103.4733,22.1112,1423.0786],[-103.4793,22.1148,1396.2915],[-103.4829,22.1113,1389.1526],[-103.4861,22.1106,1381.7777],[-103.4849,22.1078,1423.2358],[-103.4861,22.1065,1418.1367],[-103.4956,22.1105,1389.6853],[-103.4968,22.1068,1483.9224],[-103.5004,22.1054,1467.8901],[-103.507,22.1088,1570.8816],[-103.5118,22.1075,1376.7041],[-103.5159,22.1099,1386.3306],[-103.5179,22.1172,1430.0984],[-103.5176,22.1217,1352.7069],[-103.5138,22.1275,1353.5281],[-103.5146,22.1291,1333.3451],[-103.5306,22.1268,1316.0422],[-103.534,22.1211,1314.444],[-103.5382,22.1214,1312.0856],[-103.5381,22.1187,1376.2179],[-103.5347,22.1144,1499.6545],[-103.5354,22.1113,1623.7432],[-103.5323,22.1068,1793.6558],[-103.5372,22.0989,1926.3566],[-103.5398,22.0981,1906.6873],[-103.5444,22.0926,1892.3506],[-103.5454,22.0858,1933.9117],[-103.5501,22.0798,1955.1527],[-103.5514,22.0674,1915.1501],[-103.5484,22.0615,1922.7039],[-103.5504,22.0569,1993.073],[-103.5496,22.0507,1968.936],[-103.5507,22.0474,1961.8405],[-103.5491,22.0354,1887.9236],[-103.5471,22.0374,1910.2107],[-103.5462,22.0332,1862.5447],[-103.5419,22.033,1828.0688],[-103.5418,22.0214,1844.1652],[-103.5403,22.0186,1845.511],[-103.5423,22.0172,1852.7078],[-103.5414,22.0163,1883.0504],[-103.5445,22.0058,1859.1016],[-103.5402,22.0039,1834.2544],[-103.5367,22.0055,1819.7128],[-103.5359,22.0024,1818.0],[-103.5343,22.0022,1818.7694],[-103.5307,21.9972,1821.5105],[-103.5433,21.9924,1906.6415],[-103.5427,21.9909,1915.7841],[-103.551,21.9919,1875.9984],[-103.55029999999999,21.9904,1894.1178],[-103.5522,21.9893,1870.2473],[-103.5555,21.9897,1844.002],[-103.5602,21.9872,1823.0566],[-103.5641,21.9813,1813.7336],[-103.5569,21.9794,1896.4971],[-103.5512,21.9744,1917.5421],[-103.5332,21.9731,1877.9106],[-103.5376,21.9672,1893.6339],[-103.5437,21.9662,1914.6116],[-103.5471,21.9635,1929.7693],[-103.5486,21.9601,1945.5924],[-103.5516,21.9594,1946.6251],[-103.5532,21.9522,2008.3962],[-103.5581,21.9523,2000.2715],[-103.5603,21.9482,1942.0419],[-103.5705,21.9405,1963.1353],[-103.5782,21.9232,1633.8416],[-103.5707,21.9226,1881.2979],[-103.5623,21.9243,1909.5339],[-103.5593,21.9234,1917.558],[-103.5549,21.9262,1928.5242],[-103.5497,21.9246,1943.5793],[-103.548,21.9024,1971.1807],[-103.5676,21.903,1878.152],[-103.5727,21.9001,1833.1111],[-103.5835,21.8995,1582.5718],[-103.5852,21.8968,1547.469],[-103.5845,21.8866,1486.3845],[-103.5892,21.8803,1492.9928],[-103.5876,21.8781,1551.2949],[-103.5895,21.875,1447.5022],[-103.5946,21.8725,1447.4524],[-103.5961,21.8681,1416.3348],[-103.5998,21.8673,1414.7295],[-103.6026,21.8697,1416.7283],[-103.6096,21.8669,1377.3512],[-103.6157,21.8695,1331.545],[-103.6223,21.8694,1314.3448],[-103.6189,21.862,1357.4421],[-103.6198,21.8559,1354.0161],[-103.6188,21.8547,1361.2312],[-103.6215,21.8507,1384.58],[-103.6212,21.8439,1409.7966],[-103.6243,21.8429,1454.1503],[-103.6259,21.8373,1458.9321],[-103.6211,21.8315,1472.5027],[-103.6178,21.8307,1497.9242],[-103.6149,21.8237,1543.66],[-103.61,21.8222,1543.0028],[-103.6069,21.8169,1556.3464],[-103.6032,21.8153,1589.0859],[-103.5982,21.8168,1579.601],[-103.597,21.8119,1649.5754],[-103.5932,21.8104,1639.5736],[-103.5923,21.8076,1648.3567],[-103.5899,21.8081,1647.7181],[-103.5847,21.805,1685.7859],[-103.5832,21.8064,1702.7512],[-103.581,21.8053,1733.0249],[-103.576,21.8062,1751.9274],[-103.5726,21.8035,1760.2375]]]]}
,"properties": {"GID_2": "MEX.14.105_2","GID_0": "MEX","country": "México","GID_1": "MEX.14_1","province": "Jalisco","NL_NAME_1": "NA","county": "Totatiche","VARNAME_2": "NA","NL_NAME_2": "NA","TYPE_2": "Município","ENGTYPE_2": "Municipality","CC_2": "NA","HASC_2": "NA","name": "Totatiche.county","area_km2": 588.7601,"hist_schema_id": "Elevation0-9000","hist_area_km2": {"1300": 0.1572,"1325": 0.3144,"1350": 0.2949,"1375": 0.7272,"1400": 1.0812,"1425": 1.5916,"1450": 2.8101,"1475": 3.9304,"1500": 4.8154,"1525": 5.7001,"1550": 5.9359,"1575": 6.0931,"1600": 8.6094,"1625": 13.7412,"1650": 19.6379,"1675": 26.0077,"1700": 29.1735,"1725": 32.6751,"1750": 37.7296,"1775": 35.0932,"1800": 32.675,"1825": 33.1091,"1850": 35.6062,"1875": 28.7046,"1900": 23.7713,"1925": 22.417,"1950": 23.0896,"1975": 26.1999,"2000": 25.0236,"2025": 33.4099,"2050": 27.5284,"2075": 17.0212,"2100": 10.3901,"2125": 5.4315,"2150": 3.3648,"2175": 1.7904,"2200": 1.4361,"2225": 1.5738,"2250": 0.0787,"2275": 0.0197}}}