{"type":"Feature","properties":{"GID_2":"MEX.28.35_2","GID_0":"MEX","country":"México","GID_1":"MEX.28_1","province":"Tamaulipas","NL_NAME_1":"NA","county":"SanFernando","VARNAME_2":"NA","NL_NAME_2":"NA","TYPE_2":"Município","ENGTYPE_2":"Municipality","CC_2":"NA","HASC_2":"NA","name":"San_Fernando.county"},
"geometry":{"type": "MultiPolygon","coordinates": [[[[-97.6928,24.4811,0.2271],[-97.6958,24.4818,0.0],[-97.6964,24.4807,0.0],[-97.6951,24.479,0.0],[-97.6928,24.4811,0.2271]]],
[[[-97.6856,24.606,0.1421],[-97.6816,24.6055,0.0],[-97.6816,24.6039,0.0],[-97.6792,24.6051,0.0614],[-97.6842,24.6076,0.0],[-97.694,24.6079,0.0],[-97.6982,24.6071,0.0],[-97.7061,24.6013,0.0],[-97.7034,24.5996,0.0],[-97.7006,24.6027,0.1587],[-97.6944,24.6053,0.0],[-97.6856,24.606,0.1421]]],
[[[-97.6862,24.617,0.0],[-97.6847,24.6147,0.0],[-97.688,24.6208,0.0],[-97.6889,24.6159,0.0],[-97.6879,24.619,0.4058],[-97.6862,24.617,0.0]]],
[[[-97.685,24.6397,0.0],[-97.6874,24.6402,0.0],[-97.692,24.6463,0.0],[-97.6951,24.6453,0.0],[-97.6931,24.6452,0.0],[-97.6923,24.642,0.0],[-97.6903,24.6427,0.0],[-97.6859,24.6384,0.2496],[-97.6866,24.637,0.0],[-97.6842,24.6377,0.2496],[-97.6826,24.6361,0.0],[-97.685,24.6397,0.0]]],
[[[-97.6951,24.6491,0.0],[-97.6957,24.6473,0.0],[-97.6932,24.6495,0.0],[-97.6933,24.6515,0.0],[-97.6953,24.6527,0.0],[-97.6982,24.6506,0.0],[-97.6956,24.6513,0.0],[-97.6951,24.6491,0.0]]],
[[[-97.7011,24.6724,0.2261],[-97.7018,24.6697,0.0],[-97.6985,24.6728,0.0],[-97.6975,24.6811,0.0],[-97.6999,24.6771,0.0],[-97.7002,24.6728,0.6222],[-97.7018,24.6745,0.1623],[-97.7038,24.6731,0.9017],[-97.7011,24.6724,0.2261]]],
[[[-97.7028,24.6953,0.0],[-97.7012,24.6936,0.3024],[-97.6976,24.6952,0.0],[-97.6973,24.6989,0.0],[-97.6994,24.7,0.2725],[-97.6986,24.6965,1.0082],[-97.702,24.6975,0.0],[-97.7028,24.6953,0.0]]],
[[[-97.6992,24.7073,0.0],[-97.6999,24.7051,0.0769],[-97.6967,24.6996,0.0],[-97.6984,24.712,0.0],[-97.6992,24.7073,0.0]]],
[[[-97.6351,24.7003,0.0],[-97.6372,24.6959,0.0],[-97.6363,24.6927,0.0],[-97.6347,24.6927,0.135],[-97.6361,24.6962,0.0],[-97.6344,24.6974,0.1706],[-97.6329,24.7029,0.0],[-97.6351,24.7003,0.0]]],
[[[-97.6366,24.7086,0.0],[-97.6384,24.7066,0.0],[-97.6371,24.7042,0.0],[-97.6356,24.7062,0.0],[-97.6366,24.7086,0.0]]],
[[[-97.6431,24.7191,0.0],[-97.6448,24.7182,0.0],[-97.6529,24.6975,0.0],[-97.6516,24.6971,0.0],[-97.6496,24.6999,0.0],[-97.6472,24.7083,0.0],[-97.6413,24.716,0.0],[-97.6416,24.7188,0.0],[-97.6431,24.7191,0.0]]],
[[[-97.6331,24.715,0.0],[-97.6355,24.71,0.0],[-97.6344,24.7083,0.0],[-97.6302,24.714,0.0],[-97.6316,24.7164,0.0],[-97.6331,24.715,0.0]]],
[[[-97.6932,24.7325,1.3069],[-97.6938,24.7304,0.0],[-97.692,24.7306,0.0],[-97.6902,24.7334,0.0],[-97.6966,24.7342,0.0],[-97.6986,24.7313,0.9716],[-97.7009,24.7312,0.0],[-97.7018,24.7286,0.1796],[-97.7009,24.725,0.0],[-97.6981,24.7241,0.7187],[-97.6964,24.7202,0.0],[-97.6902,24.7208,0.6072],[-97.6891,24.7222,1.9265],[-97.6896,24.7248,0.9729],[-97.6973,24.7259,1.5903],[-97.6955,24.7317,0.7926],[-97.6932,24.7325,1.3069]]],
[[[-97.6957,24.7439,0.0],[-97.6936,24.741,0.5823],[-97.6961,24.7387,0.0],[-97.6953,24.7366,0.0],[-97.6949,24.7383,0.0],[-97.6914,24.7398,0.0],[-97.6944,24.7442,0.6222],[-97.6923,24.7465,0.0],[-97.6954,24.7458,0.0],[-97.6957,24.7439,0.0]]],
[[[-97.6893,24.7463,0.8913],[-97.6897,24.7442,0.6122],[-97.6838,24.7457,0.0],[-97.6878,24.7488,0.0],[-97.6896,24.7479,0.2862],[-97.6893,24.7463,0.8913]]],
[[[-97.6928,24.7582,0.9757],[-97.6941,24.7588,0.0],[-97.7006,24.7548,0.3594],[-97.6947,24.7553,0.9266],[-97.6928,24.7582,0.9757]]],
[[[-97.5471,24.9623,1.0912],[-97.5474,24.9697,0.774],[-97.5506,24.972,0.9351],[-97.5541,24.9693,0.5687],[-97.5562,24.9568,0.4679],[-97.5631,24.9566,-0.2673],[-97.5643,24.954,-0.2427],[-97.5615,24.9439,-0.1457],[-97.5646,24.9396,0.0],[-97.5637,24.9389,0.0],[-97.565,24.9339,0.0],[-97.5669,24.9334,0.0],[-97.5659,24.9319,-0.3183],[-97.5684,24.9206,0.3405],[-97.571,24.9198,0.0],[-97.5711,24.9173,0.0],[-97.573,24.9179,0.0],[-97.5743,24.9163,0.0],[-97.5722,24.9143,0.3491],[-97.5738,24.9077,0.0992],[-97.5714,24.9077,1.1246],[-97.5717,24.9062,0.6833],[-97.581,24.904,-0.047],[-97.5803,24.9019,0.1929],[-97.5765,24.9022,0.3337],[-97.5767,24.8992,0.5261],[-97.5805,24.8959,0.166],[-97.578,24.897,0.1885],[-97.577,24.8939,0.3359],[-97.5833,24.8911,0.1657],[-97.5857,24.8842,0.3443],[-97.5871,24.8841,0.3443],[-97.5802,24.8813,0.6611],[-97.5887,24.8813,0.34],[-97.5901,24.8793,0.0965],[-97.587,24.8784,0.482],[-97.5886,24.8768,0.2731],[-97.5866,24.8754,0.1482],[-97.5912,24.8756,0.0],[-97.5813,24.8714,0.5728],[-97.593,24.8702,0.1559],[-97.5892,24.8691,0.3617],[-97.5898,24.8664,-0.0813],[-97.5824,24.866,1.0201],[-97.5826,24.8649,0.4544],[-97.5938,24.863,-0.2024],[-97.5873,24.8576,0.6144],[-97.5852,24.8577,1.2915],[-97.5852,24.8563,0.684],[-97.5928,24.8598,0.2536],[-97.596,24.8586,0.0],[-97.5921,24.8554,0.0764],[-97.5901,24.8561,0.2716],[-97.5912,24.8515,0.2705],[-97.5958,24.8536,0.1158],[-97.5975,24.8522,0.1158],[-97.5969,24.8505,0.1856],[-97.5875,24.8497,1.1272],[-97.5857,24.849,1.2238],[-97.5862,24.8468,0.8473],[-97.5958,24.848,0.2954],[-97.5952,24.8466,0.5396],[-97.59,24.8464,0.6166],[-97.5892,24.8446,0.498],[-97.5929,24.8434,0.0835],[-97.5939,24.8402,0.6796],[-97.5933,24.8361,0.3677],[-97.5904,24.8364,0.5097],[-97.5944,24.8334,0.1888],[-97.5959,24.8289,0.0883],[-97.598,24.8274,0.0],[-97.5992,24.8208,0.0599],[-97.6005,24.8202,0.0],[-97.6006,24.8168,0.0],[-97.5976,24.8144,0.9747],[-97.5992,24.8138,0.0],[-97.6016,24.8161,0.0],[-97.6039,24.8143,0.0],[-97.6058,24.8094,0.0],[-97.6048,24.808,0.0],[-97.6047,24.8099,0.0],[-97.6019,24.8112,0.0622],[-97.6006,24.8101,0.1957],[-97.6029,24.8055,0.0],[-97.6017,24.802,0.5522],[-97.6069,24.7984,0.1675],[-97.6071,24.796,0.0],[-97.6048,24.795,0.2074],[-97.6092,24.7934,0.0],[-97.6098,24.7902,0.0],[-97.6057,24.7888,0.2214],[-97.6093,24.7865,0.0],[-97.6066,24.7836,0.4096],[-97.6101,24.7819,0.0],[-97.6109,24.7835,0.0301],[-97.6114,24.7809,0.0],[-97.6137,24.7802,0.1692],[-97.6173,24.775,0.0],[-97.6171,24.7729,0.0],[-97.6141,24.7759,0.0],[-97.6109,24.7751,0.1283],[-97.6154,24.7689,0.1192],[-97.6139,24.7645,0.0],[-97.6161,24.7677,0.0],[-97.6226,24.7641,0.0],[-97.6223,24.7597,0.0],[-97.6187,24.7573,0.0],[-97.6166,24.7589,0.291],[-97.6137,24.7564,0.784],[-97.6175,24.7549,0.0],[-97.6186,24.7495,0.0],[-97.6157,24.7494,1.4254],[-97.6193,24.7462,0.0],[-97.6161,24.7455,1.4934],[-97.6163,24.7432,0.828],[-97.6264,24.7452,0.0],[-97.6242,24.7425,0.1035],[-97.6264,24.742,0.0],[-97.6246,24.7403,0.0986],[-97.6325,24.7409,0.0],[-97.6369,24.7344,0.0],[-97.6336,24.7291,0.0],[-97.6311,24.7291,0.0],[-97.6334,24.7274,0.0],[-97.6331,24.7253,0.0],[-97.6268,24.7239,0.0],[-97.6288,24.7199,0.0],[-97.6272,24.7188,0.0],[-97.6302,24.711,0.0475],[-97.6294,24.7086,0.4059],[-97.6311,24.7067,0.195],[-97.6293,24.7024,0.3198],[-97.6318,24.7019,0.4337],[-97.6321,24.7003,0.1645],[-97.6301,24.6988,0.8288],[-97.633,24.6972,0.1706],[-97.6345,24.694,0.4111],[-97.6327,24.6935,0.7731],[-97.6336,24.6908,0.3386],[-97.636,24.6885,0.0],[-97.6329,24.6875,0.6448],[-97.6373,24.6842,0.0],[-97.6362,24.6808,0.0],[-97.6398,24.6771,0.0],[-97.642,24.6612,1.1445],[-97.646,24.6597,0.1205],[-97.648,24.6551,0.1904],[-97.6434,24.6509,0.0],[-97.6477,24.6473,0.0],[-97.6501,24.6473,0.0],[-97.6526,24.6443,0.0],[-97.6522,24.642,0.0],[-97.6494,24.6398,0.0723],[-97.6479,24.6405,0.428],[-97.6479,24.6284,1.7289],[-97.652,24.6266,0.0],[-97.6514,24.6256,0.0],[-97.6575,24.6253,0.0],[-97.6606,24.6195,0.0],[-97.6628,24.6043,0.0],[-97.6567,24.6006,0.3873],[-97.6632,24.5962,0.1206],[-97.6608,24.590699999999998,0.0403],[-97.6626,24.5887,0.0],[-97.6617,24.5869,0.1115],[-97.6654,24.5832,0.0],[-97.6628,24.582,0.1216],[-97.6635,24.5807,0.1216],[-97.6669,24.582,0.0],[-97.6691,24.5793,0.0777],[-97.6691,24.5727,0.0781],[-97.6669,24.5659,0.5115],[-97.6686,24.5639,0.0783],[-97.6674,24.5626,0.5686],[-97.6681,24.559,0.3036],[-97.6704,24.5553,0.0],[-97.6684,24.5536,0.6074],[-97.6702,24.5517,0.44],[-97.6762,24.551,0.0],[-97.6773,24.55,0.0],[-97.6751,24.5481,0.2546],[-97.6802,24.5458,0.0],[-97.6813,24.5398,0.0],[-97.6789,24.5379,0.0],[-97.6805,24.5363,0.0],[-97.6776,24.533,0.0],[-97.6904,24.5275,0.0],[-97.6891,24.5213,0.0],[-97.6861,24.5223,0.0],[-97.6921,24.515,0.0],[-97.6919,24.5105,0.0],[-97.6896,24.5091,0.0],[-97.6914,24.5085,0.0],[-97.6921,24.5053,0.0],[-97.6901,24.4969,0.0],[-97.6879,24.4945,0.0],[-97.682,24.494,0.4421],[-97.6829,24.4907,0.0369],[-97.6871,24.4883,0.0],[-97.6866,24.4863,0.2816],[-97.6907,24.4865,0.0],[-97.6899,24.4826,0.096],[-97.6923,24.4817,0.61],[-97.6921,24.479,0.3117],[-97.6869,24.479,0.7684],[-97.6844,24.481,0.8275],[-97.6807,24.4797,0.0],[-97.6766,24.5053,0.0],[-97.664,24.5617,1.5471],[-97.6219,24.7202,0.0],[-97.5798,24.8648,0.5592],[-97.5471,24.9623,1.0912]]],
[[[-97.6719,24.7612,0.0],[-97.6838,24.7592,0.0],[-97.6884,24.7646,0.0],[-97.6913,24.7585,0.0],[-97.6873,24.7622,0.5576],[-97.6875,24.7556,0.0],[-97.6813,24.7546,0.242],[-97.6787,24.7558,0.7622],[-97.6747,24.754,0.0],[-97.6756,24.752,0.0],[-97.6737,24.7508,0.1899],[-97.6733,24.7437,0.0],[-97.6755,24.7423,0.0],[-97.6726,24.7366,0.0],[-97.6749,24.7298,0.0],[-97.6715,24.7338,0.0],[-97.6735,24.7409,0.0],[-97.6727,24.7499,0.1194],[-97.6677,24.7552,0.0],[-97.6642,24.7529,0.0],[-97.6655,24.7493,0.1136],[-97.6638,24.7425,0.0],[-97.6657,24.7401,0.0],[-97.6643,24.7391,0.0635],[-97.6627,24.7418,0.0],[-97.6635,24.7466,0.0],[-97.6604,24.7503,0.1492],[-97.6719,24.7612,0.0]]],
[[[-97.611,24.7892,0.0],[-97.6147,24.7872,0.0],[-97.6115,24.7844,0.0],[-97.6095,24.7873,0.0],[-97.611,24.7892,0.0]]],
[[[-97.6147,24.7928,0.0],[-97.6112,24.7905,0.0],[-97.6095,24.7955,0.0],[-97.615,24.7976,0.0],[-97.6194,24.7853,0.0],[-97.622,24.7826,0.0],[-97.6216,24.78,0.0],[-97.6194,24.7808,0.0855],[-97.6147,24.7928,0.0]]],
[[[-97.6105,24.8029,0.0],[-97.6095,24.7983,0.0],[-97.6053,24.8031,0.0],[-97.6071,24.8047,0.0],[-97.6105,24.8029,0.0]]],
[[[-97.5845,24.9462,0.0],[-97.5856,24.938,0.0],[-97.5849,24.934,0.0],[-97.5822,24.9388,0.5412],[-97.5845,24.9462,0.0]]],
[[[-97.5738,24.9442,0.4112],[-97.5778,24.9484,0.1541],[-97.5767,24.9397,0.0],[-97.574,24.9419,0.0927],[-97.5738,24.9442,0.4112]]],
[[[-97.5868,24.9521,0.1048],[-97.5856,24.9548,0.5275],[-97.5871,24.9559,0.0],[-97.5885,24.9547,0.2384],[-97.5868,24.9521,0.1048]]],
[[[-97.6134,24.909,0.0],[-97.6149,24.9055,0.0],[-97.6169,24.907,0.1065],[-97.6163,24.9127,0.2656],[-97.6062,24.9234,0.0],[-97.602,24.9252,0.0],[-97.6008,24.9358,0.6456],[-97.5978,24.9367,0.0],[-97.5948,24.941,0.0],[-97.6001,24.9504,0.1302],[-97.6048,24.9525,0.0],[-97.6115,24.9523,0.0],[-97.6141,24.9409,0.0],[-97.6137,24.9347,0.0],[-97.6119,24.9317,0.0],[-97.6156,24.9295,0.0],[-97.6183,24.9184,0.0],[-97.6219,24.9207,0.0],[-97.6261,24.9145,0.0],[-97.6253,24.9033,0.0],[-97.6186,24.8992,0.0],[-97.6163,24.899,0.0],[-97.6138,24.9027,0.0],[-97.6113,24.9084,0.0],[-97.6134,24.909,0.0]]],
[[[-97.6111,24.9744,0.0],[-97.6135,24.975,0.0],[-97.6136,24.9734,0.0],[-97.6107,24.9703,0.0],[-97.6096,24.972,0.0],[-97.6111,24.9744,0.0]]],
[[[-97.6806,24.9755,0.0],[-97.6799,24.9735,0.0],[-97.6769,24.9742,0.0],[-97.6813,24.9775,0.0],[-97.6806,24.9755,0.0]]],
[[[-97.671,24.9811,0.0],[-97.6697,24.9767,0.0],[-97.6685,24.9792,0.0],[-97.6703,24.9823,0.0],[-97.671,24.9811,0.0]]],
[[[-97.5689,24.971,-0.3648],[-97.5702,24.9687,0.4404],[-97.5687,24.9604,-0.602],[-97.5658,24.9678,0.007],[-97.5689,24.971,-0.3648]]],
[[[-97.5908,24.9709,0.0],[-97.5899,24.9638,0.0],[-97.587,24.9598,0.0],[-97.585,24.9596,0.0],[-97.581,24.965,0.0],[-97.5821,24.9702,0.6626],[-97.5857,24.9738,0.0],[-97.5881,24.9739,0.0],[-97.5908,24.9709,0.0]]],
[[[-97.5633,24.9732,0.1036],[-97.5662,24.974,0.2059],[-97.5633,24.9689,-0.338],[-97.5621,24.9692,-0.0019],[-97.5633,24.9732,0.1036]]],
[[[-97.5567,24.9742,0.1411],[-97.5599,24.9718,-0.0289],[-97.5564,24.9711,0.3872],[-97.551,24.9727,-0.2646],[-97.553,24.9742,-0.0951],[-97.5567,24.9742,0.1411]]],
[[[-97.6938,24.7652,1.6332],[-97.6969,24.7622,0.6813],[-97.6913,24.7616,0.0],[-97.6917,24.765,0.311],[-97.6938,24.7652,1.6332]]],
[[[-97.6939,24.7783,0.0],[-97.694,24.7822,0.0],[-97.6964,24.7773,0.0],[-97.6958,24.7752,0.0],[-97.6939,24.7783,0.0]]],
[[[-97.6991,24.7977,0.0],[-97.7004,24.7995,0.0],[-97.7014,24.7987,0.0],[-97.6969,24.7941,0.0],[-97.6935,24.7949,0.0],[-97.6957,24.8015,0.0],[-97.7001,24.8031,0.0],[-97.6963,24.8007,0.0],[-97.6946,24.7962,0.0],[-97.6956,24.7953,0.3499],[-97.6991,24.7977,0.0]]],
[[[-97.6971,24.8089,0.0],[-97.7006,24.8072,0.2828],[-97.7045,24.8018,0.0],[-97.7036,24.8009,0.0],[-97.6966,24.8076,1.3587],[-97.6971,24.8089,0.0]]],
[[[-97.7086,24.828,0.0],[-97.7057,24.8289,0.0],[-97.7082,24.8338,0.0806],[-97.7086,24.8401,0.0],[-97.7102,24.84,0.1224],[-97.7094,24.8365,0.1609],[-97.7109,24.8356,0.1609],[-97.7187,24.8377,0.4439],[-97.7157,24.8362,0.5045],[-97.7169,24.8335,0.8225],[-97.7137,24.8323,2.7326],[-97.7173,24.8291,0.0862],[-97.7191,24.8299,0.0862],[-97.7185,24.829,0.0862],[-97.717,24.8281,0.0],[-97.7097,24.832,0.0],[-97.7086,24.828,0.0]]],
[[[-97.7078,24.8443,0.1497],[-97.6986,24.8452,0.0],[-97.6815,24.8515,0.0],[-97.6777,24.8575,0.0],[-97.6834,24.8528,0.1483],[-97.6896,24.8522,0.0],[-97.6903,24.8503,0.2688],[-97.7021,24.8461,0.4419],[-97.7083,24.8458,0.3619],[-97.7162,24.851,0.1098],[-97.7216,24.8526,0.0524],[-97.7242,24.851,0.2261],[-97.7268,24.8521,0.0],[-97.7181,24.8476,0.7816],[-97.7149,24.8426,0.0],[-97.7078,24.8443,0.1497]]],
[[[-97.7033,24.8561,1.161],[-97.7025,24.8576,0.0],[-97.7045,24.8586,0.7564],[-97.7062,24.8551,0.0],[-97.7034,24.8529,0.5049],[-97.7024,24.8536,0.0],[-97.7033,24.8561,1.161]]],
[[[-97.7171,24.8547,0.0],[-97.7135,24.8676,6.8645],[-97.7147,24.8707,0.0],[-97.7187,24.8717,0.9938],[-97.7203,24.8692,1.5629],[-97.7167,24.8661,3.0084],[-97.72,24.8663,0.2953],[-97.721,24.8628,1.8728],[-97.7182,24.8599,1.5247],[-97.7215,24.8572,0.1685],[-97.7208,24.8599,0.0],[-97.7242,24.8542,0.123],[-97.7171,24.8547,0.0]]],
[[[-97.6836,24.8133,0.0],[-97.6808,24.8149,0.2158],[-97.6776,24.8142,0.0],[-97.6734,24.818,0.0],[-97.6854,24.8162,0.0],[-97.6864,24.813,0.0],[-97.6845,24.8092,0.0],[-97.6856,24.8084,0.0],[-97.6861,24.8097,0.0],[-97.6865,24.8083,0.0],[-97.6847,24.8079,0.0],[-97.6831,24.8099,0.0],[-97.6853,24.8141,0.1872],[-97.6836,24.8133,0.0]]],
[[[-97.6674,24.8057,0.1782],[-97.6627,24.8081,0.6879],[-97.6587,24.8164,0.0],[-97.6575,24.8208,0.5942],[-97.6594,24.8295,0.0],[-97.661,24.8296,0.0],[-97.6618,24.8278,0.0],[-97.66,24.8262,0.0],[-97.6651,24.8201,0.1568],[-97.671,24.819,0.0],[-97.6678,24.8156,0.0442],[-97.6713,24.8114,0.2255],[-97.6782,24.8065,0.0],[-97.6835,24.8058,0.0],[-97.6806,24.8042,0.4922],[-97.678,24.8048,0.0],[-97.669,24.8112,0.0],[-97.6647,24.8176,0.1223],[-97.6621,24.8175,0.2833],[-97.6641,24.8134,0.64],[-97.668,24.8104,0.3066],[-97.6661,24.8075,0.1283],[-97.6695,24.8067,0.0],[-97.6674,24.8057,0.1782]]],
[[[-97.6547,24.8882,0.1501],[-97.6557,24.8858,0.0],[-97.6507,24.8904,0.0],[-97.6511,24.8926,0.0],[-97.6526,24.8927,0.0],[-97.6512,24.8908,0.0],[-97.6544,24.8899,0.0],[-97.6547,24.8882,0.1501]]],
[[[-97.6139,24.8961,0.0],[-97.6135,24.8936,0.0],[-97.613,24.8966,0.0],[-97.6155,24.8966,0.0],[-97.6139,24.8961,0.0]]],
[[[-97.6378,24.9828,0.0],[-97.6406,24.9869,0.0],[-97.6465,24.991,0.0],[-97.6517,24.9985,0.0],[-97.6545,24.999,0.0],[-97.6595,24.9952,0.0],[-97.6615,24.9883,0.0],[-97.6589,24.9805,0.0],[-97.6565,24.9815,0.0],[-97.6579,24.9895,0.2753],[-97.6554,24.9924,0.0],[-97.6521,24.9914,0.0],[-97.651,24.988,0.0],[-97.6446,24.9842,0.1112],[-97.6438,24.9788,0.0],[-97.6473,24.9718,0.0],[-97.644,24.9739,1.472],[-97.6423,24.9785,0.0],[-97.6399,24.9795,0.0],[-97.6381,24.9788,0.095],[-97.6357,24.9734,0.0],[-97.6346,24.9741,0.0],[-97.635,24.9787,0.2047],[-97.6378,24.9828,0.0]]],
[[[-97.6861,24.9956,0.0],[-97.6917,25.0046,0.0],[-97.6968,25.0022,0.0],[-97.6976,24.9983,0.0],[-97.695,25.0019,0.3253],[-97.6917,25.0023,0.0936],[-97.6923,24.9998,0.2174],[-97.6888,24.9966,0.0],[-97.6903,24.99,0.0],[-97.6852,24.9927,0.0],[-97.6854,24.9896,0.0],[-97.6812,24.9887,0.0],[-97.6781,24.9898,0.0],[-97.676,24.9889,0.0],[-97.6737,24.9826,0.0],[-97.6734,24.9894,0.0],[-97.6777,24.9933,0.0],[-97.6833,24.9908,0.0],[-97.6861,24.9956,0.0]]],
[[[-97.5502,24.9815,0.1233],[-97.5518,24.9838,-0.1681],[-97.5492,24.9833,-0.2581],[-97.5489,24.987,-0.1701],[-97.5531,24.989,0.2698],[-97.5549,24.9868,0.3218],[-97.5533,24.9815,0.2366],[-97.5475,24.978,0.56],[-97.5483,24.9811,0.1147],[-97.5502,24.9815,0.1233]]],
[[[-97.532,25.0029,0.6479],[-97.5343,25.0044,0.1638],[-97.5345,25.0018,1.1053],[-97.5384,25.0034,0.3195],[-97.5392,25.0053,0.6229],[-97.5433,25.0057,0.0],[-97.5447,24.9994,0.3826],[-97.5462,24.9998,0.3826],[-97.5432,24.9921,0.4584],[-97.5477,24.9845,-0.421],[-97.5424,24.9813,0.6947],[-97.5421,24.9794,0.2538],[-97.5436,24.9784,0.4973],[-97.5457,24.966,0.0],[-97.5353,24.995,0.0],[-97.532,25.0029,0.6479]]],
[[[-97.6105,24.986,0.0],[-97.609,24.9854,0.0],[-97.6099,24.9885,0.0],[-97.6083,24.9877,0.0],[-97.6082,24.9897,0.0867],[-97.6107,24.9943,0.0],[-97.6121,24.9897,0.2605],[-97.6105,24.986,0.0]]],
[[[-97.6002,24.9964,0.0],[-97.6026,24.9944,0.0],[-97.5997,24.9912,0.0],[-97.5983,24.9939,0.8686],[-97.6002,24.9964,0.0]]],
[[[-97.5678,25.0284,0.0],[-97.5692,25.0275,0.0],[-97.559,25.0212,0.0],[-97.5596,25.0227,0.0],[-97.5678,25.0284,0.0]]],
[[[-97.5182,25.0398,0.2377],[-97.5185,25.0494,0.2256],[-97.5221,25.0511,0.0],[-97.5303,25.0503,-0.0984],[-97.5322,25.053,0.0],[-97.5389,25.0549,-0.1128],[-97.5388,25.0528,-0.352],[-97.5318,25.0479,0.0461],[-97.5322,25.0456,-0.393],[-97.5354,25.0438,0.1119],[-97.5361,25.0389,0.3948],[-97.5383,25.0391,0.1991],[-97.5383,25.0334,0.2001],[-97.5339,25.0346,-0.9561],[-97.5314,25.0312,-0.7871],[-97.5246,25.0283,0.3219],[-97.5255,25.0252,0.8542],[-97.5316,25.0273,-0.1377],[-97.5352,25.0267,0.4621],[-97.5396,25.0258,-0.2045],[-97.544,25.0225,-0.0487],[-97.5426,25.0214,0.1099],[-97.543,25.0154,0.1857],[-97.5406,25.012,0.2371],[-97.5539,25.0196,0.0],[-97.5548,25.018,-0.0075],[-97.5372,25.0084,0.1353],[-97.5349,25.0055,0.1086],[-97.5312,25.0053,0.0],[-97.5182,25.0398,0.2377]]],
[[[-97.5817,25.0367,0.0],[-97.5793,25.0339,0.0],[-97.5726,25.0302,0.0],[-97.5738,25.032,0.0],[-97.5817,25.0367,0.0]]],
[[[-97.5531,25.0398,0.269],[-97.5547,25.0349,0.0],[-97.554,25.0312,-0.1617],[-97.5491,25.028199999999998,-0.1315],[-97.5483,25.0341,-0.0553],[-97.5495,25.0376,-0.0244],[-97.5482,25.0388,0.0816],[-97.5511,25.0415,0.0106],[-97.5531,25.0398,0.269]]],
[[[-97.5404,25.0617,-0.3095],[-97.5355,25.0671,-0.0567],[-97.5377,25.0696,-0.2595],[-97.5422,25.0663,-0.1268],[-97.5456,25.0596,0.0631],[-97.5469,25.0554,0.0712],[-97.5458,25.0453,-0.0051],[-97.5431,25.0469,0.2571],[-97.5421,25.0583,-0.244],[-97.5404,25.0617,-0.3095]]],
[[[-97.7112,24.5899,0.0],[-97.7162,24.582,0.0],[-97.7155,24.5779,0.0],[-97.7138,24.5782,0.0],[-97.7133,24.5836,0.0],[-97.7072,24.5901,0.1484],[-97.7112,24.5899,0.0]]],
[[[-97.7074,24.6064,0.2322],[-97.7055,24.6043,0.0],[-97.7044,24.605,0.0],[-97.705,24.6078,0.287],[-97.7145,24.6098,0.4657],[-97.7166,24.6145,0.0],[-97.7154,24.6196,0.1521],[-97.71,24.6283,0.0],[-97.7112,24.6284,0.0],[-97.7159,24.6212,0.0],[-97.7182,24.6117,0.6449],[-97.719,24.6075,0.0884],[-97.7156,24.6064,0.0748],[-97.7182,24.6027,0.1425],[-97.719,24.606,0.0554],[-97.7215,24.5975,0.8007],[-97.7175,24.6013,0.311],[-97.7074,24.6064,0.2322]]],
[[[-97.6967,24.6597,0.4051],[-97.6984,24.6604,0.4051],[-97.7001,24.6586,0.1994],[-97.7009,24.66,0.0],[-97.6974,24.6669,0.1712],[-97.6983,24.6679,0.0],[-97.701,24.6657,0.0],[-97.701,24.6636,0.4217],[-97.7049,24.6623,0.0],[-97.7016,24.6613,0.2705],[-97.701,24.657,0.2747],[-97.7054,24.6475,0.0],[-97.7046,24.6581,0.0],[-97.7031,24.6586,0.0],[-97.7058,24.6602,0.0],[-97.7061,24.6461,0.0],[-97.7106,24.6318,0.3568],[-97.7096,24.6313,0.3568],[-97.7069,24.6387,0.1324],[-97.7031,24.6413,0.0],[-97.7046,24.6423,0.0],[-97.7036,24.6469,0.0],[-97.6986,24.6572,0.1994],[-97.6962,24.6564,0.0],[-97.6967,24.6597,0.4051]]],
[[[-97.7075,24.6631,0.6391],[-97.7038,24.6747,0.0],[-97.704,24.6791,0.0],[-97.7007,24.6827,1.3662],[-97.7002,24.6928,0.0],[-97.704,24.6894,0.681],[-97.7052,24.6826,0.0],[-97.7113,24.6762,0.1982],[-97.7114,24.6747,0.2363],[-97.7083,24.674,1.1271],[-97.7105,24.67,0.8927],[-97.7091,24.6693,0.8927],[-97.7141,24.6694,0.7299],[-97.7137,24.6756,0.0],[-97.7151,24.6725,0.0],[-97.7197,24.6713,0.4323],[-97.7195,24.6668,0.3954],[-97.7127,24.6657,0.4361],[-97.7074,24.6669,0.3097],[-97.7117,24.6634,0.1838],[-97.7096,24.6616,0.0],[-97.7075,24.6631,0.6391]]],
[[[-97.8395,24.504,0.0],[-97.837,24.5049,0.249],[-97.8417,24.5049,0.0],[-97.84,24.5077,0.0],[-97.8412,24.5103,0.4109],[-97.8363,24.5172,0.0],[-97.8389,24.5164,0.0],[-97.8457,24.5082,0.0],[-97.8441,24.504,0.3693],[-97.8395,24.504,0.0]]],
[[[-97.8498,24.5151,0.0],[-97.8464,24.5147,0.0],[-97.8506,24.519,0.0],[-97.8535,24.5181,0.0],[-97.8551,24.5126,0.0],[-97.8511,24.5111,0.0],[-97.8498,24.5151,0.0]]],
[[[-97.8371,24.5505,0.0],[-97.8354,24.5494,0.0],[-97.8362,24.5526,0.0],[-97.8374,24.5518,0.0],[-97.8371,24.5505,0.0]]],
[[[-97.7267,24.8315,0.0],[-97.7215,24.8324,4.4172],[-97.7223,24.8357,1.9456],[-97.72,24.8363,0.0],[-97.7229,24.8406,0.0],[-97.7242,24.8347,3.2225],[-97.7291,24.8344,2.3144],[-97.7317,24.831,3.4714],[-97.7346,24.8321,0.0],[-97.7384,24.8303,0.2408],[-97.7381,24.8259,0.6025],[-97.7366,24.8282,0.1497],[-97.7267,24.8315,0.0]]],
[[[-97.7175,24.7071,2.1804],[-97.7115,24.7089,0.9686],[-97.7075,24.7131,0.8091],[-97.7082,24.7149,0.1489],[-97.7153,24.7096,1.3916],[-97.7167,24.7118,1.1853],[-97.7185,24.711,2.1484],[-97.7231,24.707,0.0],[-97.7204,24.707,0.1573],[-97.7173,24.7046,0.6675],[-97.716,24.7062,1.5568],[-97.7175,24.7071,2.1804]]],
[[[-97.7006,24.7201,0.0],[-97.7041,24.7202,2.68],[-97.7059,24.7176,0.0],[-97.7011,24.7188,1.3407],[-97.7006,24.7201,0.0]]],
[[[-97.7122,24.7396,0.0],[-97.7097,24.7413,0.6835],[-97.7112,24.7431,1.6899],[-97.7137,24.743,0.6417],[-97.7143,24.745,0.0],[-97.7148,24.7411,2.4446],[-97.7188,24.7402,1.9639],[-97.7173,24.7347,0.3818],[-97.7197,24.7321,0.4642],[-97.7179,24.731,1.8844],[-97.7103,24.7328,0.0],[-97.7085,24.7364,0.8052],[-97.7121,24.7342,1.624],[-97.7158,24.7347,3.4555],[-97.7133,24.7357,1.7863],[-97.7122,24.7396,0.0]]],
[[[-97.7046,24.7418,0.0],[-97.7048,24.744,1.0717],[-97.7079,24.7444,0.0],[-97.7062,24.7407,1.9858],[-97.7046,24.7418,0.0]]],
[[[-97.713,24.7507,0.0],[-97.7181,24.7469,0.0],[-97.7139,24.7466,2.3506],[-97.7122,24.7497,0.0],[-97.713,24.7507,0.0]]],
[[[-97.7007,24.7592,3.2822],[-97.7003,24.7639,0.0],[-97.6974,24.7631,0.6813],[-97.6971,24.7647,1.0278],[-97.698,24.767,0.5819],[-97.7005,24.7675,0.0],[-97.7053,24.7611,0.0],[-97.704,24.7584,0.0],[-97.7007,24.7592,3.2822]]],
[[[-97.7121,24.7643,0.0],[-97.7117,24.7672,0.0],[-97.7153,24.7645,0.0],[-97.714,24.7636,0.0],[-97.7121,24.7643,0.0]]],
[[[-97.7143,24.8145,0.0],[-97.7074,24.8155,0.4172],[-97.7065,24.8169,0.0],[-97.7116,24.8172,0.0],[-97.7156,24.8158,0.0],[-97.7143,24.8145,0.0]]],
[[[-97.7381,24.8334,0.0],[-97.7373,24.8346,0.0],[-97.7389,24.8356,0.5407],[-97.7393,24.8338,2.0365],[-97.7381,24.8334,0.0]]],
[[[-97.7322,24.8333,0.0],[-97.7293,24.8354,2.3144],[-97.7288,24.8388,5.3978],[-97.725,24.8393,0.0],[-97.7268,24.8428,0.7834],[-97.7296,24.8426,0.0],[-97.73,24.8397,0.1298],[-97.7331,24.839,0.0],[-97.7338,24.8334,0.0],[-97.7322,24.8333,0.0]]],
[[[-97.7313,24.8583,1.703],[-97.7271,24.8558,0.9428],[-97.7244,24.8582,0.7688],[-97.7234,24.8611,2.6126],[-97.7247,24.8631,0.5653],[-97.7226,24.8651,1.6193],[-97.7229,24.8673,0.0],[-97.7254,24.8662,0.0],[-97.7276,24.861,0.401],[-97.7296,24.8606,0.983],[-97.7312,24.863,0.5442],[-97.7317,24.8607,0.6569],[-97.7332,24.8607,0.6569],[-97.7339,24.8633,3.7897],[-97.7381,24.8635,0.1217],[-97.7313,24.8583,1.703]]],
[[[-97.7295,24.864,0.0],[-97.7287,24.8644,0.0],[-97.7296,24.8668,0.0],[-97.7303,24.8644,0.0],[-97.7295,24.864,0.0]]],
[[[-98.0328,24.3468,62.7816],[-98.0686,24.3246,95.6284],[-98.0537,24.3005,75.3725],[-97.8439,24.434,0.0],[-97.8416,24.4303,0.7296],[-97.842,24.435,0.0],[-97.849,24.4401,1.9256],[-97.8529,24.4458,1.988],[-97.8569,24.4679,0.0],[-97.8465,24.4853,0.0],[-97.8355,24.4974,0.4149],[-97.8138,24.5137,0.0],[-97.8131,24.5157,0.0],[-97.8096,24.517,0.0],[-97.8119,24.5174,0.0],[-97.8107,24.5255,0.0],[-97.8125,24.5259,0.0],[-97.8158,24.515,0.1394],[-97.8222,24.5128,0.0],[-97.8252,24.5095,0.7761],[-97.8264,24.5118,0.0],[-97.8326,24.5055,0.0],[-97.8386,24.5029,0.0],[-97.8363,24.5001,3.3096],[-97.8432,24.4954,0.6938],[-97.8445,24.4961,0.0],[-97.8438,24.4989,0.0],[-97.8456,24.5003,1.0418],[-97.8453,24.5034,3.4228],[-97.8481,24.5049,0.1445],[-97.8483,24.5077,0.0],[-97.8573,24.5108,0.7066],[-97.8571,24.5129,0.7008],[-97.8618,24.5124,0.0],[-97.8644,24.5087,1.9814],[-97.868,24.5096,0.4169],[-97.8741,24.5078,0.4724],[-97.8761,24.5037,3.5895],[-97.8752,24.5087,0.4724],[-97.8677,24.5112,1.8676],[-97.8656,24.5094,0.6356],[-97.8645,24.5128,1.2318],[-97.8581,24.516,0.0],[-97.8584,24.5184,0.0],[-97.8615,24.5189,1.2064],[-97.861,24.5237,0.0],[-97.8678,24.5224,0.3038],[-97.8671,24.5262,0.0],[-97.8632,24.5286,0.0],[-97.8649,24.5311,0.6996],[-97.8627,24.5302,0.9266],[-97.8585,24.5233,0.0],[-97.8551,24.5249,0.0],[-97.8528,24.522,0.0],[-97.8496,24.5231,1.0478],[-97.8522,24.5255,1.1792],[-97.8511,24.5266,1.1792],[-97.8532,24.5329,0.0],[-97.8547,24.5332,0.0],[-97.8544,24.5294,0.0],[-97.8564,24.5284,0.0],[-97.8557,24.5308,0.3236],[-97.8598,24.53,0.0],[-97.8566,24.5325,0.4981],[-97.8569,24.5349,0.3196],[-97.8532,24.5369,3.0857],[-97.8556,24.5391,3.9738],[-97.8554,24.5442,4.3346],[-97.8593,24.5519,0.9213],[-97.8622,24.5475,0.7326],[-97.8638,24.549,1.5942],[-97.8602,24.5538,0.0],[-97.8672,24.571,0.0],[-97.8658,24.5709,0.0],[-97.8636,24.5657,0.0],[-97.8617,24.5653,0.0],[-97.8613,24.5594,4.2498],[-97.8582,24.5551,0.0],[-97.8547,24.5609,1.856],[-97.8517,24.5631,0.1752],[-97.8508,24.5618,1.4174],[-97.8549,24.5572,0.0],[-97.8508,24.5544,1.0697],[-97.8512,24.5515,0.0],[-97.8446,24.5401,3.0784],[-97.8453,24.5375,0.0],[-97.8431,24.5342,0.0],[-97.8446,24.5332,1.0636],[-97.8496,24.537,0.0],[-97.8472,24.5331,0.0],[-97.8418,24.531,0.0],[-97.8332,24.542,0.0],[-97.8351,24.5453,0.0],[-97.836,24.5421,0.0],[-97.8384,24.5425,0.0],[-97.84,24.5407,0.0],[-97.8425,24.5483,0.0],[-97.8385,24.5613,0.8962],[-97.8369,24.562,0.0],[-97.8334,24.5602,0.0],[-97.8323,24.5609,0.0],[-97.8331,24.5643,0.0],[-97.8351,24.5654,0.0],[-97.8403,24.5634,0.0],[-97.8414,24.5577,0.0],[-97.8435,24.5626,0.0],[-97.8462,24.5628,0.5471],[-97.8492,24.5683,2.8484],[-97.8414,24.5748,0.0],[-97.841,24.5792,0.0],[-97.8439,24.58,2.0796],[-97.8446,24.584,0.0],[-97.8469,24.5861,3.1373],[-97.8524,24.5888,0.0],[-97.8516,24.5949,5.59],[-97.8464,24.5943,4.5963],[-97.8436,24.5955,1.9534],[-97.8436,24.5998,5.0984],[-97.8415,24.5968,0.0],[-97.84,24.5971,4.07],[-97.8343,24.6002,0.9173],[-97.8333,24.6043,0.5672],[-97.8355,24.6098,1.7286],[-97.8418,24.6097,3.8618],[-97.8492,24.6136,6.0099],[-97.8553,24.6212,5.8355],[-97.8587,24.623,1.4669],[-97.8534,24.6214,1.4263],[-97.8475,24.6151,1.2965],[-97.8415,24.6118,1.0301],[-97.8351,24.6112,4.6054],[-97.8301,24.605,0.0],[-97.8278,24.6043,0.7008],[-97.8255,24.6069,1.7558],[-97.8236,24.6049,2.3474],[-97.8257,24.6033,2.3894],[-97.8254,24.6016,2.3762],[-97.8312,24.6026,0.5599],[-97.8337,24.5988,0.9173],[-97.844,24.5928,1.4746],[-97.8437,24.5856,4.0214],[-97.8383,24.5784,0.0],[-97.8353,24.5779,0.0],[-97.8346,24.5805,0.0],[-97.8328,24.5807,0.0],[-97.8251,24.5794,0.6753],[-97.8324,24.5777,0.0],[-97.8363,24.5737,3.7772],[-97.8355,24.5687,0.0],[-97.8301,24.5653,0.0],[-97.8279,24.5616,0.0],[-97.8293,24.5574,0.0],[-97.828,24.5555,0.0],[-97.8347,24.5524,0.0],[-97.8346,24.5502,0.0],[-97.8298,24.5464,0.0],[-97.8208,24.549,0.0],[-97.8132,24.5487,0.0],[-97.7784,24.5594,1.9645],[-97.7689,24.5593,0.1916],[-97.7721,24.5533,0.9051],[-97.7688,24.5516,0.7534],[-97.7709,24.5514,0.0],[-97.7734,24.5431,0.0],[-97.7697,24.5434,0.0],[-97.7692,24.5418,0.4507],[-97.7711,24.5398,2.0111],[-97.7733,24.5415,0.7189],[-97.7738,24.5384,0.7467],[-97.7714,24.525,2.3262],[-97.7733,24.5131,0.1637],[-97.7717,24.5121,1.103],[-97.775,24.51,0.0],[-97.7732,24.4989,0.0],[-97.7722,24.5005,0.0],[-97.773,24.5068,0.9595],[-97.7719,24.5074,1.2187],[-97.7693,24.5028,0.0],[-97.7651,24.5016,0.0],[-97.7612,24.4977,0.6015],[-97.7609,24.4951,0.0],[-97.7644,24.4898,3.7372],[-97.7689,24.49,0.0],[-97.7668,24.4884,0.0],[-97.758,24.4878,0.8198],[-97.7457,24.49,1.1877],[-97.7435,24.4891,1.7061],[-97.7424,24.4861,0.0],[-97.7422,24.5013,3.3269],[-97.7376,24.5172,0.0],[-97.7317,24.5524,1.7296],[-97.7257,24.5666,0.058],[-97.7169,24.5763,0.0],[-97.7216,24.5758,0.0],[-97.7265,24.5672,0.0],[-97.7284,24.5668,0.0874],[-97.7284,24.5611,0.0],[-97.7324,24.5543,0.8086],[-97.7314,24.5571,0.1824],[-97.7326,24.5583,0.7511],[-97.7303,24.5612,1.4694],[-97.7213,24.595,0.0],[-97.7248,24.5893,0.1388],[-97.7271,24.5788,0.0],[-97.7246,24.5941,0.5229],[-97.7356,24.5951,1.0468],[-97.7389,24.5918,1.5266],[-97.7418,24.5926,1.4289],[-97.7357,24.5961,2.1173],[-97.7314,24.5968,0.7278],[-97.7256,24.5952,1.3882],[-97.7228,24.5978,0.8007],[-97.721,24.609,0.0],[-97.7152,24.6268,2.4708],[-97.7167,24.6284,0.7206],[-97.7125,24.6316,0.0],[-97.7108,24.6371,0.0],[-97.7079,24.659,0.6165],[-97.7144,24.6625,0.0],[-97.7147,24.6592,0.4062],[-97.7123,24.6572,1.1737],[-97.7163,24.6542,0.3715],[-97.7156,24.6605,2.0319],[-97.7258,24.6737,1.8019],[-97.7356,24.663,0.0],[-97.7357,24.6582,0.3396],[-97.7377,24.6544,0.5713],[-97.7453,24.6505,1.3534],[-97.7412,24.6536,0.521],[-97.7373,24.6598,0.4388],[-97.7327,24.6716,1.2714],[-97.7287,24.6745,1.3493],[-97.7218,24.6741,2.3345],[-97.7155,24.6769,0.8267],[-97.7156,24.6788,0.0],[-97.7196,24.6777,1.8788],[-97.7204,24.6813,0.2136],[-97.718,24.6796,0.3606],[-97.709,24.686,0.9779],[-97.7104,24.6878,0.0],[-97.7122,24.6875,0.2815],[-97.7126,24.6857,1.5419],[-97.7189,24.6825,1.0041],[-97.725,24.6846,1.3894],[-97.7264,24.6812,0.5817],[-97.7326,24.681,0.0],[-97.7357,24.6785,0.0],[-97.7333,24.6772,1.4123],[-97.7335,24.6744,1.4606],[-97.7418,24.6779,0.9453],[-97.7452,24.6757,0.3677],[-97.7495,24.6767,2.868],[-97.7489,24.6795,4.2685],[-97.7514,24.6846,0.833],[-97.7565,24.6865,0.0],[-97.757,24.6817,0.0],[-97.7614,24.6784,0.2456],[-97.7625,24.675,0.0],[-97.7599,24.673,1.8128],[-97.7545,24.6735,0.0],[-97.7542,24.6671,0.0],[-97.7573,24.6653,0.1322],[-97.7607,24.6676,0.9678],[-97.7595,24.67,0.7051],[-97.7642,24.6713,0.2988],[-97.7666,24.6704,0.0],[-97.7648,24.6771,4.2603],[-97.7584,24.6846,4.2597],[-97.759,24.6875,0.0],[-97.7618,24.6878,0.6598],[-97.759,24.6887,0.0],[-97.7497,24.6855,1.1952],[-97.7475,24.6824,3.557],[-97.7472,24.678,1.1704],[-97.7428,24.6793,2.2143],[-97.7388,24.6782,0.0],[-97.736,24.6801,0.0],[-97.7268,24.6933,0.0],[-97.7195,24.6984,0.0],[-97.7203,24.7054,0.7661],[-97.722,24.6992,0.0],[-97.7292,24.6965,0.8264],[-97.7261,24.7086,1.9158],[-97.7242,24.7104,0.5201],[-97.7229,24.7171,2.9417],[-97.7187,24.7253,0.0],[-97.7203,24.7336,0.4642],[-97.7232,24.7329,0.5207],[-97.7219,24.7311,0.0],[-97.7256,24.7296,0.8952],[-97.724,24.7335,0.6416],[-97.7193,24.7353,0.1571],[-97.7207,24.7374,0.0],[-97.7191,24.7511,0.0],[-97.7201,24.7519,0.9587],[-97.723,24.7499,0.6442],[-97.7244,24.751,0.0],[-97.7269,24.7495,0.2646],[-97.7277,24.7505,1.3606],[-97.7265,24.7525,1.5959],[-97.7205,24.7537,0.0],[-97.7177,24.7561,0.0],[-97.7139,24.7525,0.7475],[-97.7081,24.7501,0.0],[-97.7082,24.7546,0.0],[-97.7113,24.7597,0.0],[-97.7134,24.7586,0.1726],[-97.716,24.7609,0.0],[-97.7182,24.7607,0.0],[-97.7193,24.7638,0.0],[-97.7248,24.7619,0.0],[-97.7214,24.7613,1.7067],[-97.7203,24.7595,1.102],[-97.7246,24.7583,0.5584],[-97.7274,24.7605,0.0],[-97.729,24.7592,0.244],[-97.7313,24.7619,0.2105],[-97.7264,24.7635,0.0],[-97.7204,24.7681,0.1567],[-97.7162,24.7686,0.0],[-97.7143,24.7718,0.2275],[-97.7079,24.7708,0.0],[-97.7082,24.7726,0.0],[-97.7142,24.773,0.5123],[-97.7185,24.7702,3.5853],[-97.7214,24.7729,0.891],[-97.7161,24.7743,0.695],[-97.7161,24.7789,0.0],[-97.7212,24.7757,0.0],[-97.7267,24.7768,0.1101],[-97.7205,24.7802,0.0],[-97.7162,24.7862,0.998],[-97.7166,24.7875,0.0],[-97.7197,24.7877,0.22],[-97.7207,24.7859,3.7105],[-97.7229,24.7887,1.3585],[-97.7297,24.7897,0.1132],[-97.7424,24.7803,0.7299],[-97.7422,24.7777,0.7241],[-97.7411,24.7779,0.6017],[-97.7424,24.7746,0.0],[-97.7454,24.773,0.6414],[-97.7468,24.769,0.0],[-97.7494,24.77,0.0],[-97.743,24.7839,0.7821],[-97.7401,24.7843,0.9228],[-97.7406,24.7858,0.8888],[-97.738,24.7884,0.0],[-97.7263,24.7921,1.3425],[-97.7183,24.7979,0.0],[-97.7162,24.8024,0.6508],[-97.7088,24.8088,0.0],[-97.7088,24.8113,0.0],[-97.7097,24.8125,0.0],[-97.7112,24.8109,0.0],[-97.7159,24.8118,0.913],[-97.7177,24.8102,0.0],[-97.7189,24.8132,0.0],[-97.722,24.8149,0.8066],[-97.7184,24.818,0.0],[-97.7214,24.8208,0.0],[-97.7263,24.8157,0.0],[-97.7302,24.8143,0.2642],[-97.7302,24.8125,0.0],[-97.7387,24.8114,0.4843],[-97.7396,24.8128,0.0],[-97.7296,24.8192,2.5026],[-97.7291,24.8239,0.0],[-97.7325,24.8217,0.7755],[-97.734,24.8222,0.6729],[-97.7334,24.8264,0.0],[-97.7379,24.8237,0.7911],[-97.7468,24.8286,0.5535],[-97.7449,24.83,0.1958],[-97.7409,24.8273,1.3478],[-97.7408,24.8313,0.7503],[-97.7394,24.832,0.0],[-97.7425,24.8346,0.6354],[-97.7473,24.8351,0.6379],[-97.7497,24.8322,0.0904],[-97.7521,24.8324,1.5777],[-97.7481,24.8376,2.4731],[-97.745,24.8368,0.0],[-97.7426,24.8405,2.5885],[-97.744,24.8437,1.2919],[-97.7411,24.8445,2.4343],[-97.7373,24.8408,4.1246],[-97.7413,24.8418,0.4362],[-97.7407,24.838,0.0],[-97.7363,24.8362,0.8895],[-97.7356,24.8402,2.3174],[-97.7316,24.8445,0.9925],[-97.7323,24.8458,1.8822],[-97.7351,24.849,0.0],[-97.7377,24.8495,0.1373],[-97.7386,24.8477,2.1267],[-97.7359,24.8455,1.5965],[-97.7374,24.8445,0.9816],[-97.7394,24.8462,0.0],[-97.7452,24.8469,3.4268],[-97.7454,24.8505,0.0],[-97.7429,24.8536,0.0],[-97.737799999999993,24.8548,0.0],[-97.7332,24.8536,0.0],[-97.732,24.8551,1.1168],[-97.7332,24.8575,0.3226],[-97.7347,24.8571,-0.1494],[-97.7387,24.8607,-0.5],[-97.74,24.8593,0.5091],[-97.7486,24.8611,0.9839],[-97.7437,24.8637,-0.3246],[-97.7396,24.8634,0.1217],[-97.7388,24.8663,1.2805],[-97.7355,24.8648,0.3838],[-97.7304,24.8687,0.443],[-97.7284,24.868,0.0],[-97.7221,24.8708,3.1521],[-97.7231,24.8798,0.4727],[-97.7257,24.8767,1.3331],[-97.7254,24.88,3.0303],[-97.7274,24.8821,0.1011],[-97.7317,24.8834,1.193],[-97.7322,24.886,0.188],[-97.7345,24.8859,0.2323],[-97.7342,24.8882,0.9902],[-97.7235,24.8907,4.2325],[-97.7249,24.8939,1.4714],[-97.7237,24.8991,1.8271],[-97.7277,24.9025,0.1422],[-97.7335,24.9034,2.6266],[-97.7337,24.9055,4.8162],[-97.7207,24.9015,0.5405],[-97.72,24.898,0.2394],[-97.7178,24.8975,0.2331],[-97.7169,24.8999,0.0],[-97.719,24.9025,0.7108],[-97.7164,24.9035,0.585],[-97.7157,24.9022,0.585],[-97.7151,24.8977,0.0],[-97.7186,24.8924,0.2884],[-97.712,24.8829,0.1137],[-97.7116,24.8779,0.6854],[-97.7133,24.8779,0.0],[-97.7132,24.8758,0.0],[-97.7104,24.8741,1.6737],[-97.7098,24.8636,1.7603],[-97.7111,24.8575,0.0],[-97.7092,24.8566,0.0],[-97.707,24.8586,1.2461],[-97.7062,24.8629,1.1075],[-97.6936,24.8679,0.0],[-97.6946,24.8713,1.5384],[-97.6916,24.8713,0.0],[-97.6879,24.8756,0.355],[-97.6921,24.8791,0.1955],[-97.6829,24.8771,0.0],[-97.682,24.8746,0.0],[-97.6875,24.874,0.0],[-97.6867,24.8688,0.0625],[-97.6884,24.8694,0.0],[-97.6942,24.8645,0.0],[-97.6928,24.8641,0.0],[-97.6867,24.8669,0.0],[-97.679,24.8678,1.0288],[-97.6668,24.8749,0.0],[-97.6639,24.8793,0.9806],[-97.6644,24.8819,0.0644],[-97.666,24.8817,0.0],[-97.6704,24.8748,0.264],[-97.6748,24.8725,0.0],[-97.6803,24.8743,0.0],[-97.6766,24.8775,0.0],[-97.6736,24.8854,0.0],[-97.6774,24.8905,0.0],[-97.6771,24.8931,0.0],[-97.6559,24.8977,0.0],[-97.6557,24.899,0.0],[-97.6617,24.9037,0.1537],[-97.6676,24.9039,0.0],[-97.6698,24.9096,0.3225],[-97.6669,24.914,0.1792],[-97.6654,24.9118,0.2221],[-97.662,24.9108,0.0],[-97.6623,24.9087,0.0634],[-97.6586,24.905,0.0268],[-97.6557,24.9068,0.1097],[-97.6588,24.9105,0.2094],[-97.6546,24.9103,0.0447],[-97.6482,24.9016,0.0],[-97.6457,24.9039,0.0],[-97.6432,24.9122,0.0],[-97.6394,24.9134,0.0],[-97.6326,24.9198,0.0264],[-97.6249,24.9217,0.0],[-97.6196,24.9288,0.0],[-97.623,24.935,0.0],[-97.6268,24.9381,0.0],[-97.6338,24.9372,0.0],[-97.6414,24.945,0.0],[-97.642,24.9475,0.0],[-97.6453,24.9496,0.0],[-97.6472,24.9457,0.0],[-97.6547,24.9452,0.0],[-97.6599,24.9512,0.0],[-97.6613,24.9554,0.0],[-97.6652,24.9581,0.0],[-97.6676,24.958,0.5811],[-97.6696,24.9523,0.0],[-97.673,24.9532,0.0],[-97.6812,24.965,0.0],[-97.6803,24.9704,0.0],[-97.6817,24.9754,0.0],[-97.6992,24.9845,0.0],[-97.7034,24.9889,0.0],[-97.7024,24.9931,0.0],[-97.7042,24.9977,0.0],[-97.7005,24.9964,0.0],[-97.699,24.9932,0.0],[-97.6968,24.9947,0.0],[-97.703,25.0024,0.0],[-97.7105,25.0025,0.0],[-97.7138,25.0043,0.0],[-97.7278,25.0004,0.0],[-97.7336,24.9957,0.0],[-97.7394,24.9972,0.0],[-97.7435,24.9925,0.0],[-97.7397,25.0004,0.0],[-97.7151,25.0127,1.685],[-97.716,25.0165,0.8947],[-97.7135,25.0203,0.0],[-97.7177,25.0181,0.0],[-97.7254,25.0195,0.4229],[-97.7259,25.0209,2.0632],[-97.7214,25.0269,1.4734],[-97.7198,25.0328,0.0],[-97.7208,25.0351,0.0],[-97.7231,25.0367,0.131],[-97.7271,25.0337,0.0],[-97.7351,25.032,0.0],[-97.7395,25.0334,0.0284],[-97.7402,25.0355,0.0482],[-97.7439,25.0347,0.3922],[-97.7452,25.0359,0.6509],[-97.74,25.0374,2.7697],[-97.74,25.0395,2.1036],[-97.7381,25.0364,0.0],[-97.7305,25.0357,0.4221],[-97.7207,25.0396,0.0],[-97.7224,25.0429,0.8408],[-97.7268,25.0443,0.0],[-97.7226,25.056,3.4504],[-97.7109,25.0657,0.0],[-97.7045,25.074,0.0],[-97.7035,25.0807,0.0],[-97.6996,25.0891,0.0],[-97.7018,25.1024,0.0],[-97.705,25.108,2.1781],[-97.7067,25.1175,0.0],[-97.7023,25.1377,0.5651],[-97.692,25.1468,0.0],[-97.691,25.15,0.0],[-97.6921,25.1502,0.0],[-97.6891,25.1529,0.0715],[-97.6921,25.1547,0.0],[-97.6959,25.1517,0.0],[-97.6956,25.1502,0.608],[-97.7077,25.1452,0.0],[-97.7085,25.1461,0.0],[-97.7049,25.1476,2.2144],[-97.7049,25.1494,0.0],[-97.7108,25.1499,0.4797],[-97.7143,25.1482,0.0],[-97.714,25.1445,0.2802],[-97.7193,25.1386,0.0],[-97.7259,25.1431,0.8959],[-97.7254,25.1477,0.0],[-97.7271,25.1487,0.0],[-97.73,25.1402,0.0],[-97.7293,25.137,2.4167],[-97.7334,25.135,1.3179],[-97.7507,25.1366,1.7086],[-97.7515,25.1389,0.0],[-97.7541,25.1399,1.8797],[-97.7531,25.1423,0.0],[-97.7549,25.1434,1.2748],[-97.7567,25.1404,1.1072],[-97.7625,25.1384,0.0],[-97.761,25.1347,0.0],[-97.7555,25.1346,0.639],[-97.7544,25.133,0.0],[-97.7636,25.1333,0.761],[-97.7648,25.1297,1.7574],[-97.7635,25.1287,0.0],[-97.7596,25.1324,0.6741],[-97.7563,25.1299,0.0],[-97.7631,25.1249,0.0],[-97.7658,25.1271,1.1109],[-97.7665,25.1309,0.0171],[-97.7694,25.1318,0.7256],[-97.7677,25.1344,1.2893],[-97.769,25.1367,1.227],[-97.772,25.1323,0.0],[-97.7761,25.134,0.0],[-97.7813,25.1329,0.0],[-97.7813,25.1316,0.3451],[-97.7848,25.1339,1.9321],[-97.7779,25.144,2.775],[-97.7744,25.1445,5.1653],[-97.7668,25.1392,0.4997],[-97.7643,25.1415,0.0],[-97.7653,25.1453,0.0],[-97.7642,25.1467,0.0],[-97.7612,25.1475,1.172],[-97.7546,25.1537,0.0],[-97.7506,25.1528,0.7671],[-97.7498,25.1569,0.1805],[-97.7455,25.1545,1.1626],[-97.7408,25.1563,2.6117],[-97.7398,25.1643,3.8884],[-97.7422,25.1688,0.0],[-97.7441,25.1704,2.233],[-97.7466,25.1694,0.0],[-97.7482,25.1724,2.0949],[-97.7447,25.1717,0.0],[-97.7412,25.1757,0.0],[-97.746,25.1774,0.0],[-97.7511,25.1767,0.8658],[-97.7475,25.179,0.0],[-97.7461,25.183,0.0],[-97.7478,25.1841,0.0],[-97.7497,25.1816,0.0],[-97.7523,25.1828,0.3393],[-97.7509,25.1865,2.9629],[-97.7466,25.1905,1.8938],[-97.7361,25.1917,0.0],[-97.7369,25.1945,0.0],[-97.7422,25.1991,0.0],[-97.741,25.196,0.5007],[-97.7465,25.1954,2.7309],[-97.7467,25.1991,0.0],[-97.7516,25.1995,0.3106],[-97.7501,25.202,0.7348],[-97.7468,25.2008,0.489],[-97.7437,25.2037,0.0],[-97.7436,25.208,0.0],[-97.7409,25.2109,2.2633],[-97.7364,25.2091,1.546],[-97.7332,25.2102,0.327],[-97.7335,25.2063,0.6116],[-97.7369,25.2081,0.0],[-97.7327,25.2035,1.1528],[-97.7361,25.1998,0.9444],[-97.74,25.1987,0.0],[-97.7368,25.1961,2.1775],[-97.7333,25.1984,0.0],[-97.7327,25.1967,0.8603],[-97.7351,25.1947,0.0],[-97.7304,25.1907,0.0],[-97.7333,25.1876,0.6465],[-97.732,25.1837,0.0],[-97.7284,25.1834,0.0],[-97.7209,25.1861,2.3656],[-97.7228,25.1829,0.0],[-97.7259,25.1826,0.0],[-97.7279,25.1772,0.0],[-97.7294,25.1768,1.1406],[-97.7282,25.1751,0.7893],[-97.7283,25.1669,2.4754],[-97.7361,25.164,0.0],[-97.7345,25.1607,1.0721],[-97.7274,25.158,0.0],[-97.7176,25.1566,0.0],[-97.7039,25.1582,2.7201],[-97.6999,25.1562,0.3245],[-97.6903,25.1569,0.0],[-97.6882,25.1539,0.081],[-97.6758,25.1611,0.0],[-97.6748,25.162,0.0],[-97.6773,25.1653,0.1222],[-97.6707,25.1693,1.8199],[-97.6715,25.1757,0.0],[-97.6897,25.1836,1.613],[-97.7045,25.195,0.0],[-97.7059,25.1984,0.2949],[-97.7054,25.2065,1.1832],[-97.6982,25.2225,0.0],[-97.6999,25.2301,0.0],[-97.7028,25.2317,0.2099],[-97.7043,25.2358,0.0],[-97.7045,25.2403,0.0],[-97.7114,25.2433,0.1112],[-97.7231,25.2405,0.0],[-97.7284,25.2302,1.4177],[-97.7336,25.2311,0.9915],[-97.7367,25.2438,0.0],[-97.7474,25.2468,0.0],[-97.7545,25.2577,0.0],[-97.7631,25.2661,0.0],[-97.7648,25.2659,0.041],[-97.7643,25.2628,0.7468],[-97.7671,25.2612,0.1754],[-97.7718,25.263,0.092],[-97.7735,25.2594,0.1301],[-97.7792,25.2636,0.0],[-97.7842,25.2636,0.9069],[-97.7862,25.2591,0.1044],[-97.7897,25.2599,1.1148],[-97.7906,25.2587,2.7561],[-97.7904,25.2564,2.8275],[-97.7848,25.2569,0.5163],[-97.7836,25.2554,1.3015],[-97.7863,25.2546,0.699],[-97.7859,25.2519,0.6388],[-97.7884,25.2502,1.421],[-97.7918,25.2548,0.0],[-97.7955,25.254,1.2172],[-97.7966,25.2558,1.2615],[-97.7926,25.2616,0.337],[-97.79,25.2618,0.0],[-97.7817,25.2683,0.0806],[-97.7732,25.2694,0.0],[-97.7689,25.2788,0.1353],[-97.7644,25.2799,0.0],[-97.7597,25.279,6.7253],[-97.7503,25.2714,0.0],[-97.739,25.2659,2.1192],[-97.7337,25.2681,0.2197],[-97.7298,25.2665,0.0],[-97.7306,25.262,1.1637],[-97.7321,25.2609,0.0812],[-97.7353,25.2636,0.0],[-97.7353,25.2618,0.1931],[-97.7309,25.2552,0.0],[-97.7272,25.253,0.0],[-97.7212,25.2549,1.3608],[-97.7172,25.261,0.0],[-97.7179,25.2711,0.0],[-97.7186,25.2719,0.0],[-97.7192,25.2706,2.3989],[-97.7186,25.2616,0.0],[-97.8077,25.3415,9.3496],[-97.8033,25.3468,10.0129],[-97.8488,25.3673,9.734],[-97.8517,25.3703,9.7827],[-97.8472,25.3745,10.1534],[-97.8593,25.3858,11.0418],[-97.8629,25.3805,10.7246],[-97.878,25.3963,11.253],[-97.8998,25.3758,11.696],[-97.8998,25.3809,11.8269],[-97.9494,25.3813,14.1758],[-97.9495,25.426,14.9018],[-97.9793,25.426,16.8698],[-97.9793,25.4441,17.6078],[-98.029,25.444,22.2639],[-98.0289,25.4259,21.4764],[-98.0587,25.4259,24.4973],[-98.0587,25.3447,22.9365],[-98.0786,25.3446,26.6372],[-98.0787,25.3034,25.0037],[-98.1085,25.3086,34.9101],[-98.1085,25.2544,29.0796],[-98.1746,25.2597,51.375],[-98.1784,25.2205,56.8445],[-98.208,25.2229,70.8488],[-98.2089,25.2139,78.91],[-98.2187,25.2147,82.4309],[-98.2207,25.1935,78.3554],[-98.2257,25.1936,79.0058],[-98.2258,25.1876,80.1951],[-98.2407,25.1876,89.0892],[-98.2408,25.1804,89.1915],[-98.2506,25.1804,99.6026],[-98.2506,25.1567,126.9414],[-98.2992,25.1564,148.996],[-98.3157,25.1579,136.6759],[-98.3239,25.1043,109.042],[-98.3436,25.1068,91.4839],[-98.3477,25.0805,93.9742],[-98.3832,25.0736,70.7575],[-98.3878,25.0396,60.2937],[-98.3923,25.0375,61.6012],[-98.3996,25.0222,57.8157],[-98.4022,25.0219,51.7714],[-98.4049,25.0187,55.9104],[-98.4085,25.0204,62.1723],[-98.4124,25.0177,56.579],[-98.4167,25.0177,59.6497],[-98.4167,25.014,56.8687],[-98.414,25.0098,55.7468],[-98.4119,25.0094,69.3657],[-98.4094,25.0115,59.0716],[-98.3997,25.0075,54.3308],[-98.3901,25.0002,56.7736],[-98.3841,24.9925,54.9593],[-98.3791,24.9921,58.3613],[-98.3786,24.9887,55.1276],[-98.3842,24.9814,58.1745],[-98.3885,24.9838,60.9082],[-98.3908,24.9828,60.6978],[-98.3926,24.9786,62.2655],[-98.4025,24.9795,63.2752],[-98.4088,24.9767,67.6609],[-98.4092,24.9747,65.1038],[-98.4041,24.9658,79.0175],[-98.4127,24.9604,69.2725],[-98.4183,24.9612,72.0506],[-98.4197,24.9631,70.6196],[-98.4211,24.9623,71.2385],[-98.4242,24.9576,77.089],[-98.424,24.9529,75.5546],[-98.421,24.9473,75.622],[-98.4291,24.9391,81.9593],[-98.4251,24.9365,78.7764],[-98.4203,24.9284,80.3036],[-98.4198,24.9241,82.8567],[-98.413,24.9189,117.4174],[-98.4133,24.914,113.7366],[-98.4188,24.9154,87.0311],[-98.4304,24.9045,97.7961],[-98.4089,24.8716,154.2814],[-98.3889,24.8777,119.7266],[-98.378,24.8582,117.1162],[-98.363,24.8652,107.3474],[-98.3673,24.84,121.3487],[-98.3518,24.8357,146.6831],[-98.3523,24.8109,149.4869],[-98.3392,24.8163,128.1403],[-98.3328,24.8153,110.096],[-98.3214,24.7739,109.7984],[-98.3171,24.7704,109.1902],[-98.3109,24.7536,87.6234],[-98.3146,24.7508,98.3357],[-98.3063,24.7248,95.4103],[-98.3169,24.7248,103.5956],[-98.3109,24.7039,125.6148],[-98.2969,24.7064,107.1722],[-98.2897,24.6783,89.0461],[-98.2911,24.6788,91.6017],[-98.3221,24.6329,101.1006],[-98.3036,24.6226,98.6712],[-98.3101,24.6123,74.7204],[-98.3009,24.6101,67.5601],[-98.2936,24.6053,72.6921],[-98.288,24.5921,66.0159],[-98.2851,24.5899,65.6159],[-98.2808,24.5893,63.8709],[-98.274,24.5923,65.5797],[-98.2672,24.6014,61.6771],[-98.2614,24.6014,60.8435],[-98.2531,24.5987,65.4049],[-98.251,24.5995,58.9671],[-98.2485,24.6069,56.8664],[-98.2389,24.6086,64.2846],[-98.2346,24.6185,52.3755],[-98.2268,24.623,51.1512],[-98.2206,24.6241,51.0497],[-98.1952,24.5951,116.9729],[-98.1931,24.5965,108.111],[-98.1794,24.5811,135.0044],[-98.1714,24.5868,114.9206],[-98.1498,24.5651,130.6318],[-98.146,24.5663,133.8137],[-98.1386,24.5736,130.9139],[-98.0998,24.5041,132.4509],[-98.1364,24.476,126.8968],[-98.1448,24.4723,115.119],[-98.1848,24.4797,147.731],[-98.1845,24.4228,145.0714],[-98.1446,24.4231,102.4132],[-98.1115,24.4183,88.0473],[-98.111,24.4025,110.3047],[-98.0192,24.4042,54.1545],[-98.0117,24.3647,51.8648],[-98.0328,24.3468,62.7816]]],
[[[-97.7244,24.8866,1.1652],[-97.7267,24.8878,0.172],[-97.7292,24.8849,1.8144],[-97.7233,24.8826,2.6519],[-97.7244,24.8866,1.1652]]],
[[[-97.7223,25.0207,0.0],[-97.7157,25.0257,0.095],[-97.7167,25.0291,0.0],[-97.7178,25.0292,0.0],[-97.7173,25.0264,0.0],[-97.7191,25.0243,0.0],[-97.7232,25.0226,0.0],[-97.7223,25.0207,0.0]]],
[[[-97.7401,25.143,0.0],[-97.7411,25.1435,0.0],[-97.7392,25.1415,2.6103],[-97.7352,25.1417,0.0],[-97.7324,25.1445,3.0495],[-97.7323,25.1479,1.0976],[-97.7385,25.1491,0.0],[-97.7366,25.1445,2.3198],[-97.7401,25.143,0.0]]],
[[[-97.7142,25.0472,0.0],[-97.7101,25.0474,0.0],[-97.7074,25.0535,0.0],[-97.7094,25.0523,0.0],[-97.7095,25.0507,0.0],[-97.7119,25.0505,0.0],[-97.7124,25.0485,0.1367],[-97.7197,25.0525,0.0],[-97.7142,25.0472,0.0]]],
[[[-97.7003,25.1553,0.0],[-97.7035,25.1545,0.0],[-97.7007,25.1519,0.0],[-97.6988,25.1535,2.195],[-97.7003,25.1553,0.0]]],
[[[-97.7462,25.1457,0.6445],[-97.7461,25.1476,0.5667],[-97.7415,25.1474,0.4246],[-97.7393,25.1495,0.0],[-97.7419,25.154,0.5141],[-97.746,25.1517,1.1969],[-97.755,25.152,1.7044],[-97.7555,25.1511,1.7044],[-97.7486,25.1483,0.0],[-97.7522,25.1465,0.0],[-97.7511,25.1445,1.1228],[-97.7486,25.1439,3.3555],[-97.7462,25.1457,0.6445]]],
[[[-97.7333,25.1578,0.0],[-97.7347,25.1589,0.0],[-97.7382,25.1572,0.0],[-97.7374,25.1538,2.7043],[-97.7335,25.1549,0.0],[-97.7333,25.1578,0.0]]],
[[[-97.7396,25.1685,3.9869],[-97.7369,25.1655,0.7191],[-97.7341,25.1672,0.4338],[-97.7335,25.1701,0.0],[-97.7356,25.1678,0.5234],[-97.7367,25.1691,0.0],[-97.7396,25.1685,3.9869]]],
[[[-97.7329,25.1762,0.0],[-97.7313,25.1816,0.8695],[-97.7343,25.1821,0.0],[-97.7353,25.1754,5.1059],[-97.7396,25.1732,2.6526],[-97.7379,25.1698,0.0],[-97.7344,25.1711,1.1369],[-97.7329,25.1762,0.0]]],
[[[-97.6905,24.8141,2.1302],[-97.6875,24.8137,0.0],[-97.6885,24.8154,0.5519],[-97.6933,24.8147,0.2154],[-97.696,24.8093,0.0],[-97.6941,24.8094,0.0],[-97.6935,24.8063,0.3547],[-97.696,24.8049,0.0],[-97.694,24.8044,0.0],[-97.6919,24.8061,0.0],[-97.6928,24.8095,0.0],[-97.6945,24.8104,0.0],[-97.6905,24.8141,2.1302]]],
[[[-97.6906,25.2353,0.0],[-97.6872,25.2394,0.0],[-97.6881,25.2402,0.0],[-97.6976,25.2274,0.0],[-97.695,25.2256,0.0355],[-97.6824,25.2352,0.2947],[-97.6855,25.2379,0.0603],[-97.6936,25.2293,0.0],[-97.6944,25.2302,0.0],[-97.6906,25.2353,0.0]]],
[[[-97.7441,25.1839,0.0],[-97.7424,25.1808,0.8727],[-97.7365,25.1809,1.937],[-97.7352,25.1824,0.0],[-97.7357,25.1893,0.0],[-97.7394,25.184,2.6081],[-97.7441,25.1839,0.0]]],
[[[-97.7375,25.2029,0.0],[-97.736,25.2044,0.7785],[-97.7368,25.2058,0.0],[-97.7383,25.2061,0.0],[-97.7389,25.2032,2.0581],[-97.7404,25.2056,0.0],[-97.7422,25.2049,0.0],[-97.7392,25.2014,0.0],[-97.7375,25.2029,0.0]]]]}}