{"type":"Feature","properties":{"GID_2":"MEX.29.13_2","GID_0":"MEX","country":"México","GID_1":"MEX.29_1","province":"Tlaxcala","NL_NAME_1":"NA","county":"ElCarmenTequexquitla","VARNAME_2":"NA","NL_NAME_2":"NA","TYPE_2":"Município","ENGTYPE_2":"Municipality","CC_2":"NA","HASC_2":"NA","name":"El_Carmen_Tequexquitla.county"},
"geometry":{"type": "MultiPolygon","coordinates": [[[[-97.704,19.393,2620.2742],[-97.7074,19.3884,2588.8928],[-97.71,19.3786,2485.2964],[-97.7078,19.3782,2474.4907],[-97.7077,19.3752,2429.5469],[-97.7063,19.375,2425.4092],[-97.7099,19.3683,2404.917],[-97.7038,19.3616,2396.4705],[-97.6997,19.3685,2421.9089],[-97.6903,19.372,2571.2493],[-97.6919,19.36,2416.8965],[-97.7,19.3447,2383.2246],[-97.6972,19.3429,2381.7495],[-97.692,19.3439,2380.8687],[-97.6843,19.3404,2375.4409],[-97.6975,19.3395,2381.9841],[-97.7094,19.3408,2389.6213],[-97.7128,19.3328,2385.5251],[-97.7073,19.3286,2393.3267],[-97.6875,19.3294,2394.6636],[-97.686,19.3222,2435.4988],[-97.6893,19.3179,2486.9985],[-97.6856,19.3162,2493.0312],[-97.6905,19.3136,2447.4116],[-97.6961,19.3181,2419.3071],[-97.7108,19.3085,2455.3],[-97.7176,19.3076,2495.3169],[-97.7196,19.3048,2477.7505],[-97.7157,19.2978,2431.5203],[-97.7105,19.2956,2385.4802],[-97.7047,19.2971,2371.853],[-97.7012,19.2957,2366.4365],[-97.6992,19.2919,2365.1108],[-97.6909,19.2859,2353.2034],[-97.6776,19.2927,2351.3987],[-97.6695,19.2921,2347.0525],[-97.666,19.2955,2351.6702],[-97.658,19.3107,2349.6267],[-97.6461,19.3064,2342.6189],[-97.6389,19.319,2345.0105],[-97.6331,19.3162,2344.7444],[-97.6329,19.3203,2355.8672],[-97.6264,19.3239,2351.167],[-97.6257,19.3314,2370.3877],[-97.628,19.3346,2358.2153],[-97.6387,19.3383,2347.2974],[-97.6314,19.3554,2352.4316],[-97.6403,19.3608,2354.8291],[-97.6536,19.3538,2364.0181],[-97.6533,19.3589,2368.3145],[-97.658,19.3637,2378.9692],[-97.6661,19.3653,2434.2397],[-97.6688,19.3683,2427.9104],[-97.6707,19.3668,2524.0439],[-97.6739,19.3675,2593.0591],[-97.6765,19.3714,2651.5352],[-97.6778,19.3816,2685.3809],[-97.6813,19.3883,2753.6855],[-97.6868,19.387,2711.2454],[-97.6938,19.3892,2657.0249],[-97.6964,19.391,2614.8833],[-97.6982,19.3956,2532.8005],[-97.704,19.393,2620.2742]]]]}}