{"type":"Feature","properties":{"GID_2":"MEX.26.14_2","GID_0":"MEX","country":"México","GID_1":"MEX.26_1","province":"Sonora","NL_NAME_1":"NA","county":"Baviácora","VARNAME_2":"NA","NL_NAME_2":"NA","TYPE_2":"Município","ENGTYPE_2":"Municipality","CC_2":"NA","HASC_2":"NA","name":"Baviácora.county"},
"geometry":{"type": "MultiPolygon","coordinates": [[[[-110.326,29.6915,1128.3257],[-110.3253,29.6802,1177.0969],[-110.3007,29.6837,1280.6804],[-110.2959,29.6571,1173.7024],[-110.2905,29.6529,1125.7247],[-110.2801,29.6553,1255.801],[-110.2719,29.6455,1257.0444],[-110.264,29.6291,1312.5475],[-110.2585,29.5902,1101.9633],[-110.2564,29.5542,974.3029],[-110.2368,29.5482,817.2485],[-110.2382,29.5548,934.4785],[-110.2137,29.5611,1101.4779],[-110.2055,29.5489,1122.7893],[-110.2034,29.5495,1138.6654],[-110.1861,29.4991,466.9908],[-110.1308,29.4456,1090.192],[-110.1313,29.4383,1224.0361],[-110.0857,29.4611,631.7718],[-110.0842,29.4319,739.5986],[-110.0723,29.4521,682.2361],[-110.0295,29.4492,745.6678],[-110.0264,29.458,848.0223],[-110.0343,29.4602,800.3145],[-110.0358,29.4774,859.9608],[-110.0166,29.4834,1427.3969],[-110.016,29.4507,1029.2119],[-109.9924,29.4439,1059.2048],[-109.9877,29.4802,1098.2292],[-110.0088,29.4841,1552.6626],[-110.0032,29.4882,1370.0071],[-110.0033,29.4973,1243.2224],[-109.9927,29.5348,1416.9789],[-110.0133,29.565,1043.537],[-110.0009,29.5721,1111.3715],[-109.9949,29.5988,1005.7968],[-110.0023,29.6067,924.2639],[-109.9777,29.639,1480.2064],[-109.9806,29.648,1095.9436],[-109.9858,29.6927,1184.7625],[-109.963,29.6948,1038.8945],[-109.9603,29.6981,1074.5824],[-109.9506,29.6968,1275.1761],[-109.954,29.721,1254.5063],[-109.9762,29.7155,1373.0288],[-109.9867,29.7276,1441.9038],[-109.9826,29.7518,1269.4863],[-110.0135,29.7506,1021.1203],[-110.0344,29.7581,906.9882],[-110.0406,29.7561,902.0706],[-110.077,29.7551,1340.2858],[-110.0814,29.7612,1279.2471],[-110.0838,29.7758,997.1973],[-110.1071,29.7965,715.6097],[-110.1944,29.7576,571.7321],[-110.326,29.6915,1128.3257]]]]}}