{"type": "Feature","bbox": [-97.7473,18.8806,-97.5417,19.0189],"geometry": {"type": "MultiPolygon","coordinates": [[[[-97.7463,18.9551,2087.4397],[-97.7267,18.9483,2088.8252],[-97.7222,18.9579,2100.7859],[-97.7133,18.9528,2104.7178],[-97.7164,18.9458,2097.3103],[-97.7213,18.9464,2092.7141],[-97.7231,18.9415,2091.7739],[-97.7219,18.94,2092.4009],[-97.7241,18.9386,2089.1255],[-97.7259,18.9332,2083.5405],[-97.7196,18.9288,2094.9771],[-97.7185,18.9253,2108.7793],[-97.7162,18.9248,2110.0652],[-97.7173,18.9235,2116.2358],[-97.7142,18.9207,2125.344],[-97.7111,18.919,2138.0481],[-97.709,18.9215,2134.594],[-97.7031,18.9165,2141.8459],[-97.704,18.9155,2141.8459],[-97.6942,18.9131,2139.1714],[-97.6934,18.9077,2126.5493],[-97.6808,18.908,2128.2554],[-97.6762,18.9111,2130.2183],[-97.6738,18.9089,2130.8726],[-97.6728,18.9106,2130.9453],[-97.67,18.9079,2130.9736],[-97.677,18.8963,2127.7839],[-97.6662,18.8921,2132.5649],[-97.6646,18.8933,2133.7566],[-97.6475,18.8858,2146.4878],[-97.6439,18.8919,2147.4126],[-97.6257,18.8913,2160.9534],[-97.6266,18.8897,2158.6736],[-97.624,18.8893,2163.5703],[-97.6231,18.8908,2164.532],[-97.6179,18.8898,2168.98],[-97.6014,18.8907,2186.7278],[-97.5855,18.8806,2191.7036],[-97.58,18.8915,2216.0847],[-97.5691,18.9036,2280.2014],[-97.5704,18.9042,2297.3787],[-97.5704,18.9088,2389.7988],[-97.567,18.913,2510.3513],[-97.5625,18.9289,2737.0198],[-97.5647,18.9306,2807.1577],[-97.566,18.9359,2772.4102],[-97.5644,18.9437,2666.1875],[-97.5668,18.947,2687.2429],[-97.5639,18.9496,2651.8025],[-97.5629,18.9569,2595.1199],[-97.556,18.9564,2508.9666],[-97.5527,18.953,2484.0776],[-97.5443,18.9603,2782.1968],[-97.5417,18.9654,2765.4893],[-97.5419,18.9669,2752.9709],[-97.5495,18.9687,2743.0308],[-97.5542,18.9721,2811.6628],[-97.5572,18.9778,2731.9211],[-97.5579,18.9854,2759.8425],[-97.5597,18.9877,2784.428],[-97.5595,18.9892,2786.5835],[-97.5541,18.9894,2698.8008],[-97.5515,18.9926,2628.5],[-97.5523,18.997,2569.6467],[-97.5533,18.9963,2539.1707],[-97.5534,18.995,2535.7812],[-97.5541,18.9974,2473.9043],[-97.5444,18.9986,2429.1804],[-97.5479,19.0004,2428.8879],[-97.5494,19.0057,2426.8137],[-97.5526,19.0064,2429.1208],[-97.56,19.0163,2425.9294],[-97.5617,19.0149,2434.6794],[-97.5626,19.0158,2428.1323],[-97.5606,19.017,2425.9294],[-97.5612,19.0189,2423.0408],[-97.5674,19.0153,2460.7478],[-97.5704,19.0025,2813.6528],[-97.5765,19.0039,2702.3047],[-97.5822,18.9979,2487.9619],[-97.5884,18.9971,2454.0642],[-97.5896,18.9982,2434.0693],[-97.588,19.0034,2477.1509],[-97.5919,19.0181,2821.0466],[-97.5985,19.0185,2768.0706],[-97.6013,19.0167,2740.915],[-97.6034,19.012,2684.2693],[-97.6106,19.0129,2413.8364],[-97.6105,19.0112,2421.6016],[-97.6138,19.0117,2406.4082],[-97.619,19.0091,2346.3674],[-97.6228,19.0027,2316.9692],[-97.6285,18.9978,2281.2236],[-97.6182,18.9948,2313.0854],[-97.6194,18.9885,2475.6091],[-97.6168,18.9804,2497.5637],[-97.619,18.9836,2408.6216],[-97.6222,18.984,2376.8408],[-97.6361,18.975,2305.0535],[-97.6387,18.9756,2296.4092],[-97.6419,18.971,2350.3623],[-97.6444,18.9711,2340.4192],[-97.6506,18.9723,2282.2991],[-97.651,18.9745,2286.0786],[-97.6441,18.985,2239.9648],[-97.6482,18.9848,2229.2234],[-97.6519,18.9814,2217.4568],[-97.657,18.9814,2207.6824],[-97.6552,18.9869,2220.7163],[-97.6557,18.9918,2236.1787],[-97.6606,18.9929,2228.2024],[-97.6657,18.9926,2215.2571],[-97.6711,18.9856,2197.5093],[-97.6764,18.9831,2184.0063],[-97.6905,18.9796,2154.9368],[-97.6927,18.9797,2151.2617],[-97.697,18.9853,2156.8264],[-97.7061,18.979,2142.9062],[-97.71,18.979,2140.6692],[-97.7203,18.983,2138.7959],[-97.718,18.9905,2153.1831],[-97.7279,18.9895,2143.6235],[-97.731,18.9864,2135.7551],[-97.7361,18.9712,2110.6255],[-97.7446,18.9731,2109.5239],[-97.7473,18.9752,2110.4961],[-97.7456,18.9621,2097.6787],[-97.7463,18.9551,2087.4397]]]]}
,"properties": {"GID_2": "MEX.21.117_2","GID_0": "MEX","country": "México","GID_1": "MEX.21_1","province": "Puebla","NL_NAME_1": "NA","county": "Quecholac","VARNAME_2": "NA","NL_NAME_2": "NA","TYPE_2": "Município","ENGTYPE_2": "Municipality","CC_2": "NA","HASC_2": "NA","name": "Quecholac.county","area_km2": 187.3782,"hist_schema_id": "Elevation0-9000","hist_area_km2": {"2075": 0.3409,"2100": 10.6481,"2125": 27.214,"2150": 27.8966,"2175": 17.7485,"2200": 15.8237,"2225": 9.546,"2250": 5.6955,"2275": 3.9908,"2300": 3.9506,"2325": 3.9102,"2350": 3.7095,"2375": 3.4289,"2400": 3.3886,"2425": 4.3108,"2450": 3.4084,"2475": 3.3885,"2500": 3.188,"2525": 2.767,"2550": 2.6667,"2575": 3.4086,"2600": 3.1279,"2625": 2.8473,"2650": 2.3861,"2675": 3.148,"2700": 3.1881,"2725": 3.5289,"2750": 2.8873,"2775": 2.4061,"2800": 1.7244,"2825": 1.0025,"2850": 0.4211,"2875": 0.2807}}}