{"type":"Feature","properties":{"GID_2":"MEX.15.47_2","GID_0":"MEX","country":"México","GID_1":"MEX.15_1","province":"México","NL_NAME_1":"NA","county":"Jilotzingo","VARNAME_2":"NA","NL_NAME_2":"NA","TYPE_2":"Município","ENGTYPE_2":"Municipality","CC_2":"NA","HASC_2":"NA","name":"Jilotzingo.county"},
"geometry":{"type": "MultiPolygon","coordinates": [[[[-99.3543,19.5543,2547.3057],[-99.3586,19.5521,2560.322],[-99.3623,19.5561,2555.5405],[-99.368,19.5557,2591.7959],[-99.3785,19.5508,2695.3623],[-99.3819,19.5431,2736.946],[-99.3857,19.5408,2727.2319],[-99.3923,19.5464,2734.9819],[-99.3953,19.5468,2737.0813],[-99.3998,19.5525,2723.0498],[-99.4145,19.5424,2821.5029],[-99.4212,19.5441,2951.262],[-99.425,19.5418,2989.158],[-99.4276,19.5426,3112.8018],[-99.4552,19.5289,3304.1213],[-99.4593,19.525,3439.3508],[-99.4657,19.5141,3359.491],[-99.4751,19.5111,3494.5967],[-99.4538,19.5006,3486.4824],[-99.449,19.4951,3395.6577],[-99.4329,19.4907,3447.9629],[-99.4419,19.4878,3248.2559],[-99.4214,19.4672,3403.761],[-99.4187,19.4614,3409.6218],[-99.4116,19.4554,3427.8022],[-99.4084,19.4476,3427.322],[-99.3961,19.4401,3385.6733],[-99.384,19.4383,3213.3213],[-99.3712,19.4483,3327.8813],[-99.3722,19.4534,3263.3186],[-99.3688,19.4556,3262.9768],[-99.3633,19.4767,3126.6531],[-99.353,19.4853,2797.988],[-99.3527,19.4906,2674.6509],[-99.3499,19.4945,2613.9727],[-99.3387,19.4928,2633.7942],[-99.3355,19.4947,2667.1345],[-99.3408,19.4977,2584.7112],[-99.3386,19.4996,2573.053],[-99.3393,19.5025,2558.356],[-99.3361,19.5031,2537.6323],[-99.3349,19.5018,2575.0991],[-99.3293,19.5071,2508.0923],[-99.3295,19.5096,2507.5688],[-99.3267,19.5139,2523.0205],[-99.3246,19.5143,2490.7192],[-99.3255,19.515,2490.7192],[-99.3198,19.5164,2477.4534],[-99.3207,19.5244,2642.106],[-99.3237,19.5303,2841.6338],[-99.3262,19.5482,2591.1016],[-99.3361,19.5506,2598.0891],[-99.3444,19.5571,2497.5056],[-99.3453,19.5551,2501.7981],[-99.3494,19.554,2528.5449],[-99.3488,19.5515,2540.7642],[-99.3543,19.5543,2547.3057]]]]}}