{"type": "Feature","bbox": [-97.8463,20.0253,-97.7426,20.0867],"geometry": {"type": "MultiPolygon","coordinates": [[[[-97.8119,20.0262,1170.2816],[-97.8028,20.0265,1128.3643],[-97.7999,20.028,1102.635],[-97.7893,20.0253,1030.5544],[-97.7855,20.0261,991.3056],[-97.7829,20.0315,789.0509],[-97.7673,20.0392,620.2793],[-97.766,20.0422,493.5674],[-97.7669,20.0453,480.8671],[-97.7627,20.0529,446.5643],[-97.7591,20.0537,424.8173],[-97.7581,20.058,443.7974],[-97.7544,20.062,492.6476],[-97.7458,20.0595,427.0363],[-97.7426,20.068,386.2906],[-97.7529,20.0685,863.6299],[-97.7677,20.0737,1208.9811],[-97.7731,20.0811,755.1351],[-97.7787,20.0768,914.5264],[-97.7828,20.076,951.6563],[-97.7852,20.0776,1130.2177],[-97.7856,20.0834,1355.7676],[-97.7897,20.0798,1388.9253],[-97.7883,20.0767,1275.0354],[-97.7998,20.0742,1120.8136],[-97.8042,20.0808,757.1453],[-97.8074,20.078,853.5024],[-97.8098,20.0791,782.5449],[-97.8111,20.0772,837.145],[-97.815,20.0855,523.5087],[-97.8175,20.0845,569.7467],[-97.8251,20.0867,583.7186],[-97.8268,20.0824,812.0829],[-97.8369,20.0834,1015.0056],[-97.8372,20.0754,1040.9434],[-97.8348,20.0704,1071.4471],[-97.836,20.0665,1116.9333],[-97.8378,20.0657,1078.4608],[-97.8463,20.0514,1190.7556],[-97.8445,20.0486,1237.5715],[-97.845,20.0433,1248.5388],[-97.8374,20.0401,1274.147],[-97.8355,20.0373,1285.0714],[-97.8256,20.0378,1511.4344],[-97.825,20.0337,1469.8101],[-97.8232,20.0328,1530.9856],[-97.8189,20.0343,1574.416],[-97.8173,20.0267,1282.6309],[-97.8119,20.0262,1170.2816]]]]}
,"properties": {"GID_2": "MEX.21.14_2","GID_0": "MEX","country": "México","GID_1": "MEX.21_1","province": "Puebla","NL_NAME_1": "NA","county": "Amixtlán","VARNAME_2": "NA","NL_NAME_2": "NA","TYPE_2": "Município","ENGTYPE_2": "Municipality","CC_2": "NA","HASC_2": "NA","name": "Amixtlán.county","area_km2": 44.63285,"hist_schema_id": "Elevation0-9000","hist_area_km2": {"350": 0.03983,"375": 0.03983,"400": 0.01992,"425": 0.09958,"450": 0.13941,"475": 0.27883,"500": 0.3585,"525": 0.23901,"550": 0.41824,"575": 0.39833,"600": 0.31866,"625": 0.41825,"650": 0.49791,"675": 0.31867,"700": 0.49791,"725": 0.41824,"750": 0.85641,"775": 0.27882,"800": 0.39832,"825": 0.71697,"850": 0.4979,"875": 0.67714,"900": 0.79662,"925": 1.09534,"950": 1.59319,"975": 1.2945,"1000": 1.13521,"1025": 1.45386,"1050": 1.81236,"1075": 1.21488,"1100": 1.83227,"1125": 1.65303,"1150": 1.97174,"1175": 1.45389,"1200": 1.55351,"1225": 2.03155,"1250": 1.69294,"1275": 1.71285,"1300": 1.67302,"1325": 1.49374,"1350": 1.37426,"1375": 1.01576,"1400": 0.89627,"1425": 0.99586,"1450": 0.73695,"1475": 0.81663,"1500": 0.81662,"1525": 0.61745,"1550": 0.63736,"1575": 0.5577,"1600": 0.4382,"1625": 0.13943,"1650": 0.07968,"1675": 0.07967,"1700": 0.03984}}}