{"type": "Feature","bbox": [-97.2156,20.2379,-96.7855,20.5992],"geometry": {"type": "MultiPolygon","coordinates": [[[[-97.1406,20.3758,46.8745],[-97.1429,20.3754,49.9246],[-97.1436,20.3631,43.8006],[-97.1448,20.3633,43.8006],[-97.1464,20.3591,40.3902],[-97.1416,20.3528,60.1675],[-97.1409,20.3449,28.9737],[-97.1468,20.3432,33.6099],[-97.1451,20.3379,46.9678],[-97.1555,20.3291,75.4936],[-97.1605,20.3336,102.5142],[-97.1624,20.3325,95.114],[-97.1567,20.3248,62.7374],[-97.1528,20.3242,47.5182],[-97.1546,20.3178,34.509],[-97.1506,20.3164,49.3209],[-97.1486,20.3184,35.3091],[-97.1448,20.3134,39.1539],[-97.1356,20.3112,66.6204],[-97.135,20.3092,76.5583],[-97.1379,20.3042,118.211],[-97.133,20.3022,131.725],[-97.1345,20.2987,132.4827],[-97.1302,20.2983,106.3184],[-97.1303,20.3009,85.8857],[-97.1276,20.3032,68.3035],[-97.1226,20.3031,54.446],[-97.1224,20.3049,79.8543],[-97.1095,20.3014,36.3752],[-97.1097,20.2952,34.2623],[-97.1026,20.2868,30.0392],[-97.1023,20.2764,37.5964],[-97.1044,20.2709,37.892],[-97.1013,20.2634,30.5765],[-97.1035,20.2612,34.1788],[-97.1026,20.259,31.084],[-97.1038,20.2562,27.0563],[-97.0989,20.2601,26.621],[-97.0999,20.2617,31.9591],[-97.0984,20.2632,30.2301],[-97.0956,20.2642,25.6687],[-97.097,20.2648,29.7511],[-97.0951,20.2672,26.9204],[-97.0966,20.2678,28.11],[-97.0956,20.2692,26.3744],[-97.0921,20.2714,26.4805],[-97.0909,20.2698,25.1949],[-97.0895,20.2706,26.2202],[-97.0887,20.2723,25.0102],[-97.0907,20.2738,23.1014],[-97.0883,20.2746,25.9489],[-97.0849,20.2728,23.0275],[-97.0859,20.2716,24.2594],[-97.0835,20.2715,23.4153],[-97.0843,20.2695,26.0448],[-97.0815,20.2709,22.8887],[-97.0824,20.2684,32.7263],[-97.0796,20.2687,28.3944],[-97.0782,20.2724,22.0989],[-97.0761,20.2694,24.0734],[-97.074,20.2702,22.2434],[-97.0721,20.2666,21.2517],[-97.0711,20.2684,24.6899],[-97.069,20.2657,21.9259],[-97.0651,20.2667,21.7707],[-97.0665,20.265,23.1441],[-97.0624,20.2628,19.5443],[-97.0617,20.2593,19.0754],[-97.0614,20.2605,19.8392],[-97.0596,20.26,18.4755],[-97.0559,20.2622,20.0679],[-97.0527,20.2616,18.4103],[-97.050299999999993,20.2635,18.8546],[-97.0469,20.2622,18.1121],[-97.0428,20.2657,18.221],[-97.0432,20.2681,17.6105],[-97.0467,20.2683,18.0956],[-97.0479,20.2704,17.6547],[-97.0446,20.2739,19.6613],[-97.044,20.2775,17.4107],[-97.0327,20.2795,17.3551],[-97.0276,20.2785,14.486],[-97.0233,20.2808,21.491],[-97.0227,20.277,14.8103],[-97.0176,20.2764,15.6322],[-97.018,20.2779,15.2776],[-97.0161,20.2787,16.7831],[-97.0149,20.2752,13.8792],[-97.0147,20.2764,16.2089],[-97.0102,20.2768,17.9066],[-97.0105,20.2742,16.472],[-97.0095,20.2768,17.9066],[-97.0083,20.2766,14.764],[-97.0097,20.2778,15.9732],[-97.0059,20.28,35.7338],[-97.0053,20.2868,30.7623],[-97.0085,20.2896,32.8396],[-96.9996,20.2931,22.5256],[-96.998,20.2962,29.7461],[-96.9949,20.2937,27.2936],[-96.9912,20.2933,17.4107],[-96.9861,20.2887,17.9065],[-96.9846,20.2896,14.9611],[-96.9818,20.2878,30.21],[-96.9783,20.2848,12.6851],[-96.9793,20.284,13.7166],[-96.9783,20.2827,19.0575],[-96.9768,20.2842,12.6851],[-96.9739,20.2738,26.3488],[-96.9613,20.2758,43.335],[-96.9601,20.2807,31.719],[-96.9571,20.2806,30.8486],[-96.9557,20.2837,17.3573],[-96.9522,20.2839,9.8299],[-96.9498,20.2811,34.8135],[-96.9446,20.2876,11.0268],[-96.9403,20.2884,13.716],[-96.9413,20.2902,10.7979],[-96.9397,20.2931,7.1271],[-96.9408,20.2944,5.722],[-96.936,20.2977,5.8519],[-96.9287,20.2941,6.6808],[-96.9198,20.2975,8.0384],[-96.9054,20.2887,1.4786],[-96.8969,20.2764,0.567],[-96.8899,20.2739,0.773],[-96.888,20.2707,0.8139],[-96.8765,20.272,4.5458],[-96.8763,20.2761,4.597],[-96.8727,20.28,3.6333],[-96.8675,20.2772,2.8615],[-96.8605,20.28,0.8806],[-96.859,20.2794,0.8806],[-96.8589,20.2765,0.9937],[-96.856,20.2789,0.7219],[-96.8508,20.2672,1.002],[-96.8458,20.2615,0.9649],[-96.838,20.2581,0.4159],[-96.8335,20.2628,1.2529],[-96.8241,20.2484,0.2052],[-96.8196,20.2379,2.538],[-96.8146,20.243,2.1928],[-96.8122,20.2427,0.6414],[-96.8046,20.2466,1.4419],[-96.7988,20.2454,5.6508],[-96.7999,20.2476,1.0368],[-96.7967,20.2462,0.6935],[-96.7959,20.2484,3.1257],[-96.7981,20.2545,4.2933],[-96.7944,20.2488,2.0023],[-96.7903,20.2459,4.5665],[-96.7906,20.243,0.0],[-96.7855,20.24,0.0],[-96.7855,20.2422,0.0],[-96.7901,20.2483,1.8812],[-96.8537,20.3101,6.7956],[-96.931,20.389,0.0],[-96.9591,20.4211,3.0985],[-96.9844,20.4622,0.0],[-96.9915,20.469,0.1896],[-96.999,20.4727,0.0],[-97.0083,20.4688,0.0],[-97.0149,20.4702,0.1913],[-97.0192,20.4685,1.2819],[-97.0201,20.4667,2.6116],[-97.0168,20.4653,0.3005],[-97.0165,20.4638,0.3005],[-97.0292,20.4599,0.2214],[-97.0285,20.4559,0.9095],[-97.0305,20.4498,1.0979],[-97.023,20.4435,1.3811],[-97.0225,20.441,1.8841],[-97.0239,20.4374,2.1071],[-97.0276,20.4378,2.2807],[-97.0288,20.433,2.7439],[-97.0325,20.4331,2.0418],[-97.0346,20.4314,2.3637],[-97.0339,20.4293,2.6195],[-97.0276,20.4257,3.1456],[-97.0266,20.4233,2.9682],[-97.034,20.4245,2.5327],[-97.0352,20.4205,4.7502],[-97.0315,20.4187,3.7685],[-97.0313,20.4169,3.8668],[-97.0375,20.4169,4.1067],[-97.0361,20.4126,5.3018],[-97.0387,20.4114,4.958],[-97.0373,20.4099,9.842],[-97.0382,20.4087,5.3422],[-97.0477,20.4091,9.1896],[-97.0505,20.407,9.6379],[-97.0565,20.406,9.9896],[-97.0579,20.4071,15.9157],[-97.0633,20.4061,18.4724],[-97.066,20.4078,15.6813],[-97.0696,20.407,33.6233],[-97.0725,20.4088,25.0606],[-97.0738,20.4082,25.9139],[-97.0715,20.4047,38.7091],[-97.0737,20.4018,51.4099],[-97.0813,20.4013,60.9563],[-97.0802,20.3942,45.8349],[-97.0765,20.3932,43.7509],[-97.0797,20.3916,51.7403],[-97.0824,20.3923,51.5676],[-97.0837,20.3864,87.9986],[-97.0865,20.3872,72.3033],[-97.0961,20.3963,72.0127],[-97.1014,20.3958,75.3415],[-97.1037,20.3973,74.8614],[-97.1065,20.3949,83.0704],[-97.1061,20.3905,95.9733],[-97.1047,20.3898,109.6952],[-97.1062,20.3846,113.6203],[-97.1051,20.3809,90.1689],[-97.1078,20.3817,93.5758],[-97.1092,20.3786,155.3732],[-97.1114,20.3797,103.9522],[-97.1155,20.378,166.0883],[-97.1178,20.3786,118.87],[-97.1175,20.3752,153.6412],[-97.1196,20.3757,95.5916],[-97.1195,20.3778,114.7414],[-97.1223,20.3775,129.7915],[-97.1226,20.3752,67.5478],[-97.1282,20.3784,52.6896],[-97.129,20.3721,63.2255],[-97.132,20.3718,61.6889],[-97.1382,20.3747,45.6338],[-97.1379,20.3768,49.9392],[-97.1406,20.3758,46.8745]]],
[[[-97.017,20.4747,0.292],[-97.007,20.4741,0.8407],[-97.0018,20.4754,0.0],[-97.024,20.4933,3.8232],[-97.0575,20.5237,3.7218],[-97.0987,20.5636,2.2366],[-97.131,20.5992,0.0],[-97.1332,20.5955,1.3283],[-97.1309,20.5933,1.2812],[-97.1339,20.5936,3.0514],[-97.1348,20.590699999999998,2.5295],[-97.1365,20.5909,2.5295],[-97.1351,20.5979,1.6728],[-97.1436,20.5989,2.5529],[-97.1457,20.5953,3.7862],[-97.1484,20.5944,3.8229],[-97.1543,20.5964,8.395],[-97.1544,20.5984,4.3966],[-97.1577,20.5968,8.3279],[-97.1594,20.5925,9.7146],[-97.1581,20.5904,9.4086],[-97.1598,20.5868,7.9224],[-97.159,20.5856,15.5128],[-97.1679,20.5859,27.7507],[-97.1719,20.582,34.5324],[-97.1715,20.5797,21.8287],[-97.1803,20.5764,30.1632],[-97.1792,20.576,22.2497],[-97.1813,20.574,26.0141],[-97.179,20.5719,41.1468],[-97.1813,20.5703,49.1014],[-97.1818,20.5723,31.3881],[-97.1876,20.5724,54.6424],[-97.1926,20.5651,33.5629],[-97.1884,20.5574,69.1849],[-97.1851,20.557,59.6007],[-97.1833,20.5524,42.8018],[-97.1881,20.5479,41.2229],[-97.1872,20.5461,50.1489],[-97.1889,20.5436,40.2007],[-97.1967,20.5421,45.0387],[-97.1992,20.54,89.7732],[-97.2026,20.5406,58.7675],[-97.2046,20.5374,106.1806],[-97.2106,20.5386,62.2901],[-97.2136,20.5356,70.2465],[-97.2135,20.5317,86.2928],[-97.2155,20.5307,77.1385],[-97.2156,20.5274,77.6272],[-97.2027,20.5275,106.7343],[-97.1985,20.5265,128.2901],[-97.1986,20.5253,136.7036],[-97.1929,20.5223,80.3682],[-97.1915,20.525,105.1618],[-97.1819,20.5228,58.8971],[-97.1749,20.5164,44.0944],[-97.1754,20.5134,50.5944],[-97.1742,20.5133,50.5944],[-97.1751,20.5115,47.5404],[-97.1763,20.512,46.3538],[-97.1765,20.5097,49.7],[-97.1763,20.5078,55.2217],[-97.1742,20.507,50.3725],[-97.1749,20.5053,69.4238],[-97.1704,20.5065,55.3911],[-97.1682,20.5031,83.7828],[-97.165,20.5042,98.334],[-97.1638,20.5071,94.6759],[-97.1599,20.5072,84.8772],[-97.1563,20.5037,67.434],[-97.1472,20.5096,47.5919],[-97.1402,20.5096,41.2102],[-97.1343,20.5116,21.6262],[-97.1333,20.515,19.7892],[-97.1275,20.5215,17.3238],[-97.1268,20.5254,12.3998],[-97.1232,20.5257,9.027],[-97.121,20.5224,7.2795],[-97.1136,20.521,2.378],[-97.1107,20.5274,1.1265],[-97.1042,20.5307,3.8102],[-97.0639,20.4933,0.9412],[-97.0657,20.4899,2.8333],[-97.0707,20.4895,2.2377],[-97.0814,20.4828,2.5077],[-97.077,20.4823,5.547],[-97.0731,20.4796,4.8069],[-97.079,20.4746,4.9907],[-97.0778,20.474,4.9907],[-97.0739,20.4784,3.6244],[-97.0678,20.4811,2.3625],[-97.0629,20.4787,0.0],[-97.0623,20.4744,4.3773],[-97.053,20.4693,0.5872],[-97.0444,20.4693,0.502],[-97.031,20.4735,2.0641],[-97.017,20.4747,0.292]]]]}
,"properties": {"GID_2": "MEX.30.164_2","GID_0": "MEX","country": "México","GID_1": "MEX.30_1","province": "Veracruz","NL_NAME_1": "NA","county": "Tecolutla","VARNAME_2": "NA","NL_NAME_2": "NA","TYPE_2": "Município","ENGTYPE_2": "Municipality","CC_2": "NA","HASC_2": "NA","name": "Tecolutla.county","area_km2": 527.3463,"hist_schema_id": "Elevation0-9000","hist_area_km2": {"0": 228.054,"25": 138.5348,"50": 84.4923,"75": 42.1961,"100": 16.4969,"125": 11.8873,"150": 3.7567,"175": 1.0933,"200": 0.5565,"225": 0.2385,"250": 0.0398}}}