{"type":"Feature","properties":{"GID_2":"MEX.25.2_2","GID_0":"MEX","country":"México","GID_1":"MEX.25_1","province":"Sinaloa","NL_NAME_1":"NA","county":"Angostura","VARNAME_2":"NA","NL_NAME_2":"NA","TYPE_2":"Município","ENGTYPE_2":"Municipality","CC_2":"NA","HASC_2":"NA","name":"Angostura.county"},
"geometry":{"type": "MultiPolygon","coordinates": [[[[-108.0448,24.8683,0.8232],[-108.0447,24.8666,0.9089],[-108.0437,24.8649,0.0],[-108.0433,24.8662,0.9089],[-108.0448,24.8683,0.8232]]],
[[[-108.0415,24.8818,0.0],[-108.0418,24.8831,0.6108],[-108.0432,24.8831,0.9681],[-108.0421,24.8816,0.0],[-108.0415,24.8818,0.0]]],
[[[-108.0376,24.8957,0.785],[-108.0385,24.897,0.785],[-108.0393,24.8943,0.444],[-108.0369,24.8952,0.774],[-108.0376,24.8957,0.785]]],
[[[-108.0407,24.9083,0.0],[-108.041,24.9074,0.0],[-108.0407,24.9067,0.0],[-108.0399,24.9087,0.0],[-108.0407,24.9083,0.0]]],
[[[-108.0092,24.8476,1.9269],[-108.0058,24.8513,2.8696],[-108.0064,24.854,0.0],[-108.0164,24.8491,0.0],[-108.0146,24.8519,0.0],[-108.0168,24.8493,0.0],[-108.0154,24.8475,1.6307],[-108.0176,24.8474,0.0],[-108.017,24.8442,0.0],[-108.0131,24.8479,0.95009999999999994],[-108.0136,24.849,1.5799],[-108.0105,24.8478,1.7548],[-108.0102,24.8462,0.0],[-108.0092,24.8476,1.9269]]],
[[[-108.0211,24.9213,0.0],[-108.0207,24.9221,0.0],[-108.0224,24.9223,0.0],[-108.0223,24.9217,0.0],[-108.0211,24.9213,0.0]]],
[[[-108.0127,24.931,0.0],[-108.0127,24.932,0.0],[-108.0148,24.9313,0.0],[-108.0139,24.9308,0.0],[-108.0127,24.931,0.0]]],
[[[-108.0007,24.9463,0.0],[-108.0011,24.948,0.0],[-108.0032,24.9477,0.0],[-108.003,24.9472,0.0],[-108.0007,24.9463,0.0]]],
[[[-108.0365,24.9369,0.0],[-108.0374,24.9378,0.0],[-108.0355,24.9393,0.0],[-108.0394,24.9379,0.0],[-108.0387,24.9303,0.813],[-108.0383,24.9326,2.6187],[-108.0366,24.9319,0.0],[-108.0357,24.9341,0.0],[-108.037,24.9358,0.0],[-108.0363,24.9344,0.0],[-108.0381,24.9332,2.6187],[-108.0389,24.9369,0.0],[-108.0365,24.9369,0.0]]],
[[[-108.0426,24.9486,0.0],[-108.0437,24.9502,0.0],[-108.0461,24.9504,0.0],[-108.0431,24.9474,0.0],[-108.0426,24.9486,0.0]]],
[[[-108.0545,24.9563,0.0],[-108.0565,24.9602,0.0],[-108.0572,24.9577,0.0],[-108.0583,24.9581,0.0],[-108.0574,24.9572,0.0],[-108.0562,24.9573,0.0],[-108.0547,24.9539,0.0],[-108.0538,24.9559,0.0],[-108.0545,24.9563,0.0]]],
[[[-108.059,24.9647,0.0],[-108.0584,24.9626,0.0],[-108.0571,24.967,0.0],[-108.0585,24.9665,0.0],[-108.059,24.9647,0.0]]],
[[[-108.0033,24.9491,0.0],[-108.0046,24.9503,0.0],[-108.0057,24.9496,0.0],[-108.0033,24.9482,0.0],[-108.0033,24.9491,0.0]]],
[[[-108.0077,24.9525,0.0],[-108.0064,24.9526,0.0],[-108.0054,24.9518,0.0],[-108.0064,24.9532,0.0],[-108.0077,24.9525,0.0]]],
[[[-108.0082,24.9588,0.0],[-108.0042,24.9601,0.5855],[-108.0011,24.9662,0.0],[-108.0045,24.9611,0.0],[-108.0094,24.9591,0.0],[-108.0124,24.9607,0.0],[-108.0108,24.9587,0.0],[-108.0114,24.9539,0.0],[-108.0103,24.9581,0.0],[-108.0082,24.9588,0.0]]],
[[[-108.0275,24.9615,0.0],[-108.0289,24.9602,0.0],[-108.0244,24.9634,0.0],[-108.0261,24.9629,0.0],[-108.0275,24.9615,0.0]]],
[[[-108.0804,24.8204,0.7522],[-108.0833,24.8214,0.4817],[-108.0818,24.8242,0.0],[-108.0851,24.8227,0.5165],[-108.0844,24.8211,0.0],[-108.0778,24.8176,2.8375],[-108.0786,24.8134,0.0],[-108.0755,24.8089,0.0],[-108.0622,24.8027,0.0],[-108.058,24.8037,0.91],[-108.0622,24.8054,0.0],[-108.0633,24.8041,0.0],[-108.0748,24.8099,0.0],[-108.0763,24.8118,0.0],[-108.0758,24.8141,2.0807],[-108.0776,24.8137,0.0],[-108.0771,24.8168,2.1596],[-108.0645,24.8061,0.9751],[-108.0632,24.8079,0.9129],[-108.0632,24.8099,0.3257],[-108.0658,24.8089,1.9032],[-108.0728,24.8146,4.3298],[-108.0689,24.8141,0.7912],[-108.0691,24.8157,0.0],[-108.0713,24.8153,1.6853],[-108.0804,24.8204,0.7522]]],
[[[-108.0971,24.8526,2.891],[-108.0957,24.8597,0.0],[-108.0971,24.8666,2.5116],[-108.1001,24.8693,0.0],[-108.104,24.8636,1.2779],[-108.1013,24.8572,1.9152],[-108.0982,24.8559,2.2213],[-108.1001,24.8503,0.0],[-108.0967,24.8507,2.4841],[-108.096,24.8526,0.3434],[-108.0971,24.8526,2.891]]],
[[[-108.0864,25.0027,0.4241],[-108.0907,25.001,0.8349],[-108.0937,25.0019,1.691],[-108.1064,25.0158,0.0],[-108.1178,25.0202,2.6858],[-108.1214,25.0277,0.0],[-108.1293,25.0356,1.8285],[-108.1339,25.0483,9.074],[-108.1371,25.0503,6.1548],[-108.1411,25.0503,3.3973],[-108.1433,25.0482,3.4153],[-108.1446,25.0427,2.2112],[-108.1384,25.0299,5.4876],[-108.1319,25.0088,0.0],[-108.131,25.0004,4.894],[-108.1345,24.9806,1.1361],[-108.1335,24.9779,0.0],[-108.1349,24.9793,0.9938],[-108.1379,24.9786,0.0],[-108.1382,24.9703,0.0],[-108.1426,24.9703,0.7084],[-108.1516,24.9772,0.0],[-108.1549,24.9817,1.3578],[-108.1562,24.9773,0.0],[-108.1579,24.9763,2.9495],[-108.1555,24.9721,2.5567],[-108.1572,24.9679,1.8663],[-108.1561,24.964,0.4267],[-108.1511,24.9604,0.0],[-108.1458,24.9669,0.4814],[-108.1348,24.9623,0.0],[-108.1339,24.9606,0.0],[-108.1402,24.9612,1.4545],[-108.1454,24.9639,0.0],[-108.1466,24.9628,0.9126],[-108.139,24.9557,3.5311],[-108.1414,24.952,0.3628],[-108.1348,24.9489,2.4135],[-108.1316,24.9431,0.0],[-108.1334,24.9402,0.0],[-108.1313,24.937,0.8773],[-108.1236,24.9343,0.4616],[-108.1213,24.9308,2.5849],[-108.1206,24.9236,2.1747],[-108.1144,24.9101,0.3809],[-108.1127,24.9096,0.0],[-108.1106,24.9123,1.5388],[-108.1069,24.9121,2.3496],[-108.1085,24.9157,0.9769],[-108.1067,24.9207,2.5021],[-108.1086,24.922,2.5021],[-108.111,24.9324,0.0],[-108.1143,24.9324,2.2495],[-108.1154,24.9338,2.5648],[-108.116,24.9403,1.5045],[-108.1205,24.9401,1.7198],[-108.1213,24.9439,1.9845],[-108.1188,24.9447,0.2207],[-108.1206,24.945,0.0],[-108.1219,24.9475,0.3512],[-108.1204,24.9499,0.9756],[-108.1176,24.9452,0.2207],[-108.1202,24.943,0.423],[-108.1196,24.9402,1.7198],[-108.1171,24.9412,1.1327],[-108.1151,24.9404,1.5045],[-108.1143,24.9339,1.1686],[-108.1101,24.9337,1.4686],[-108.1055,24.9284,0.0],[-108.1019,24.9208,6.4836],[-108.103,24.9172,0.0],[-108.0993,24.9147,1.7478],[-108.0957,24.9037,5.3534],[-108.0959,24.9003,2.9246],[-108.0986,24.9012,0.0],[-108.0997,24.893,0.3745],[-108.0951,24.8832,0.4424],[-108.0932,24.8831,0.477],[-108.0927,24.8856,3.562],[-108.088,24.8798,8.738],[-108.0875,24.8759,3.6172],[-108.0922,24.8718,1.1884],[-108.091,24.8621,0.0],[-108.0888,24.8605,0.789],[-108.0871,24.8534,0.3893],[-108.0857,24.8536,0.0],[-108.0844,24.8577,2.5232],[-108.0798,24.8565,0.624],[-108.0756,24.8474,4.0788],[-108.0773,24.8441,0.6027],[-108.0762,24.8413,0.5996],[-108.0788,24.8408,0.0],[-108.0856,24.8428,0.4415],[-108.0861,24.8465,0.887],[-108.0878,24.8463,0.887],[-108.0903,24.8371,0.0],[-108.0767,24.8312,0.648],[-108.0703,24.8248,0.0],[-108.0672,24.826,1.4618],[-108.0544,24.8223,4.7526],[-108.0504,24.8234,0.0],[-108.0488,24.8263,0.0],[-108.0516,24.8293,9.8921],[-108.0515,24.8373,0.0],[-108.0543,24.8374,3.5203],[-108.0589,24.8465,2.6463],[-108.0582,24.8527,0.6918],[-108.0639,24.8578,4.8525],[-108.0641,24.8654,2.173],[-108.067,24.8702,0.7906],[-108.0663,24.8737,1.2639],[-108.0744,24.8893,1.2485],[-108.072,24.8935,2.019],[-108.069,24.8945,2.4625],[-108.0732,24.8999,0.8416],[-108.0774,24.902,0.6068],[-108.0798,24.9061,1.5431],[-108.0772,24.9101,0.1956],[-108.0815,24.9146,0.5411],[-108.0792,24.9154,0.0],[-108.0771,24.914,0.7386],[-108.0765,24.9162,0.6364],[-108.0805,24.921,1.144],[-108.0817,24.9306,0.9726],[-108.0796,24.9334,0.8724],[-108.0821,24.9345,1.9961],[-108.0811,24.9381,0.6545],[-108.0834,24.9401,0.2595],[-108.084,24.944,3.2819],[-108.0825,24.9466,0.3442],[-108.0844,24.9513,1.4626],[-108.0844,24.9573,0.0],[-108.0879,24.9586,0.0],[-108.0891,24.9633,1.0675],[-108.0879,24.9643,1.466],[-108.0928,24.9688,1.3981],[-108.093,24.9797,0.7421],[-108.0923,24.9694,1.3981],[-108.0831,24.959,3.0117],[-108.0838,24.9523,0.9298],[-108.081,24.9478,0.7358],[-108.0828,24.945,0.4336],[-108.0826,24.9408,0.1592],[-108.0801,24.9389,0.5975],[-108.0815,24.9346,0.5069],[-108.0794,24.9348,1.0611],[-108.0785,24.9328,0.8724],[-108.081,24.9305,0.9726],[-108.0797,24.9275,0.9793],[-108.0798,24.9221,0.5239],[-108.0757,24.9152,2.6893],[-108.0783,24.9128,0.0],[-108.0759,24.9086,1.0381],[-108.0792,24.9065,1.5431],[-108.0767,24.9028,1.2394],[-108.0684,24.8963,3.7722],[-108.0688,24.8928,3.3681],[-108.0724,24.8917,0.6039],[-108.0731,24.888,0.0],[-108.0687,24.8844,2.2713],[-108.0693,24.881,1.1809],[-108.0653,24.8751,2.7344],[-108.0647,24.8693,0.5029],[-108.0623,24.8656,0.0],[-108.063,24.861,0.0],[-108.0563,24.8566,0.2997],[-108.0525,24.8423,0.0],[-108.0494,24.8398,0.0],[-108.045,24.8408,2.6241],[-108.0423,24.8439,0.0],[-108.0422,24.8497,0.0],[-108.0457,24.864,4.0337],[-108.0445,24.8866,0.8715],[-108.0456,24.8944,2.0035],[-108.0407,24.9039,0.0],[-108.044,24.9058,1.8013],[-108.0422,24.9129,0.0],[-108.0396,24.9162,0.0],[-108.0413,24.9219,0.6052],[-108.0373,24.9254,1.3784],[-108.0371,24.9283,3.0995],[-108.0397,24.9298,0.4413],[-108.0432,24.9374,2.2834],[-108.0427,24.9395,0.0],[-108.0447,24.9386,2.2834],[-108.0463,24.9403,1.8662],[-108.0532,24.9493,1.7454],[-108.0525,24.9526,0.4798],[-108.0562,24.9542,0.4969],[-108.0603,24.9609,0.0],[-108.0614,24.9665,2.2777],[-108.0605,24.9752,0.0],[-108.0591,24.9783,0.8728],[-108.0573,24.9773,0.8728],[-108.0559,24.9806,0.0],[-108.0579,24.9819,0.4979],[-108.0567,24.9836,0.0],[-108.0586,24.9869,0.0],[-108.0575,24.9946,0.0],[-108.0621,25.0004,0.0],[-108.0645,25.0067,0.0],[-108.0714,25.0129,0.0],[-108.0788,25.0122,0.0],[-108.0834,25.0101,0.0],[-108.0864,25.0027,0.4241]]],
[[[-108.1383,24.9443,1.9287],[-108.1344,24.9407,1.3712],[-108.1352,24.9474,0.0],[-108.1394,24.9477,1.2287],[-108.1383,24.9443,1.9287]]],
[[[-108.1465,24.9489,1.5996],[-108.1426,24.9466,0.0],[-108.1437,24.9508,1.8889],[-108.149,24.9561,0.0],[-108.149,24.9525,0.2967],[-108.1465,24.9489,1.5996]]],
[[[-108.323,25.1231,0.1188],[-108.3241,25.1247,0.2306],[-108.3304,25.1252,1.251],[-108.3341,25.1231,0.9893],[-108.3364,25.1114,0.0],[-108.3325,25.1057,0.9741],[-108.2869,25.0771,1.8136],[-108.2573,25.0521,1.3952],[-108.2325,25.0265,1.2341],[-108.2142,25.0004,0.4329],[-108.2052,24.9834,1.8123],[-108.18,24.9449,2.0255],[-108.1362,24.8721,2.6627],[-108.1258,24.8488,0.0],[-108.123,24.8334,0.0],[-108.1112,24.8226,0.0],[-108.089,24.8134,0.0],[-108.0881,24.8149,0.0],[-108.0913,24.8248,0.0],[-108.0914,24.8219,2.7278],[-108.0954,24.8206,0.5338],[-108.0999,24.8207,0.8616],[-108.1025,24.8224,1.3816],[-108.0934,24.8243,0.4606],[-108.0932,24.8279,0.0],[-108.0955,24.8258,1.5185],[-108.0971,24.8263,2.9418],[-108.098,24.8239,1.4783],[-108.0974,24.8278,1.2957],[-108.1051,24.8298,2.5782],[-108.1107,24.8285,3.0322],[-108.112,24.8295,1.9096],[-108.1055,24.8307,2.4367],[-108.0998,24.8292,1.3586],[-108.0963,24.8306,0.0],[-108.0979,24.8332,1.2851],[-108.1004,24.8323,0.0],[-108.1039,24.8377,0.0],[-108.1023,24.841,0.0],[-108.1076,24.8605,5.7597],[-108.1068,24.8658,4.0995],[-108.1031,24.8725,1.4855],[-108.1042,24.8798,0.0],[-108.1024,24.8823,0.0],[-108.1087,24.8889,0.601],[-108.1081,24.8899,0.0],[-108.1133,24.8893,3.0671],[-108.1116,24.8898,0.664],[-108.112,24.892,0.4192],[-108.1168,24.9002,1.933],[-108.127,24.9103,1.803],[-108.1328,24.9262,1.2391],[-108.145,24.9374,0.0],[-108.1504,24.9398,5.1024],[-108.1613,24.9557,0.3799],[-108.1735,24.9653,5.2185],[-108.175,24.9691,1.7079],[-108.1802,24.9734,1.6158],[-108.1816,24.9841,0.018],[-108.1873,24.9853,4.4775],[-108.1927,24.994,0.0],[-108.1992,24.9998,0.2161],[-108.2028,25.0067,2.769],[-108.2018,25.0082,2.649],[-108.2143,25.0188,0.9599],[-108.2186,25.0261,1.984],[-108.2219,25.0271,8.3278],[-108.2187,25.0274,0.0],[-108.2182,25.0292,0.0],[-108.2233,25.0287,8.3278],[-108.2234,25.0309,2.6662],[-108.2181,25.0344,0.0],[-108.2225,25.0352,0.0],[-108.2246,25.0329,2.33],[-108.2269,25.038,0.0],[-108.2312,25.0342,4.5758],[-108.2294,25.0401,2.563],[-108.2374,25.0489,4.2087],[-108.2352,25.0518,0.0],[-108.2358,25.0548,0.0],[-108.2408,25.0539,0.7943],[-108.2544,25.0601,4.4592],[-108.2525,25.0615,0.0535],[-108.2524,25.0641,0.0],[-108.2585,25.0659,2.2151],[-108.2616,25.0691,3.3307],[-108.2655,25.0739,5.6459],[-108.2621,25.0756,0.0],[-108.2631,25.0782,1.2285],[-108.2694,25.0786,7.6073],[-108.268,25.0818,2.3306],[-108.2757,25.0911,3.4631],[-108.2821,25.093,2.3339],[-108.2841,25.0961,2.0613],[-108.2875,25.0978,0.0],[-108.2911,25.0975,1.6899],[-108.2979,25.1046,0.0],[-108.301,25.1029,1.5819],[-108.3023,25.1054,1.5359],[-108.3095,25.1086,1.0258],[-108.3096,25.1099,0.7796],[-108.3201,25.1081,0.9633],[-108.3129,25.1117,0.0],[-108.3215,25.1111,0.9408],[-108.3215,25.1154,1.0983],[-108.3172,25.1226,0.0],[-108.3176,25.1244,0.0],[-108.3311,25.114,1.2813],[-108.3319,25.1184,0.3741],[-108.3272,25.1233,1.03],[-108.323,25.1231,0.1188]]],
[[[-108.1696,24.9765,0.0],[-108.1691,24.9722,1.0344],[-108.1651,24.9698,0.0],[-108.1627,24.9704,0.0],[-108.1646,24.9785,1.7397],[-108.1665,24.9789,0.0],[-108.1696,24.9765,0.0]]],
[[[-108.1956,25.0169,0.0],[-108.1952,25.0132,0.0],[-108.1851,25.001,0.8562],[-108.192,25.0136,1.1928],[-108.1956,25.0169,0.0]]],
[[[-108.2138,25.0497,0.0852],[-108.2141,25.0506,0.0],[-108.2148,25.049,0.0852],[-108.2142,25.0491,0.0852],[-108.2138,25.0497,0.0852]]],
[[[-108.0675,25.0727,0.0],[-108.0614,25.0727,0.0],[-108.0598,25.0739,0.0],[-108.062,25.075,0.0],[-108.0675,25.0727,0.0]]],
[[[-108.2229,25.0765,0.0],[-108.2208,25.0727,0.0],[-108.2189,25.0736,1.2776],[-108.2211,25.0771,0.0],[-108.2229,25.0765,0.0]]],
[[[-108.1444,25.0948,0.0],[-108.1437,25.0958,0.0],[-108.144,25.0964,0.0],[-108.1456,25.0938,0.0],[-108.1444,25.0948,0.0]]],
[[[-108.2292,25.0745,0.7422],[-108.2278,25.0742,0.0],[-108.2276,25.076,2.0552],[-108.2254,25.0772,0.0],[-108.2353,25.0831,0.6305],[-108.2361,25.0871,0.0],[-108.2379,25.0833,0.0],[-108.2292,25.0745,0.7422]]],
[[[-108.2306,25.0856,0.0],[-108.2321,25.0854,2.2414],[-108.2322,25.0844,0.0],[-108.2302,25.0839,2.2414],[-108.2306,25.0856,0.0]]],
[[[-108.2492,25.0908,0.6485],[-108.2435,25.0881,0.0],[-108.2511,25.0991,0.0],[-108.2528,25.0972,0.6578],[-108.2526,25.0935,2.6854],[-108.2492,25.0908,0.6485]]],
[[[-108.307,25.1098,0.0],[-108.2956,25.1084,0.0],[-108.2926,25.1102,0.0],[-108.2926,25.1124,1.071],[-108.294,25.1138,0.0],[-108.3047,25.1136,0.0],[-108.307,25.1098,0.0]]],
[[[-108.0544,24.968,0.0],[-108.0547,24.9673,0.0],[-108.0546,24.9669,0.0],[-108.0538,24.9678,0.0],[-108.0544,24.968,0.0]]],
[[[-108.0513,24.971,0.0],[-108.051,24.9705,0.0],[-108.0505,24.9706,0.0],[-108.0517,24.9715,0.0],[-108.0513,24.971,0.0]]],
[[[-108.0354,24.9768,0.0],[-108.0347,24.9766,0.0],[-108.0333,24.9782,0.0],[-108.037,24.9778,0.0],[-108.0354,24.9768,0.0]]],
[[[-108.0288,24.9812,0.0],[-108.0299,24.9823,0.0],[-108.0308,24.9824,0.0],[-108.0284,24.9802,0.0],[-108.0288,24.9812,0.0]]],
[[[-108.0187,24.9726,0.0],[-108.0173,24.9705,0.0],[-108.0186,24.9734,0.0],[-108.0216,24.9761,0.0],[-108.0201,24.973,0.0],[-108.0187,24.9726,0.0]]],
[[[-108.0033,24.973,0.0],[-108.0036,24.9713,0.0],[-108.0017,24.976,1.0891],[-108.0029,24.9748,0.0],[-108.0033,24.973,0.0]]],
[[[-108.0234,24.9777,0.0],[-108.0223,24.9766,0.0],[-108.0217,24.9766,0.0],[-108.0229,24.9781,0.0],[-108.0234,24.9777,0.0]]],
[[[-108.0266,24.9795,0.0],[-108.0266,24.9789,0.0],[-108.025,24.9793,0.0],[-108.0256,24.9801,0.0],[-108.0266,24.9795,0.0]]],
[[[-108.0315,24.9816,0.0],[-108.033,24.9822,0.0],[-108.0335,24.9813,0.0],[-108.0317,24.9809,0.0],[-108.0315,24.9816,0.0]]],
[[[-108.0358,24.9833,0.0],[-108.0352,24.9828,0.0],[-108.0344,24.9834,0.0],[-108.0355,24.9838,0.0],[-108.0358,24.9833,0.0]]],
[[[-108.0616,25.0694,0.0],[-108.0653,25.0647,0.0],[-108.0603,25.0688,0.0],[-108.0607,25.0702,0.0],[-108.0616,25.0694,0.0]]],
[[[-108.2334,25.1321,1.3977],[-108.2316,25.1343,0.4099],[-108.2339,25.1402,0.0],[-108.2356,25.1423,0.0],[-108.2403,25.1424,0.4504],[-108.239,25.1369,0.1158],[-108.2354,25.1321,2.3272],[-108.2334,25.1321,1.3977]]],
[[[-108.3734,25.1491,0.0],[-108.3704,25.1467,0.0],[-108.3682,25.1469,0.0],[-108.3706,25.1479,0.0],[-108.3744,25.1521,0.0],[-108.3734,25.1491,0.0]]],
[[[-108.2389,25.1484,0.0],[-108.2405,25.1521,0.0],[-108.241,25.153199999999998,0.0],[-108.2403,25.1476,0.0],[-108.2389,25.1484,0.0]]],
[[[-108.2426,25.1577,0.0],[-108.2431,25.1552,0.0],[-108.2398,25.1534,0.0],[-108.2384,25.1554,0.0],[-108.2426,25.1577,0.0]]],
[[[-108.2494,25.1588,0.0],[-108.2504,25.1596,0.0],[-108.2534,25.1543,0.0],[-108.2507,25.1552,0.6089],[-108.2494,25.1588,0.0]]],
[[[-108.3675,25.1598,0.0],[-108.3626,25.1663,0.1216],[-108.3634,25.1687,0.1751],[-108.372,25.1572,0.1399],[-108.3736,25.153199999999998,0.4327],[-108.3718,25.1494,0.0],[-108.3615,25.153,0.0],[-108.3594,25.1546,0.0],[-108.3588,25.1552,0.0],[-108.357,25.1583,0.0],[-108.3601,25.1568,0.044],[-108.3598,25.1544,0.5913],[-108.3681,25.1563,0.7212],[-108.3689,25.1552,0.7608],[-108.3693,25.1598,0.4982],[-108.367,25.1615,0.1269],[-108.3675,25.1598,0.0]]],
[[[-108.2482,25.1761,2.0293],[-108.2488,25.1746,1.2184],[-108.253,25.1758,0.0],[-108.257,25.1745,0.8684],[-108.2646,25.1773,0.0],[-108.2715,25.1833,0.0],[-108.273,25.1793,0.0],[-108.27,25.1698,1.892],[-108.2733,25.1635,0.0],[-108.2704,25.1603,2.2785],[-108.271,25.1574,0.747],[-108.2572,25.1537,0.1666],[-108.2532,25.1559,0.0],[-108.2522,25.1667,0.0],[-108.2462,25.1687,0.0],[-108.2459,25.1707,1.8254],[-108.2426,25.1724,1.9761],[-108.2413,25.1765,1.2629],[-108.2432,25.179,0.6539],[-108.2452,25.179,0.0],[-108.2482,25.1761,2.0293]]],
[[[-108.331,25.1965,2.8961],[-108.3397,25.1966,2.666],[-108.3524,25.2083,1.3054],[-108.3564,25.2086,1.7249],[-108.3576,25.2073,1.7249],[-108.3588,25.1981,1.5309],[-108.3578,25.1955,1.3612],[-108.3525,25.196,1.5676],[-108.3404,25.1866,2.2088],[-108.3367,25.1821,2.2475],[-108.3349,25.1764,1.3028],[-108.3319,25.1752,2.3778],[-108.3324,25.1708,2.256],[-108.3351,25.169,4.6294],[-108.3422,25.1731,3.8392],[-108.3476,25.182,1.843],[-108.3519,25.1812,3.4343],[-108.3541,25.1826,3.7733],[-108.3555,25.1865,0.4432],[-108.3533,25.1907,0.0],[-108.3564,25.1904,1.4903],[-108.3631,25.1932,2.4323],[-108.3659,25.1911,0.6768],[-108.3681,25.1944,0.0],[-108.3702,25.1947,0.0],[-108.3571,25.1731,1.7768],[-108.3563,25.1667,0.0],[-108.3339,25.1649,0.0],[-108.31,25.1576,1.7496],[-108.2749,25.1433,0.0],[-108.2703,25.1448,0.0],[-108.2696,25.1479,0.6235],[-108.2738,25.1528,1.9698],[-108.2805,25.1549,1.4957],[-108.2783,25.1564,0.0],[-108.2786,25.1606,0.0],[-108.2835,25.1641,0.0],[-108.2939,25.1635,1.3993],[-108.2969,25.1619,0.7402],[-108.2929,25.1598,1.84],[-108.2927,25.1571,1.6041],[-108.2863,25.1544,3.6908],[-108.2964,25.1572,0.0],[-108.2977,25.1601,0.0],[-108.3006,25.1613,0.8201],[-108.3043,25.1603,2.056],[-108.3018,25.162,0.8201],[-108.3011,25.1655,0.532],[-108.3155,25.1767,3.72],[-108.3182,25.1804,2.4894],[-108.3167,25.1858,1.1195],[-108.3082,25.1836,0.0],[-108.3076,25.1872,0.4739],[-108.3095,25.1902,1.4285],[-108.3113,25.1911,1.1347],[-108.3154,25.1886,2.0908],[-108.331,25.1965,2.8961]]],
[[[-108.3442,25.185,0.0],[-108.3443,25.1865,0.9614],[-108.3501,25.189,0.0],[-108.3524,25.1863,0.0],[-108.3504,25.1834,0.0],[-108.3485,25.1852,0.0],[-108.3459,25.184,0.6778],[-108.3442,25.185,0.0]]],
[[[-108.2581,25.1902,0.0],[-108.2594,25.1906,0.0],[-108.2606,25.1872,0.0],[-108.2581,25.1884,0.0],[-108.2581,25.1902,0.0]]],
[[[-108.3541,25.1944,0.0],[-108.3563,25.1937,0.8209],[-108.3561,25.1927,0.8209],[-108.3528,25.1932,0.3981],[-108.3541,25.1944,0.0]]],
[[[-108.1341,25.0974,1.0494],[-108.1281,25.0974,0.3378],[-108.1273,25.0991,0.3136],[-108.1373,25.0983,1.5284],[-108.137,25.0969,0.0],[-108.1341,25.0974,1.0494]]],
[[[-108.1396,25.0979,0.0],[-108.1397,25.0995,0.0],[-108.1416,25.0972,0.0],[-108.1402,25.0975,0.0],[-108.1396,25.0979,0.0]]],
[[[-107.9679,25.1561,49.635],[-107.971,25.1636,54.2423],[-107.9688,25.1647,53.638],[-107.972,25.1771,55.0485],[-107.9695,25.1808,54.8353],[-107.9771,25.1923,51.9215],[-107.9884,25.2213,53.4492],[-107.993,25.223,52.3139],[-107.9954,25.2221,52.7277],[-107.9958,25.2202,56.5747],[-108.0151,25.2201,66.7052],[-108.0332,25.2326,39.0985],[-108.0325,25.234,40.1341],[-108.0352,25.2365,39.2487],[-108.0381,25.236,38.6612],[-108.0381,25.2389,52.025],[-108.0312,25.2415,48.0919],[-108.0259,25.2411,55.5838],[-108.0203,25.2448,51.2919],[-108.0192,25.2475,45.711],[-108.0007,25.2534,52.5426],[-108.0044,25.2629,55.0993],[-108.034,25.3006,48.9929],[-108.0311,25.3038,51.4189],[-108.0331,25.307,51.4783],[-108.0345,25.3242,50.8389],[-108.0424,25.3301,50.2383],[-108.0432,25.3415,50.332],[-108.0454,25.3413,51.7482],[-108.0427,25.353,56.3486],[-108.0405,25.3549,57.5352],[-108.041,25.3625,63.9635],[-108.0292,25.3595,74.22],[-108.0282,25.3611,75.2331],[-108.0263,25.3692,96.6999],[-108.0375,25.3683,68.0494],[-108.0333,25.3751,75.4189],[-108.0334,25.3795,79.1257],[-108.0304,25.3817,84.0267],[-108.0286,25.3812,84.0267],[-108.0278,25.3829,94.5943],[-108.0305,25.3849,94.4497],[-108.036,25.3853,87.0818],[-108.0309,25.3888,86.3817],[-108.0367,25.3944,75.3294],[-108.0427,25.3945,73.7055],[-108.0509,25.391,65.2045],[-108.0972,25.4224,52.4112],[-108.0879,25.4277,60.0973],[-108.0885,25.4293,58.1659],[-108.0831,25.4309,59.3382],[-108.0862,25.4358,51.5846],[-108.0876,25.4344,53.3219],[-108.0886,25.4352,56.5326],[-108.0882,25.4396,53.2615],[-108.0903,25.441,55.8669],[-108.0907,25.4375,58.1304],[-108.0918,25.438,58.1304],[-108.0944,25.4344,56.2024],[-108.0971,25.4339,49.705],[-108.0971,25.4381,52.4014],[-108.1007,25.4383,46.9422],[-108.1018,25.4401,48.8019],[-108.0996,25.4409,47.3497],[-108.1,25.4396,51.6673],[-108.0971,25.4393,52.9199],[-108.0949,25.444,42.3152],[-108.1028,25.4505,41.2815],[-108.1175,25.4415,36.7195],[-108.1167,25.4367,36.817],[-108.1197,25.436,37.5313],[-108.1213,25.4334,37.7767],[-108.1281,25.4328,36.5096],[-108.1389,25.4285,34.464],[-108.1439,25.4107,32.3275],[-108.1555,25.4018,29.9136],[-108.162,25.4011,29.27],[-108.1606,25.3998,29.1614],[-108.1617,25.3945,28.7314],[-108.1698,25.3982,28.2311],[-108.1776,25.4042,29.4181],[-108.1666,25.4058,30.1448],[-108.169,25.4179,32.1864],[-108.1847,25.4092,29.9058],[-108.1859,25.4118,29.654],[-108.183,25.4253,30.5314],[-108.1895,25.4264,29.6581],[-108.1948,25.4254,28.6968],[-108.1866,25.4081,29.4335],[-108.2335,25.3796,18.513],[-108.2311,25.3777,18.6994],[-108.2326,25.3764,18.5838],[-108.2326,25.3698,17.7871],[-108.2367,25.3696,16.6679],[-108.2595,25.3614,13.1763],[-108.2637,25.3725,9.7733],[-108.2724,25.3714,8.2248],[-108.2745,25.3596,11.5813],[-108.2935,25.3592,7.8208],[-108.2935,25.3537,7.7187],[-108.2917,25.3522,7.9227],[-108.2935,25.353,7.7187],[-108.2928,25.3486,7.8794],[-108.2996,25.3519,6.9472],[-108.2935,25.3803,10.3107],[-108.2966,25.3809,9.8016],[-108.2988,25.371,7.3648],[-108.3071,25.3737,6.6288],[-108.307,25.3665,3.0523],[-108.3145,25.3666,1.9847],[-108.3145,25.3696,2.1142],[-108.32,25.368,2.4555],[-108.3189,25.37,1.919],[-108.3207,25.3707,1.0],[-108.3242,25.367,1.9731],[-108.3377,25.362,1.8517],[-108.3398,25.363,1.519],[-108.3408,25.3674,1.0],[-108.3442,25.3689,3.1194],[-108.346,25.3628,3.0998],[-108.352,25.3575,3.2847],[-108.36,25.3567,2.4604],[-108.3625,25.3584,2.1861],[-108.3679,25.3565,2.3639],[-108.3632,25.3451,1.582],[-108.3666,25.3379,1.0224],[-108.365,25.3363,0.8884],[-108.3729,25.3328,1.1641],[-108.3739,25.3168,2.171],[-108.3724,25.3129,2.0061],[-108.3704,25.3124,2.1289],[-108.3774,25.3079,0.8032],[-108.3789,25.297,4.9834],[-108.3734,25.2915,2.226],[-108.3726,25.2862,2.176],[-108.3698,25.2823,2.779],[-108.3673,25.2827,3.1819],[-108.366,25.2855,2.9443],[-108.3609,25.2855,2.0113],[-108.3602,25.2888,3.6373],[-108.3558,25.2824,0.5563],[-108.3567,25.2669,3.7528],[-108.3626,25.2613,0.4565],[-108.3633,25.2554,0.0],[-108.3587,25.2535,0.0],[-108.3515,25.254,0.553],[-108.3411,25.25,1.1132],[-108.3396,25.2471,0.5248],[-108.3356,25.2455,0.6795],[-108.3327,25.248,0.6839],[-108.3216,25.2481,1.4063],[-108.3145,25.2426,0.6913],[-108.3143,25.2333,0.788],[-108.3168,25.2297,0.0],[-108.3138,25.2253,0.7254],[-108.3155,25.2137,1.7804],[-108.3238,25.2103,2.2762],[-108.3336,25.2147,0.0],[-108.3296,25.212,0.2369],[-108.324,25.2043,1.2834],[-108.3198,25.2061,1.4355],[-108.316,25.2044,0.4037],[-108.3179,25.2028,0.9302],[-108.3181,25.1935,0.0],[-108.3125,25.2008,2.2904],[-108.3069,25.2026,0.8156],[-108.3001,25.1971,0.921],[-108.2956,25.1898,2.0422],[-108.295,25.1847,1.6521],[-108.2907,25.1798,0.3993],[-108.284,25.1785,0.0],[-108.2831,25.1814,1.1244],[-108.2853,25.1877,0.0],[-108.2911,25.1913,2.4336],[-108.2916,25.1952,0.839],[-108.2954,25.195,1.4999],[-108.2982,25.1982,2.6277],[-108.2954,25.1969,0.0],[-108.294,25.2041,2.4813],[-108.2899,25.2079,2.3576],[-108.2887,25.208,2.2494],[-108.2852,25.2012,0.6842],[-108.274,25.205,1.5564],[-108.2653,25.1999,0.0],[-108.255,25.201,1.455],[-108.2538,25.1982,0.5989],[-108.2513,25.1982,1.8177],[-108.2471,25.1826,0.5249],[-108.244,25.1806,2.4918],[-108.2401,25.1829,1.673],[-108.2342,25.1817,0.2836],[-108.2355,25.1787,1.0108],[-108.2387,25.178,0.6172],[-108.2396,25.1716,1.1896],[-108.2379,25.1675,1.1503],[-108.2352,25.1661,0.7293],[-108.2338,25.1674,1.6157],[-108.2199,25.1677,1.117],[-108.2184,25.1702,1.6242],[-108.2164,25.168,1.3822],[-108.2168,25.1658,2.4071],[-108.2226,25.1633,0.0],[-108.2229,25.1615,0.0],[-108.1627,25.1069,0.0],[-108.1413,25.1009,3.0104],[-108.1304,25.1007,0.8564],[-108.1273,25.1083,0.0],[-108.1333,25.1198,0.0],[-108.1323,25.1203,0.0],[-108.111,25.1105,0.583],[-108.1043,25.1117,2.1543],[-108.1,25.1082,1.0135],[-108.0827,25.0863,2.3293],[-108.0671,25.0837,0.9938],[-108.0523,25.0736,2.3158],[-108.0472,25.0654,0.4181],[-108.0441,25.048,0.0],[-108.0444,25.0242,0.0],[-108.0461,25.0195,0.0],[-108.0441,25.0111,0.0],[-108.0456,25.0032,0.0],[-108.0438,24.9994,0.0],[-108.0407,25.0,1.2501],[-108.0381,24.9912,0.0],[-108.0327,24.987,0.0],[-108.0142,24.9789,0.0],[-108.0049,24.973,0.0],[-108.0026,24.9764,1.0891],[-108.0006,24.9758,1.2245],[-107.9968,24.9734,1.6224],[-107.9958,24.9684,0.5663],[-107.9968,24.9653,1.0266],[-107.9926,24.9648,0.8956],[-107.9974,24.9619,0.5178],[-107.9934,24.9572,1.6137],[-107.9962,24.9486,1.3988],[-107.9885,24.9673,0.746],[-107.9816,24.9703,-0.5],[-107.9802,24.9754,-0.5],[-107.9732,24.9782,-0.5],[-107.9712,24.9745,0.2939],[-107.9741,24.9739,-0.0885],[-107.9755,24.9698,-0.5],[-107.9695,24.9718,-0.5],[-107.9637,24.9684,0.2757],[-107.9678,24.9765,0.4796],[-107.9243,24.9783,4.1229],[-107.9201,24.9701,3.4916],[-107.9152,24.9692,3.3803],[-107.9137,24.98,5.1403],[-107.9095,24.9789,3.9822],[-107.8951,25.0316,23.1321],[-107.8956,25.035,26.3957],[-107.9078,25.0502,21.6367],[-107.9068,25.0548,25.133],[-107.9079,25.0559,24.4635],[-107.9098,25.0547,24.9333],[-107.9099,25.0631,28.012],[-107.9197,25.0631,23.932],[-107.9197,25.0599,23.1056],[-107.929,25.0663,21.6427],[-107.9264,25.0686,22.3592],[-107.9261,25.0784,24.9155],[-107.9297,25.0758,23.6067],[-107.9314,25.0702,22.1317],[-107.9337,25.0775,23.2379],[-107.9378,25.0766,22.0466],[-107.9372,25.0703,20.5626],[-107.9396,25.0703,19.3265],[-107.9396,25.0685,19.0473],[-107.9455,25.0685,17.8287],[-107.9456,25.0865,21.7365],[-107.9435,25.0865,22.2918],[-107.9436,25.091,28.1541],[-107.9396,25.0911,25.334],[-107.9397,25.1146,29.1296],[-107.9497,25.1145,27.0498],[-107.9497,25.1225,33.3303],[-107.9515,25.1226,32.7981],[-107.9515,25.1181,28.9284],[-107.9554,25.1181,28.2544],[-107.9573,25.1271,35.3415],[-107.9594,25.1273,34.9405],[-107.9594,25.1318,37.2023],[-107.9955,25.1317,24.8759],[-107.9955,25.1341,27.3719],[-107.9991,25.134,26.6262],[-107.9895,25.1499,34.4449],[-107.986,25.1499,37.5539],[-107.9856,25.1583,37.954],[-107.97,25.1543,47.2228],[-107.9679,25.1561,49.635]]]]}}