{"type":"Feature","properties":{"GID_2":"MEX.5.15_2","GID_0":"MEX","country":"México","GID_1":"MEX.5_1","province":"Chiapas","NL_NAME_1":"NA","county":"Bochil","VARNAME_2":"NA","NL_NAME_2":"NA","TYPE_2":"Município","ENGTYPE_2":"Municipality","CC_2":"NA","HASC_2":"NA","name":"Bochil.county"},
"geometry":{"type": "MultiPolygon","coordinates": [[[[-92.9652,17.1209,1395.0544],[-92.9746,17.1077,1751.6926],[-92.9765,17.1078,1829.4678],[-92.9804,17.1092,1795.8339],[-92.9816,17.1142,1965.959],[-92.9983,17.1287,1988.8054],[-93.005,17.1284,1520.479],[-93.007,17.13,1421.7236],[-93.0147,17.1308,1199.8882],[-93.0357,17.1252,968.2867],[-93.0311,17.1275,853.5632],[-93.0322,17.1338,898.235],[-93.0336,17.1342,898.235],[-93.0347,17.1318,1014.2014],[-93.0354,17.1342,957.1317],[-93.0373,17.1329,1071.1855],[-93.0437,17.1396,1238.9299],[-93.0432,17.1412,1231.1929],[-93.0483,17.1413,1347.1357],[-93.0508,17.1364,1443.3938],[-93.0369,17.1154,1237.4629],[-93.0453,17.1171,1373.5365],[-93.0463,17.1153,1399.7545],[-93.046,17.1093,1344.7999],[-93.0501,17.1016,1294.0164],[-93.0462,17.0912,918.7503],[-93.0704,17.0811,1032.7753],[-93.0665,17.0739,826.8669],[-93.0669,17.0686,504.6731],[-93.0707,17.0688,802.7347],[-93.0903,17.0578,441.8866],[-93.0929,17.0578,423.1113],[-93.0941,17.0558,429.0872],[-93.0821,17.0417,524.9238],[-93.0678,17.0393,959.0709],[-93.0659,17.006,912.9892],[-93.0648,17.0065,912.9892],[-93.0642,17.0025,894.9423],[-93.0694,17.0005,836.149],[-93.059,16.9948,897.0512],[-93.0598,16.9926,928.7452],[-93.0585,16.9924,928.7452],[-93.0574,16.9814,493.636],[-93.0552,16.978,425.9651],[-93.0309,16.9693,455.4474],[-93.0088,16.9701,1316.2831],[-92.9902,16.9645,1436.4535],[-92.9591,16.9528,1554.2461],[-92.9441,16.9428,1642.908],[-92.9544,16.929,1677.1003],[-92.9475,16.9289,1580.2784],[-92.9434,16.9234,1485.295],[-92.9423,16.9171,1406.9639],[-92.9391,16.9133,1378.4764],[-92.94,16.908,1354.6798],[-92.9387,16.9071,1380.5983],[-92.9331,16.9069,1354.2946],[-92.9322,16.9098,1425.0778],[-92.9282,16.9053,1433.469],[-92.9237,16.9042,1502.8893],[-92.9209,16.9048,1502.1921],[-92.9208,16.9073,1550.7257],[-92.9188,16.908,1536.7823],[-92.9161,16.904,1538.5237],[-92.9095,16.9073,1608.2792],[-92.9009,16.906,1738.5627],[-92.8675,16.9169,1917.8955],[-92.8592,16.9263,1867.6064],[-92.8479,16.9341,1881.6108],[-92.845,16.9469,2042.2197],[-92.8378,16.9613,1882.5393],[-92.8446,16.9699,1687.9336],[-92.8497,16.9704,1598.7581],[-92.8494,16.9742,1585.5499],[-92.8446,16.9787,1534.781],[-92.8454,16.9834,1713.5892],[-92.8389,16.9848,1596.2939],[-92.8374,16.9923,1563.8813],[-92.8252,16.9983,1449.6104],[-92.8189,16.9981,1368.844],[-92.8139,17.0071,1528.9008],[-92.8194,17.0077,1544.7036],[-92.8192,17.0146,1475.7151],[-92.8296,17.0067,1664.494],[-92.8348,17.0157,1744.5435],[-92.8394,17.0143,1712.0758],[-92.841,17.0176,1721.6943],[-92.8528,17.0141,1818.5216],[-92.8578,17.0209,1959.0957],[-92.8521,17.0246,1775.2783],[-92.8623,17.0294,1892.9867],[-92.8559,17.0493,1683.6555],[-92.8642,17.0566,1652.015],[-92.8766,17.0379,1852.8994],[-92.8803,17.04,1953.6523],[-92.9022,17.0333,1443.5995],[-92.9036,17.0267,1552.5222],[-92.9108,17.029,1591.6128],[-92.909,17.0352,1389.2333],[-92.9256,17.0444,1245.3271],[-92.9323,17.0551,958.5972],[-92.9283,17.0596,1293.9258],[-92.9308,17.0614,1220.7963],[-92.93,17.0791,1075.7223],[-92.9276,17.0917,1115.2852],[-92.9296,17.1,1068.9001],[-92.9372,17.0958,1091.4512],[-92.9377,17.0898,1129.6561],[-92.9428,17.086,951.1359],[-92.9409,17.0858,1056.8833],[-92.9404,17.0834,995.8938],[-92.943,17.082,876.1271],[-92.9427,17.0789,886.4349],[-92.9449,17.0804,1081.1006],[-92.9475,17.0777,1222.6226],[-92.9505,17.0642,1117.2351],[-92.9539,17.0585,1061.5466],[-92.9412,17.0426,1524.9136],[-92.9517,17.0439,1542.4354],[-92.9633,17.0492,1201.4934],[-92.9872,17.0557,906.2753],[-92.988,17.0586,753.0057],[-92.9937,17.0592,647.421],[-92.9945,17.0608,669.2153],[-92.9894,17.0631,838.0774],[-92.9883,17.079,1806.1439],[-92.9778,17.0832,1387.0453],[-92.9652,17.0857,1806.8787],[-92.969,17.0923,1830.192],[-92.9659,17.0938,1794.1555],[-92.9631,17.103,1473.637],[-92.9518,17.1048,1331.7263],[-92.9412,17.1158,1099.4662],[-92.9479,17.1212,1145.5125],[-92.9557,17.1244,1110.2456],[-92.9553,17.1226,1086.3934],[-92.9609,17.1264,1126.6393],[-92.96,17.1238,1178.6505],[-92.9618,17.1199,1341.9702],[-92.9652,17.1209,1395.0544]]]]}}