{"type":"Feature","properties":{"GID_2":"MEX.14.61_2","GID_0":"MEX","country":"México","GID_1":"MEX.14_1","province":"Jalisco","NL_NAME_1":"NA","county":"Mezquitic","VARNAME_2":"NA","NL_NAME_2":"NA","TYPE_2":"Município","ENGTYPE_2":"Municipality","CC_2":"NA","HASC_2":"NA","name":"Mezquitic.county"},
"geometry":{"type": "MultiPolygon","coordinates": [[[[-103.8399,22.0107,1629.5652],[-103.8252,22.0124,1879.6271],[-103.8203,22.0157,1902.3439],[-103.8176,22.02,1828.2283],[-103.8077,22.0233,1668.1578],[-103.8009,22.0308,1528.0283],[-103.8052,22.0389,1636.9382],[-103.8091,22.0422,1636.3096],[-103.8104,22.047,1677.6049],[-103.8163,22.0479,1734.7683],[-103.8186,22.0548,1737.0428],[-103.8214,22.0556,1744.9979],[-103.8208,22.0577,1765.759],[-103.8231,22.0587,1782.8152],[-103.8219,22.0615,1810.4681],[-103.8294,22.0641,1869.3617],[-103.8301,22.0667,1895.7531],[-103.8363,22.0681,1933.0752],[-103.8367,22.0705,1987.4907],[-103.8431,22.0708,2029.2881],[-103.8455,22.0729,2049.5664],[-103.8456,22.0878,2129.4614],[-103.8387,22.0985,2197.563],[-103.8367,22.116,2189.5291],[-103.8309,22.1198,2259.6255],[-103.8311,22.1262,2270.646],[-103.833,22.1292,2265.2256],[-103.8361,22.1297,2272.5249],[-103.8393,22.1346,2292.1157],[-103.8403,22.1399,2277.0312],[-103.8385,22.1426,2255.7656],[-103.8336,22.1468,2217.2788],[-103.8326,22.1407,2174.4841],[-103.8299,22.1381,2127.0908],[-103.8274,22.1397,2115.8484],[-103.8208,22.1385,2066.2209],[-103.8148,22.1399,2038.7197],[-103.8115,22.1428,1946.3341],[-103.8072,22.143,1885.563],[-103.8045,22.1457,1875.0884],[-103.8086,22.1511,1920.9675],[-103.8,22.1552,1803.4209],[-103.7926,22.1552,1685.5122],[-103.7927,22.1584,1710.0699],[-103.7874,22.1681,1626.449],[-103.7744,22.1721,1562.0551],[-103.7716,22.1704,1536.9724],[-103.7737,22.1662,1551.1934],[-103.7658,22.1684,1618.7968],[-103.7649,22.1633,1624.688],[-103.761,22.1609,1523.738],[-103.7634,22.1564,1488.3998],[-103.7573,22.1553,1448.8461],[-103.7564,22.1534,1399.5435],[-103.7476,22.1524,1312.3939],[-103.7407,22.1574,1293.9226],[-103.7379,22.153199999999998,1299.3816],[-103.7342,22.155,1243.4883],[-103.7335,22.1598,1231.6459],[-103.7307,22.1613,1216.5736],[-103.7322,22.163,1288.2991],[-103.7311,22.1641,1208.5831],[-103.7323,22.1657,1246.2097],[-103.7309,22.1662,1194.2886],[-103.7319,22.168,1246.823],[-103.7304,22.1688,1186.1766],[-103.7308,22.1707,1218.2617],[-103.7281,22.172,1178.8561],[-103.7243,22.1696,1167.5629],[-103.7246,22.1664,1160.9409],[-103.7222,22.163,1175.2219],[-103.7127,22.1583,1165.6525],[-103.707,22.16,1150.0911],[-103.7031,22.1514,1181.8287],[-103.699,22.1481,1127.7438],[-103.699,22.1469,1157.1212],[-103.7025,22.1468,1135.3479],[-103.704,22.1449,1143.9796],[-103.7023,22.1412,1164.0994],[-103.7055,22.1354,1147.6763],[-103.704,22.1316,1147.7067],[-103.7,22.1321,1176.2667],[-103.6985,22.1305,1166.425],[-103.7012,22.1269,1103.9375],[-103.6969,22.127,1108.6818],[-103.6927,22.1294,1117.7385],[-103.6908,22.1283,1118.9379],[-103.6881,22.1332,1206.4696],[-103.682,22.1352,1388.9897],[-103.6775,22.1413,1437.4875],[-103.6761,22.1488,1550.8141],[-103.661,22.167,1666.4487],[-103.6545,22.1719,1783.4143],[-103.6589,22.1752,1606.5204],[-103.6566,22.1813,1656.8994],[-103.6578,22.1838,1765.2889],[-103.6558,22.1848,1666.163],[-103.6561,22.1861,1678.7693],[-103.6525,22.1872,1707.9186],[-103.649,22.1961,1787.0195],[-103.6491,22.2021,1862.4027],[-103.6472,22.2016,1814.9419],[-103.6477,22.2031,1862.4027],[-103.6411,22.2098,2090.5117],[-103.6393,22.2182,2221.282],[-103.6364,22.221,2285.2229],[-103.636,22.2283,2281.656],[-103.6309,22.2389,2311.4583],[-103.6174,22.2511,2290.6548],[-103.6028,22.27,2297.9341],[-103.5949,22.2731,2300.876],[-103.6009,22.278199999999998,2318.3311],[-103.6077,22.2797,2346.8491],[-103.6107,22.279,2354.7966],[-103.6192,22.2818,2355.5488],[-103.6235,22.2875,2373.0815],[-103.6256,22.2881,2387.3591],[-103.6285,22.294,2419.7527],[-103.6378,22.2952,2429.5737],[-103.6423,22.306,2472.7932],[-103.645,22.3178,2455.7437],[-103.6382,22.3352,2180.1096],[-103.6383,22.3372,2125.0972],[-103.6421,22.3396,2130.7585],[-103.6415,22.3413,2052.1812],[-103.635,22.3435,2314.4087],[-103.6274,22.3404,2359.9946],[-103.6214,22.340699999999998,2455.2927],[-103.6112,22.3379,2451.3867],[-103.6067,22.3383,2444.3831],[-103.6048,22.3401,2422.1367],[-103.6026,22.3463,2436.4299],[-103.6095,22.3527,2457.0032],[-103.6107,22.3598,2458.0461],[-103.6098,22.3615,2453.7231],[-103.6028,22.3609,2442.5569],[-103.6003,22.3703,2457.1753],[-103.5976,22.3745,2458.1326],[-103.5959,22.3832,2454.0171],[-103.5928,22.3893,2445.4609],[-103.5944,22.3946,2437.2454],[-103.594,22.4072,2393.1462],[-103.5896,22.407,2392.3425],[-103.5855,22.4094,2347.8689],[-103.5784,22.4105,2305.6079],[-103.571,22.4182,2223.4941],[-103.5607,22.4228,2186.6494],[-103.5592,22.4279,2151.8721],[-103.5641,22.4308,2177.5801],[-103.5665,22.437,2180.7185],[-103.5725,22.4375,2218.1243],[-103.5722,22.4411,2261.1689],[-103.5689,22.4463,2218.123],[-103.5707,22.4531,2180.1562],[-103.5699,22.4556,2159.208],[-103.5739,22.4611,2115.0371],[-103.5726,22.4645,2097.6821],[-103.5739,22.4666,2117.0156],[-103.5721,22.4667,2079.9121],[-103.5708,22.4692,2105.2834],[-103.5736,22.4731,2026.0262],[-103.5806,22.4774,2000.5427],[-103.5799,22.4805,1999.1357],[-103.5825,22.4888,1965.4943],[-103.5791,22.491,1984.8441],[-103.5804,22.4955,1925.7469],[-103.5793,22.4962,1987.7617],[-103.5802,22.4987,1906.3558],[-103.5834,22.4987,1917.649],[-103.5863,22.502,1879.2374],[-103.589,22.5016,1890.6306],[-103.5946,22.5054,1852.8793],[-103.589,22.5081,1868.0354],[-103.5885,22.5144,1906.8569],[-103.5842,22.5188,1942.0604],[-103.5837,22.522,1960.2285],[-103.5853,22.5253,1996.3893],[-103.5993,22.5264,2034.3083],[-103.6024,22.5357,2018.8064],[-103.6048,22.5384,2020.3959],[-103.603,22.5435,1978.7769],[-103.606,22.5457,1898.9539],[-103.6045,22.5515,1859.1682],[-103.6021,22.5519,1846.4894],[-103.6028,22.5568,1828.2179],[-103.6097,22.5597,1675.1775],[-103.6118,22.5584,1665.7827],[-103.6175,22.5604,1685.9945],[-103.6185,22.5637,1652.7253],[-103.6224,22.5636,1658.8491],[-103.6282,22.5619,1626.0305],[-103.6305,22.5593,1618.0691],[-103.6362,22.56,1609.554],[-103.6462,22.5548,1603.2106],[-103.6516,22.5565,1605.123],[-103.6545,22.5547,1602.2616],[-103.6559,22.5516,1578.98],[-103.6596,22.5503,1567.5537],[-103.661,22.5471,1571.04],[-103.6726,22.5611,1749.5416],[-103.6742,22.5613,1749.5416],[-103.6818,22.5548,1707.3065],[-103.6869,22.5584,1616.8828],[-103.694,22.5586,1596.6011],[-103.7008,22.563,1675.8828],[-103.7115,22.5645,1789.3799],[-103.7266,22.5741,1854.4535],[-103.7385,22.572,2110.3191],[-103.7445,22.5585,2075.0334],[-103.7531,22.5579,2025.7496],[-103.7553,22.5542,1980.561],[-103.7592,22.5517,1956.7391],[-103.76,22.5556,1963.6971],[-103.7691,22.5558,2009.1965],[-103.7739,22.5464,2048.7991],[-103.7774,22.5249,2120.8096],[-103.7831,22.5111,2106.885],[-103.7857,22.5105,2108.7893],[-103.7851,22.509,2105.0464],[-103.7836,22.5098,2105.0464],[-103.785,22.4992,2123.313],[-103.7838,22.4888,2136.8528],[-103.787,22.4778,2142.4722],[-103.7956,22.465,2144.6125],[-103.7992,22.4522,2163.2854],[-103.8015,22.4499,2156.8105],[-103.8028,22.4451,2146.3582],[-103.8063,22.4418,2131.7998],[-103.808,22.4313,2151.9146],[-103.8102,22.4273,2172.9915],[-103.8101,22.4127,2200.696],[-103.8133,22.4055,2194.2461],[-103.8125,22.4015,2212.0903],[-103.8087,22.3987,2268.718],[-103.8116,22.3926,2287.0286],[-103.813,22.3839,2305.2383],[-103.8112,22.3767,2187.6455],[-103.8175,22.3715,2245.165],[-103.8175,22.3679,2254.8997],[-103.8268,22.3583,2245.5557],[-103.8262,22.3563,2269.2461],[-103.8279,22.3542,2269.0293],[-103.8306,22.3552,2275.356],[-103.8375,22.352,2304.0547],[-103.8415,22.3456,2302.199],[-103.8454,22.3428,2322.7883],[-103.846,22.3303,2335.5149],[-103.8412,22.3226,2335.8772],[-103.8367,22.3043,2408.2158],[-103.8286,22.2866,2390.1675],[-103.8398,22.2663,2365.6782],[-103.8425,22.2664,2355.9209],[-103.8449,22.2626,2324.1609],[-103.8423,22.2503,2253.6201],[-103.8435,22.2312,2302.5139],[-103.8447,22.2304,2306.052],[-103.8441,22.2221,2330.1594],[-103.8578,22.1882,2551.2295],[-103.8629,22.1669,2625.4033],[-103.8731,22.1784,2431.8857],[-103.8734,22.1845,2429.0757],[-103.8769,22.1921,2382.6948],[-103.8851,22.1964,2395.7368],[-103.8811,22.2061,2313.5588],[-103.8822,22.2145,2246.4773],[-103.8851,22.2173,2242.6543],[-103.8844,22.2203,2224.5918],[-103.8861,22.2262,2242.5676],[-103.8924,22.2288,2181.248],[-103.9017,22.2371,2123.3342],[-103.9077,22.2546,2056.7876],[-103.9102,22.2545,2054.2317],[-103.9146,22.2607,2057.1389],[-103.9179,22.262,2032.5775],[-103.9163,22.2667,2004.4385],[-103.9118,22.2705,2001.2847],[-103.914,22.2722,1992.5442],[-103.9142,22.278199999999998,1984.903],[-103.912,22.2798,1968.1283],[-103.9126,22.2814,1944.844],[-103.9102,22.2811,1953.3976],[-103.91,22.2822,1960.573],[-103.916,22.2885,1936.0157],[-103.9143,22.2891,1917.9211],[-103.9149,22.2909,1909.0239],[-103.9134,22.2922,1903.2554],[-103.916,22.2927,1909.7667],[-103.9161,22.3001,1887.8263],[-103.914,22.3009,1893.8755],[-103.9189,22.3044,1893.9857],[-103.9158,22.3113,1868.1846],[-103.921,22.3143,1850.3887],[-103.9197,22.3166,1854.7367],[-103.9225,22.3198,1852.7061],[-103.9218,22.3218,1865.2579],[-103.9203,22.3219,1874.1432],[-103.9237,22.3239,1853.4136],[-103.9225,22.3272,1825.5889],[-103.9251,22.331,1813.8096],[-103.9397,22.3244,1882.3711],[-103.9437,22.3269,1908.051],[-103.9481,22.3235,2021.863],[-103.9504,22.3248,2078.1082],[-103.952,22.3287,2088.1382],[-103.9576,22.3275,2185.824],[-103.96,22.3291,2233.6631],[-103.9622,22.3222,2286.8359],[-103.9667,22.3204,2352.5532],[-103.9696,22.3171,2356.7356],[-103.9746,22.3061,2390.0054],[-103.9862,22.3103,2217.0142],[-103.9918,22.3204,2008.1278],[-103.9937,22.3201,2014.0002],[-103.9977,22.3257,1949.1007],[-104.0046,22.3308,1870.7654],[-104.0043,22.3338,1863.9414],[-104.0093,22.3374,1835.2405],[-104.0106,22.3464,1721.3148],[-104.0141,22.3495,1714.0619],[-104.0131,22.3523,1640.3577],[-104.0197,22.3595,1504.7957],[-104.02,22.3622,1494.085],[-104.023,22.3637,1515.2992],[-104.0293,22.3711,1292.7039],[-104.0332,22.3708,1253.8313],[-104.0419,22.3758,1239.7665],[-104.0488,22.3764,1165.8567],[-104.0531,22.3718,1119.9495],[-104.0568,22.3721,1149.6082],[-104.0646,22.3633,1045.1597],[-104.0667,22.3641,1056.6471],[-104.0675,22.3614,1003.6223],[-104.0716,22.3618,1036.2611],[-104.0753,22.3644,973.9539],[-104.0837,22.3578,929.9005],[-104.0942,22.355,852.2936],[-104.0973,22.3578,782.8945],[-104.0956,22.3658,824.6807],[-104.0973,22.3708,836.465],[-104.0949,22.3763,797.3665],[-104.0886,22.3789,824.889],[-104.088,22.3746,884.5017],[-104.0844,22.3745,822.8278],[-104.0788,22.3769,864.7249],[-104.0754,22.3831,822.7307],[-104.081,22.3898,821.3151],[-104.0762,22.3988,824.7825],[-104.0768,22.4072,862.882],[-104.0735,22.4132,909.9494],[-104.0728,22.4203,855.2993],[-104.0713,22.4222,886.6838],[-104.0665,22.4269,830.2169],[-104.0632,22.425,882.1498],[-104.0616,22.4258,852.7844],[-104.0636,22.4413,976.5753],[-104.0586,22.4435,882.9285],[-104.0577,22.4476,863.7157],[-104.0622,22.4513,948.668],[-104.0575,22.4558,915.8678],[-104.0516,22.4667,873.8809],[-104.0519,22.4732,893.2946],[-104.0557,22.4835,951.9141],[-104.0545,22.4884,897.7926],[-104.0566,22.4928,918.4927],[-104.0717,22.503,1021.4008],[-104.0694,22.509,925.0788],[-104.0742,22.5133,966.0042],[-104.0742,22.5157,972.0279],[-104.0688,22.522,997.988],[-104.0772,22.5318,1077.8401],[-104.0819,22.5336,1091.7855],[-104.1027,22.5314,1247.7208],[-104.1048,22.53,1261.2667],[-104.1066,22.5233,1341.8788],[-104.11,22.5228,1357.7158],[-104.115,22.5179,1447.2581],[-104.1204,22.5175,1472.9884],[-104.1208,22.5156,1500.8853],[-104.1126,22.5092,1397.8428],[-104.1133,22.5071,1395.7051],[-104.1115,22.5035,1271.8564],[-104.113,22.5039,1298.3453],[-104.1152,22.4996,1369.0901],[-104.1135,22.4966,1345.7465],[-104.1213,22.4967,1423.1086],[-104.1246,22.5025,1500.2461],[-104.1431,22.5047,1773.0527],[-104.1498,22.5097,1856.7393],[-104.1504,22.5163,1833.9557],[-104.152,22.5147,1823.5052],[-104.1566,22.5152,1858.356],[-104.1569,22.5101,1879.3232],[-104.1584,22.5093,1888.8573],[-104.1632,22.5144,1886.3596],[-104.1669,22.5123,1908.0974],[-104.1706,22.5072,1727.7963],[-104.1748,22.5075,1601.6494],[-104.1781,22.5053,1418.3043],[-104.1824,22.5077,1456.6945],[-104.1902,22.5076,1631.2268],[-104.1927,22.5038,1674.0308],[-104.1951,22.5037,1738.1371],[-104.1937,22.4998,1768.1191],[-104.199,22.4949,1990.299],[-104.2023,22.4887,2119.6597],[-104.2017,22.487,2157.2612],[-104.2075,22.4855,2224.5767],[-104.2088,22.4834,2218.6675],[-104.2149,22.4839,2248.5718],[-104.2113,22.4814,2168.7317],[-104.2012,22.483,2153.1455],[-104.1989,22.4805,1982.9893],[-104.2049,22.4719,2210.7805],[-104.2004,22.473,2208.5352],[-104.1973,22.4771,2109.8726],[-104.1952,22.4729,2201.6401],[-104.1932,22.4754,2110.9263],[-104.1908,22.4704,2182.8086],[-104.1883,22.4701,2154.7458],[-104.19,22.4683,2143.436],[-104.187,22.4698,2154.7458],[-104.1864,22.4718,2118.3228],[-104.1857,22.4714,2118.3228],[-104.1876,22.4682,2113.6614],[-104.185,22.4646,2090.6479],[-104.1957,22.4622,2149.6646],[-104.1979,22.4606,2162.5327],[-104.1982,22.4563,2130.2705],[-104.1999,22.4563,2151.3745],[-104.1951,22.4476,2168.3562],[-104.1901,22.4461,2168.479],[-104.1849,22.4484,2156.4297],[-104.1815,22.448,2091.0276],[-104.1796,22.4501,2084.5562],[-104.1751,22.4468,2049.3521],[-104.1751,22.4425,1980.2009],[-104.1675,22.4452,1985.26],[-104.17,22.4409,2021.1927],[-104.1723,22.4404,2046.1918],[-104.1717,22.4381,2055.5667],[-104.1736,22.4377,2054.6719],[-104.1747,22.4337,2137.5793],[-104.174,22.4321,2145.3254],[-104.1761,22.4317,2097.0051],[-104.1738,22.4295,2065.394],[-104.1764,22.4289,2009.729],[-104.1759,22.4274,2071.2839],[-104.1789,22.4274,1963.1201],[-104.1774,22.423,1884.9874],[-104.1744,22.4208,1875.5315],[-104.1719,22.4101,1727.5938],[-104.1737,22.4083,1681.2703],[-104.1683,22.4049,1609.1801],[-104.1647,22.3916,1400.0131],[-104.1674,22.3874,1274.3152],[-104.1777,22.3896,1340.8235],[-104.1902,22.3991,1445.2283],[-104.193,22.3991,1487.3027],[-104.1952,22.4041,1488.03],[-104.1992,22.4073,1514.7966],[-104.2016,22.4163,1633.6387],[-104.207,22.4217,1756.0658],[-104.215,22.4228,1841.6411],[-104.2165,22.4211,1877.8727],[-104.2207,22.4211,1904.1952],[-104.2257,22.4193,1928.0283],[-104.23,22.4145,1995.3201],[-104.2336,22.4151,2005.6545],[-104.2387,22.4121,1999.9448],[-104.241,22.4128,2017.3756],[-104.253,22.395,2137.2095],[-104.2517,22.394,2121.9185],[-104.2544,22.3925,2126.1953],[-104.253,22.3866,2049.1113],[-104.2573,22.3861,2039.9149],[-104.2583,22.3847,2032.0819],[-104.2593,22.3781,1915.7286],[-104.2551,22.3733,1904.3423],[-104.2567,22.3593,1761.4113],[-104.2552,22.3577,1744.5088],[-104.2547,22.3488,1706.1104],[-104.2627,22.3456,1659.6992],[-104.2653,22.3466,1718.0955],[-104.2661,22.3434,1773.8623],[-104.2738,22.3428,1935.7405],[-104.2856,22.3457,2016.3699],[-104.2927,22.344,2083.7358],[-104.2953,22.3475,2118.5376],[-104.2984,22.3478,2095.2319],[-104.293,22.3307,2188.5459],[-104.2946,22.3283,2238.6211],[-104.2992,22.3279,2217.5862],[-104.2993,22.3258,2216.0134],[-104.2927,22.32,2274.1782],[-104.2946,22.3141,2282.9431],[-104.2926,22.3074,2270.8872],[-104.2893,22.307,2285.7065],[-104.2848,22.3027,2316.158],[-104.2849,22.2971,2305.8879],[-104.2898,22.2936,2257.0378],[-104.2903,22.2868,2223.0225],[-104.2888,22.2856,2194.168],[-104.2924,22.285,2172.4175],[-104.2956,22.2769,2139.7234],[-104.3001,22.2759,2144.448],[-104.3003,22.2729,2118.522],[-104.3028,22.2717,2059.6599],[-104.3067,22.265,2018.2611],[-104.3108,22.2633,1982.7544],[-104.3155,22.2567,1953.6542],[-104.3191,22.2566,1853.1052],[-104.3224,22.2538,1843.2434],[-104.3238,22.2503,1833.6499],[-104.3287,22.2454,1787.5129],[-104.3285,22.2386,1732.8259],[-104.3259,22.2318,1692.3346],[-104.332,22.2284,1677.5962],[-104.3339,22.2158,1625.1143],[-104.3398,22.2132,1672.6653],[-104.3414,22.2096,1524.5891],[-104.3403,22.2059,1442.9402],[-104.3318,22.1998,1653.6748],[-104.3361,22.1942,1674.7723],[-104.3366,22.1867,1916.1621],[-104.3461,22.1803,2050.7026],[-104.3483,22.1763,2068.2361],[-104.3506,22.1759,2108.6768],[-104.3494,22.1698,1983.1525],[-104.3563,22.1654,2068.0542],[-104.3541,22.1567,1993.4224],[-104.3546,22.1512,2012.2053],[-104.3616,22.1367,2227.6494],[-104.3611,22.1279,2188.8516],[-104.3639,22.1221,2162.8999],[-104.3647,22.1124,2145.385],[-104.3698,22.1081,2153.9294],[-104.3732,22.1026,2125.4895],[-104.3692,22.0965,2125.626],[-104.3666,22.0875,2085.5776],[-104.3682,22.083,2083.1506],[-104.3635,22.0741,2109.1699],[-104.3635,22.06,2022.3275],[-104.3615,22.0529,1976.9673],[-104.3678,22.0452,1536.8593],[-104.365,22.0363,1471.0061],[-104.3666,22.0344,1406.5004],[-104.366,22.0296,1349.0784],[-104.3689,22.0286,1352.8364],[-104.3679,22.0256,1334.9155],[-104.369,22.0246,1305.626],[-104.3673,22.024,1351.3748],[-104.368,22.0214,1240.2909],[-104.3666,22.02,1175.3988],[-104.3613,22.0194,1112.9762],[-104.36,22.0151,1088.0413],[-104.36,22.0104,913.0707],[-104.3622,22.0097,949.4885],[-104.3625,22.0062,836.8118],[-104.3676,21.9974,695.0742],[-104.3687,21.9928,585.1525],[-104.367,21.9868,611.946],[-104.3701,21.9838,539.2259],[-104.3694,21.982,537.1804],[-104.3711,21.98,475.1541],[-104.3699,21.9748,466.3387],[-104.3671,21.9728,340.1622],[-104.3651,21.9744,356.8704],[-104.3571,21.9721,395.5206],[-104.3436,21.9747,380.4022],[-104.3409,21.9778,360.3538],[-104.3359,21.9798,349.6873],[-104.3269,21.9754,370.7047],[-104.3251,21.9776,413.628],[-104.3249,21.9841,412.9131],[-104.3198,21.9842,364.9332],[-104.3151,21.9908,384.5082],[-104.3081,21.9886,398.4],[-104.3023,21.9982,385.3392],[-104.2941,22.0028,389.579],[-104.2917,22.002,468.8094],[-104.2894,21.9984,393.8987],[-104.2856,22.0,384.7451],[-104.2814,21.9997,405.5974],[-104.2762,21.9877,437.5031],[-104.2778,21.9836,443.2992],[-104.2754,21.9806,430.5336],[-104.266,21.9769,513.3823],[-104.262,21.9769,553.5614],[-104.2585,21.9722,516.5325],[-104.246,21.9669,527.5237],[-104.2413,21.97,517.3215],[-104.2339,21.9692,504.8064],[-104.2127,21.9829,521.7153],[-104.2027,21.9828,547.89],[-104.1949,21.986,554.3821],[-104.1797,21.9771,642.4287],[-104.1737,21.9709,610.1442],[-104.1737,21.9634,748.231],[-104.1764,21.9571,896.8331],[-104.1769,21.9489,958.0261],[-104.1794,21.9456,944.9744],[-104.1787,21.939,1021.5912],[-104.1884,21.9282,1150.3888],[-104.1888,21.919,1196.8954],[-104.2002,21.9095,1259.4468],[-104.1997,21.9035,1334.0312],[-104.2016,21.8984,1376.5673],[-104.2,21.8943,1421.0004],[-104.192,21.8926,1787.8151],[-104.1875,21.8885,1846.2562],[-104.1849,21.8894,1853.688],[-104.1848,21.8921,1872.2974],[-104.1783,21.8965,1918.1914],[-104.1785,21.8926,1907.4092],[-104.1774,21.8951,1912.9958],[-104.1674,21.8937,1795.3916],[-104.1651,21.8949,1728.4226],[-104.1603,21.8989,1705.2721],[-104.1589,21.9042,1665.7285],[-104.1563,21.9059,1558.0356],[-104.1543,21.9119,1415.8179],[-104.1553,21.914,1392.1521],[-104.154,21.9199,1323.8461],[-104.1482,21.9246,1133.9764],[-104.1418,21.9203,1217.6936],[-104.1348,21.9056,1292.0762],[-104.1292,21.9052,1369.2546],[-104.121,21.9099,1525.1075],[-104.1155,21.9103,1621.9596],[-104.119,21.9085,1570.1707],[-104.1233,21.9024,1540.0823],[-104.1221,21.8994,1513.0793],[-104.1234,21.897,1503.9281],[-104.1208,21.8951,1509.3673],[-104.1158,21.8952,1569.9274],[-104.113,21.8998,1647.8176],[-104.1095,21.8982,1615.0891],[-104.1036,21.8985,1581.6321],[-104.0983,21.8958,1524.5693],[-104.0984,21.8982,1542.5629],[-104.0941,21.8928,1494.6552],[-104.0908,21.8925,1468.6127],[-104.0883,21.8899,1385.9369],[-104.0862,21.8937,1395.3695],[-104.0835,21.8939,1455.535],[-104.085,21.8954,1450.8434],[-104.0836,21.9022,1494.3085],[-104.0783,21.9124,1520.1613],[-104.0696,21.9171,1554.3645],[-104.0684,21.923,1525.9355],[-104.0637,21.927,1496.2024],[-104.0608,21.9429,1225.1941],[-104.0483,21.9528,843.965],[-104.0384,21.9471,889.6794],[-104.0305,21.9394,830.0005],[-104.0249,21.9399,852.0881],[-104.023,21.9365,845.3867],[-104.02,21.9354,891.0488],[-104.0184,21.931,886.7889],[-104.0148,21.9292,857.437],[-104.0067,21.9331,890.8051],[-104.0003,21.9339,897.5244],[-103.9946,21.9451,940.9078],[-103.9777,21.9508,1239.0156],[-103.9741,21.9456,1562.9088],[-103.9699,21.9432,1802.0554],[-103.9582,21.9447,1922.4685],[-103.9583,21.9402,1702.4688],[-103.9623,21.9379,1681.9572],[-103.9633,21.9348,1628.6099],[-103.9603,21.9369,1639.8879],[-103.9523,21.9356,1870.4341],[-103.9491,21.9344,1880.4496],[-103.9451,21.93,1998.0519],[-103.9406,21.9291,2064.1733],[-103.9383,21.9312,2154.5659],[-103.9384,21.9421,2153.3931],[-103.9426,21.9458,2083.7451],[-103.9375,21.9476,2162.7676],[-103.9339,21.951,2230.3455],[-103.9304,21.9481,2259.2944],[-103.9301,21.945,2323.8071],[-103.9254,21.9433,2257.4673],[-103.9244,21.9369,2090.5176],[-103.9201,21.9348,2007.2766],[-103.9217,21.9422,2144.0618],[-103.9179,21.9458,2058.1562],[-103.9178,21.9489,2042.5254],[-103.9223,21.951,2110.5078],[-103.9177,21.9621,1667.9497],[-103.9241,21.9697,1625.3932],[-103.9247,21.9725,1614.5742],[-103.9193,21.975,1640.9532],[-103.9192,21.9767,1651.2517],[-103.9147,21.9803,1693.1509],[-103.9102,21.9818,1772.485],[-103.9059,21.9887,1841.8378],[-103.9097,21.9915,1859.991],[-103.9091,21.9944,1856.6498],[-103.9118,22.0003,1881.1244],[-103.9115,22.003,1916.4744],[-103.9188,22.0106,2031.9886],[-103.9192,22.0146,2056.1282],[-103.9145,22.0184,2217.3376],[-103.8931,22.0204,2253.1638],[-103.8897,22.0222,2370.4521],[-103.8883,22.027,2337.438],[-103.8866,22.0152,2432.1699],[-103.8824,22.0038,2345.3499],[-103.8801,22.0042,2332.7473],[-103.8768,22.0081,2340.521],[-103.869,22.0107,2246.1353],[-103.8526,22.01,1877.9054],[-103.8441,22.014,1751.2],[-103.8399,22.0107,1629.5652]]]]}}