{"type": "Feature","bbox": [-98.2153,19.2577,-98.161,19.3025],"geometry": {"type": "MultiPolygon","coordinates": [[[[-98.2099,19.2893,2297.6772],[-98.2084,19.2879,2298.959],[-98.2105,19.2856,2298.7698],[-98.2092,19.2832,2299.0269],[-98.21,19.2819,2299.9446],[-98.2123,19.2824,2297.6157],[-98.2153,19.2784,2289.3013],[-98.206,19.2759,2304.3723],[-98.207,19.2744,2301.605],[-98.2097,19.2754,2299.5071],[-98.2072,19.2714,2300.1624],[-98.2088,19.2695,2298.9736],[-98.2031,19.2675,2307.6985],[-98.2034,19.2662,2304.7327],[-98.1981,19.2653,2316.0786],[-98.1984,19.2641,2316.0786],[-98.1961,19.2652,2320.6909],[-98.1951,19.2624,2318.3999],[-98.1966,19.2595,2311.4756],[-98.1946,19.2582,2315.0029],[-98.1839,19.2577,2354.4902],[-98.1828,19.263,2359.8157],[-98.1888,19.2639,2340.262],[-98.1838,19.2664,2359.9451],[-98.182,19.27,2365.6833],[-98.173,19.2685,2393.8691],[-98.171,19.2737,2398.7014],[-98.1633,19.2704,2431.7471],[-98.1628,19.2739,2417.876],[-98.1613,19.2735,2429.5215],[-98.161,19.2762,2423.7837],[-98.1693,19.2776,2395.6523],[-98.1767,19.284,2366.5947],[-98.1865,19.2867,2334.8984],[-98.186,19.2905,2334.3823],[-98.1887,19.2914,2320.9841],[-98.1896,19.2934,2318.1504],[-98.1875,19.2967,2319.0955],[-98.1932,19.2996,2299.9292],[-98.1952,19.3025,2290.0469],[-98.2043,19.2885,2302.5625],[-98.2075,19.2907,2297.0583],[-98.209,19.2885,2298.2036],[-98.2099,19.2893,2297.6772]]]]}
,"properties": {"GID_2": "MEX.29.20_2","GID_0": "MEX","country": "México","GID_1": "MEX.29_1","province": "Tlaxcala","NL_NAME_1": "NA","county": "LaMagdalenaTlaltelulco","VARNAME_2": "NA","NL_NAME_2": "NA","TYPE_2": "Município","ENGTYPE_2": "Municipality","CC_2": "NA","HASC_2": "NA","name": "La_Magdalena_Tlaltelulco.county","area_km2": 12.008004,"hist_schema_id": "Elevation0-9000","hist_area_km2": {"2300": 3.542226,"2325": 4.022715,"2350": 2.401667,"2375": 1.240845,"2400": 0.600412,"2425": 0.200139}}}