{"type":"Feature","properties":{"GID_2":"MEX.16.106_2","GID_0":"MEX","country":"México","GID_1":"MEX.16_1","province":"Michoacán","NL_NAME_1":"NA","county":"VistaHermosa","VARNAME_2":"NA","NL_NAME_2":"NA","TYPE_2":"Município","ENGTYPE_2":"Municipality","CC_2":"NA","HASC_2":"NA","name":"Vista_Hermosa.county"},
"geometry":{"type": "MultiPolygon","coordinates": [[[[-102.5224,20.2757,1527.454],[-102.5214,20.2743,1529.8961],[-102.5246,20.2656,1527.9146],[-102.5271,20.2611,1525.76],[-102.5282,20.2618,1526.1519],[-102.5309,20.2596,1525.8339],[-102.528,20.2585,1525.5054],[-102.5299,20.2572,1525.3485],[-102.5288,20.2528,1524.8453],[-102.5327,20.2513,1524.7427],[-102.5331,20.2476,1525.2222],[-102.5357,20.2479,1524.0029],[-102.5322,20.2421,1524.149],[-102.5415,20.2194,1521.9053],[-102.5196,20.2098,1522.4841],[-102.5134,20.2139,1522.3042],[-102.4998,20.2069,1522.1821],[-102.4977,20.2083,1522.1317],[-102.4869,20.2012,1522.9133],[-102.4598,20.1879,1524.5641],[-102.4424,20.1859,1526.2426],[-102.4287,20.1975,1564.6686],[-102.4311,20.1987,1554.281],[-102.4301,20.2036,1554.5118],[-102.4315,20.2115,1561.3489],[-102.4409,20.2144,1542.8086],[-102.4416,20.2163,1542.0201],[-102.4393,20.2297,1539.1328],[-102.4358,20.237,1538.8074],[-102.4361,20.2405,1537.1794],[-102.4339,20.2407,1537.8992],[-102.4342,20.2435,1537.2427],[-102.4386,20.2433,1536.4132],[-102.4406,20.2694,1549.7623],[-102.4346,20.2704,1544.4651],[-102.435,20.2797,1554.6772],[-102.4333,20.2829,1540.3519],[-102.4345,20.2951,1534.6344],[-102.4314,20.296,1532.7444],[-102.4312,20.2991,1533.2759],[-102.4295,20.2994,1533.2759],[-102.4279,20.3031,1533.8369],[-102.4101,20.3116,1535.7328],[-102.4029,20.3114,1535.3567],[-102.4,20.3128,1533.274],[-102.3962,20.3097,1534.1035],[-102.3772,20.317,1535.5496],[-102.3715,20.3165,1535.2966],[-102.3688,20.3281,1530.5992],[-102.3724,20.33,1530.2834],[-102.3831,20.3302,1530.9532],[-102.3915,20.3339,1530.7042],[-102.3998,20.3277,1529.7329],[-102.41,20.3335,1529.3933],[-102.4212,20.3327,1530.9139],[-102.4279,20.3394,1529.1246],[-102.4324,20.341,1529.5643],[-102.4425,20.3383,1529.0435],[-102.4474,20.3385,1529.0527],[-102.4545,20.3341,1531.233],[-102.4549,20.329,1528.5233],[-102.4678,20.3306,1530.653],[-102.481,20.3249,1528.1196],[-102.4861,20.3201,1527.3906],[-102.4886,20.3109,1527.6216],[-102.4906,20.3086,1531.6428],[-102.4962,20.3079,1528.0914],[-102.4996,20.3131,1526.0056],[-102.5054,20.3159,1528.4098],[-102.5074,20.3116,1529.9397],[-102.5073,20.3035,1530.1082],[-102.509,20.3014,1529.6416],[-102.5119,20.3001,1529.1218],[-102.5208,20.3008,1527.5427],[-102.53,20.2962,1526.4869],[-102.5298,20.2904,1528.8048],[-102.5226,20.2877,1526.573],[-102.5208,20.2851,1526.4902],[-102.5202,20.2781,1528.097],[-102.5224,20.2757,1527.454]]]]}}