{"type": "Feature","bbox": [-92.4895,16.4455,-92.3081,16.5869],"geometry": {"type": "MultiPolygon","coordinates": [[[[-92.3729,16.5701,2422.2632],[-92.3954,16.5768,2287.4194],[-92.4162,16.5804,2405.623],[-92.417,16.5825,2374.311],[-92.436,16.5869,2384.4897],[-92.4513,16.554,1945.6071],[-92.4532,16.5469,1901.2893],[-92.4506,16.5452,1917.4814],[-92.4556,16.5392,1789.2875],[-92.4483,16.5336,1795.4885],[-92.4503,16.533,1811.3645],[-92.4513,16.5292,1804.4907],[-92.4469,16.5277,1811.3241],[-92.4475,16.5252,1820.479],[-92.4506,16.5243,1829.0271],[-92.4498,16.5218,1813.1882],[-92.4533,16.5175,1821.4908],[-92.4492,16.5082,1948.2383],[-92.4596,16.4949,1970.2239],[-92.4567,16.4859,1783.8962],[-92.4589,16.4762,1690.6096],[-92.4694,16.4787,1338.0032],[-92.4778,16.4827,1299.0568],[-92.4809,16.4772,1114.6847],[-92.4895,16.4685,911.2528],[-92.4866,16.4621,907.162],[-92.4876,16.4596,910.6005],[-92.4854,16.4608,908.3431],[-92.4778,16.4529,885.9848],[-92.4776,16.4503,848.0154],[-92.4748,16.4496,854.5372],[-92.4707,16.4455,860.3263],[-92.464,16.4473,939.9472],[-92.4617,16.449,978.4531],[-92.4605,16.454,1055.6226],[-92.4549,16.4608,1226.4246],[-92.4459,16.4626,1558.2939],[-92.4362,16.4713,1880.7914],[-92.4349,16.4665,1768.6925],[-92.43,16.4691,1819.1365],[-92.4299,16.4795,1740.3546],[-92.4133,16.4888,1842.9612],[-92.3505,16.4775,2177.2766],[-92.3476,16.4481,2151.333],[-92.3124,16.4648,2267.4507],[-92.313,16.4676,2274.7644],[-92.3081,16.4726,2307.4302],[-92.3109,16.4784,2351.5581],[-92.3197,16.4856,2440.9214],[-92.3155,16.4928,2397.0298],[-92.3138,16.4917,2392.0884],[-92.3117,16.4943,2350.5449],[-92.3158,16.5045,2255.2197],[-92.3225,16.5061,2263.6223],[-92.3298,16.5141,2244.7261],[-92.3388,16.5138,2267.7705],[-92.3394,16.5097,2246.8794],[-92.3492,16.509,2223.3474],[-92.3532,16.5134,2220.4509],[-92.3296,16.5285,2317.2371],[-92.3298,16.5445,2317.4097],[-92.3345,16.5525,2231.1445],[-92.3398,16.578,2231.6604],[-92.3549,16.5508,2518.5833],[-92.3437,16.5398,2302.6855],[-92.3475,16.5389,2325.2881],[-92.3607,16.5445,2439.0134],[-92.3683,16.5517,2409.9038],[-92.3855,16.5523,2357.1189],[-92.3861,16.5553,2359.0122],[-92.3761,16.5707,2400.8677],[-92.3729,16.5701,2422.2632]]]]}
,"properties": {"GID_2": "MEX.5.8_2","GID_0": "MEX","country": "México","GID_1": "MEX.5_1","province": "Chiapas","NL_NAME_1": "NA","county": "AmatenangodelValle","VARNAME_2": "NA","NL_NAME_2": "NA","TYPE_2": "Município","ENGTYPE_2": "Municipality","CC_2": "NA","HASC_2": "NA","name": "Amatenangodel_Valle.county","area_km2": 151.6836,"hist_schema_id": "Elevation0-9000","hist_area_km2": {"850": 0.0813,"875": 0.366,"900": 0.7117,"925": 0.9353,"950": 0.854,"975": 0.5897,"1000": 0.6507,"1025": 0.5693,"1050": 0.366,"1075": 0.366,"1100": 0.4676,"1125": 0.2033,"1150": 0.366,"1175": 0.2846,"1200": 0.3253,"1225": 0.305,"1250": 0.2643,"1275": 0.3456,"1300": 0.2033,"1325": 0.1423,"1350": 0.2846,"1375": 0.2237,"1400": 0.2237,"1425": 0.1627,"1450": 0.1017,"1475": 0.1423,"1500": 0.122,"1525": 0.183,"1550": 0.1423,"1575": 0.1627,"1600": 0.427,"1625": 0.5286,"1650": 0.4676,"1675": 0.5286,"1700": 0.5286,"1725": 1.0572,"1750": 1.5451,"1775": 2.1957,"1800": 7.9279,"1825": 5.1023,"1850": 3.2525,"1875": 2.9679,"1900": 2.48,"1925": 3.0084,"1950": 3.2929,"1975": 4.106,"2000": 3.8011,"2025": 3.6994,"2050": 3.5572,"2075": 4.3501,"2100": 4.8583,"2125": 4.0657,"2150": 4.2486,"2175": 4.6755,"2200": 4.4517,"2225": 5.7731,"2250": 8.009,"2275": 8.4153,"2300": 7.3174,"2325": 6.7888,"2350": 7.053,"2375": 7.2358,"2400": 5.5894,"2425": 3.5569,"2450": 3.1503,"2475": 0.8536,"2500": 0.3658,"2525": 0.2236,"2575": 0.0813}}}