{"type":"Feature","properties":{"GID_2":"MEX.19.8_2","GID_0":"MEX","country":"México","GID_1":"MEX.19_1","province":"NuevoLeón","NL_NAME_1":"NA","county":"CadereytaJiménez","VARNAME_2":"NA","NL_NAME_2":"NA","TYPE_2":"Município","ENGTYPE_2":"Municipality","CC_2":"NA","HASC_2":"NA","name":"Cadereyta_Jiménez.county"},
"geometry":{"type": "MultiPolygon","coordinates": [[[[-99.9427,25.3734,331.1402],[-99.9399,25.3766,334.7945],[-99.9317,25.377,329.3825],[-99.928,25.3819,325.7898],[-99.9278,25.3882,323.3976],[-99.9303,25.3924,325.856],[-99.9344,25.3941,321.7369],[-99.9403,25.4066,323.2305],[-99.9337,25.414,316.5479],[-99.9318,25.4203,314.3723],[-99.8273,25.3398,290.0485],[-99.8217,25.3455,287.959],[-99.8153,25.3464,285.4465],[-99.8113,25.3507,283.9162],[-99.8074,25.3513,282.327],[-99.798,25.373,272.9503],[-99.7924,25.3789,270.4897],[-99.7926,25.3827,272.0892],[-99.7965,25.3882,267.3234],[-99.789,25.3995,284.7923],[-99.7899,25.404,265.9178],[-99.7925,25.4052,263.5775],[-99.7932,25.4087,262.6339],[-99.7897,25.4158,260.9614],[-99.7929,25.4174,258.7733],[-99.7923,25.4199,260.7162],[-99.7865,25.424,256.9624],[-99.7849,25.4306,256.4248],[-99.7818,25.4319,253.6958],[-99.7748,25.4307,254.594],[-99.77,25.4326,251.8068],[-99.7665,25.4392,255.4585],[-99.7663,25.4459,247.6486],[-99.7596,25.4534,250.7813],[-99.7594,25.4545,246.8715],[-99.7611,25.4535,245.1455],[-99.7613,25.4571,245.2028],[-99.7544,25.4572,241.7757],[-99.7521,25.4616,243.233],[-99.7458,25.4661,243.8572],[-99.7481,25.4698,234.3466],[-99.7412,25.4735,234.1612],[-99.737799999999993,25.4725,234.9416],[-99.736,25.4689,232.8376],[-99.732,25.4714,231.521],[-99.7288,25.4817,231.1922],[-99.7223,25.4851,231.4375],[-99.7215,25.493,233.3163],[-99.7182,25.4994,228.0416],[-99.7117,25.5007,234.5295],[-99.7081,25.499,230.9184],[-99.7046,25.4939,225.8235],[-99.7006,25.4926,223.9167],[-99.6936,25.4959,224.8269],[-99.6871,25.5041,222.6362],[-99.6884,25.5088,222.5118],[-99.6867,25.5148,221.903],[-99.6938,25.5177,220.536],[-99.6937,25.5217,218.1825],[-99.6968,25.5225,230.0663],[-99.698,25.5299,232.2878],[-99.7109,25.5444,242.9361],[-99.7349,25.5503,249.8994],[-99.7364,25.5463,254.1122],[-99.7405,25.5658,261.8176],[-99.7403,25.62,233.1801],[-99.739,25.6246,231.4714],[-99.7415,25.6265,231.7579],[-99.7435,25.6252,232.7125],[-99.7458,25.6291,233.9654],[-99.7491,25.628,234.195],[-99.7507,25.6291,234.9637],[-99.7512,25.6415,236.2963],[-99.7489,25.6436,237.7316],[-99.7511,25.6515,238.6159],[-99.7584,25.6545,241.9004],[-99.7647,25.6535,244.4172],[-99.7667,25.6664,245.5136],[-99.7873,25.6732,249.6918],[-99.7999,25.6576,249.0388],[-99.8028,25.658,249.0776],[-99.8017,25.6625,251.1703],[-99.7967,25.6701,250.3965],[-99.799,25.6713,252.9346],[-99.7989,25.6729,251.4032],[-99.8022,25.6735,254.3921],[-99.8055,25.673,254.8755],[-99.8054,25.6717,253.8417],[-99.8102,25.6716,254.8899],[-99.8147,25.6648,254.7892],[-99.8172,25.6663,256.3255],[-99.8205,25.6591,256.4468],[-99.8311,25.6592,259.0168],[-99.8312,25.6684,263.7107],[-99.8467,25.6734,263.9212],[-99.8466,25.6812,265.8321],[-99.8485,25.6819,267.9659],[-99.8495,25.685,267.1283],[-99.8576,25.6846,270.0117],[-99.8625,25.686,269.3379],[-99.8716,25.6844,271.2871],[-99.8783,25.6887,272.2786],[-99.8781,25.6899,272.9184],[-99.8803,25.6889,274.6654],[-99.8832,25.6909,275.4286],[-99.8896,25.6917,277.243],[-99.8913,25.6905,276.9448],[-99.8961,25.6919,277.8976],[-99.9005,25.6913,277.1922],[-99.9005,25.6878,279.8196],[-99.9108,25.6865,281.9714],[-99.9163,25.691,285.5435],[-99.92,25.6893,286.0411],[-99.9237,25.6931,287.2158],[-99.9309,25.6948,287.8316],[-99.9326,25.6925,289.9901],[-99.936,25.6939,288.7045],[-99.9412,25.6924,289.0322],[-99.9449,25.6935,288.5744],[-99.9469,25.6917,289.9656],[-99.9493,25.6928,289.6998],[-99.9496,25.6906,291.4694],[-99.9607,25.6909,294.1569],[-99.9619,25.6857,294.9072],[-99.9648,25.6864,297.2676],[-99.9648,25.6835,297.0749],[-99.97,25.6821,298.0264],[-99.971,25.6797,300.6776],[-99.9756,25.68,301.9491],[-99.9775,25.6785,301.9045],[-99.9874,25.6833,309.1527],[-99.9901,25.6823,308.6318],[-99.9941,25.6793,315.3262],[-100.0036,25.6668,327.3986],[-99.9962,25.6665,318.3097],[-100.009,25.6522,341.9916],[-100.0297,25.6542,389.6731],[-100.0464,25.6577,397.3727],[-100.0559,25.6614,383.7452],[-100.0643,25.6526,387.5608],[-100.066,25.6527,388.728],[-100.0402,25.6377,370.2281],[-100.0424,25.6201,343.9782],[-100.056,25.628,353.6004],[-100.0572,25.6261,360.7461],[-100.0563,25.6226,361.1064],[-100.0583,25.6214,360.4614],[-100.0628,25.6114,373.8177],[-100.0745,25.6102,379.3147],[-100.0804,25.6051,389.8779],[-100.0858,25.6069,390.6902],[-100.0866,25.6014,395.0479],[-100.0942,25.5983,407.1441],[-100.1044,25.5845,421.6994],[-100.0905,25.5717,409.8727],[-100.0919,25.5705,410.7876],[-100.0985,25.5766,416.9138],[-100.1018,25.5736,420.0555],[-100.0979,25.5699,416.1972],[-100.1018,25.5661,421.8394],[-100.0958,25.5606,417.0847],[-100.0969,25.5597,416.5754],[-100.1068,25.5687,427.7968],[-100.1107,25.5648,432.6561],[-100.0773,25.5339,388.9478],[-100.0731,25.5376,383.0547],[-100.075,25.5393,387.3942],[-100.0739,25.5403,387.3942],[-100.049,25.5173,359.037],[-100.0501,25.5163,360.7846],[-100.0553,25.5211,371.5258],[-100.0606,25.5172,372.2881],[-100.0593,25.5158,369.5399],[-100.0606,25.5152,367.8329],[-100.0668,25.5208,375.2872],[-100.0683,25.5207,375.8435],[-100.068,25.522,375.8435],[-100.0719,25.5256,386.4397],[-100.0759,25.5234,386.726],[-100.0734,25.5211,385.7391],[-100.077,25.5181,386.3934],[-100.0812,25.5183,388.6418],[-100.0807,25.5153,389.3879],[-100.0843,25.5151,395.4684],[-100.088,25.5121,394.4244],[-100.0951,25.5155,401.5443],[-100.1016,25.5139,409.2978],[-100.1035,25.5163,411.1678],[-100.1071,25.5166,419.2607],[-100.1114,25.5243,438.8001],[-100.1135,25.5236,440.4945],[-100.1152,25.5255,434.5107],[-100.1201,25.522,448.364],[-100.1234,25.522,451.0293],[-100.122,25.524,448.1973],[-100.1226,25.5271,450.5766],[-100.1277,25.5307,468.2332],[-100.1252,25.532,460.7544],[-100.1278,25.5336,463.9438],[-100.127,25.535,456.7659],[-100.1326,25.5351,467.9345],[-100.1342,25.5366,480.2629],[-100.1425,25.5334,647.009],[-100.1531,25.5268,1002.3101],[-100.1625,25.525,721.8491],[-100.1627,25.5288,640.877],[-100.1693,25.5311,701.0443],[-100.1736,25.538,843.4858],[-100.1788,25.5303,1084.9148],[-100.1729,25.5211,1132.9521],[-100.1695,25.5191,1093.9832],[-100.1541,25.5019,999.5463],[-100.1478,25.4887,1025.548],[-100.1357,25.4772,986.0016],[-100.1314,25.4702,1026.7341],[-100.0969,25.5032,420.0448],[-100.0712,25.4688,385.9517],[-100.0696,25.4706,375.9788],[-100.0374,25.448,390.8376],[-100.0313,25.4509,380.2602],[-100.039,25.4425,396.8095],[-100.0434,25.4409,402.7565],[-100.0441,25.4368,411.2408],[-100.0457,25.4372,407.8792],[-100.0599,25.4177,476.4307],[-100.057,25.4172,475.0511],[-100.0577,25.4144,500.2816],[-100.0547,25.4147,489.3316],[-100.0512,25.4093,497.5369],[-100.0764,25.3937,975.7382],[-100.0746,25.3854,1097.4097],[-100.0698,25.3831,1029.6842],[-100.0607,25.3735,1350.691],[-100.0586,25.3619,1324.5267],[-100.044,25.351,622.7292],[-100.0257,25.3519,406.2457],[-100.0167,25.3476,390.2769],[-100.0149,25.3451,381.3395],[-100.0138,25.3468,380.4762],[-100.0097,25.3479,382.3972],[-100.0058,25.3525,374.582],[-99.9966,25.3569,368.8061],[-99.9911,25.3546,364.2957],[-99.9883,25.3567,362.3331],[-99.9796,25.3573,358.9146],[-99.975,25.3602,358.46],[-99.9728,25.3642,356.3575],[-99.9651,25.3619,352.5138],[-99.9601,25.3659,348.0848],[-99.9511,25.363,344.3825],[-99.9498,25.3647,340.8553],[-99.9508,25.3712,338.6077],[-99.9427,25.3734,331.1402]]]]}}