{"type":"Feature","properties":{"featurecla":"River","scalerank":10,"rivernum":22986,"dissolve":"22986River","name":"Sinaloa3","name_alt":null,"note":"ID is link back to CEC data","name_full":"Rio Sinaloa","min_zoom":6.0,"strokeweig":0.25,"uident":2005001,"min_label":7.0},
"geometry":{"type": "LineString","coordinates": [[-107.9295955068954,25.864447332806535,358.3492],[-107.93004309804122,25.864365952598206,352.8996],[-107.93089759022872,25.864040431764863,352.8996],[-107.93480384022872,25.863348699994035,471.8245],[-107.93858801991622,25.862819728639863,454.6169],[-107.94225012929122,25.862168686973206,322.8212],[-107.94587154856205,25.862087306764863,249.6206],[-107.94928951731205,25.861599025514863,167.5566],[-107.95124264231205,25.861639715619035,152.3848],[-107.95221920481205,25.861151434369035,152.3848],[-107.9523005850204,25.861110744264863,133.123],[-107.95763098866622,25.861883856244035,181.3573],[-107.95759029856205,25.881293035931535,229.6132],[-107.9659724600204,25.884629624473206,170.4014],[-107.97337805897872,25.880072332806535,142.6178],[-107.99054928293705,25.888047593223206,202.0423],[-108.00617428293705,25.895290431764863,143.3589],[-108.01667232981205,25.906765041139863,162.4164],[-108.04523678293705,25.924587306764863,108.5207],[-108.05650794179122,25.928534246869035,208.2023],[-108.07298743397872,25.924383856244035,127.472],[-108.10334225168705,25.930975653119035,116.0524],[-108.11742102772872,25.924139715619035,121.6319],[-108.12385006418705,25.895127671348206,89.6727],[-108.1339412100204,25.884344793744035,87.2176],[-108.1620173818954,25.871364650514863,79.6669],[-108.22874915272872,25.829616603639863,84.5406],[-108.2377009756454,25.823268947389863,82.1589],[-108.2721248037704,25.820624090619035,82.0372],[-108.2884822256454,25.815049546348206,72.5054],[-108.32371985585372,25.770290431764863,49.3049],[-108.35045325429122,25.752549546348206,42.967],[-108.39867102772872,25.734238999473206,31.3055],[-108.40746009022872,25.723456121869035,29.7354],[-108.41881262929122,25.693630275514863,30.2496],[-108.43114173085372,25.686346746869035,26.5418],[-108.45734615793705,25.654405015098206,26.9201],[-108.4552302725204,25.643093166139863,22.9312],[-108.46458899647872,25.619004624473206,19.556],[-108.46589107981205,25.605292059369035,19.9233],[-108.46031653554122,25.597683009889863,18.8838],[-108.46385657460372,25.586045640098206,21.1415],[-108.46247311106205,25.572333074994035,20.1931],[-108.4461970693954,25.522284246869035,15.0317],[-108.4515681631454,25.514715887494035,13.6861],[-108.48151607981205,25.489854233848206,11.6589],[-108.4833064443954,25.480658270306535,11.3835],[-108.46467037668705,25.467393296348206,10.4668],[-108.44367428293705,25.437526759889863,9.6795],[-108.4398494131454,25.428330796348206,10.3066],[-108.4408259756454,25.416571356244035,8.04],[-108.4347224600204,25.386338608848206,6.9844],[-108.4418025381454,25.364284572389863,5.4025],[-108.45661373606205,25.358750718223206,4.0705],[-108.4601130850204,25.353583074994035,5.1159],[-108.46886145741622,25.305690822389863,2.169],[-108.49266516835372,25.305934963014863,1.2335],[-108.49689693918705,25.286444403119035,3.2162]]}}