{"type":"Feature","properties":{"GID_2":"MEX.29.45_2","GID_0":"MEX","country":"México","GID_1":"MEX.29_1","province":"Tlaxcala","NL_NAME_1":"NA","county":"TepetitladeLardizábal","VARNAME_2":"NA","NL_NAME_2":"NA","TYPE_2":"Município","ENGTYPE_2":"Municipality","CC_2":"NA","HASC_2":"NA","name":"Tepetitlade_Lardizábal.county"},
"geometry":{"type": "MultiPolygon","coordinates": [[[[-98.378,19.2546,2268.4749],[-98.373,19.2551,2227.0959],[-98.3587,19.2499,2209.6831],[-98.3555,19.2631,2211.3801],[-98.3533,19.2675,2210.915],[-98.3497,19.2702,2211.0054],[-98.3514,19.2847,2213.053],[-98.3619,19.2882,2215.0859],[-98.3641,19.2931,2215.6194],[-98.3705,19.2918,2218.4463],[-98.3786,19.3034,2224.0767],[-98.3869,19.3002,2223.1123],[-98.3937,19.3096,2233.9565],[-98.3998,19.3108,2245.5249],[-98.4077,19.3159,2268.0752],[-98.4101,19.2913,2233.1428],[-98.4069,19.2882,2230.0876],[-98.4018,19.2879,2228.3699],[-98.4013,19.2824,2227.8074],[-98.3813,19.2629,2302.7876],[-98.378,19.2546,2268.4749]]]]}}