{"type": "Feature","bbox": [-97.7737,20.0068,-97.7252,20.062],"geometry": {"type": "MultiPolygon","coordinates": [[[[-97.7673,20.0392,620.2793],[-97.7667,20.0299,865.9299],[-97.7737,20.0201,1230.8806],[-97.7728,20.0148,1342.1337],[-97.7672,20.0068,1510.7465],[-97.7643,20.007,1499.5056],[-97.7589,20.0112,1325.8352],[-97.7578,20.016,1188.2334],[-97.7549,20.0117,1354.623],[-97.7486,20.0086,1480.5594],[-97.7493,20.0096,1460.4204],[-97.746,20.0118,1449.0621],[-97.7395,20.0112,1298.0623],[-97.7351,20.0133,1303.1399],[-97.7356,20.016,1231.0054],[-97.7335,20.0156,1256.6053],[-97.731,20.0178,1222.9495],[-97.7252,20.0161,1157.3245],[-97.7333,20.0267,741.9247],[-97.7364,20.0254,806.8494],[-97.7445,20.0298,1162.6016],[-97.7408,20.0312,1160.5511],[-97.7383,20.0411,1168.2045],[-97.736,20.0425,1151.3647],[-97.7418,20.0451,1198.4707],[-97.744,20.0481,937.4137],[-97.7458,20.0595,427.0363],[-97.7544,20.062,492.6476],[-97.7581,20.058,443.7974],[-97.7591,20.0537,424.8173],[-97.7627,20.0529,446.5643],[-97.7669,20.0453,480.8671],[-97.766,20.0422,493.5674],[-97.7673,20.0392,620.2793]]]]}
,"properties": {"GID_2": "MEX.21.29_2","GID_0": "MEX","country": "México","GID_1": "MEX.21_1","province": "Puebla","NL_NAME_1": "NA","county": "Camocuautla","VARNAME_2": "NA","NL_NAME_2": "NA","TYPE_2": "Município","ENGTYPE_2": "Municipality","CC_2": "NA","HASC_2": "NA","name": "Camocuautla.county","area_km2": 16.27434,"hist_schema_id": "Elevation0-9000","hist_area_km2": {"375": 0.05975,"400": 0.07966,"425": 0.25892,"450": 0.19917,"475": 0.25892,"500": 0.25893,"525": 0.23901,"550": 0.31868,"575": 0.19917,"600": 0.35852,"625": 0.39835,"650": 0.17926,"675": 0.25894,"700": 0.49795,"725": 0.29877,"750": 0.37845,"775": 0.33862,"800": 0.33863,"825": 0.35855,"850": 0.45814,"875": 0.37847,"900": 0.33863,"925": 0.29879,"950": 0.47807,"975": 0.3984,"1000": 0.45816,"1025": 0.57768,"1050": 0.45816,"1075": 0.3984,"1100": 0.51793,"1125": 0.47808,"1150": 0.67729,"1175": 0.61754,"1200": 0.65738,"1225": 0.5777,"1250": 0.4781,"1275": 0.45818,"1300": 0.43826,"1325": 0.41836,"1350": 0.23906,"1375": 0.23906,"1400": 0.15938,"1425": 0.1793,"1450": 0.19922,"1475": 0.15938,"1500": 0.15938,"1525": 0.03984,"1550": 0.05977}}}