{"type": "Feature","bbox": [-100.6959,20.3105,-100.4688,20.555],"geometry": {"type": "MultiPolygon","coordinates": [[[[-100.5048,20.555,1816.063],[-100.519,20.527,1837.312],[-100.5368,20.525,1799.7605],[-100.5478,20.5341,1792.4536],[-100.5574,20.531,1884.4464],[-100.5587,20.5191,1879.5067],[-100.5629,20.5206,1882.3337],[-100.5639,20.5169,1875.1436],[-100.5625,20.513,1879.5713],[-100.5758,20.5127,1857.7068],[-100.5777,20.5082,1893.0686],[-100.58,20.5084,1891.7275],[-100.5799,20.5048,1890.996],[-100.6034,20.5066,1871.2817],[-100.5983,20.4932,1839.4907],[-100.6122,20.4908,1817.5004],[-100.6122,20.4921,1820.8717],[-100.6217,20.4892,1823.7028],[-100.6241,20.4858,1814.4292],[-100.6246,20.4888,1837.3802],[-100.6397,20.4949,1790.7385],[-100.6458,20.5007,1789.9355],[-100.6528,20.5019,1790.7732],[-100.6531,20.5002,1793.1978],[-100.6478,20.4957,1794.9895],[-100.6474,20.4883,1803.9757],[-100.6367,20.4746,1816.7577],[-100.6467,20.4744,1830.7102],[-100.6459,20.477,1826.2866],[-100.65,20.4775,1814.428],[-100.6515,20.4756,1830.9987],[-100.6588,20.4776,1829.166],[-100.6619,20.4759,1837.2371],[-100.6603,20.4682,1874.3711],[-100.6633,20.465,1887.2324],[-100.6686,20.4645,1883.6865],[-100.6663,20.4651,1887.2612],[-100.6662,20.477,1854.0403],[-100.6684,20.4767,1857.8878],[-100.6682,20.48,1866.204],[-100.6799,20.4808,1913.5255],[-100.6769,20.4781,1894.9391],[-100.6756,20.4786,1875.9189],[-100.6765,20.4767,1885.7291],[-100.6891,20.4757,1914.6292],[-100.6891,20.4743,1901.222],[-100.6915,20.4737,1887.1434],[-100.6936,20.447,2161.2017],[-100.6918,20.4408,2102.072],[-100.6957,20.4406,2120.7485],[-100.6959,20.4389,2077.5601],[-100.694,20.4249,1985.0251],[-100.6891,20.4236,2028.0286],[-100.6884,20.417,2225.5105],[-100.6703,20.4232,2401.8394],[-100.6632,20.4103,2455.5103],[-100.6604,20.4126,2427.9695],[-100.656,20.4068,2467.8579],[-100.6574,20.4036,2494.4009],[-100.6553,20.4031,2490.7539],[-100.6563,20.4017,2504.6577],[-100.6552,20.4016,2507.2358],[-100.6544,20.3844,2274.3992],[-100.6607,20.3853,2273.312],[-100.6559,20.35,2426.7173],[-100.653,20.348,2455.7222],[-100.6431,20.3481,2364.8408],[-100.5931,20.3257,2002.7388],[-100.586,20.3105,2003.2246],[-100.5486,20.3281,2040.355],[-100.5457,20.3312,2041.2036],[-100.5465,20.3326,2019.1394],[-100.5418,20.3346,2070.8403],[-100.5086,20.3324,2097.1697],[-100.4807,20.3548,2114.9697],[-100.4781,20.362,2069.8665],[-100.4791,20.3627,2068.4897],[-100.4776,20.3639,2086.4683],[-100.4779,20.3739,2084.8745],[-100.4688,20.384,2092.5947],[-100.4695,20.3869,2085.4023],[-100.4762,20.3896,2066.6094],[-100.4759,20.4033,2054.6763],[-100.4783,20.4163,2059.0173],[-100.4885,20.4258,2023.7588],[-100.4899,20.4532,2045.1595],[-100.4884,20.4733,1995.6377],[-100.4909,20.4754,1985.7559],[-100.4925,20.4814,2002.1279],[-100.4924,20.4904,1985.0156],[-100.4977,20.4914,1908.8287],[-100.5003,20.5002,1893.5581],[-100.4974,20.5048,1885.4484],[-100.5098,20.5065,1853.0308],[-100.5011,20.5126,1862.099],[-100.5032,20.5197,1871.3018],[-100.5077,20.5185,1853.1361],[-100.5085,20.5262,1839.994],[-100.5048,20.555,1816.063]]]]}
,"properties": {"GID_2": "MEX.11.3_2","GID_0": "MEX","country": "México","GID_1": "MEX.11_1","province": "Guanajuato","NL_NAME_1": "NA","county": "ApaseoelAlto","VARNAME_2": "NA","NL_NAME_2": "NA","TYPE_2": "Município","ENGTYPE_2": "Municipality","CC_2": "NA","HASC_2": "NA","name": "Apaseoel_Alto.county","area_km2": 375.4367,"hist_schema_id": "Elevation0-9000","hist_area_km2": {"1800": 14.537,"1825": 17.656,"1850": 17.4379,"1875": 17.2801,"1900": 18.9697,"1925": 20.8185,"1950": 33.297,"1975": 20.9011,"2000": 33.7466,"2025": 46.5245,"2050": 36.0109,"2075": 26.4925,"2100": 19.9746,"2125": 9.8377,"2150": 6.936,"2175": 5.0876,"2200": 4.9284,"2225": 4.5708,"2250": 4.8888,"2275": 3.3586,"2300": 2.504,"2325": 2.0271,"2350": 1.7289,"2375": 1.6892,"2400": 1.3116,"2425": 1.113,"2450": 1.2918,"2475": 0.3975,"2500": 0.0795,"2525": 0.0397}}}