{"type": "Feature","bbox": [-98.8037,18.7584,-98.6887,18.8619],"geometry": {"type": "MultiPolygon","coordinates": [[[[-98.8021,18.8252,1668.6622],[-98.8024,18.813,1629.5405],[-98.7977,18.805,1594.8534],[-98.7995,18.7983,1580.3187],[-98.8017,18.797,1579.6318],[-98.801,18.7952,1570.9188],[-98.8037,18.7912,1561.3823],[-98.7846,18.7833,1604.9291],[-98.7814,18.7814,1602.6528],[-98.7791,18.7811,1604.2864],[-98.7748,18.7782,1597.1718],[-98.7758,18.7769,1600.9736],[-98.7691,18.7751,1615.4353],[-98.7696,18.7724,1610.3414],[-98.7679,18.772,1593.8569],[-98.7673,18.7743,1603.1249],[-98.767,18.7718,1593.8569],[-98.7631,18.769,1594.7729],[-98.7634,18.767,1576.9309],[-98.7492,18.7628,1581.2354],[-98.7474,18.7584,1562.5613],[-98.7397,18.7669,1599.5796],[-98.7376,18.7732,1615.9698],[-98.7339,18.7781,1629.0381],[-98.7343,18.7832,1650.0227],[-98.7315,18.7854,1667.0815],[-98.7297,18.7914,1691.6854],[-98.732,18.7957,1718.7927],[-98.7278,18.8002,1729.0688],[-98.7279,18.8055,1749.9846],[-98.7236,18.807,1764.0947],[-98.7241,18.8111,1778.2927],[-98.7216,18.8134,1784.2817],[-98.7189,18.8138,1830.8221],[-98.7177,18.8104,1824.0605],[-98.7173,18.8117,1801.5919],[-98.7163,18.8109,1806.269],[-98.7145,18.8148,1817.4794],[-98.7071,18.8218,1830.2668],[-98.7084,18.8233,1837.5287],[-98.7062,18.8247,1850.5494],[-98.7068,18.8273,1861.2908],[-98.7045,18.8282,1867.7239],[-98.7054,18.8324,1893.1616],[-98.7035,18.8338,1893.2526],[-98.705,18.8344,1911.7747],[-98.7029,18.8361,1908.6323],[-98.7027,18.8395,1937.8508],[-98.6999,18.8416,1949.2777],[-98.7008,18.8422,1956.2123],[-98.6973,18.8435,1961.6577],[-98.6974,18.845,1967.8694],[-98.6951,18.8451,1976.5671],[-98.6949,18.8512,2050.2053],[-98.6915,18.8525,2041.9401],[-98.6903,18.8547,2059.0464],[-98.6916,18.8555,2052.3],[-98.6887,18.8581,2069.6333],[-98.701,18.8619,2174.1785],[-98.7043,18.8542,2147.6052],[-98.7154,18.8423,2051.238],[-98.7226,18.8206,1901.9025],[-98.7361,18.8222,1821.7672],[-98.7329,18.835,1888.3286],[-98.7463,18.8378,1939.9095],[-98.7483,18.8332,1852.2174],[-98.7508,18.8321,1854.0422],[-98.753,18.8285,1812.4685],[-98.7728,18.8315,1782.0437],[-98.7762,18.8335,1734.8894],[-98.778,18.8308,1716.071],[-98.7823,18.8291,1704.66],[-98.7814,18.823,1672.5121],[-98.7838,18.8192,1657.9567],[-98.798,18.8257,1678.5374],[-98.7994,18.8297,1690.989],[-98.8014,18.8283,1678.8502],[-98.8021,18.8252,1668.6622]]]]}
,"properties": {"GID_2": "MEX.17.33_2","GID_0": "MEX","country": "México","GID_1": "MEX.17_1","province": "Morelos","NL_NAME_1": "NA","county": "Zacualpan","VARNAME_2": "NA","NL_NAME_2": "NA","TYPE_2": "Município","ENGTYPE_2": "Municipality","CC_2": "NA","HASC_2": "NA","name": "Zacualpan.county","area_km2": 53.78822,"hist_schema_id": "Elevation0-9000","hist_area_km2": {"1550": 0.04015,"1575": 1.30477,"1600": 4.89777,"1625": 6.96506,"1650": 6.58352,"1675": 6.46284,"1700": 4.03422,"1725": 3.432,"1750": 3.29143,"1775": 2.8498,"1800": 2.92999,"1825": 2.649,"1850": 1.78606,"1875": 0.90305,"1900": 0.68229,"1925": 0.70235,"1950": 0.58193,"1975": 0.74245,"2000": 0.68225,"2025": 0.34111,"2050": 0.52169,"2075": 0.52168,"2100": 0.22071,"2125": 0.40129,"2150": 0.2207,"2200": 0.04013}}}