{"type": "Feature","bbox": [-98.1354,16.6435,-97.837,16.8922],"geometry": {"type": "MultiPolygon","coordinates": [[[[-98.1354,16.7574,196.917],[-98.1264,16.7554,300.3691],[-98.0937,16.7304,534.1292],[-98.0794,16.743,211.3736],[-98.0745,16.7382,236.9365],[-98.0672,16.7397,218.5411],[-98.0591,16.7293,244.2163],[-98.058,16.7319,228.0813],[-98.0539,16.7301,239.7889],[-98.055,16.7285,246.2765],[-98.0531,16.724,241.2511],[-98.0513,16.725,238.5395],[-98.0487,16.7217,271.659],[-98.0464,16.722,258.7266],[-98.0457,16.7179,272.9014],[-98.0413,16.716,283.1049],[-98.0411,16.7131,312.0436],[-98.0365,16.7119,308.2825],[-98.0378,16.7098,308.5522],[-98.0352,16.7089,317.0703],[-98.037,16.7062,332.1494],[-98.0278,16.6978,410.9413],[-98.0094,16.6922,344.2372],[-97.9804,16.6792,397.4174],[-97.9764,16.6798,432.856],[-97.9594,16.6617,688.5952],[-97.9457,16.6507,662.6956],[-97.9407,16.6435,666.5085],[-97.9287,16.6606,769.0541],[-97.9082,16.6617,853.1262],[-97.9001,16.6641,1087.3185],[-97.8936,16.6809,1159.0581],[-97.8951,16.687,1181.9034],[-97.8928,16.7116,1344.4155],[-97.8745,16.7166,1261.9935],[-97.8574,16.7186,1081.9597],[-97.8515,16.717,1210.4055],[-97.8467,16.7124,1390.8365],[-97.8396,16.7117,1545.6842],[-97.837,16.7171,1583.504],[-97.8398,16.7282,1537.6224],[-97.8423,16.7299,1533.2271],[-97.8428,16.7352,1496.5116],[-97.8458,16.7404,1486.5502],[-97.8458,16.744,1450.4097],[-97.8512,16.7462,1479.8379],[-97.8548,16.7655,1492.0144],[-97.864,16.7859,1591.2683],[-97.8638,16.8132,1095.8309],[-97.8626,16.8153,1097.0115],[-97.8697,16.8181,1046.6003],[-97.8698,16.8208,1063.3143],[-97.866,16.8206,1077.1935],[-97.8666,16.8268,1147.5276],[-97.8717,16.832,1196.8038],[-97.8806,16.8304,1367.2693],[-97.8746,16.8413,1048.6902],[-97.8716,16.8429,1092.7656],[-97.8705,16.8484,1116.3568],[-97.8717,16.8565,1106.8519],[-97.8736,16.86,1104.2225],[-97.8787,16.8635,1042.5023],[-97.8806,16.862,1021.09],[-97.8895,16.8618,953.9749],[-97.8891,16.8672,866.276],[-97.8913,16.8693,829.4075],[-97.8899,16.8722,825.9565],[-97.893,16.8706,827.5726],[-97.8949,16.8725,866.6964],[-97.8929,16.8775,887.3035],[-97.8985,16.8886,1016.2856],[-97.9032,16.8922,1011.8367],[-97.9139,16.8904,1236.6255],[-97.9124,16.8891,1254.429],[-97.9169,16.8831,1151.8903],[-97.9132,16.8744,1244.7571],[-97.9186,16.8496,1111.0902],[-97.9746,16.877,466.5258],[-98.0039,16.8857,426.3177],[-98.0156,16.8804,487.1005],[-98.0807,16.885,412.3806],[-98.0796,16.8804,344.262],[-98.0756,16.8808,326.4102],[-98.0723,16.8742,361.539],[-98.076,16.8675,318.2634],[-98.0737,16.8631,322.314],[-98.076,16.8586,326.3314],[-98.0746,16.8545,328.9766],[-98.0765,16.8491,335.758],[-98.084,16.8409,324.8263],[-98.0811,16.8334,320.4247],[-98.085,16.8292,292.089],[-98.0854,16.8243,321.8079],[-98.0877,16.8217,288.935],[-98.0864,16.8163,306.8507],[-98.0883,16.814,273.5138],[-98.0938,16.812,263.1928],[-98.0928,16.8065,235.8161],[-98.1001,16.7993,249.5089],[-98.0979,16.7929,273.2178],[-98.1046,16.7852,234.6669],[-98.1044,16.7752,221.4682],[-98.1074,16.7695,271.7834],[-98.1082,16.761,242.2093],[-98.1205,16.7547,199.0166],[-98.1237,16.7557,194.2806],[-98.1246,16.7593,184.6274],[-98.1287,16.7612,184.9147],[-98.1354,16.7574,196.917]]]]}
,"properties": {"GID_2": "MEX.20.450_2","GID_0": "MEX","country": "México","GID_1": "MEX.20_1","province": "Oaxaca","NL_NAME_1": "NA","county": "SantaMaríaZacatepec","VARNAME_2": "NA","NL_NAME_2": "NA","TYPE_2": "Município","ENGTYPE_2": "Municipality","CC_2": "NA","HASC_2": "NA","name": "Santa_María_Zacatepec.county","area_km2": 503.1041,"hist_schema_id": "Elevation0-9000","hist_area_km2": {"175": 0.0203,"200": 0.5279,"225": 2.8221,"250": 5.9487,"275": 13.9678,"300": 33.4957,"325": 42.1201,"350": 31.8876,"375": 21.5137,"400": 14.2883,"425": 12.6245,"450": 12.5235,"475": 10.4738,"500": 11.0223,"525": 11.6919,"550": 12.727,"575": 13.4178,"600": 13.1543,"625": 12.16,"650": 11.5305,"675": 11.2667,"700": 10.8615,"725": 13.6232,"750": 13.0756,"775": 10.6393,"800": 9.0143,"825": 8.7098,"850": 8.1613,"875": 7.6737,"900": 7.2675,"925": 5.9884,"950": 5.1763,"975": 4.7093,"1000": 4.547,"1025": 5.1154,"1050": 5.298,"1075": 5.4804,"1100": 5.9883,"1125": 6.0898,"1150": 7.328,"1175": 6.4754,"1200": 6.3942,"1225": 5.3182,"1250": 4.8514,"1275": 4.9327,"1300": 4.5675,"1325": 4.1613,"1350": 4.06,"1375": 3.6337,"1400": 3.0855,"1425": 2.9638,"1450": 2.8014,"1475": 2.0503,"1500": 1.7459,"1525": 1.0149,"1550": 0.4669,"1575": 0.406,"1600": 0.1624,"1625": 0.0812}}}