{"type": "Feature","bbox": [-103.8951,19.4087,-103.6183,19.5977],"geometry": {"type": "MultiPolygon","coordinates": [[[[-103.6183,19.5125,3865.1655],[-103.6464,19.5136,2747.9854],[-103.6461,19.5201,2822.3748],[-103.643,19.5223,2900.5195],[-103.6436,19.524,2844.2207],[-103.6421,19.525,2903.1128],[-103.6436,19.5277,2888.658],[-103.6423,19.531,2961.2278],[-103.6376,19.5343,3100.0916],[-103.6402,19.5368,2982.1558],[-103.6427,19.5345,2844.584],[-103.6447,19.5353,2793.1057],[-103.6454,19.5335,2804.3149],[-103.6469,19.5355,2724.2671],[-103.6515,19.5368,2562.6016],[-103.6515,19.5349,2545.5618],[-103.6534,19.5362,2475.6924],[-103.6509,19.5393,2553.6848],[-103.6365,19.5411,2976.2051],[-103.6401,19.5466,3111.7559],[-103.6388,19.5532,3297.8733],[-103.6403,19.5543,3268.0132],[-103.6386,19.5549,3319.4102],[-103.6423,19.5612,3222.0288],[-103.6414,19.5634,3184.3235],[-103.6427,19.5671,3080.5669],[-103.6527,19.5682,2825.3335],[-103.6579,19.5709,2651.2798],[-103.6536,19.5728,2736.4658],[-103.6549,19.5743,2731.6416],[-103.6537,19.5755,2741.7275],[-103.6595,19.5775,2657.1562],[-103.6574,19.5804,2727.7917],[-103.6599,19.582,2479.3286],[-103.6607,19.5855,2621.3613],[-103.6585,19.5868,2679.5859],[-103.6622,19.5896,2595.6646],[-103.6607,19.591,2617.9473],[-103.6607,19.5977,2730.6211],[-103.6668,19.5927,2622.8008],[-103.6748,19.5922,2473.7012],[-103.6851,19.595,2242.2678],[-103.6923,19.5946,2157.5854],[-103.7035,19.5895,1982.1075],[-103.7098,19.5893,1986.3345],[-103.7134,19.5909,1924.4021],[-103.7129,19.5893,1960.3397],[-103.7185,19.5867,1803.5242],[-103.7235,19.5888,1752.0681],[-103.7448,19.5901,1645.613],[-103.7522,19.5924,1594.1127],[-103.755,19.5868,1538.061],[-103.7557,19.5887,1572.0515],[-103.7593,19.5898,1520.5809],[-103.7587,19.5865,1545.4674],[-103.7621,19.5852,1539.9454],[-103.7598,19.5806,1528.0083],[-103.7588,19.5813,1528.0083],[-103.7573,19.5793,1459.7052],[-103.7542,19.5694,1559.7332],[-103.7871,19.564,1283.4711],[-103.8171,19.564,1104.9526],[-103.8304,19.5623,1040.8042],[-103.8359,19.5637,1006.8251],[-103.8677,19.5467,849.4171],[-103.8675,19.5451,868.6995],[-103.8607,19.5451,893.713],[-103.8606,19.5438,893.713],[-103.8669,19.5422,874.4052],[-103.8758,19.5426,840.7101],[-103.8822,19.5373,784.0874],[-103.8866,19.5419,743.2364],[-103.892,19.5426,695.7892],[-103.8951,19.5409,667.9173],[-103.8923,19.5367,696.9561],[-103.8904,19.5279,671.2219],[-103.8874,19.526,664.2542],[-103.8813,19.5158,672.0342],[-103.8801,19.5057,663.9208],[-103.8735,19.5053,650.5571],[-103.8629,19.5015,648.363],[-103.8631,19.4996,673.3027],[-103.8679,19.4976,647.5322],[-103.865,19.4898,645.1943],[-103.8588,19.4873,640.8255],[-103.8567,19.4882,687.7374],[-103.8555,19.4913,639.8267],[-103.8584,19.4946,637.6627],[-103.8586,19.5008,635.4156],[-103.8569,19.504,644.0302],[-103.8548,19.5047,634.7291],[-103.8516,19.5014,645.4726],[-103.8477,19.5004,630.764],[-103.8476,19.491,640.8585],[-103.8424,19.4881,636.2365],[-103.8387,19.4832,637.4517],[-103.8296,19.4796,623.9844],[-103.8317,19.4748,613.3906],[-103.8299,19.4726,630.2205],[-103.8313,19.4681,613.0497],[-103.8306,19.4611,616.2924],[-103.8383,19.4455,607.0447],[-103.8351,19.4424,618.8472],[-103.8354,19.4401,679.0653],[-103.824,19.4376,623.4815],[-103.828,19.4327,584.7452],[-103.8235,19.4272,592.1406],[-103.8221,19.4225,591.6633],[-103.8234,19.4169,569.6593],[-103.8193,19.4087,569.8887],[-103.8177,19.4124,635.7101],[-103.8092,19.4154,698.8322],[-103.8013,19.422,698.7478],[-103.7981,19.4218,741.1243],[-103.7927,19.4275,762.1115],[-103.7789,19.431,809.1556],[-103.7744,19.4305,838.7658],[-103.7714,19.4338,908.7078],[-103.7678,19.4346,875.999],[-103.7507,19.4457,973.2319],[-103.7353,19.4434,1051.3308],[-103.7254,19.4512,1115.5703],[-103.7183,19.4535,1162.5834],[-103.7162,19.457,1169.6123],[-103.7158,19.467,1231.4814],[-103.7083,19.4699,1272.884],[-103.7042,19.4771,1334.328],[-103.6989,19.4821,1418.8319],[-103.6988,19.4848,1429.3156],[-103.6934,19.4866,1444.702],[-103.69,19.4924,1521.6996],[-103.6848,19.4942,1583.217],[-103.6828,19.4931,1570.7023],[-103.6804,19.4959,1599.0748],[-103.6757,19.4968,1713.3263],[-103.6649,19.5026,1904.3234],[-103.6515,19.501,2222.2329],[-103.6183,19.5125,3865.1655]]]]}
,"properties": {"GID_2": "MEX.14.122_2","GID_0": "MEX","country": "México","GID_1": "MEX.14_1","province": "Jalisco","NL_NAME_1": "NA","county": "ZapotitlándeVadillo","VARNAME_2": "NA","NL_NAME_2": "NA","TYPE_2": "Município","ENGTYPE_2": "Municipality","CC_2": "NA","HASC_2": "NA","name": "Zapotitlánde_Vadillo.county","area_km2": 306.6568,"hist_schema_id": "Elevation0-9000","hist_area_km2": {"550": 0.04,"575": 0.4199,"600": 0.7797,"625": 1.5593,"650": 2.5785,"675": 2.7386,"700": 2.8385,"725": 2.9185,"750": 3.758,"775": 3.8581,"800": 5.8167,"825": 8.4944,"850": 8.2748,"875": 7.455,"900": 7.7947,"925": 7.4947,"950": 7.1747,"975": 7.5746,"1000": 7.5546,"1025": 7.3145,"1050": 7.0548,"1075": 6.5152,"1100": 6.7551,"1125": 7.0748,"1150": 6.0354,"1175": 6.675,"1200": 6.2755,"1225": 6.2155,"1250": 6.5952,"1275": 6.0556,"1300": 6.3552,"1325": 5.5358,"1350": 5.1959,"1375": 4.8562,"1400": 4.8562,"1425": 4.2364,"1450": 4.2565,"1475": 3.9166,"1500": 3.9366,"1525": 4.6758,"1550": 4.0762,"1575": 4.6757,"1600": 4.1561,"1625": 3.8364,"1650": 3.7364,"1675": 3.5566,"1700": 3.1569,"1725": 2.9771,"1750": 2.8773,"1775": 3.0371,"1800": 2.7174,"1825": 2.6775,"1850": 2.2778,"1875": 2.3577,"1900": 1.8782,"1925": 2.2178,"1950": 2.098,"1975": 2.1778,"2000": 1.8782,"2025": 1.8581,"2050": 1.6184,"2075": 1.5585,"2100": 1.4186,"2125": 1.4385,"2150": 1.5784,"2175": 1.5384,"2200": 1.4785,"2225": 1.4585,"2250": 1.2787,"2275": 1.2987,"2300": 1.2188,"2325": 1.2387,"2350": 1.2387,"2375": 1.3187,"2400": 1.0989,"2425": 1.0989,"2450": 1.0989,"2475": 1.2188,"2500": 0.8991,"2525": 0.8791,"2550": 0.979,"2575": 0.7393,"2600": 0.7193,"2625": 0.5994,"2650": 0.7592,"2675": 0.6194,"2700": 0.7992,"2725": 0.7992,"2750": 0.4995,"2775": 0.6394,"2800": 0.5395,"2825": 0.3597,"2850": 0.4396,"2875": 0.4595,"2900": 0.3996,"2925": 0.3597,"2950": 0.2997,"2975": 0.3596,"3000": 0.3197,"3025": 0.2398,"3050": 0.2398,"3075": 0.1998,"3100": 0.2598,"3125": 0.2797,"3150": 0.1598,"3175": 0.0799,"3200": 0.1598,"3225": 0.0999,"3250": 0.1199,"3275": 0.2598,"3300": 0.04,"3400": 0.06,"3600": 0.04,"3725": 0.02}}}