{"type":"Feature","properties":{"GID_2":"MEX.20.123_2","GID_0":"MEX","country":"México","GID_1":"MEX.20_1","province":"Oaxaca","NL_NAME_1":"NA","county":"SanBartoloméYucuañe","VARNAME_2":"NA","NL_NAME_2":"NA","TYPE_2":"Município","ENGTYPE_2":"Municipality","CC_2":"NA","HASC_2":"NA","name":"San_Bartolomé_Yucuañe.county"},
"geometry":{"type": "MultiPolygon","coordinates": [[[[-97.4917,17.2349,1771.1624],[-97.4828,17.2299,1737.4635],[-97.4796,17.2073,2062.3877],[-97.4831,17.1844,2399.269],[-97.482,17.1643,1651.9429],[-97.4785,17.1685,1628.7344],[-97.4724,17.1681,1594.9598],[-97.4709,17.1665,1600.5061],[-97.4695,17.1698,1585.2629],[-97.4572,17.1747,1545.4512],[-97.4453,17.1629,1509.8589],[-97.4463,17.1605,1534.9677],[-97.4442,17.1589,1489.9651],[-97.4443,17.1565,1523.6854],[-97.44,17.1487,1519.3508],[-97.4411,17.1457,1535.689],[-97.4404,17.1398,1523.5037],[-97.4428,17.1341,1455.6371],[-97.4357,17.134,1772.8889],[-97.4227,17.1467,1621.9773],[-97.431,17.1851,1745.8708],[-97.4284,17.1891,1762.0081],[-97.4321,17.2011,1785.0787],[-97.4308,17.214,1923.5811],[-97.4268,17.2257,2091.668],[-97.4247,17.2425,2284.1506],[-97.4256,17.2472,2319.272],[-97.4206,17.2446,2398.4844],[-97.4149,17.2919,2955.5054],[-97.4481,17.282,2258.6335],[-97.4958,17.2705,1865.3416],[-97.4899,17.2655,1833.2588],[-97.4902,17.2413,1856.2401],[-97.4917,17.2349,1771.1624]]]]}}