{"type":"Feature","properties":{"GID_2":"MEX.20.440_2","GID_0":"MEX","country":"México","GID_1":"MEX.20_1","province":"Oaxaca","NL_NAME_1":"NA","county":"SantaMaríaTlahuitoltepec","VARNAME_2":"NA","NL_NAME_2":"NA","TYPE_2":"Município","ENGTYPE_2":"Municipality","CC_2":"NA","HASC_2":"NA","name":"Santa_María_Tlahuitoltepec.county"},
"geometry":{"type": "MultiPolygon","coordinates": [[[[-96.1599,17.123,989.4731],[-96.1583,17.1184,1038.5608],[-96.1588,17.1119,1095.0447],[-96.1643,17.1096,1077.5005],[-96.1672,17.1061,1071.1887],[-96.1688,17.0984,1084.5519],[-96.1644,17.0964,1107.7893],[-96.1624,17.09,1196.9637],[-96.1554,17.0832,1222.4084],[-96.1533,17.0846,1227.496],[-96.1492,17.0823,1279.7576],[-96.1334,17.0843,1469.5027],[-96.1311,17.0829,1466.7222],[-96.1288,17.0789,1479.8776],[-96.1292,17.0731,1543.0117],[-96.1252,17.071,1538.0796],[-96.1236,17.0671,1557.5868],[-96.1204,17.0644,1558.8635],[-96.1132,17.0648,1566.3601],[-96.1149,17.0757,1854.6155],[-96.1096,17.0751,1811.8523],[-96.1052,17.078,1971.8687],[-96.0959,17.0764,2032.9668],[-96.0966,17.0702,1909.101],[-96.0916,17.0673,1731.4866],[-96.0872,17.0738,1876.9454],[-96.0848,17.0719,1946.7494],[-96.0833,17.0671,1875.9175],[-96.0812,17.0715,1915.9982],[-96.0752,17.0734,2183.1643],[-96.0694,17.0706,1907.6414],[-96.0673,17.0709,1955.692],[-96.0671,17.0696,1878.3781],[-96.0613,17.0708,1868.8085],[-96.0602,17.0687,1809.3063],[-96.0555,17.07,1777.28],[-96.0547,17.0686,1868.8859],[-96.051,17.0683,1913.5823],[-96.0467,17.0704,1826.6793],[-96.0383,17.0679,2077.3357],[-96.0382,17.0657,1990.9229],[-96.0347,17.0636,2064.0168],[-96.0311,17.0647,2193.3447],[-96.028,17.068,2365.4888],[-96.0161,17.0681,2692.033],[-96.0149,17.0666,2699.168],[-96.0136,17.0684,2733.1978],[-96.0088,17.0666,2755.8264],[-96.0089,17.0719,2704.6929],[-96.0034,17.0778,2753.585],[-96.0041,17.0965,2767.5366],[-95.9937,17.1054,2795.6641],[-95.9821,17.1072,2295.9641],[-95.9778,17.1098,2132.7087],[-95.9698,17.1068,1940.9209],[-95.9678,17.1044,1871.4463],[-95.9641,17.1086,2034.2701],[-95.964,17.1138,2443.3433],[-95.9687,17.1196,2607.752],[-95.9701,17.1243,2730.0193],[-95.9788,17.1291,2610.2095],[-95.963,17.134,2441.616],[-95.9627,17.1372,2263.2834],[-95.9682,17.1582,2079.6665],[-95.9755,17.1689,2165.8357],[-95.9792,17.178,1994.0997],[-95.9806,17.1887,2249.5898],[-95.9979,17.174,3117.5537],[-96.0108,17.1438,3204.6392],[-96.0387,17.1653,2215.7041],[-96.0566,17.1611,2634.1995],[-96.0622,17.165,2742.1311],[-96.0711,17.1553,2529.3801],[-96.0753,17.1532,2496.239],[-96.0741,17.1517,2406.665],[-96.0773,17.1453,2233.8667],[-96.0767,17.1396,2042.6559],[-96.0711,17.1316,1637.7446],[-96.0746,17.1304,1625.7993],[-96.0769,17.1313,1644.4121],[-96.08,17.1282,1565.1299],[-96.0832,17.1286,1513.2262],[-96.0842,17.1257,1505.1212],[-96.0919,17.1193,1442.5459],[-96.0949,17.1206,1598.1602],[-96.0994,17.1192,1406.188],[-96.1061,17.1213,1297.2222],[-96.112799999999993,17.1192,1244.9297],[-96.1157,17.12,1232.1573],[-96.1184,17.1234,1191.7905],[-96.1258,17.1204,1169.9089],[-96.1259,17.1217,1199.7007],[-96.136,17.1245,1100.3756],[-96.1453,17.1247,1169.373],[-96.1521,17.1231,1026.6583],[-96.156,17.1255,1111.7822],[-96.1599,17.123,989.4731]]]]}}