{"type": "Feature","bbox": [-103.6908,22.0971,-103.2408,22.6628],"geometry": {"type": "MultiPolygon","coordinates": [[[[-103.2991,22.2491,2228.2246],[-103.2947,22.2544,2238.3823],[-103.2968,22.2571,2222.3838],[-103.3139,22.2587,2149.3472],[-103.3053,22.2657,2194.4343],[-103.3049,22.2701,2196.7368],[-103.3068,22.2732,2196.6836],[-103.306,22.2763,2201.9707],[-103.3078,22.2817,2207.9438],[-103.3004,22.2962,2241.501],[-103.2978,22.2983,2253.4277],[-103.3069,22.3063,2254.3442],[-103.3277,22.3074,2188.7458],[-103.3384,22.2875,2145.1614],[-103.3493,22.2834,2089.6719],[-103.3542,22.2795,2056.8455],[-103.3559,22.2801,2056.8064],[-103.3528,22.2857,2066.5281],[-103.3501,22.3075,2155.3047],[-103.3638,22.3145,2086.4807],[-103.3596,22.3206,2128.1174],[-103.3494,22.3259,2120.8713],[-103.3472,22.331,2144.7534],[-103.343,22.3351,2162.9258],[-103.3626,22.3364,2187.7737],[-103.3666,22.3501,2054.8809],[-103.3647,22.3695,2037.1686],[-103.3599,22.3713,2046.0392],[-103.3531,22.3694,2056.4377],[-103.3474,22.3755,2073.8213],[-103.3481,22.3795,2089.5249],[-103.3396,22.3855,2114.8647],[-103.3293,22.3845,2142.5894],[-103.3255,22.389,2178.604],[-103.3234,22.3891,2160.6421],[-103.3146,22.4049,2220.7271],[-103.3095,22.3983,2271.4521],[-103.3092,22.392,2239.3835],[-103.3054,22.3904,2189.6423],[-103.3049,22.3961,2178.6362],[-103.3027,22.3981,2186.5889],[-103.301,22.4041,2206.9209],[-103.3023,22.4105,2221.1052],[-103.2985,22.4149,2213.1667],[-103.295,22.4154,2243.5557],[-103.2946,22.4167,2216.4348],[-103.2978,22.4184,2233.0129],[-103.2944,22.4306,2244.9536],[-103.3002,22.4398,2284.6633],[-103.2959,22.4546,2287.5098],[-103.2992,22.4614,2316.4983],[-103.2981,22.4677,2364.0159],[-103.2915,22.4741,2410.1772],[-103.2915,22.479,2438.5688],[-103.2866,22.4864,2451.8074],[-103.2848,22.4862,2459.4661],[-103.2814,22.4902,2484.7639],[-103.2808,22.495,2493.1548],[-103.2781,22.4987,2502.0386],[-103.2794,22.5054,2525.4954],[-103.2765,22.5146,2606.7554],[-103.2693,22.5249,2708.2905],[-103.2687,22.5302,2736.8586],[-103.267,22.5305,2730.0103],[-103.2651,22.5274,2715.5393],[-103.2626,22.5277,2629.8223],[-103.2542,22.5355,2637.8394],[-103.2574,22.5372,2618.8462],[-103.2552,22.5414,2535.0369],[-103.2508,22.5433,2406.9607],[-103.2512,22.5464,2485.5],[-103.2553,22.5474,2565.123],[-103.2541,22.5487,2503.189],[-103.2572,22.5521,2673.6516],[-103.2565,22.5564,2657.2153],[-103.2499,22.5594,2626.8123],[-103.2464,22.5657,2665.3269],[-103.2432,22.5674,2652.866],[-103.2425,22.573,2545.2153],[-103.2408,22.5737,2595.4658],[-103.2526,22.5779,2562.6309],[-103.2524,22.5793,2598.4417],[-103.2511,22.583,2546.7864],[-103.2476,22.5846,2452.1543],[-103.2472,22.5901,2301.4309],[-103.2409,22.5961,2230.4202],[-103.2413,22.5975,2245.7158],[-103.2501,22.5996,2307.5205],[-103.2499,22.6012,2366.9382],[-103.2614,22.606,2512.2197],[-103.2662,22.6057,2583.5762],[-103.2699,22.6076,2583.7559],[-103.2699,22.6097,2619.5261],[-103.2735,22.6074,2681.822],[-103.2756,22.6117,2767.3254],[-103.2802,22.6139,2736.6091],[-103.2843,22.6218,2776.5283],[-103.2871,22.6224,2835.437],[-103.2896,22.6198,2843.4055],[-103.3009,22.6239,2789.8708],[-103.3052,22.6239,2762.3818],[-103.3008,22.6266,2794.082],[-103.3007,22.6281,2807.6614],[-103.3023,22.628,2805.0898],[-103.2999,22.6315,2770.5872],[-103.305,22.635,2784.1196],[-103.3016,22.6393,2746.4324],[-103.3056,22.6437,2680.958],[-103.3157,22.6419,2451.6331],[-103.3281,22.6482,2254.1274],[-103.3406,22.6491,2194.8333],[-103.3496,22.6455,2147.7305],[-103.3583,22.6385,2118.3503],[-103.3633,22.6391,2088.3906],[-103.3675,22.6425,2093.1865],[-103.3709,22.643,2068.03],[-103.3707,22.6447,2050.3403],[-103.3792,22.653199999999998,2021.1527],[-103.3837,22.6544,2027.6833],[-103.384,22.6616,2129.4761],[-103.3925,22.6628,2100.0085],[-103.4039,22.6523,2070.8989],[-103.4072,22.6513,2016.0558],[-103.409,22.6471,1996.0261],[-103.4119,22.6472,1995.738],[-103.4166,22.644,1992.6299],[-103.4127,22.6373,2014.6171],[-103.4172,22.6347,1986.5179],[-103.4151,22.6287,1942.5862],[-103.4213,22.6256,1970.7233],[-103.419,22.6242,1967.3611],[-103.4205,22.6217,1963.1387],[-103.4277,22.6233,1950.8754],[-103.4365,22.6372,2172.4346],[-103.4388,22.6367,2153.2163],[-103.4363,22.6295,2039.5159],[-103.4394,22.6296,2056.4861],[-103.4405,22.6346,2153.7849],[-103.4429,22.6292,2092.7705],[-103.445,22.6135,2006.6885],[-103.4589,22.6097,1948.2058],[-103.4609,22.6063,1947.6615],[-103.463,22.6057,1948.7161],[-103.4619,22.5978,1953.297],[-103.4638,22.5948,1955.6932],[-103.4665,22.5944,1966.9926],[-103.4675,22.5866,1917.5308],[-103.4663,22.5833,1919.363],[-103.4683,22.5807,1877.9814],[-103.4668,22.5777,1865.3577],[-103.4692,22.5771,1883.7322],[-103.467,22.5757,1869.8817],[-103.4682,22.567,1881.1119],[-103.4762,22.5657,1865.1564],[-103.4757,22.5613,1852.2678],[-103.4815,22.5601,1844.8099],[-103.4835,22.5555,1842.1395],[-103.49,22.5553,1852.944],[-103.4957,22.5572,1879.0981],[-103.4968,22.5542,1831.106],[-103.4959,22.5521,1831.0114],[-103.5009,22.5477,1824.8907],[-103.502,22.5487,1897.4686],[-103.5007,22.553,1853.0995],[-103.5027,22.5552,1817.6737],[-103.5184,22.5561,1813.8334],[-103.5181,22.5577,1806.5192],[-103.5198,22.5584,1806.5192],[-103.5227,22.5564,1815.488],[-103.5205,22.5556,1803.1104],[-103.5193,22.5527,1799.8229],[-103.5211,22.5525,1802.5824],[-103.5325,22.5594,1807.7922],[-103.5375,22.5705,1955.5002],[-103.5417,22.5683,1991.9729],[-103.5526,22.5667,1920.851],[-103.56,22.5606,1858.5032],[-103.5626,22.5649,1902.9958],[-103.5649,22.5651,1910.5093],[-103.5703,22.5698,1862.4818],[-103.5746,22.5688,1843.1238],[-103.5836,22.5613,1737.0552],[-103.586,22.5633,1703.3647],[-103.5889,22.5627,1711.0671],[-103.5914,22.5653,1700.8883],[-103.5941,22.5606,1701.4572],[-103.5994,22.5608,1691.6323],[-103.6012,22.563,1687.9318],[-103.604,22.5614,1729.9658],[-103.6095,22.5624,1661.693],[-103.6102,22.5595,1675.1775],[-103.6028,22.5568,1828.2179],[-103.6021,22.5519,1846.4894],[-103.6045,22.5515,1859.1682],[-103.606,22.5457,1898.9539],[-103.603,22.5435,1978.7769],[-103.6048,22.5384,2020.3959],[-103.6024,22.5357,2018.8064],[-103.5993,22.5264,2034.3083],[-103.5846,22.525,1996.3893],[-103.5839,22.5196,1942.0604],[-103.5885,22.5144,1906.8569],[-103.589,22.5081,1868.0354],[-103.5946,22.5054,1852.8793],[-103.589,22.5016,1890.6306],[-103.5863,22.502,1879.2374],[-103.5834,22.4987,1917.649],[-103.5802,22.4987,1906.3558],[-103.58,22.4933,1968.4335],[-103.5787,22.4923,1978.6121],[-103.5805,22.4892,1937.358],[-103.5825,22.4888,1965.4943],[-103.5799,22.4805,1999.1357],[-103.5806,22.4774,2000.5427],[-103.5736,22.4731,2026.0262],[-103.5708,22.4692,2105.2834],[-103.5721,22.4667,2079.9121],[-103.5739,22.4666,2117.0156],[-103.5726,22.4645,2097.6821],[-103.5739,22.4611,2115.0371],[-103.5699,22.4556,2159.208],[-103.5707,22.4531,2180.1562],[-103.5689,22.4463,2218.123],[-103.5722,22.4411,2261.1689],[-103.5725,22.4375,2218.1243],[-103.5665,22.437,2180.7185],[-103.5641,22.4308,2177.5801],[-103.5592,22.4279,2151.8721],[-103.5607,22.4228,2186.6494],[-103.571,22.4182,2223.4941],[-103.5784,22.4105,2305.6079],[-103.5855,22.4094,2347.8689],[-103.5896,22.407,2392.3425],[-103.594,22.4072,2393.1462],[-103.5944,22.3946,2437.2454],[-103.5928,22.3893,2445.4609],[-103.5959,22.3832,2454.0171],[-103.5976,22.3745,2458.1326],[-103.6003,22.3703,2457.1753],[-103.6028,22.3609,2442.5569],[-103.6098,22.3615,2453.7231],[-103.6107,22.3598,2458.0461],[-103.6095,22.3527,2457.0032],[-103.6026,22.3463,2436.4299],[-103.6048,22.3401,2422.1367],[-103.6067,22.3383,2444.3831],[-103.612,22.338,2451.3867],[-103.6214,22.340699999999998,2455.2927],[-103.6274,22.3404,2359.9946],[-103.635,22.3435,2314.4087],[-103.6421,22.3409,2052.1812],[-103.6383,22.3372,2125.0972],[-103.6382,22.3352,2180.1096],[-103.645,22.3178,2455.7437],[-103.6447,22.315,2470.7749],[-103.6378,22.2952,2429.5737],[-103.6285,22.294,2419.7527],[-103.6256,22.2881,2387.3591],[-103.6235,22.2875,2373.0815],[-103.6192,22.2818,2355.5488],[-103.6107,22.279,2354.7966],[-103.6077,22.2797,2346.8491],[-103.6009,22.278199999999998,2318.3311],[-103.5949,22.2731,2300.876],[-103.6028,22.27,2297.9341],[-103.6174,22.2511,2290.6548],[-103.6309,22.2389,2311.4583],[-103.636,22.2283,2281.656],[-103.6364,22.221,2285.2229],[-103.6393,22.2182,2221.282],[-103.6411,22.2098,2090.5117],[-103.6477,22.2031,1862.4027],[-103.6472,22.2016,1814.9419],[-103.6491,22.2021,1862.4027],[-103.649,22.1961,1787.0195],[-103.6525,22.1872,1707.9186],[-103.6561,22.1861,1678.7693],[-103.6558,22.1848,1666.163],[-103.6578,22.1838,1765.2889],[-103.6566,22.1813,1656.8994],[-103.6589,22.1752,1606.5204],[-103.6545,22.1719,1783.4143],[-103.661,22.167,1666.4487],[-103.6761,22.1488,1550.8141],[-103.6775,22.1413,1437.4875],[-103.682,22.1352,1388.9897],[-103.6881,22.1332,1206.4696],[-103.6903,22.1301,1144.8514],[-103.6908,22.1283,1118.9379],[-103.6873,22.1255,1112.3751],[-103.6802,22.1237,1119.3457],[-103.6774,22.1187,1150.2095],[-103.6783,22.1154,1171.3643],[-103.6859,22.1141,1161.9625],[-103.6847,22.1099,1231.7786],[-103.6701,22.1085,1163.8776],[-103.6623,22.103,1180.0961],[-103.6539,22.104,1171.2821],[-103.6504,22.1006,1201.2544],[-103.6451,22.1014,1191.2576],[-103.6361,22.1064,1221.5042],[-103.6285,22.1063,1249.0233],[-103.6262,22.1026,1277.5647],[-103.6204,22.0985,1269.5322],[-103.6109,22.0971,1237.8954],[-103.6047,22.0979,1222.3719],[-103.6048,22.1016,1257.469],[-103.6011,22.1034,1278.2897],[-103.594,22.1116,1245.5969],[-103.5853,22.1094,1265.5681],[-103.5811,22.1049,1258.2997],[-103.5774,22.12,1324.8142],[-103.5797,22.1226,1278.3135],[-103.58,22.1268,1294.9673],[-103.5761,22.1309,1293.304],[-103.5697,22.1319,1296.2656],[-103.5669,22.1361,1278.5997],[-103.5592,22.1366,1281.772],[-103.5548,22.1343,1288.2579],[-103.5502,22.1357,1310.8979],[-103.5507,22.1306,1327.277],[-103.5453,22.1269,1328.803],[-103.5451,22.1227,1377.1423],[-103.5427,22.1206,1309.1836],[-103.534,22.1211,1314.444],[-103.5306,22.1268,1316.0422],[-103.5146,22.1291,1333.3451],[-103.5138,22.1275,1353.5281],[-103.5176,22.1217,1352.7069],[-103.5179,22.1172,1430.0984],[-103.5159,22.1099,1386.3306],[-103.5118,22.1075,1376.7041],[-103.507,22.1088,1570.8816],[-103.5004,22.1054,1467.8901],[-103.4968,22.1068,1483.9224],[-103.4956,22.1105,1389.6853],[-103.4861,22.1065,1418.1367],[-103.4849,22.1078,1423.2358],[-103.4861,22.1106,1381.7777],[-103.4829,22.1113,1389.1526],[-103.4793,22.1148,1396.2915],[-103.4733,22.1112,1423.0786],[-103.4732,22.1055,1387.1106],[-103.4665,22.1073,1439.5325],[-103.4592,22.1059,1443.2543],[-103.4593,22.1087,1412.9359],[-103.4617,22.1111,1416.9603],[-103.4549,22.1153,1439.7791],[-103.4504,22.1142,1408.9834],[-103.4467,22.1153,1417.1912],[-103.4456,22.1135,1450.2671],[-103.4387,22.1183,1485.4286],[-103.4394,22.1219,1445.6173],[-103.4373,22.1255,1532.877],[-103.4383,22.1289,1532.9657],[-103.4363,22.1269,1532.877],[-103.4346,22.1329,1525.4257],[-103.4341,22.1308,1520.3293],[-103.4336,22.1328,1525.4257],[-103.4321,22.1316,1536.9694],[-103.4322,22.1345,1567.2397],[-103.4305,22.1346,1594.8521],[-103.4282,22.1393,1562.7368],[-103.4259,22.1394,1552.7562],[-103.4288,22.1483,1602.6555],[-103.427,22.1545,1628.5667],[-103.4292,22.1622,1687.4441],[-103.4251,22.1703,1869.2902],[-103.4253,22.1765,1885.3744],[-103.4197,22.1775,1893.1406],[-103.4253,22.1826,1877.9465],[-103.4305,22.1825,1881.4735],[-103.4313,22.1873,1895.4365],[-103.4341,22.1908,1767.1455],[-103.4239,22.1892,1863.7535],[-103.423,22.1913,1836.0331],[-103.4217,22.1895,1890.2175],[-103.4172,22.1905,1825.2935],[-103.409,22.2154,1931.5845],[-103.3857,22.2125,1936.71],[-103.3844,22.2137,1936.71],[-103.3852,22.2158,1940.7849],[-103.3802,22.219,1949.4281],[-103.384,22.222,1956.1903],[-103.383,22.227,1967.8887],[-103.3697,22.2313,1988.6049],[-103.3618,22.2392,2029.2463],[-103.3553,22.2409,2054.0271],[-103.3497,22.2392,2111.2717],[-103.3377,22.2452,2158.5759],[-103.3315,22.241,2171.1465],[-103.3283,22.2401,2173.4897],[-103.3265,22.2417,2177.7485],[-103.3119,22.2333,2184.7131],[-103.2991,22.2491,2228.2246]]]]}
,"properties": {"GID_2": "MEX.32.31_2","GID_0": "MEX","country": "México","GID_1": "MEX.32_1","province": "Zacatecas","NL_NAME_1": "NA","county": "MonteEscobedo","VARNAME_2": "NA","NL_NAME_2": "NA","TYPE_2": "Município","ENGTYPE_2": "Municipality","CC_2": "NA","HASC_2": "NA","name": "Monte_Escobedo.county","area_km2": 1603.859,"hist_schema_id": "Elevation0-9000","hist_area_km2": {"1100": 0.137,"1125": 0.314,"1150": 0.275,"1175": 0.314,"1200": 0.471,"1225": 1.061,"1250": 1.139,"1275": 1.709,"1300": 1.925,"1325": 2.062,"1350": 2.161,"1375": 3.143,"1400": 3.575,"1425": 3.948,"1450": 4.832,"1475": 5.597,"1500": 5.911,"1525": 6.343,"1550": 7.777,"1575": 8.052,"1600": 9.564,"1625": 11.468,"1650": 11.193,"1675": 11.841,"1700": 14.138,"1725": 14.53,"1750": 14.706,"1775": 14.173,"1800": 13.68,"1825": 16.621,"1850": 18.875,"1875": 25.035,"1900": 44.004,"1925": 73.614,"1950": 97.441,"1975": 68.844,"2000": 61.004,"2025": 53.142,"2050": 57.807,"2075": 63.783,"2100": 74.112,"2125": 75.028,"2150": 70.382,"2175": 90.254,"2200": 83.04,"2225": 55.815,"2250": 45.427,"2275": 46.575,"2300": 40.006,"2325": 29.529,"2350": 23.765,"2375": 24.845,"2400": 22.259,"2425": 26.807,"2450": 28.216,"2475": 16.689,"2500": 14.511,"2525": 11.69,"2550": 10.357,"2575": 8.732,"2600": 7.89,"2625": 7.068,"2650": 6.656,"2675": 5.951,"2700": 4.992,"2725": 6.128,"2750": 5.796,"2775": 3.485,"2800": 1.312,"2825": 0.196,"2850": 0.078,"2875": 0.059}}}