{"type": "Feature","bbox": [-106.69,25.0256,-105.4379,25.8224],"geometry": {"type": "MultiPolygon","coordinates": [[[[-106.6528,25.5588,836.4202],[-106.6517,25.5536,901.4552],[-106.6527,25.5493,782.9426],[-106.6455,25.5317,923.2745],[-106.6478,25.5249,775.3507],[-106.6456,25.5208,928.189],[-106.6474,25.516,795.6515],[-106.6426,25.5118,812.1339],[-106.6452,25.5089,770.9504],[-106.645,25.5038,752.4344],[-106.6483,25.4976,888.3397],[-106.6597,25.493,701.405],[-106.6631,25.4838,690.3046],[-106.6682,25.481,692.6266],[-106.6698,25.4778,696.0851],[-106.6694,25.4717,679.0942],[-106.6752,25.4681,680.4272],[-106.6767,25.4601,730.8612],[-106.6796,25.4579,716.9478],[-106.6823,25.4523,709.4254],[-106.6887,25.4476,660.7346],[-106.69,25.4443,657.8597],[-106.6788,25.4352,636.5365],[-106.6808,25.4299,653.2806],[-106.6767,25.4253,634.9114],[-106.6787,25.4158,622.1485],[-106.6756,25.4144,610.8494],[-106.6751,25.4113,614.3044],[-106.6799,25.4066,607.3874],[-106.6746,25.4016,608.3558],[-106.6751,25.3986,602.2901],[-106.6698,25.4017,613.0763],[-106.6676,25.4015,615.0641],[-106.6642,25.3978,617.0964],[-106.6601,25.3987,631.0603],[-106.6522,25.3964,621.9245],[-106.6451,25.3984,658.5909],[-106.6381,25.3944,661.4886],[-106.6237,25.4006,674.0735],[-106.6213,25.3981,663.4552],[-106.6173,25.398,670.925],[-106.6148,25.4011,730.6547],[-106.6086,25.3996,692.6],[-106.602,25.4017,691.4849],[-106.598,25.4002,714.6002],[-106.5931,25.4018,719.2082],[-106.5837,25.3979,729.5817],[-106.5758,25.3989,742.8625],[-106.5736,25.3912,788.793],[-106.5602,25.3837,838.7919],[-106.5546,25.3893,790.1995],[-106.5515,25.3899,766.0008],[-106.5511,25.3954,779.2978],[-106.5483,25.397,795.2164],[-106.5457,25.3968,787.0586],[-106.5435,25.393,788.3285],[-106.539,25.3915,782.8018],[-106.5368,25.3882,804.0402],[-106.534,25.3905,841.2018],[-106.5277,25.3912,827.1029],[-106.5261,25.39,807.3624],[-106.528,25.3841,798.4966],[-106.5231,25.3853,803.4391],[-106.5155,25.3786,812.6829],[-106.5084,25.3776,814.0087],[-106.5016,25.373,843.3871],[-106.4961,25.3745,843.0547],[-106.4816,25.3676,862.0463],[-106.473,25.3672,864.7957],[-106.4679,25.3647,871.7811],[-106.465,25.3658,871.0109],[-106.4626,25.3627,878.564],[-106.4565,25.3615,953.8239],[-106.4538,25.3576,953.9841],[-106.4451,25.3544,996.4434],[-106.4409,25.35,979.1394],[-106.4363,25.3324,971.3308],[-106.4109,25.3243,1054.8756],[-106.4007,25.3244,1066.704],[-106.3967,25.3224,1102.9204],[-106.3841,25.3067,1139.2902],[-106.3671,25.2985,1172.2798],[-106.3538,25.2974,1224.6948],[-106.352,25.303,1235.9412],[-106.3473,25.3042,1237.3291],[-106.3411,25.3031,1347.6049],[-106.3395,25.2988,1377.9269],[-106.3317,25.3008,1380.533],[-106.3245,25.2958,1477.4155],[-106.3172,25.3034,1412.9948],[-106.3113,25.3,1679.5778],[-106.3092,25.3031,1549.693],[-106.3045,25.3035,1490.8142],[-106.2927,25.2998,1508.4176],[-106.2898,25.3013,1583.1996],[-106.2882,25.3051,1540.5054],[-106.2892,25.3085,1594.0729],[-106.2826,25.3136,1650.583],[-106.2777,25.312,1739.3718],[-106.2741,25.3142,1720.7352],[-106.2659,25.3147,1680.332],[-106.2617,25.3165,1708.663],[-106.2526,25.3165,1732.5193],[-106.2412,25.3137,1828.9744],[-106.2361,25.3155,1958.6089],[-106.2244,25.3142,1845.0579],[-106.2184,25.3163,1842.5173],[-106.2138,25.3157,1863.5188],[-106.2115,25.3118,1893.0837],[-106.2142,25.307,1892.6155],[-106.2125,25.3014,1859.1646],[-106.2095,25.3,1858.8281],[-106.207,25.3011,1869.4133],[-106.203,25.3001,1889.1371],[-106.204,25.2971,1900.703],[-106.2013,25.2903,1955.9406],[-106.1973,25.2914,1898.948],[-106.1932,25.2901,1992.6021],[-106.1919,25.283,1900.4896],[-106.1846,25.2851,1998.2595],[-106.1808,25.2669,2003.3473],[-106.1761,25.2642,1967.1521],[-106.1813,25.2591,1976.9501],[-106.1808,25.2561,2016.9696],[-106.1722,25.2505,2068.4426],[-106.1815,25.2263,2454.2422],[-106.1939,25.2262,2428.6345],[-106.1939,25.2076,2510.9683],[-106.2026,25.2024,2585.5488],[-106.2137,25.2192,2583.7239],[-106.2572,25.2191,2497.0388],[-106.2532,25.2054,2381.2803],[-106.2226,25.207,2521.929],[-106.2273,25.2025,2529.1108],[-106.2145,25.1916,2618.9023],[-106.2195,25.1909,2550.1074],[-106.2725,25.1703,2411.4873],[-106.2557,25.1338,2393.9727],[-106.258,25.1297,2374.7295],[-106.2461,25.1027,2341.5698],[-106.2252,25.091,2419.9702],[-106.1987,25.1114,2465.8545],[-106.1986,25.1418,2306.6794],[-106.1922,25.1419,2480.458],[-106.1913,25.137,2447.2646],[-106.168,25.1334,2330.7039],[-106.1617,25.1198,2378.123],[-106.1739,25.1013,2662.5249],[-106.1231,25.1018,2552.1724],[-106.123,25.0987,2546.1125],[-106.0318,25.1,2470.54],[-105.9817,25.0989,2590.0737],[-105.8923,25.1059,2730.2886],[-105.8647,25.0256,2598.6062],[-105.7784,25.0948,2629.3586],[-105.7896,25.172,2587.1353],[-105.7986,25.1838,2492.9036],[-105.7827,25.2215,2511.6672],[-105.7834,25.2244,2525.5342],[-105.8108,25.2338,2425.5991],[-105.7526,25.2317,2350.6624],[-105.6826,25.2235,2463.3455],[-105.6296,25.169,2572.1001],[-105.5603,25.189,1740.7864],[-105.5534,25.1984,1721.959],[-105.5602,25.2019,1731.2554],[-105.5646,25.2067,1733.7094],[-105.5691,25.2135,1753.8782],[-105.5705,25.2218,1737.7817],[-105.5787,25.2299,1746.6777],[-105.5803,25.2409,1732.8967],[-105.5883,25.2495,1736.1357],[-105.5959,25.2507,1771.4773],[-105.5983,25.2584,1798.5657],[-105.5949,25.2626,1814.4594],[-105.5914,25.2637,1812.8146],[-105.5903,25.2667,1843.9081],[-105.5799,25.2704,1857.9441],[-105.5772,25.2733,1903.1821],[-105.5708,25.2737,1907.9252],[-105.5677,25.277,1932.6263],[-105.5659,25.277,1950.9307],[-105.5636,25.2733,1975.8562],[-105.5623,25.2763,2011.802],[-105.557,25.2791,2059.8862],[-105.5501,25.2784,2122.0332],[-105.5454,25.275,2139.3733],[-105.5444,25.2803,2167.7954],[-105.5411,25.2851,2140.4749],[-105.5409,25.2898,2147.5886],[-105.5383,25.2911,2160.3093],[-105.5573,25.3337,2535.738],[-105.5425,25.4455,3000.2659],[-105.4907,25.3843,2653.0476],[-105.4608,25.3733,2090.7974],[-105.4379,25.391,2058.2456],[-105.4906,25.4435,2653.4209],[-105.4764,25.5262,2022.0308],[-105.4803,25.5337,1881.5344],[-105.503,25.5375,1961.8624],[-105.5067,25.5411,1998.5034],[-105.517,25.545,2021.2697],[-105.5151,25.5488,2177.8376],[-105.5005,25.5542,1879.2478],[-105.5062,25.5592,1888.1366],[-105.5061,25.5624,1895.6853],[-105.5094,25.5658,1923.5116],[-105.5094,25.5699,1948.6326],[-105.5128,25.5735,1911.5649],[-105.5158,25.5737,1925.6458],[-105.5176,25.5777,1957.5164],[-105.5251,25.578,1950.0405],[-105.5308,25.5823,1965.8344],[-105.5414,25.5808,2079.6711],[-105.563,25.6081,2331.5159],[-105.5892,25.5886,2492.5754],[-105.6323,25.5609,2448.4817],[-105.6405,25.5764,2407.8455],[-105.6763,25.5601,2296.1558],[-105.6793,25.5724,2221.8037],[-105.6887,25.5688,2210.0544],[-105.698,25.5727,2200.7207],[-105.7031,25.5768,2204.2764],[-105.7085,25.5736,2201.0503],[-105.7129,25.5919,2216.978],[-105.718,25.5953,2198.9492],[-105.7227,25.5955,2196.5618],[-105.726,25.6024,2234.1875],[-105.7329,25.6043,2195.2224],[-105.7447,25.6142,2151.3462],[-105.7455,25.6376,2176.4282],[-105.7477,25.6456,2164.1453],[-105.7451,25.6559,2180.2432],[-105.748,25.6608,2158.3064],[-105.7478,25.6674,2141.0271],[-105.7545,25.6759,2154.9377],[-105.7686,25.6846,2111.7617],[-105.7704,25.6895,2093.7192],[-105.775,25.6936,2076.063],[-105.7924,25.6785,2029.6664],[-105.7986,25.6778,2028.7739],[-105.7963,25.6735,2036.9187],[-105.8254,25.6917,2127.0264],[-105.8554,25.7069,2106.4119],[-105.8999,25.7195,2029.8617],[-105.9053,25.7153,2090.3677],[-105.9068,25.7193,2057.8635],[-105.9106,25.7192,2029.5806],[-105.9096,25.7234,2037.2303],[-105.9113,25.7263,2038.3765],[-105.9189,25.7263,2044.0363],[-105.9227,25.7221,2068.4678],[-105.9276,25.7231,2056.3577],[-105.9289,25.721,2075.0703],[-105.9268,25.7191,2058.6013],[-105.9222,25.7196,2051.5093],[-105.9269,25.7159,2076.5369],[-105.9313,25.7167,2101.7756],[-105.9371,25.7194,2099.6428],[-105.9384,25.7229,2175.3027],[-105.9372,25.7253,2145.4731],[-105.9447,25.7303,2131.5173],[-105.9438,25.7333,2174.1931],[-105.9449,25.7344,2137.1379],[-105.949,25.7348,2120.9336],[-105.9474,25.7312,2161.6587],[-105.952,25.7273,2124.2207],[-105.9616,25.7329,2148.9739],[-105.9624,25.7293,2171.9614],[-105.9609,25.7286,2150.918],[-105.9629,25.7274,2162.4988],[-105.9666,25.7322,2193.8335],[-105.9716,25.7331,2198.5642],[-105.9726,25.7364,2268.6553],[-105.9753,25.7374,2246.7056],[-105.9762,25.741,2244.6157],[-105.9778,25.7416,2248.5312],[-105.9817,25.7389,2253.4832],[-105.9823,25.7415,2265.1099],[-105.9855,25.742,2284.1904],[-105.9895,25.7378,2295.4539],[-105.997,25.7407,2321.3521],[-106.0022,25.7365,2358.2471],[-106.0232,25.7331,2385.6091],[-106.0349,25.7341,2375.4375],[-106.0366,25.7287,2363.8835],[-106.0434,25.7265,2369.4619],[-106.0482,25.722,2362.2253],[-106.0497,25.718,2371.0771],[-106.0584,25.7194,2405.0264],[-106.0585,25.7216,2422.6489],[-106.0632,25.7267,2441.0405],[-106.0666,25.7253,2491.7039],[-106.0731,25.7185,2526.9431],[-106.0788,25.7192,2543.3154],[-106.0843,25.722,2610.3311],[-106.0935,25.7218,2715.1125],[-106.1041,25.7297,2707.9734],[-106.1081,25.7351,2586.2017],[-106.1121,25.7505,2486.1343],[-106.1117,25.7545,2478.3467],[-106.1401,25.7547,2712.4272],[-106.146,25.7569,2701.4604],[-106.1597,25.7637,2658.0542],[-106.1659,25.7695,2719.4749],[-106.1687,25.7762,2746.3076],[-106.167,25.7882,2737.1221],[-106.1745,25.7891,2697.1572],[-106.1878,25.7858,2735.2102],[-106.2038,25.8224,2684.5669],[-106.2434,25.7438,2634.1206],[-106.3445,25.7958,2782.0833],[-106.464,25.7417,1681.3711],[-106.4636,25.729,1744.771],[-106.4858,25.7161,1416.6841],[-106.5011,25.7122,1511.3147],[-106.5027,25.7092,1536.3973],[-106.5088,25.7075,1612.5424],[-106.5117,25.7028,1374.1155],[-106.521,25.6949,1195.1852],[-106.5249,25.6945,1171.7715],[-106.528,25.6918,1142.8719],[-106.5273,25.6865,1147.9425],[-106.531,25.6858,1183.8085],[-106.5312,25.6823,1130.1179],[-106.5338,25.6811,1141.5145],[-106.5364,25.676,1130.5593],[-106.5448,25.6739,1165.2188],[-106.5475,25.671,1091.1077],[-106.555,25.6684,1101.8354],[-106.5655,25.6666,1092.2406],[-106.5697,25.6577,1067.2026],[-106.574,25.6561,1060.6085],[-106.5764,25.653199999999998,1044.0017],[-106.5793,25.6533,1045.76],[-106.5918,25.6474,1004.0482],[-106.5926,25.6435,1001.2869],[-106.6044,25.6345,966.8981],[-106.6149,25.622,944.3212],[-106.6157,25.6191,918.1722],[-106.6201,25.6169,894.5538],[-106.6219,25.6108,887.61],[-106.6238,25.6095,916.0366],[-106.6232,25.607,866.6925],[-106.6293,25.6038,876.6053],[-106.6292,25.5909,861.8206],[-106.6308,25.5858,903.0266],[-106.6325,25.5845,852.9258],[-106.635,25.5863,846.3656],[-106.6429,25.5852,854.6069],[-106.6556,25.5752,968.9858],[-106.6575,25.5702,947.9724],[-106.6528,25.5588,836.4202]]]]}
,"properties": {"GID_2": "MEX.10.36_2","GID_0": "MEX","country": "México","GID_1": "MEX.10_1","province": "Durango","NL_NAME_1": "NA","county": "Tepehuanes","VARNAME_2": "NA","NL_NAME_2": "NA","TYPE_2": "Município","ENGTYPE_2": "Municipality","CC_2": "NA","HASC_2": "NA","name": "Tepehuanes.county","area_km2": 6080.949,"hist_schema_id": "Elevation0-9000","hist_area_km2": {"600": 0.134,"625": 0.479,"650": 0.498,"675": 0.823,"700": 1.245,"725": 1.264,"750": 1.666,"775": 1.723,"800": 2.163,"825": 2.431,"850": 3.178,"875": 3.561,"900": 3.408,"925": 4.059,"950": 4.556,"975": 5.035,"1000": 5.302,"1025": 5.992,"1050": 6.432,"1075": 6.815,"1100": 6.489,"1125": 7.542,"1150": 7.944,"1175": 7.619,"1200": 8.059,"1225": 8.116,"1250": 8.327,"1275": 8.288,"1300": 8.441,"1325": 8.633,"1350": 8.691,"1375": 8.097,"1400": 8.288,"1425": 10.164,"1450": 8.843,"1475": 9.322,"1500": 9.379,"1525": 9.589,"1550": 9.627,"1575": 10.144,"1600": 9.837,"1625": 10.124,"1650": 10.029,"1675": 9.703,"1700": 10.106,"1725": 16.854,"1750": 19.598,"1775": 26.46,"1800": 38.111,"1825": 46.502,"1850": 54.776,"1875": 60.62,"1900": 61.232,"1925": 60.482,"1950": 60.708,"1975": 61.129,"2000": 63.0,"2025": 67.925,"2050": 74.94,"2075": 85.403,"2100": 94.108,"2125": 111.714,"2150": 126.101,"2175": 140.699,"2200": 153.761,"2225": 166.88,"2250": 175.858,"2275": 189.325,"2300": 196.537,"2325": 200.233,"2350": 214.915,"2375": 225.167,"2400": 240.456,"2425": 259.475,"2450": 269.068,"2475": 263.747,"2500": 251.758,"2525": 241.967,"2550": 233.088,"2575": 217.326,"2600": 185.094,"2625": 169.012,"2650": 144.221,"2675": 115.819,"2700": 92.898,"2725": 76.283,"2750": 59.425,"2775": 46.141,"2800": 36.625,"2825": 26.381,"2850": 20.123,"2875": 14.665,"2900": 11.869,"2925": 9.151,"2950": 7.849,"2975": 4.192,"3000": 3.197,"3025": 2.374,"3050": 1.608,"3075": 0.804,"3100": 0.67,"3125": 0.268,"3150": 0.077,"3175": 0.115}}}