{"type":"Feature","properties":{"GID_2":"MEX.11.5_2","GID_0":"MEX","country":"México","GID_1":"MEX.11_1","province":"Guanajuato","NL_NAME_1":"NA","county":"Atarjea","VARNAME_2":"NA","NL_NAME_2":"NA","TYPE_2":"Município","ENGTYPE_2":"Municipality","CC_2":"NA","HASC_2":"NA","name":"Atarjea.county"},
"geometry":{"type": "MultiPolygon","coordinates": [[[[-99.7791,21.3949,1288.2573],[-99.7849,21.3967,1444.6013],[-99.7941,21.3958,1524.9757],[-99.8128,21.3832,1728.6926],[-99.8308,21.3837,1505.0713],[-99.8297,21.3774,1803.9435],[-99.8593,21.3403,2562.1157],[-99.8695,21.3065,2282.9771],[-99.8733,21.2891,2083.9331],[-99.8717,21.2883,2147.9614],[-99.8718,21.2821,2121.5801],[-99.8747,21.2696,2177.8018],[-99.8773,21.2616,2106.7383],[-99.8806,21.2577,2029.084],[-99.8813,21.251,1992.1572],[-99.8847,21.2484,2049.8101],[-99.8909,21.2284,1738.5714],[-99.8952,21.2044,1973.455],[-99.9042,21.1853,2144.9106],[-99.8993,21.1839,2175.6296],[-99.8952,21.1776,2265.1487],[-99.8886,21.1738,2391.9917],[-99.8883,21.1696,2370.8723],[-99.8853,21.1702,2261.1233],[-99.8793,21.168,2158.3091],[-99.8716,21.1697,2095.4131],[-99.859,21.1646,2232.5825],[-99.8493,21.1642,2293.3945],[-99.8387,21.158,2274.5588],[-99.8304,21.1575,2239.9922],[-99.8172,21.1656,2377.9902],[-99.818,21.1669,2377.9902],[-99.8151,21.167,2395.1221],[-99.8074,21.1753,2311.4978],[-99.808,21.1763,2362.1108],[-99.8001,21.1799,2398.9385],[-99.777,21.1959,1890.0209],[-99.7758,21.2073,1825.1205],[-99.7732,21.2071,1816.9198],[-99.7685,21.2117,1796.6144],[-99.7581,21.2164,1742.4739],[-99.7465,21.2253,1637.3773],[-99.7385,21.2358,1689.5435],[-99.6879,21.2258,2529.426],[-99.6919,21.2341,2592.4231],[-99.6987,21.2408,2578.3428],[-99.6991,21.2667,1815.3976],[-99.678,21.2888,1013.6447],[-99.6713,21.3012,1891.7379],[-99.6856,21.3083,2134.4766],[-99.6983,21.3096,2154.5305],[-99.7076,21.3145,1707.4005],[-99.7373,21.3129,2318.7759],[-99.7343,21.3083,2300.0308],[-99.7342,21.3014,2220.8669],[-99.7524,21.2918,1816.0957],[-99.7579,21.2921,2027.5134],[-99.7657,21.3034,2167.1382],[-99.7724,21.308,2000.6039],[-99.7722,21.3093,2074.5017],[-99.7799,21.313,2176.0525],[-99.7878,21.3296,2482.3855],[-99.7849,21.3279,2432.3643],[-99.7843,21.3325,2498.1611],[-99.7776,21.3432,2497.582],[-99.7921,21.3439,2131.4128],[-99.7945,21.3574,2007.6638],[-99.781,21.3685,1640.2867],[-99.7755,21.375,1553.7708],[-99.7762,21.3833,1471.5863],[-99.7798,21.387,1396.6835],[-99.7791,21.3949,1288.2573]]]]}}