{"type":"Feature","properties":{"GID_2":"MEX.5.56_2","GID_0":"MEX","country":"México","GID_1":"MEX.5_1","province":"Chiapas","NL_NAME_1":"NA","county":"LasRosas","VARNAME_2":"NA","NL_NAME_2":"NA","TYPE_2":"Município","ENGTYPE_2":"Municipality","CC_2":"NA","HASC_2":"NA","name":"Las_Rosas.county"},
"geometry":{"type": "MultiPolygon","coordinates": [[[[-92.3476,16.4481,2151.333],[-92.3447,16.4392,2159.8784],[-92.3632,16.4317,2068.9705],[-92.3705,16.4372,2117.1995],[-92.3725,16.4362,2032.6281],[-92.3797,16.4408,2003.0868],[-92.3861,16.4408,1829.6509],[-92.3897,16.4625,1805.0243],[-92.3987,16.4601,1782.4991],[-92.4077,16.4503,1807.5928],[-92.406,16.4381,1836.8682],[-92.4107,16.419,1520.8877],[-92.4134,16.4169,1490.1227],[-92.4192,16.418,1465.139],[-92.4284,16.4255,1252.1937],[-92.4249,16.4066,1234.8755],[-92.4318,16.4014,1208.8423],[-92.4381,16.3888,1192.04],[-92.4438,16.3851,1028.67],[-92.4413,16.3829,1085.267],[-92.4447,16.3789,1017.3852],[-92.4459,16.3809,1001.0885],[-92.4478,16.3769,952.2193],[-92.4487,16.3692,928.0443],[-92.4408,16.3655,930.0565],[-92.4386,16.3542,912.3666],[-92.4448,16.3474,918.5383],[-92.4458,16.3486,924.2089],[-92.4489,16.343,881.2603],[-92.4463,16.3394,859.633],[-92.4548,16.3326,779.3456],[-92.4535,16.3271,739.5439],[-92.44,16.3292,782.4843],[-92.4378,16.3318,791.7372],[-92.4403,16.3333,794.3225],[-92.4387,16.3362,871.0499],[-92.4309,16.3361,871.7031],[-92.4324,16.3326,870.7051],[-92.4263,16.3291,906.9459],[-92.4232,16.3319,936.0245],[-92.4171,16.3248,980.1177],[-92.4131,16.3235,995.1129],[-92.4078,16.3124,1001.989],[-92.41,16.3094,993.9824],[-92.4027,16.2978,981.9047],[-92.3849,16.3085,1016.286],[-92.3842,16.307,1014.0071],[-92.3864,16.302,1005.8835],[-92.3849,16.3011,1006.4998],[-92.3836,16.2956,1002.1332],[-92.3855,16.2927,994.2284],[-92.3816,16.2906,994.9883],[-92.3938,16.2906,981.8315],[-92.3961,16.2852,959.3302],[-92.4004,16.281,905.0552],[-92.3909,16.2756,871.5341],[-92.3848,16.2779,925.7457],[-92.3845,16.2795,946.8372],[-92.3769,16.275,879.8168],[-92.3717,16.2789,970.1255],[-92.3692,16.2831,1004.6616],[-92.3643,16.302,1130.598],[-92.3606,16.302,1204.226],[-92.3605,16.2956,1158.3717],[-92.356,16.277,965.9446],[-92.3496,16.2812,1195.1722],[-92.347,16.2791,1193.7698],[-92.3444,16.2804,1193.299],[-92.3337,16.2772,1207.2554],[-92.3292,16.2774,1191.2466],[-92.3191,16.2815,1309.3969],[-92.3088,16.2997,1494.1621],[-92.3104,16.3025,1447.011],[-92.303,16.3032,1478.9694],[-92.2943,16.3018,1526.2666],[-92.2934,16.3039,1600.614],[-92.2895,16.3011,1599.08],[-92.2748,16.3049,1740.8804],[-92.2747,16.3069,1763.7255],[-92.2774,16.3072,1738.202],[-92.2751,16.3079,1779.826],[-92.2797,16.3124,1772.4095],[-92.2884,16.3107,1702.5449],[-92.2923,16.3142,1737.7865],[-92.2878,16.3226,1783.9674],[-92.3066,16.3517,1947.5023],[-92.3146,16.3586,2070.3303],[-92.3095,16.369,2178.6104],[-92.3022,16.3736,2217.7344],[-92.3007,16.3771,2262.5364],[-92.2925,16.3769,2181.8479],[-92.2986,16.391,2229.6194],[-92.2945,16.3882,2243.0466],[-92.288,16.3936,2317.9839],[-92.291,16.3966,2314.9727],[-92.2948,16.3973,2305.5461],[-92.296,16.3925,2240.7922],[-92.3012,16.3937,2238.7925],[-92.3035,16.3852,2243.8567],[-92.3127,16.3816,2189.7224],[-92.3168,16.3768,2137.0569],[-92.3205,16.3755,2040.502],[-92.321,16.3774,2067.5518],[-92.3152,16.4127,2255.0425],[-92.3102,16.414,2244.9558],[-92.2971,16.4314,2265.8696],[-92.3168,16.4559,2245.353],[-92.3207,16.4588,2263.4683],[-92.321,16.4608,2259.1226],[-92.3476,16.4481,2151.333]]]]}}