{"type":"Feature","properties":{"featurecla":"River","scalerank":11,"rivernum":22206,"dissolve":"22206River","name":"Papagayo1","name_alt":null,"note":"ID is link back to CEC data","name_full":"Rio Papagayo","min_zoom":6.7,"strokeweig":0.2,"uident":2049401,"min_label":7.7},
"geometry":{"type": "LineString","coordinates": [[-99.565744595437067,17.139675197389863,243.5882],[-99.571034308978724,17.128485418744035,382.9974],[-99.5545955068954,17.078965561973206,138.3795],[-99.5636287100204,17.064276434369035,194.1632],[-99.5721736318954,17.047430731244035,135.5069],[-99.5660701162704,17.032253322389863,102.9565],[-99.6102595693954,17.030544338014863,105.2771],[-99.622629361062067,17.010199285931535,170.9627],[-99.644846157937067,16.978786525514863,113.2312],[-99.644602017312067,16.962836004681535,106.8182],[-99.6419978506454,16.945502020306535,60.868],[-99.627186652728724,16.889919338014863,128.5639],[-99.6605525381454,16.867743231244035,29.2965],[-99.6207576162704,16.822780666139863,29.6369],[-99.613270637103724,16.809190171348206,38.0041],[-99.613392707416224,16.782660223431535,47.4534],[-99.628041144916224,16.757635809369035,36.7446],[-99.628041144916224,16.742987371869035,15.7728],[-99.6166072256454,16.715440171348206,27.9599],[-99.615223762103724,16.696478582806535,10.3849]]}}