{"type":"Feature","properties":{"featurecla":"River","scalerank":12,"rivernum":22211,"dissolve":"22211River","name":"Coyuca","name_alt":null,"note":"ID is link back to CEC data","name_full":"Coyuca","min_zoom":7.0,"strokeweig":0.15,"uident":2047701,"min_label":8.0},
"geometry":{"type": "LineString","coordinates": [[-100.10521399647872,17.434027410931535,2136.0269],[-100.13483639231207,17.406520900514863,1530.8159],[-100.16535397043707,17.369899806764863,1455.5435],[-100.18004309804122,17.347438869264863,1189.5784],[-100.18199622304122,17.344590561973206,1132.7688],[-100.20563717356207,17.311061916139863,1080.6592],[-100.1922908193954,17.282741603639863,937.9143],[-100.19225012929122,17.282497463014863,937.9143],[-100.19969641835372,17.272040106244035,856.8026],[-100.2340388662704,17.233994858848206,604.5804],[-100.20189368397872,17.226996160931535,498.3913],[-100.18224036366622,17.212998765098206,373.3404],[-100.1634822256454,17.209662176556535,381.351],[-100.16144772043707,17.192409572389863,287.1717],[-100.16295325429122,17.176540431764863,259.6891],[-100.14732825429122,17.162380275514863,184.1625],[-100.1581111318954,17.155869858848206,454.7055],[-100.14997311106207,17.149847723431535,155.2724],[-100.14207923085372,17.134141343223206,141.5939],[-100.11974036366622,17.129502671348206,244.4611],[-100.0851130850204,17.109645900514863,81.5384],[-100.07664954335372,17.088649806764863,73.4422],[-100.08922278554122,17.067816473431535,186.5595],[-100.1026912100204,17.065130926556535,95.0771],[-100.1056208975204,17.040309963014863,26.3618],[-100.1036677725204,17.026638088014863,23.0317],[-100.1178279287704,16.990098374473206,11.3127],[-100.12120520741622,16.950506903119035,1.4458]]}}