{"type":"Feature","properties":{"featurecla":"River","scalerank":12,"rivernum":22226,"dissolve":"22226River","name":"Yextla","name_alt":null,"note":"ID is link back to CEC data","name_full":"Yextla","min_zoom":7.0,"strokeweig":0.15,"uident":2042101,"min_label":8.0},
"geometry":{"type": "LineString","coordinates": [[-100.41633053293707,17.750433660931535,1177.597],[-100.42389889231207,17.719061590619035,1284.8962],[-100.42235266835372,17.685980535931535,1068.7047],[-100.41405188710372,17.651922918744035,1286.7599],[-100.40807044179122,17.641546942181535,1289.5647],[-100.39240475168707,17.627956447389863,1384.3455],[-100.38141842356207,17.608750718223206,1716.4706],[-100.37218176991622,17.601100978639863,1807.0297],[-100.33958899647872,17.587917384889863,1998.9968],[-100.30394446522872,17.564317124473206,2500.1089],[-100.2779841787704,17.542181707806535,2629.189]]}}