{"type":"Feature","properties":{"GID_2":"MEX.28.2_2","GID_0":"MEX","country":"México","GID_1":"MEX.28_1","province":"Tamaulipas","NL_NAME_1":"NA","county":"Aldama","VARNAME_2":"NA","NL_NAME_2":"NA","TYPE_2":"Município","ENGTYPE_2":"Municipality","CC_2":"NA","HASC_2":"NA","name":"Aldama.county"},
"geometry":{"type": "MultiPolygon","coordinates": [[[[-97.8649,22.5533,0.5948],[-97.8601,22.5491,0.7299],[-97.859,22.5829,0.0],[-97.8533,22.6251,0.8813],[-97.8453,22.6606,0.5909],[-97.8413,22.6711,0.1824],[-97.8452,22.6786,0.5431],[-97.8469,22.6786,0.0632],[-97.8465,22.6732,0.9095],[-97.8488,22.672,0.0],[-97.8475,22.6665,0.6744],[-97.8494,22.6649,0.0],[-97.8468,22.6632,0.0786],[-97.8502,22.6607,0.1266],[-97.8503,22.658,0.0],[-97.8525,22.6551,0.6169],[-97.8489,22.6535,0.2558],[-97.8524,22.6518,-0.5304],[-97.8539,22.6543,0.0],[-97.856,22.6511,0.0],[-97.8545,22.6472,0.2942],[-97.8514,22.6491,1.0751],[-97.8501,22.6478,0.5752],[-97.8554,22.6345,0.0],[-97.8591,22.6298,0.0],[-97.8582,22.6259,0.1768],[-97.8571,22.6289,1.0816],[-97.8552,22.6233,0.0],[-97.857,22.6203,0.1269],[-97.8566,22.6152,1.3903],[-97.8591,22.6134,0.0],[-97.8583,22.6071,0.4401],[-97.8613,22.5944,0.0],[-97.8613,22.5867,0.4911],[-97.8633,22.5859,0.0],[-97.8649,22.5533,0.5948]]],
[[[-97.862799999999993,22.624,0.7995],[-97.8593,22.6248,0.3783],[-97.8599,22.6268,0.3442],[-97.8671,22.6237,0.0],[-97.8722,22.6187,0.0],[-97.8676,22.6199,0.6299],[-97.862799999999993,22.624,0.7995]]],
[[[-97.8434,22.6802,0.0],[-97.843,22.6785,0.0],[-97.8426,22.6783,0.0],[-97.8422,22.6807,0.4186],[-97.8434,22.6802,0.0]]],
[[[-97.8486,22.6803,0.5173],[-97.8466,22.6794,0.4487],[-97.8456,22.6804,0.4487],[-97.8467,22.6816,0.4423],[-97.8486,22.6803,0.5173]]],
[[[-97.8297,22.7082,0.3714],[-97.8284,22.7063,0.0],[-97.826,22.7078,0.6836],[-97.8268,22.7085,0.2081],[-97.8297,22.7082,0.3714]]],
[[[-97.832,22.7093,0.2941],[-97.8312,22.7105,0.0141],[-97.8317,22.7116,0.0141],[-97.8328,22.7096,0.0],[-97.832,22.7093,0.2941]]],
[[[-97.7944,22.7926,0.0],[-97.7921,22.7928,0.0],[-97.7912,22.7947,0.022],[-97.7924,22.7951,0.022],[-97.7944,22.7926,0.0]]],
[[[-97.7906,22.8136,0.0],[-97.7885,22.8142,0.0],[-97.791,22.8218,0.081],[-97.7936,22.8161,0.7628],[-97.7908,22.8178,0.039],[-97.7906,22.8136,0.0]]],
[[[-97.7861,22.8251,0.0],[-97.7858,22.824,0.0],[-97.7855,22.8275,0.0],[-97.7872,22.8264,0.0],[-97.7861,22.8251,0.0]]],
[[[-97.7779,22.9104,0.5814],[-97.7736,22.9123,0.0],[-97.7735,22.9136,0.0],[-97.7743,22.9137,0.0],[-97.7779,22.9104,0.5814]]],
[[[-97.8445,22.6826,0.6811],[-97.8441,22.684,0.6291],[-97.8474,22.6838,0.0],[-97.8471,22.6831,0.0],[-97.8445,22.6826,0.6811]]],
[[[-97.8418,22.6813,0.4186],[-97.8399,22.6806,0.1843],[-97.8413,22.6852,0.4349],[-97.8399,22.6859,0.2118],[-97.8419,22.6874,0.0],[-97.8437,22.6855,0.5496],[-97.8418,22.6813,0.4186]]],
[[[-97.768,23.2176,0.9297],[-97.7693,23.2724,0.6902],[-97.7841,23.2763,3.0242],[-97.7919,23.2736,9.9683],[-97.7895,23.2888,21.7415],[-97.8059,23.2921,44.6168],[-97.8021,23.3098,34.98],[-97.8117,23.3113,38.0817],[-97.8083,23.3314,17.19],[-97.8131,23.335,22.4242],[-97.8154,23.335,22.6299],[-97.8171,23.3382,23.2116],[-97.8284,23.3344,30.2956],[-97.8363,23.3337,32.9671],[-97.8376,23.3263,38.7759],[-97.8558,23.328,86.2013],[-97.8549,23.3227,65.1346],[-97.8525,23.3223,69.7425],[-97.8533,23.3176,73.1813],[-97.8502,23.3171,78.6594],[-97.8509,23.3136,89.5701],[-97.8597,23.3148,95.3681],[-97.8626,23.2977,87.5579],[-97.8676,23.299,87.761],[-97.8679,23.2969,93.7115],[-97.8902,23.3,148.3492],[-97.8876,23.3164,118.6141],[-97.897,23.3129,159.9167],[-97.9019,23.3085,170.6666],[-97.9049,23.3097,136.8119],[-97.9086,23.3088,162.2111],[-97.9107,23.3143,154.0533],[-97.9126,23.315,163.1611],[-97.9225,23.3099,157.7164],[-97.9302,23.3082,164.6163],[-97.9336,23.3007,193.729],[-97.9487,23.2934,121.6826],[-97.9456,23.2931,128.5322],[-97.9459,23.2885,128.4996],[-97.9614,23.2896,92.623],[-97.9647,23.2993,91.3221],[-97.987,23.3024,87.1371],[-98.0064,23.3421,98.4195],[-98.0114,23.3409,100.8346],[-98.0167,23.3437,102.6071],[-98.0238,23.3424,107.7892],[-98.0241,23.3402,106.5479],[-98.0288,23.34,108.0205],[-98.0338,23.333,119.0173],[-98.0486,23.3335,132.6327],[-98.0612,23.3435,124.2392],[-98.066,23.3445,126.9209],[-98.0713,23.3427,126.482],[-98.0798,23.3453,131.1634],[-98.0823,23.3494,132.8175],[-98.0892,23.3525,137.124],[-98.0899,23.3559,139.0471],[-98.0878,23.3591,137.5103],[-98.0892,23.3621,142.4372],[-98.091,23.3631,139.6827],[-98.0977,23.3611,142.2239],[-98.0995,23.3624,143.9268],[-98.0983,23.366,147.587],[-98.1236,23.3698,168.9944],[-98.1265,23.3668,171.6434],[-98.1297,23.3495,196.7698],[-98.1664,23.3539,849.8151],[-98.1827,23.3578,486.5999],[-98.1989,23.3491,656.7667],[-98.2109,23.3474,405.1227],[-98.2059,23.3228,641.1556],[-98.2128,23.293,648.5733],[-98.2098,23.2533,576.3926],[-98.2306,23.2457,417.9006],[-98.2323,23.2263,788.0855],[-98.2611,23.2349,1115.7206],[-98.267,23.2156,1000.9793],[-98.2779,23.2012,874.9005],[-98.2908,23.1789,939.5056],[-98.304,23.1461,762.6238],[-98.3285,23.1661,1051.8429],[-98.3396,23.145,767.5292],[-98.3125,23.1247,440.3642],[-98.3173,23.113,453.8577],[-98.3326,23.108,750.3195],[-98.3304,23.0858,727.0509],[-98.3677,23.0622,522.3041],[-98.3456,23.0463,565.827],[-98.3276,23.0232,512.2746],[-98.3417,22.9176,208.0891],[-98.3313,22.915,202.9047],[-98.3322,22.9068,199.8631],[-98.34,22.9074,183.8988],[-98.3414,22.8965,188.4561],[-98.3446,22.8968,194.5459],[-98.3456,22.8896,195.5283],[-98.3273,22.887,166.233],[-98.3522,22.8566,152.1434],[-98.3525,22.8545,145.1913],[-98.3221,22.851,155.8459],[-98.3234,22.8406,149.2221],[-98.3386,22.8427,130.6073],[-98.3414,22.8245,120.5511],[-98.3445,22.8249,121.0148],[-98.3452,22.8203,134.4034],[-98.3361,22.8191,116.5861],[-98.3375,22.8102,119.8284],[-98.3343,22.8102,112.5437],[-98.3362,22.7984,110.1439],[-98.3302,22.7973,115.1886],[-98.3286,22.8072,108.3856],[-98.3196,22.8053,104.5272],[-98.3205,22.7996,99.0325],[-98.3007,22.7973,94.5653],[-98.3026,22.7834,91.5498],[-98.2755,22.7583,71.219],[-98.2792,22.73,62.6722],[-98.2648,22.7283,60.3835],[-98.2658,22.7198,57.2735],[-98.2558,22.7187,56.8524],[-98.2611,22.6806,45.1463],[-98.2518,22.6715,40.6937],[-98.2434,22.673,40.5844],[-98.2413,22.6713,38.1683],[-98.2413,22.6742,40.138],[-98.2373,22.6758,36.5896],[-98.235,22.6751,35.9457],[-98.2336,22.677,35.7296],[-98.2316,22.676,35.8944],[-98.2279,22.6792,36.1855],[-98.2215,22.6786,33.1278],[-98.2203,22.6732,36.5027],[-98.2145,22.671,32.8206],[-98.2176,22.6748,34.6433],[-98.2176,22.6791,33.5691],[-98.2082,22.7485,120.9552],[-98.1621,22.7431,105.8286],[-98.1161,22.7585,65.505],[-98.1103,22.7976,64.1388],[-98.0897,22.7949,36.1438],[-98.0883,22.8045,36.3727],[-98.0495,22.7998,40.8584],[-98.0571,22.752,35.2556],[-98.0346,22.6414,3.9158],[-98.0308,22.6426,4.6863],[-98.0233,22.6347,8.5021],[-98.0182,22.6401,5.0118],[-98.0142,22.6401,4.4948],[-98.0112,22.6352,4.7908],[-98.0141,22.6315,6.3433],[-98.0116,22.6313,7.4113],[-97.9994,22.6506,6.126],[-97.9997,22.6525,1.5],[-98.0033,22.6523,11.2412],[-98.0022,22.6596,4.488],[-97.9996,22.6607,6.6891],[-97.9938,22.6595,4.0564],[-97.9908,22.6662,4.7565],[-97.9882,22.6684,3.672],[-97.9835,22.6691,7.584],[-97.9758,22.6632,4.7042],[-97.9762,22.6585,4.2889],[-97.9822,22.6526,3.4422],[-97.9804,22.6503,7.6859],[-97.9778,22.6506,3.2735],[-97.9742,22.6539,3.6868],[-97.9722,22.6588,3.9815],[-97.9746,22.6682,2.3959],[-97.9734,22.6706,8.2772],[-97.9703,22.6697,3.2116],[-97.9687,22.6655,2.576],[-97.9709,22.651,3.0062],[-97.9692,22.6514,3.0291],[-97.9631,22.6621,5.5228],[-97.9593,22.663,2.7138],[-97.9571,22.6609,3.3475],[-97.9564,22.6556,2.4194],[-97.9611,22.6476,3.5724],[-97.9595,22.6454,5.3186],[-97.9483,22.6446,2.1429],[-97.9462,22.6455,2.2544],[-97.9434,22.6513,1.7858],[-97.9393,22.6552,4.5064],[-97.9314,22.6569,2.6924],[-97.9298,22.6556,4.9751],[-97.9297,22.65,2.075],[-97.936,22.6405,2.112],[-97.9332,22.6384,3.5024],[-97.9296,22.6411,0.0],[-97.9264,22.65,0.7785],[-97.9243,22.6524,4.1461],[-97.9209,22.6525,3.2569],[-97.9133,22.6384,1.916],[-97.9169,22.6257,3.619],[-97.909,22.613,1.3552],[-97.9124,22.5966,1.6591],[-97.9081,22.5903,0.592],[-97.9099,22.579,1.3289],[-97.9041,22.572,1.1743],[-97.8932,22.5705,1.9521],[-97.8892,22.5616,3.9842],[-97.8816,22.5646,3.6939],[-97.8763,22.5627,3.6243],[-97.8775,22.5676,2.1759],[-97.8733,22.5742,0.0],[-97.8756,22.5722,0.353],[-97.8812,22.5727,0.1453],[-97.899,22.5805,0.4492],[-97.9016,22.5848,0.436],[-97.9014,22.5886,0.0979],[-97.8985,22.5909,0.4271],[-97.9013,22.5952,0.4696],[-97.9013,22.5994,1.8136],[-97.8987,22.5997,-0.1397],[-97.8951,22.6321,1.131],[-97.892,22.6452,0.3586],[-97.8881,22.6534,-0.158],[-97.8739,22.6722,1.4457],[-97.8738,22.6737,1.4457],[-97.8774,22.6728,1.1503],[-97.8763,22.6765,0.8986],[-97.8716,22.6782,1.1931],[-97.8625,22.6854,0.1689],[-97.8537,22.7021,0.5867],[-97.8514,22.7098,0.415],[-97.8527,22.7128,0.0],[-97.8618,22.7133,1.2964],[-97.8638,22.7202,1.1073],[-97.8687,22.727,0.5428],[-97.8751,22.728,1.6109],[-97.8769,22.724,1.0833],[-97.8818,22.7242,0.8335],[-97.8844,22.7259,0.8994],[-97.8849,22.7282,0.7297],[-97.8801,22.7342,1.0145],[-97.879,22.74,0.8231],[-97.881,22.7398,0.3429],[-97.8842,22.7363,1.8017],[-97.8954,22.735,2.2656],[-97.9005,22.7365,6.0341],[-97.9024,22.7413,14.322],[-97.9007,22.7512,9.4922],[-97.895,22.7542,3.5152],[-97.8902,22.7547,2.744],[-97.8888,22.7582,5.9893],[-97.8923,22.763,4.8833],[-97.9078,22.7672,2.6206],[-97.9092,22.7726,7.3232],[-97.9023,22.775,1.7947],[-97.8998,22.779,1.7521],[-97.9035,22.7772,1.8912],[-97.9066,22.778,11.2127],[-97.9068,22.7865,4.4576],[-97.9085,22.7884,4.9948],[-97.9137,22.7883,4.3558],[-97.9174,22.7905,4.5988],[-97.9173,22.7969,4.4393],[-97.9124,22.8006,2.1774],[-97.9118,22.8039,2.6894],[-97.9196,22.8024,3.6137],[-97.9229,22.8043,7.5391],[-97.9221,22.8102,3.4167],[-97.9249,22.8143,2.0213],[-97.9221,22.8209,1.7382],[-97.9218,22.8274,3.5085],[-97.9241,22.8297,3.7969],[-97.9286,22.8285,6.5821],[-97.9249,22.8304,3.7969],[-97.9225,22.8294,4.2822],[-97.9211,22.8275,3.5085],[-97.9208,22.8218,1.7382],[-97.9235,22.8143,2.0213],[-97.9212,22.8096,3.4167],[-97.9225,22.8051,3.5455],[-97.9209,22.8033,3.3335],[-97.9134,22.805,2.4399],[-97.9107,22.8036,2.6037],[-97.9115,22.8003,3.0503],[-97.9163,22.7968,2.4368],[-97.9164,22.7909,2.7983],[-97.9066,22.7882,3.763],[-97.905,22.7783,1.9503],[-97.9013,22.78,1.3847],[-97.8988,22.7791,1.7521],[-97.8996,22.776,3.2905],[-97.9073,22.7729,1.4083],[-97.9077,22.7708,2.0907],[-97.9046,22.7696,2.7295],[-97.906,22.7681,4.7138],[-97.903,22.766,3.074],[-97.8963,22.7661,3.3567],[-97.8917,22.7641,5.723],[-97.8878,22.7591,3.3535],[-97.8884,22.7543,1.4004],[-97.8971,22.752,1.4989],[-97.8998,22.7491,1.6293],[-97.9009,22.7428,0.0],[-97.8996,22.7397,1.3092],[-97.8954,22.7363,2.6238],[-97.8849,22.738,1.4174],[-97.8819,22.7409,0.8031],[-97.8781,22.7413,3.9243],[-97.8781,22.7343,0.6531],[-97.8821,22.728,0.0],[-97.8812,22.7264,0.6365],[-97.8781,22.726,1.1382],[-97.8749,22.7296,1.8996],[-97.869,22.7294,0.6526],[-97.8638,22.7259,0.2227],[-97.8601,22.7155,0.6005],[-97.853,22.7167,0.5886],[-97.8516,22.7252,0.0],[-97.8462,22.7363,0.1471],[-97.8401,22.7426,0.0665],[-97.8308,22.7569,0.6295],[-97.8312,22.7588,0.0],[-97.8322,22.7568,0.6295],[-97.835,22.7583,0.159],[-97.8329,22.7621,0.4365],[-97.8178,22.7739,0.8444],[-97.8042,22.7792,0.1575],[-97.8033,22.7783,0.0],[-97.8034,22.7846,0.0343],[-97.8058,22.7851,0.376],[-97.8057,22.7863,0.2584],[-97.8033,22.7871,0.2768],[-97.7944,22.8051,0.3855],[-97.7943,22.8076,0.2028],[-97.7965,22.8085,0.6788],[-97.7958,22.8051,0.1681],[-97.7976,22.8025,0.9091],[-97.7972,22.8107,0.378],[-97.7914,22.8224,0.717],[-97.7911,22.8291,0.0],[-97.7876,22.832,0.318],[-97.7874,22.8281,0.0],[-97.7867,22.8296,0.2039],[-97.7864,22.832,0.1504],[-97.7893,22.8375,0.3423],[-97.7899,22.8531,0.5669],[-97.7823,22.8596,0.0],[-97.7854,22.8609,0.5888],[-97.7822,22.8623,0.0024],[-97.7839,22.863,0.7354],[-97.7838,22.8654,1.0735],[-97.7823,22.8646,-0.0854],[-97.7799,22.8662,0.4068],[-97.7815,22.8668,1.2908],[-97.779,22.8674,1.5194],[-97.7794,22.875,0.5918],[-97.7776,22.8774,1.3192],[-97.7732,22.8782,0.0],[-97.7748,22.88,0.9438],[-97.7731,22.8812,0.1348],[-97.7733,22.8904,1.3927],[-97.7713,22.8947,0.7198],[-97.7709,22.8902,0.0686],[-97.77,22.8908,0.2093],[-97.7742,22.9044,0.0],[-97.7774,22.909,0.5814],[-97.7808,22.9104,0.6659],[-97.7736,22.9154,0.0],[-97.7731,22.9257,0.2732],[-97.7752,22.9289,1.4329],[-97.7756,22.9338,0.5854],[-97.7804,22.9344,1.3796],[-97.7757,22.9352,0.5854],[-97.7719,22.9386,0.0],[-97.7727,22.9397,0.966],[-97.7701,22.944,0.2821],[-97.7715,22.9444,1.0284],[-97.7672,22.9542,1.5125],[-97.769,22.9565,1.2816],[-97.7663,22.9584,0.6435],[-97.767,22.9412,0.1127],[-97.772,22.9353,0.2576],[-97.7708,22.9335,0.1597],[-97.7674,22.934,-0.0713],[-97.7672,22.9317,0.2242],[-97.7713,22.9283,0.1022],[-97.7692,22.9255,0.2023],[-97.7698,22.9152,0.0],[-97.7681,22.9155,0.3919],[-97.7677,22.9126,0.1942],[-97.7672,22.9066,0.2626],[-97.7701,22.9058,0.0499],[-97.7705,22.903,0.1515],[-97.7681,22.9013,0.5461],[-97.7677,22.8922,0.0],[-97.7707,22.8871,0.0],[-97.7705,22.8759,1.4608],[-97.7738,22.8727,0.256],[-97.7743,22.8607,0.9107],[-97.7765,22.8578,0.1613],[-97.7751,22.8545,0.2135],[-97.7792,22.8512,0.0],[-97.7761,22.8518,0.1391],[-97.7779,22.849,0.2034],[-97.777,22.843,0.0],[-97.7834,22.8209,0.0],[-97.7848,22.8107,0.6492],[-97.7872,22.8016,0.3337],[-97.7915,22.7988,0.0],[-97.7893,22.7975,0.2877],[-97.7897,22.7921,0.6185],[-97.7925,22.7892,0.3183],[-97.7932,22.7909,0.1236],[-97.7959,22.7903,0.0],[-97.7948,22.7885,0.6665],[-97.7962,22.785,0.0],[-97.7928,22.7867,0.197],[-97.7927,22.7843,0.4511],[-97.7955,22.7837,0.0],[-97.7974,22.781,0.0],[-97.7981,22.779,0.0],[-97.7953,22.7787,0.3723],[-97.7979,22.7769,0.165],[-97.801,22.7697,0.3523],[-97.8033,22.7691,0.0349],[-97.8015,22.766,0.0],[-97.8025,22.7611,0.0],[-97.8066,22.7583,0.4702],[-97.8073,22.7526,0.8438],[-97.809,22.7528,0.1247],[-97.8098,22.7502,-0.0829],[-97.8144,22.7482,0.0936],[-97.8145,22.7466,0.0],[-97.8129,22.7455,0.4918],[-97.8112,22.7469,0.1579],[-97.8109,22.7456,0.1579],[-97.8119,22.7441,0.0575],[-97.8146,22.7442,0.2204],[-97.8131,22.7432,0.1458],[-97.8154,22.741,0.1104],[-97.8134,22.74,1.1997],[-97.8166,22.7361,0.1051],[-97.8182,22.7292,0.068],[-97.8216,22.7299,0.1819],[-97.8204,22.7279,1.1426],[-97.8227,22.7295,0.0],[-97.8253,22.7274,-0.3099],[-97.8253,22.7258,0.3432],[-97.8218,22.7248,0.3197],[-97.8228,22.7226,0.0],[-97.8214,22.7212,0.8276],[-97.8247,22.7194,-0.0152],[-97.8313,22.7087,0.0],[-97.827,22.7098,0.1336],[-97.8243,22.7134,0.0086],[-97.8249,22.715699999999998,0.3385],[-97.823,22.7149,0.9245],[-97.8294,22.6993,0.0231],[-97.8364,22.6916,0.6261],[-97.8375,22.6824,0.1831],[-97.8415,22.6771,0.0],[-97.8413,22.6728,0.0],[-97.8398,22.6729,0.0],[-97.8268,22.6997,1.2081],[-97.821,22.7187,1.1448],[-97.7885,22.7929,0.3882],[-97.7754,22.8444,1.4609],[-97.7661,22.8937,1.1292],[-97.7654,22.938,1.9515],[-97.7626,22.9635,0.9649],[-97.761,23.0007,0.9286],[-97.7621,23.0546,0.0],[-97.7751,23.0516,3.4423],[-97.7833,23.053,1.1399],[-97.7849,23.0558,3.075],[-97.7757,23.0561,3.1359],[-97.7708,23.0602,0.9533],[-97.766,23.0878,0.7272],[-97.7681,23.0985,0.2068],[-97.7665,23.1018,0.6857],[-97.7644,23.0956,1.1639],[-97.7638,23.0633,2.0354],[-97.7671,23.061,0.7803],[-97.7685,23.0618,0.7803],[-97.7693,23.0593,0.2128],[-97.7646,23.056,0.0],[-97.7619,23.0583,0.0],[-97.768,23.2176,0.9297]]]]}}