{"type": "Feature","bbox": [-95.1006,16.4017,-94.9686,16.5237],"geometry": {"type": "MultiPolygon","coordinates": [[[[-95.0858,16.4337,19.6241],[-95.0964,16.42,17.8138],[-95.0963,16.4139,16.8657],[-95.1006,16.4017,14.2043],[-95.0399,16.432,18.6908],[-95.0402,16.4497,22.8371],[-95.0353,16.4497,23.4615],[-95.0381,16.4549,24.6456],[-95.0447,16.4591,27.6719],[-95.0235,16.4727,26.5715],[-95.024,16.4808,30.1661],[-95.0186,16.4826,26.5478],[-95.0149,16.4836,28.288],[-95.0114,16.478,25.8053],[-95.0022,16.4776,26.9097],[-95.0022,16.476,26.1892],[-94.9993,16.4765,26.1925],[-94.9994,16.4808,27.706],[-94.9955,16.4808,25.0581],[-94.9892,16.4779,25.4039],[-94.9686,16.5154,19.1877],[-94.9738,16.5179,20.6471],[-94.9766,16.5237,21.228],[-94.981,16.5211,22.7223],[-94.9818,16.5132,22.2423],[-95.0072,16.5128,30.1636],[-95.0197,16.5038,29.9705],[-95.0223,16.4999,31.3689],[-95.0474,16.4946,33.8598],[-95.062,16.4879,34.1001],[-95.0832,16.4407,21.8857],[-95.0827,16.4337,20.6768],[-95.0858,16.4337,19.6241]]]]}
,"properties": {"GID_2": "MEX.20.30_2","GID_0": "MEX","country": "México","GID_1": "MEX.20_1","province": "Oaxaca","NL_NAME_1": "NA","county": "ElEspinal","VARNAME_2": "NA","NL_NAME_2": "NA","TYPE_2": "Município","ENGTYPE_2": "Municipality","CC_2": "NA","HASC_2": "NA","name": "El_Espinal.county","area_km2": 56.34144,"hist_schema_id": "Elevation0-9000","hist_area_km2": {"25": 56.26012,"50": 0.08133}}}