{"type": "Feature","bbox": [-103.392,23.5594,-102.6737,24.0655],"geometry": {"type": "MultiPolygon","coordinates": [[[[-102.7015,23.673,2021.2251],[-102.6863,23.6779,2001.7161],[-102.6827,23.6771,1998.2979],[-102.6824,23.6792,1995.9052],[-102.6798,23.678,1995.0533],[-102.6796,23.6809,1993.9998],[-102.6773,23.6799,1994.4612],[-102.6768,23.6836,1991.2281],[-102.6742,23.6825,1989.363],[-102.6737,23.6861,1991.2092],[-102.6821,23.6933,1999.394],[-102.6822,23.6972,2005.0891],[-102.6852,23.6971,2007.1328],[-102.6854,23.7023,2010.3059],[-102.6885,23.7033,2011.3],[-102.689,23.719,2025.4954],[-102.6962,23.7341,2068.3574],[-102.7069,23.7383,2078.2849],[-102.7063,23.7402,2079.7751],[-102.7122,23.7413,2090.7339],[-102.7178,23.747,2097.377],[-102.7189,23.7453,2093.3928],[-102.7249,23.7508,2097.9922],[-102.7328,23.7517,2102.5984],[-102.7269,23.7668,2055.5212],[-102.7323,23.8173,2154.6108],[-102.7342,23.8176,2141.0791],[-102.733,23.826,2212.0112],[-102.7363,23.8536,2094.8564],[-102.7373,23.8514,2098.8152],[-102.7457,23.8626,2082.3074],[-102.7566,23.8684,2055.8408],[-102.7848,23.8781,2014.0713],[-102.8115,23.8831,1973.5653],[-102.8223,23.8891,1953.9047],[-102.8224,23.8805,1977.1713],[-102.8247,23.8824,1971.5562],[-102.8919,23.8855,1902.3812],[-102.9721,23.8859,1865.1959],[-102.971,23.8851,1864.1313],[-102.974,23.8832,1864.859],[-102.9759,23.879,1862.7323],[-102.9798,23.8775,1863.7395],[-102.9782,23.873,1865.6366],[-102.9791,23.871,1864.731],[-102.981,23.8717,1862.4569],[-102.9796,23.8691,1865.0082],[-102.9807,23.8667,1868.1582],[-102.9836,23.8677,1863.0103],[-102.9872,23.8656,1866.8398],[-102.9896,23.8676,1862.0414],[-102.9904,23.8646,1868.6909],[-103.0172,23.8821,1879.2844],[-103.0299,23.8939,1911.6267],[-103.0354,23.9035,1884.3976],[-103.0368,23.9035,1884.972],[-103.0379,23.9004,1890.473],[-103.0407,23.9022,1887.7786],[-103.05,23.9028,1890.5927],[-103.0517,23.8991,1892.4198],[-103.0697,23.8965,1903.7524],[-103.0754,23.8994,1906.0734],[-103.089,23.8927,1922.3264],[-103.0918,23.8939,1924.788],[-103.098,23.8921,1929.8165],[-103.105,23.8987,1947.1378],[-103.1177,23.8975,1961.0107],[-103.1208,23.8985,1965.3137],[-103.1235,23.9019,1971.0854],[-103.1313,23.9021,1981.1191],[-103.1434,23.9081,2018.9794],[-103.1485,23.9151,2059.0918],[-103.1559,23.918,2021.8475],[-103.2605,24.0655,2125.8538],[-103.3005,23.9775,2070.3123],[-103.3098,23.9851,2076.6497],[-103.3182,23.9719,2078.8328],[-103.3199,23.9725,2080.5161],[-103.3278,23.9579,2075.4556],[-103.2988,23.9479,2061.5906],[-103.305,23.9359,2064.9453],[-103.2969,23.9373,2064.7227],[-103.295,23.928,2058.6616],[-103.3335,23.9217,2064.7922],[-103.3474,23.8733,2079.9014],[-103.356,23.8708,2090.3145],[-103.3568,23.8666,2091.7231],[-103.3608,23.8599,2096.6956],[-103.3631,23.8598,2099.2822],[-103.3669,23.8546,2103.6606],[-103.3681,23.8438,2110.0996],[-103.3726,23.841,2114.2024],[-103.3727,23.8375,2115.0566],[-103.3851,23.837,2125.3677],[-103.3892,23.8399,2136.6338],[-103.3897,23.8389,2136.6338],[-103.3901,23.8223,2132.7405],[-103.392,23.8187,2127.4412],[-103.3857,23.8233,2121.5334],[-103.3847,23.8225,2121.5334],[-103.38,23.8277,2118.3379],[-103.3703,23.8119,2106.7495],[-103.3674,23.8123,2101.136],[-103.3587,23.7991,2101.7231],[-103.363,23.7926,2116.4285],[-103.3568,23.7909,2112.8723],[-103.3566,23.7859,2117.7583],[-103.3579,23.7845,2118.7065],[-103.3546,23.7779,2129.042],[-103.351,23.7753,2135.1753],[-103.3549,23.7656,2146.5596],[-103.3555,23.7615,2157.7769],[-103.3537,23.7598,2157.9778],[-103.3553,23.7522,2175.0601],[-103.3596,23.7482,2193.4214],[-103.36,23.7461,2196.0552],[-103.3404,23.7499,2180.9089],[-103.2938,23.7698,2130.6338],[-103.2203,23.7818,2059.7124],[-103.22,23.7586,2064.0337],[-103.2343,23.7405,2037.2955],[-103.2166,23.7266,2013.3098],[-103.2146,23.7273,2006.8041],[-103.2096,23.723,2001.1665],[-103.2045,23.7224,2002.4237],[-103.206,23.7192,1997.5715],[-103.2021,23.7178,1989.3083],[-103.2051,23.7133,1996.8987],[-103.2042,23.7111,1997.9402],[-103.2057,23.7107,2000.3788],[-103.2042,23.7088,2000.8818],[-103.206,23.7075,2006.9109],[-103.2044,23.7047,2007.4875],[-103.2068,23.6999,2012.6753],[-103.2052,23.6998,2012.6753],[-103.2161,23.6895,2033.655],[-103.2172,23.6843,2038.3596],[-103.2157,23.6826,2052.8567],[-103.2102,23.6848,2056.3525],[-103.2059,23.6802,2045.5487],[-103.2064,23.6786,2048.6997],[-103.1866,23.6769,2041.439],[-103.1729,23.6876,2054.635],[-103.1705,23.6956,2057.1125],[-103.1311,23.6953,1994.5516],[-103.0994,23.6912,1918.5],[-103.0989,23.6895,1918.5],[-103.1054,23.6787,1918.5],[-103.1082,23.6769,1918.5],[-103.113,23.6782,1918.5],[-103.1173,23.6738,1921.1198],[-103.1141,23.6698,1921.0511],[-103.1163,23.6698,1922.3453],[-103.1131,23.6681,1920.4974],[-103.1093,23.669,1932.9061],[-103.1078,23.6666,1921.4733],[-103.1106,23.6618,1928.2333],[-103.1102,23.6553,1939.9756],[-103.1127,23.6533,1923.4319],[-103.1134,23.647,1929.3469],[-103.1169,23.6443,1929.7264],[-103.1134,23.6404,1933.0387],[-103.1168,23.637,1930.8572],[-103.1159,23.6333,1925.6653],[-103.106,23.6328,2025.6293],[-103.1054,23.6282,1974.2605],[-103.0971,23.6289,2030.7461],[-103.0972,23.624,2032.0116],[-103.0926,23.6237,2042.4849],[-103.0861,23.6268,2066.2324],[-103.079,23.6273,2106.3899],[-103.0756,23.6256,2117.2939],[-103.0475,23.6329,2184.418],[-103.0445,23.6301,2127.4004],[-103.0441,23.6275,2115.8145],[-103.0393,23.6285,2103.709],[-103.0291,23.621,2114.2505],[-103.0274,23.6135,2109.791],[-103.0319,23.6073,2084.3354],[-103.0321,23.6036,2071.6587],[-103.0301,23.6001,2068.2568],[-103.0311,23.5952,2051.6003],[-103.0231,23.5865,2042.6903],[-103.0145,23.5891,2074.6235],[-103.0157,23.590699999999998,2073.4355],[-102.9648,23.5936,2149.8398],[-102.9522,23.5964,2182.3486],[-102.9426,23.5949,2173.3301],[-102.9323,23.5917,2174.8657],[-102.9154,23.581,2190.6626],[-102.9059,23.5734,2170.9109],[-102.9102,23.5734,2178.3728],[-102.9101,23.5726,2178.3728],[-102.9083,23.5731,2174.6487],[-102.9034,23.5701,2168.4429],[-102.9022,23.5669,2156.866],[-102.8965,23.5644,2147.5195],[-102.897,23.5626,2143.1414],[-102.8772,23.5594,2128.4919],[-102.8764,23.5637,2137.7678],[-102.8734,23.5661,2147.6355],[-102.8546,23.568,2146.0874],[-102.8442,23.5748,2147.5439],[-102.8367,23.5919,2160.6631],[-102.8288,23.6027,2123.8018],[-102.8206,23.6298,2109.9331],[-102.8122,23.6428,2097.3135],[-102.8113,23.6491,2091.1108],[-102.8126,23.6543,2087.0007],[-102.8102,23.6605,2082.1318],[-102.8071,23.6633,2080.5073],[-102.8,23.6603,2086.23],[-102.7928,23.6701,2075.4922],[-102.794,23.6804,2067.8359],[-102.7914,23.6868,2060.8174],[-102.7457,23.6745,2063.7578],[-102.7457,23.6782,2060.7969],[-102.7437,23.676,2059.3479],[-102.7015,23.673,2021.2251]]]]}
,"properties": {"GID_2": "MEX.32.39_2","GID_0": "MEX","country": "México","GID_1": "MEX.32_1","province": "Zacatecas","NL_NAME_1": "NA","county": "RíoGrande","VARNAME_2": "NA","NL_NAME_2": "NA","TYPE_2": "Município","ENGTYPE_2": "Municipality","CC_2": "NA","HASC_2": "NA","name": "Río_Grande.county","area_km2": 1843.12,"hist_schema_id": "Elevation0-9000","hist_area_km2": {"1850": 14.602,"1875": 54.594,"1900": 92.284,"1925": 118.464,"1950": 125.072,"1975": 141.67,"2000": 170.901,"2025": 197.839,"2050": 268.896,"2075": 314.59,"2100": 180.24,"2125": 83.035,"2150": 45.384,"2175": 28.07,"2200": 6.935,"2225": 0.369,"2250": 0.078,"2275": 0.039,"2325": 0.039,"2350": 0.019}}}