{"type": "Feature","bbox": [-103.7581,23.9688,-103.2605,24.3584],"geometry": {"type": "MultiPolygon","coordinates": [[[[-103.7456,24.089,2349.0476],[-103.7487,24.0835,2418.6499],[-103.7484,24.0778,2448.2419],[-103.7546,24.0775,2501.1755],[-103.7581,24.0722,2534.3184],[-103.7525,24.0679,2533.6323],[-103.7547,24.0626,2461.0503],[-103.7512,24.0596,2438.3474],[-103.7496,24.0486,2445.5081],[-103.7474,24.0487,2411.8152],[-103.7469,24.0458,2413.7642],[-103.7457,24.047,2408.3145],[-103.7423,24.0418,2414.353],[-103.7366,24.042,2384.9231],[-103.7342,24.0398,2390.3513],[-103.7322,24.0413,2374.5603],[-103.7263,24.0383,2366.6055],[-103.7263,24.0354,2372.0029],[-103.7204,24.0321,2358.7654],[-103.7203,24.0295,2375.3892],[-103.7132,24.0284,2337.8652],[-103.7132,24.0246,2333.79],[-103.7072,24.0261,2324.3582],[-103.7053,24.0238,2321.2437],[-103.7076,24.0217,2334.8296],[-103.7044,24.0168,2302.5728],[-103.7047,24.0141,2302.2139],[-103.7015,24.012,2299.3738],[-103.7027,24.0085,2286.3345],[-103.697,24.0074,2286.7546],[-103.687,24.0002,2290.2773],[-103.686,24.0017,2289.6453],[-103.6767,23.9949,2278.1582],[-103.6757,23.9965,2277.6299],[-103.6734,23.9948,2274.6738],[-103.6724,23.9963,2276.1943],[-103.67,23.9946,2271.6707],[-103.669,23.9962,2273.0781],[-103.6576,23.989,2245.2083],[-103.6281,23.9865,2248.2263],[-103.6197,23.9917,2251.135],[-103.6121,23.9816,2261.6719],[-103.5981,23.9927,2278.6616],[-103.5973,23.9896,2274.666],[-103.5832,23.9917,2286.5068],[-103.5826,23.9889,2283.5269],[-103.5695,23.9865,2265.5547],[-103.5671,23.9868,2259.4167],[-103.5712,24.0082,2303.7183],[-103.5371,24.0147,2259.5852],[-103.5348,24.0144,2254.2734],[-103.5197,24.0018,2225.8472],[-103.516,24.0055,2214.8245],[-103.5003,24.0012,2197.1455],[-103.4985,24.0029,2200.1824],[-103.4749,23.9949,2179.3342],[-103.4705,23.9979,2177.7522],[-103.4699,23.996,2176.2129],[-103.4646,23.9963,2170.991],[-103.4629,23.9983,2169.4434],[-103.4533,23.9991,2164.0757],[-103.4477,24.0023,2161.2451],[-103.4449,23.9994,2159.8906],[-103.4432,24.0012,2158.4402],[-103.4397,24.0014,2157.3071],[-103.4383,24.0008,2155.084],[-103.4357,23.9859,2151.5098],[-103.4174,23.9891,2141.0332],[-103.4132,23.9688,2135.4897],[-103.3775,23.9713,2111.4146],[-103.3392,24.0091,2096.762],[-103.3005,23.9775,2070.3123],[-103.2605,24.0655,2125.8538],[-103.2683,24.0719,2128.2959],[-103.2667,24.0736,2130.4336],[-103.3878,24.2423,2052.2375],[-103.4154,24.3089,1974.1277],[-103.4213,24.3136,1959.9482],[-103.4292,24.3104,1943.5864],[-103.4283,24.318,1936.684],[-103.4238,24.3183,1940.6655],[-103.4247,24.3194,1936.3893],[-103.4196,24.323,1940.7848],[-103.4296,24.3543,1904.1145],[-103.4331,24.3584,1898.8859],[-103.4378,24.35,1904.5487],[-103.4368,24.347,1908.79],[-103.4413,24.3413,1910.2867],[-103.4424,24.3421,1913.9075],[-103.4489,24.3386,1922.5],[-103.4473,24.3365,1928.168],[-103.4483,24.3326,1925.7823],[-103.4583,24.3273,1931.4543],[-103.4627,24.3205,1934.3132],[-103.4679,24.3198,1938.1812],[-103.4717,24.3216,1941.2031],[-103.4841,24.3183,1952.7056],[-103.4869,24.3107,1956.7037],[-103.4849,24.3087,1959.4086],[-103.486,24.3049,1961.8015],[-103.485,24.3009,1964.6299],[-103.5045,24.2958,1978.7352],[-103.5043,24.2922,1979.0216],[-103.5067,24.291,1981.8488],[-103.5068,24.288,1995.1248],[-103.5128,24.289,1993.0],[-103.5144,24.2868,1993.0],[-103.5238,24.289,1993.1919],[-103.5312,24.2939,2001.4819],[-103.5378,24.2904,2014.4586],[-103.5477,24.2915,2032.0897],[-103.5589,24.2875,2022.2468],[-103.5683,24.2864,2031.9996],[-103.5674,24.2769,2036.5231],[-103.5688,24.2708,2040.8381],[-103.5674,24.2703,2042.0457],[-103.5664,24.2611,2048.1226],[-103.5647,24.2601,2050.1912],[-103.5647,24.2573,2051.4014],[-103.563,24.2573,2053.2312],[-103.5616,24.25,2060.627],[-103.5565,24.242,2069.1399],[-103.5626,24.2311,2072.0352],[-103.5619,24.2229,2079.0852],[-103.5655,24.2114,2090.2324],[-103.5654,24.208,2092.8455],[-103.5628,24.2061,2088.7297],[-103.5631,24.2036,2091.2563],[-103.5593,24.1984,2093.8538],[-103.5595,24.1938,2095.1797],[-103.5661,24.1852,2105.1812],[-103.581,24.1796,2117.8884],[-103.5796,24.1785,2120.7876],[-103.6058,24.1512,2171.4626],[-103.622,24.1175,2189.1128],[-103.636,24.1103,2221.7368],[-103.6604,24.1493,2212.4744],[-103.6952,24.1303,2354.3889],[-103.7456,24.089,2349.0476]]]]}
,"properties": {"GID_2": "MEX.32.29_2","GID_0": "MEX","country": "México","GID_1": "MEX.32_1","province": "Zacatecas","NL_NAME_1": "NA","county": "MiguelAuza","VARNAME_2": "NA","NL_NAME_2": "NA","TYPE_2": "Município","ENGTYPE_2": "Municipality","CC_2": "NA","HASC_2": "NA","name": "Miguel_Auza.county","area_km2": 1107.7742,"hist_schema_id": "Elevation0-9000","hist_area_km2": {"1900": 1.3521,"1925": 5.0422,"1950": 12.1923,"1975": 19.2856,"2000": 15.751,"2025": 21.3972,"2050": 35.6091,"2075": 64.3348,"2100": 172.9425,"2125": 173.0138,"2150": 124.1322,"2175": 105.7967,"2200": 73.4511,"2225": 58.7283,"2250": 79.0114,"2275": 57.3507,"2300": 31.4247,"2325": 15.934,"2350": 10.2418,"2375": 8.809,"2400": 7.1634,"2425": 6.7953,"2450": 4.6076,"2475": 1.9747,"2500": 0.6582,"2525": 0.3485,"2550": 0.3097,"2575": 0.1161}}}