{"type":"Feature","properties":{"featurecla":"River","scalerank":11,"rivernum":22402,"dissolve":"22402River","name":"Altar","name_alt":null,"note":"ID is link back to CEC data","name_full":"Arroyo Altar","min_zoom":6.7,"strokeweig":0.15,"uident":1967201,"min_label":7.7},
"geometry":{"type": "LineString","coordinates": [[-111.36485755116622,31.440741278119035,1149.4729],[-111.35846920481205,31.407171942181535,1134.9197],[-111.35582434804122,31.365301824994035,1022.9929],[-111.36188717356205,31.322333074994035,997.8782],[-111.34630286366622,31.283636785931535,928.6384],[-111.33771725168705,31.25539785363987,918.9573],[-111.35700436106205,31.226019598431535,891.2622],[-111.3656306631454,31.151678778119035,840.4074],[-111.3719783193954,31.134833074994035,929.0051],[-111.39159094960372,31.115545965619035,849.3678]]}}