{"type":"Feature","properties":{"featurecla":"River","scalerank":10,"rivernum":22427,"dissolve":"22427River","name":"Agua Prieta","name_alt":null,"note":"ID is link back to CEC data","name_full":"Rio Agua Prieta","min_zoom":6.0,"strokeweig":0.2,"uident":1965501,"min_label":7.0},
"geometry":{"type": "LineString","coordinates": [[-109.5843806631454,31.350165106244035,1205.8135],[-109.58259029856205,31.346950588014863,1212.063],[-109.58006751210372,31.337184963014863,1191.4908],[-109.58116614491622,31.32448965051487,1192.9374],[-109.58259029856205,31.314886785931535,1193.7837],[-109.57738196522872,31.307928778119035,1188.2656],[-109.57445227772872,31.299872137494035,1177.8942],[-109.57091223866622,31.287054754681535,1171.4739],[-109.5704646475204,31.273749090619035,1176.7856],[-109.56773841054122,31.2615827494732,1167.6079],[-109.56554114491622,31.251776434369035,1160.8629],[-109.56574459543705,31.241888739056535,1165.8259],[-109.5611873037704,31.23611074426487,1158.8575],[-109.55699622304122,31.228949285931535,1148.4124],[-109.55426998606205,31.222723699994035,1144.0308],[-109.55040442616622,31.2181257182232,1149.1693],[-109.5514216787704,31.20925527551487,1148.0875],[-109.54914303293705,31.201117254681535,1139.7856],[-109.5477595693954,31.194525457806535,1138.976],[-109.54523678293705,31.18850332238987,1130.9873],[-109.54198157460372,31.181830145306535,1121.219],[-109.5409236318954,31.179022528119035,1121.3691],[-109.5201716787704,31.164618231244035,1135.834],[-109.4991755850204,31.145086981244035,1110.8761],[-109.47419186106205,31.125677801556535,1090.4701],[-109.45543372304122,31.111151434369035,1080.6885],[-109.43781490793705,31.10964590051487,1117.8057]]}}