{"type":"Feature","properties":{"featurecla":"River","scalerank":12,"rivernum":22199,"dissolve":"22199River","name":"Chicapa","name_alt":null,"note":"ID is link back to CEC data","name_full":"Chicapa","min_zoom":7.0,"strokeweig":0.15,"uident":2050201,"min_label":8.0},
"geometry":{"type": "LineString","coordinates": [[-94.4881892568954,16.755804754681535,1727.0726],[-94.5003962881454,16.749090887494035,1240.9102],[-94.522450324603724,16.746039129681535,750.7069],[-94.5394587881454,16.752752996869035,793.3749],[-94.565012173562067,16.752956447389863,690.5349],[-94.575306769916224,16.748114324994035,1012.3132],[-94.5887751943954,16.732692775514863,879.1704],[-94.606271939187067,16.714219468223206,481.8383],[-94.626942512103724,16.711004949994035,569.8004],[-94.6524958975204,16.711452541139863,294.9883],[-94.708322720437067,16.726507879681535,210.7261],[-94.7428279287704,16.715765692181535,156.581],[-94.7684626943954,16.713161525514863,227.7597],[-94.782053189187067,16.705837306764863,341.4479],[-94.787912564187067,16.689968166139863,127.6335],[-94.794992642312067,16.674831447389863,122.9575],[-94.7940974600204,16.658067124473206,100.4309],[-94.783924933978724,16.646511134889863,76.7092],[-94.766184048562067,16.642360744264863,143.8499],[-94.763539191791224,16.633978582806535,96.7186],[-94.766346808978724,16.621649481244035,72.1978],[-94.782541470437067,16.600043035931535,44.146],[-94.786610480853724,16.589870509889863,40.6193],[-94.795725064187067,16.583929754681535,36.7986],[-94.809396939187067,16.581895249473206,33.4356],[-94.8187556631454,16.574733791139863,28.7476],[-94.830881314187067,16.531195379681535,18.9807],[-94.834706183978724,16.499335028119035,16.1898],[-94.833566861062067,16.455674546348206,6.7532],[-94.841135220437067,16.424587306764863,0.0]]}}