{"type":"Feature","properties":{"featurecla":"River","scalerank":10,"rivernum":22238,"dissolve":"22238River","name":"Papaloapan","name_alt":null,"note":"ID is link back to CEC data","name_full":"Papaloapan","min_zoom":6.0,"strokeweig":0.2,"uident":2039001,"min_label":7.0},
"geometry":{"type": "LineString","coordinates": [[-96.4117732412704,18.036403713014863,67.1831],[-96.276926236062067,18.010036525514863,60.5],[-96.276844855853724,18.010036525514863,60.5],[-96.2767634756454,18.010036525514863,60.5],[-96.276722785541224,18.010036525514863,60.5],[-96.2547908193954,18.015204168744035,73.8416],[-96.225900845437067,18.031561590619035,40.3609],[-96.192697720437067,18.039129949994035,28.0087],[-96.169504361062067,18.056219793744035,26.6105],[-96.154652473041224,18.076605535931535,35.0483],[-96.1197810537704,18.093573309369035,18.6701],[-96.121937629291224,18.100897528119035,18.6419],[-96.130686001687067,18.107367254681535,14.8164],[-96.1371150381454,18.118028061973206,18.6223],[-96.132313605853724,18.140692449994035,11.3796]]}}