{"type":"Feature","properties":{"featurecla":"River","scalerank":12,"rivernum":22228,"dissolve":"22228River","name":"Mixteco2","name_alt":null,"note":"ID is link back to CEC data","name_full":"Mixteco","min_zoom":7.0,"strokeweig":0.2,"uident":2041701,"min_label":8.0},
"geometry":{"type": "LineString","coordinates": [[-98.493275519916224,18.192897853639863,832.1652],[-98.4735408193954,18.201198634889863,839.2238],[-98.462513801166224,18.198065496869035,964.6948],[-98.452992316791224,18.191107489056535,839.7973],[-98.446400519916224,18.190781968223206,890.17],[-98.4413142568954,18.208075262494035,1066.454],[-98.422474738666224,18.199001369264863,867.4818],[-98.3981013662704,18.194688218223206,986.3839],[-98.401682095437067,18.184108791139863,910.939],[-98.395619269916224,18.177557684369035,878.8276],[-98.3724666006454,18.177598374473206,1013.5968],[-98.3609919912704,18.173651434369035,898.2108],[-98.345814582416224,18.140977280723206,894.7943],[-98.335031704812067,18.136338608848206,935.8347],[-98.337228970437067,18.129665431764863,897.4397],[-98.3258357412704,18.106756903119035,961.6836],[-98.3187556631454,18.091253973431535,911.1013],[-98.3158259756454,18.085475978639863,913.5759],[-98.3153376943954,18.067938543744035,980.5256],[-98.302561001687067,18.041856186973206,938.363],[-98.2977595693954,18.046942449994035,983.4812],[-98.2867732412704,18.049872137494035,1022.3799],[-98.272694465228724,18.048285223431535,1137.0308],[-98.2569880850204,18.038112697389863,948.8651],[-98.246327277728724,18.019558009889863,967.3554],[-98.240793423562067,18.012722072389863,988.1238],[-98.224232551166224,18.011297918744035,1015.41],[-98.2159724600204,18.006455796348206,1083.0532],[-98.2110896475204,17.996201890098206,1004.6747],[-98.2059626943954,17.985541082806535,1063.9125],[-98.183908657937067,17.977362371869035,1063.4615],[-98.163197394916224,17.977321681764863,1230.3804],[-98.173695441791224,17.963161525514863,1162.254],[-98.179310676166224,17.942084051556535,1157.1659],[-98.1778865225204,17.930202541139863,1196.676],[-98.165272590228724,17.910427150514863,1138.4241],[-98.169504361062067,17.877305405723206,1198.0148],[-98.157541470437067,17.865668035931535,1083.6587],[-98.161936001687067,17.845485744264863,1116.5919],[-98.1483455068954,17.831610418744035,1061.1033],[-98.143137173562067,17.791612046348206,1081.7495],[-98.159535285541224,17.752549546348206,1156.6931],[-98.144764777728724,17.734808660931535,1181.1938],[-98.139963345437067,17.701727606244035,1364.6271],[-98.1129451162704,17.666571356244035,1168.5745],[-98.112049933978724,17.658392645306535,1171.1205],[-98.081410285541224,17.649929103639863,1226.1914],[-98.0665583975204,17.640733140098206,1225.95],[-98.0533748037704,17.636175848431535,1489.4692]]}}