{"type": "Feature","bbox": [-97.3548,18.7639,-97.2922,18.813],"geometry": {"type": "MultiPolygon","coordinates": [[[[-97.3308,18.7639,2631.7764],[-97.3183,18.7698,2478.4932],[-97.3118,18.7767,2432.1838],[-97.3064,18.7767,2589.4331],[-97.306,18.7784,2575.9304],[-97.3013,18.7789,2373.8125],[-97.2991,18.7779,2334.5813],[-97.3,18.776,2407.4246],[-97.2922,18.7864,1960.2124],[-97.312,18.8107,2443.3096],[-97.3258,18.813,2445.532],[-97.3263,18.8102,2443.1528],[-97.3325,18.8079,2470.7332],[-97.3332,18.8043,2479.7688],[-97.3364,18.8031,2458.1941],[-97.3378,18.7991,2450.9863],[-97.3414,18.8012,2466.3757],[-97.3445,18.8003,2492.8735],[-97.3536,18.7901,2545.9053],[-97.3528,18.7872,2551.1331],[-97.3548,18.7794,2560.9119],[-97.3529,18.7744,2521.0251],[-97.3487,18.7776,2518.1802],[-97.3402,18.7784,2505.0803],[-97.337,18.7684,2662.7363],[-97.3341,18.7666,2664.2715],[-97.3303,18.7671,2655.8708],[-97.3308,18.7639,2631.7764]]]]}
,"properties": {"GID_2": "MEX.30.17_2","GID_0": "MEX","country": "México","GID_1": "MEX.30_1","province": "Veracruz","NL_NAME_1": "NA","county": "Aquila","VARNAME_2": "NA","NL_NAME_2": "NA","TYPE_2": "Município","ENGTYPE_2": "Municipality","CC_2": "NA","HASC_2": "NA","name": "Aquila.county","area_km2": 20.55411,"hist_schema_id": "Elevation0-9000","hist_area_km2": {"1775": 0.02007,"1800": 0.26093,"1825": 0.26093,"1850": 0.26093,"1875": 0.30108,"1900": 0.26093,"1925": 0.36129,"1950": 0.24086,"1975": 0.30108,"2000": 0.26094,"2025": 0.30108,"2050": 0.34122,"2075": 0.34123,"2100": 0.32115,"2125": 0.30108,"2150": 0.34123,"2175": 0.26094,"2200": 0.26094,"2225": 0.50181,"2250": 0.44159,"2275": 0.28101,"2300": 0.48174,"2325": 0.44159,"2350": 0.40145,"2375": 0.54195,"2400": 0.52187,"2425": 1.12401,"2450": 1.8265,"2475": 2.20789,"2500": 1.56565,"2525": 1.44526,"2550": 1.14417,"2575": 0.9836,"2600": 0.40148,"2625": 0.34126,"2650": 0.32119,"2675": 0.20074,"2700": 0.18067,"2725": 0.18067,"2750": 0.02007}}}