{"type":"Feature","properties":{"GID_2":"MEX.21.23_2","GID_0":"MEX","country":"México","GID_1":"MEX.21_1","province":"Puebla","NL_NAME_1":"NA","county":"Atzitzihuacán","VARNAME_2":"NA","NL_NAME_2":"NA","TYPE_2":"Município","ENGTYPE_2":"Municipality","CC_2":"NA","HASC_2":"NA","name":"Atzitzihuacán.county"},
"geometry":{"type": "MultiPolygon","coordinates": [[[[-98.6887,18.8581,2069.6333],[-98.6916,18.8555,2052.3],[-98.6903,18.8547,2059.0464],[-98.6914,18.8527,2041.9401],[-98.6942,18.8519,2032.8832],[-98.6955,18.8495,2034.8528],[-98.6943,18.8485,2012.2769],[-98.6958,18.8459,1991.8231],[-98.6947,18.8451,1976.5671],[-98.6924,18.8469,2004.0284],[-98.6926,18.8453,1985.8779],[-98.6953,18.8314,1901.1365],[-98.7012,18.8159,1812.7036],[-98.6978,18.8147,1806.635],[-98.6837,18.8173,1990.9945],[-98.6752,18.8148,2016.8821],[-98.665,18.8156,2037.9427],[-98.6646,18.8119,2021.306],[-98.6502,18.8042,1998.4785],[-98.6442,18.7967,1924.6533],[-98.6453,18.789,1911.7463],[-98.6467,18.7875,1894.6024],[-98.6539,18.7868,1878.9634],[-98.6534,18.784,1876.6285],[-98.6515,18.7828,1864.6111],[-98.6473,18.7839,1870.8599],[-98.6402,18.7901,1894.9277],[-98.6337,18.7896,1914.3069],[-98.6326,18.7885,1937.7903],[-98.6344,18.7846,1934.0813],[-98.6343,18.7774,1907.9136],[-98.6325,18.7752,1904.9468],[-98.6257,18.7744,1896.4359],[-98.6218,18.7717,1880.6002],[-98.622,18.7636,1793.6094],[-98.6148,18.7627,1713.7288],[-98.6091,18.7535,1702.9998],[-98.6015,18.7502,1599.3014],[-98.5987,18.7468,1617.6432],[-98.5954,18.7466,1595.7329],[-98.5922,18.7424,1547.2026],[-98.5894,18.7426,1527.6875],[-98.5836,18.7379,1489.238],[-98.5803,18.7396,1491.6029],[-98.5825,18.7418,1502.1316],[-98.5832,18.747,1527.4126],[-98.5818,18.7494,1556.0112],[-98.5877,18.7571,1646.3994],[-98.5852,18.76,1627.9829],[-98.5808,18.7588,1591.0481],[-98.582,18.768,1679.0208],[-98.5802,18.769,1674.3398],[-98.5803,18.7758,1690.4619],[-98.575,18.7873,1780.7697],[-98.5766,18.7958,1748.5989],[-98.5754,18.8051,1759.2035],[-98.5733,18.8044,1764.9211],[-98.5672,18.807,1722.5586],[-98.5576,18.8055,1696.5643],[-98.5607,18.8132,1719.1973],[-98.5602,18.8157,1754.62],[-98.5581,18.8131,1743.9746],[-98.5552,18.8156,1724.1162],[-98.5522,18.8142,1711.9421],[-98.5512,18.8075,1692.7599],[-98.5473,18.8099,1702.6306],[-98.5467,18.8172,1723.2512],[-98.5395,18.8135,1706.2703],[-98.5327,18.8135,1699.2008],[-98.5332,18.8173,1716.278],[-98.5378,18.8222,1734.5175],[-98.5405,18.8282,1754.5093],[-98.5316,18.8284,1745.4381],[-98.5024,18.8229,1725.0103],[-98.5046,18.8279,1739.1875],[-98.5049,18.8371,1763.2933],[-98.5077,18.8409,1774.1425],[-98.511,18.8434,1781.0322],[-98.5202,18.845,1794.9285],[-98.5227,18.8472,1805.3979],[-98.5198,18.8706,1883.0325],[-98.5221,18.8808,1915.3627],[-98.527,18.8885,1941.8351],[-98.548,18.8873,1966.3127],[-98.5482,18.8831,1947.5662],[-98.546,18.8801,1934.5387],[-98.5512,18.8811,1952.7412],[-98.5545,18.8779,1944.3726],[-98.5565,18.8783,1944.6465],[-98.5566,18.8754,1930.1398],[-98.5513,18.8685,1907.2021],[-98.5451,18.8639,1875.4775],[-98.5454,18.8609,1864.8544],[-98.5421,18.8508,1829.3569],[-98.5587,18.838,1828.7675],[-98.5642,18.8351,1838.4009],[-98.5671,18.836,1858.519],[-98.574,18.8318,1863.7297],[-98.5817,18.8331,1831.3204],[-98.6039,18.8272,2021.6079],[-98.6067,18.8304,2039.2268],[-98.61,18.8304,2053.8135],[-98.6155,18.826,2040.3384],[-98.6272,18.8261,2026.5914],[-98.6275,18.8293,2031.9373],[-98.6219,18.836,2083.4216],[-98.6222,18.838,2088.7822],[-98.6191,18.8387,2111.4575],[-98.6192,18.8421,2125.5649],[-98.6214,18.8447,2134.1626],[-98.6229,18.8522,2182.7727],[-98.6261,18.8555,2198.77],[-98.6374,18.8615,2226.9648],[-98.6356,18.866,2257.6833],[-98.6394,18.8763,2316.0],[-98.6442,18.8811,2375.1067],[-98.6429,18.8841,2414.4158],[-98.6513,18.8835,2402.9673],[-98.6532,18.8753,2323.8608],[-98.6576,18.8759,2329.4453],[-98.6574,18.8667,2271.2874],[-98.6604,18.866,2222.033],[-98.6636,18.8593,2169.2646],[-98.6673,18.857,2139.7671],[-98.668,18.8638,2196.4277],[-98.6702,18.8663,2213.3267],[-98.6684,18.8695,2222.1392],[-98.6715,18.8722,2249.5435],[-98.6693,18.8777,2293.0891],[-98.6721,18.88,2335.3235],[-98.674,18.8781,2359.6948],[-98.6796,18.8779,2273.2886],[-98.682,18.876,2242.6406],[-98.6792,18.8761,2269.0005],[-98.6841,18.863,2172.4631],[-98.6869,18.8579,2085.1074],[-98.6887,18.8581,2069.6333]]]]}}