{"type":"Feature","properties":{"GID_2":"MEX.26.26_2","GID_0":"MEX","country":"México","GID_1":"MEX.26_1","province":"Sonora","NL_NAME_1":"NA","county":"Etchojoa","VARNAME_2":"NA","NL_NAME_2":"NA","TYPE_2":"Município","ENGTYPE_2":"Municipality","CC_2":"NA","HASC_2":"NA","name":"Etchojoa.county"},
"geometry":{"type": "MultiPolygon","coordinates": [[[[-109.8998,26.9637,0.441],[-109.8994,26.9651,0.0],[-109.9009,26.9652,0.0],[-109.901,26.9643,0.3024],[-109.8998,26.9637,0.441]]],
[[[-109.9216,26.9743,0.0],[-109.9202,26.9749,0.7796],[-109.9203,26.9784,1.7605],[-109.9233,26.9794,0.0],[-109.9267,26.9863,1.0237],[-109.927,26.9926,0.0],[-109.9291,26.9981,0.6216],[-109.9375,27.0034,0.8766],[-109.9304,26.9924,1.3626],[-109.929,26.9852,0.0],[-109.922,26.9775,0.4155],[-109.9216,26.9743,0.0]]],
[[[-109.897,26.9718,1.5323],[-109.8984,26.9711,1.5323],[-109.8955,26.9719,1.2781],[-109.8998,26.9681,0.0],[-109.8977,26.9689,1.4703],[-109.8975,26.9673,0.0],[-109.8961,26.9683,0.0],[-109.8917,26.9661,0.6737],[-109.8886,26.9609,1.9703],[-109.8907,26.9604,0.5961],[-109.8939,26.9635,0.4104],[-109.8975,26.9638,0.0],[-109.9002,26.9608,0.7126],[-109.8953,26.9599,0.0],[-109.8955,26.958,0.0],[-109.8928,26.9571,0.6412],[-109.8917,26.9549,0.6805],[-109.896,26.9561,0.0],[-109.8963,26.9549,0.0],[-109.8929,26.9508,0.0],[-109.8899,26.9502,2.3907],[-109.8929,26.949,0.0],[-109.8931,26.9444,0.1517],[-109.8964,26.9434,1.314],[-109.8961,26.9414,0.5525],[-109.8903,26.9438,0.209],[-109.8875,26.9403,0.0],[-109.8813,26.9393,1.0875],[-109.8807,26.9417,1.0874],[-109.8798,26.939,1.0335],[-109.882,26.937,1.0277],[-109.8872,26.9382,0.258],[-109.8872,26.931,0.7527],[-109.8898,26.9294,1.3653],[-109.8908,26.9373,0.3429],[-109.8943,26.939,0.0],[-109.8956,26.9358,0.9839],[-109.8984,26.9388,0.2924],[-109.8976,26.9439,0.9189],[-109.8993,26.9453,1.5145],[-109.897,26.9442,0.9189],[-109.8948,26.9452,0.3596],[-109.8953,26.9484,0.4129],[-109.8966,26.9469,1.0482],[-109.9,26.9469,1.8864],[-109.8988,26.9471,0.0],[-109.9013,26.9487,1.3592],[-109.9003,26.95,0.0],[-109.9041,26.9519,3.5877],[-109.9075,26.955,4.4767],[-109.9078,26.958,0.3761],[-109.911,26.9594,0.0],[-109.9098,26.9621,0.0],[-109.917,26.9651,2.1918],[-109.9172,26.9691,0.0],[-109.9192,26.9683,0.673],[-109.9228,26.9719,6.5371],[-109.9334,26.9875,1.0959],[-109.9324,26.9888,0.6862],[-109.9339,26.9925,0.9155],[-109.9406,27.0018,3.6175],[-109.9406,27.0047,2.7242],[-109.9386,27.0063,1.0999],[-109.9395,27.0093,0.0],[-109.9461,27.004,1.2231],[-109.9469,26.9971,0.0],[-109.9435,26.9903,0.7001],[-109.9305,26.9743,0.0],[-109.9155,26.9594,0.3613],[-109.8946,26.9305,2.4073],[-109.8901,26.9225,1.8822],[-109.8848,26.9056,0.0],[-109.8782,26.9087,0.9994],[-109.8786,26.9113,0.9841],[-109.8717,26.9113,1.208],[-109.8717,26.9129,1.3753],[-109.7423,26.9139,7.2875],[-109.7423,26.91,7.4296],[-109.7395,26.9097,7.0148],[-109.7405,26.905,6.2616],[-109.7179,26.905,7.3568],[-109.7178,26.9137,9.2223],[-109.7126,26.9137,9.7539],[-109.7126,26.9005,7.9236],[-109.6982,26.9004,10.3899],[-109.6982,26.8953,11.3682],[-109.6921,26.8951,12.4444],[-109.6915,26.8903,12.3662],[-109.6973,26.887,11.6941],[-109.6999,26.8803,12.9773],[-109.698,26.8678,10.2897],[-109.6947,26.8686,9.0781],[-109.6946,26.871,9.8711],[-109.6814,26.871,10.5205],[-109.6813,26.8786,10.9513],[-109.6764,26.8786,11.0465],[-109.6764,26.8719,9.6952],[-109.6741,26.8719,9.5315],[-109.6741,26.8703,8.9665],[-109.6764,26.8702,9.3959],[-109.6764,26.8668,8.7773],[-109.6313,26.8662,8.2914],[-109.6313,26.8481,10.3107],[-109.5914,26.848,11.5406],[-109.5913,26.8667,14.3918],[-109.575,26.867,13.1422],[-109.5751,26.8622,12.9131],[-109.547,26.8623,14.8281],[-109.5456,26.8612,14.3115],[-109.5459,26.8623,14.8281],[-109.53,26.8623,15.263],[-109.5302,26.9011,15.6753],[-109.4987,26.9027,23.6019],[-109.4986,26.9624,24.9719],[-109.5186,26.9625,25.2514],[-109.5186,26.9715,26.15],[-109.549,26.9715,23.5924],[-109.5491,26.9807,24.439],[-109.5511,26.9805,24.439],[-109.5489,26.9836,24.8988],[-109.5595,26.9839,23.937],[-109.5594,26.9988,25.6972],[-109.5388,26.9989,27.4115],[-109.539,27.0173,24.3509],[-109.5516,27.0172,24.8515],[-109.5515,27.034,25.0067],[-109.5484,27.034,24.9567],[-109.5484,27.0383,25.41],[-109.5459,27.0383,25.3605],[-109.5451,27.0497,26.6267],[-109.5467,27.0514,27.1538],[-109.5454,27.0528,27.5367],[-109.5484,27.056,27.7953],[-109.5484,27.0642,29.2371],[-109.5499,27.0643,29.1096],[-109.5502,27.0681,28.6034],[-109.5633,27.0647,26.7708],[-109.5633,27.072,27.4002],[-109.5615,27.0721,28.9111],[-109.5615,27.0692,26.5598],[-109.5582,27.0692,27.4142],[-109.5583,27.0738,32.2749],[-109.5553,27.0737,28.8305],[-109.5541,27.0775,31.0882],[-109.5568,27.0775,32.8235],[-109.5569,27.0804,32.8752],[-109.559,27.0799,35.2207],[-109.5603,27.0829,33.1626],[-109.5626,27.082,29.8655],[-109.5653,27.0889,32.5246],[-109.5694,27.0895,33.9655],[-109.5684,27.091,35.0635],[-109.5718,27.0898,35.5253],[-109.573,27.0925,35.175],[-109.5788,27.0945,35.2528],[-109.5788,27.1007,36.2078],[-109.5817,27.1007,36.2816],[-109.5817,27.164,52.9868],[-109.6129,27.1634,47.3051],[-109.6128,27.1672,49.0769],[-109.6224,27.166,48.3505],[-109.6235,27.1685,47.9636],[-109.6274,27.1686,48.0338],[-109.6304,27.1751,49.2615],[-109.6285,27.1786,50.6514],[-109.6295,27.1841,50.2147],[-109.6329,27.1849,47.8483],[-109.6391,27.1801,47.5863],[-109.6727,27.2247,55.4278],[-109.6836,27.2182,54.8158],[-109.6837,27.2354,59.6643],[-109.6955,27.2354,58.8293],[-109.6954,27.2399,60.8627],[-109.7076,27.2399,58.8623],[-109.7079,27.2222,52.0443],[-109.7206,27.2256,52.1793],[-109.725,27.2302,50.0879],[-109.7294,27.2296,51.5585],[-109.7321,27.2257,51.5518],[-109.7378,27.2257,50.1139],[-109.7446,27.2224,52.0829],[-109.7584,27.2228,50.8519],[-109.7632,27.2262,51.1653],[-109.8201,27.2262,39.7269],[-109.8202,27.2171,40.2082],[-109.81,27.217,40.173],[-109.8098,27.2078,37.115],[-109.7896,27.2078,42.8449],[-109.7898,27.2023,41.194],[-109.7281,27.2025,42.231],[-109.7283,27.1076,24.0316],[-109.7333,27.1076,23.942],[-109.7333,27.0984,21.7808],[-109.7484,27.0984,20.6928],[-109.7482,27.082,18.0853],[-109.8037,27.082,13.5347],[-109.8038,27.08,13.032],[-109.8101,27.08,12.4367],[-109.8099,27.0437,8.98],[-109.8505,27.0438,6.8192],[-109.8509,27.0071,3.5558],[-109.8714,27.0071,2.7525],[-109.8714,26.9987,0.7519],[-109.8755,26.9984,1.0914],[-109.8715,26.9981,0.7519],[-109.8715,26.975,2.3164],[-109.8852,26.9751,1.0647],[-109.8852,26.9785,0.7978],[-109.8833,26.9778,0.7],[-109.8833,26.98,0.0],[-109.8847,26.9799,0.7919],[-109.8877,26.9793,0.5778],[-109.8889,26.9732,0.6314],[-109.891,26.9723,0.593],[-109.8887,26.9711,0.2295],[-109.8847,26.9742,1.0647],[-109.8879,26.9702,1.2584],[-109.8904,26.9706,0.2295],[-109.8897,26.969,1.5598],[-109.8923,26.9711,0.0],[-109.8931,26.9684,1.1864],[-109.8949,26.9721,2.1136],[-109.897,26.9718,1.5323]]]]}}