{"type": "Feature","bbox": [-99.9742,19.7303,-99.7051,19.9016],"geometry": {"type": "MultiPolygon","coordinates": [[[[-99.9262,19.8906,2656.1729],[-99.935,19.8927,2921.1663],[-99.9324,19.8848,2731.8857],[-99.9324,19.871,2533.7605],[-99.9653,19.8785,2568.137],[-99.9714,19.8615,2457.7876],[-99.9742,19.8593,2451.7092],[-99.9632,19.8534,2462.2617],[-99.9432,19.8556,2451.1956],[-99.9302,19.8589,2453.1013],[-99.9322,19.8467,2467.8823],[-99.94,19.848,2466.9971],[-99.9438,19.8509,2451.7725],[-99.9438,19.8535,2453.2849],[-99.9477,19.8519,2451.511],[-99.948,19.8463,2691.5007],[-99.939,19.8434,2578.5503],[-99.9449,19.8313,2521.2429],[-99.9397,19.829,2516.1953],[-99.9437,19.8258,2507.646],[-99.9599,19.8342,2534.8271],[-99.9606,19.8297,2519.6401],[-99.9584,19.8287,2517.1724],[-99.9586,19.804,2519.644],[-99.9612,19.7924,2536.7512],[-99.9568,19.7934,2651.3845],[-99.9493,19.798,2549.0503],[-99.9292,19.792,2526.1777],[-99.9284,19.7965,2530.2578],[-99.9264,19.7961,2529.0217],[-99.9247,19.8022,2519.0645],[-99.9193,19.803,2519.4431],[-99.9175,19.8056,2508.6519],[-99.9067,19.8048,2510.0437],[-99.9048,19.8006,2509.1147],[-99.9084,19.7963,2510.4714],[-99.9068,19.7916,2515.3347],[-99.9152,19.7851,2735.4351],[-99.8832,19.7715,2510.8433],[-99.8786,19.7756,2509.9746],[-99.8767,19.7722,2510.2561],[-99.8809,19.7607,2512.9004],[-99.8602,19.7636,2514.2136],[-99.8605,19.7571,2517.8379],[-99.8488,19.7448,2522.9812],[-99.8438,19.7516,2527.7092],[-99.8482,19.7572,2521.9973],[-99.8475,19.7582,2521.9973],[-99.8439,19.7556,2523.6968],[-99.8181,19.7459,2587.0156],[-99.8161,19.7401,2678.1377],[-99.8054,19.7349,2783.1846],[-99.7914,19.7324,2916.4272],[-99.7812,19.7393,3114.9924],[-99.7682,19.7445,3761.0876],[-99.7585,19.7389,3848.2539],[-99.7537,19.7381,3780.9893],[-99.7521,19.7398,3737.1399],[-99.7499,19.7393,3687.8706],[-99.7497,19.746,3589.8584],[-99.7453,19.7303,3381.0117],[-99.7302,19.7411,3105.2534],[-99.7271,19.7372,3059.7285],[-99.7057,19.7428,2806.1506],[-99.7051,19.7479,2785.8813],[-99.7128,19.7582,2854.8962],[-99.709,19.7609,2816.9365],[-99.7138,19.7642,2710.5713],[-99.7105,19.7683,2715.2236],[-99.7188,19.7732,2730.0415],[-99.7288,19.7744,2739.2544],[-99.7339,19.7772,2774.5747],[-99.7424,19.7841,2792.1396],[-99.7452,19.7915,2862.9622],[-99.7504,19.7971,2754.9043],[-99.7561,19.7974,2748.0806],[-99.7639,19.8012,2736.0452],[-99.7797,19.813,2703.9192],[-99.7743,19.821,2741.3452],[-99.7692,19.8238,2775.9077],[-99.7729,19.8288,2721.5288],[-99.7854,19.8335,2692.0],[-99.7891,19.841,2711.8181],[-99.7895,19.846,2699.6467],[-99.7991,19.8405,2833.7715],[-99.8146,19.8517,2736.9219],[-99.8157,19.8542,2743.1777],[-99.8211,19.8546,2701.1394],[-99.8355,19.8627,2686.7666],[-99.8393,19.8679,2674.6719],[-99.8443,19.859,2637.2678],[-99.8473,19.8563,2603.4504],[-99.8499,19.8562,2597.5432],[-99.8478,19.8746,2643.366],[-99.8695,19.8923,2502.6509],[-99.8844,19.9016,2508.2725],[-99.8906,19.8952,2525.1189],[-99.8933,19.8898,2554.2886],[-99.8849,19.8889,2567.5178],[-99.8865,19.8859,2573.1956],[-99.8893,19.8871,2606.21],[-99.8972,19.8836,2684.5742],[-99.9262,19.8906,2656.1729]]]]}
,"properties": {"GID_2": "MEX.15.14_2","GID_0": "MEX","country": "México","GID_1": "MEX.15_1","province": "México","NL_NAME_1": "NA","county": "Atlacomulco","VARNAME_2": "NA","NL_NAME_2": "NA","TYPE_2": "Município","ENGTYPE_2": "Municipality","CC_2": "NA","HASC_2": "NA","name": "Atlacomulco.county","area_km2": 258.719,"hist_schema_id": "Elevation0-9000","hist_area_km2": {"2450": 7.9567,"2475": 8.1957,"2500": 20.3026,"2525": 49.4123,"2550": 17.1134,"2575": 16.3557,"2600": 15.3985,"2625": 11.6085,"2650": 13.0248,"2675": 11.3096,"2700": 16.4363,"2725": 13.4253,"2750": 9.9946,"2775": 7.6008,"2800": 5.8853,"2825": 4.3093,"2850": 3.8306,"2875": 2.873,"2900": 2.0751,"2925": 1.6761,"2950": 1.716,"2975": 1.317,"3000": 1.4168,"3025": 1.3569,"3050": 0.8181,"3075": 0.9578,"3100": 0.5787,"3125": 0.8381,"3150": 0.6385,"3175": 0.7583,"3200": 0.7583,"3225": 0.5987,"3250": 0.6984,"3275": 0.5787,"3300": 0.5787,"3325": 0.6785,"3350": 0.9179,"3375": 0.3791,"3400": 0.4789,"3425": 0.459,"3450": 0.2794,"3475": 0.2395,"3500": 0.2794,"3525": 0.1397,"3550": 0.2794,"3575": 0.2993,"3600": 0.1197,"3625": 0.2195,"3650": 0.1996,"3675": 0.1996,"3700": 0.2195,"3725": 0.1596,"3750": 0.1996,"3775": 0.1796,"3800": 0.0998,"3825": 0.1197,"3850": 0.0998,"3875": 0.0798}}}