{"type":"Feature","properties":{"GID_2":"MEX.6.51_2","GID_0":"MEX","country":"México","GID_1":"MEX.6_1","province":"Chihuahua","NL_NAME_1":"NA","county":"Ocampo","VARNAME_2":"NA","NL_NAME_2":"NA","TYPE_2":"Município","ENGTYPE_2":"Municipality","CC_2":"NA","HASC_2":"NA","name":"Ocampo.county"},
"geometry":{"type": "MultiPolygon","coordinates": [[[[-107.8182,28.0434,2453.875],[-107.8116,28.0729,2302.3555],[-107.825,28.0776,2395.0269],[-107.834,28.0874,2490.8596],[-107.8436,28.0903,2446.8936],[-107.8538,28.0983,2256.3323],[-107.8574,28.0969,2270.1389],[-107.8656,28.0991,2395.5],[-107.8672,28.0982,2342.5867],[-107.8696,28.1002,2380.1958],[-107.8785,28.0897,2404.314],[-107.8949,28.1012,2661.8694],[-107.8928,28.1047,2599.9722],[-107.8955,28.1045,2555.5005],[-107.8947,28.1066,2536.46],[-107.8983,28.1055,2509.9062],[-107.898,28.102,2606.9077],[-107.8993,28.101,2617.8479],[-107.8979,28.0985,2649.6997],[-107.9204,28.1134,2700.2715],[-107.9175,28.1135,2722.3716],[-107.9165,28.1148,2695.6294],[-107.9177,28.1168,2721.5137],[-107.9154,28.1186,2708.8386],[-107.9115,28.1182,2668.8064],[-107.9132,28.1308,2720.1926],[-107.9153,28.1338,2693.5842],[-107.9232,28.1344,2615.9141],[-107.9264,28.1444,2509.9529],[-107.9325,28.1397,2745.542],[-107.9619,28.1794,2643.8184],[-107.9679,28.1772,2565.1772],[-108.0095,28.2066,2567.0173],[-108.1061,28.282,2499.6682],[-108.0907,28.3061,2378.376],[-108.0961,28.3085,2418.5627],[-108.0968,28.3144,2455.8574],[-108.1214,28.3142,2611.7339],[-108.1236,28.3109,2637.6714],[-108.1301,28.3085,2496.6729],[-108.1316,28.3031,2418.687],[-108.1337,28.3014,2372.3328],[-108.1343,28.2946,2241.6982],[-108.1409,28.3018,2383.9753],[-108.1486,28.3031,2508.9441],[-108.1475,28.3052,2523.0632],[-108.1566,28.3015,2475.8264],[-108.1624,28.3105,2444.0149],[-108.1678,28.3152,2371.7378],[-108.168,28.3178,2381.7231],[-108.1659,28.3208,2395.5234],[-108.1666,28.3231,2379.3589],[-108.1709,28.3284,2233.0791],[-108.1741,28.3279,2240.0005],[-108.1753,28.3301,2174.2854],[-108.1786,28.3286,2181.071],[-108.1812,28.3317,2147.4978],[-108.1901,28.333,2126.3918],[-108.1969,28.3302,2118.8865],[-108.2035,28.3302,2066.4502],[-108.2052,28.3268,2087.1509],[-108.2115,28.3217,2062.0635],[-108.2182,28.3215,2029.056],[-108.2221,28.3265,2112.6953],[-108.2234,28.3253,2106.5518],[-108.2251,28.3268,2056.3005],[-108.2278,28.3333,2131.5449],[-108.2283,28.3452,2172.3135],[-108.2321,28.3505,2089.2634],[-108.2383,28.3532,2059.1641],[-108.2418,28.3517,2046.1935],[-108.2553,28.351,1910.7302],[-108.2622,28.3465,1780.3149],[-108.2655,28.347,1756.8799],[-108.2674,28.3457,1751.0039],[-108.2716,28.3459,1805.8009],[-108.2717,28.3482,1753.0319],[-108.2734,28.3486,1795.3778],[-108.2743,28.351,1749.5201],[-108.2776,28.3513,1742.0498],[-108.2801,28.3472,1735.1094],[-108.2826,28.349,1734.436],[-108.2867,28.3491,1719.3776],[-108.2883,28.3456,1725.6902],[-108.2908,28.3459,1699.4834],[-108.2927,28.3441,1698.95],[-108.3033,28.3464,1637.8856],[-108.3107,28.3533,1593.057],[-108.3171,28.3515,1596.6157],[-108.3241,28.3529,1648.1661],[-108.3309,28.3483,1533.1948],[-108.3362,28.3524,1542.4351],[-108.3423,28.3503,1506.8397],[-108.3469,28.3512,1443.304],[-108.3571,28.3389,1359.771],[-108.3587,28.34,1407.895],[-108.3609,28.3495,2019.9417],[-108.3723,28.3504,1759.7183],[-108.3733,28.3475,1756.5649],[-108.367,28.3428,1739.9683],[-108.3635,28.337,1390.7153],[-108.3648,28.3358,1418.0078],[-108.364,28.3301,1323.9648],[-108.4042,28.3518,2367.5537],[-108.4876,28.344,1871.3425],[-108.4752,28.3021,1649.4657],[-108.4847,28.254,924.9373],[-108.4862,28.2519,930.2435],[-108.4881,28.2525,927.5889],[-108.4879,28.2494,913.9324],[-108.4909,28.2498,914.0319],[-108.4898,28.2459,913.1876],[-108.4916,28.2443,940.0408],[-108.4924,28.2358,950.7438],[-108.4856,28.2268,954.2731],[-108.4825,28.2268,886.0984],[-108.4807,28.2187,954.2161],[-108.4755,28.2171,1080.4514],[-108.4876,28.2088,837.9299],[-108.4879,28.2019,830.1553],[-108.4896,28.1992,830.3311],[-108.4869,28.2009,892.4794],[-108.484,28.1988,886.8409],[-108.4787,28.1998,920.1667],[-108.4758,28.1973,931.0964],[-108.4734,28.1984,948.79],[-108.4698,28.1971,1036.1888],[-108.4657,28.1977,1065.6085],[-108.4641,28.2009,1146.995],[-108.4584,28.1873,1784.1661],[-108.4534,28.1867,1772.5867],[-108.454,28.1854,1758.1365],[-108.4483,28.1833,1770.5475],[-108.4467,28.1792,1749.2673],[-108.4433,28.177,1642.9594],[-108.4422,28.169,1565.016],[-108.4398,28.1666,1394.3784],[-108.4405,28.1621,1304.0901],[-108.4353,28.1618,1217.6177],[-108.4325,28.1594,1194.3649],[-108.4243,28.1436,1131.9458],[-108.4133,28.1321,1116.4185],[-108.4112,28.1256,1109.9393],[-108.4125,28.1244,1090.9683],[-108.418,28.1279,1157.2114],[-108.4247,28.1277,1339.2462],[-108.4232,28.125,1307.4871],[-108.427,28.1204,1379.3489],[-108.4368,28.1181,1391.3802],[-108.4398,28.1188,1363.8597],[-108.4425,28.1155,1350.4578],[-108.4462,28.1189,1399.4287],[-108.4512,28.113,1307.6986],[-108.4499,28.1066,1214.6818],[-108.4539,28.0978,1012.6434],[-108.4529,28.0946,983.168],[-108.4548,28.0868,809.104],[-108.4489,28.0872,1047.0267],[-108.4451,28.0852,1331.0731],[-108.4387,28.0782,1416.8328],[-108.4401,28.0753,1324.7267],[-108.4352,28.061,855.6052],[-108.4364,28.0592,904.9627],[-108.4391,28.0589,932.2297],[-108.4438,28.047,685.9152],[-108.4483,28.045,760.9048],[-108.4478,28.0508,657.1939],[-108.4562,28.0499,655.0359],[-108.4577,28.0551,643.103],[-108.4556,28.0563,668.0776],[-108.458,28.058,634.3807],[-108.4627,28.0491,627.5264],[-108.4691,28.0507,618.5085],[-108.4706,28.0494,615.9281],[-108.4701,28.0472,624.6412],[-108.4742,28.0453,634.7882],[-108.4746,28.0376,622.1664],[-108.476,28.0365,620.6227],[-108.4797,28.0387,614.6599],[-108.4828,28.0369,630.3927],[-108.4832,28.0402,619.8548],[-108.4941,28.0428,647.2419],[-108.506,28.0366,603.644],[-108.507,28.0346,611.0053],[-108.5136,28.0349,585.7794],[-108.5168,28.0316,587.9503],[-108.5233,28.0286,582.9943],[-108.5223,28.025,578.2964],[-108.5279,28.0236,597.7692],[-108.5314,28.0204,636.7383],[-108.4957,28.0148,1461.1198],[-108.4937,28.016,1511.2542],[-108.4406,28.0193,1084.9429],[-108.436,28.026,1099.6073],[-108.4333,28.0453,671.257],[-108.4182,28.0104,1033.0803],[-108.3904,28.0208,791.1365],[-108.3876,27.9955,996.2974],[-108.3816,27.9835,1091.9026],[-108.3787,27.9825,1134.0837],[-108.3724,27.9849,1224.1816],[-108.3656,27.9839,1291.5325],[-108.3537,27.9864,1536.6765],[-108.3411,27.9797,1693.6185],[-108.3338,27.979,1758.1604],[-108.3251,27.9808,1848.657],[-108.3243,27.9847,1898.7897],[-108.316,27.9879,1920.4156],[-108.3123,27.9869,1891.8546],[-108.3019,27.9934,1872.6428],[-108.2946,28.0044,1982.5667],[-108.278,28.0179,1908.9368],[-108.2415,28.0245,2603.6812],[-108.1757,28.0258,2653.2722],[-108.1633,28.0224,2431.9204],[-108.1524,28.0044,2189.5195],[-108.1508,28.0043,2169.8777],[-108.1456,28.0094,2355.3311],[-108.1344,28.0051,2265.2319],[-108.1247,28.0052,2072.4629],[-108.1251,27.9981,2016.9084],[-108.1225,27.993,1980.6251],[-108.1191,27.9917,1967.1808],[-108.1138,27.9856,1947.2498],[-108.1124,27.9881,2042.5048],[-108.1152,27.9582,2196.6638],[-108.0919,27.9638,1922.6525],[-108.0883,27.9979,1854.9524],[-108.0868,28.0006,1817.022],[-108.0833,28.0039,1848.0662],[-108.0764,28.0047,1883.5618],[-108.059,28.026,1982.8381],[-108.0513,28.0281,1998.5944],[-108.0472,28.0332,2017.0239],[-108.0447,28.0336,2030.4253],[-108.0431,28.0369,2047.3516],[-108.0331,28.0373,2057.1604],[-108.0317,28.0398,2059.1187],[-108.0303,28.0397,2084.4849],[-108.0297,28.0426,2064.3596],[-108.0271,28.0433,2073.2393],[-108.0211,28.0423,2091.3816],[-108.0221,28.0415,2072.095],[-108.0207,28.0413,2072.095],[-108.0211,28.0399,2102.5474],[-108.0185,28.0398,2093.8394],[-108.0182,28.0382,2123.4304],[-108.0161,28.0404,2103.186],[-107.9769,28.0424,2387.9531],[-107.9783,28.0474,2209.9326],[-107.9699,28.0472,2225.0742],[-107.966,28.0425,2212.0193],[-107.9596,28.0408,2227.2266],[-107.9546,28.0427,2278.5071],[-107.9512,28.0459,2301.6846],[-107.9412,28.0399,2344.0762],[-107.9278,28.0353,2302.3584],[-107.9181,28.0247,2221.0862],[-107.9055,28.0155,2120.9688],[-107.9032,28.0106,2135.2717],[-107.9052,28.0042,2064.4749],[-107.894,28.007,2051.0732],[-107.8848,28.0001,2079.9248],[-107.8814,28.003,2060.7417],[-107.8751,27.9984,2062.2466],[-107.8744,27.9951,2083.1396],[-107.8708,27.9929,2069.082],[-107.8731,27.99,2074.2588],[-107.8716,27.9844,2087.3037],[-107.8659,27.982,2091.5911],[-107.8672,27.9766,2125.1304],[-107.865,27.9769,2110.5554],[-107.8612,27.9737,2146.3428],[-107.8575,27.9737,2139.4126],[-107.8621,27.9705,2169.2175],[-107.86,27.9672,2152.7017],[-107.861,27.9658,2163.9883],[-107.8586,27.9645,2170.9285],[-107.8611,27.9571,2186.8901],[-107.8592,27.9496,2307.5046],[-107.8545,27.9433,2442.7188],[-107.8373,27.9375,2224.093],[-107.7994,27.9638,2573.6465],[-107.8309,28.0299,2626.6973],[-107.8182,28.0434,2453.875]]]]}}