{"type":"Feature","properties":{"GID_2":"MEX.19.38_2","GID_0":"MEX","country":"México","GID_1":"MEX.19_1","province":"NuevoLeón","NL_NAME_1":"NA","county":"Mina","VARNAME_2":"NA","NL_NAME_2":"NA","TYPE_2":"Município","ENGTYPE_2":"Municipality","CC_2":"NA","HASC_2":"NA","name":"Mina.county"},
"geometry":{"type": "MultiPolygon","coordinates": [[[[-100.9838,26.5456,1091.8049],[-101.0789,26.4693,765.1478],[-101.1896,26.3847,1096.7007],[-101.2068,26.3698,1803.4446],[-101.1854,26.3454,1349.7726],[-101.1363,26.2955,855.5813],[-101.0976,26.2529,847.3392],[-101.0917,26.2445,899.9786],[-101.0746,26.199,919.0245],[-101.0686,26.189,942.8083],[-101.0474,26.1698,987.624],[-101.0272,26.1597,1044.0894],[-101.0089,26.1538,1073.8225],[-100.9827,26.1395,1098.6769],[-100.9723,26.1277,1131.2719],[-100.9529,26.1003,1007.2209],[-100.9426,26.0906,1061.8044],[-100.9429,26.0868,1040.446],[-100.9164,26.0756,1049.6211],[-100.9046,26.0087,898.827],[-100.9055,25.9569,756.8257],[-100.8769,25.9472,1012.4172],[-100.8243,25.9441,1067.0081],[-100.8183,25.9501,818.7407],[-100.8162,25.94,754.9175],[-100.775,25.9502,1165.033],[-100.7539,25.9604,931.6504],[-100.7374,25.9835,953.574],[-100.7204,25.9447,657.5104],[-100.7013,25.9458,645.9448],[-100.6752,25.9505,631.9177],[-100.6693,25.9467,624.9657],[-100.6657,25.9519,620.73],[-100.6573,25.9501,622.481],[-100.651,25.9533,620.8134],[-100.6475,25.9587,612.668],[-100.6412,25.9589,613.5234],[-100.6388,25.9607,609.2183],[-100.6372,25.9596,614.0426],[-100.6218,25.9641,607.1106],[-100.6174,25.9671,602.0148],[-100.612,25.9477,637.3352],[-100.6116,25.8627,2221.1306],[-100.6077,25.8642,2133.0044],[-100.6049,25.8698,1830.4237],[-100.6005,25.8733,1861.7522],[-100.5883,25.8783,1750.3013],[-100.5818,25.8786,1578.5154],[-100.5748,25.8814,1632.2555],[-100.5236,25.9059,1679.8088],[-100.504,25.9008,1842.1056],[-100.4956,25.9035,1859.2739],[-100.5031,25.9516,1379.4214],[-100.4851,25.9862,553.0925],[-100.4811,25.9865,555.2053],[-100.4799,25.9891,543.5792],[-100.4811,25.9893,545.0829],[-100.479,25.9947,553.5068],[-100.4848,25.9967,555.9106],[-100.475,26.0244,703.8389],[-100.4662,26.0181,723.2988],[-100.4581,26.0323,1353.2124],[-100.4741,26.0478,1211.3298],[-100.505,26.0687,1537.0271],[-100.5383,26.0999,1680.9023],[-100.5395,26.1079,2244.7129],[-100.5649,26.1233,2493.0071],[-100.522,26.2104,615.6943],[-100.5022,26.2008,594.6901],[-100.5009,26.2018,593.487],[-100.5054,26.2067,598.5844],[-100.5037,26.2112,605.1379],[-100.4998,26.2123,614.0383],[-100.4641,26.2542,1251.0813],[-100.4642,26.2562,1159.5785],[-100.4488,26.2591,1772.3428],[-100.4506,26.2651,1612.5392],[-100.4492,26.2696,1804.1993],[-100.4519,26.2806,1849.5334],[-100.4627,26.289,2012.4292],[-100.4667,26.2969,2134.2661],[-100.463,26.3019,2136.0342],[-100.4757,26.3238,1991.2395],[-100.472,26.3336,1974.8645],[-100.4799,26.3355,2132.0957],[-100.4768,26.3393,2058.8389],[-100.4714,26.3424,1642.4946],[-100.4817,26.3464,1920.4949],[-100.4861,26.3529,1856.5986],[-100.4896,26.3546,1965.9553],[-100.4883,26.3591,1764.276],[-100.4944,26.3646,1743.8188],[-100.5037,26.3688,1756.7588],[-100.5007,26.3741,1705.9658],[-100.4985,26.375,1746.4248],[-100.4959,26.3815,1604.7625],[-100.4998,26.3868,1726.7159],[-100.507,26.3889,1488.0773],[-100.5025,26.3933,1766.1023],[-100.5069,26.3977,2008.0565],[-100.5086,26.4086,1838.4584],[-100.515,26.4133,1876.4573],[-100.5112,26.4291,2078.3994],[-100.5146,26.4333,2036.0702],[-100.6237,26.4319,573.9664],[-100.6187,26.4442,563.5206],[-100.6154,26.446,564.9165],[-100.6164,26.448,563.441],[-100.6138,26.4567,558.335],[-100.6213,26.4656,549.8362],[-100.6142,26.4661,554.2043],[-100.6122,26.4736,553.2915],[-100.6148,26.4764,549.1798],[-100.6136,26.4783,549.163],[-100.6212,26.4791,543.1164],[-100.6202,26.488,539.6902],[-100.6173,26.4879,541.024],[-100.6167,26.4933,536.8381],[-100.6196,26.4932,536.1161],[-100.619,26.4993,532.7644],[-100.6124,26.5128,527.1276],[-100.6098,26.524,522.5132],[-100.6369,26.5214,576.9308],[-100.6358,26.5289,653.4407],[-100.6403,26.5418,650.9127],[-100.6488,26.5521,669.4003],[-100.6551,26.5676,672.5844],[-100.6626,26.5762,764.3197],[-100.6766,26.5876,758.4979],[-100.6818,26.5976,695.2609],[-100.6918,26.61,660.0149],[-100.6961,26.6234,704.1365],[-100.753,26.7352,508.7298],[-100.9051,26.6086,768.1773],[-100.9838,26.5456,1091.8049]]]]}}