{"type":"Feature","properties":{"GID_2":"MEX.30.26_2","GID_0":"MEX","country":"México","GID_1":"MEX.30_1","province":"Veracruz","NL_NAME_1":"NA","county":"BocadelRío","VARNAME_2":"NA","NL_NAME_2":"NA","TYPE_2":"Município","ENGTYPE_2":"Municipality","CC_2":"NA","HASC_2":"NA","name":"Bocadel_Río.county"},
"geometry":{"type": "MultiPolygon","coordinates": [[[[-96.1017,19.0971,0.39],[-96.1064,19.0986,2.3699],[-96.1108,19.0973,0.6152],[-96.1183,19.0919,1.957],[-96.1236,19.0942,1.5198],[-96.1404,19.0947,0.9939],[-96.1403,19.087,11.3056],[-96.1435,19.0851,7.8443],[-96.1444,19.0818,3.2455],[-96.1404,19.0781,2.1382],[-96.1327,19.0767,7.8098],[-96.1314,19.0701,3.6866],[-96.138,19.0702,2.628],[-96.1413,19.0678,2.8007],[-96.1431,19.0631,7.4818],[-96.1427,19.0578,4.0426],[-96.1238,19.0596,4.2375],[-96.1228,19.0543,6.4456],[-96.1172,19.0557,2.8957],[-96.1208,19.0614,2.2659],[-96.1171,19.0588,3.7662],[-96.1139,19.0726,0.9273],[-96.1148,19.0828,2.3751],[-96.1169,19.0842,7.3234],[-96.1103,19.0863,0.396],[-96.1057,19.0832,10.1612],[-96.1066,19.0919,3.3953],[-96.1021,19.0921,3.9587],[-96.099,19.0944,0.2833],[-96.1017,19.0971,0.39]]],
[[[-96.1108,19.0991,1.4215],[-96.1057,19.0996,0.0],[-96.0966,19.1046,0.0],[-96.0992,19.104,0.0],[-96.1028,19.1111,4.406],[-96.1061,19.1265,3.8553],[-96.1054,19.1298,0.7795],[-96.1014,19.1344,0.0],[-96.1015,19.142,3.5501],[-96.0951,19.148,0.9706],[-96.0941,19.1513,5.791],[-96.106,19.1653,4.0281],[-96.1093,19.1677,1.8926],[-96.1171,19.1693,4.3771],[-96.1187,19.1714,4.2152],[-96.1185,19.1687,6.7142],[-96.1315,19.1652,7.9236],[-96.1294,19.1462,5.4136],[-96.1401,19.1411,4.8082],[-96.1497,19.1095,3.3297],[-96.1469,19.1082,1.9047],[-96.1436,19.1111,3.9131],[-96.1359,19.1142,3.6803],[-96.1342,19.1178,4.5924],[-96.131,19.1165,1.6305],[-96.1298,19.1185,2.6514],[-96.1278,19.1153,11.4706],[-96.1234,19.1158,8.3281],[-96.1207,19.1108,9.8052],[-96.1139,19.1083,4.4535],[-96.1137,19.1031,4.4236],[-96.1108,19.0991,1.4215]]]]}}