{"type":"Feature","properties":{"GID_2":"MEX.21.181_2","GID_0":"MEX","country":"México","GID_1":"MEX.21_1","province":"Puebla","NL_NAME_1":"NA","county":"Tlaltenango","VARNAME_2":"NA","NL_NAME_2":"NA","TYPE_2":"Município","ENGTYPE_2":"Municipality","CC_2":"NA","HASC_2":"NA","name":"Tlaltenango.county"},
"geometry":{"type": "MultiPolygon","coordinates": [[[[-98.3182,19.1617,2187.5938],[-98.3252,19.17,2188.1641],[-98.3427,19.1779,2201.4497],[-98.3398,19.1861,2196.7429],[-98.3454,19.192,2198.7612],[-98.355,19.1791,2207.1924],[-98.3595,19.1678,2236.302],[-98.3581,19.1681,2234.0457],[-98.3677,19.1485,2224.5303],[-98.3712,19.1496,2230.2058],[-98.3746,19.145,2231.6538],[-98.3439,19.1331,2209.6147],[-98.3427,19.1353,2206.134],[-98.3237,19.1346,2189.8706],[-98.3214,19.1425,2188.8689],[-98.3183,19.1469,2189.1279],[-98.3182,19.1617,2187.5938]]]]}}