{"type":"Feature","properties":{"GID_2":"MEX.20.47_2","GID_0":"MEX","country":"México","GID_1":"MEX.20_1","province":"Oaxaca","NL_NAME_1":"NA","county":"LaPe","VARNAME_2":"NA","NL_NAME_2":"NA","TYPE_2":"Município","ENGTYPE_2":"Municipality","CC_2":"NA","HASC_2":"NA","name":"La_Pe.county"},
"geometry":{"type": "MultiPolygon","coordinates": [[[[-96.8252,16.6308,1623.5988],[-96.8142,16.6198,1555.9332],[-96.7983,16.6074,1447.9386],[-96.7982,16.5982,1432.4274],[-96.7938,16.5928,1417.771],[-96.7963,16.5911,1421.1592],[-96.7922,16.5867,1456.9104],[-96.7851,16.5832,1447.6364],[-96.7849,16.5859,1460.4303],[-96.774,16.6008,1464.4081],[-96.7575,16.6164,1504.7915],[-96.7664,16.6265,1459.8877],[-96.7699,16.6224,1456.9418],[-96.7806,16.6346,1492.1591],[-96.796,16.6384,1494.8031],[-96.7989,16.6433,1531.62],[-96.7957,16.6524,1535.0835],[-96.7929,16.6548,1528.3193],[-96.7994,16.6606,1580.097],[-96.8079,16.6602,1501.5554],[-96.8119,16.6623,1481.8],[-96.8138,16.6612,1486.6685],[-96.815,16.6508,1521.6774],[-96.8252,16.6308,1623.5988]]]]}}