{"type":"Feature","properties":{"GID_2":"MEX.8.3_2","GID_0":"MEX","country":"México","GID_1":"MEX.8_1","province":"Colima","NL_NAME_1":"NA","county":"Comala","VARNAME_2":"NA","NL_NAME_2":"NA","TYPE_2":"Município","ENGTYPE_2":"Municipality","CC_2":"NA","HASC_2":"NA","name":"Comala.county"},
"geometry":{"type": "MultiPolygon","coordinates": [[[[-103.6124,19.4889,2602.2163],[-103.6145,19.4947,2794.8582],[-103.6107,19.4955,2842.394],[-103.6062,19.5006,2948.5923],[-103.6183,19.5125,3865.1655],[-103.6515,19.501,2222.2329],[-103.6628,19.5029,1921.167],[-103.6698,19.5009,1804.5447],[-103.6757,19.4968,1713.3263],[-103.6804,19.4959,1599.0748],[-103.6828,19.4931,1570.7023],[-103.6848,19.4942,1583.217],[-103.69,19.4924,1521.6996],[-103.6934,19.4866,1444.702],[-103.6985,19.4851,1429.3156],[-103.6989,19.4821,1418.8319],[-103.7042,19.4771,1334.328],[-103.7083,19.4699,1272.884],[-103.7158,19.467,1231.4814],[-103.7162,19.457,1169.6123],[-103.7183,19.4535,1162.5834],[-103.7254,19.4512,1115.5703],[-103.7353,19.4434,1051.3308],[-103.7507,19.4457,973.2319],[-103.7678,19.4346,875.999],[-103.7714,19.4338,908.7078],[-103.7744,19.4305,838.7658],[-103.7789,19.431,809.1556],[-103.7927,19.4275,762.1115],[-103.7981,19.4218,741.1243],[-103.8013,19.422,698.7478],[-103.8092,19.4154,698.8322],[-103.8177,19.4124,635.7101],[-103.8193,19.4087,569.8887],[-103.8234,19.4169,569.6593],[-103.8221,19.4225,591.6633],[-103.8235,19.4272,592.1406],[-103.828,19.4327,584.7452],[-103.8241,19.4378,623.4815],[-103.8352,19.4397,679.0653],[-103.841,19.4382,780.6107],[-103.8466,19.4337,1043.2148],[-103.8527,19.4313,1531.3639],[-103.8565,19.4313,1714.557],[-103.8592,19.4334,1730.6078],[-103.8582,19.4371,1614.3159],[-103.8638,19.4474,1193.6975],[-103.8693,19.4449,1597.8452],[-103.8727,19.4456,1792.4126],[-103.8756,19.4432,1890.3285],[-103.8794,19.4445,2032.8031],[-103.8833,19.456,2026.1226],[-103.8869,19.4616,2123.7034],[-103.8904,19.4636,2114.2029],[-103.8973,19.4614,2270.334],[-103.9088,19.4536,2328.2961],[-103.898,19.4386,2161.9175],[-103.8995,19.4328,2140.3174],[-103.8897,19.424,2228.8765],[-103.8854,19.4229,2217.4741],[-103.8836,19.4126,2283.623],[-103.8869,19.4056,2278.8494],[-103.8811,19.3935,2161.2324],[-103.8854,19.368,1905.0887],[-103.8818,19.3573,1393.7236],[-103.899,19.343,677.9299],[-103.8944,19.3429,796.0138],[-103.892,19.3464,903.7861],[-103.8892,19.3463,925.6478],[-103.8824,19.3502,991.0673],[-103.8799,19.3474,1128.3743],[-103.8779,19.3389,1344.0347],[-103.8542,19.351,1331.9409],[-103.8325,19.3389,1032.9921],[-103.8331,19.3331,985.3843],[-103.8408,19.3309,986.9434],[-103.8321,19.3085,503.6079],[-103.8279,19.3149,521.5732],[-103.8323,19.3246,741.3079],[-103.8195,19.3185,448.6777],[-103.8156,19.3268,452.0699],[-103.8133,19.3291,455.7822],[-103.8107,19.3288,480.1163],[-103.8102,19.3244,479.4763],[-103.8135,19.3254,460.9299],[-103.8152,19.3239,451.4244],[-103.8188,19.3129,439.2059],[-103.822,19.3099,441.214],[-103.8204,19.3091,441.214],[-103.8209,19.3072,440.0663],[-103.8121,19.3047,487.4148],[-103.8132,19.3018,481.4741],[-103.7976,19.2915,477.0662],[-103.7953,19.2927,483.8539],[-103.7897,19.3022,496.5214],[-103.7867,19.3009,514.5619],[-103.7835,19.2988,518.1447],[-103.7852,19.2975,516.8788],[-103.784,19.2963,512.5977],[-103.7742,19.2898,530.5492],[-103.7794,19.2815,506.9598],[-103.7744,19.2783,513.894],[-103.7649,19.2903,555.2017],[-103.7479,19.2907,590.1552],[-103.7542,19.3032,601.5864],[-103.7477,19.3022,611.7949],[-103.7452,19.3107,638.556],[-103.7478,19.3117,629.4209],[-103.7451,19.3196,636.1499],[-103.7395,19.3198,657.5844],[-103.7395,19.3213,654.6213],[-103.7365,19.3229,665.6425],[-103.7368,19.3283,677.6508],[-103.731,19.3301,713.0215],[-103.7163,19.3396,835.7498],[-103.7109,19.3344,804.6393],[-103.7025,19.3447,871.2559],[-103.7043,19.3471,887.1909],[-103.7032,19.3518,909.1739],[-103.6994,19.357,937.8501],[-103.6991,19.3632,987.9724],[-103.684,19.3844,1204.54],[-103.6828,19.3892,1217.0831],[-103.687,19.3923,1266.6597],[-103.6839,19.3965,1284.236],[-103.6917,19.3968,1285.0095],[-103.6948,19.3985,1250.4286],[-103.6978,19.3975,1224.3586],[-103.699,19.3991,1214.554],[-103.6929,19.4031,1275.0979],[-103.6884,19.4096,1382.4475],[-103.6796,19.4119,1450.316],[-103.6773,19.4173,1506.2366],[-103.6941,19.4309,1530.8289],[-103.6909,19.433,1554.5786],[-103.686,19.4309,1515.7069],[-103.6833,19.4327,1504.0612],[-103.6776,19.4306,1445.0688],[-103.6735,19.4314,1531.3649],[-103.672,19.4404,1429.5437],[-103.6748,19.4429,1409.2881],[-103.6748,19.4452,1408.6118],[-103.6709,19.4454,1431.9172],[-103.6683,19.4539,1496.8741],[-103.6699,19.4561,1479.0906],[-103.6688,19.4622,1537.5946],[-103.6605,19.4646,1815.2153],[-103.6605,19.4666,1759.0543],[-103.6545,19.4664,1810.4769],[-103.6431,19.4714,1992.126],[-103.646,19.4762,1928.0874],[-103.6386,19.4801,2320.1409],[-103.6367,19.4761,2252.3357],[-103.6363,19.4678,1953.2959],[-103.6349,19.4715,2021.4451],[-103.6301,19.475,2204.1277],[-103.6281,19.484,2413.2188],[-103.6267,19.4838,2415.5015],[-103.626,19.4861,2445.2598],[-103.6124,19.4889,2602.2163]]]]}}