{"type":"Feature","properties":{"featurecla":"Lake","scalerank":9,"name":"Laguna Chil","name_abb":"Lag. Chil","name_alt":null,"note":null,"delta":null,"dam_name":null,"year":-99,"admin":null,"min_zoom":7.0,"min_label":8.0},
"geometry":{"type": "Polygon","coordinates": [[[-98.041795262978439,22.260223435896023,60.0416],[-98.106702553010976,22.260223435896023,1.8886],[-98.124953128893139,22.25669106637045,3.8781],[-98.131429139690042,22.247860142556505,-0.8522],[-98.135108691279186,22.236968669852615,-1.0],[-98.144822707474532,22.226665925403012,-0.0565],[-98.134078416834228,22.215480088572008,-0.2362],[-98.10287581935826,22.196935148562716,-1.0],[-98.096399808561372,22.18898731713017,-1.0],[-98.089629433637342,22.178095844426281,0.8197],[-98.0738809528358,22.181039485697596,5.0264],[-98.056807833462159,22.18810422474877,-1.0],[-98.045180450440455,22.18898731713017,0.6738],[-98.032228428846665,22.183688762841797,1.3294],[-98.026929874558292,22.194285871418543,-0.2796],[-98.026341146304034,22.209592806029377,0.2642],[-98.027518602812563,22.219306822224723,4.0794],[-98.041795262978439,22.260223435896023,60.0416]]]}}