{"type": "Feature","bbox": [-98.2928,16.5103,-98.1881,16.5899],"geometry": {"type": "MultiPolygon","coordinates": [[[[-98.2928,16.5578,66.3174],[-98.2822,16.5464,155.3739],[-98.2777,16.5128,70.6601],[-98.2023,16.5103,130.2154],[-98.2005,16.5228,121.0862],[-98.1968,16.5335,154.2228],[-98.1923,16.5399,171.5918],[-98.1928,16.5439,153.3997],[-98.1881,16.5576,169.6303],[-98.1944,16.553,180.7429],[-98.2136,16.5559,211.6485],[-98.215,16.5573,217.9886],[-98.2012,16.5724,192.1079],[-98.2072,16.5735,169.4733],[-98.2107,16.5725,167.5772],[-98.2055,16.5859,208.6818],[-98.2085,16.5846,201.0166],[-98.2073,16.5899,270.3522],[-98.2293,16.5809,277.5342],[-98.241,16.5728,243.6069],[-98.2415,16.5678,168.6173],[-98.2499,16.5635,119.9457],[-98.2603,16.563,87.5347],[-98.2694,16.5585,75.8759],[-98.2928,16.5578,66.3174]]]]}
,"properties": {"GID_2": "MEX.20.62_2","GID_0": "MEX","country": "México","GID_1": "MEX.20_1","province": "Oaxaca","NL_NAME_1": "NA","county": "MártiresdeTacubaya","VARNAME_2": "NA","NL_NAME_2": "NA","TYPE_2": "Município","ENGTYPE_2": "Municipality","CC_2": "NA","HASC_2": "NA","name": "Mártiresde_Tacubaya.county","area_km2": 57.80331,"hist_schema_id": "Elevation0-9000","hist_area_km2": {"75": 1.5244,"100": 7.41885,"125": 9.39053,"150": 10.5489,"175": 10.14189,"200": 9.93833,"225": 6.4018,"250": 1.95092,"275": 0.44706,"300": 0.04064}}}