{"type": "Feature","bbox": [-100.8567,19.3896,-100.4863,19.8625],"geometry": {"type": "MultiPolygon","coordinates": [[[[-100.5248,19.772,2554.2795],[-100.5261,19.7764,2572.3323],[-100.5348,19.7853,2677.9189],[-100.5558,19.7964,2607.343],[-100.5563,19.8056,2690.3384],[-100.5625,19.8023,2664.2307],[-100.5648,19.8027,2691.5652],[-100.5677,19.7992,2729.1641],[-100.5745,19.7965,2987.3311],[-100.5888,19.7995,3281.3501],[-100.5964,19.8055,3564.1553],[-100.5846,19.8301,2760.7578],[-100.5767,19.8323,2822.9673],[-100.5852,19.8408,2963.3716],[-100.5925,19.8435,2698.7554],[-100.5932,19.8458,2677.8098],[-100.5908,19.8565,2592.9346],[-100.5988,19.8625,2570.2974],[-100.5997,19.8601,2623.1475],[-100.5972,19.8579,2630.4958],[-100.5982,19.8527,2717.3486],[-100.6012,19.8526,2716.8704],[-100.6047,19.8395,2812.0879],[-100.6098,19.8354,2874.6519],[-100.6101,19.8216,2974.5908],[-100.6166,19.8193,2939.5154],[-100.6192,19.812,2999.3062],[-100.6229,19.8123,2977.8091],[-100.6249,19.8147,2969.5457],[-100.623,19.8216,2932.115],[-100.6379,19.8211,3176.249],[-100.6529,19.823,2932.301],[-100.6509,19.8172,3038.6323],[-100.6565,19.8149,3002.4995],[-100.6593,19.81,2993.8325],[-100.6675,19.8085,2972.3293],[-100.6806,19.8089,2855.1797],[-100.6839,19.8075,2839.6619],[-100.6874,19.8026,2776.8689],[-100.6917,19.8035,2774.8511],[-100.6914,19.8056,2742.3057],[-100.6945,19.8061,2736.1733],[-100.7095,19.8038,2668.208],[-100.7137,19.8007,2569.2795],[-100.7163,19.8025,2554.4927],[-100.7168,19.8001,2567.9109],[-100.7186,19.8012,2543.877],[-100.7207,19.7997,2549.936],[-100.7181,19.7975,2565.2219],[-100.7183,19.7935,2574.5652],[-100.7168,19.7924,2575.7227],[-100.7181,19.7868,2567.5547],[-100.7164,19.7866,2581.9451],[-100.7164,19.7827,2579.478],[-100.7079,19.773,2708.0989],[-100.6997,19.77,2658.5171],[-100.6993,19.7683,2659.7715],[-100.7009,19.7643,2641.3208],[-100.7048,19.7639,2680.2222],[-100.7071,19.7618,2660.1775],[-100.7071,19.7578,2619.9829],[-100.7099,19.7568,2591.3271],[-100.7079,19.7547,2551.8691],[-100.7091,19.7519,2586.2871],[-100.7027,19.7446,2725.5012],[-100.7063,19.7346,2763.2852],[-100.7303,19.7352,2512.5449],[-100.736,19.7404,2493.3386],[-100.7444,19.7408,2468.2908],[-100.7486,19.7391,2467.3481],[-100.7512,19.7405,2452.4248],[-100.751,19.743,2435.4448],[-100.7549,19.744,2412.6003],[-100.7565,19.7417,2445.1836],[-100.7613,19.7424,2434.3652],[-100.764,19.7393,2402.9695],[-100.7695,19.7451,2369.1951],[-100.7733,19.7463,2361.001],[-100.776,19.7382,2436.5654],[-100.7849,19.734,2558.8369],[-100.7849,19.7271,2657.1519],[-100.8018,19.7182,3054.2861],[-100.8029,19.7131,3115.5437],[-100.8096,19.7025,3095.9792],[-100.8105,19.6986,3069.5923],[-100.8073,19.6794,3096.2522],[-100.8105,19.6647,2770.7397],[-100.8039,19.6617,2626.8315],[-100.8025,19.6587,2662.5176],[-100.7995,19.6579,2572.1897],[-100.7938,19.6524,2586.5513],[-100.7928,19.6466,2598.5554],[-100.7902,19.649,2555.2544],[-100.7865,19.6465,2554.291],[-100.7857,19.6412,2533.8418],[-100.7834,19.6387,2507.2339],[-100.7849,19.6371,2507.2339],[-100.7807,19.6344,2505.5771],[-100.7799,19.6302,2476.0232],[-100.7757,19.625,2458.4604],[-100.7753,19.6172,2430.8809],[-100.7722,19.6161,2534.6716],[-100.7745,19.6157,2466.1465],[-100.7755,19.6133,2428.2864],[-100.7694,19.6123,2498.8381],[-100.7699,19.6107,2462.4863],[-100.7675,19.6096,2462.3477],[-100.7675,19.608,2437.103],[-100.7703,19.6067,2434.0212],[-100.7704,19.6048,2372.3015],[-100.7649,19.603,2315.052],[-100.7687,19.6005,2193.0637],[-100.7775,19.6004,1947.5933],[-100.7838,19.5971,1921.6781],[-100.7892,19.597,2042.4692],[-100.8021,19.602,1688.8735],[-100.8062,19.6056,1791.7544],[-100.811,19.6051,1751.9691],[-100.8099,19.6069,1765.0173],[-100.8156,19.6077,1687.8253],[-100.8175,19.6109,1598.1649],[-100.8192,19.6111,1576.6934],[-100.8191,19.6096,1553.2693],[-100.8207,19.6096,1562.8672],[-100.8239,19.6052,1499.0422],[-100.8283,19.6078,1635.2081],[-100.8349,19.6087,1863.7279],[-100.8377,19.6124,2027.1812],[-100.8381,19.6075,1916.3457],[-100.8466,19.6029,1582.55],[-100.8486,19.5948,1438.5294],[-100.8446,19.5859,1307.2998],[-100.8462,19.5823,1290.9666],[-100.8503,19.5797,1277.73],[-100.8495,19.5778,1264.9495],[-100.8507,19.5762,1267.1663],[-100.8484,19.5738,1287.2073],[-100.8501,19.5733,1237.989],[-100.8483,19.572,1284.7186],[-100.8502,19.5684,1218.276],[-100.8485,19.5653,1246.1088],[-100.8493,19.5619,1244.78],[-100.8518,19.5611,1212.9344],[-100.8492,19.5597,1219.4098],[-100.8509,19.5572,1268.7317],[-100.8491,19.5548,1206.4607],[-100.8494,19.5502,1212.8038],[-100.8513,19.5496,1150.3994],[-100.8515,19.5473,1160.2905],[-100.8549,19.5482,1126.3779],[-100.856,19.5449,1125.9315],[-100.8541,19.5436,1139.4392],[-100.8567,19.5428,1116.1765],[-100.8549,19.5354,1161.2448],[-100.8567,19.531,1111.2678],[-100.8554,19.5285,1125.8977],[-100.8503,19.5264,1085.7825],[-100.8518,19.5158,1052.9298],[-100.85,19.5124,1061.9896],[-100.8522,19.5071,1068.1729],[-100.8508,19.5017,1190.3284],[-100.855,19.4923,1355.2241],[-100.8521,19.4918,1411.4128],[-100.8488,19.484,1799.8859],[-100.8442,19.4788,1681.4276],[-100.8376,19.4642,1313.0416],[-100.8381,19.4612,1268.3417],[-100.8352,19.4611,1245.546],[-100.8303,19.4657,1405.5339],[-100.8208,19.4624,1667.3938],[-100.8181,19.4629,1764.0874],[-100.8135,19.4594,1678.0315],[-100.8158,19.4546,1587.2644],[-100.8027,19.4468,1900.0339],[-100.8004,19.4473,1819.761],[-100.7953,19.4441,1760.2864],[-100.796,19.436,1680.2515],[-100.7936,19.4298,1672.2399],[-100.7955,19.4234,1690.91],[-100.7993,19.418,1675.4067],[-100.7895,19.4222,1638.1729],[-100.7872,19.421,1629.5044],[-100.789,19.4193,1628.7367],[-100.7867,19.4154,1649.3066],[-100.7806,19.4118,1606.3682],[-100.785,19.4076,1621.078],[-100.7789,19.4035,1613.1462],[-100.7764,19.3956,1552.8411],[-100.7638,19.3968,1935.657],[-100.7534,19.3896,1896.3221],[-100.7499,19.3903,1740.9867],[-100.7448,19.3943,1595.6741],[-100.7412,19.3929,1577.7358],[-100.74,19.3965,1566.9235],[-100.7367,19.3967,1602.2368],[-100.732,19.4014,1622.9763],[-100.7263,19.4,1782.6276],[-100.7199,19.4038,1984.6511],[-100.7179,19.4093,2023.7166],[-100.7129,19.4131,1935.9978],[-100.7134,19.4167,2018.616],[-100.7065,19.4224,2372.3052],[-100.6988,19.4241,2349.563],[-100.6935,19.4307,2482.3257],[-100.6868,19.4294,2605.4211],[-100.6825,19.4253,2640.8625],[-100.6764,19.4265,2637.0244],[-100.6755,19.4313,2708.7271],[-100.6714,19.4273,2657.9668],[-100.661,19.4254,2134.3127],[-100.6503,19.4174,1908.2849],[-100.6465,19.41,1727.1526],[-100.6437,19.4161,1941.22],[-100.6409,19.4175,2027.7432],[-100.6337,19.4175,2350.0774],[-100.6308,19.4151,2247.332],[-100.6187,19.4121,1940.5813],[-100.6115,19.4124,1798.479],[-100.6073,19.4142,1827.7729],[-100.6084,19.4176,1847.4348],[-100.6115,19.419,1880.1207],[-100.6057,19.423,1846.7747],[-100.6055,19.4298,1746.573],[-100.6107,19.4342,1854.6985],[-100.6071,19.4363,1784.6715],[-100.6081,19.4406,1602.7715],[-100.6065,19.4417,1602.7715],[-100.6121,19.4458,1610.4474],[-100.6159,19.453,1662.5848],[-100.6214,19.455,1662.7502],[-100.626,19.4536,1701.3218],[-100.6263,19.4575,1770.2582],[-100.6184,19.4617,1902.3101],[-100.618,19.4668,1905.533],[-100.6145,19.4696,1930.2117],[-100.6145,19.4746,2073.0403],[-100.6011,19.4902,2330.3396],[-100.5811,19.4941,2164.6687],[-100.5797,19.5031,2340.8308],[-100.5828,19.5084,2399.3574],[-100.5834,19.5137,2506.5889],[-100.5846,19.5153,2606.4197],[-100.5901,19.5154,2596.8608],[-100.5903,19.5218,2512.7715],[-100.5845,19.5297,2526.8792],[-100.5868,19.5298,2514.2263],[-100.5918,19.5348,2433.4482],[-100.5871,19.5384,2455.0312],[-100.5869,19.5406,2454.3406],[-100.5842,19.5433,2446.0862],[-100.5832,19.5469,2461.8225],[-100.5844,19.5541,2493.7542],[-100.5824,19.5573,2502.0354],[-100.5727,19.5543,2740.1199],[-100.5615,19.5653,2256.0522],[-100.5683,19.5782,2545.5461],[-100.5828,19.5856,2930.9211],[-100.5846,19.5956,2750.2261],[-100.5814,19.608,2709.407],[-100.5771,19.6113,2528.6494],[-100.5662,19.6079,2766.9419],[-100.5646,19.6194,2812.5208],[-100.5494,19.6233,2761.9119],[-100.54,19.6224,2826.0996],[-100.5294,19.6259,2680.8159],[-100.5145,19.6247,2570.0398],[-100.5049,19.6186,1933.4435],[-100.5009,19.6208,1953.9202],[-100.4931,19.629,2086.6487],[-100.4939,19.6307,2025.7581],[-100.4923,19.6334,1928.78],[-100.4887,19.6321,1853.4308],[-100.4866,19.6344,1825.066],[-100.4863,19.6418,1861.4548],[-100.4892,19.6486,1914.2681],[-100.4965,19.6642,1938.4918],[-100.5009,19.6679,1934.6605],[-100.5009,19.6717,1954.0244],[-100.5042,19.6744,1966.6171],[-100.5049,19.6886,2022.358],[-100.5038,19.6939,2038.7385],[-100.5055,19.6936,2034.7773],[-100.5079,19.696,2044.2017],[-100.506,19.7094,2103.9258],[-100.502,19.7103,2112.4211],[-100.4987,19.7156,2170.5742],[-100.4966,19.7163,2178.0649],[-100.4966,19.7196,2219.2659],[-100.5157,19.741,2271.7124],[-100.5138,19.7447,2278.7231],[-100.5162,19.7454,2282.0],[-100.5189,19.758,2399.3523],[-100.5248,19.772,2554.2795]]]]}
,"properties": {"GID_2": "MEX.16.35_2","GID_0": "MEX","country": "México","GID_1": "MEX.16_1","province": "Michoacán","NL_NAME_1": "NA","county": "Hidalgo","VARNAME_2": "NA","NL_NAME_2": "NA","TYPE_2": "Município","ENGTYPE_2": "Municipality","CC_2": "NA","HASC_2": "NA","name": "Hidalgo.county","area_km2": 1146.8172,"hist_schema_id": "Elevation0-9000","hist_area_km2": {"1050": 0.1399,"1075": 0.2598,"1100": 0.3197,"1125": 0.4396,"1150": 0.6994,"1175": 0.5995,"1200": 0.4596,"1225": 0.7593,"1250": 0.8792,"1275": 0.7193,"1300": 1.3188,"1325": 1.3587,"1350": 1.3387,"1375": 1.4187,"1400": 1.7183,"1425": 2.018,"1450": 1.9581,"1475": 2.1779,"1500": 2.6375,"1525": 2.4975,"1550": 2.9771,"1575": 3.1772,"1600": 3.4771,"1625": 4.2967,"1650": 5.1163,"1675": 5.0565,"1700": 5.7561,"1725": 6.2762,"1750": 7.5555,"1775": 7.775,"1800": 8.3947,"1825": 8.3949,"1850": 9.9339,"1875": 10.3131,"1900": 12.7689,"1925": 14.1682,"1950": 12.4703,"1975": 13.3899,"2000": 13.2094,"2025": 15.1251,"2050": 19.6563,"2075": 24.8674,"2100": 32.2539,"2125": 31.9568,"2150": 32.778,"2175": 35.791,"2200": 35.0907,"2225": 28.9391,"2250": 27.1998,"2275": 25.7014,"2300": 25.2414,"2325": 23.4449,"2350": 24.2433,"2375": 28.7778,"2400": 31.2924,"2425": 32.3116,"2450": 31.1548,"2475": 33.6115,"2500": 37.6269,"2525": 37.4287,"2550": 33.534,"2575": 36.3893,"2600": 41.6196,"2625": 35.1892,"2650": 30.156,"2675": 26.0415,"2700": 21.1477,"2725": 16.9533,"2750": 12.2584,"2775": 11.3585,"2800": 8.284,"2825": 8.7821,"2850": 7.7635,"2875": 8.321,"2900": 6.7836,"2925": 6.8634,"2950": 6.3047,"2975": 5.766,"3000": 4.8283,"3025": 3.5713,"3050": 3.5514,"3075": 3.2719,"3100": 2.434,"3125": 2.2942,"3150": 1.6359,"3175": 1.2768,"3200": 0.9975,"3225": 1.197,"3250": 0.6583,"3275": 0.6583,"3300": 0.6384,"3325": 0.4987,"3350": 0.6184,"3375": 0.5785,"3400": 0.4588,"3425": 0.379,"3450": 0.2992,"3475": 0.3591,"3500": 0.1197,"3525": 0.1795,"3550": 0.0399,"3575": 0.0399}}}