{"type": "Feature","bbox": [-103.9883,19.9583,-103.7464,20.2018],"geometry": {"type": "MultiPolygon","coordinates": [[[[-103.841,20.2018,1823.8263],[-103.848,20.184,1982.059],[-103.8683,20.1765,1961.7056],[-103.8732,20.1719,1897.8834],[-103.8828,20.1681,1746.3987],[-103.8917,20.1597,1359.6252],[-103.8976,20.1579,1329.4253],[-103.9001,20.1598,1297.1121],[-103.9041,20.1597,1296.769],[-103.9043,20.155,1335.4478],[-103.9057,20.1571,1323.5682],[-103.9118,20.1579,1280.3679],[-103.9139,20.1602,1282.6681],[-103.9183,20.1577,1262.1334],[-103.9229,20.1581,1247.4691],[-103.9214,20.1546,1260.6375],[-103.924,20.1489,1264.0918],[-103.9237,20.1388,1267.9835],[-103.9269,20.134,1191.2384],[-103.9257,20.1312,1192.543],[-103.9289,20.1284,1183.0781],[-103.9286,20.1193,1149.8032],[-103.9351,20.1164,1133.7316],[-103.9383,20.1226,1341.5415],[-103.9403,20.1216,1282.1194],[-103.9403,20.1135,1137.4976],[-103.9435,20.1117,1106.7362],[-103.9443,20.1063,1107.5667],[-103.9491,20.102,1124.2347],[-103.9462,20.0955,1093.1064],[-103.9487,20.0917,1106.8247],[-103.952,20.0912,1110.8002],[-103.9547,20.0886,1094.8191],[-103.9554,20.0856,1106.8259],[-103.9594,20.0855,1088.1285],[-103.9644,20.082,1062.2484],[-103.9621,20.08,1089.4819],[-103.9655,20.0705,1053.0216],[-103.9636,20.0676,1055.5864],[-103.9639,20.0622,1061.1642],[-103.9691,20.0591,1073.4631],[-103.9737,20.0515,1044.2299],[-103.9809,20.0463,996.5124],[-103.9817,20.0426,996.1566],[-103.9802,20.0379,1025.5442],[-103.9838,20.033,1006.4984],[-103.9838,20.0297,976.6023],[-103.9868,20.0289,988.2976],[-103.9883,20.0241,982.2297],[-103.9808,20.0189,1076.9706],[-103.9625,20.0171,1572.9067],[-103.9568,20.0113,1909.0428],[-103.9531,19.989,1921.2557],[-103.9502,19.9834,1744.5321],[-103.9546,19.9747,1655.6082],[-103.956,19.9648,1428.5908],[-103.9593,19.9583,1452.5829],[-103.93,19.9678,1751.6936],[-103.9244,19.9653,1668.7896],[-103.9199,19.976,1853.1642],[-103.9213,19.9822,1911.8027],[-103.9201,19.9855,1950.9508],[-103.9114,19.9909,1981.7018],[-103.9026,19.9922,2070.8372],[-103.8977,20.002,2119.1919],[-103.894,20.0023,2017.824],[-103.8936,20.0088,2029.5293],[-103.8906,20.0048,1981.6177],[-103.8852,20.0033,2010.5719],[-103.8865,20.0049,1970.9186],[-103.8828,20.0107,1952.1821],[-103.8794,20.0098,1962.7609],[-103.8744,20.0168,1916.9326],[-103.8694,20.0166,1826.3998],[-103.8655,20.0145,1788.697],[-103.8631,20.0158,1773.5312],[-103.8609,20.0137,1820.2314],[-103.8563,20.016,1760.1407],[-103.8502,20.0089,1954.2731],[-103.8442,20.0054,1968.3774],[-103.8427,20.0077,2019.2178],[-103.8299,20.004,2102.5396],[-103.828,20.0053,2126.4287],[-103.8293,20.0081,2119.8696],[-103.8248,20.0065,2161.9468],[-103.8247,20.0107,2096.5149],[-103.8301,20.0159,2090.625],[-103.831,20.0197,2061.687],[-103.8359,20.0258,1993.5021],[-103.8371,20.0317,1947.278],[-103.8411,20.0351,1918.198],[-103.8393,20.0488,1753.4801],[-103.8353,20.0493,1764.2804],[-103.8343,20.0514,1788.1018],[-103.8345,20.056,1822.6602],[-103.8363,20.0572,1812.1288],[-103.8404,20.056,1796.576],[-103.8416,20.0579,1769.9336],[-103.8382,20.0638,1778.9008],[-103.8346,20.0651,1791.9951],[-103.8257,20.0643,1814.6753],[-103.809,20.0733,1938.8657],[-103.806,20.0712,1953.4956],[-103.8017,20.0758,1898.7112],[-103.8004,20.082,1911.6494],[-103.7932,20.0882,1938.7361],[-103.775,20.0929,2440.4934],[-103.7685,20.103,2548.5024],[-103.771,20.1064,2561.6289],[-103.7633,20.1066,2472.4041],[-103.7531,20.1125,2500.5354],[-103.7536,20.114,2512.2349],[-103.7464,20.1167,2489.4526],[-103.7604,20.1151,2569.3811],[-103.7663,20.1194,2569.7903],[-103.7689,20.1365,2537.3262],[-103.7709,20.1423,2517.9712],[-103.7732,20.144,2520.4624],[-103.7796,20.1433,2487.262],[-103.7805,20.1382,2471.3054],[-103.7837,20.1356,2353.4736],[-103.7935,20.1418,2302.7561],[-103.7991,20.1411,2259.7705],[-103.8138,20.1445,1952.498],[-103.821,20.1528,1631.7594],[-103.8183,20.1568,1667.8246],[-103.8199,20.1569,1667.8246],[-103.8181,20.1617,1715.2395],[-103.8217,20.163,1618.0825],[-103.8209,20.1662,1593.6106],[-103.8247,20.1654,1583.8215],[-103.8277,20.1671,1529.4938],[-103.8263,20.1703,1525.0378],[-103.8236,20.1704,1582.244],[-103.8264,20.1753,1539.23],[-103.8207,20.1822,1600.9611],[-103.8273,20.1862,1644.7162],[-103.8301,20.1911,1661.8651],[-103.8332,20.1929,1667.5479],[-103.8356,20.1981,1693.5939],[-103.841,20.2018,1823.8263]]]]}
,"properties": {"GID_2": "MEX.14.22_2","GID_0": "MEX","country": "México","GID_1": "MEX.14_1","province": "Jalisco","NL_NAME_1": "NA","county": "Chiquilistlán","VARNAME_2": "NA","NL_NAME_2": "NA","TYPE_2": "Município","ENGTYPE_2": "Municipality","CC_2": "NA","HASC_2": "NA","name": "Chiquilistlán.county","area_km2": 298.1194,"hist_schema_id": "Elevation0-9000","hist_area_km2": {"975": 0.1394,"1000": 0.478,"1025": 0.5577,"1050": 0.8764,"1075": 0.8564,"1100": 0.9958,"1125": 1.2148,"1150": 1.7126,"1175": 2.2702,"1200": 2.6288,"1225": 2.7483,"1250": 3.2061,"1275": 3.7838,"1300": 3.7836,"1325": 3.9429,"1350": 5.0778,"1375": 6.432,"1400": 7.2883,"1425": 6.2326,"1450": 6.2526,"1475": 6.3122,"1500": 6.0732,"1525": 5.8145,"1550": 7.3474,"1575": 7.5665,"1600": 7.9845,"1625": 8.8006,"1650": 10.4338,"1675": 16.5275,"1700": 21.8243,"1725": 20.8682,"1750": 16.1295,"1775": 14.1583,"1800": 11.2514,"1825": 8.5235,"1850": 8.6432,"1875": 7.9464,"1900": 8.1055,"1925": 5.935,"1950": 5.9153,"1975": 4.7402,"2000": 2.6289,"2025": 2.0513,"2050": 1.5136,"2075": 1.2746,"2100": 1.2945,"2125": 1.1748,"2150": 0.5774,"2175": 0.6769,"2200": 0.5574,"2225": 0.5176,"2250": 0.7167,"2275": 0.8362,"2300": 0.5375,"2325": 0.8163,"2350": 0.8561,"2375": 0.9556,"2400": 0.876,"2425": 0.9158,"2450": 1.0949,"2475": 1.1149,"2500": 1.513,"2525": 1.7519,"2550": 1.7122,"2575": 0.6371,"2600": 0.1394}}}