{"type":"Feature","properties":{"featurecla":"River","scalerank":8,"rivernum":714,"dissolve":"714River","name":"Bavispe","name_alt":null,"note":null,"min_zoom":7.0,"strokeweig":0.15,"name_en":"Bavispe","min_label":8.0},
"geometry":{"type": "LineString","coordinates": [[-108.53330078124999,29.654559637494117,1924.5316],[-108.54013671874999,29.668817449994116,1760.0929],[-108.54306640624999,29.671893621869117,1842.8101],[-108.55014648437499,29.67572662968162,1799.52],[-108.55307617187499,29.67914459843162,1822.7625],[-108.55908203125,29.69171784061912,1908.113],[-108.5634765625,29.704120184369117,2002.7653],[-108.56552734374999,29.717059637494117,1766.4143],[-108.56479492187499,29.731219793744117,1709.1943],[-108.55527343749999,29.77216217655662,1609.3201],[-108.55502929687499,29.786151434369117,1714.4546],[-108.55810546875,29.80194733280662,1587.9763],[-108.56381835937499,29.81854889530662,1607.3882],[-108.571875,29.834100653119116,1610.1901],[-108.58203125,29.84662506718162,1528.8195],[-108.60019531249999,29.860126043744117,1589.4991],[-108.616943359375,29.86945221561912,1493.2188],[-108.6312744140625,29.88117096561912,1420.938],[-108.642578125,29.90155670780662,1378.4166]]}}