{"type":"Feature","properties":{"featurecla":"River","scalerank":8,"rivernum":829,"dissolve":"829River","name":"Urique","name_alt":null,"note":null,"min_zoom":7.0,"strokeweig":0.15,"name_en":"Urique","min_label":8.0},
"geometry":{"type": "LineString","coordinates": [[-106.9406005859375,26.90558502811912,2458.1318],[-106.962451171875,26.92706940311912,2364.6465],[-106.98129882812499,26.93549225468162,2443.4927],[-107.0023681640625,26.936297918744117,2382.3906],[-107.03076171875,26.934833074994117,2376.2583],[-107.0487548828125,26.94000885624412,2453.6526],[-107.06235351562499,26.953876043744117,2446.7397],[-107.0704833984375,26.97235748905662,2312.5068],[-107.071826171875,26.99164459843162,2383.3809],[-107.06528320312499,27.008172918744116,2328.6438],[-107.053466796875,27.01496002811912,2365.6814],[-107.03842773437499,27.018426824994116,2284.0078],[-107.0224609375,27.025018621869116,2262.2261],[-107.015380859375,27.035516668744116,2259.9604],[-107.0154296875,27.049676824994116,2250.5386],[-107.026611328125,27.09516022343162,2277.4092],[-107.03154296875,27.106463934369117,2255.3748],[-107.039111328125,27.115497137494117,2230.6663],[-107.051025390625,27.126581121869116,2212.3218],[-107.0607177734375,27.137323309369116,2252.8857],[-107.0770751953125,27.16095612186912,2225.9976],[-107.0859375,27.172381903119117,2279.585],[-107.10966796875,27.195917059369116,2293.8848],[-107.1207763671875,27.20831940311912,2273.3428],[-107.1259765625,27.21686432499412,2255.2957]]}}