{"type":"Feature","properties":{"featurecla":"River","scalerank":8,"rivernum":713,"dissolve":"713River","name":"Verde10","name_alt":null,"note":null,"min_zoom":7.0,"strokeweig":0.15,"name_en":"Verde","min_label":8.0},
"geometry":{"type": "LineString","coordinates": [[-106.4373046875,26.16303131718162,2640.4404],[-106.437744140625,26.148211981244117,2744.696],[-106.4342529296875,26.13385651249412,2713.7991],[-106.4228515625,26.119403387494117,2668.4915],[-106.4193603515625,26.097040106244116,2667.4219],[-106.375,26.050555731244117,2757.6912],[-106.35869140625,26.002704168744117,2856.6931]]}}