{"type": "Feature","bbox": [-98.3673,17.9537,-98.1934,18.2163],"geometry": {"type": "MultiPolygon","coordinates": [[[[-98.2084,18.0436,1135.1907],[-98.2116,18.0453,1121.9698],[-98.2091,18.0516,1064.7922],[-98.2108,18.0615,1011.7217],[-98.2069,18.0627,1014.1539],[-98.2082,18.0672,1020.8402],[-98.2073,18.0684,1020.8402],[-98.1995,18.07,1022.436],[-98.2009,18.0745,1077.0826],[-98.1983,18.0795,1118.9524],[-98.1987,18.083,1139.1753],[-98.2041,18.0882,1172.6178],[-98.2032,18.0923,1209.8524],[-98.2078,18.0939,1240.2103],[-98.2105,18.1005,1324.6726],[-98.2087,18.1042,1375.9448],[-98.2096,18.1069,1376.2003],[-98.2074,18.1101,1469.3732],[-98.2079,18.1163,1572.1581],[-98.2012,18.1278,1538.3906],[-98.2146,18.1446,1232.0262],[-98.2138,18.1463,1216.8378],[-98.2097,18.1465,1289.6338],[-98.2077,18.1493,1291.7003],[-98.2036,18.1491,1346.8096],[-98.201,18.1439,1453.2235],[-98.1976,18.1429,1554.6898],[-98.1941,18.1482,1568.6685],[-98.1954,18.1616,1499.0581],[-98.1934,18.165,1468.8312],[-98.2005,18.1736,1411.9274],[-98.2005,18.1761,1309.9277],[-98.1992,18.1763,1309.9277],[-98.2004,18.1785,1288.0894],[-98.1988,18.179,1279.5557],[-98.1998,18.1816,1299.126],[-98.1973,18.1796,1325.0952],[-98.199,18.1831,1270.8159],[-98.2043,18.1863,1238.5996],[-98.2078,18.1864,1226.42],[-98.2117,18.1903,1213.02],[-98.2181,18.1914,1195.4099],[-98.2227,18.2019,1171.7805],[-98.229,18.2065,1165.3882],[-98.2314,18.2118,1149.8528],[-98.2344,18.2142,1143.8225],[-98.2451,18.2163,1130.7483],[-98.2547,18.2072,1115.0144],[-98.2527,18.2042,1110.0656],[-98.2559,18.1974,1107.8036],[-98.2642,18.2004,1101.51],[-98.2675,18.1986,1096.9856],[-98.2685,18.192,1135.0991],[-98.2762,18.1784,1065.9137],[-98.2777,18.181,1094.7029],[-98.2816,18.1806,1114.3677],[-98.2845,18.1835,1146.3571],[-98.2897,18.182,1142.9598],[-98.2915,18.184,1236.7821],[-98.2906,18.1857,1246.4386],[-98.2928,18.187,1257.0676],[-98.2942,18.1826,1225.2391],[-98.301,18.1865,1110.6305],[-98.303,18.1856,1071.3147],[-98.3023,18.1883,1076.9626],[-98.3055,18.1933,1130.417],[-98.3083,18.1942,1140.2094],[-98.31,18.1972,1196.7065],[-98.3174,18.1995,1259.2542],[-98.3203,18.2021,1326.5811],[-98.3245,18.2034,1278.0222],[-98.3333,18.2018,1228.7327],[-98.3367,18.2029,1191.6379],[-98.3424,18.1975,1204.0],[-98.3472,18.1855,1051.3997],[-98.3533,18.1844,948.6089],[-98.3535,18.1806,943.3853],[-98.3599,18.1765,875.2869],[-98.3573,18.1712,886.4433],[-98.3568,18.1651,886.0369],[-98.3549,18.1643,889.561],[-98.3533,18.1588,1042.514],[-98.3555,18.1556,989.2984],[-98.3525,18.1435,911.4603],[-98.34,18.1388,908.3177],[-98.3411,18.1356,900.3057],[-98.3452,18.1329,922.8492],[-98.343,18.1308,901.4974],[-98.3368,18.1298,897.4397],[-98.3406,18.1273,945.5996],[-98.3391,18.122,932.3696],[-98.3377,18.1216,915.5917],[-98.3362,18.1254,904.4765],[-98.3286,18.1296,918.8313],[-98.3268,18.1295,909.655],[-98.3268,18.1263,902.3258],[-98.3308,18.1226,923.5941],[-98.3276,18.121,906.3214],[-98.315,18.1252,1004.7626],[-98.3139,18.1285,950.8051],[-98.3031,18.1284,1038.9725],[-98.2991,18.1321,1091.8237],[-98.2919,18.1299,1164.3625],[-98.291,18.1273,1157.849],[-98.2928,18.1198,1029.1755],[-98.2889,18.1215,1056.344],[-98.2872,18.1147,996.1188],[-98.2881,18.1109,980.2424],[-98.2852,18.1113,988.3695],[-98.2844,18.1158,1012.231],[-98.2763,18.1171,1088.5579],[-98.2739,18.1159,1100.8641],[-98.2709,18.1175,1131.599],[-98.2675,18.1127,1159.5566],[-98.2631,18.1118,1215.5474],[-98.2578,18.1059,1256.7765],[-98.2542,18.1055,1215.993],[-98.2479,18.0985,1090.814],[-98.2388,18.0955,1052.1012],[-98.2396,18.0851,1055.2656],[-98.242,18.0782,986.405],[-98.238,18.0794,1044.4213],[-98.233,18.0742,1107.6914],[-98.2343,18.0725,1067.072],[-98.2411,18.0744,986.4916],[-98.247,18.0719,975.7651],[-98.2447,18.0669,1001.9404],[-98.2497,18.0648,1058.6243],[-98.2562,18.0592,1141.0342],[-98.2711,18.0619,1317.0127],[-98.2728,18.0638,1311.8167],[-98.2761,18.0595,1277.6304],[-98.2817,18.0607,1162.8276],[-98.2862,18.0587,1050.6448],[-98.2966,18.0589,953.418],[-98.3013,18.0566,934.2295],[-98.3046,18.0571,925.7623],[-98.3055,18.0557,922.9225],[-98.3034,18.0515,924.5107],[-98.3075,18.0488,929.3458],[-98.3167,18.0473,950.8934],[-98.32,18.0441,966.6088],[-98.3252,18.0434,971.7006],[-98.3349,18.0472,1025.6011],[-98.3358,18.0416,1004.3262],[-98.3443,18.0351,1160.8018],[-98.3599,18.036,1161.5037],[-98.3673,18.0342,1237.8445],[-98.3652,18.0252,1085.1506],[-98.362,18.0247,1090.032],[-98.3542,18.0259,1051.3413],[-98.3501,18.0245,1031.5881],[-98.3442,18.0261,1011.8739],[-98.3396,18.0317,996.2953],[-98.3275,18.037,964.7468],[-98.3253,18.0368,970.739],[-98.3256,18.0321,966.7109],[-98.3214,18.0344,955.0062],[-98.3191,18.0323,948.04],[-98.314,18.0316,939.4456],[-98.318,18.028,956.618],[-98.3189,18.0239,949.2211],[-98.3221,18.0201,963.0726],[-98.3242,18.0084,1000.7463],[-98.3211,18.0013,996.91],[-98.3181,17.9991,987.9381],[-98.3189,17.9918,1006.8137],[-98.3211,17.9862,1037.0751],[-98.3294,17.9807,1071.0967],[-98.3198,17.9796,1048.1543],[-98.3166,17.9761,1065.6528],[-98.3183,17.976,1106.8729],[-98.3186,17.9705,1077.9475],[-98.3166,17.9673,1107.3639],[-98.3036,17.9608,1198.3881],[-98.2987,17.9604,1242.99],[-98.2938,17.9565,1218.8772],[-98.2868,17.9537,1158.24],[-98.2884,17.9578,1182.2581],[-98.2853,17.9574,1208.8772],[-98.2784,17.9607,1248.6448],[-98.2748,17.9735,1041.8938],[-98.2888,17.9712,1194.6797],[-98.2851,17.9788,1084.8654],[-98.2881,17.9793,1109.4832],[-98.2908,17.977,1155.6863],[-98.2937,17.9786,1233.105],[-98.2941,17.9918,1053.2476],[-98.2858,17.9946,1068.5731],[-98.2901,18.0041,995.0],[-98.2942,18.0046,974.2446],[-98.2948,18.0147,953.2488],[-98.2935,18.0165,950.7516],[-98.2961,18.0263,944.3794],[-98.2944,18.0301,936.079],[-98.3009,18.0327,990.4515],[-98.2995,18.0353,1001.8774],[-98.3001,18.0393,946.1033],[-98.2936,18.0415,953.0645],[-98.2756,18.0416,959.5336],[-98.2668,18.0452,950.9429],[-98.2602,18.0413,953.1992],[-98.2572,18.0366,976.16],[-98.2537,18.0349,987.151],[-98.2564,18.0308,966.5629],[-98.2601,18.0299,952.3599],[-98.2595,18.0258,956.9603],[-98.2569,18.0231,959.9276],[-98.2517,18.0281,958.8151],[-98.2492,18.0242,955.2991],[-98.2444,18.027,957.243],[-98.2442,18.0308,981.7991],[-98.24,18.0335,995.0981],[-98.2367,18.0392,1024.0868],[-98.2336,18.0362,1062.8816],[-98.2195,18.0312,1167.4159],[-98.2169,18.0345,1208.6064],[-98.2121,18.0348,1358.877],[-98.2081,18.0381,1196.1968],[-98.2084,18.0436,1135.1907]]]]}
,"properties": {"GID_2": "MEX.21.115_2","GID_0": "MEX","country": "México","GID_1": "MEX.21_1","province": "Puebla","NL_NAME_1": "NA","county": "Piaxtla","VARNAME_2": "NA","NL_NAME_2": "NA","TYPE_2": "Município","ENGTYPE_2": "Municipality","CC_2": "NA","HASC_2": "NA","name": "Piaxtla.county","area_km2": 222.1896,"hist_schema_id": "Elevation0-9000","hist_area_km2": {"875": 0.4432,"900": 2.1961,"925": 5.3607,"950": 9.2713,"975": 10.5815,"1000": 10.9844,"1025": 10.6215,"1050": 11.8909,"1075": 13.2209,"1100": 13.2402,"1125": 15.1137,"1150": 15.2539,"1175": 16.0595,"1200": 16.2607,"1225": 15.4947,"1250": 13.3185,"1275": 10.5582,"1300": 7.5356,"1325": 6.3471,"1350": 4.9971,"1375": 3.7277,"1400": 2.6598,"1425": 1.9142,"1450": 1.8538,"1475": 1.0881,"1500": 0.8262,"1525": 0.5441,"1550": 0.5239,"1575": 0.1813,"1600": 0.1209}}}