{"type": "Feature","bbox": [-101.0474,20.3284,-100.8236,20.5156],"geometry": {"type": "MultiPolygon","coordinates": [[[[-100.909,20.5156,1743.6202],[-100.9599,20.5122,1736.203],[-100.9599,20.5108,1737.0759],[-100.9682,20.5102,1739.4541],[-100.9692,20.5028,1734.3275],[-100.9746,20.5053,1733.2943],[-100.9751,20.5006,1731.5178],[-100.9799,20.5041,1731.9491],[-100.9841,20.503,1730.9773],[-100.9874,20.5047,1730.5288],[-100.9931,20.5046,1729.9722],[-100.9961,20.5079,1729.7605],[-101.0137,20.5063,1728.3673],[-101.0177,20.5096,1727.3514],[-101.0244,20.5101,1727.0082],[-101.0332,20.5077,1726.675],[-101.0389,20.5098,1725.6931],[-101.0441,20.4805,1725.2733],[-101.0441,20.4649,1724.9425],[-101.0474,20.4627,1725.7518],[-101.0471,20.4615,1726.0397],[-101.0442,20.4625,1725.6365],[-101.0461,20.4576,1724.9967],[-101.0439,20.4575,1724.8926],[-101.043,20.4413,1723.5325],[-101.0335,20.4349,1729.566],[-101.0284,20.4144,1723.5267],[-101.0283,20.4081,1723.9617],[-101.0255,20.4074,1723.7375],[-101.0199,20.3997,1725.8639],[-101.0183,20.4047,1724.6399],[-101.019,20.4074,1724.1091],[-101.0112,20.4069,1724.9648],[-101.0124,20.4031,1725.0671],[-101.0111,20.3987,1725.0887],[-101.0121,20.3871,1725.2502],[-101.0133,20.3832,1725.6504],[-101.018,20.3785,1726.1555],[-101.0179,20.3734,1725.7905],[-101.0212,20.3691,1725.7278],[-101.0166,20.3697,1725.1791],[-101.0153,20.3637,1725.9437],[-101.0139,20.3638,1725.3409],[-101.0106,20.3582,1733.2687],[-101.0074,20.3595,1748.6173],[-101.0048,20.3644,1733.1508],[-100.9988,20.3657,1747.5428],[-100.9983,20.3629,1801.7661],[-100.9872,20.3525,2183.0481],[-100.987,20.3484,2292.6062],[-100.9799,20.3488,2464.3289],[-100.9774,20.3353,2603.1812],[-100.9875,20.3316,2335.2874],[-100.9842,20.3284,2391.9099],[-100.9693,20.337,2787.3335],[-100.9689,20.3388,2818.4492],[-100.9679,20.3377,2792.6421],[-100.936,20.3421,1964.1926],[-100.9104,20.3413,1838.051],[-100.8988,20.3786,2153.9573],[-100.8822,20.3812,2265.7935],[-100.8802,20.355,1983.2129],[-100.8507,20.354,1928.9294],[-100.8505,20.3552,1928.9294],[-100.8276,20.3528,1862.3754],[-100.8236,20.3752,1891.037],[-100.8444,20.3918,2106.2827],[-100.8267,20.4315,2004.9211],[-100.8396,20.4338,2082.6262],[-100.852,20.4391,2059.3347],[-100.8453,20.4823,1747.5869],[-100.8466,20.4843,1746.9144],[-100.8553,20.4878,1747.3042],[-100.8632,20.4884,1746.7893],[-100.8664,20.4915,1745.7231],[-100.8749,20.4913,1744.8235],[-100.8803,20.4932,1746.199],[-100.8798,20.4958,1743.1832],[-100.8877,20.4965,1744.2896],[-100.8915,20.4998,1741.4316],[-100.8935,20.4953,1746.1234],[-100.902,20.4961,1744.321],[-100.9015,20.5004,1742.3816],[-100.9041,20.5006,1740.4979],[-100.9038,20.503,1741.5132],[-100.9075,20.5022,1739.8445],[-100.909,20.5156,1743.6202]]]]}
,"properties": {"GID_2": "MEX.11.9_2","GID_0": "MEX","country": "México","GID_1": "MEX.11_1","province": "Guanajuato","NL_NAME_1": "NA","county": "Cortazar","VARNAME_2": "NA","NL_NAME_2": "NA","TYPE_2": "Município","ENGTYPE_2": "Municipality","CC_2": "NA","HASC_2": "NA","name": "Cortazar.county","area_km2": 336.2973,"hist_schema_id": "Elevation0-9000","hist_area_km2": {"1725": 96.2888,"1750": 38.7528,"1775": 13.5494,"1800": 12.6958,"1825": 10.8682,"1850": 9.438,"1875": 10.353,"1900": 11.347,"1925": 10.1945,"1950": 9.6975,"1975": 9.5784,"2000": 8.7237,"2025": 7.9486,"2050": 6.2993,"2075": 6.9552,"2100": 6.2993,"2125": 6.9749,"2150": 5.723,"2175": 5.8621,"2200": 5.7628,"2225": 5.1269,"2250": 4.9482,"2275": 5.0475,"2300": 4.9283,"2325": 4.5507,"2350": 4.6103,"2375": 3.6565,"2400": 2.6232,"2425": 2.186,"2450": 1.1924,"2475": 0.8745,"2500": 0.5367,"2525": 0.4174,"2550": 0.2385,"2575": 0.1988,"2600": 0.1988,"2625": 0.2386,"2650": 0.2187,"2675": 0.3181,"2700": 0.2783,"2725": 0.1392,"2750": 0.159,"2775": 0.1392,"2800": 0.0795,"2825": 0.0795}}}