{"type": "Feature","bbox": [-97.6254,16.5727,-97.4074,16.7251],"geometry": {"type": "MultiPolygon","coordinates": [[[[-97.5548,16.6771,533.4094],[-97.5544,16.6743,583.5753],[-97.5602,16.673,527.1016],[-97.5632,16.664,591.3211],[-97.5801,16.6577,488.8207],[-97.5929,16.6551,468.3871],[-97.5992,16.6504,534.1284],[-97.6022,16.6423,586.6594],[-97.6103,16.6389,445.1469],[-97.6116,16.6353,410.085],[-97.6077,16.6327,451.7358],[-97.6075,16.6307,423.7924],[-97.6158,16.6246,426.0707],[-97.6157,16.6162,431.5766],[-97.6198,16.6145,387.4146],[-97.6216,16.6102,399.6357],[-97.6254,16.6091,427.6205],[-97.6234,16.6034,386.6122],[-97.6195,16.6008,352.0546],[-97.6236,16.5939,338.5463],[-97.6224,16.5866,340.2284],[-97.6108,16.5871,355.5166],[-97.5978,16.5849,325.2308],[-97.593,16.5824,317.8531],[-97.5879,16.584,339.0276],[-97.5771,16.5727,312.3717],[-97.5485,16.5832,926.0603],[-97.5482,16.5796,1069.58],[-97.5428,16.5786,1080.6838],[-97.5304,16.5807,1213.2745],[-97.5041,16.578,1792.3092],[-97.497,16.5795,1730.058],[-97.4957,16.5747,1707.855],[-97.489,16.5799,1254.0127],[-97.4688,16.579,837.3181],[-97.4672,16.5803,851.0225],[-97.4678,16.5844,1124.6815],[-97.4656,16.5878,1318.4805],[-97.4655,16.5927,1561.8383],[-97.4587,16.5984,1423.5009],[-97.4575,16.6019,1211.2368],[-97.4524,16.6007,1101.0857],[-97.4438,16.5944,817.4679],[-97.4393,16.5956,727.4783],[-97.4329,16.5926,636.8036],[-97.4323,16.5939,606.8149],[-97.4294,16.5935,632.4567],[-97.4291,16.597,613.8975],[-97.412,16.5933,684.4424],[-97.4074,16.5965,699.0225],[-97.4079,16.5991,735.9698],[-97.4126,16.6044,1011.7698],[-97.4286,16.6184,867.6812],[-97.4509,16.6665,821.6949],[-97.4528,16.6671,814.6331],[-97.4517,16.6688,819.1189],[-97.4537,16.6698,862.2246],[-97.4532,16.6737,842.6378],[-97.4561,16.6722,840.5436],[-97.4608,16.6798,892.51],[-97.4737,16.6784,1174.1171],[-97.4772,16.6799,1229.2864],[-97.4848,16.6966,1191.8193],[-97.4964,16.6913,1339.4137],[-97.5114,16.7074,1957.7847],[-97.4998,16.7189,1291.6105],[-97.4996,16.7251,1284.5223],[-97.5232,16.7236,1475.5419],[-97.5248,16.7194,1503.5723],[-97.5251,16.7034,1682.2271],[-97.5273,16.6987,1809.4053],[-97.5313,16.696,1659.804],[-97.5299,16.6908,1451.4023],[-97.5342,16.6889,1235.089],[-97.5446,16.696,988.1115],[-97.5452,16.6932,945.4172],[-97.5411,16.6806,1116.1748],[-97.5483,16.681,861.7698],[-97.5529,16.6796,635.5995],[-97.5548,16.6771,533.4094]]]]}
,"properties": {"GID_2": "MEX.20.453_2","GID_0": "MEX","country": "México","GID_1": "MEX.20_1","province": "Oaxaca","NL_NAME_1": "NA","county": "SantiagoAmoltepec","VARNAME_2": "NA","NL_NAME_2": "NA","TYPE_2": "Município","ENGTYPE_2": "Municipality","CC_2": "NA","HASC_2": "NA","name": "Santiago_Amoltepec.county","area_km2": 208.2307,"hist_schema_id": "Elevation0-9000","hist_area_km2": {"300": 0.1422,"325": 0.4877,"350": 0.6299,"375": 1.0566,"400": 1.1785,"425": 1.2598,"450": 1.463,"475": 1.3816,"500": 1.3207,"525": 1.6863,"550": 1.5847,"575": 1.8083,"600": 2.1739,"625": 2.7631,"650": 3.0475,"675": 3.4335,"700": 3.5961,"725": 3.6773,"750": 4.0024,"775": 3.8398,"800": 4.1852,"825": 4.5102,"850": 4.4898,"875": 5.14,"900": 4.8353,"925": 4.6321,"950": 4.8759,"975": 5.0181,"1000": 5.018,"1025": 4.9164,"1050": 4.4289,"1075": 4.5913,"1100": 4.2662,"1125": 4.9772,"1150": 4.6928,"1175": 4.9975,"1200": 4.774,"1225": 4.9568,"1250": 4.2255,"1275": 4.0223,"1300": 4.327,"1325": 3.4535,"1350": 3.4738,"1375": 3.4331,"1400": 3.7176,"1425": 3.5144,"1450": 3.9614,"1475": 3.4941,"1500": 3.1894,"1525": 3.5955,"1550": 3.0876,"1575": 3.0064,"1600": 2.8642,"1625": 3.0267,"1650": 3.2093,"1675": 2.8844,"1700": 2.4375,"1725": 2.4172,"1750": 2.0515,"1775": 1.6657,"1800": 1.8891,"1825": 1.8078,"1850": 1.3609,"1875": 1.0968,"1900": 1.0968,"1925": 0.8125,"1950": 0.6703,"1975": 0.8531,"2000": 0.5687,"2025": 0.325,"2050": 0.3047,"2075": 0.1422,"2100": 0.1828,"2125": 0.1422,"2150": 0.0812}}}