{"type":"Feature","properties":{"GID_2":"MEX.18.3_2","GID_0":"MEX","country":"México","GID_1":"MEX.18_1","province":"Nayarit","NL_NAME_1":"NA","county":"AmatlándeCañas","VARNAME_2":"NA","NL_NAME_2":"NA","TYPE_2":"Município","ENGTYPE_2":"Municipality","CC_2":"NA","HASC_2":"NA","name":"Amatlánde_Cañas.county"},
"geometry":{"type": "MultiPolygon","coordinates": [[[[-104.2473,20.6899,1040.9365],[-104.2433,20.6917,1084.3638],[-104.2429,20.6934,1123.708],[-104.2481,20.6996,1202.6399],[-104.2474,20.7056,1259.4971],[-104.2414,20.71,1404.1709],[-104.2422,20.7152,1416.8665],[-104.2466,20.7183,1501.0687],[-104.2476,20.7263,1654.645],[-104.2599,20.7353,1698.8451],[-104.2745,20.77,1626.79],[-104.28,20.7689,1658.4901],[-104.2829,20.7835,1688.0319],[-104.2899,20.7813,1722.759],[-104.2922,20.7771,1758.5422],[-104.2902,20.773,1673.1936],[-104.2915,20.7706,1624.2439],[-104.2976,20.7708,1573.6851],[-104.3283,20.7981,1621.4764],[-104.3358,20.7899,1489.5735],[-104.3453,20.7908,1286.999],[-104.3464,20.7932,1253.9243],[-104.3582,20.7905,1080.1117],[-104.3614,20.7854,978.6403],[-104.3664,20.7831,915.7441],[-104.3752,20.7754,815.6005],[-104.3759,20.7841,923.0939],[-104.3504,20.8116,1638.8562],[-104.3641,20.8139,1462.0228],[-104.3603,20.8198,1285.9176],[-104.3571,20.8199,1311.4851],[-104.3589,20.824,1162.0242],[-104.3584,20.8343,1022.0732],[-104.3617,20.8385,949.6038],[-104.3618,20.8409,984.3635],[-104.3593,20.8401,980.4549],[-104.36,20.8419,909.5148],[-104.3563,20.8437,922.6795],[-104.3536,20.8428,906.4636],[-104.35,20.8457,962.9041],[-104.3473,20.8448,935.0023],[-104.3452,20.8464,920.7476],[-104.3419,20.8442,958.012],[-104.3343,20.8467,965.5995],[-104.3317,20.8427,965.3132],[-104.3225,20.8413,991.3592],[-104.3184,20.8386,1002.2717],[-104.3157,20.840699999999998,1024.1958],[-104.3126,20.8404,1026.9872],[-104.3127,20.843,1055.9766],[-104.3088,20.8468,1122.1897],[-104.3021,20.8457,1065.2877],[-104.2982,20.8474,1077.8724],[-104.2954,20.8455,1092.7686],[-104.2954,20.8477,1083.4663],[-104.2924,20.8479,1103.1974],[-104.2912,20.8518,1168.8225],[-104.2929,20.8535,1158.6697],[-104.2949,20.8525,1117.6125],[-104.2949,20.8565,1132.1085],[-104.3021,20.8606,1230.5914],[-104.2996,20.8647,1241.0707],[-104.3033,20.8722,1405.1793],[-104.3029,20.8751,1472.3124],[-104.3053,20.8761,1422.1405],[-104.3046,20.8796,1417.7322],[-104.3116,20.8854,1548.5354],[-104.3095,20.8881,1573.0968],[-104.3203,20.895,1595.7131],[-104.3205,20.8985,1649.787],[-104.3289,20.9104,1806.6387],[-104.3332,20.9277,1977.1389],[-104.3418,20.9369,2026.9301],[-104.352,20.9359,1969.6659],[-104.3453,20.9648,1654.9215],[-104.3489,20.9648,1667.3176],[-104.3493,20.966,1653.6064],[-104.3772,20.963,1824.7822],[-104.3912,20.965699999999998,1717.4833],[-104.3974,20.9691,1657.2852],[-104.399,20.9588,1943.5986],[-104.4031,20.9465,1618.9415],[-104.4055,20.9447,1502.2745],[-104.4087,20.946,1531.9517],[-104.4405,20.9427,1147.5341],[-104.4531,20.9598,1424.676],[-104.452,20.9689,1502.8464],[-104.4554,20.985,1676.6915],[-104.4614,20.9933,1524.2856],[-104.4749,20.9946,1630.6721],[-104.4822,20.9931,1692.5361],[-104.4954,20.9728,1436.0714],[-104.5011,20.9672,1307.858],[-104.5221,20.9627,1320.0547],[-104.5403,20.967,1248.8005],[-104.5393,20.9624,1096.4154],[-104.5412,20.9577,936.7965],[-104.5408,20.9506,848.1824],[-104.5427,20.9483,787.7744],[-104.5571,20.953,1170.0117],[-104.5712,20.9605,1351.4771],[-104.5691,20.9808,1727.6055],[-104.5628,20.9882,1739.0159],[-104.5615,20.9868,1704.0387],[-104.5567,20.9948,1872.5566],[-104.5586,20.9957,1853.7651],[-104.5812,20.9658,1684.9492],[-104.6291,20.9242,448.1869],[-104.6227,20.9263,455.9665],[-104.617,20.9231,460.1966],[-104.6118,20.9232,486.4873],[-104.6107,20.9256,470.8608],[-104.6071,20.9262,472.9528],[-104.601,20.9314,474.5189],[-104.5915,20.9315,491.2975],[-104.5907,20.9346,515.6382],[-104.5782,20.934,561.2971],[-104.5763,20.9307,508.6623],[-104.5693,20.9309,532.3729],[-104.5645,20.9263,520.7474],[-104.5602,20.9262,516.5865],[-104.5569,20.9242,518.834],[-104.5575,20.9208,532.3302],[-104.5557,20.9181,520.5013],[-104.5511,20.9171,521.5728],[-104.5429,20.9119,529.6046],[-104.5447,20.9011,570.1116],[-104.5433,20.8976,537.1475],[-104.5357,20.8959,545.1355],[-104.536,20.8939,542.6432],[-104.5333,20.8897,546.0746],[-104.5349,20.8878,545.1382],[-104.5346,20.884,547.3588],[-104.5311,20.8827,550.1505],[-104.529,20.8856,558.0093],[-104.5244,20.8858,554.7072],[-104.5232,20.8829,556.643],[-104.5248,20.8805,562.4929],[-104.5226,20.8797,558.7756],[-104.5195,20.8692,578.801],[-104.514,20.8665,571.7045],[-104.5106,20.8597,611.3243],[-104.5064,20.8608,602.4633],[-104.5043,20.8468,632.8088],[-104.5016,20.8454,611.2366],[-104.5032,20.8418,652.7648],[-104.4999,20.8382,671.9146],[-104.4932,20.8388,661.5861],[-104.4901,20.835,642.595],[-104.4853,20.8333,665.59],[-104.4836,20.8274,679.5007],[-104.4802,20.825,672.3664],[-104.4803,20.8233,677.286],[-104.4755,20.8227,663.4886],[-104.4769,20.8196,720.2862],[-104.4742,20.8199,674.2623],[-104.4643,20.814,676.6995],[-104.46,20.8131,688.6513],[-104.463,20.8108,701.2798],[-104.4584,20.809,697.5894],[-104.4584,20.8065,725.6293],[-104.4555,20.8068,685.2526],[-104.4493,20.8035,707.693],[-104.441,20.8077,714.1832],[-104.4386,20.8053,699.4576],[-104.4357,20.8058,698.1443],[-104.4343,20.8004,712.74],[-104.4293,20.7968,710.0417],[-104.4291,20.7924,710.4091],[-104.4273,20.791,713.1747],[-104.4234,20.7913,714.7812],[-104.4191,20.7962,732.0947],[-104.4141,20.7938,738.3362],[-104.4125,20.79,726.0906],[-104.4036,20.7861,760.565],[-104.4018,20.7832,736.3755],[-104.3966,20.7808,740.0263],[-104.395,20.7744,779.2638],[-104.3914,20.7726,765.4119],[-104.3887,20.768,780.1221],[-104.3842,20.7665,760.0097],[-104.386,20.7632,769.7083],[-104.3789,20.7552,814.493],[-104.3765,20.7476,805.2191],[-104.3775,20.7424,786.3365],[-104.3723,20.7413,794.8221],[-104.3671,20.7447,797.3701],[-104.3637,20.7444,799.0648],[-104.359,20.7371,809.6209],[-104.3534,20.7359,814.5533],[-104.3508,20.7253,884.2271],[-104.3359,20.7215,834.1598],[-104.3319,20.7167,834.7061],[-104.3241,20.7175,860.3596],[-104.3229,20.714,846.3737],[-104.3185,20.7135,846.3096],[-104.3164,20.707,887.2092],[-104.309,20.7037,855.1257],[-104.3072,20.6998,860.1262],[-104.308,20.6968,865.0918],[-104.3056,20.6942,868.3113],[-104.2979,20.6916,889.7542],[-104.2949,20.6925,874.478],[-104.2885,20.6892,883.0123],[-104.287,20.6865,886.3995],[-104.2891,20.6829,887.9893],[-104.2884,20.6754,897.8574],[-104.2846,20.6706,909.4333],[-104.2864,20.6683,938.0214],[-104.288,20.6604,926.439],[-104.287,20.6586,945.0621],[-104.2834,20.6576,921.7659],[-104.2848,20.6529,938.3995],[-104.2806,20.6464,1001.1124],[-104.2826,20.6427,986.0347],[-104.2815,20.6412,977.8826],[-104.2828,20.6362,973.6715],[-104.2808,20.6354,978.3314],[-104.282,20.629,988.5743],[-104.2801,20.6282,981.6887],[-104.2788,20.6238,970.2044],[-104.275,20.6222,1012.7798],[-104.2745,20.6166,1014.943],[-104.267,20.6142,989.2167],[-104.2569,20.6035,1003.8436],[-104.2536,20.6034,1002.5195],[-104.2529,20.6076,1038.0984],[-104.2515,20.6083,1034.4427],[-104.2554,20.6108,1094.7589],[-104.2553,20.6125,1132.7532],[-104.2519,20.6145,1086.6913],[-104.253,20.6182,1092.687],[-104.2547,20.6184,1109.7126],[-104.2538,20.6306,1298.1021],[-104.248,20.6294,1290.7399],[-104.2469,20.6315,1344.2947],[-104.2602,20.6413,1403.9075],[-104.2604,20.6428,1342.8248],[-104.2571,20.6459,1389.8846],[-104.2553,20.6533,1367.1895],[-104.2387,20.6603,1571.5698],[-104.2365,20.6629,1570.3163],[-104.237,20.6651,1514.9363],[-104.2469,20.6709,1357.9905],[-104.2458,20.6738,1305.876],[-104.2532,20.6823,973.4199],[-104.2479,20.6865,993.2794],[-104.2473,20.6899,1040.9365]]]]}}