{"type":"Feature","properties":{"featurecla":"River","scalerank":12,"rivernum":22259,"dissolve":"22259River","name":"Purungueo1","name_alt":null,"note":"ID is link back to CEC data","name_full":"Purungueo","min_zoom":7.0,"strokeweig":0.2,"uident":2033001,"min_label":8.0},
"geometry":{"type": "LineString","coordinates": [[-100.88853919179122,19.423854884889863,952.4871],[-100.88898678293707,19.375270900514863,830.8076],[-100.8866267568954,19.340196030723206,747.0271],[-100.8812556631454,19.318711655723206,740.8841],[-100.88145911366622,19.314398504681535,822.812],[-100.87311764231207,19.276678778119035,687.1926],[-100.87604732981207,19.257147528119035,770.8437],[-100.86253821522872,19.248602606244035,687.4579],[-100.83967037668707,19.211127020306535,591.4467],[-100.84015865793707,19.194606838014863,660.6647],[-100.85716712147872,19.161566473431535,582.5559],[-100.85899817616622,19.145615952598206,577.4565],[-100.8551326162704,19.131455796348206,622.4194],[-100.84870357981207,19.121527410931535,510.1038],[-100.82306881418707,19.100897528119035,496.3851],[-100.81956946522872,19.072862046348206,701.5131],[-100.8265681631454,19.049343166139863,780.1703],[-100.82819576731207,19.026475327598206,534.6811],[-100.8177791006454,19.005641994264863,433.8611],[-100.80744381418707,18.980739650514863,453.1337],[-100.7855525381454,18.971462306764863,528.9598],[-100.77204342356207,18.957098699994035,425.5414],[-100.7674861318954,18.914740301556535,428.6885],[-100.77375240793707,18.902451890098206,468.1127],[-100.76756751210372,18.880397853639863,422.1259],[-100.74449622304122,18.868516343223206,447.235]]}}