{"type":"Feature","properties":{"featurecla":"River","scalerank":12,"rivernum":22256,"dissolve":"22256River","name":"Turicato","name_alt":null,"note":"ID is link back to CEC data","name_full":"Turicato","min_zoom":7.0,"strokeweig":0.15,"uident":2033601,"min_label":8.0},
"geometry":{"type": "LineString","coordinates": [[-101.62804114491622,19.359320379681535,2500.5845],[-101.6227107412704,19.339626369264863,2433.1917],[-101.60895748606207,19.307969468223206,2382.186],[-101.60871334543707,19.276963608848206,2201.2869],[-101.6012263662704,19.265936590619035,2213.0735],[-101.5773005850204,19.257879949994035,2131.4329],[-101.5426326162704,19.222967840619035,1744.6865],[-101.48713131418707,19.177028713014863,1410.369],[-101.46637936106207,19.139593817181535,1015.8018]]}}