{"type":"Feature","properties":{"GID_2":"MEX.20.428_2","GID_0":"MEX","country":"México","GID_1":"MEX.20_1","province":"Oaxaca","NL_NAME_1":"NA","county":"SantaMaríaPápalo","VARNAME_2":"NA","NL_NAME_2":"NA","TYPE_2":"Município","ENGTYPE_2":"Municipality","CC_2":"NA","HASC_2":"NA","name":"Santa_María_Pápalo.county"},
"geometry":{"type": "MultiPolygon","coordinates": [[[[-96.8127,17.8217,3028.9478],[-96.8164,17.8192,2997.1689],[-96.8253,17.8065,3032.2595],[-96.8301,17.7929,3207.9519],[-96.8293,17.7853,3128.7168],[-96.8314,17.7784,3086.7004],[-96.8332,17.7776,3070.6475],[-96.8268,17.7742,2985.0205],[-96.8152,17.758,2609.4297],[-96.8164,17.7501,2722.7124],[-96.8155,17.7464,2798.0054],[-96.8074,17.7489,2461.7161],[-96.7891,17.7367,2070.2209],[-96.786,17.746,1689.8822],[-96.7818,17.75,1479.8273],[-96.7892,17.7589,1711.0072],[-96.7973,17.7649,1797.2207],[-96.7991,17.7714,1851.6682],[-96.7935,17.7752,1856.9613],[-96.79,17.7804,1895.1606],[-96.7902,17.786,1923.1517],[-96.7768,17.8186,2636.5181],[-96.7451,17.8363,1817.373],[-96.7453,17.8313,1542.8357],[-96.7143,17.8273,1041.4578],[-96.7111,17.8292,1001.4173],[-96.7108,17.8322,988.0198],[-96.708,17.8341,959.6968],[-96.706,17.8401,907.6666],[-96.7042,17.840699999999998,882.7627],[-96.717,17.8485,1133.3297],[-96.7229,17.8502,1212.6473],[-96.7277,17.8494,1284.1479],[-96.7372,17.8531,1408.1951],[-96.7463,17.853,1621.5912],[-96.7535,17.8579,2081.231],[-96.7597,17.8583,2538.0393],[-96.7705,17.85,2634.8877],[-96.7788,17.8342,2798.5884],[-96.805,17.8328,3085.7969],[-96.8127,17.8217,3028.9478]]]]}}