{"type":"Feature","properties":{"GID_2":"MEX.32.57_2","GID_0":"MEX","country":"México","GID_1":"MEX.32_1","province":"Zacatecas","NL_NAME_1":"NA","county":"Villanueva","VARNAME_2":"NA","NL_NAME_2":"NA","TYPE_2":"Município","ENGTYPE_2":"Municipality","CC_2":"NA","HASC_2":"NA","name":"Villanueva.county"},
"geometry":{"type": "MultiPolygon","coordinates": [[[[-102.6935,22.1047,2677.2827],[-102.6909,22.1066,2702.6782],[-102.6919,22.1148,2679.374],[-102.6901,22.1234,2677.1851],[-102.6875,22.1242,2683.0198],[-102.6834,22.1299,2675.9346],[-102.6859,22.1332,2682.7104],[-102.6861,22.1379,2643.3496],[-102.6817,22.1411,2610.1016],[-102.681,22.1437,2582.6311],[-102.6824,22.1459,2575.1057],[-102.6793,22.145,2552.9504],[-102.6743,22.1478,2515.6719],[-102.6741,22.1513,2524.7627],[-102.6694,22.1596,2496.1084],[-102.6755,22.1685,2579.9429],[-102.6759,22.1756,2576.4751],[-102.6747,22.178,2566.5259],[-102.6687,22.1779,2548.2717],[-102.6667,22.1809,2579.7415],[-102.6693,22.194,2577.4148],[-102.6651,22.1941,2569.4922],[-102.6611,22.1909,2622.9492],[-102.6516,22.1931,2538.4121],[-102.6553,22.195,2463.9211],[-102.6458,22.2043,2710.1599],[-102.6458,22.2132,2727.9148],[-102.6437,22.2212,2762.5664],[-102.6393,22.226,2661.2119],[-102.6417,22.2264,2610.1084],[-102.6414,22.2284,2657.6863],[-102.67,22.2457,2388.1082],[-102.6687,22.2919,2451.479],[-102.6121,22.2915,2892.9355],[-102.6134,22.2965,2781.1292],[-102.6059,22.3032,2734.0208],[-102.6059,22.3068,2720.5957],[-102.6018,22.311,2654.7764],[-102.6011,22.3143,2638.6609],[-102.6022,22.3184,2628.1289],[-102.6059,22.3218,2624.4358],[-102.6087,22.3331,2585.0854],[-102.6189,22.3355,2611.6057],[-102.6236,22.3342,2582.9641],[-102.6259,22.3358,2546.5249],[-102.6284,22.3408,2567.7358],[-102.6286,22.3454,2589.2368],[-102.6252,22.3481,2634.043],[-102.6316,22.351,2625.6685],[-102.6381,22.3473,2664.6577],[-102.6445,22.3526,2634.9109],[-102.6465,22.363,2568.343],[-102.655,22.3892,2390.2197],[-102.6651,22.3961,2322.3755],[-102.669,22.4035,2274.6748],[-102.6726,22.4052,2245.7039],[-102.6777,22.4131,2233.5232],[-102.684,22.4133,2206.9744],[-102.6825,22.4201,2217.7561],[-102.6857,22.4198,2207.4795],[-102.6867,22.4225,2194.209],[-102.6917,22.4211,2176.6792],[-102.6938,22.423,2177.6274],[-102.6959,22.4226,2154.5186],[-102.6996,22.4274,2121.9651],[-102.693,22.4315,2142.4863],[-102.6956,22.4357,2163.8567],[-102.6936,22.4371,2153.4055],[-102.6935,22.4396,2146.4255],[-102.691,22.4407,2143.9639],[-102.6935,22.4432,2144.4695],[-102.6878,22.4515,2170.7427],[-102.6864,22.4595,2179.4629],[-102.6811,22.4623,2189.8081],[-102.6798,22.4665,2197.5876],[-102.677,22.4651,2236.4443],[-102.6736,22.4667,2290.7805],[-102.674,22.4702,2252.7678],[-102.6703,22.4749,2253.458],[-102.671,22.4797,2259.8884],[-102.6691,22.4836,2300.8059],[-102.6671,22.4825,2308.5552],[-102.6661,22.4855,2313.6416],[-102.6641,22.4864,2303.8896],[-102.6636,22.5,2325.0828],[-102.6667,22.5021,2328.4666],[-102.668,22.5107,2360.6318],[-102.6756,22.5164,2373.8806],[-102.6889,22.5192,2339.1729],[-102.6925,22.5189,2318.7847],[-102.6946,22.5168,2310.3977],[-102.7019,22.5182,2238.4438],[-102.7113,22.5154,2200.6968],[-102.71,22.5196,2213.5906],[-102.7114,22.5244,2230.5151],[-102.7207,22.5359,2255.7458],[-102.744,22.5464,2205.2915],[-102.7394,22.5578,2351.4192],[-102.7332,22.5601,2305.4304],[-102.7285,22.5653,2442.4194],[-102.7287,22.5717,2418.7041],[-102.7257,22.583,2274.3008],[-102.7284,22.5892,2224.2285],[-102.7231,22.5902,2282.7856],[-102.7233,22.5962,2256.7378],[-102.7198,22.5972,2290.6487],[-102.7205,22.6118,2329.5496],[-102.7122,22.615,2453.9705],[-102.7133,22.6204,2417.5105],[-102.705,22.6209,2507.4253],[-102.7002,22.6239,2473.9097],[-102.6943,22.6223,2459.8767],[-102.6938,22.6259,2453.9717],[-102.7081,22.6299,2479.4543],[-102.7062,22.6343,2508.9456],[-102.7076,22.6397,2558.0474],[-102.7009,22.6431,2512.614],[-102.6997,22.647,2473.3145],[-102.7047,22.6514,2447.4478],[-102.7069,22.6499,2349.5142],[-102.7134,22.65,2282.8379],[-102.7162,22.6523,2266.229],[-102.7221,22.6501,2242.4697],[-102.7365,22.6558,2178.4009],[-102.7404,22.6551,2165.6836],[-102.7344,22.6635,2165.7036],[-102.7406,22.6645,2167.8677],[-102.7439,22.6708,2184.127],[-102.7467,22.6702,2191.0874],[-102.7539,22.6729,2207.9658],[-102.7603,22.6666,2224.948],[-102.7662,22.6664,2250.7329],[-102.774,22.6688,2283.2478],[-102.7802,22.6738,2348.186],[-102.7859,22.6759,2263.9031],[-102.79,22.6717,2226.7314],[-102.7868,22.6678,2250.6494],[-102.7918,22.6664,2281.5864],[-102.7908,22.6648,2296.9033],[-102.7867,22.6646,2278.2422],[-102.7869,22.6576,2202.9448],[-102.7847,22.6559,2194.553],[-102.7843,22.6518,2180.6643],[-102.7875,22.6332,2149.2869],[-102.783,22.6291,2139.0],[-102.782,22.6195,2126.0464],[-102.7841,22.6189,2128.8149],[-102.7837,22.6171,2128.1716],[-102.7804,22.6163,2118.707],[-102.7836,22.6167,2125.6895],[-102.7826,22.613,2119.8513],[-102.7797,22.6129,2114.75],[-102.7776,22.6057,2106.1064],[-102.7895,22.5953,2095.3325],[-102.7937,22.601,2111.3247],[-102.8082,22.5953,2265.9395],[-102.818,22.5834,2140.3652],[-102.8207,22.5659,2091.739],[-102.8168,22.5622,2085.8142],[-102.8109,22.5606,2078.073],[-102.8098,22.5561,2074.8784],[-102.8145,22.5442,2063.1624],[-102.82,22.5459,2069.8779],[-102.8258,22.5442,2078.6375],[-102.8292,22.5495,2094.4292],[-102.8323,22.5489,2100.4036],[-102.836,22.5508,2118.2969],[-102.8452,22.5473,2131.4504],[-102.8537,22.5508,2161.043],[-102.8593,22.5476,2155.6863],[-102.8637,22.5483,2130.6074],[-102.8656,22.5457,2128.5591],[-102.8685,22.5454,2125.8767],[-102.8685,22.543,2139.8159],[-102.8714,22.5399,2119.917],[-102.8744,22.5403,2112.5659],[-102.8769,22.5381,2103.1462],[-102.8773,22.541,2118.2964],[-102.8878,22.5513,2136.959],[-102.8874,22.5527,2138.24],[-102.8911,22.5564,2151.6697],[-102.8995,22.5589,2193.2744],[-102.903,22.5573,2199.6353],[-102.9111,22.5593,2234.8892],[-102.9138,22.5583,2277.3313],[-102.912,22.5529,2223.3601],[-102.9178,22.5512,2294.21],[-102.9181,22.5459,2389.4111],[-102.9238,22.5447,2383.2688],[-102.9294,22.5408,2395.5657],[-102.9237,22.5354,2406.9233],[-102.9192,22.521,2257.3616],[-102.912,22.5099,2153.8926],[-102.9185,22.5121,2313.1885],[-102.9267,22.5086,2287.8379],[-102.941,22.5083,2287.9014],[-102.9491,22.4998,2182.8135],[-102.9537,22.501,2153.2031],[-102.9538,22.4989,2148.6509],[-102.9556,22.4989,2152.4326],[-102.9556,22.4962,2128.4443],[-102.9522,22.4961,2132.4033],[-102.947,22.4884,2155.7285],[-102.9552,22.4874,2145.4126],[-102.9655,22.4718,2093.1147],[-102.9585,22.4695,2129.0271],[-102.9547,22.4654,2176.196],[-102.9556,22.4634,2183.0864],[-102.9522,22.4629,2200.2434],[-102.9513,22.4577,2261.23],[-102.9582,22.4554,2120.8567],[-102.9615,22.4564,2135.5525],[-102.9636,22.4533,2128.5696],[-102.9681,22.4522,2133.6155],[-102.9684,22.4505,2147.2109],[-102.9728,22.4484,2220.7905],[-102.9836,22.4521,2134.978],[-102.9884,22.4509,2106.0186],[-102.998,22.4542,2058.3235],[-102.9993,22.456,2050.3894],[-103.0014,22.455,2035.0425],[-103.0023,22.4563,2032.4033],[-103.0059,22.453,2038.4044],[-103.0075,22.4546,2033.572],[-103.015,22.455,2076.7803],[-103.0189,22.4457,2097.4326],[-103.0179,22.4438,2105.2334],[-103.0214,22.4402,2125.0173],[-103.0214,22.4386,2118.4121],[-103.0201,22.4388,2125.0173],[-103.0219,22.4366,2119.6758],[-103.0175,22.4311,2141.7041],[-103.019,22.4194,2117.4607],[-103.0234,22.4141,2091.0354],[-103.0239,22.4082,2061.7803],[-103.0277,22.4045,2066.8862],[-103.0378,22.4008,2019.9258],[-103.0378,22.3956,2104.8652],[-103.0464,22.3874,2023.4506],[-103.0474,22.38,2060.0688],[-103.0525,22.3805,2101.7063],[-103.0534,22.3791,2147.2908],[-103.0569,22.3823,2162.302],[-103.0643,22.3761,2153.5159],[-103.0661,22.3795,2210.3804],[-103.0692,22.3799,2239.624],[-103.0686,22.3771,2237.1533],[-103.0754,22.3686,2083.2363],[-103.0744,22.3661,2092.8191],[-103.0702,22.363,2266.925],[-103.0656,22.3565,2323.6982],[-103.0533,22.3517,2155.7358],[-103.0558,22.3426,2174.5977],[-103.0607,22.3388,2118.0793],[-103.0599,22.3369,2122.1775],[-103.0632,22.3326,2191.3354],[-103.0624,22.3251,2104.7454],[-103.0548,22.3234,2118.4424],[-103.0577,22.3216,2110.2314],[-103.0545,22.3194,2143.0002],[-103.055,22.3171,2141.7222],[-103.0591,22.3161,2148.9492],[-103.0604,22.314,2153.0269],[-103.0569,22.3143,2126.6108],[-103.0573,22.3121,2149.2139],[-103.0538,22.3117,2152.3691],[-103.0556,22.3072,2191.9956],[-103.051,22.3068,2130.5762],[-103.0484,22.3042,2096.8867],[-103.0397,22.3029,2072.8425],[-103.0404,22.2998,2117.0156],[-103.0454,22.2959,2144.7759],[-103.0483,22.2769,2067.3064],[-103.0326,22.277,2021.787],[-103.0239,22.2731,1984.3811],[-103.0264,22.2666,2098.6545],[-103.032,22.2622,2094.3457],[-103.0371,22.2525,2138.2358],[-103.0447,22.2517,2186.9541],[-103.0505,22.2471,2199.7656],[-103.0529,22.2444,2202.4404],[-103.0535,22.2402,2228.8521],[-103.0576,22.2379,2233.198],[-103.0592,22.2349,2228.5615],[-103.0621,22.2283,2202.9209],[-103.0578,22.2283,2193.5637],[-103.0597,22.2242,2149.989],[-103.0523,22.2207,2137.8972],[-103.0548,22.2138,2114.6614],[-103.0598,22.2172,2144.249],[-103.0696,22.2112,2222.311],[-103.0719,22.212,2244.0188],[-103.0728,22.2104,2246.3525],[-103.071,22.2035,2226.4331],[-103.076,22.2023,2266.0076],[-103.0882,22.2044,2044.9248],[-103.0921,22.1984,1986.8885],[-103.1061,22.1914,2056.6829],[-103.1014,22.1786,2253.824],[-103.1039,22.172,2255.3115],[-103.1028,22.1711,2255.3115],[-103.1059,22.1682,2259.6802],[-103.1049,22.1575,2193.2336],[-103.1087,22.1534,2172.7996],[-103.1065,22.1518,2154.5139],[-103.1025,22.1536,2202.9258],[-103.1088,22.1443,2171.4199],[-103.1006,22.1461,2183.8774],[-103.0952,22.1453,2129.7368],[-103.0907,22.1435,2097.3484],[-103.0901,22.14,2055.5225],[-103.0776,22.1357,2030.3533],[-103.0759,22.1332,2040.1702],[-103.0816,22.1301,2146.5491],[-103.0765,22.1278,2047.1206],[-103.077,22.1255,2055.0017],[-103.0802,22.1245,2088.4468],[-103.0817,22.1203,2062.689],[-103.0877,22.1178,2107.7114],[-103.0845,22.114,2152.9478],[-103.0862,22.1122,2131.7332],[-103.0867,22.1149,2100.0918],[-103.0895,22.1152,2086.9856],[-103.0904,22.1139,2111.6594],[-103.0883,22.1129,2100.4941],[-103.0924,22.1099,2197.5215],[-103.0964,22.1113,2123.2817],[-103.101,22.1078,2178.2173],[-103.1017,22.1018,2234.5029],[-103.1042,22.1012,2213.9468],[-103.1256,22.1048,2235.9756],[-103.135,22.0976,2260.9258],[-103.1351,22.0905,2312.0352],[-103.1386,22.0913,2296.4048],[-103.1434,22.0872,2329.0081],[-103.1528,22.0876,2530.8188],[-103.1522,22.0826,2480.3999],[-103.1548,22.0731,2595.5273],[-103.1444,22.0679,2488.0415],[-103.1079,22.0634,2204.3401],[-103.1062,22.047,2273.6851],[-103.0503,22.0417,2202.6519],[-103.049,22.0436,2204.8059],[-103.0514,22.0469,2214.3237],[-103.0503,22.0479,2216.394],[-103.0562,22.0521,2244.0996],[-103.0449,22.1111,2033.2695],[-103.0379,22.1109,2051.5483],[-103.0325,22.1052,2038.3026],[-103.0295,22.1056,2006.3389],[-103.0277,22.108,2020.3676],[-103.0288,22.1121,1994.4773],[-103.0255,22.1147,1998.0173],[-103.025,22.1137,2004.7954],[-103.025,22.1165,1976.4211],[-103.0226,22.117,1987.9619],[-103.0221,22.1226,1962.0616],[-103.012,22.1328,1916.6085],[-103.0068,22.1364,1930.6279],[-103.0002,22.1381,1940.5463],[-102.9951,22.1371,1948.2767],[-102.9866,22.1396,1937.8411],[-102.9825,22.1391,1968.478],[-102.9767,22.1429,1936.8741],[-102.9747,22.1351,2025.9861],[-102.9697,22.1338,2121.1758],[-102.9668,22.1309,2071.1855],[-102.9639,22.1323,2173.0723],[-102.9607,22.1302,2274.5952],[-102.9604,22.1282,2302.4807],[-102.9563,22.1273,2308.4072],[-102.9539,22.1285,2334.6089],[-102.9509,22.1269,2335.1389],[-102.9554,22.1216,2359.7427],[-102.9503,22.1182,2210.7424],[-102.9558,22.1106,2068.2129],[-102.945,22.1045,1913.0397],[-102.9463,22.1001,1928.4951],[-102.9444,22.0973,1902.7622],[-102.948,22.0904,1963.3926],[-102.9461,22.0881,1966.8008],[-102.9381,22.0876,1953.9418],[-102.9328,22.091,1926.7942],[-102.9251,22.0906,1918.6299],[-102.9196,22.0861,1853.3663],[-102.9193,22.081,1844.5413],[-102.9168,22.077,1816.7009],[-102.9148,22.0761,1805.2096],[-102.9096,22.0775,1818.7114],[-102.9099,22.0731,1786.7107],[-102.9136,22.0732,1803.8267],[-102.9177,22.0711,1816.7214],[-102.9198,22.064,1789.6316],[-102.9246,22.0589,1862.4717],[-102.9229,22.0572,1869.1803],[-102.9215,22.049,1784.1501],[-102.9164,22.0417,1789.0934],[-102.9161,22.0345,1735.4476],[-102.9173,22.0301,1671.5864],[-102.9208,22.026,1617.7584],[-102.918,22.0221,1610.332],[-102.9082,22.0269,1610.5138],[-102.9049,22.0206,1643.2473],[-102.9002,22.0203,1631.4927],[-102.8978,22.0231,1601.0],[-102.8937,22.0246,1601.0],[-102.8923,22.0283,1611.168],[-102.8904,22.0265,1601.0],[-102.8888,22.028199999999998,1601.5121],[-102.8883,22.0266,1601.0],[-102.8853,22.0258,1601.0],[-102.8814,22.0294,1601.9327],[-102.8793,22.0339,1607.1295],[-102.8703,22.0382,1642.6545],[-102.8681,22.0366,1674.9858],[-102.872,22.0261,1671.7931],[-102.864,22.021,1664.661],[-102.8587,22.0218,1645.0448],[-102.8591,22.002,1610.1387],[-102.8485,21.9983,1637.5232],[-102.8479,22.0014,1641.5458],[-102.8441,22.0034,1661.2622],[-102.8312,22.0072,1759.3306],[-102.8259,22.0067,1815.7585],[-102.8104,21.9948,2470.2148],[-102.8074,21.9968,2578.3633],[-102.8055,21.9963,2593.6313],[-102.7915,22.016,2419.5571],[-102.784,22.0169,2585.1968],[-102.782,22.0224,2493.7163],[-102.7823,22.0281,2483.9565],[-102.7763,22.031,2544.7383],[-102.7743,22.036,2504.9995],[-102.769,22.0378,2552.9072],[-102.7677,22.04,2506.1873],[-102.7705,22.0416,2398.6606],[-102.761,22.0463,2448.3325],[-102.7594,22.0514,2413.166],[-102.7555,22.0563,2563.467],[-102.7556,22.0611,2616.3799],[-102.7532,22.0633,2668.1387],[-102.7564,22.0683,2762.7935],[-102.7558,22.0737,2733.9612],[-102.7287,22.0885,2707.7498],[-102.7105,22.0939,2585.2493],[-102.7094,22.0968,2589.6924],[-102.6935,22.1047,2677.2827]]]]}}