{"type": "Feature","bbox": [-96.6282,18.3124,-95.9782,18.7421],"geometry": {"type": "MultiPolygon","coordinates": [[[[-96.3196,18.3583,30.3714],[-96.3176,18.3583,27.193],[-96.32,18.3555,30.4691],[-96.3193,18.3536,32.4486],[-96.3151,18.3498,32.6084],[-96.3156,18.3467,29.6455],[-96.3135,18.3459,31.6628],[-96.3175,18.3399,30.2127],[-96.316,18.3399,30.2127],[-96.3161,18.3376,28.222],[-96.3133,18.335,27.7573],[-96.315,18.3314,26.4953],[-96.3135,18.3281,25.7963],[-96.311,18.3274,25.6222],[-96.3085,18.3295,27.088],[-96.3056,18.329,24.9431],[-96.3054,18.3248,25.6994],[-96.309,18.3249,23.89],[-96.3082,18.3235,23.6501],[-96.3099,18.3224,23.3169],[-96.2991,18.3164,24.0407],[-96.2969,18.3162,24.4431],[-96.2968,18.3174,20.909],[-96.2944,18.3124,22.3011],[-96.2904,18.3166,23.8982],[-96.2905,18.3209,28.5185],[-96.2971,18.3373,37.9389],[-96.296,18.3471,37.2234],[-96.3001,18.3668,52.3887],[-96.2989,18.3644,49.3908],[-96.2976,18.3649,49.3908],[-96.2967,18.3713,51.0589],[-96.2942,18.3709,51.5459],[-96.2933,18.3758,47.3983],[-96.2894,18.3753,48.6132],[-96.2892,18.3778,41.8075],[-96.2796,18.3758,39.2633],[-96.2816,18.3778,40.7423],[-96.2794,18.3859,38.7849],[-96.2815,18.3861,38.2487],[-96.2769,18.3913,39.7864],[-96.2736,18.3917,40.3914],[-96.2653,18.4046,32.0631],[-96.2613,18.4082,26.2346],[-96.2576,18.4075,27.8196],[-96.2561,18.4046,25.3892],[-96.2494,18.4044,25.7167],[-96.2455,18.4013,23.0265],[-96.2441,18.3969,25.4583],[-96.2338,18.396,23.9135],[-96.2311,18.3924,20.0608],[-96.2269,18.392,22.4886],[-96.2244,18.3939,21.446],[-96.2215,18.3934,21.3099],[-96.2203,18.3951,22.709],[-96.2134,18.3955,21.3314],[-96.2085,18.3936,19.7178],[-96.2068,18.396,17.815],[-96.2049,18.3947,21.8259],[-96.1992,18.3956,18.4083],[-96.1972,18.3936,18.2033],[-96.1954,18.3947,19.9413],[-96.1896,18.3924,18.1756],[-96.1876,18.3938,15.2161],[-96.1831,18.3878,17.9253],[-96.1777,18.3858,14.0283],[-96.1775,18.3874,15.9091],[-96.1751,18.3861,15.1899],[-96.1729,18.388,14.06],[-96.1689,18.3876,16.8225],[-96.1628,18.3897,17.2392],[-96.159,18.3964,12.2425],[-96.1592,18.402,10.8334],[-96.1561,18.4022,12.028],[-96.1536,18.4056,14.7411],[-96.1501,18.4056,15.6091],[-96.1506,18.4108,16.4245],[-96.1446,18.4124,9.4891],[-96.1432,18.4098,11.9888],[-96.1391,18.4102,13.301],[-96.1372,18.4154,8.3999],[-96.1344,18.4176,14.099],[-96.131,18.4176,14.5563],[-96.1267,18.4215,12.7236],[-96.124,18.4197,8.7807],[-96.1203,18.423,5.6313],[-96.1155,18.4187,5.2334],[-96.1127,18.4198,6.6643],[-96.1118,18.4161,8.0475],[-96.1073,18.4167,6.25],[-96.105,18.4217,5.9796],[-96.0975,18.4198,4.1661],[-96.0952,18.4158,3.5154],[-96.0918,18.4136,3.2484],[-96.0837,18.4104,2.7178],[-96.0799,18.4134,6.0051],[-96.0745,18.409,3.8258],[-96.0684,18.4117,3.438],[-96.0643,18.4157,4.2472],[-96.0607,18.4161,5.0657],[-96.0589,18.4128,3.6744],[-96.0498,18.4072,5.427],[-96.0459,18.4009,4.2009],[-96.0435,18.4,1.2343],[-96.0391,18.4018,1.859],[-96.0372,18.4056,2.825],[-96.033,18.4047,2.4567],[-96.0312,18.4031,2.3588],[-96.0313,18.3991,1.3333],[-96.0292,18.3956,-0.0497],[-96.0273,18.3935,1.6657],[-96.0243,18.3934,4.6357],[-96.0243,18.3895,1.2077],[-96.0145,18.3884,0.4501],[-96.0116,18.391,0.5714],[-96.0106,18.3943,0.3645],[-96.0016,18.3962,0.6056],[-95.9967,18.4009,1.0354],[-95.9935,18.4003,2.014],[-95.9927,18.4037,0.4598],[-95.9849,18.415,0.5118],[-95.9851,18.4269,1.3827],[-95.9903,18.4342,0.6713],[-95.9939,18.4352,0.3468],[-95.999,18.4328,3.2227],[-96.001,18.4341,0.8753],[-96.0015,18.436,0.8337],[-95.9979,18.4428,0.0],[-96.0018,18.4502,0.3102],[-95.9988,18.4584,0.0099],[-95.995,18.4635,0.8623],[-95.9929,18.4655,0.0952],[-95.9904,18.4654,0.4029],[-95.9913,18.4698,0.6821],[-95.9888,18.471,0.8128],[-95.9851,18.4695,0.308],[-95.9849,18.4715,0.2967],[-95.9877,18.4725,0.6393],[-95.9859,18.4761,1.2016],[-95.9937,18.4963,0.0],[-95.9782,18.5193,0.0],[-95.9898,18.5309,0.6742],[-95.9988,18.5265,0.0],[-96.0045,18.5299,0.8579],[-96.0079,18.5361,0.0],[-96.0053,18.5447,1.0372],[-96.0048,18.5536,0.5912],[-96.008,18.556,0.7663],[-96.0094,18.5627,1.239],[-96.0144,18.5674,0.8647],[-96.0199,18.5657,0.2271],[-96.0278,18.5697,0.6335],[-96.0288,18.577,1.0885],[-96.0342,18.5756,3.3264],[-96.0356,18.5766,3.3264],[-96.034,18.5793,1.5325],[-96.0352,18.5816,2.1649],[-96.0389,18.5802,1.3865],[-96.0395,18.5834,1.7323],[-96.0356,18.5868,2.3032],[-96.0371,18.5889,1.3408],[-96.0352,18.5907,1.0],[-96.036,18.5954,2.1659],[-96.0393,18.5955,1.5375],[-96.0445,18.5995,0.7039],[-96.051,18.5961,1.2088],[-96.0567,18.5981,1.8942],[-96.0568,18.6017,3.9579],[-96.0604,18.6034,3.851],[-96.061,18.6017,2.8773],[-96.0647,18.6032,3.0942],[-96.066,18.6007,3.3074],[-96.0672,18.6022,3.4709],[-96.0679,18.6,4.2495],[-96.0699,18.6017,4.2552],[-96.0714,18.6008,5.7666],[-96.0728,18.602,5.7666],[-96.0725,18.6056,8.4073],[-96.0754,18.6093,6.0718],[-96.0885,18.6133,7.3819],[-96.1029,18.6118,11.9213],[-96.103,18.6089,11.8579],[-96.1049,18.6081,9.883],[-96.1197,18.6083,7.624],[-96.1198,18.6028,11.5892],[-96.1247,18.6019,15.73],[-96.1259,18.6041,13.395],[-96.1342,18.607,14.35],[-96.1338,18.6134,11.5138],[-96.1363,18.6149,15.624],[-96.1414,18.6267,15.4821],[-96.1433,18.6274,15.8766],[-96.146,18.6258,16.651],[-96.1469,18.6289,16.3824],[-96.155,18.6354,19.7007],[-96.16,18.6441,19.1514],[-96.1631,18.6435,18.4072],[-96.1651,18.6449,18.9049],[-96.1677,18.6509,18.8757],[-96.1721,18.6507,18.8651],[-96.1746,18.6533,20.747],[-96.1763,18.6515,20.9158],[-96.1791,18.6533,22.1157],[-96.1825,18.6486,22.123],[-96.1861,18.6507,21.5234],[-96.1895,18.6484,24.09],[-96.1932,18.6494,26.8846],[-96.199,18.6464,26.0104],[-96.2043,18.6383,27.1287],[-96.2079,18.6437,30.566],[-96.2191,18.649,30.1493],[-96.2229,18.6483,36.3147],[-96.2232,18.6509,31.198],[-96.2248,18.649,32.5457],[-96.2252,18.652,31.198],[-96.2291,18.6471,33.5683],[-96.2306,18.6486,34.1007],[-96.2319,18.6466,31.6154],[-96.2346,18.6494,36.6792],[-96.2353,18.6481,35.1343],[-96.2417,18.647,34.7762],[-96.2455,18.6484,40.9328],[-96.2468,18.6509,37.7154],[-96.2456,18.6541,35.1025],[-96.2477,18.6547,37.5309],[-96.2473,18.6568,36.9127],[-96.2514,18.6569,43.3158],[-96.2521,18.6591,40.0151],[-96.258,18.6581,42.519],[-96.2632,18.6604,40.5026],[-96.2662,18.6644,40.6869],[-96.2719,18.666,44.9738],[-96.2732,18.6648,45.9756],[-96.2749,18.6681,42.1436],[-96.2766,18.6662,45.9577],[-96.2796,18.6687,46.0127],[-96.2822,18.668,45.0999],[-96.2829,18.665,48.2474],[-96.2858,18.6645,44.453],[-96.2867,18.6617,48.1227],[-96.2897,18.6604,50.1784],[-96.2909,18.6606,47.6045],[-96.2908,18.6634,47.3111],[-96.2948,18.6618,50.801],[-96.299,18.6642,54.7395],[-96.2997,18.6623,51.108],[-96.3012,18.6651,52.1085],[-96.3057,18.6656,50.2444],[-96.3096,18.668,52.661],[-96.3143,18.6685,54.0456],[-96.3166,18.6663,53.936],[-96.3196,18.668,54.2752],[-96.3287,18.6672,52.4761],[-96.3288,18.67,55.8765],[-96.3349,18.6741,56.9839],[-96.3348,18.6778,58.571],[-96.3414,18.6782,61.2383],[-96.3423,18.6812,58.1384],[-96.3462,18.6834,59.2423],[-96.3486,18.6869,58.9891],[-96.3517,18.6866,61.9117],[-96.3524,18.6913,60.206],[-96.3607,18.6952,64.0281],[-96.3659,18.6948,64.5478],[-96.3659,18.6931,64.9928],[-96.3699,18.6897,66.5696],[-96.3727,18.6897,67.1192],[-96.3764,18.6873,70.1941],[-96.3779,18.6898,70.9487],[-96.3822,18.6892,73.3671],[-96.3821,18.6915,71.0326],[-96.3842,18.6918,73.11],[-96.3904,18.6912,84.4405],[-96.3945,18.6866,73.1881],[-96.3975,18.6888,81.1286],[-96.4009,18.6881,78.7628],[-96.4014,18.6896,75.3822],[-96.4071,18.6868,81.9512],[-96.4107,18.6888,90.7405],[-96.4149,18.6835,80.7658],[-96.4191,18.6866,81.864],[-96.4218,18.6871,91.4873],[-96.4227,18.6851,90.9948],[-96.4252,18.6848,86.6632],[-96.4304,18.6865,87.1019],[-96.4361,18.6948,95.7224],[-96.4361,18.7033,91.5475],[-96.4332,18.7048,89.3422],[-96.4267,18.7039,89.3411],[-96.4224,18.6996,82.7634],[-96.4209,18.7026,87.3284],[-96.422,18.7065,92.6154],[-96.4257,18.7066,95.7657],[-96.4315,18.7136,106.6601],[-96.4361,18.7154,106.0935],[-96.4361,18.7232,113.2445],[-96.4335,18.7252,108.3199],[-96.436,18.7275,98.366],[-96.436,18.7357,90.6106],[-96.4348,18.7367,80.6203],[-96.4362,18.7406,90.8199],[-96.4381,18.7414,84.1182],[-96.4486,18.7396,88.7032],[-96.4561,18.7421,95.2827],[-96.4611,18.741,100.6954],[-96.4606,18.738,93.5762],[-96.4619,18.7375,93.581],[-96.4655,18.7377,91.5851],[-96.4663,18.7398,99.1447],[-96.4686,18.7404,93.6816],[-96.4706,18.7366,98.8952],[-96.4729,18.7381,101.2124],[-96.4769,18.7362,103.8236],[-96.482,18.7406,109.8042],[-96.4866,18.7391,107.2984],[-96.4897,18.7399,106.7857],[-96.4934,18.737,117.6878],[-96.4956,18.7377,119.8018],[-96.4973,18.7355,114.9995],[-96.5007,18.7361,122.0349],[-96.5028,18.7324,128.5438],[-96.5064,18.7306,122.6947],[-96.5147,18.7277,126.8116],[-96.517,18.7284,124.1518],[-96.5191,18.726,127.4621],[-96.5267,18.7286,132.3914],[-96.5294,18.7278,131.4348],[-96.5346,18.7303,140.218],[-96.5352,18.733,148.5025],[-96.5378,18.731,134.3223],[-96.5445,18.7349,139.3092],[-96.5619,18.7368,145.6288],[-96.5651,18.7355,155.1582],[-96.5768,18.7388,174.4919],[-96.5784,18.7352,167.4913],[-96.5842,18.7388,170.2621],[-96.5843,18.7373,180.7222],[-96.5867,18.7371,180.1563],[-96.5874,18.7319,192.0799],[-96.5789,18.7307,181.0142],[-96.58,18.7246,160.698],[-96.5742,18.7235,154.6007],[-96.5724,18.7207,158.3476],[-96.57,18.7211,154.2365],[-96.5674,18.7189,157.5536],[-96.5669,18.7077,148.1016],[-96.5769,18.7078,174.7021],[-96.5767,18.7036,166.6878],[-96.585,18.7047,163.6333],[-96.5864,18.7017,163.6772],[-96.5888,18.7005,166.7029],[-96.5914,18.7053,174.1926],[-96.5985,18.7018,191.0325],[-96.5961,18.697,181.2857],[-96.5986,18.6929,190.5436],[-96.5956,18.6904,186.7577],[-96.5904,18.6898,184.2726],[-96.5918,18.6801,178.8072],[-96.5965,18.6787,184.1725],[-96.6015,18.6809,184.2155],[-96.6028,18.6783,185.4219],[-96.6082,18.6756,197.0575],[-96.6153,18.6775,204.6275],[-96.6179,18.6611,207.1922],[-96.6157,18.661,201.7518],[-96.6165,18.6599,203.6077],[-96.6146,18.6591,197.2918],[-96.6162,18.6567,198.0954],[-96.6124,18.6558,194.1523],[-96.6115,18.6497,189.954],[-96.6147,18.6505,190.9914],[-96.619,18.6447,192.9009],[-96.6202,18.6451,192.9009],[-96.6282,18.6319,178.8625],[-96.6225,18.6286,173.8332],[-96.6226,18.6257,164.8652],[-96.6179,18.6223,160.2076],[-96.6153,18.6181,164.2165],[-96.613,18.6191,153.4882],[-96.6068,18.6176,151.874],[-96.6011,18.6122,146.1925],[-96.5954,18.6115,144.4288],[-96.5918,18.6074,156.6743],[-96.5893,18.6068,147.8167],[-96.5894,18.605,140.1642],[-96.5838,18.6016,137.58],[-96.5816,18.602,137.68],[-96.5811,18.6,136.302],[-96.579,18.6004,136.3297],[-96.5747,18.5966,134.2998],[-96.5748,18.595,135.0541],[-96.5692,18.5941,130.753],[-96.5664,18.5904,137.0914],[-96.5647,18.5914,135.0752],[-96.5609,18.5877,127.0999],[-96.5413,18.5883,122.4388],[-96.5398,18.5848,123.6273],[-96.5373,18.584,117.9015],[-96.5327,18.5854,128.8534],[-96.5323,18.5873,125.3925],[-96.5255,18.5878,118.4043],[-96.5239,18.5853,117.3794],[-96.5179,18.5836,112.6941],[-96.5175,18.5816,112.1136],[-96.5166,18.5829,112.3362],[-96.514,18.5825,113.1027],[-96.5135,18.5852,115.1633],[-96.5105,18.5843,115.6554],[-96.5088,18.5895,109.0896],[-96.5043,18.588,107.5154],[-96.5024,18.589,109.3073],[-96.5018,18.5873,108.088],[-96.4997,18.5895,106.0803],[-96.4887,18.5812,102.1934],[-96.4846,18.5822,105.2071],[-96.4848,18.5801,104.6645],[-96.4773,18.5799,101.1534],[-96.4755,18.5768,96.611],[-96.4727,18.5759,95.5832],[-96.4733,18.5733,101.0275],[-96.469,18.5738,92.7628],[-96.4672,18.5708,90.828],[-96.4644,18.5739,98.7505],[-96.4611,18.573,92.03],[-96.4603,18.5705,91.0985],[-96.4573,18.5704,96.2499],[-96.4544,18.5615,86.6147],[-96.4511,18.5571,82.8319],[-96.4529,18.5572,83.5304],[-96.4526,18.5544,82.0431],[-96.455,18.5493,81.8889],[-96.453,18.5461,82.1491],[-96.4506,18.5452,80.8915],[-96.4496,18.5413,77.5382],[-96.4479,18.5415,79.816],[-96.4471,18.5367,76.9343],[-96.4436,18.5347,75.912],[-96.4414,18.5355,74.5988],[-96.4405,18.5317,73.666],[-96.4375,18.5318,73.8818],[-96.438,18.5287,75.9781],[-96.4326,18.5254,72.639],[-96.425,18.5133,69.1602],[-96.4208,18.5105,66.0171],[-96.4202,18.508,72.9278],[-96.4235,18.5018,63.0315],[-96.4214,18.4991,63.9287],[-96.4166,18.4993,64.5975],[-96.4173,18.4963,62.0341],[-96.4155,18.4952,60.9452],[-96.4133,18.4867,58.3462],[-96.4147,18.4829,70.5949],[-96.4112,18.4769,64.9649],[-96.4182,18.4761,56.432],[-96.418,18.4705,55.2246],[-96.415,18.4693,55.6053],[-96.4124,18.4648,53.1705],[-96.4046,18.4678,54.0161],[-96.4049,18.4647,52.0596],[-96.4013,18.4598,51.0383],[-96.4033,18.4566,50.5135],[-96.4015,18.4534,50.8756],[-96.4013,18.4479,48.1487],[-96.4036,18.4463,51.5169],[-96.4001,18.4442,48.8256],[-96.403,18.4399,47.2758],[-96.3962,18.4398,49.7776],[-96.3933,18.4371,46.6865],[-96.3922,18.4394,50.5631],[-96.3893,18.4405,48.6913],[-96.3918,18.4367,45.5305],[-96.3908,18.4349,46.5929],[-96.3883,18.4348,45.8462],[-96.3883,18.4327,45.5604],[-96.3901,18.4317,48.5016],[-96.3892,18.4284,44.8077],[-96.3852,18.4293,52.7077],[-96.3838,18.4241,43.9156],[-96.3786,18.4262,45.7304],[-96.3762,18.4246,41.8762],[-96.3742,18.4174,41.9215],[-96.3678,18.4174,38.7152],[-96.3688,18.4145,40.9957],[-96.3611,18.4097,38.029],[-96.3617,18.4071,39.1267],[-96.357,18.4092,38.0677],[-96.3563,18.4117,38.8551],[-96.3526,18.4102,38.576],[-96.3521,18.4063,40.8709],[-96.3492,18.4026,42.1967],[-96.3499,18.4015,41.3476],[-96.3446,18.3985,35.5287],[-96.3484,18.3946,34.845],[-96.3459,18.39,38.5629],[-96.349,18.3886,41.98],[-96.3473,18.3823,31.7275],[-96.3395,18.3756,36.6376],[-96.3386,18.3771,35.4726],[-96.3366,18.376,35.2866],[-96.335,18.3798,34.0708],[-96.331,18.3792,35.3615],[-96.3306,18.3764,32.7628],[-96.3324,18.3736,31.2817],[-96.3351,18.3726,33.4962],[-96.3241,18.3673,32.6606],[-96.3214,18.3679,31.8541],[-96.3174,18.3646,35.5334],[-96.3188,18.3611,29.3763],[-96.3207,18.3603,27.706],[-96.3184,18.3598,31.104],[-96.3205,18.359,27.706],[-96.3196,18.3583,30.3714]]]]}
,"properties": {"GID_2": "MEX.30.178_2","GID_0": "MEX","country": "México","GID_1": "MEX.30_1","province": "Veracruz","NL_NAME_1": "NA","county": "TierraBlanca","VARNAME_2": "NA","NL_NAME_2": "NA","TYPE_2": "Município","ENGTYPE_2": "Municipality","CC_2": "NA","HASC_2": "NA","name": "Tierra_Blanca.county","area_km2": 1527.19,"hist_schema_id": "Elevation0-9000","hist_area_km2": {"0": 267.021,"25": 406.284,"50": 331.259,"75": 190.525,"100": 118.433,"125": 97.485,"150": 63.435,"175": 45.055,"200": 7.693}}}