{"type":"Feature","properties":{"GID_2":"MEX.15.4_2","GID_0":"MEX","country":"México","GID_1":"MEX.15_1","province":"México","NL_NAME_1":"NA","county":"AlmoloyadeAlquisiras","VARNAME_2":"NA","NL_NAME_2":"NA","TYPE_2":"Município","ENGTYPE_2":"Municipality","CC_2":"NA","HASC_2":"NA","name":"Almoloyade_Alquisiras.county"},
"geometry":{"type": "MultiPolygon","coordinates": [[[[-99.8438,18.7761,2333.3892],[-99.8567,18.7801,2392.269],[-99.8597,18.7762,2348.5283],[-99.8623,18.7761,2318.4409],[-99.8647,18.779,2428.4067],[-99.8659,18.7774,2350.1392],[-99.868,18.7685,2290.4814],[-99.8661,18.762,2311.4194],[-99.8699,18.7542,2155.9922],[-99.8687,18.7457,2062.2681],[-99.8742,18.7154,1940.1902],[-99.8593,18.7139,2210.4714],[-99.8516,18.711,2340.8037],[-99.8491,18.7061,2327.9375],[-99.8439,18.7045,2307.4956],[-99.8385,18.6976,2267.9849],[-99.8345,18.6965,2252.6824],[-99.8302,18.7047,2376.9404],[-99.8302,18.7156,2315.2827],[-99.8338,18.7287,2293.334],[-99.8295,18.7339,2225.4739],[-99.8323,18.7401,2182.6953],[-99.8254,18.7528,2385.0376],[-99.8269,18.7539,2365.8911],[-99.8272,18.7616,2356.4939],[-99.8291,18.765,2336.9983],[-99.8332,18.7673,2304.8049],[-99.8377,18.7762,2272.2615],[-99.8438,18.7761,2333.3892]]],
[[[-99.8842,18.9064,2677.8838],[-99.8992,18.9174,2763.4104],[-99.9038,18.9124,2397.1323],[-99.9096,18.897,2204.3691],[-99.9121,18.904,2220.9563],[-99.9155,18.9035,2247.7188],[-99.9162,18.9003,2253.5144],[-99.9201,18.9036,2254.6968],[-99.9252,18.9002,2263.1196],[-99.9274,18.9034,2266.3674],[-99.9306,18.9041,2286.0413],[-99.9369,18.9002,2359.9934],[-99.9399,18.8965,2432.9302],[-99.939,18.8938,2494.032],[-99.9463,18.8896,2208.8542],[-99.9535,18.89,2114.5271],[-99.9324,18.8792,2711.4346],[-99.9354,18.8741,2832.0366],[-99.9333,18.8698,2839.1975],[-99.9352,18.865,2740.4658],[-99.9341,18.8591,2685.0005],[-99.9384,18.8603,2677.5527],[-99.9436,18.8588,2572.481],[-99.9467,18.8531,2361.9458],[-99.9525,18.8498,2299.8767],[-99.9544,18.8456,2262.9126],[-99.9378,18.8359,2510.1982],[-99.9255,18.8355,2535.6572],[-99.9078,18.8103,2474.6069],[-99.9032,18.811,2616.4937],[-99.8998,18.8064,2612.8472],[-99.885,18.7997,2472.7014],[-99.8761,18.7979,2535.457],[-99.8722,18.7922,2537.2332],[-99.8677,18.7898,2493.3818],[-99.8645,18.7839,2463.2427],[-99.8542,18.8291,2159.8997],[-99.8598,18.8362,1992.9364],[-99.8571,18.8395,1944.3162],[-99.8521,18.8294,2146.9668],[-99.8235,18.8078,2080.9604],[-99.8114,18.8188,1985.7335],[-99.8107,18.829,1756.7449],[-99.8056,18.8271,1771.1161],[-99.8041,18.8237,1785.1637],[-99.8017,18.8246,1740.2086],[-99.7989,18.8195,1730.0952],[-99.7953,18.8184,1728.7004],[-99.7951,18.8161,1723.5742],[-99.7924,18.8142,1724.9655],[-99.7904,18.8146,1731.5614],[-99.7864,18.821,1786.3428],[-99.7841,18.8204,1809.3829],[-99.7801,18.8323,1857.2129],[-99.7885,18.8552,2180.8955],[-99.7944,18.8616,2290.1643],[-99.8009,18.8648,2339.8037],[-99.8093,18.8614,2251.4106],[-99.8137,18.8663,2164.1577],[-99.8172,18.867,2056.4514],[-99.8277,18.8897,2171.7632],[-99.8373,18.8996,2338.7139],[-99.8458,18.9006,2368.1033],[-99.8632,18.8883,2335.8042],[-99.8721,18.8973,2597.991],[-99.8842,18.9064,2677.8838]]]]}}