{"type":"Feature","properties":{"GID_2":"MEX.12.1_2","GID_0":"MEX","country":"México","GID_1":"MEX.12_1","province":"Guerrero","NL_NAME_1":"NA","county":"AcapulcodeJuárez","VARNAME_2":"NA","NL_NAME_2":"NA","TYPE_2":"Município","ENGTYPE_2":"Municipality","CC_2":"NA","HASC_2":"NA","name":"Acapulcode_Juárez.county"},
"geometry":{"type": "MultiPolygon","coordinates": [[[[-99.9084,16.8248,8.2018],[-99.9115,16.8246,31.3557],[-99.912,16.8225,126.7085],[-99.9174,16.8237,0.0],[-99.9145,16.8229,42.8691],[-99.912,16.8198,40.8134],[-99.9081,16.8202,103.664],[-99.9054,16.8183,0.0],[-99.9018,16.8216,0.0],[-99.9016,16.8229,0.0],[-99.9044,16.8216,31.9898],[-99.9084,16.8248,8.2018]]],
[[[-99.6353,17.1961,264.8135],[-99.6357,17.2003,217.6981],[-99.6383,17.2006,211.1811],[-99.6403,17.1968,217.1382],[-99.6365,17.1894,228.463],[-99.6403,17.1845,223.4092],[-99.6415,17.1895,231.7175],[-99.6442,17.1914,227.2525],[-99.6533,17.1885,252.82],[-99.6531,17.1971,230.0651],[-99.6548,17.1994,233.1212],[-99.6602,17.196,238.7237],[-99.6637,17.1966,240.2176],[-99.6645,17.2004,235.9874],[-99.6692,17.2066,249.464],[-99.6681,17.2083,260.957],[-99.6629,17.209,247.9486],[-99.6631,17.2107,246.7154],[-99.6709,17.2157,254.4454],[-99.6728,17.2186,268.1353],[-99.6704,17.2197,256.7466],[-99.6665,17.2186,298.1119],[-99.6625,17.2213,261.4915],[-99.6697,17.2297,271.4254],[-99.6733,17.2305,274.006],[-99.6793,17.2291,316.5286],[-99.6797,17.227,285.9032],[-99.6827,17.2253,440.4915],[-99.6842,17.2281,364.2888],[-99.6873,17.2288,447.1511],[-99.6904,17.2274,471.8794],[-99.6925,17.2291,505.9978],[-99.7181,17.227,384.2574],[-99.7223,17.2337,434.2104],[-99.7219,17.2289,427.0827],[-99.7252,17.2271,389.4075],[-99.7217,17.2258,400.5458],[-99.7212,17.2199,498.3977],[-99.7254,17.1804,1487.6986],[-99.7269,17.1765,1547.0685],[-99.7526,17.1788,1859.2247],[-99.752,17.1751,1720.5955],[-99.8058,17.1736,2024.5962],[-99.8454,17.1671,1345.5488],[-99.8418,17.1046,839.8038],[-99.8511,17.124,965.1072],[-99.8762,17.1241,1288.9028],[-99.8841,17.1214,1585.2496],[-99.8988,17.1041,1131.4003],[-99.8979,17.1011,1046.6346],[-99.8896,17.0997,1047.6125],[-99.8833,17.0724,791.2605],[-99.8836,17.0599,742.848],[-99.8712,17.0565,695.7104],[-99.8702,17.0518,732.1526],[-99.8569,17.0432,535.5773],[-99.848,17.0429,576.6176],[-99.8724,17.009,549.3708],[-99.8805,16.9728,210.0419],[-99.8849,16.9714,228.7388],[-99.8969,16.9721,278.7924],[-99.9081,16.9587,76.5167],[-99.9242,16.9439,132.0515],[-99.9211,16.9411,163.9183],[-99.8916,16.9294,496.1981],[-99.89,16.9117,725.3149],[-99.9333,16.9085,289.7246],[-99.939,16.9153,187.54],[-99.9428,16.9146,142.25],[-99.9437,16.9232,71.525],[-99.9595,16.929,8.0125],[-99.9598,16.926,9.9511],[-99.964,16.9263,6.7195],[-99.9649,16.9246,9.3785],[-99.9708,16.9251,3.0299],[-99.9705,16.9134,1.5695],[-99.9718,16.9102,5.7885],[-99.9681,16.9006,4.2573],[-99.9766,16.9049,5.405],[-99.9769,16.9093,6.533],[-99.9832,16.9132,4.4439],[-100.001,16.9189,1.0],[-100.0022,16.914,2.0102],[-99.9833,16.9064,1.9751],[-99.9614,16.8949,0.0],[-99.9565,16.8888,36.1844],[-99.9564,16.8842,28.1885],[-99.9577,16.8842,28.1885],[-99.9531,16.881,4.7937],[-99.9453,16.8793,43.9601],[-99.9437,16.8735,0.0],[-99.9399,16.8731,0.0],[-99.9387,16.8703,23.0544],[-99.9404,16.8689,0.0],[-99.9374,16.8692,23.0544],[-99.936,16.8661,7.1202],[-99.933,16.8649,20.9839],[-99.9323,16.8606,20.5106],[-99.929,16.8599,0.0],[-99.928,16.8612,23.9339],[-99.9227,16.8596,103.9465],[-99.9248,16.8562,17.7016],[-99.9217,16.8536,31.0156],[-99.9237,16.8524,0.0],[-99.9227,16.8503,61.1679],[-99.9238,16.8494,0.0],[-99.9146,16.846,48.8766],[-99.9173,16.8435,0.0],[-99.9146,16.8418,15.4362],[-99.9191,16.8399,0.0],[-99.9171,16.838,0.0],[-99.9198,16.8354,14.4373],[-99.9162,16.8298,4.7814],[-99.9142,16.8295,56.9509],[-99.9154,16.8277,0.0],[-99.9078,16.8283,5.0292],[-99.9035,16.8316,4.4577],[-99.901,16.8299,0.0],[-99.8941,16.8328,0.0],[-99.892,16.8375,0.0],[-99.8945,16.8395,10.6019],[-99.8988,16.8409,0.0],[-99.9048,16.8365,12.5374],[-99.9078,16.8378,3.9549],[-99.9111,16.8426,6.6689],[-99.907,16.8444,7.8123],[-99.908,16.8455,2.3673],[-99.907,16.8485,4.9049],[-99.9005,16.8485,0.0],[-99.9017,16.8486,0.0],[-99.9005,16.8524,6.1789],[-99.8955,16.8552,0.0],[-99.8809,16.8597,2.2179],[-99.8584,16.8532,7.0831],[-99.8524,16.8464,7.5564],[-99.8509,16.8423,10.275],[-99.8513,16.8365,1.9305],[-99.857,16.8335,32.8601],[-99.863,16.8348,14.3303],[-99.865,16.8305,17.6729],[-99.8677,16.8287,11.4636],[-99.8703,16.8211,0.0],[-99.8695,16.8186,8.0969],[-99.8765,16.8147,5.547],[-99.8681,16.8084,0.0],[-99.8653,16.8082,0.0],[-99.8665,16.8093,13.0732],[-99.865,16.8105,56.5238],[-99.8618,16.8103,0.0],[-99.8597,16.8078,12.5164],[-99.8513,16.8058,14.0684],[-99.85,16.8098,3.3703],[-99.8464,16.811,15.7785],[-99.8375,16.8063,7.0608],[-99.8364,16.7995,2.5181],[-99.8398,16.794,1.8019],[-99.8491,16.7992,0.0],[-99.859,16.7963,20.2255],[-99.8563,16.7934,0.0],[-99.8464,16.7928,15.9614],[-99.8441,16.7866,0.0],[-99.8451,16.7843,0.0],[-99.8402,16.7855,50.1937],[-99.8364,16.783,0.0],[-99.8339,16.7835,0.0],[-99.8325,16.7859,39.7745],[-99.8299,16.7862,0.0],[-99.8284,16.7913,58.9806],[-99.8174,16.7888,9.2874],[-99.8086,16.7834,0.0],[-99.7569,16.7429,0.0],[-99.7131,16.719,0.7267],[-99.6792,16.7041,2.5251],[-99.6565,16.696,1.9507],[-99.6089,16.6841,0.5583],[-99.6104,16.6872,6.4945],[-99.6083,16.6996,11.8212],[-99.6074,16.7012,4.2621],[-99.6054,16.701,7.3668],[-99.6054,16.7051,6.056],[-99.6016,16.7083,10.9063],[-99.6008,16.7117,3.18],[-99.6046,16.7174,10.4757],[-99.6051,16.721,9.508],[-99.6218,16.7311,4.3124],[-99.6211,16.7387,6.0418],[-99.6229,16.7477,3.375],[-99.6142,16.7532,19.3834],[-99.6076,16.7611,5.125],[-99.6029,16.7708,13.2287],[-99.6027,16.775,11.8922],[-99.5993,16.7727,51.9367],[-99.5945,16.7747,26.8987],[-99.5935,16.7795,86.1972],[-99.6013,16.7849,11.064],[-99.5945,16.7941,9.1957],[-99.5915,16.7925,23.9942],[-99.5893,16.7963,43.8285],[-99.5883,16.7951,51.782],[-99.5844,16.7991,56.7511],[-99.5811,16.7998,59.0451],[-99.5803,16.8017,53.2979],[-99.5751,16.8028,53.5931],[-99.5737,16.7985,70.7962],[-99.5693,16.7984,68.7781],[-99.5694,16.8012,67.7926],[-99.5674,16.8013,69.6988],[-99.5658,16.8045,79.2519],[-99.5633,16.8039,74.2269],[-99.5611,16.8066,84.2643],[-99.5612,16.8105,109.4706],[-99.5576,16.8108,98.0136],[-99.5567,16.815,121.113],[-99.5534,16.8139,118.2135],[-99.5474,16.8067,118.4847],[-99.5432,16.8043,111.5763],[-99.5447,16.8069,115.0159],[-99.5402,16.8197,162.4886],[-99.5426,16.8205,150.3254],[-99.541,16.8242,160.0497],[-99.5295,16.8358,140.8553],[-99.5198,16.8543,125.6548],[-99.5168,16.8693,182.6261],[-99.5195,16.894,167.0025],[-99.5337,16.9247,298.7739],[-99.5269,16.923,240.03],[-99.527,16.9252,251.1656],[-99.5241,16.9256,256.1681],[-99.5248,16.9278,256.9772],[-99.5233,16.9306,264.6943],[-99.5026,16.9303,280.6719],[-99.4998,16.935,271.3068],[-99.4976,16.9348,267.023],[-99.4934,16.9582,302.4431],[-99.4876,16.9544,319.0326],[-99.4769,16.9632,420.9726],[-99.4736,16.972,498.1564],[-99.4757,16.9825,465.5322],[-99.4803,16.9799,380.6625],[-99.4896,16.9876,259.9705],[-99.4903,16.9938,214.649],[-99.4986,16.9951,195.6999],[-99.5023,16.9955,218.1378],[-99.513,16.989,313.698],[-99.5172,16.9829,413.7147],[-99.5159,16.9782,388.7659],[-99.5319,16.9757,445.5209],[-99.559,16.9685,456.7545],[-99.5784,16.9705,367.163],[-99.5827,16.9679,299.9469],[-99.5884,16.9712,213.0939],[-99.5894,16.9743,176.8538],[-99.5936,16.9762,163.0393],[-99.6041,16.9863,90.646],[-99.6111,16.9886,54.7089],[-99.6093,16.9948,46.0691],[-99.6125,17.0012,66.3328],[-99.6099,17.0083,49.864],[-99.6111,17.0166,52.1082],[-99.6099,17.0203,53.1989],[-99.6072,17.0221,64.9834],[-99.5907,17.0234,55.7946],[-99.5809,17.0182,67.6803],[-99.5757,17.0222,69.4859],[-99.5664,17.0203,71.4116],[-99.5592,17.0223,71.0562],[-99.5583,17.0248,60.8425],[-99.5628,17.0372,98.1363],[-99.5704,17.0462,66.5342],[-99.5703,17.0481,67.6387],[-99.5671,17.0512,74.4243],[-99.5619,17.0529,71.1367],[-99.5596,17.0579,69.2721],[-99.5568,17.0601,70.8288],[-99.5488,17.0583,77.9586],[-99.5449,17.0595,71.9549],[-99.5439,17.0669,82.2051],[-99.5521,17.0861,83.7154],[-99.5531,17.0922,80.994],[-99.5498,17.0987,79.3119],[-99.5512,17.1063,84.6968],[-99.561,17.1119,100.6641],[-99.5645,17.1168,101.5424],[-99.5628,17.1239,131.8748],[-99.5557,17.1301,133.6677],[-99.5872,17.1323,408.1884],[-99.5957,17.1353,496.6193],[-99.59,17.1441,154.1265],[-99.5938,17.1529,178.729],[-99.5898,17.1574,151.0258],[-99.5932,17.1643,132.2218],[-99.5959,17.1664,139.896],[-99.6025,17.1636,185.698],[-99.6063,17.1706,164.7665],[-99.6082,17.1711,168.6239],[-99.6174,17.1687,157.41],[-99.6187,17.1646,154.8032],[-99.6245,17.165,164.5329],[-99.6305,17.1628,168.9191],[-99.6302,17.1645,169.2521],[-99.626,17.1673,171.6381],[-99.6258,17.1734,177.7078],[-99.6333,17.1832,233.3638],[-99.6333,17.1851,241.5865],[-99.6304,17.1873,204.9068],[-99.6349,17.1934,257.2947],[-99.6353,17.1961,264.8135]],
[[-99.6038,16.7086,3.0808],[-99.6057,16.7067,2.6485],[-99.6045,16.715,1.2662],[-99.6024,16.7106,4.1498],[-99.6038,16.7086,3.0808]]]]}}