{"type": "Feature","bbox": [-100.5399,25.8905,-100.3659,26.115],"geometry": {"type": "MultiPolygon","coordinates": [[[[-100.3713,25.9822,1177.3833],[-100.3696,25.9821,1177.3833],[-100.3659,25.9871,1116.5525],[-100.3716,26.0062,1128.4869],[-100.384,26.0252,1174.5964],[-100.3985,26.037,1022.8254],[-100.4001,26.0433,1177.4128],[-100.4063,26.0441,1163.9126],[-100.4091,26.0481,1110.3854],[-100.4188,26.0523,1132.8115],[-100.4228,26.0571,1131.0039],[-100.4321,26.0628,1187.3529],[-100.4323,26.0653,1327.3127],[-100.4526,26.0776,1345.9595],[-100.4593,26.0792,1390.5898],[-100.4693,26.0858,1471.9033],[-100.473,26.0862,1384.0515],[-100.4858,26.093,1339.365],[-100.4936,26.0997,1462.4507],[-100.4958,26.0998,1389.803],[-100.5174,26.114,1707.0282],[-100.526,26.115,1806.8567],[-100.539,26.1086,2244.7129],[-100.5399,26.1047,2031.8174],[-100.5383,26.0999,1680.9023],[-100.505,26.0687,1537.0271],[-100.4741,26.0478,1211.3298],[-100.4581,26.0323,1353.2124],[-100.4662,26.0181,723.2988],[-100.475,26.0244,703.8389],[-100.4848,25.9967,555.9106],[-100.479,25.9947,553.5068],[-100.4811,25.9893,545.0829],[-100.4799,25.9891,543.5792],[-100.4811,25.9865,555.2053],[-100.4851,25.9862,553.0925],[-100.5031,25.9516,1379.4214],[-100.4956,25.9035,1859.2739],[-100.4977,25.9024,1851.5754],[-100.4902,25.8991,1551.9119],[-100.4642,25.8985,1620.9856],[-100.4542,25.8964,1600.9512],[-100.4445,25.8932,1649.5674],[-100.4423,25.8918,1762.1279],[-100.4428,25.8905,1762.1279],[-100.4283,25.8951,1976.681],[-100.4262,25.8973,1869.4817],[-100.4294,25.9132,1477.4454],[-100.4427,25.928,1456.5016],[-100.4511,25.9312,1329.4614],[-100.4287,25.954,535.9593],[-100.421,25.9574,507.5924],[-100.4208,25.9601,514.7448],[-100.3998,25.9891,920.6891],[-100.3922,25.9869,1344.5383],[-100.3878,25.9879,1044.9744],[-100.3832,25.984,1019.9165],[-100.3764,25.9817,1107.5903],[-100.3713,25.9822,1177.3833]]]]}
,"properties": {"GID_2": "MEX.19.25_2","GID_0": "MEX","country": "México","GID_1": "MEX.19_1","province": "NuevoLeón","NL_NAME_1": "NA","county": "Hidalgo","VARNAME_2": "NA","NL_NAME_2": "NA","TYPE_2": "Município","ENGTYPE_2": "Municipality","CC_2": "NA","HASC_2": "NA","name": "Hidalgo.county","area_km2": 170.7273,"hist_schema_id": "Elevation0-9000","hist_area_km2": {"500": 0.2478,"525": 4.6319,"550": 9.6252,"575": 9.8346,"600": 6.2324,"625": 4.6505,"650": 4.0214,"675": 3.9828,"700": 4.2112,"725": 5.8878,"750": 7.1645,"775": 7.1073,"800": 6.7837,"825": 6.7078,"850": 6.7648,"875": 6.7076,"900": 5.2785,"925": 5.4689,"950": 5.1641,"975": 4.5923,"1000": 4.4399,"1025": 4.0775,"1050": 4.0015,"1075": 3.7535,"1100": 3.2963,"1125": 3.2964,"1150": 2.8962,"1175": 3.1251,"1200": 2.8395,"1225": 2.8393,"1250": 2.2488,"1275": 2.0769,"1300": 2.1343,"1325": 2.0011,"1350": 1.6959,"1375": 1.544,"1400": 1.2578,"1425": 0.9529,"1450": 0.8766,"1475": 0.7625,"1500": 0.9531,"1525": 0.5527,"1550": 0.5336,"1575": 0.5338,"1600": 0.3241,"1625": 0.5528,"1650": 0.3812,"1675": 0.4002,"1700": 0.2668,"1725": 0.2859,"1750": 0.1334,"1775": 0.1333,"1800": 0.1335,"1825": 0.0572,"1850": 0.0953,"1875": 0.0381,"1925": 0.0571,"1950": 0.0381,"1975": 0.019,"2000": 0.019,"2025": 0.019,"2050": 0.019}}}