{"type":"Feature","properties":{"GID_2":"MEX.12.77_2","GID_0":"MEX","country":"México","GID_1":"MEX.12_1","province":"Guerrero","NL_NAME_1":"NA","county":"Xochistlahuaca","VARNAME_2":"NA","NL_NAME_2":"NA","TYPE_2":"Município","ENGTYPE_2":"Municipality","CC_2":"NA","HASC_2":"NA","name":"Xochistlahuaca.county"},
"geometry":{"type": "MultiPolygon","coordinates": [[[[-98.238,16.7074,81.0318],[-98.2349,16.7071,91.2431],[-98.2348,16.7159,82.4521],[-98.2314,16.7179,84.4214],[-98.229,16.7132,85.8044],[-98.2213,16.7085,114.2299],[-98.2158,16.7115,101.0951],[-98.2063,16.7114,101.5291],[-98.2026,16.7132,95.0024],[-98.2005,16.7119,104.67],[-98.2007,16.7102,105.683],[-98.2055,16.698,160.5296],[-98.2003,16.6972,113.7217],[-98.1952,16.6988,113.1381],[-98.1921,16.7064,120.5352],[-98.1844,16.7051,137.2017],[-98.1813,16.7091,119.3037],[-98.1825,16.7115,121.329],[-98.1766,16.7145,139.2015],[-98.1752,16.718,120.7587],[-98.1715,16.7181,138.8685],[-98.1659,16.7217,165.6459],[-98.1598,16.7195,150.0734],[-98.156,16.7214,153.6073],[-98.1537,16.7253,159.4088],[-98.1506,16.7233,157.0853],[-98.1443,16.7226,163.6794],[-98.1381,16.7246,189.2807],[-98.1364,16.7267,204.9704],[-98.1365,16.7319,209.7359],[-98.1257,16.7391,172.9382],[-98.128,16.7452,172.3957],[-98.1242,16.7496,245.3362],[-98.1247,16.7514,174.9555],[-98.1347,16.7515,177.2594],[-98.1347,16.7588,187.619],[-98.1287,16.7612,184.9147],[-98.1246,16.7593,184.6274],[-98.1237,16.7557,194.2806],[-98.1205,16.7547,199.0166],[-98.1082,16.761,242.2093],[-98.1074,16.7695,271.7834],[-98.1044,16.7752,221.4682],[-98.1046,16.7852,234.6669],[-98.0979,16.7929,273.2178],[-98.1001,16.7993,249.5089],[-98.0928,16.8065,235.8161],[-98.0938,16.812,263.1928],[-98.0883,16.814,273.5138],[-98.0864,16.8163,306.8507],[-98.0877,16.8217,288.935],[-98.0854,16.8243,321.8079],[-98.085,16.8292,292.089],[-98.0811,16.8334,320.4247],[-98.084,16.8409,324.8263],[-98.0765,16.8491,335.758],[-98.0746,16.8545,328.9766],[-98.076,16.8586,326.3314],[-98.0737,16.8631,322.314],[-98.076,16.8675,318.2634],[-98.0723,16.8742,361.539],[-98.0756,16.8808,326.4102],[-98.0793,16.8803,344.262],[-98.0803,16.882,357.7883],[-98.0806,16.8905,377.894],[-98.0825,16.8928,351.6435],[-98.0838,16.9027,369.6125],[-98.0867,16.9071,384.7447],[-98.0871,16.914,393.8486],[-98.0956,16.9237,411.2137],[-98.1,16.9345,468.5656],[-98.0992,16.9376,438.7483],[-98.1005,16.9407,424.0526],[-98.1075,16.942,443.3155],[-98.1056,16.9513,539.0178],[-98.1065,16.9567,528.2877],[-98.1113,16.9589,798.226],[-98.0971,16.9689,730.1896],[-98.0752,17.0072,1606.6787],[-98.0575,17.0238,2172.5464],[-98.0352,17.0211,2064.6055],[-98.0302,17.0158,1855.1411],[-98.0252,17.0192,1637.4608],[-98.0073,17.0401,1100.9944],[-98.0457,17.0573,1363.2118],[-98.0809,17.0666,2036.9003],[-98.0755,17.0578,1900.6272],[-98.0739,17.0521,1966.3363],[-98.0755,17.0503,1875.226],[-98.0663,17.038,2269.8596],[-98.0788,17.0099,1457.2001],[-98.0857,17.0022,1325.854],[-98.0895,17.001,1267.2644],[-98.0936,17.0035,1079.5687],[-98.0961,17.0025,997.8288],[-98.1059,17.0075,997.1563],[-98.1147,17.0126,1179.2957],[-98.1174,17.0186,1163.7363],[-98.1191,17.016,1101.7002],[-98.1238,17.0153,991.298],[-98.1282,17.017,927.4174],[-98.1335,17.0223,768.8635],[-98.142,17.0225,693.6816],[-98.1432,17.0211,669.8354],[-98.1455,17.0236,629.7048],[-98.1475,17.0216,608.9505],[-98.152,17.0212,590.0096],[-98.1576,17.0156,568.0428],[-98.1573,17.0137,536.7481],[-98.1545,17.0134,523.6656],[-98.1553,17.0101,514.2623],[-98.1524,17.0088,522.6504],[-98.153,17.0056,513.2153],[-98.1563,17.0017,491.2708],[-98.1565,16.9991,491.7896],[-98.159,16.9991,521.663],[-98.1653,16.9946,663.705],[-98.169,16.9958,708.1876],[-98.1731,16.9949,757.7996],[-98.1826,16.9983,976.0851],[-98.1846,16.9979,943.3481],[-98.1849,16.9944,870.9278],[-98.1916,16.997,965.2802],[-98.1958,16.9947,1000.9977],[-98.2026,17.0034,1090.0787],[-98.2126,17.0032,964.5211],[-98.2174,17.0082,828.7748],[-98.2193,17.0076,818.7199],[-98.2205,17.0037,840.1385],[-98.2257,17.0014,843.1857],[-98.227,17.0027,830.863],[-98.2349,16.9959,806.7393],[-98.2332,16.993,903.7449],[-98.2238,16.9857,1202.0054],[-98.2314,16.981,959.8334],[-98.2143,16.9764,1328.5349],[-98.2102,16.9647,1007.0317],[-98.2141,16.9643,1000.3234],[-98.2151,16.9678,1049.6545],[-98.2205,16.9693,1110.156],[-98.2202,16.9675,1085.7815],[-98.2265,16.9601,862.7296],[-98.2291,16.9671,1202.6764],[-98.232,16.9659,1055.5079],[-98.2354,16.9601,861.7852],[-98.2344,16.9489,706.3913],[-98.2355,16.9485,684.5045],[-98.2359,16.9544,781.9775],[-98.2423,16.9556,906.9795],[-98.2455,16.9531,812.2424],[-98.2429,16.9497,720.8935],[-98.2416,16.9419,668.1755],[-98.2476,16.938,648.8535],[-98.248,16.9364,665.1059],[-98.2464,16.9353,660.7827],[-98.2488,16.9344,657.6493],[-98.2365,16.9273,742.7781],[-98.2344,16.9233,819.4909],[-98.2307,16.9229,854.6671],[-98.2308,16.9184,961.2789],[-98.2091,16.9211,998.0807],[-98.1911,16.918,1165.8263],[-98.1819,16.919,1176.7966],[-98.1808,16.9107,1102.1118],[-98.1768,16.9068,1051.2534],[-98.165,16.9004,1151.9314],[-98.1641,16.8974,1175.199],[-98.1552,16.8912,1371.4774],[-98.1511,16.8782,1662.9617],[-98.1385,16.8706,1664.7864],[-98.1379,16.8682,1674.215],[-98.139,16.8615,1502.426],[-98.1486,16.8478,1638.405],[-98.1552,16.8487,1334.3562],[-98.1593,16.8459,1228.4454],[-98.1634,16.8475,1079.6866],[-98.1677,16.8522,1034.9983],[-98.1709,16.8516,913.1237],[-98.1719,16.8534,810.7841],[-98.1806,16.85,711.2758],[-98.1866,16.8503,713.929],[-98.1889,16.8529,619.6381],[-98.1928,16.8513,594.5194],[-98.1948,16.8532,577.9032],[-98.1969,16.8507,541.1304],[-98.2035,16.8491,500.7122],[-98.2055,16.8469,466.2258],[-98.2094,16.852,641.3497],[-98.2111,16.8486,587.7952],[-98.2197,16.8506,535.876],[-98.2213,16.8486,472.3444],[-98.224,16.8509,440.7996],[-98.2254,16.8554,354.0968],[-98.2344,16.8527,319.0224],[-98.2343,16.8509,311.7803],[-98.2363,16.8519,307.9739],[-98.2397,16.8476,335.9502],[-98.2429,16.8464,307.9316],[-98.2433,16.8437,306.3913],[-98.2417,16.8418,327.536],[-98.2472,16.8382,299.8877],[-98.2466,16.8338,282.2522],[-98.2508,16.8319,284.2668],[-98.2495,16.8302,305.0697],[-98.2456,16.83,302.36],[-98.2448,16.8274,277.6128],[-98.2478,16.8207,286.6441],[-98.2519,16.8191,258.6804],[-98.2481,16.8173,261.2925],[-98.2517,16.8126,250.653],[-98.2483,16.8057,263.1257],[-98.2481,16.7988,259.1637],[-98.2501,16.797,277.7275],[-98.2525,16.7863,212.9164],[-98.2572,16.7836,222.7406],[-98.2582,16.7803,200.0718],[-98.2538,16.7765,229.2866],[-98.2546,16.7716,205.1768],[-98.2473,16.7707,187.1011],[-98.2507,16.763,179.4122],[-98.2501,16.7583,166.6428],[-98.2522,16.7573,179.8146],[-98.2535,16.7487,182.0894],[-98.2561,16.7455,159.2233],[-98.2474,16.7464,142.8177],[-98.239,16.7408,132.5906],[-98.2366,16.7434,128.0445],[-98.234,16.7406,123.6681],[-98.2345,16.7379,124.9217],[-98.2308,16.7359,115.4092],[-98.2324,16.7323,111.7869],[-98.2305,16.7286,114.2344],[-98.2342,16.7258,91.4053],[-98.2404,16.7264,97.242],[-98.2435,16.7175,80.8538],[-98.246,16.7151,79.6197],[-98.2514,16.7159,79.5947],[-98.2471,16.7117,87.0722],[-98.2408,16.7104,116.119],[-98.238,16.7074,81.0318]]]]}}