{"type":"Feature","properties":{"GID_2":"MEX.24.48_2","GID_0":"MEX","country":"México","GID_1":"MEX.24_1","province":"SanLuisPotosí","NL_NAME_1":"NA","county":"Venado","VARNAME_2":"NA","NL_NAME_2":"NA","TYPE_2":"Município","ENGTYPE_2":"Municipality","CC_2":"NA","HASC_2":"NA","name":"Venado.county"},
"geometry":{"type": "MultiPolygon","coordinates": [[[[-101.3996,22.9571,2037.5785],[-101.4186,22.9453,2008.9056],[-101.376,22.898,2177.1914],[-101.3656,22.8824,2343.3762],[-101.3094,22.88,2070.1626],[-101.3096,22.8778,2071.9709],[-101.2999,22.8777,2042.9426],[-101.2993,22.8723,2039.9965],[-101.2922,22.872,2029.585],[-101.2914,22.8683,2038.063],[-101.2695,22.8653,1974.4224],[-101.2593,22.8655,1959.1672],[-101.2557,22.863,1946.3589],[-101.2575,22.8572,1956.8665],[-101.2436,22.8184,1938.0304],[-101.2396,22.8131,1926.3638],[-101.2321,22.8097,1916.2278],[-101.2531,22.7854,1927.3297],[-101.1981,22.7789,1874.6648],[-101.1931,22.8032,1902.4028],[-101.2035,22.8059,1905.4114],[-101.1988,22.8279,1901.2643],[-101.1729,22.8282,1870.1615],[-101.1759,22.7688,1852.8738],[-101.1724,22.7871,1884.9062],[-101.1471,22.7876,1950.6472],[-101.1401,22.8183,1817.0428],[-101.1291,22.8154,1803.9371],[-101.1159,22.8208,1868.1553],[-101.0789,22.8126,1775.3242],[-101.0783,22.8288,1771.8966],[-101.0801,22.8431,1755.1102],[-101.0772,22.8447,1739.7074],[-101.0802,22.8459,1746.9744],[-101.0808,22.8593,1764.6807],[-101.0319,22.8567,1670.6072],[-101.0297,22.855,1668.8738],[-101.0286,22.842,1662.8638],[-101.0389,22.8402,1679.234],[-101.0463,22.8474,1687.1757],[-101.0549,22.8513,1706.7239],[-101.0704,22.8128,1761.1791],[-101.0616,22.8116,1743.1509],[-101.0616,22.8225,1735.2573],[-100.945,22.816,1629.2579],[-100.9464,22.8078,1628.7206],[-100.8875,22.8039,1616.8864],[-100.8877,22.8022,1616.3533],[-100.8808,22.8017,1615.1272],[-100.8805,22.8036,1615.4098],[-100.874,22.8032,1615.7227],[-100.8764,22.7947,1613.1687],[-100.8728,22.7941,1613.1948],[-100.8713,22.7977,1613.7714],[-100.867,22.7978,1627.7843],[-100.8601,22.7967,1768.0027],[-100.857,22.79,1764.9397],[-100.8362,22.7884,1729.609],[-100.836,22.8158,1775.1362],[-100.8418,22.8193,1774.4985],[-100.843,22.8478,1742.446],[-100.7988,22.8444,1892.1322],[-100.7901,22.8764,2083.9216],[-100.7735,22.9206,2153.0728],[-100.8557,22.9258,1801.5417],[-100.8412,23.0109,1854.3354],[-100.8848,23.0222,1932.0659],[-100.8841,23.0316,1962.3467],[-100.8999,23.034,1999.0066],[-100.9042,23.0357,2015.9406],[-100.904,23.038,2023.959],[-100.9062,23.0385,2028.4109],[-100.9079,23.037,2020.9814],[-100.9081,23.0388,2038.0663],[-100.9134,23.0399,2047.189],[-100.9141,23.0385,2039.6158],[-100.9166,23.0402,2054.7769],[-100.9161,23.0414,2064.3625],[-100.9496,23.0472,2314.9834],[-100.952,23.0294,2215.9578],[-100.9513,23.017,2023.3918],[-100.9306,23.0172,1986.4343],[-100.9356,22.9894,1846.0487],[-100.9573,22.9929,1861.8646],[-100.9568,22.9975,1879.5355],[-100.9872,22.9985,1808.0746],[-100.9876,23.0072,1841.6477],[-100.9892,23.0073,1835.5359],[-100.987,23.0156,1866.1135],[-100.9877,23.0202,1879.1276],[-100.9871,23.0235,1891.5078],[-100.984,23.027,1912.5687],[-101.0278,23.0239,1817.136],[-101.0271,23.019,1813.325],[-101.058,23.023,1838.5173],[-101.0585,23.0144,1829.821],[-101.0801,23.0152,1832.0023],[-101.081,23.0034,1820.151],[-101.0873,23.0022,1828.6018],[-101.0903,23.0042,1837.3611],[-101.0917,23.0182,1847.1914],[-101.0883,23.0163,1843.2148],[-101.1001,23.0528,1893.8547],[-101.1042,23.053,1907.1516],[-101.1058,23.0447,1901.5941],[-101.1213,23.029,1934.5674],[-101.1423,23.0311,2016.5701],[-101.1436,23.0247,2014.5311],[-101.1838,23.0271,2121.4563],[-101.1873,23.0276,2194.5461],[-101.1895,23.0302,2240.2563],[-101.2051,23.0337,2348.9626],[-101.2142,23.0384,2370.0872],[-101.2357,23.0453,2487.1606],[-101.2568,23.0464,2478.8149],[-101.2582,23.0524,2424.3604],[-101.2817,23.0631,2337.7969],[-101.3279,23.0735,2181.3882],[-101.3381,23.0666,2172.8962],[-101.3352,23.0292,2204.4302],[-101.3424,23.0244,2180.6538],[-101.3512,23.0237,2152.1294],[-101.3593,23.0118,2116.3501],[-101.3679,23.0077,2097.5513],[-101.3595,23.0026,2100.0552],[-101.3926,22.9614,2049.4758],[-101.3996,22.9571,2037.5785]]]]}}