{"type":"Feature","properties":{"GID_2":"MEX.12.47_2","GID_0":"MEX","country":"México","GID_1":"MEX.12_1","province":"Guerrero","NL_NAME_1":"NA","county":"Malinaltepec","VARNAME_2":"NA","NL_NAME_2":"NA","TYPE_2":"Município","ENGTYPE_2":"Municipality","CC_2":"NA","HASC_2":"NA","name":"Malinaltepec.county"},
"geometry":{"type": "MultiPolygon","coordinates": [[[[-98.6288,17.3341,2155.2876],[-98.6338,17.3361,2116.6377],[-98.6403,17.3352,2195.6628],[-98.644,17.3392,2334.2527],[-98.6512,17.3414,2528.4829],[-98.6588,17.3371,2565.4727],[-98.671,17.3442,2376.2659],[-98.6757,17.3407,2581.1108],[-98.6824,17.3415,2636.0884],[-98.6826,17.3429,2662.1924],[-98.6944,17.3369,2391.2915],[-98.7067,17.3403,2012.2789],[-98.7055,17.3335,2108.071],[-98.7008,17.3271,2108.8149],[-98.6989,17.3283,2106.0835],[-98.6966,17.327,2140.2349],[-98.6966,17.3228,2199.2847],[-98.6876,17.3096,2443.3027],[-98.683,17.3054,2588.4058],[-98.6771,17.3046,2603.0781],[-98.6759,17.3025,2576.5566],[-98.6813,17.3005,2457.2563],[-98.6894,17.3008,2594.3027],[-98.7089,17.2821,2266.2266],[-98.7152,17.2439,1469.4026],[-98.7172,17.2398,1299.8317],[-98.7276,17.2348,1258.7317],[-98.7318,17.2299,1196.9299],[-98.7323,17.2264,1179.3933],[-98.7309,17.2237,1146.7162],[-98.7328,17.2147,1142.2891],[-98.7316,17.211,1131.2854],[-98.7383,17.2061,1090.5149],[-98.741,17.2077,1097.4752],[-98.7449,17.2052,1097.9436],[-98.7475,17.2064,1067.7747],[-98.7502,17.2019,1059.4048],[-98.7536,17.2024,1057.4834],[-98.7547,17.1992,1046.6556],[-98.7574,17.1981,1055.313],[-98.7565,17.196,1060.7686],[-98.759,17.1919,1053.8718],[-98.7579,17.1852,1015.1044],[-98.7637,17.1834,1016.3955],[-98.7685,17.1839,1020.3309],[-98.7715,17.1813,958.2601],[-98.771,17.1798,952.1823],[-98.7732,17.18,954.8062],[-98.7748,17.1747,945.7594],[-98.7775,17.1724,974.0958],[-98.7765,17.1705,931.6608],[-98.7812,17.1635,895.9871],[-98.7876,17.1621,909.8701],[-98.7943,17.156,851.1734],[-98.7967,17.1563,844.6076],[-98.7981,17.1467,1088.9766],[-98.805,17.1381,1161.6313],[-98.8085,17.1267,843.565],[-98.8051,17.1247,845.4877],[-98.8042,17.1224,852.4652],[-98.8009,17.1222,862.8895],[-98.7987,17.1173,887.3247],[-98.7996,17.1118,913.3362],[-98.8071,17.106,956.5048],[-98.803,17.0913,1111.7959],[-98.786,17.0959,980.6963],[-98.7946,17.0817,1492.1235],[-98.791,17.0682,1493.6677],[-98.7789,17.046,1671.0941],[-98.7939,17.0495,1167.6389],[-98.7987,17.0481,1124.042],[-98.7999,17.0444,1093.7063],[-98.8089,17.0389,1030.3379],[-98.81,17.0362,1044.78],[-98.8085,17.0322,1034.0004],[-98.7987,17.0203,1069.0146],[-98.7926,17.0191,1097.7115],[-98.7777,17.006,689.4406],[-98.761,16.957,1038.8252],[-98.754,16.9431,1087.6648],[-98.7259,16.9293,621.0843],[-98.7106,16.9134,437.108],[-98.7045,16.9172,469.8747],[-98.7044,16.9193,472.0283],[-98.707,16.9254,482.7364],[-98.7125,16.9707,858.5475],[-98.7076,16.9811,1284.7739],[-98.6991,16.9929,1275.4333],[-98.6969,17.0029,1410.5742],[-98.7058,17.0266,1637.5768],[-98.7039,17.0283,1697.1842],[-98.7095,17.0375,1543.4291],[-98.7267,17.0339,898.6195],[-98.7268,17.0388,1047.774],[-98.7123,17.0429,1490.7766],[-98.7123,17.0442,1445.5106],[-98.7144,17.0544,1604.6383],[-98.7192,17.0578,1495.131],[-98.7196,17.0604,1492.8083],[-98.7243,17.0625,1541.631],[-98.7251,17.0668,1540.0649],[-98.7282,17.0705,1567.8728],[-98.7588,17.0615,1222.7034],[-98.7617,17.0671,1421.8765],[-98.737,17.0823,1823.1754],[-98.7366,17.0863,1837.4097],[-98.7268,17.0968,2113.6687],[-98.7278,17.1,2297.0112],[-98.7223,17.1007,2290.3818],[-98.7098,17.1074,2396.9526],[-98.7037,17.1069,2525.3174],[-98.698,17.1153,2587.2954],[-98.6768,17.1103,2601.3542],[-98.6668,17.1109,2573.1494],[-98.6641,17.1072,2468.5576],[-98.6401,17.1019,2348.7563],[-98.6351,17.1064,2227.3057],[-98.6342,17.1185,2002.0762],[-98.6189,17.1315,1321.6296],[-98.6165,17.1274,1333.1243],[-98.6138,17.1284,1274.0861],[-98.6067,17.1259,1275.7429],[-98.6078,17.1242,1282.5219],[-98.6055,17.1229,1282.3149],[-98.6068,17.1211,1249.0527],[-98.6053,17.1158,1223.5571],[-98.6037,17.1144,1215.8107],[-98.5979,17.1156,1216.6716],[-98.5983,17.1126,1253.058],[-98.594,17.1104,1187.4987],[-98.5943,17.1067,1197.3848],[-98.5913,17.1055,1190.9393],[-98.5894,17.1008,1169.783],[-98.5817,17.0961,1149.96],[-98.5829,17.0935,1161.0623],[-98.5803,17.0921,1182.9429],[-98.5803,17.0902,1145.1958],[-98.5778,17.0922,1167.6226],[-98.5751,17.0899,1126.7415],[-98.5776,17.0953,1240.9438],[-98.5799,17.0966,1255.453],[-98.5801,17.0992,1270.3888],[-98.5881,17.1078,1322.4857],[-98.5863,17.1134,1451.7025],[-98.5856,17.1315,1578.8279],[-98.5908,17.1364,1453.6448],[-98.5959,17.1444,1607.9497],[-98.5984,17.1455,1722.9397],[-98.5989,17.1511,1670.1888],[-98.6008,17.1517,1702.7115],[-98.6034,17.1596,1683.8358],[-98.6076,17.1618,1679.9478],[-98.6094,17.1667,1541.4373],[-98.6134,17.1657,1436.6483],[-98.6198,17.1724,1579.7109],[-98.6179,17.1866,1803.5583],[-98.6205,17.1882,1952.9894],[-98.6237,17.1939,1955.7524],[-98.626,17.194,2015.183],[-98.6274,17.197,2061.8054],[-98.6291,17.1974,2074.1919],[-98.6267,17.1997,2110.7104],[-98.629,17.2048,2147.7344],[-98.6296,17.2118,2237.7605],[-98.6348,17.2178,2423.5789],[-98.6332,17.2195,2366.7437],[-98.6304,17.2473,2212.6731],[-98.6243,17.2657,2479.1699],[-98.6248,17.2761,2361.3904],[-98.6317,17.2826,2312.2019],[-98.6316,17.285,2262.2837],[-98.6277,17.2849,2255.3008],[-98.6272,17.2879,2190.47],[-98.6239,17.2914,2190.9265],[-98.6109,17.2779,2136.8037],[-98.5986,17.2852,2040.6075],[-98.6029,17.2958,1827.687],[-98.6145,17.3081,1988.0865],[-98.6121,17.3133,1851.9702],[-98.636,17.3103,2344.4775],[-98.6447,17.3135,2587.6426],[-98.6483,17.3169,2475.0278],[-98.6426,17.3276,2397.4683],[-98.6364,17.3261,2429.5159],[-98.6288,17.3341,2155.2876]]]]}}