{"type": "Feature","bbox": [-99.9705,25.8637,-99.4758,26.2565],"geometry": {"type": "MultiPolygon","coordinates": [[[[-99.9276,26.196,880.4491],[-99.9464,26.1937,732.581],[-99.967,26.2004,1160.5509],[-99.9701,26.1989,1146.2986],[-99.9705,26.1923,1101.1381],[-99.968,26.1825,1167.2993],[-99.9683,26.1747,1085.0104],[-99.9671,26.1742,1107.906],[-99.9703,26.1703,1097.5336],[-99.9678,26.1629,1189.7911],[-99.9654,26.1614,1221.051],[-99.9619,26.1627,1210.0891],[-99.9609,26.1604,1157.7379],[-99.9496,26.1544,1073.4478],[-99.9482,26.1456,1106.7654],[-99.944,26.1404,1315.0093],[-99.9437,26.1365,1268.0222],[-99.9402,26.1349,1276.9231],[-99.94,26.1285,1268.614],[-99.9381,26.1258,1293.9741],[-99.9387,26.1206,1293.2595],[-99.9316,26.1147,1178.3967],[-99.928,26.1139,1261.959],[-99.9291,26.1102,1198.5609],[-99.927,26.0967,1342.6246],[-99.9193,26.0908,1478.1235],[-99.9163,26.0816,1450.6816],[-99.9199,26.0795,1365.0752],[-99.9171,26.0712,1314.5687],[-99.9194,26.0629,1380.8138],[-99.9157,26.0649,1487.9558],[-99.9145,26.0624,1446.3081],[-99.9167,26.0598,1405.5703],[-99.9171,26.0514,1243.1907],[-99.9189,26.0495,1246.4771],[-99.9051,26.0375,1225.6328],[-99.9005,26.036,1312.5105],[-99.8978,26.0393,1346.37],[-99.8943,26.0388,1331.9802],[-99.8916,26.0421,1222.7517],[-99.8904,26.0395,1362.1045],[-99.886,26.0381,1291.5581],[-99.8847,26.0394,1153.1816],[-99.8832,26.0372,1124.6965],[-99.8844,26.0359,1238.1284],[-99.8828,26.0337,1134.3629],[-99.8834,26.0316,1077.5145],[-99.8853,26.0331,1222.7593],[-99.8863,26.0314,1106.9922],[-99.8895,26.0342,1268.7542],[-99.8927,26.034,1224.244],[-99.8978,26.0365,1227.54],[-99.9,26.0286,1335.8728],[-99.8959,26.029,1126.5684],[-99.8948,26.0287,1196.9911],[-99.8957,26.0274,1196.9911],[-99.8917,26.0262,1141.6454],[-99.8985,26.0245,1336.6329],[-99.8967,26.0168,1196.7961],[-99.8906,26.0143,1296.9364],[-99.889,26.0152,1356.1891],[-99.8901,26.0169,1252.7489],[-99.8881,26.016,1250.734],[-99.8846,26.0185,1347.7585],[-99.8841,26.0219,1195.1998],[-99.882,26.0193,1277.2119],[-99.8799,26.0203,1242.781],[-99.8784,26.0179,1202.2188],[-99.8764,26.0183,1189.4314],[-99.8722,26.0151,1238.1211],[-99.8713,26.0178,1164.9292],[-99.8685,26.0185,1179.0453],[-99.8678,26.0174,1179.0453],[-99.8706,26.0154,1229.0627],[-99.8666,26.0129,1130.1036],[-99.8649,26.0091,1132.246],[-99.8615,26.0089,1138.7681],[-99.8575,26.0116,1243.6892],[-99.8563,26.0153,1171.1532],[-99.8546,26.0144,1216.6274],[-99.8505,26.0221,986.3032],[-99.8487,26.0216,1115.1348],[-99.8456,26.0244,1004.4526],[-99.8437,26.0234,1006.0038],[-99.8447,26.0201,1073.3904],[-99.8403,26.0213,968.6147],[-99.8359,26.0203,962.1214],[-99.8355,26.0187,913.0568],[-99.838,26.0188,989.1947],[-99.8411,26.0151,1075.5104],[-99.8292,26.0181,645.7115],[-99.8162,26.0182,573.4643],[-99.816,26.0165,571.3978],[-99.8186,26.0159,642.6781],[-99.8157,26.0145,564.4156],[-99.8133,26.0154,583.0668],[-99.8137,26.0111,560.1979],[-99.8108,26.0074,547.9644],[-99.8081,26.0075,546.0142],[-99.8107,26.0057,577.1729],[-99.8086,26.0047,544.1693],[-99.8039,26.0067,525.9956],[-99.8052,26.0019,514.3398],[-99.8023,26.0035,519.6228],[-99.8006,26.0021,512.1625],[-99.8036,26.0015,514.0205],[-99.8057,25.9988,505.2047],[-99.803,25.9985,502.0423],[-99.8037,25.9963,545.1453],[-99.8016,25.9951,493.8492],[-99.804,25.9938,545.6672],[-99.803,25.9903,488.6003],[-99.7957,25.9901,474.4627],[-99.7958,25.9872,471.5656],[-99.7921,25.989,514.0829],[-99.7923,25.987,473.3148],[-99.7887,25.984,463.9323],[-99.782,25.9844,485.2292],[-99.7805,25.98,457.6481],[-99.7788,25.9815,443.6593],[-99.7755,25.9811,443.7176],[-99.7723,25.9846,436.4329],[-99.7668,25.9845,434.8763],[-99.7663,25.9802,463.4384],[-99.7633,25.9797,429.8967],[-99.7626,25.9778,418.0591],[-99.745,25.9756,426.6369],[-99.7429,25.967,405.651],[-99.7371,25.9656,386.9233],[-99.734,25.9626,379.2942],[-99.7296,25.9626,381.4915],[-99.7166,25.95,352.7867],[-99.7081,25.9512,344.3692],[-99.7028,25.9492,339.7317],[-99.6998,25.9445,333.3656],[-99.6932,25.9415,325.1124],[-99.6911,25.9372,320.7075],[-99.6803,25.9331,311.3792],[-99.6735,25.9275,304.3556],[-99.6729,25.9206,295.8263],[-99.6676,25.9165,292.5329],[-99.6623,25.9002,277.3889],[-99.6582,25.8972,273.6626],[-99.6537,25.89,267.9339],[-99.635,25.8693,244.2951],[-99.6274,25.8637,229.3427],[-99.5387,25.9016,197.0332],[-99.538,25.9128,196.5378],[-99.5203,25.9236,188.8565],[-99.5214,25.9251,188.9258],[-99.5228,25.9246,189.8171],[-99.564,26.0004,243.0588],[-99.5832,26.0337,250.5854],[-99.5886,26.0403,272.6672],[-99.5859,26.0419,271.5042],[-99.6065,26.073,287.2285],[-99.5883,26.091,261.5922],[-99.5738,26.095,234.1751],[-99.5581,26.0972,228.4886],[-99.4758,26.0993,174.8668],[-99.4822,26.1064,174.9624],[-99.4832,26.1107,179.6222],[-99.4875,26.1132,190.3969],[-99.4898,26.1228,179.5467],[-99.499,26.1234,191.8279],[-99.5031,26.1254,195.6322],[-99.5087,26.1339,195.29],[-99.5129,26.1447,193.5491],[-99.5228,26.1549,196.3913],[-99.5249,26.1619,195.019],[-99.5271,26.1644,193.9019],[-99.5343,26.1674,192.8833],[-99.5366,26.1707,195.5021],[-99.5397,26.1672,198.2957],[-99.5542,26.1845,198.5125],[-99.5889,26.1841,213.86],[-99.5895,26.2353,227.8777],[-99.5974,26.235,229.6526],[-99.5999,26.2377,225.7496],[-99.6083,26.2379,226.1412],[-99.6101,26.2391,226.2629],[-99.6087,26.243,227.7725],[-99.6116,26.2444,228.8017],[-99.6173,26.2425,234.0202],[-99.6162,26.2448,231.1574],[-99.6176,26.2453,233.4845],[-99.6183,26.2524,227.3047],[-99.6255,26.2481,231.0289],[-99.6278,26.2565,230.5827],[-99.6362,26.2473,236.5313],[-99.7271,26.1839,326.7828],[-99.7286,26.1805,330.8759],[-99.7356,26.1766,340.3181],[-99.7387,26.1707,348.0066],[-99.7452,26.1715,353.478],[-99.7479,26.1701,356.9129],[-99.7518,26.1725,364.5342],[-99.7627,26.1723,379.7829],[-99.764,26.1739,379.5783],[-99.7801,26.1762,438.0768],[-99.8023,26.1678,654.1381],[-99.8158,26.1693,733.3682],[-99.8226,26.1599,700.3574],[-99.8209,26.1579,779.6678],[-99.8216,26.1566,767.2955],[-99.8289,26.1536,648.437],[-99.851,26.1535,728.233],[-99.8547,26.1526,725.7938],[-99.8556,26.1507,790.9006],[-99.8593,26.1509,789.8491],[-99.86,26.153199999999998,685.6876],[-99.8692,26.161,504.2278],[-99.8788,26.174,876.3971],[-99.8819,26.1732,808.4614],[-99.8914,26.1791,888.858],[-99.8941,26.1774,812.3452],[-99.9203,26.187,893.4965],[-99.9276,26.196,880.4491]]]]}
,"properties": {"GID_2": "MEX.19.9_2","GID_0": "MEX","country": "México","GID_1": "MEX.19_1","province": "NuevoLeón","NL_NAME_1": "NA","county": "Cerralvo","VARNAME_2": "NA","NL_NAME_2": "NA","TYPE_2": "Município","ENGTYPE_2": "Municipality","CC_2": "NA","HASC_2": "NA","name": "Cerralvo.county","area_km2": 1009.6903,"hist_schema_id": "Elevation0-9000","hist_area_km2": {"175": 4.7026,"200": 53.4996,"225": 94.9809,"250": 111.4682,"275": 103.4497,"300": 96.4077,"325": 74.5609,"350": 49.5752,"375": 31.3483,"400": 22.4713,"425": 22.0722,"450": 19.7877,"475": 19.1592,"500": 18.5304,"525": 16.6626,"550": 16.8903,"575": 17.1947,"600": 17.0038,"625": 15.4425,"650": 16.6798,"675": 15.9182,"700": 14.6042,"725": 15.5566,"750": 13.386,"775": 13.0621,"800": 12.4337,"825": 11.3866,"850": 10.244,"875": 9.8064,"900": 8.6066,"925": 8.7398,"950": 6.7782,"975": 6.3599,"1000": 5.617,"1025": 4.9696,"1050": 4.3414,"1075": 3.8081,"1100": 3.0657,"1125": 2.8942,"1150": 2.6469,"1175": 2.5516,"1200": 2.6279,"1225": 1.7328,"1250": 1.5996,"1275": 1.2188,"1300": 1.0474,"1325": 0.6665,"1350": 0.5903,"1375": 0.3618,"1400": 0.3618,"1425": 0.3618,"1450": 0.2666,"1475": 0.0952,"1500": 0.0952}}}