{"type": "Feature","bbox": [-97.1667,18.7964,-97.0951,18.8367],"geometry": {"type": "MultiPolygon","coordinates": [[[[-97.1318,18.7964,2390.6829],[-97.1208,18.8074,1746.1478],[-97.1228,18.8124,1871.353],[-97.1069,18.817,1729.8998],[-97.1011,18.8218,1283.4127],[-97.0976,18.821,1198.2891],[-97.0951,18.8242,1189.7852],[-97.0967,18.8295,1201.4651],[-97.0984,18.8294,1205.4526],[-97.0971,18.8328,1194.5425],[-97.1041,18.8344,1220.0471],[-97.1093,18.8328,1225.7458],[-97.112799999999993,18.8289,1228.5229],[-97.1172,18.829,1229.6128],[-97.1268,18.8358,1234.1384],[-97.1336,18.8349,1239.8478],[-97.1352,18.8367,1238.4468],[-97.1503,18.8302,1263.9485],[-97.1504,18.8255,1307.8969],[-97.154,18.8241,1271.8849],[-97.1547,18.819,1277.5686],[-97.1574,18.8184,1281.9999],[-97.1667,18.8096,1296.7828],[-97.1664,18.8055,1334.5634],[-97.1645,18.8046,1449.3792],[-97.1615,18.8051,1539.0901],[-97.1433,18.7967,2318.0164],[-97.1318,18.7964,2390.6829]]]]}
,"properties": {"GID_2": "MEX.30.75_2","GID_0": "MEX","country": "México","GID_1": "MEX.30_1","province": "Veracruz","NL_NAME_1": "NA","county": "HuiloapandeCuauhtémoc","VARNAME_2": "NA","NL_NAME_2": "NA","TYPE_2": "Município","ENGTYPE_2": "Municipality","CC_2": "NA","HASC_2": "NA","name": "Huiloapande_Cuauhtémoc.county","area_km2": 18.96519,"hist_schema_id": "Elevation0-9000","hist_area_km2": {"1200": 0.58197,"1225": 1.88635,"1250": 0.70236,"1275": 0.96328,"1300": 0.74254,"1325": 0.44151,"1350": 0.46158,"1375": 0.28095,"1400": 0.48165,"1425": 0.3211,"1450": 0.40137,"1475": 0.46158,"1500": 0.30103,"1525": 0.50171,"1550": 0.56192,"1575": 0.38131,"1600": 0.40138,"1625": 0.60206,"1650": 0.54186,"1675": 0.36124,"1700": 0.52179,"1725": 0.52179,"1750": 0.44153,"1775": 0.42146,"1800": 0.32112,"1825": 0.4616,"1850": 0.30104,"1875": 0.22077,"1900": 0.28098,"1925": 0.38132,"1950": 0.34118,"1975": 0.30105,"2000": 0.24084,"2025": 0.16056,"2050": 0.22077,"2075": 0.24085,"2100": 0.24085,"2125": 0.28098,"2150": 0.2007,"2175": 0.14049,"2200": 0.22078,"2225": 0.22078,"2250": 0.08028,"2275": 0.10035,"2300": 0.26092,"2325": 0.12043,"2350": 0.08028,"2375": 0.02007,"2400": 0.04014,"2425": 0.04014,"2450": 0.08029,"2475": 0.08029}}}