{"type": "Feature","bbox": [-101.5415,20.5011,-101.1414,20.8484],"geometry": {"type": "MultiPolygon","coordinates": [[[[-101.4005,20.5158,1702.652],[-101.4029,20.5327,1702.0232],[-101.4016,20.5438,1705.0613],[-101.4114,20.5435,1705.002],[-101.4173,20.5453,1703.5092],[-101.4187,20.5493,1717.4717],[-101.4165,20.55,1707.2959],[-101.4163,20.5526,1713.3738],[-101.4075,20.5587,1706.7434],[-101.4066,20.5608,1706.9092],[-101.4001,20.5615,1710.2533],[-101.3962,20.5658,1708.5583],[-101.3838,20.5712,1709.0854],[-101.3763,20.5699,1710.3005],[-101.3734,20.5822,1710.4114],[-101.3596,20.5823,1710.689],[-101.3581,20.5881,1711.1121],[-101.3562,20.5879,1711.3706],[-101.3554,20.5944,1712.0292],[-101.3464,20.5926,1711.8534],[-101.3475,20.5905,1711.4983],[-101.3463,20.5887,1711.6578],[-101.3474,20.5886,1711.4524],[-101.3489,20.5817,1711.4586],[-101.3477,20.5803,1711.0278],[-101.3454,20.5807,1711.6179],[-101.3458,20.5772,1712.0634],[-101.3429,20.5726,1779.014],[-101.3297,20.5758,1784.9324],[-101.3228,20.5804,1764.9604],[-101.312,20.58,1724.358],[-101.3111,20.5858,1723.4636],[-101.3053,20.5854,1710.9717],[-101.3,20.5919,1712.1105],[-101.2763,20.5894,1707.7888],[-101.2763,20.5977,1710.2351],[-101.264,20.5955,1707.2175],[-101.2634,20.5982,1707.6769],[-101.2689,20.6021,1709.3453],[-101.2688,20.6166,1711.3097],[-101.268,20.6242,1713.4053],[-101.2655,20.6268,1712.8757],[-101.2625,20.6252,1712.0083],[-101.2588,20.6362,1713.8672],[-101.2638,20.6394,1717.4635],[-101.2674,20.6385,1718.8414],[-101.2626,20.6612,1726.9963],[-101.2752,20.6642,1734.2435],[-101.2752,20.6675,1731.36],[-101.2775,20.669,1728.8845],[-101.2761,20.67,1729.7068],[-101.2745,20.6799,1732.4169],[-101.2659,20.6855,1733.9945],[-101.268,20.6894,1736.6222],[-101.2651,20.6928,1738.3975],[-101.2669,20.6979,1740.5828],[-101.2652,20.7012,1740.8995],[-101.26,20.7024,1744.6304],[-101.2607,20.7001,1743.3204],[-101.2582,20.6992,1745.0488],[-101.2552,20.7099,1750.8108],[-101.2514,20.708,1752.8428],[-101.2523,20.7186,1754.2839],[-101.2497,20.723,1758.0852],[-101.2397,20.722,1785.67],[-101.2335,20.7256,1766.0524],[-101.225,20.7395,1779.4661],[-101.2222,20.7413,1780.0065],[-101.2241,20.7485,1793.0996],[-101.223,20.7518,1786.2157],[-101.2171,20.7495,1790.7072],[-101.2109,20.7572,1814.1772],[-101.205,20.7568,1819.5459],[-101.2021,20.7586,1805.6862],[-101.1988,20.7586,1810.3567],[-101.2027,20.7571,1805.6862],[-101.2025,20.7559,1854.5541],[-101.1976,20.7538,1890.5194],[-101.1907,20.7528,1842.6385],[-101.1868,20.7539,1819.5811],[-101.1866,20.7691,1913.9067],[-101.1883,20.7689,1913.9067],[-101.1863,20.7761,1945.7162],[-101.1808,20.7777,1956.217],[-101.1777,20.7814,1974.3184],[-101.171,20.7834,2019.6057],[-101.1545,20.8186,2172.4575],[-101.1463,20.8278,2226.76],[-101.1458,20.8333,2241.0188],[-101.1469,20.8347,2235.3672],[-101.1414,20.8484,2272.7263],[-101.1788,20.8411,2103.8748],[-101.2093,20.8331,2019.6591],[-101.2079,20.8305,1987.1855],[-101.2143,20.8248,1973.7277],[-101.2187,20.8245,1962.1936],[-101.2396,20.8278,1954.5043],[-101.2515,20.841,1871.9138],[-101.253,20.8284,1938.3198],[-101.2764,20.8365,1843.3508],[-101.2958,20.8372,1866.1797],[-101.2997,20.8369,1848.7689],[-101.3,20.8283,1792.3586],[-101.3025,20.8282,1790.0591],[-101.3181,20.831,1802.7159],[-101.3176,20.8349,1798.9043],[-101.3421,20.8365,1792.6486],[-101.3419,20.8389,1799.0052],[-101.3629,20.8403,1754.447],[-101.3664,20.8462,1755.5247],[-101.3707,20.8465,1753.8384],[-101.3711,20.8409,1752.6857],[-101.4086,20.8438,1747.5927],[-101.4106,20.8007,1739.8679],[-101.4234,20.8008,1745.6815],[-101.4233,20.8026,1745.9584],[-101.4555,20.8,1738.8575],[-101.4526,20.7945,1737.7195],[-101.4786,20.786,1736.8802],[-101.4788,20.7843,1737.6104],[-101.486,20.784,1736.7415],[-101.4861,20.781,1735.8462],[-101.4955,20.7795,1735.1805],[-101.5055,20.7705,1734.6443],[-101.5082,20.7597,1736.0222],[-101.5114,20.759,1736.6914],[-101.5274,20.7479,1772.6906],[-101.532,20.7474,1826.7068],[-101.532,20.7468,1801.8003],[-101.5307,20.7469,1801.8003],[-101.5313,20.7458,1801.8003],[-101.5415,20.7316,1851.509],[-101.5283,20.7178,2007.1924],[-101.5382,20.7093,2092.4917],[-101.5401,20.7028,2128.8662],[-101.5269,20.7058,2226.532],[-101.5111,20.6798,1971.1727],[-101.503,20.6801,1935.717],[-101.4989,20.6662,1802.3558],[-101.5003,20.6598,1768.5153],[-101.4986,20.6595,1764.0729],[-101.49,20.6488,1724.6588],[-101.4817,20.6496,1713.1824],[-101.4759,20.6526,1714.0884],[-101.4751,20.6515,1712.7061],[-101.4772,20.6507,1713.3735],[-101.4776,20.6464,1710.7203],[-101.479,20.6468,1710.7991],[-101.48,20.6396,1708.5435],[-101.4841,20.6398,1708.5142],[-101.4857,20.6443,1711.8767],[-101.4872,20.6444,1712.6289],[-101.4903,20.6438,1714.3505],[-101.4904,20.6406,1711.1768],[-101.4957,20.6399,1710.8226],[-101.4974,20.5961,1697.8262],[-101.478,20.5905,1701.219],[-101.4734,20.5935,1701.7927],[-101.4747,20.5885,1702.3596],[-101.4723,20.5727,1711.2184],[-101.4845,20.5649,1707.2913],[-101.4936,20.5659,1708.5153],[-101.4978,20.5614,1702.0576],[-101.5076,20.5616,1696.7063],[-101.5078,20.5521,1695.8035],[-101.5048,20.5438,1695.7615],[-101.505,20.5349,1696.2006],[-101.501,20.5197,1693.9189],[-101.4918,20.5081,1695.9515],[-101.472,20.5025,1698.9344],[-101.4473,20.5071,1700.7568],[-101.4478,20.5055,1700.858],[-101.4444,20.5011,1702.1866],[-101.4005,20.5158,1702.652]]]]}
,"properties": {"GID_2": "MEX.11.15_2","GID_0": "MEX","country": "México","GID_1": "MEX.11_1","province": "Guanajuato","NL_NAME_1": "NA","county": "Irapuato","VARNAME_2": "NA","NL_NAME_2": "NA","TYPE_2": "Município","ENGTYPE_2": "Municipality","CC_2": "NA","HASC_2": "NA","name": "Irapuato.county","area_km2": 853.5533,"hist_schema_id": "Elevation0-9000","hist_area_km2": {"1700": 115.2144,"1725": 291.0227,"1750": 150.7244,"1775": 63.8257,"1800": 38.7621,"1825": 33.725,"1850": 28.1925,"1875": 21.1925,"1900": 17.0288,"1925": 17.7816,"1950": 15.661,"1975": 7.4742,"2000": 7.7311,"2025": 8.9402,"2050": 7.5322,"2075": 6.0061,"2100": 5.7092,"2125": 4.0046,"2150": 3.6279,"2175": 2.954,"2200": 2.2799,"2225": 1.7245,"2250": 1.0308,"2275": 0.6146,"2300": 0.3767,"2325": 0.2776,"2350": 0.1388}}}