{"type":"Feature","properties":{"GID_2":"MEX.12.15_2","GID_0":"MEX","country":"México","GID_1":"MEX.12_1","province":"Guerrero","NL_NAME_1":"NA","county":"BenitoJuárez","VARNAME_2":"NA","NL_NAME_2":"NA","TYPE_2":"Município","ENGTYPE_2":"Municipality","CC_2":"NA","HASC_2":"NA","name":"Benito_Juárez.county"},
"geometry":{"type": "MultiPolygon","coordinates": [[[[-100.5366,17.1716,8.8388],[-100.5406,17.1746,17.7056],[-100.5404,17.1705,14.4205],[-100.5419,17.1683,10.8906],[-100.5488,17.1678,8.2003],[-100.5499,17.1644,6.1036],[-100.5567,17.1658,7.188],[-100.5627,17.1569,3.0389],[-100.5455,17.1436,3.8811],[-100.543,17.1471,3.8261],[-100.5402,17.1458,4.875],[-100.5411,17.1435,5.429],[-100.5373,17.1411,4.8259],[-100.5407,17.1353,5.25],[-100.5371,17.1329,4.8945],[-100.5284,17.1317,5.751],[-100.5255,17.1272,8.5283],[-100.5273,17.1229,9.2182],[-100.531,17.1241,6.6207],[-100.5347,17.123,3.5904],[-100.5364,17.1244,5.978],[-100.5441,17.1202,3.109],[-100.5446,17.1121,2.5646],[-100.5465,17.1111,2.65],[-100.548,17.1125,3.4735],[-100.5558,17.1123,3.1654],[-100.5569,17.1106,4.605],[-100.5691,17.1146,4.2148],[-100.5687,17.1171,3.1729],[-100.6153,17.1303,7.0063],[-100.6157,17.1234,0.0],[-100.3751,17.0438,6.5164],[-100.2592,17.0027,1.378],[-100.232,16.9911,0.0],[-100.2287,16.9902,0.0],[-100.2241,16.9918,3.2238],[-100.2332,16.9984,2.7299],[-100.2323,17.0036,2.1353],[-100.2272,17.007,8.1298],[-100.2213,17.0036,7.71],[-100.2186,17.0057,11.6042],[-100.2214,17.0073,6.8514],[-100.2308,17.0078,3.356],[-100.2376,17.0132,6.3385],[-100.2388,17.0131,6.9371],[-100.238,17.0097,6.504],[-100.2392,17.0082,2.3904],[-100.2495,17.015,2.5991],[-100.2513,17.0185,2.8944],[-100.2559,17.0214,7.6162],[-100.2638,17.0231,2.7013],[-100.2682,17.0209,4.6374],[-100.2701,17.0215,3.0741],[-100.2716,17.026,5.739],[-100.2844,17.0282,2.27],[-100.2888,17.0363,7.1135],[-100.294,17.037,1.5],[-100.2946,17.0384,3.0373],[-100.29,17.0388,5.3109],[-100.2887,17.0479,4.0805],[-100.2935,17.0497,1.5],[-100.2973,17.0564,6.4181],[-100.2991,17.0551,2.3469],[-100.3,17.0571,9.0675],[-100.2979,17.062,12.275],[-100.3005,17.0645,24.832],[-100.3034,17.0597,12.2861],[-100.3104,17.0601,10.7598],[-100.3141,17.0627,11.0348],[-100.315,17.0654,9.0411],[-100.3137,17.0673,8.6641],[-100.3159,17.0688,6.1475],[-100.3362,17.0665,4.478],[-100.3452,17.0693,9.1004],[-100.3481,17.0668,2.9188],[-100.3479,17.07,9.0347],[-100.3503,17.0725,8.0852],[-100.3549,17.0729,8.1848],[-100.3552,17.0774,6.5156],[-100.3495,17.0827,8.7242],[-100.3514,17.0971,12.4271],[-100.3653,17.094,10.4089],[-100.365,17.0972,14.4053],[-100.3696,17.097,4.6159],[-100.3705,17.1031,10.5306],[-100.3801,17.0962,7.5128],[-100.3794,17.1161,4.8287],[-100.3807,17.1156,8.3586],[-100.3839,17.1187,5.2971],[-100.3939,17.1132,2.0424],[-100.3905,17.1199,9.0789],[-100.381,17.1312,14.9661],[-100.4008,17.1412,23.1201],[-100.4034,17.1359,19.5762],[-100.4151,17.1407,12.8157],[-100.4163,17.1415,12.8157],[-100.4126,17.1492,24.7902],[-100.4161,17.1516,18.3106],[-100.4255,17.1557,21.9202],[-100.4302,17.1463,14.8545],[-100.4445,17.1543,22.4967],[-100.4509,17.1559,20.5558],[-100.4486,17.1648,27.2203],[-100.4537,17.1668,22.4125],[-100.4591,17.1562,14.5],[-100.4716,17.1599,20.6822],[-100.4726,17.1584,19.1772],[-100.4766,17.159,15.8608],[-100.4772,17.1603,15.8608],[-100.4711,17.1708,21.1729],[-100.4821,17.1742,23.9786],[-100.4828,17.176,25.3319],[-100.4935,17.1811,27.7423],[-100.4953,17.1811,28.2681],[-100.5074,17.1627,10.7363],[-100.5103,17.1615,9.6267],[-100.5226,17.16,7.2405],[-100.5293,17.1628,5.7997],[-100.5325,17.161,5.2807],[-100.5393,17.1626,5.1018],[-100.5366,17.1716,8.8388]]]]}}