{"type": "Feature","bbox": [-92.931,15.0227,-92.6269,15.422],"geometry": {"type": "MultiPolygon","coordinates": [[[[-92.8553,15.1709,10.1757],[-92.858,15.1717,18.9969],[-92.8589,15.174,9.0629],[-92.8605,15.1738,9.0629],[-92.8599,15.1686,2.8525],[-92.8533,15.1628,0.0],[-92.8522,15.1692,0.0],[-92.8553,15.1709,10.1757]]],
[[[-92.8575,15.1724,3.0417],[-92.8562,15.1717,10.1757],[-92.8537,15.1726,1.6404],[-92.8569,15.174,0.0],[-92.8575,15.1724,3.0417]]],
[[[-92.8088,15.1871,14.259],[-92.8161,15.1887,18.1455],[-92.8236,15.1824,11.9265],[-92.8304,15.1833,7.4026],[-92.8337,15.1786,10.7839],[-92.8338,15.1717,6.0255],[-92.8309,15.1691,7.4822],[-92.824,15.1703,0.0],[-92.8204,15.1644,2.9073],[-92.8148,15.1684,0.0],[-92.805,15.1657,6.2379],[-92.8025,15.1681,7.5647],[-92.802,15.1718,20.8065],[-92.807,15.1867,9.8313],[-92.8088,15.1871,14.259]]],
[[[-92.7719,15.1512,16.6964],[-92.7677,15.1538,6.1715],[-92.7707,15.1553,14.2786],[-92.7733,15.153,8.7223],[-92.7719,15.1512,16.6964]]],
[[[-92.7721,15.1554,14.2786],[-92.7741,15.1559,13.3109],[-92.7741,15.1541,12.8365],[-92.7735,15.1541,12.8365],[-92.7721,15.1554,14.2786]]],
[[[-92.7721,15.4149,345.8213],[-92.7738,15.4117,343.9878],[-92.7747,15.4004,378.5471],[-92.7854,15.3893,47.0623],[-92.812,15.4035,95.2441],[-92.8148,15.3996,41.4005],[-92.8028,15.3936,34.0555],[-92.8052,15.3882,29.5584],[-92.8101,15.3464,19.368],[-92.84,15.3222,9.6305],[-92.8524,15.2821,11.7467],[-92.8536,15.2829,7.4398],[-92.854,15.2811,11.3279],[-92.8553,15.2823,12.4695],[-92.8563,15.279,9.84],[-92.8685,15.268,10.2198],[-92.8717,15.2616,6.5201],[-92.8813,15.2704,3.0596],[-92.8857,15.266,3.7064],[-92.8783,15.2587,3.7413],[-92.8847,15.2526,4.7931],[-92.8909,15.257,2.5929],[-92.8899,15.2581,4.3214],[-92.8921,15.2605,4.3439],[-92.8947,15.2587,1.3992],[-92.8929,15.2538,4.8542],[-92.8854,15.2508,6.9011],[-92.8938,15.2486,0.0],[-92.8885,15.2323,10.9739],[-92.9019,15.247,1.2473],[-92.902,15.2481,9.3563],[-92.9001,15.2471,2.3143],[-92.9003,15.2487,2.3143],[-92.9108,15.2489,7.474],[-92.8846,15.2226,11.2202],[-92.888,15.2213,7.9087],[-92.9028,15.2346,11.9614],[-92.9232,15.2468,14.9275],[-92.931,15.2313,0.9782],[-92.88,15.183,1.1984],[-92.8623,15.164,0.638],[-92.854,15.1619,0.0],[-92.8614,15.1649,0.638],[-92.8602,15.1671,2.8525],[-92.864,15.1676,1.4801],[-92.8632,15.1735,17.1637],[-92.8683,15.1749,15.9915],[-92.8735,15.1787,1.0904],[-92.8813,15.1899,2.4853],[-92.8864,15.1904,2.5018],[-92.8886,15.1925,0.7305],[-92.8894,15.1942,0.0],[-92.8874,15.1949,0.0],[-92.8874,15.1974,2.7554],[-92.8917,15.2012,12.8746],[-92.8881,15.2039,5.8604],[-92.8934,15.207,19.2619],[-92.8974,15.2148,9.5271],[-92.9105,15.2168,1.513],[-92.9102,15.2134,1.5268],[-92.917,15.2187,0.0],[-92.9168,15.2206,12.8784],[-92.9119,15.2179,4.5382999999999996],[-92.9055,15.22,18.0554],[-92.9047,15.2178,3.5919],[-92.8966,15.2151,9.5271],[-92.893,15.2084,6.4116],[-92.8878,15.2055,13.046],[-92.8886,15.2009,15.0331],[-92.8855,15.1953,0.0],[-92.875,15.1881,9.6988],[-92.8694,15.1787,0.0],[-92.8648,15.1797,3.876],[-92.862799999999993,15.1777,6.6531],[-92.8479,15.1749,0.0],[-92.8455,15.1787,0.0],[-92.8412,15.1806,6.7691],[-92.8419,15.1859,2.0834],[-92.8501,15.1892,4.9928],[-92.8638,15.2038,10.8993],[-92.8655,15.2089,15.3114],[-92.8633,15.211,11.6252],[-92.8564,15.204,4.4569],[-92.8551,15.2069,7.9611],[-92.8489,15.2094,12.0048],[-92.8484,15.2068,1.9603],[-92.8459,15.2065,9.1128],[-92.8405,15.2013,4.5857],[-92.8457,15.2017,8.0336],[-92.842,15.1989,14.3813],[-92.8428,15.1955,10.2859],[-92.8442,15.198,2.4472],[-92.8466,15.1986,0.0],[-92.8469,15.197,0.0],[-92.8437,15.1944,12.2537],[-92.8429,15.1895,2.6462],[-92.8407,15.1876,2.4721],[-92.8401,15.1806,7.0702],[-92.8358,15.1757,0.0],[-92.8342,15.1806,18.0622],[-92.8306,15.1841,12.8704],[-92.8238,15.1836,8.7063],[-92.816,15.1903,2.5293],[-92.807,15.1881,11.4047],[-92.803,15.178,4.1463],[-92.7969,15.1736,11.0434],[-92.7906,15.1638,19.5047],[-92.7864,15.1633,8.6976],[-92.7848,15.1587,0.0],[-92.7806,15.1588,15.9583],[-92.775,15.1551,0.0],[-92.7742,15.1565,13.3109],[-92.7726,15.1563,13.3109],[-92.7814,15.1784,13.0542],[-92.7758,15.1785,10.195],[-92.7722,15.1756,2.7914],[-92.7711,15.1777,11.9479],[-92.7687,15.1778,13.6931],[-92.7691,15.1748,1.994],[-92.7653,15.1745,16.808],[-92.7622,15.1704,13.5371],[-92.7622,15.1681,4.8107],[-92.7569,15.1666,18.3516],[-92.7626,15.1549,16.2945],[-92.771,15.1503,21.7592],[-92.7734,15.1511,12.0497],[-92.7797,15.1571,0.0],[-92.784,15.1557,9.139],[-92.7915,15.1571,3.5234],[-92.7995,15.163,18.4137],[-92.8075,15.1631,20.1521],[-92.8108,15.1657,0.0],[-92.8159,15.1666,18.6426],[-92.8189,15.1634,19.9728],[-92.8217,15.1633,18.3938],[-92.8257,15.1688,0.0],[-92.8328,15.1687,7.3747],[-92.8413,15.1777,8.9816],[-92.8459,15.1723,14.1036],[-92.8502,15.1707,2.8929],[-92.8515,15.1656,1.5943],[-92.8477,15.1575,2.3909],[-92.8432,15.1524,7.4189],[-92.8368,15.1484,13.4597],[-92.8325,15.1402,0.0],[-92.8282,15.1373,4.5101],[-92.8218,15.1292,7.2417],[-92.8159,15.1261,5.683],[-92.8067,15.1132,7.0291],[-92.7992,15.1102,5.5806],[-92.7971,15.1061,4.5301],[-92.7929,15.1029,13.5228],[-92.7918,15.0993,12.3334],[-92.7866,15.0956,13.2066],[-92.7864,15.0924,8.4029],[-92.7686,15.0779,13.6343],[-92.7609,15.0691,8.1329],[-92.7556,15.0685,7.5933],[-92.7512,15.0621,15.3975],[-92.7525,15.0589,8.8038],[-92.7448,15.054,19.0483],[-92.739,15.0427,17.7659],[-92.743,15.0459,4.5242],[-92.7462,15.0538,8.2551],[-92.7526,15.0572,12.9053],[-92.7524,15.0622,19.3932],[-92.7564,15.0675,5.6275],[-92.7615,15.0684,21.1661],[-92.7698,15.0776,13.6343],[-92.7814,15.0864,9.7702],[-92.7835,15.0898,8.9012],[-92.7872,15.092,6.0486],[-92.7884,15.096,5.7459],[-92.7924,15.0984,13.9105],[-92.8006,15.1099,5.5806],[-92.808,15.113,9.3905],[-92.8141,15.12,8.2409],[-92.8159,15.1246,20.0883],[-92.8221,15.1277,13.223],[-92.8302,15.1376,11.381],[-92.8323,15.1382,1.2053],[-92.8319,15.1326,12.1583],[-92.8347,15.1378,6.4392],[-92.8395,15.1397,3.1197],[-92.8407,15.1416,2.5949],[-92.8374,15.1406,9.9556],[-92.8346,15.1417,1.6939],[-92.8391,15.1489,9.2795],[-92.8436,15.1497,7.2224],[-92.84,15.1467,12.4302],[-92.8416,15.1446,10.7073],[-92.8497,15.1525,5.8651],[-92.8529,15.1596,0.0],[-92.857,15.159,0.0],[-92.8532,15.1576,0.0],[-92.8539,15.1532,1.3756],[-92.8517,15.1505,3.4979],[-92.7991,15.0993,1.4221],[-92.7325,15.0309,1.3241],[-92.7303,15.0327,15.1698],[-92.7263,15.032,8.4068],[-92.7175,15.0233,7.8013],[-92.715,15.0227,11.0331],[-92.7124,15.0237,18.0343],[-92.7178,15.0286,13.2569],[-92.723,15.0401,17.2453],[-92.7652,15.1139,11.534],[-92.7575,15.1114,9.468],[-92.7557,15.1123,6.2871],[-92.7553,15.1172,18.7864],[-92.7567,15.118,14.4816],[-92.7569,15.1214,14.4732],[-92.7534,15.1292,16.2046],[-92.7584,15.1331,9.5461],[-92.7414,15.1514,1.7179],[-92.7386,15.1502,2.5911],[-92.7275,15.1332,1.7036],[-92.7217,15.1279,1.083],[-92.7166,15.1359,5.3629],[-92.7151,15.1352,4.3548],[-92.7105,15.1408,2.6205],[-92.7161,15.1446,5.5159],[-92.7105,15.1513,3.9203],[-92.7169,15.154,4.9817],[-92.7159,15.155,5.0377],[-92.7112,15.1563,5.3015],[-92.7026,15.1568,7.243],[-92.7023,15.1596,8.3798],[-92.6967,15.1656,5.782],[-92.6907,15.1651,11.4922],[-92.6885,15.1695,5.1938],[-92.6815,15.1725,7.3812],[-92.6767,15.1766,8.3933],[-92.6691,15.1884,11.8121],[-92.6673,15.1953,14.5919],[-92.6628,15.2026,10.4931],[-92.6503,15.2005,11.709],[-92.6465,15.2135,10.1871],[-92.6391,15.2109,13.2678],[-92.6387,15.2121,12.6434],[-92.6504,15.2248,12.0175],[-92.6488,15.228,13.1941],[-92.639,15.2366,54.3375],[-92.6466,15.2424,60.7863],[-92.6434,15.2452,60.0475],[-92.6374,15.2425,57.4385],[-92.634,15.2535,76.3986],[-92.6269,15.2601,76.1114],[-92.6616,15.286,59.9192],[-92.6718,15.2769,40.9523],[-92.6806,15.2787,31.1927],[-92.6808,15.2808,39.2743],[-92.6833,15.2818,45.8787],[-92.6719,15.2931,44.7168],[-92.6812,15.3047,40.5117],[-92.6878,15.3049,36.0827],[-92.6927,15.3011,33.1376],[-92.7001,15.3019,28.6513],[-92.7036,15.3067,32.741],[-92.7066,15.307,31.533],[-92.7093,15.3017,29.1743],[-92.7155,15.3094,28.1418],[-92.7197,15.3119,28.9337],[-92.7218,15.308,29.1001],[-92.7148,15.3031,27.678],[-92.7198,15.2993,26.9493],[-92.7216,15.3001,26.6336],[-92.7246,15.2959,27.0297],[-92.7369,15.3039,23.5175],[-92.7361,15.3069,22.5675],[-92.7236,15.3108,27.4694],[-92.7176,15.3205,30.2019],[-92.7248,15.3196,31.9142],[-92.7322,15.3235,29.9598],[-92.734,15.3418,34.4962],[-92.7446,15.3377,33.0569],[-92.7478,15.3471,32.6733],[-92.747,15.3536,36.3742],[-92.7489,15.3518,37.5685],[-92.7537,15.3655,39.3844],[-92.7548,15.3651,39.6901],[-92.7527,15.3779,41.0798],[-92.7678,15.3864,102.6697],[-92.7533,15.3845,155.8848],[-92.7519,15.3979,463.0809],[-92.765,15.3978,494.5748],[-92.7628,15.4077,568.1519],[-92.7554,15.4203,710.7996],[-92.7685,15.422,465.8583],[-92.7721,15.4149,345.8213]]]]}
,"properties": {"GID_2": "MEX.5.3_2","GID_0": "MEX","country": "México","GID_1": "MEX.5_1","province": "Chiapas","NL_NAME_1": "NA","county": "Acapetahua","VARNAME_2": "NA","NL_NAME_2": "NA","TYPE_2": "Município","ENGTYPE_2": "Municipality","CC_2": "NA","HASC_2": "NA","name": "Acapetahua.county","area_km2": 542.6475,"hist_schema_id": "Elevation0-9000","hist_area_km2": {"0": 231.9058,"25": 280.2121,"50": 15.6031,"75": 7.4247,"100": 0.368,"125": 0.184,"150": 0.4088,"175": 0.3475,"200": 0.4088,"225": 0.3066,"250": 0.3271,"275": 0.2657,"300": 0.3066,"325": 0.3884,"350": 0.3884,"375": 0.6132,"400": 0.4497,"425": 0.3066,"450": 0.511,"475": 0.3475,"500": 0.3475,"525": 0.2862,"550": 0.2657,"575": 0.1431,"600": 0.184,"625": 0.0818,"650": 0.0409,"675": 0.0409,"700": 0.0613,"725": 0.0613,"750": 0.0204,"775": 0.0204,"825": 0.0204}}}