{"type": "Feature","bbox": [-96.7044,17.5579,-96.5167,17.7883],"geometry": {"type": "MultiPolygon","coordinates": [[[[-96.62,17.5582,1094.6078],[-96.6105,17.5603,1506.6614],[-96.6046,17.5593,1482.9994],[-96.5899,17.5633,1436.6135],[-96.5854,17.5708,1767.8171],[-96.5811,17.5905,2459.6028],[-96.5749,17.5934,2404.8789],[-96.5684,17.6004,2417.5034],[-96.5611,17.6022,2403.3501],[-96.5479,17.6097,2620.7893],[-96.5245,17.617,2995.0706],[-96.5203,17.6222,2899.6445],[-96.5167,17.6242,2830.7544],[-96.5225,17.6328,2498.4709],[-96.5483,17.6356,2019.5254],[-96.5681,17.6334,1858.3938],[-96.5733,17.6348,1631.2981],[-96.5924,17.6339,1299.1804],[-96.6025,17.6227,1220.5428],[-96.6021,17.6212,1189.9221],[-96.605,17.6199,1211.8579],[-96.6077,17.6209,1189.8508],[-96.6085,17.6187,1166.7422],[-96.6144,17.6149,1122.6953],[-96.614,17.6174,1178.0662],[-96.6185,17.6256,1540.9001],[-96.6163,17.6314,1688.2452],[-96.6191,17.6335,1556.7941],[-96.6282,17.6345,1313.6576],[-96.6277,17.6367,1406.4453],[-96.6197,17.6441,1490.2097],[-96.6041,17.6477,1897.5781],[-96.5997,17.653,2183.0481],[-96.5974,17.6521,2187.7544],[-96.594,17.654,2242.231],[-96.5878,17.6605,2350.9685],[-96.5851,17.6615,2324.3086],[-96.5796,17.6604,2314.3042],[-96.5685,17.6705,2726.457],[-96.5758,17.6905,2630.3867],[-96.6111,17.7041,2494.8672],[-96.6051,17.7092,2310.0908],[-96.5977,17.734,2011.546],[-96.6055,17.7338,2047.2499],[-96.6101,17.7355,1893.5175],[-96.6158,17.7402,1798.3982],[-96.6149,17.7457,1576.1139],[-96.619,17.7508,1407.8108],[-96.6164,17.7534,1462.571],[-96.6248,17.7669,1148.6875],[-96.6342,17.7745,853.179],[-96.6356,17.7662,835.1072],[-96.6371,17.7648,870.0512],[-96.6423,17.7653,1028.2638],[-96.6487,17.7604,1281.1853],[-96.657,17.7589,1383.9056],[-96.6623,17.756,1554.5442],[-96.6609,17.7614,1545.5095],[-96.6524,17.7668,1373.1956],[-96.6487,17.7729,1258.6816],[-96.655,17.7728,1629.5417],[-96.6718,17.7883,1958.4979],[-96.6797,17.7547,2224.7114],[-96.6835,17.7505,2364.5608],[-96.6882,17.7491,2545.7097],[-96.6786,17.7469,2259.4827],[-96.6724,17.749,1950.8911],[-96.6717,17.7468,2000.0818],[-96.6771,17.7395,2330.2178],[-96.6799,17.7403,2229.0249],[-96.6831,17.7379,2109.8022],[-96.6826,17.7354,2037.0076],[-96.6857,17.7272,1779.0809],[-96.6771,17.7244,1986.6067],[-96.6733,17.7182,2077.0466],[-96.6603,17.7136,1452.5811],[-96.656,17.7189,1602.0591],[-96.6332,17.7156,2286.552],[-96.6435,17.7031,1737.0973],[-96.6425,17.7013,1722.71],[-96.6563,17.6958,1811.2314],[-96.6663,17.7056,1414.6003],[-96.6722,17.7088,1723.4131],[-96.684,17.7071,1706.4941],[-96.6895,17.7087,1379.7346],[-96.694,17.7073,1374.8474],[-96.6968,17.6899,1309.689],[-96.6966,17.6784,1076.6514],[-96.7006,17.679,1193.7444],[-96.6989,17.677,1123.6696],[-96.6996,17.6747,1058.3412],[-96.7029,17.6737,1120.5134],[-96.7044,17.6654,968.4503],[-96.701,17.6651,938.7625],[-96.7012,17.6687,972.6951],[-96.6983,17.6658,1011.0126],[-96.695,17.6668,948.1763],[-96.6929,17.6643,978.8433],[-96.6896,17.6656,964.4842],[-96.6916,17.6621,1039.4854],[-96.6897,17.6583,969.2639],[-96.6895,17.6534,1011.3823],[-96.6879,17.6535,980.3384],[-96.6871,17.6569,960.5181],[-96.6828,17.6566,959.2221],[-96.6808,17.6589,1126.2722],[-96.6795,17.6539,1020.4891],[-96.6803,17.6494,1097.464],[-96.6785,17.651,1001.7843],[-96.676,17.649,959.3924],[-96.6733,17.6513,991.6212],[-96.6716,17.6477,959.0006],[-96.6726,17.6448,1036.8815],[-96.6702,17.6437,990.3359],[-96.6653,17.6462,1051.8871],[-96.6646,17.6436,1032.8555],[-96.6684,17.6412,995.5402],[-96.6699,17.6428,990.3359],[-96.6735,17.6424,1025.6217],[-96.6727,17.6363,1032.6188],[-96.6677,17.6366,987.0082],[-96.6664,17.6313,1022.5996],[-96.6637,17.6348,1012.0433],[-96.6609,17.6342,987.1949],[-96.662,17.6294,1133.5452],[-96.6584,17.6305,1037.762],[-96.6571,17.6266,999.6644],[-96.6598,17.6233,1178.9889],[-96.6542,17.6216,1037.1412],[-96.6533,17.6191,1088.4424],[-96.6469,17.6215,1052.3457],[-96.6505,17.6157,1073.147],[-96.6491,17.6095,1039.3967],[-96.6462,17.6119,1038.1544],[-96.6438,17.6073,1074.6998],[-96.6418,17.6105,1168.2203],[-96.6401,17.6104,1023.8972],[-96.6384,17.6073,1039.4515],[-96.6404,17.6022,1094.3046],[-96.6325,17.6045,1077.5342],[-96.6299,17.6034,1066.1292],[-96.6293,17.602,1061.8054],[-96.6312,17.5993,1053.9812],[-96.6299,17.5968,1096.3652],[-96.6328,17.5945,1053.9099],[-96.6432,17.5968,1134.5818],[-96.6477,17.5949,1137.0046],[-96.6544,17.586,1272.265],[-96.6539,17.5789,1460.8564],[-96.6552,17.575,1641.4977],[-96.659,17.5718,1751.3878],[-96.6585,17.5674,1861.4785],[-96.651,17.5602,1873.4956],[-96.6453,17.563,1735.4528],[-96.6345,17.5615,1401.4813],[-96.6197,17.567,1081.9316],[-96.6214,17.5603,1103.3091],[-96.6211,17.5579,1141.1862],[-96.62,17.5582,1094.6078]]]]}
,"properties": {"GID_2": "MEX.20.218_2","GID_0": "MEX","country": "México","GID_1": "MEX.20_1","province": "Oaxaca","NL_NAME_1": "NA","county": "SanJuanQuiotepec","VARNAME_2": "NA","NL_NAME_2": "NA","TYPE_2": "Município","ENGTYPE_2": "Municipality","CC_2": "NA","HASC_2": "NA","name": "San_Juan_Quiotepec.county","area_km2": 203.3401,"hist_schema_id": "Elevation0-9000","hist_area_km2": {"825": 0.0606,"850": 0.101,"875": 0.101,"900": 0.0606,"925": 0.3029,"950": 1.0505,"975": 1.3332,"1000": 1.7778,"1025": 1.9597,"1050": 2.9094,"1075": 2.9298,"1100": 3.2732,"1125": 3.7177,"1150": 3.2126,"1175": 4.4047,"1200": 3.8995,"1225": 5.0714,"1250": 3.9399,"1275": 4.1016,"1300": 4.7278,"1325": 4.6066,"1350": 4.0408,"1375": 4.8085,"1400": 4.4448,"1425": 4.5459,"1450": 4.3034,"1475": 4.1215,"1500": 4.0812,"1525": 4.6063,"1550": 4.0808,"1575": 4.2225,"1600": 3.9595,"1625": 4.7275,"1650": 4.1411,"1675": 3.8586,"1700": 3.919,"1725": 3.8181,"1750": 3.6564,"1775": 3.5957,"1800": 3.3736,"1825": 3.4342,"1850": 3.3936,"1875": 3.515,"1900": 3.5957,"1925": 3.6765,"1950": 3.2118,"1975": 2.9897,"2000": 3.4946,"2025": 3.0099,"2050": 2.9695,"2075": 2.7271,"2100": 2.4038,"2125": 2.5655,"2150": 2.3837,"2175": 1.9999,"2200": 2.2019,"2225": 2.2223,"2250": 1.7172,"2275": 1.5757,"2300": 1.4748,"2325": 1.5153,"2350": 1.4142,"2375": 1.2526,"2400": 1.5152,"2425": 1.0101,"2450": 1.0304,"2475": 1.0303,"2500": 0.8081,"2525": 1.0505,"2550": 0.788,"2575": 0.7273,"2600": 0.8082,"2625": 0.5859,"2650": 0.4243,"2675": 0.5658,"2700": 0.4243,"2725": 0.3435,"2750": 0.2627,"2775": 0.3233,"2800": 0.2021,"2825": 0.2223,"2850": 0.1212,"2875": 0.1212,"2900": 0.101,"2925": 0.1212,"2950": 0.0808,"2975": 0.0606,"3000": 0.0202}}}