{"type": "Feature","bbox": [-98.9387,19.355,-98.7992,19.436],"geometry": {"type": "MultiPolygon","coordinates": [[[[-98.7992,19.405,2764.9756],[-98.8239,19.4125,2535.8159],[-98.8276,19.4165,2505.7363],[-98.8319,19.4183,2466.6411],[-98.846,19.4161,2375.1975],[-98.8513,19.4186,2358.2322],[-98.8571,19.4186,2361.3481],[-98.863,19.4239,2324.9583],[-98.8739,19.428,2285.6562],[-98.8768,19.4348,2279.5786],[-98.8854,19.436,2267.5581],[-98.8873,19.4302,2264.9224],[-98.8929,19.4317,2257.1201],[-98.899,19.4254,2250.5835],[-98.9025,19.4243,2248.6174],[-98.9108,19.426,2242.9282],[-98.9122,19.4242,2242.9768],[-98.9244,19.4278,2233.6133],[-98.9267,19.4111,2239.6682],[-98.9251,19.4107,2239.6682],[-98.922,19.4136,2239.9253],[-98.9276,19.4048,2243.5779],[-98.9302,19.406,2242.2275],[-98.9387,19.3975,2255.7178],[-98.9344,19.3922,2251.314],[-98.9356,19.3901,2257.2664],[-98.9342,19.3895,2256.9307],[-98.9247,19.3992,2245.6262],[-98.9205,19.4009,2244.4956],[-98.9207,19.4033,2243.3115],[-98.9179,19.4062,2242.791],[-98.9119,19.4077,2245.6501],[-98.913,19.4018,2247.1787],[-98.8951,19.3977,2260.4087],[-98.8953,19.379,2323.418],[-98.8942,19.3788,2323.418],[-98.8954,19.3732,2374.8379],[-98.898,19.3734,2354.0269],[-98.8993,19.3693,2372.2051],[-98.9042,19.3657,2415.1877],[-98.9074,19.3591,2516.1616],[-98.9076,19.3566,2506.0229],[-98.9032,19.355,2634.8347],[-98.8928,19.364,2508.636],[-98.893,19.3677,2511.0688],[-98.8855,19.3731,2510.5154],[-98.8861,19.3803,2318.854],[-98.8779,19.383,2295.781],[-98.876,19.3823,2293.6707],[-98.8747,19.391,2285.0933],[-98.8531,19.3866,2370.9121],[-98.851,19.3943,2346.1936],[-98.834,19.4016,2449.8381],[-98.8115,19.4041,2667.9565],[-98.8109,19.4001,2570.3928],[-98.8012,19.399,2697.9028],[-98.7992,19.405,2764.9756]]]]}
,"properties": {"GID_2": "MEX.15.24_2","GID_0": "MEX","country": "México","GID_1": "MEX.15_1","province": "México","NL_NAME_1": "NA","county": "Chicoloapan","VARNAME_2": "NA","NL_NAME_2": "NA","TYPE_2": "Município","ENGTYPE_2": "Municipality","CC_2": "NA","HASC_2": "NA","name": "Chicoloapan.county","area_km2": 42.15524,"hist_schema_id": "Elevation0-9000","hist_area_km2": {"2225": 1.21975,"2250": 12.57811,"2275": 7.4791,"2300": 3.93966,"2325": 2.85974,"2350": 2.43975,"2375": 2.31979,"2400": 1.67989,"2425": 1.11992,"2450": 1.09993,"2475": 0.99995,"2500": 0.89996,"2525": 0.81995,"2550": 0.51996,"2575": 0.39997,"2600": 0.37996,"2625": 0.29996,"2650": 0.35996,"2675": 0.17998,"2700": 0.23997,"2725": 0.17998,"2750": 0.11999,"2775": 0.02}}}