{"type":"Feature","properties":{"GID_2":"MEX.14.111_2","GID_0":"MEX","country":"México","GID_1":"MEX.14_1","province":"Jalisco","NL_NAME_1":"NA","county":"UnióndeTula","VARNAME_2":"NA","NL_NAME_2":"NA","TYPE_2":"Município","ENGTYPE_2":"Municipality","CC_2":"NA","HASC_2":"NA","name":"Uniónde_Tula.county"},
"geometry":{"type": "MultiPolygon","coordinates": [[[[-104.2903,19.8579,913.8372],[-104.2879,19.8603,973.0181],[-104.2844,19.8775,1494.6938],[-104.2913,19.8815,1487.8567],[-104.2901,19.8837,1481.9648],[-104.2929,19.889,1497.4872],[-104.2903,19.8928,1501.0591],[-104.2881,19.8922,1496.8363],[-104.2837,19.8952,1500.4265],[-104.2788,19.8929,1514.2302],[-104.2708,19.8934,1577.6735],[-104.2702,19.8946,1574.3037],[-104.2613,19.8865,1605.7612],[-104.2582,19.8887,1585.5669],[-104.2576,19.8905,1581.2207],[-104.2597,19.8917,1601.6604],[-104.257,19.8953,1558.2],[-104.2573,19.8993,1440.7209],[-104.256,19.9011,1423.3855],[-104.2532,19.9002,1457.6863],[-104.2476,19.8947,1542.7166],[-104.2366,19.8925,1585.7124],[-104.2323,19.8875,1683.0599],[-104.2312,19.8885,1658.7229],[-104.2292,19.8865,1667.2217],[-104.2246,19.8872,1665.4529],[-104.2219,19.8902,1642.1013],[-104.2146,19.8904,1546.1511],[-104.2144,19.8937,1567.7576],[-104.2103,19.8986,1667.2635],[-104.2034,19.919,1645.8022],[-104.2024,19.9283,1615.8043],[-104.1959,19.9257,1631.7002],[-104.1918,19.9285,1653.373],[-104.1822,19.9311,1629.1995],[-104.1797,19.9357,1649.8147],[-104.1794,19.94,1648.3384],[-104.1736,19.9421,1642.8763],[-104.1738,19.9492,1626.7153],[-104.1755,19.9515,1630.3264],[-104.1735,19.9553,1634.4508],[-104.169,19.9606,1658.9324],[-104.168,19.9596,1658.6324],[-104.1629,19.964,1643.6174],[-104.1562,19.9623,1705.9265],[-104.1544,19.9633,1729.2043],[-104.1485,19.9594,1741.5439],[-104.1464,19.9592,1726.2726],[-104.1429,19.9621,1689.746],[-104.1418,19.9607,1679.8604],[-104.14,19.9617,1713.3433],[-104.1408,19.97,1624.73],[-104.1386,19.974,1571.2667],[-104.1391,19.9764,1532.9838],[-104.1348,19.9784,1517.9534],[-104.1346,19.9818,1499.5717],[-104.132,19.9811,1502.7921],[-104.1309,19.9834,1485.3273],[-104.1298,19.9826,1485.3273],[-104.1298,19.9851,1516.5509],[-104.1275,19.9857,1491.0201],[-104.1284,19.988,1490.0723],[-104.1257,19.9915,1521.3994],[-104.1259,19.9954,1534.0544],[-104.1281,19.9959,1544.2908],[-104.1272,19.9971,1564.1647],[-104.1292,19.999,1645.6228],[-104.1342,20.0011,1720.5621],[-104.1409,20.0157,1359.3098],[-104.151,20.0172,1358.9922],[-104.1538,20.0248,1379.47],[-104.1589,20.0263,1395.5665],[-104.1613,20.0287,1431.3422],[-104.1636,20.0283,1448.6715],[-104.1646,20.0302,1477.0135],[-104.161,20.0305,1404.2539],[-104.1698,20.0313,1444.1753],[-104.1722,20.0289,1457.038],[-104.1802,20.0311,1503.9937],[-104.1799,20.0259,1522.1255],[-104.1812,20.0257,1508.7469],[-104.1823,20.028199999999998,1511.0195],[-104.1835,20.0279,1526.1215],[-104.183,20.0311,1528.8186],[-104.1874,20.0321,1522.6068],[-104.1883,20.0347,1530.8988],[-104.1923,20.0339,1526.5648],[-104.1952,20.0379,1540.3047],[-104.1926,20.0414,1566.7545],[-104.1938,20.0443,1603.1892],[-104.1916,20.0538,1938.084],[-104.1786,20.0672,1672.5482],[-104.1788,20.0704,1633.6835],[-104.1826,20.0749,1488.135],[-104.1825,20.0824,1397.0181],[-104.187,20.088,1344.5465],[-104.1854,20.091,1351.2039],[-104.1891,20.0951,1368.2404],[-104.1845,20.0964,1369.2483],[-104.1831,20.1005,1373.1847],[-104.1789,20.1037,1391.9889],[-104.1812,20.1105,1402.4985],[-104.1808,20.1228,1447.5199],[-104.1829,20.127,1459.635],[-104.1764,20.1418,1440.8929],[-104.1763,20.1467,1441.8986],[-104.1811,20.1505,1434.3982],[-104.1807,20.1487,1434.2957],[-104.1842,20.1426,1433.8308],[-104.193,20.1397,1433.1115],[-104.2072,20.1423,1434.1809],[-104.2099,20.1403,1452.104],[-104.2055,20.1396,1446.225],[-104.2052,20.1329,1508.0175],[-104.2145,20.127,1481.9099],[-104.2204,20.1185,1502.1233],[-104.2345,20.1169,1646.4783],[-104.2421,20.1276,1417.0994],[-104.2438,20.1249,1428.2539],[-104.2538,20.1225,1404.8757],[-104.2598,20.116,1407.0442],[-104.2635,20.1148,1396.2852],[-104.2713,20.1157,1392.9321],[-104.269,20.1117,1485.3223],[-104.2692,20.1061,1443.1685],[-104.272,20.0965,1389.937],[-104.2659,20.0913,1411.6771],[-104.2734,20.0937,1418.9382],[-104.2793,20.0929,1403.2921],[-104.2795,20.0954,1395.1072],[-104.281,20.0932,1403.2921],[-104.2837,20.0946,1409.6782],[-104.2824,20.097,1398.3253],[-104.2878,20.0951,1401.376],[-104.2892,20.0893,1480.6652],[-104.2977,20.0863,1406.064],[-104.302,20.0867,1369.3545],[-104.3064,20.0789,1348.1019],[-104.3025,20.0764,1341.2026],[-104.3048,20.073,1341.9612],[-104.3046,20.0707,1342.2063],[-104.2997,20.0689,1344.2606],[-104.2981,20.0641,1355.0365],[-104.3032,20.0604,1360.519],[-104.3122,20.0614,1331.0],[-104.3135,20.0596,1335.6447],[-104.3096,20.0516,1333.6796],[-104.3151,20.0492,1348.8951],[-104.3155,20.0449,1331.0],[-104.3201,20.046,1338.2638],[-104.3247,20.0522,1341.9445],[-104.3284,20.0531,1352.4675],[-104.3312,20.0599,1397.7185],[-104.3369,20.0546,1381.9293],[-104.3387,20.0507,1351.5173],[-104.3404,20.0504,1327.9381],[-104.3357,20.0483,1317.8922],[-104.3358,20.0444,1303.783],[-104.3305,20.0408,1306.2942],[-104.3285,20.0344,1274.2346],[-104.3226,20.0295,1262.835],[-104.323,20.0278,1252.0967],[-104.3263,20.0279,1253.3728],[-104.3265,20.0262,1251.0651],[-104.3228,20.0245,1256.4469],[-104.3175,20.0259,1244.4039],[-104.3208,20.0206,1302.1696],[-104.319,20.0178,1237.8892],[-104.3208,20.0159,1236.2751],[-104.3198,20.0129,1235.7687],[-104.3216,20.0092,1234.5],[-104.3186,20.0003,1256.5078],[-104.3218,19.9946,1234.5],[-104.3242,19.9958,1249.9557],[-104.3326,19.9947,1234.5],[-104.3344,19.9915,1268.2614],[-104.3367,19.992,1259.5762],[-104.3401,20.0008,1234.5],[-104.3428,20.0024,1240.0885],[-104.345,19.9981,1234.5],[-104.3441,19.988,1234.5],[-104.3467,19.9872,1234.5],[-104.3514,19.9897,1234.5],[-104.357,19.989,1234.5],[-104.3564,19.9859,1234.5],[-104.3604,19.9822,1234.5],[-104.3637,19.9849,1234.5],[-104.3658,19.9831,1234.5],[-104.3651,19.9758,1234.5],[-104.3759,19.9756,1166.8816],[-104.3766,19.9687,1165.1207],[-104.375,19.9635,1149.2706],[-104.3708,19.959,1146.2731],[-104.3752,19.9523,1179.5442],[-104.3763,19.9447,1153.8297],[-104.3733,19.9411,1163.1782],[-104.3733,19.9369,1128.4524],[-104.3764,19.9349,1065.8315],[-104.377,19.9321,1063.2747],[-104.3632,19.9231,1045.2528],[-104.3622,19.913,1058.6079],[-104.3645,19.9082,1051.1542],[-104.3616,19.9048,1074.4791],[-104.3562,19.9038,1009.6722],[-104.356,19.8973,1031.4778],[-104.353,19.8903,993.3998],[-104.3509,19.8889,977.2716],[-104.3458,19.8898,987.8121],[-104.3408,19.8871,1001.909],[-104.3419,19.883,964.1001],[-104.3396,19.8811,972.4691],[-104.3334,19.8852,994.0436],[-104.3315,19.8776,952.3995],[-104.3215,19.877,949.7238],[-104.3185,19.872,1008.1535],[-104.3146,19.8705,1024.5],[-104.3082,19.8709,972.4709],[-104.305,19.8638,990.3297],[-104.2903,19.8579,913.8372]]]]}}