{"type":"Feature","properties":{"featurecla":"River","scalerank":6,"rivernum":232,"dissolve":"232River","name":"Ro6","name_alt":null,"note":null,"min_zoom":5.0,"strokeweig":0.2,"name_en":"Ro Grande de Santiago","min_label":6.0},
"geometry":{"type": "LineString","coordinates": [[-102.780517578125,20.30988190311912,1519.0],[-102.75810546874999,20.34601471561912,1523.8239],[-102.754638671875,20.35919830936912,1527.6444],[-102.76425781249999,20.375848699994123,1528.1655],[-102.78549804687499,20.37775299686912,1528.0156],[-102.80766601562499,20.39044830936912,1528.1077],[-102.81699218749999,20.392694403119123,1526.8695],[-102.85905761718749,20.391473699994123,1525.4457],[-102.874267578125,20.39423248905662,1566.3047],[-102.90117187499999,20.404901434369123,1546.3586],[-102.915283203125,20.40839264530662,1567.4264],[-102.93833007812499,20.40924713749412,1527.059],[-102.946044921875,20.411151434369117,1526.9764],[-102.97250976562499,20.42426178593162,1524.9161],[-102.99040527343749,20.42767975468162,1523.6255],[-103.00961914062499,20.42792389530662,1522.3807],[-103.02873535156249,20.42548248905662,1525.8521],[-103.08212890624999,20.412469793744123,1681.4951],[-103.10039062499999,20.41388580936912,1679.5282],[-103.114990234375,20.423456121869123,1620.7686],[-103.11767578125,20.428338934369123,1569.0366],[-103.12138671874999,20.439081121869123,1528.4158],[-103.12436523437499,20.44367096561912,1518.3743],[-103.12924804687499,20.44733307499412,1517.7211],[-103.134375,20.448846746869123,1514.6089],[-103.14560546874999,20.45087311405662,1510.2772],[-103.15483398437499,20.454217840619123,1508.5979],[-103.16374511718749,20.459247137494117,1520.4326],[-103.16777343749999,20.462274481244123,1598.3961],[-103.17131347656249,20.46576569218162,1613.3816],[-103.17436523437499,20.46967194218162,1550.6956],[-103.17685546874999,20.473993231244123,1519.0549],[-103.17954101562499,20.495868231244117,1509.8392],[-103.17270507812499,20.519794012494117,1507.5605],[-103.14104003906249,20.58966705936912,1417.7688],[-103.13566894531249,20.619256903119123,1381.5922],[-103.13828125,20.62677643436912,1367.8359],[-103.16162109375,20.631708074994123,1450.3376],[-103.17021484374999,20.63666412968162,1446.142],[-103.17661132812499,20.643085028119117,1436.2391],[-103.18115234375,20.64960358280662,1377.6279],[-103.18505859375,20.65985748905662,1386.7046],[-103.18803710937499,20.67987702030662,1419.4764],[-103.19482421875,20.691180731244117,1499.5522],[-103.2001220703125,20.69647858280662,1533.2092],[-103.21445312499999,20.707049871869117,1570.2158],[-103.22099609375,20.710711981244117,1469.4169],[-103.22714843749999,20.71246979374412,1240.3026],[-103.240283203125,20.71332428593162,1442.999],[-103.24667968749999,20.714471746869123,1282.7148],[-103.2521240234375,20.716815496869117,1220.2148],[-103.2557861328125,20.719745184369117,1278.5627],[-103.273681640625,20.740741278119117,1337.166],[-103.28037109374999,20.74555084843162,1394.4502],[-103.2880126953125,20.748651434369123,1303.577],[-103.30039062499999,20.75031159061912,1126.171],[-103.31235351562499,20.750506903119117,985.4646],[-103.323974609375,20.752313543744123,1436.7002],[-103.3353759765625,20.75861237186912,1490.3262],[-103.344970703125,20.771258856244117,1574.0631],[-103.34604492187499,20.784295965619123,1437.6956],[-103.32841796875,20.831170965619123,923.9036],[-103.32553710937499,20.84808991093162,904.905],[-103.327880859375,20.86481354374412,946.4],[-103.3363525390625,20.88336823124412,976.349],[-103.3644287109375,20.93060944218162,1070.7075],[-103.37534179687499,20.95624420780662,974.9337],[-103.37973632812499,20.98261139530662,1191.0864],[-103.38413085937499,20.99298737186912,1073.1145],[-103.4033203125,21.011102606244123,852.3446],[-103.40771484375,21.016717840619123,849.248],[-103.420703125,21.047479559369123,964.6424],[-103.43808593749999,21.056659246869117,942.2821],[-103.4666015625,21.06305573124412,1092.8734],[-103.4970703125,21.06256744999412,1154.1228],[-103.52060546874999,21.050897528119123,1024.8962],[-103.52377929687499,21.038592840619117,839.1613],[-103.523193359375,21.02142975468162,839.1479],[-103.5245849609375,21.006219793744123,996.6335],[-103.533984375,20.99970123905662,1246.9203],[-103.54575195312499,20.996112371869117,1581.8186],[-103.592041015625,20.97235748905662,1224.8708]]}}