{"type":"Feature","properties":{"featurecla":"Lake Centerline","scalerank":6,"rivernum":232,"dissolve":"232Lake Centerline","name":"Ro4","name_alt":null,"note":null,"min_zoom":5.0,"strokeweig":0.2,"name_en":"Ro Grande de Santiago","min_label":6.0},
"geometry":{"type": "LineString","coordinates": [[-103.708740234375,20.937616278119123,1440.4294],[-103.70346679687499,20.93060944218162,1141.7632],[-103.69267578125,20.92084381718162,1090.4224],[-103.67856445312499,20.91681549686912,1249.3741],[-103.66538085937499,20.918329168744123,1034.3015],[-103.651904296875,20.92426178593162,898.5979],[-103.63925781249999,20.932001043744123,791.9826],[-103.6268798828125,20.94428131718162,730.0],[-103.618212890625,20.95184967655662,795.3679],[-103.60576171875,20.96552155155662,860.1191],[-103.5944091796875,20.971210028119117,1147.4994]]}}