{"type":"Feature","properties":{"GID_2":"MEX.21.180_2","GID_0":"MEX","country":"México","GID_1":"MEX.21_1","province":"Puebla","NL_NAME_1":"NA","county":"Tlahuapan","VARNAME_2":"NA","NL_NAME_2":"NA","TYPE_2":"Município","ENGTYPE_2":"Municipality","CC_2":"NA","HASC_2":"NA","name":"Tlahuapan.county"},
"geometry":{"type": "MultiPolygon","coordinates": [[[[-98.6319,19.2639,3246.229],[-98.6293,19.2619,3290.8137],[-98.6279,19.2579,3287.4556],[-98.6251,19.2573,3293.3301],[-98.6222,19.2518,3330.7427],[-98.6196,19.2519,3314.2092],[-98.6208,19.2537,3319.8452],[-98.6187,19.2547,3310.9519],[-98.6169,19.259,3233.1909],[-98.6147,19.2591,3208.9417],[-98.6135,19.2544,3240.3457],[-98.611,19.2538,3233.7168],[-98.6109,19.2517,3203.2856],[-98.604,19.2486,3217.2278],[-98.6048,19.2421,3215.4072],[-98.6027,19.2377,3221.5081],[-98.5949,19.2344,3161.9978],[-98.5951,19.2379,3139.0334],[-98.589,19.2401,3063.9229],[-98.5876,19.2353,3114.6497],[-98.5862,19.2373,3033.8389],[-98.5789,19.2395,2984.9333],[-98.581,19.2413,2966.8196],[-98.5836,19.2393,2975.3027],[-98.5849,19.24,2975.3027],[-98.5835,19.2432,3008.1345],[-98.5799,19.2457,2867.2192],[-98.581,19.248,2849.7817],[-98.5842,19.2485,2876.8057],[-98.579,19.251,2787.583],[-98.581,19.2534,2789.2256],[-98.5845,19.2534,2869.3643],[-98.5842,19.2546,2856.9917],[-98.5867,19.2561,2885.6616],[-98.5838,19.2564,2872.6323],[-98.5856,19.2596,2919.6531],[-98.5726,19.2583,2711.0359],[-98.5461,19.2668,2535.1572],[-98.545,19.2677,2524.6262],[-98.5474,19.2717,2539.3535],[-98.5456,19.2721,2507.0459],[-98.5459,19.2755,2501.9463],[-98.5307,19.2754,2446.6753],[-98.5304,19.2771,2449.9956],[-98.5258,19.2771,2430.9663],[-98.5251,19.2834,2428.1069],[-98.5264,19.288,2426.8069],[-98.5055,19.2901,2368.498],[-98.506,19.298,2378.1572],[-98.5015,19.3095,2352.5955],[-98.5256,19.3071,2400.4685],[-98.5214,19.3147,2386.1953],[-98.5305,19.3163,2448.6978],[-98.5292,19.3166,2433.0498],[-98.538,19.3228,2489.2476],[-98.5387,19.3267,2504.7805],[-98.5448,19.3251,2520.3992],[-98.5427,19.3307,2514.6741],[-98.5488,19.3329,2538.564],[-98.5488,19.3373,2541.1506],[-98.5297,19.3414,2475.9177],[-98.5293,19.3497,2475.3098],[-98.5333,19.3655,2420.5244],[-98.5286,19.3679,2399.7336],[-98.531,19.3697,2429.2866],[-98.5315,19.3725,2442.0735],[-98.5274,19.3733,2405.585],[-98.5268,19.3749,2415.8645],[-98.5246,19.3741,2423.1572],[-98.515,19.3774,2427.9004],[-98.5132,19.3733,2414.0383],[-98.508,19.3727,2404.6035],[-98.5067,19.3809,2419.6477],[-98.5035,19.3856,2370.5803],[-98.504,19.3872,2372.6316],[-98.5083,19.3883,2390.0383],[-98.5066,19.3896,2387.624],[-98.5065,19.3926,2411.9248],[-98.4997,19.3944,2423.9255],[-98.4949,19.3938,2430.876],[-98.4882,19.3917,2375.0486],[-98.487,19.3896,2379.8147],[-98.4873,19.3977,2381.4814],[-98.4905,19.4041,2404.1499],[-98.4985,19.4165,2422.4602],[-98.5037,19.4204,2453.8164],[-98.5062,19.426,2458.0024],[-98.5074,19.4254,2489.7288],[-98.5103,19.428,2465.8323],[-98.5127,19.4355,2523.2988],[-98.5163,19.4392,2547.01],[-98.519,19.4509,2597.958],[-98.5232,19.4609,2765.248],[-98.5352,19.4623,2912.5828],[-98.5438,19.4604,2900.4749],[-98.5579,19.4626,2813.4185],[-98.5703,19.4668,2810.4126],[-98.5913,19.4492,2769.3684],[-98.6092,19.4506,2890.063],[-98.6294,19.457,3259.0732],[-98.6341,19.4678,3252.8154],[-98.6405,19.4633,3371.3191],[-98.6532,19.466,3346.9202],[-98.6614,19.4581,3479.282],[-98.6348,19.4312,3134.615],[-98.6371,19.426,3167.7358],[-98.6389,19.4301,3163.7954],[-98.6412,19.4271,3195.9297],[-98.6502,19.4346,3279.8591],[-98.6488,19.4316,3278.3618],[-98.6602,19.4321,3411.418],[-98.6566,19.426,3349.1062],[-98.6563,19.4221,3356.7292],[-98.6618,19.4129,3372.9185],[-98.6586,19.4094,3346.7434],[-98.66,19.4047,3379.0771],[-98.6628,19.403,3362.1902],[-98.6571,19.3971,3208.3574],[-98.6564,19.386,3211.8271],[-98.6581,19.3827,3109.7134],[-98.6555,19.3735,3001.4766],[-98.6506,19.3646,2912.4158],[-98.6404,19.3647,2899.6853],[-98.6381,19.3589,2840.627],[-98.6397,19.3569,2847.6699],[-98.6443,19.3582,2922.6655],[-98.6445,19.352,2895.687],[-98.6549,19.3493,2948.0073],[-98.6606,19.3517,2977.1357],[-98.6635,19.3248,3274.3772],[-98.6319,19.2639,3246.229]]]]}}