{"type":"Feature","properties":{"GID_2":"MEX.9.14_2","GID_0":"MEX","country":"México","GID_1":"MEX.9_1","province":"DistritoFederal","NL_NAME_1":"NA","county":"Tlalpan","VARNAME_2":"NA","NL_NAME_2":"NA","TYPE_2":"Município","ENGTYPE_2":"Municipality","CC_2":"NA","HASC_2":"NA","name":"Tlalpan.county"},
"geometry":{"type": "MultiPolygon","coordinates": [[[[-99.2199,19.3123,2397.8662],[-99.2249,19.3106,2407.5605],[-99.2277,19.307,2431.2297],[-99.2319,19.305,2453.9375],[-99.2333,19.2966,2505.9189],[-99.236,19.2945,2510.137],[-99.2414,19.294,2532.4443],[-99.2427,19.2923,2525.1738],[-99.2428,19.2894,2528.1021],[-99.2408,19.287,2554.624],[-99.2454,19.277,2602.0508],[-99.2435,19.2756,2605.8809],[-99.2446,19.2729,2630.8657],[-99.2435,19.2698,2725.248],[-99.2471,19.2647,2772.6472],[-99.2455,19.2629,2819.9124],[-99.2472,19.2603,2829.6582],[-99.2439,19.2592,2860.9375],[-99.2454,19.2573,2875.5835],[-99.2446,19.2527,2902.917],[-99.248,19.2467,2956.7205],[-99.2504,19.2457,2999.262],[-99.2534,19.2348,3089.4968],[-99.2707,19.2242,3338.7139],[-99.2742,19.221,3394.5664],[-99.2742,19.2182,3422.0122],[-99.2772,19.2148,3427.2036],[-99.2824,19.2131,3438.9492],[-99.2932,19.2139,3459.0676],[-99.2967,19.2178,3477.644],[-99.3014,19.2182,3508.4026],[-99.3057,19.2222,3593.9468],[-99.3156,19.2274,3766.6836],[-99.3162,19.2215,3808.3923],[-99.3071,19.2137,3702.4463],[-99.3028,19.1909,3621.1777],[-99.2876,19.1466,3046.7595],[-99.2787,19.1317,3049.9868],[-99.2268,19.0961,3173.8682],[-99.1365,19.0894,3446.6584],[-99.1633,19.1175,3291.2366],[-99.1525,19.1421,2986.1721],[-99.1496,19.1603,2902.9731],[-99.1445,19.1587,2913.8359],[-99.1404,19.1522,2992.4495],[-99.1324,19.1486,3126.4551],[-99.1302,19.1525,3143.8574],[-99.1325,19.153,3114.4419],[-99.1328,19.1549,3102.9631],[-99.13,19.1722,2950.3306],[-99.1324,19.1785,2883.1677],[-99.1271,19.1873,2737.1909],[-99.1307,19.1913,2682.0283],[-99.1293,19.203,2547.6152],[-99.1324,19.2065,2536.3486],[-99.1328,19.21,2532.5408],[-99.1383,19.215699999999998,2724.3701],[-99.1544,19.2206,2756.4385],[-99.1535,19.2218,2756.4385],[-99.1525,19.2205,2704.9944],[-99.1512,19.2234,2577.5859],[-99.1534,19.226,2699.8582],[-99.1507,19.2347,2542.1458],[-99.1495,19.234,2542.1458],[-99.1482,19.2363,2497.7981],[-99.1479,19.2346,2498.0728],[-99.1445,19.2345,2444.1836],[-99.1475,19.2403,2455.5562],[-99.144,19.2397,2418.9312],[-99.1443,19.2447,2410.0942],[-99.1404,19.2436,2387.8079],[-99.1389,19.246,2385.0244],[-99.1417,19.249,2488.052],[-99.1394,19.2547,2446.5132],[-99.1424,19.2602,2352.8967],[-99.1424,19.2666,2284.6438],[-99.1449,19.2674,2291.9888],[-99.1412,19.2735,2285.0356],[-99.1411,19.2825,2246.7759],[-99.1351,19.2825,2243.1084],[-99.1249,19.2852,2241.2231],[-99.105,19.2935,2234.0994],[-99.1014,19.2952,2236.2002],[-99.1009,19.3,2232.9702],[-99.1092,19.2996,2232.7874],[-99.1168,19.3014,2235.1538],[-99.1347,19.3083,2242.001],[-99.1426,19.2996,2243.113],[-99.1474,19.3013,2246.4297],[-99.1516,19.298,2250.446],[-99.1567,19.2968,2249.4558],[-99.1602,19.3006,2261.7712],[-99.1656,19.3017,2260.752],[-99.1793,19.3034,2289.843],[-99.1963,19.3023,2340.0093],[-99.2154,19.3076,2394.7173],[-99.2199,19.3123,2397.8662]]]]}}