{"type":"Feature","properties":{"GID_2":"MEX.28.12_2","GID_0":"MEX","country":"México","GID_1":"MEX.28_1","province":"Tamaulipas","NL_NAME_1":"NA","county":"GómezFarías","VARNAME_2":"NA","NL_NAME_2":"NA","TYPE_2":"Município","ENGTYPE_2":"Municipality","CC_2":"NA","HASC_2":"NA","name":"Gómez_Farías.county"},
"geometry":{"type": "MultiPolygon","coordinates": [[[[-99.0162,22.8337,70.3889],[-99.0187,22.8358,62.0672],[-99.0216,22.8437,62.9946],[-99.0181,22.8539,61.8823],[-99.0177,22.8619,67.8983],[-99.014,22.8653,67.2199],[-99.0114,22.8741,74.3012],[-99.0123,22.8905,71.5245],[-99.0064,22.9088,71.6978],[-99.0073,22.919,70.8111],[-99.004,22.927,70.4646],[-98.9941,22.9313,72.8742],[-98.9927,22.9334,81.7154],[-98.9947,22.9424,73.7771],[-98.9986,22.9506,81.6581],[-98.9955,22.957,76.5033],[-98.9967,22.9659,79.7583],[-98.993,22.9722,85.1844],[-98.9945,22.9745,83.7881],[-98.9935,22.9829,86.5824],[-98.9953,22.9868,83.9675],[-98.9986,22.9865,85.6548],[-99.004,22.9903,86.2426],[-99.0085,22.9954,86.8885],[-99.0089,22.9989,84.3078],[-99.0125,23.0008,83.8935],[-99.0168,23.0016,83.5891],[-99.021,22.998,88.704],[-99.0308,22.9978,87.0189],[-99.0348,23.0008,90.8845],[-99.0343,23.0042,89.7358],[-99.0378,23.0038,88.4568],[-99.0414,23.0058,89.0186],[-99.0485,23.0045,90.8995],[-99.0476,23.0073,90.1053],[-99.0507,23.0052,92.9345],[-99.0543,23.0057,92.6504],[-99.0592,23.0095,95.9668],[-99.0627,23.0086,93.758],[-99.0662,23.0139,93.1315],[-99.0698,23.0119,93.9406],[-99.0708,23.0161,93.4876],[-99.0748,23.0139,96.7068],[-99.0718,23.0165,93.9415],[-99.0709,23.0165,93.4876],[-99.0688,23.0283,94.6107],[-99.0876,23.0277,101.8304],[-99.0883,23.0322,100.4252],[-99.0954,23.0324,99.8661],[-99.0989,23.0353,102.153],[-99.1008,23.0393,101.6247],[-99.1097,23.0407,109.7682],[-99.1101,23.0441,104.385],[-99.105,23.0449,102.5331],[-99.1085,23.0493,103.771],[-99.1062,23.052,107.4448],[-99.1064,23.056,106.0769],[-99.1084,23.0585,104.2131],[-99.1064,23.0648,110.1326],[-99.1084,23.0666,108.8931],[-99.1114,23.0645,113.871],[-99.1169,23.064,110.4021],[-99.118,23.0656,108.3069],[-99.1212,23.065,111.7937],[-99.1242,23.0672,109.9751],[-99.1219,23.07,109.4109],[-99.1232,23.0722,110.768],[-99.1225,23.0764,112.8296],[-99.1247,23.079,111.7093],[-99.13,23.0794,118.0067],[-99.1262,23.0866,116.2685],[-99.127,23.0908,115.9279],[-99.1349,23.0905,119.6564],[-99.1395,23.0946,133.1433],[-99.1393,23.0971,118.5054],[-99.1349,23.0989,120.1081],[-99.1419,23.1059,124.9674],[-99.1436,23.1106,124.1381],[-99.142,23.1139,127.4489],[-99.1481,23.1228,132.2889],[-99.1448,23.1252,136.2095],[-99.1483,23.1295,137.4704],[-99.1439,23.1291,137.4564],[-99.1435,23.1309,139.3908],[-99.1492,23.1341,138.6633],[-99.1854,23.127,844.7145],[-99.1859,23.1508,726.476],[-99.2672,23.1433,1847.5488],[-99.2688,23.1315,2050.9575],[-99.3083,23.1479,1474.2397],[-99.3464,23.1441,1390.3208],[-99.3585,23.0604,1239.7268],[-99.3581,23.0164,1249.4609],[-99.3299,22.9788,1291.6826],[-99.2829,22.9677,1141.0598],[-99.2897,22.9634,1321.6003],[-99.2056,22.9423,308.0079],[-99.198,22.9422,340.8365],[-99.1631,22.949,542.4653],[-99.1567,22.9222,385.2635],[-99.1476,22.9224,321.6213],[-99.1453,22.9128,267.8219],[-99.141,22.9128,147.9223],[-99.1348,22.8874,130.9741],[-99.1366,22.8871,170.2512],[-99.1291,22.8657,184.9145],[-99.139,22.8539,185.6506],[-99.1431,22.8536,146.346],[-99.1432,22.8424,125.0317],[-99.1189,22.8402,213.9038],[-99.1182,22.8388,208.0562],[-99.1121,22.8379,91.6503],[-99.1213,22.8538,95.5925],[-99.1138,22.8586,83.2569],[-99.1073,22.8602,76.066],[-99.1039,22.857,74.003],[-99.0951,22.8567,74.5865],[-99.0902,22.8536,74.483],[-99.086,22.8475,71.222],[-99.0708,22.8339,72.3632],[-99.067,22.8341,69.8614],[-99.0607,22.8379,69.6293],[-99.0535,22.8362,68.3923],[-99.0418,22.8363,66.3769],[-99.0373,22.8375,65.7337],[-99.0338,22.8424,68.5824],[-99.0325,22.8379,66.7782],[-99.0303,22.8368,69.3817],[-99.028,22.8388,68.2243],[-99.028,22.842,68.3167],[-99.025,22.8431,66.6877],[-99.0199,22.8352,69.1787],[-99.0162,22.8337,70.3889]]]]}}