{"type": "Feature","bbox": [-102.0959,20.7715,-101.7854,21.1099],"geometry": {"type": "MultiPolygon","coordinates": [[[[-101.8177,21.107,1871.864],[-101.8238,21.1031,1859.8623],[-101.8271,21.103,1825.9578],[-101.828,21.1001,1839.5729],[-101.8367,21.0998,1781.3475],[-101.8375,21.0968,1780.0023],[-101.8713,21.0953,1841.6033],[-101.875,21.0929,1833.3965],[-101.8778,21.0854,1808.1132],[-101.875,21.0759,1805.1938],[-101.8749,21.0701,1806.9517],[-101.8929,21.0558,1841.1942],[-101.8945,21.0512,1848.0059],[-101.9013,21.053,1851.7288],[-101.9003,21.0501,1859.005],[-101.8966,21.0478,1870.9636],[-101.9023,21.0321,1859.8784],[-101.9066,21.0288,2035.0338],[-101.9051,21.0234,2110.2522],[-101.9054,21.0118,2186.8574],[-101.9077,21.0061,2142.9463],[-101.9101,21.005,2148.4277],[-101.9082,21.0045,2131.5916],[-101.9087,20.9986,2096.9189],[-101.9208,20.984,2025.2705],[-101.9247,20.9832,2015.9869],[-101.9245,20.9786,1978.6783],[-101.9257,20.978,1970.7251],[-101.9222,20.9719,2007.0409],[-101.9314,20.9671,1970.9218],[-101.9311,20.9632,1968.078],[-101.9348,20.9605,1959.1812],[-101.9332,20.9575,1945.7872],[-101.9371,20.9558,1905.5262],[-101.9391,20.9502,1852.9226],[-101.9378,20.9457,1846.7717],[-101.9395,20.9425,1855.7357],[-101.9382,20.9403,1796.6714],[-101.9391,20.9381,1791.8433],[-101.9372,20.936,1788.8396],[-101.9381,20.9349,1791.8029],[-101.9368,20.9348,1784.4257],[-101.9384,20.9341,1791.8029],[-101.9389,20.9306,1786.4856],[-101.9421,20.9281,1804.9553],[-101.9449,20.9303,1842.2865],[-101.9439,20.9321,1916.9003],[-101.9462,20.9307,1928.2056],[-101.9579,20.9352,1979.6873],[-101.9631,20.9225,1921.5151],[-101.9646,20.9239,1920.9225],[-101.9799,20.925,1919.0706],[-101.9811,20.9148,1884.9917],[-101.988,20.9127,1838.8845],[-101.9892,20.9102,1827.4508],[-101.994,20.9077,1808.2599],[-101.9946,20.9054,1795.5505],[-101.999,20.9018,1781.7256],[-101.999,20.8998,1789.723],[-102.0033,20.8977,1772.4764],[-102.0051,20.89,1772.7933],[-102.0084,20.8854,1777.4811],[-102.0133,20.8827,1770.2711],[-102.018,20.8833,1778.2798],[-102.0161,20.8783,1759.2573],[-102.0126,20.8783,1757.8792],[-102.0152,20.875,1770.1375],[-102.015,20.8695,1776.0018],[-102.0218,20.8622,1764.2389],[-102.0338,20.8531,1774.4618],[-102.0386,20.8474,1769.0857],[-102.042,20.8461,1773.3098],[-102.0529,20.8476,1776.7407],[-102.0577,20.8433,1780.7345],[-102.0632,20.8417,1786.4244],[-102.0644,20.8382,1788.9308],[-102.0699,20.8391,1797.5631],[-102.0737,20.8379,1798.7422],[-102.0735,20.8363,1789.0004],[-102.0768,20.8346,1789.7773],[-102.0764,20.8311,1796.0503],[-102.0782,20.8313,1793.0425],[-102.08,20.8287,1797.86],[-102.0774,20.8247,1814.3926],[-102.0762,20.8182,1815.0596],[-102.0777,20.8156,1829.8961],[-102.077,20.8114,1820.4954],[-102.0786,20.8076,1826.5337],[-102.0813,20.8057,1820.0227],[-102.0799,20.8018,1822.707],[-102.0852,20.8,1836.5681],[-102.0871,20.8015,1832.1777],[-102.0903,20.7963,1847.1602],[-102.0897,20.7911,1893.8708],[-102.0923,20.7898,1914.2697],[-102.0959,20.7801,2077.8967],[-102.0905,20.7807,2012.0247],[-102.0909,20.7785,2060.272],[-102.0866,20.779,1945.7933],[-102.0825,20.7772,2142.1602],[-102.0811,20.7715,2164.1729],[-102.0789,20.7741,2097.4448],[-102.0784,20.7718,2164.1938],[-102.0761,20.7722,2136.4529],[-102.0736,20.7768,2079.9375],[-102.0674,20.7716,2178.0674],[-102.066,20.776,1992.1945],[-102.069,20.7818,1962.324],[-102.0697,20.7879,1932.7345],[-102.0619,20.788,1916.9418],[-102.0535,20.8155,1801.7708],[-102.0495,20.8147,1810.3534],[-102.0453,20.8183,1810.3063],[-102.0478,20.8195,1819.9052],[-102.0379,20.8229,1824.4766],[-102.0338,20.8229,1793.9761],[-102.0326,20.8198,1795.2727],[-102.0169,20.8242,1771.325],[-102.0043,20.8225,1749.7118],[-102.0044,20.8252,1745.387],[-101.9972,20.8242,1735.1654],[-101.999,20.8331,1795.6838],[-101.996,20.8352,1800.9343],[-101.9384,20.829,1727.4087],[-101.9385,20.823,1727.709],[-101.9412,20.8206,1726.7516],[-101.9349,20.8101,1726.1832],[-101.903,20.8262,1732.8398],[-101.9031,20.8307,1730.3834],[-101.8854,20.8733,1732.8049],[-101.8867,20.904,1735.7832],[-101.8641,20.9676,1745.2576],[-101.8604,20.9707,1748.8285],[-101.8627,20.9729,1746.8873],[-101.8612,20.978,1747.4905],[-101.863,20.9819,1747.0737],[-101.8613,20.9852,1748.6167],[-101.8593,20.985,1748.3002],[-101.8565,20.997,1751.056],[-101.8721,21.0031,1750.4137],[-101.8736,21.0042,1751.8329],[-101.8745,21.0098,1753.2288],[-101.8735,21.0205,1757.5757],[-101.8695,21.02,1756.1234],[-101.8695,21.0382,1775.2129],[-101.8649,21.0392,1787.1981],[-101.8649,21.0405,1789.0359],[-101.8624,21.0388,1800.3663],[-101.8553,21.038,1780.9171],[-101.8441,21.0399,1772.4224],[-101.8425,21.0455,1794.3738],[-101.8391,21.0445,1774.5101],[-101.8359,21.0478,1773.573],[-101.8357,21.0556,1782.6213],[-101.8335,21.0532,1771.9965],[-101.8315,21.0541,1770.054],[-101.8292,21.0528,1768.2544],[-101.829,21.0461,1766.7289],[-101.821,21.0471,1798.6603],[-101.8189,21.0451,1775.1383],[-101.8223,21.038,1766.3103],[-101.821,21.0359,1766.3423],[-101.7854,21.0489,1774.4895],[-101.7882,21.0493,1777.0737],[-101.7901,21.053,1844.9308],[-101.8008,21.0506,1837.5621],[-101.8013,21.0556,1878.3611],[-101.8032,21.052,1824.2159],[-101.8089,21.052,1833.1111],[-101.8071,21.0597,1882.9939],[-101.8077,21.0682,1899.6526],[-101.8049,21.0765,1887.5256],[-101.8013,21.0771,1908.6449],[-101.8005,21.0809,1914.2378],[-101.8055,21.0832,1897.1992],[-101.8055,21.0856,1876.895],[-101.8084,21.0859,1857.3149],[-101.8118,21.0959,1851.4757],[-101.8092,21.1099,1901.7468],[-101.8177,21.107,1871.864]]]]}
,"properties": {"GID_2": "MEX.11.24_2","GID_0": "MEX","country": "México","GID_1": "MEX.11_1","province": "Guanajuato","NL_NAME_1": "NA","county": "PurísimadelRincón","VARNAME_2": "NA","NL_NAME_2": "NA","TYPE_2": "Município","ENGTYPE_2": "Municipality","CC_2": "NA","HASC_2": "NA","name": "Purísimadel_Rincón.county","area_km2": 290.3205,"hist_schema_id": "Elevation0-9000","hist_area_km2": {"1725": 68.2536,"1750": 67.6075,"1775": 39.5766,"1800": 33.0019,"1825": 26.2149,"1850": 18.71,"1875": 12.6762,"1900": 6.3182,"1925": 3.1095,"1950": 3.129,"1975": 2.7131,"2000": 2.4752,"2025": 1.8614,"2050": 1.5445,"2075": 1.2872,"2100": 0.7722,"2125": 0.792,"2150": 0.2378,"2175": 0.0396}}}