{"type": "Feature","bbox": [-93.9465,16.2966,-93.4825,16.8524],"geometry": {"type": "MultiPolygon","coordinates": [[[[-93.7475,16.3145,999.0486],[-93.7368,16.3146,1263.1254],[-93.7196,16.3074,1616.6943],[-93.7078,16.3128,1627.0549],[-93.7036,16.3105,1703.886],[-93.693,16.2966,1376.7228],[-93.6896,16.2966,1408.2241],[-93.6886,16.2996,1414.6011],[-93.6859,16.3015,1448.7266],[-93.6867,16.3044,1451.3662],[-93.6846,16.3071,1531.3718],[-93.6866,16.3123,1723.0378],[-93.6817,16.3129,1846.0022],[-93.6784,16.3213,1648.1597],[-93.6739,16.3244,1689.9609],[-93.6496,16.3069,1652.9985],[-93.6492,16.3352,1156.3502],[-93.6437,16.34,1011.1893],[-93.6443,16.3421,965.2591],[-93.6492,16.3426,936.0759],[-93.6468,16.3502,993.5701],[-93.6366,16.3667,1138.6097],[-93.6159,16.3721,1057.6304],[-93.6096,16.3978,1305.7273],[-93.5964,16.4045,1185.5023],[-93.5913,16.4043,1314.8286],[-93.5728,16.3981,1207.4158],[-93.5679,16.4022,1164.6692],[-93.5557,16.4011,928.3153],[-93.5758,16.4348,954.2831],[-93.5592,16.4326,995.1251],[-93.5626,16.4386,906.3375],[-93.5485,16.4378,1084.4142],[-93.5485,16.4311,1074.743],[-93.5474,16.4309,1060.0651],[-93.5464,16.4376,1022.4106],[-93.5403,16.4355,969.8792],[-93.5208,16.4437,1030.1887],[-93.5192,16.4466,967.306],[-93.5127,16.4474,838.8694],[-93.5116,16.4499,793.6562],[-93.5109,16.4622,918.5332],[-93.5259,16.4696,1229.6985],[-93.527,16.4961,954.669],[-93.5206,16.4882,775.8427],[-93.518,16.5216,619.907],[-93.5202,16.5225,637.245],[-93.5188,16.5238,627.5965],[-93.5253,16.5323,612.0427],[-93.5172,16.5309,656.0797],[-93.4969,16.5397,657.535],[-93.4944,16.5423,672.5357],[-93.4925,16.5498,753.4718],[-93.4872,16.5593,822.6653],[-93.496,16.5615,866.1152],[-93.4915,16.5721,793.7682],[-93.4947,16.5732,765.4946],[-93.4949,16.5767,768.9337],[-93.4905,16.5768,807.3528],[-93.4909,16.5895,982.5474],[-93.4825,16.6052,790.6107],[-93.487799999999993,16.6119,846.13],[-93.5124,16.6305,697.316],[-93.5151,16.6287,645.4095],[-93.519,16.6337,707.804],[-93.515,16.6375,737.1816],[-93.5145,16.6405,821.3302],[-93.5228,16.6452,672.6406],[-93.5259,16.6508,664.0807],[-93.5344,16.6465,681.1527],[-93.5347,16.6532,601.5002],[-93.529,16.6559,684.7281],[-93.5285,16.6628,758.8537],[-93.5304,16.6686,758.6669],[-93.5277,16.6697,761.8276],[-93.5283,16.6708,777.9808],[-93.5445,16.6746,726.7068],[-93.544,16.6722,700.2715],[-93.5495,16.6737,629.8447],[-93.5504,16.679,627.33],[-93.5638,16.6866,488.077],[-93.5606,16.689,483.179],[-93.5579,16.7029,481.5428],[-93.5498,16.707,492.9694],[-93.5433,16.7156,494.5375],[-93.5418,16.7266,479.346],[-93.5456,16.7243,558.4299],[-93.5448,16.7283,617.7349],[-93.5429,16.7293,638.9532],[-93.5379,16.7278,558.385],[-93.5377,16.7303,497.9408],[-93.5349,16.7317,534.9122],[-93.5312,16.7382,579.6399],[-93.5323,16.7418,533.0851],[-93.5284,16.742,585.8517],[-93.5298,16.7477,651.5157],[-93.5272,16.7508,653.5707],[-93.5271,16.7582,596.0029],[-93.5253,16.7611,601.5771],[-93.5264,16.7635,554.543],[-93.5307,16.7649,508.8243],[-93.5368,16.7741,608.9715],[-93.542,16.7786,514.8369],[-93.5396,16.7824,561.2723],[-93.5415,16.7882,531.8726],[-93.5402,16.795,497.2993],[-93.5374,16.7968,690.0968],[-93.5395,16.8018,531.8262],[-93.533,16.8081,462.2278],[-93.5291,16.8083,560.2675],[-93.5283,16.8099,656.029],[-93.5301,16.8137,501.4857],[-93.5291,16.8191,754.2347],[-93.5329,16.8208,468.8585],[-93.5292,16.8264,708.4103],[-93.5312,16.8327,470.0354],[-93.5335,16.8342,605.2637],[-93.5413,16.8314,442.4162],[-93.5395,16.8406,645.9147],[-93.5438,16.844,548.0579],[-93.5449,16.8502,608.1023],[-93.5516,16.8524,580.9265],[-93.5544,16.8507,434.035],[-93.5573,16.8521,526.2642],[-93.5639,16.8505,455.7615],[-93.5645,16.849,509.6548],[-93.5619,16.8453,681.9062],[-93.5627,16.8469,646.3445],[-93.5584,16.8491,556.1298],[-93.5562,16.8489,534.2941],[-93.5553,16.8468,705.1077],[-93.5808,16.8232,778.9473],[-93.5878,16.8199,773.2233],[-93.5866,16.8179,781.6913],[-93.5825,16.8188,670.7083],[-93.5838,16.8151,762.8149],[-93.5825,16.8145,678.9059],[-93.5843,16.8113,687.5311],[-93.5884,16.8091,685.2044],[-93.5876,16.8061,688.2292],[-93.5907,16.8023,697.8738],[-93.5899,16.8011,698.1242],[-93.6337,16.7978,997.5226],[-93.6454,16.7931,987.8027],[-93.6463,16.7689,1094.5669],[-93.644,16.7662,1088.0336],[-93.6429,16.7508,669.6459],[-93.6599,16.7396,596.6707],[-93.6658,16.721,636.0444],[-93.6668,16.7088,546.3487],[-93.6699,16.7082,538.3711],[-93.6715,16.706,539.9507],[-93.6694,16.7055,543.7498],[-93.6709,16.6981,532.1594],[-93.6694,16.6982,534.2833],[-93.6696,16.6965,529.7217],[-93.6804,16.696,522.6079],[-93.6807,16.6942,523.9904],[-93.6712,16.6908,520.7294],[-93.6687,16.6877,520.1233],[-93.6717,16.6868,521.0023],[-93.687,16.691,534.5075],[-93.69,16.6602,603.8267],[-93.6977,16.6466,576.2527],[-93.6964,16.6449,614.9413],[-93.6951,16.6207,615.6122],[-93.701,16.6229,625.5074],[-93.7073,16.6059,742.1741],[-93.7058,16.6039,723.5272],[-93.7138,16.5987,847.287],[-93.7172,16.5677,687.4747],[-93.7256,16.5702,691.5115],[-93.7273,16.5686,626.7056],[-93.7311,16.5712,694.9734],[-93.7352,16.5717,654.5034],[-93.7361,16.5668,608.8508],[-93.7414,16.5695,615.4435],[-93.7445,16.5652,658.451],[-93.7532,16.5474,793.4885],[-93.7456,16.5296,716.3957],[-93.7581,16.504,710.9309],[-93.7658,16.5045,791.925],[-93.7816,16.5007,712.8187],[-93.7864,16.5014,768.2237],[-93.7935,16.499,864.3333],[-93.8076,16.4997,847.563],[-93.8336,16.4754,678.3616],[-93.8459,16.4859,710.6982],[-93.8479,16.4837,703.6959],[-93.8554,16.4856,681.105],[-93.8561,16.4838,683.5777],[-93.8602,16.4869,680.0161],[-93.8738,16.4732,770.6002],[-93.8706,16.4596,849.119],[-93.881,16.4506,846.2266],[-93.8801,16.4492,821.6807],[-93.8883,16.4434,925.1443],[-93.8942,16.4413,995.3252],[-93.931,16.4423,1353.0398],[-93.9388,16.4185,887.1725],[-93.9359,16.4185,901.1907],[-93.9373,16.4102,936.6113],[-93.9236,16.4065,978.3911],[-93.9247,16.4009,1066.0187],[-93.9393,16.3981,1155.1946],[-93.9262,16.3921,1233.7073],[-93.9209,16.3774,1156.0916],[-93.9262,16.3733,1089.7432],[-93.9366,16.3693,1045.9231],[-93.9449,16.374,974.4002],[-93.9465,16.3687,1199.2299],[-93.9267,16.3615,1557.2449],[-93.929,16.3562,1379.7191],[-93.9036,16.3555,904.6228],[-93.9046,16.3518,1089.5111],[-93.8965,16.3518,826.7375],[-93.8994,16.3484,1005.7219],[-93.8666,16.3443,782.1559],[-93.8569,16.3397,739.2253],[-93.846,16.3314,926.5922],[-93.8525,16.3275,786.861],[-93.8512,16.3244,734.7173],[-93.8446,16.3215,829.325],[-93.8323,16.3268,625.651],[-93.8352,16.3307,597.2589],[-93.8277,16.3347,560.9531],[-93.8224,16.3458,926.9313],[-93.8174,16.3508,865.6697],[-93.8205,16.3458,955.8575],[-93.8146,16.3436,991.0925],[-93.7924,16.3446,960.2218],[-93.7827,16.3376,923.7704],[-93.7519,16.3271,1094.0026],[-93.7475,16.3145,999.0486]]]]}
,"properties": {"GID_2": "MEX.5.46_2","GID_0": "MEX","country": "México","GID_1": "MEX.5_1","province": "Chiapas","NL_NAME_1": "NA","county": "Jiquipilas","VARNAME_2": "NA","NL_NAME_2": "NA","TYPE_2": "Município","ENGTYPE_2": "Municipality","CC_2": "NA","HASC_2": "NA","name": "Jiquipilas.county","area_km2": 1306.007,"hist_schema_id": "Elevation0-9000","hist_area_km2": {"400": 0.02,"425": 0.183,"450": 0.365,"475": 1.36,"500": 25.572,"525": 76.686,"550": 91.717,"575": 103.954,"600": 112.201,"625": 111.012,"650": 95.573,"675": 81.769,"700": 73.167,"725": 62.613,"750": 60.814,"775": 51.401,"800": 45.389,"825": 37.141,"850": 32.282,"875": 28.765,"900": 25.47,"925": 23.985,"950": 20.611,"975": 18.559,"1000": 14.901,"1025": 12.931,"1050": 11.711,"1075": 11.102,"1100": 10.044,"1125": 8.338,"1150": 6.651,"1175": 6.875,"1200": 5.756,"1225": 5.513,"1250": 4.597,"1275": 4.028,"1300": 3.113,"1325": 2.828,"1350": 2.482,"1375": 1.505,"1400": 1.668,"1425": 1.506,"1450": 1.2,"1475": 0.956,"1500": 0.794,"1525": 0.916,"1550": 0.814,"1575": 0.692,"1600": 0.631,"1625": 0.671,"1650": 0.529,"1675": 0.488,"1700": 0.448,"1725": 0.366,"1750": 0.305,"1775": 0.387,"1800": 0.224,"1825": 0.203,"1850": 0.122,"1875": 0.102}}}