{"type": "Feature","bbox": [-89.7284,20.2465,-89.4275,20.4833],"geometry": {"type": "MultiPolygon","coordinates": [[[[-89.5263,20.4833,27.1923],[-89.5269,20.4818,25.7321],[-89.5402,20.4757,27.1011],[-89.5425,20.4574,25.4837],[-89.568,20.4602,28.2855],[-89.5756,20.4639,28.9532],[-89.5896,20.4651,28.8964],[-89.5898,20.4604,29.6847],[-89.579,20.4602,28.6311],[-89.5802,20.4471,27.7532],[-89.5861,20.4474,27.19],[-89.5873,20.445,27.2139],[-89.5872,20.4423,27.6688],[-89.582,20.4411,27.2296],[-89.5843,20.4323,25.5073],[-89.5754,20.43,27.3001],[-89.5775,20.4239,27.8787],[-89.5584,20.4154,29.4391],[-89.5643,20.4022,26.0642],[-89.5776,20.4097,27.9384],[-89.5751,20.4159,27.4591],[-89.5804,20.4184,29.2178],[-89.5791,20.4209,28.0658],[-89.5951,20.4259,30.0235],[-89.5955,20.4247,29.7302],[-89.5972,20.4259,29.6338],[-89.5991,20.4217,30.1481],[-89.6138,20.4298,35.9221],[-89.615,20.4274,58.237],[-89.6189,20.4291,81.7573],[-89.6292,20.425,71.9639],[-89.6342,20.413,41.0937],[-89.6276,20.4008,49.0988],[-89.6778,20.4139,49.0521],[-89.6947,20.3855,40.1721],[-89.7205,20.3934,61.8677],[-89.7284,20.3487,66.0555],[-89.7252,20.3485,64.9171],[-89.7241,20.3543,63.9257],[-89.7098,20.3552,66.1588],[-89.7098,20.3576,61.1448],[-89.673,20.3458,57.3622],[-89.6821,20.3736,52.299],[-89.6569,20.3713,50.306399999999996],[-89.656,20.3622,58.2266],[-89.6432,20.3608,65.3661],[-89.6417,20.3482,60.4233],[-89.6348,20.3502,61.579],[-89.6225,20.3676,59.87],[-89.6173,20.3698,60.3307],[-89.6159,20.3691,60.3307],[-89.6185,20.3632,63.4449],[-89.6057,20.3571,57.7905],[-89.5979,20.3574,50.933],[-89.5972,20.354,55.4767],[-89.6039,20.3473,46.2855],[-89.6039,20.3387,48.9487],[-89.6015,20.3327,55.1713],[-89.6025,20.3253,47.2163],[-89.6162,20.3037,60.1616],[-89.6177,20.2945,54.7585],[-89.6177,20.288,61.2128],[-89.5978,20.2875,61.717],[-89.5938,20.284,65.788],[-89.6015,20.2731,52.8975],[-89.5913,20.272,45.1285],[-89.5789,20.268,55.846],[-89.5399,20.265,50.2168],[-89.5417,20.2497,48.8045],[-89.5072,20.2465,45.0412],[-89.5048,20.2612,49.1361],[-89.4797,20.2572,55.9846],[-89.4748,20.2745,97.4875],[-89.4725,20.2904,79.221],[-89.5038,20.3086,75.7347],[-89.5197,20.3121,94.3864],[-89.5189,20.3286,94.5661],[-89.5245,20.3428,105.8069],[-89.4825,20.3184,88.4451],[-89.4856,20.3076,65.358],[-89.4686,20.3025,79.6517],[-89.4441,20.3158,60.9499],[-89.4429,20.3171,38.6803],[-89.446,20.3211,27.2036],[-89.441,20.33,29.9326],[-89.4382,20.3285,33.7919],[-89.4364,20.3313,30.2716],[-89.4309,20.3316,30.5583],[-89.4275,20.3368,29.0233],[-89.4374,20.34,29.1232],[-89.44,20.3477,29.2685],[-89.4468,20.3485,29.9517],[-89.4461,20.3543,29.0353],[-89.4564,20.3582,31.3303],[-89.4629,20.3429,30.0215],[-89.4684,20.3358,28.1722],[-89.4759,20.341,28.4907],[-89.4752,20.3471,28.5937],[-89.4801,20.3467,32.1696],[-89.4804,20.3507,30.1279],[-89.4788,20.3509,29.0855],[-89.4758,20.356,27.6641],[-89.4802,20.3553,27.3777],[-89.4802,20.3526,28.7573],[-89.4917,20.3615,27.801],[-89.4904,20.3657,25.7429],[-89.4885,20.3656,28.0724],[-89.4891,20.3693,28.7785],[-89.5044,20.3715,28.3504],[-89.4988,20.3736,27.9826],[-89.4982,20.3808,30.7229],[-89.4896,20.3755,26.3879],[-89.4832,20.3754,28.0171],[-89.4835,20.3813,31.9487],[-89.486,20.3855,31.9733],[-89.4908,20.3864,30.4689],[-89.4896,20.3914,26.2593],[-89.4854,20.3909,29.0196],[-89.4837,20.3945,28.3065],[-89.5096,20.3983,29.5499],[-89.5058,20.4028,27.4295],[-89.5085,20.4116,27.8454],[-89.4982,20.4157,26.8388],[-89.4979,20.4197,28.6568],[-89.4952,20.4201,24.9774],[-89.4955,20.4227,28.7255],[-89.5044,20.424,25.9582],[-89.494,20.4314,27.9972],[-89.4938,20.4391,27.4834],[-89.5041,20.4424,30.3235],[-89.5036,20.4495,30.6826],[-89.5021,20.4543,28.4472],[-89.5003,20.4551,28.3999],[-89.4986,20.467,29.0098],[-89.5055,20.4668,29.401],[-89.5032,20.4755,26.8044],[-89.5053,20.4763,26.0226],[-89.5093,20.4746,28.3121],[-89.5163,20.476,27.1502],[-89.5157,20.4801,26.6236],[-89.5263,20.4833,27.1923]]]]}
,"properties": {"GID_2": "MEX.31.89_2","GID_0": "MEX","country": "México","GID_1": "MEX.31_1","province": "Yucatán","NL_NAME_1": "NA","county": "Ticul","VARNAME_2": "NA","NL_NAME_2": "NA","TYPE_2": "Município","ENGTYPE_2": "Municipality","CC_2": "NA","HASC_2": "NA","name": "Ticul.county","area_km2": 340.3036,"hist_schema_id": "Elevation0-9000","hist_area_km2": {"25": 100.9457,"50": 150.7713,"75": 45.7057,"100": 26.9788,"125": 15.2265,"150": 0.6757}}}