{"type": "Feature","bbox": [-89.5007,21.0227,-89.3859,21.0899],"geometry": {"type": "MultiPolygon","coordinates": [[[[-89.4315,21.0897,9.3178],[-89.4331,21.0899,8.7187],[-89.441,21.0829,8.111],[-89.4454,21.0841,8.0056],[-89.4458,21.0776,9.3791],[-89.4497,21.0782,8.3591],[-89.4512,21.0758,8.3669],[-89.4598,21.0714,10.1459],[-89.4653,21.0714,10.8269],[-89.4671,21.0663,10.4842],[-89.4849,21.0835,8.8506],[-89.5007,21.0643,8.4249],[-89.4933,21.0554,9.0396],[-89.4935,21.051,9.8005],[-89.491,21.0509,8.5346],[-89.493,21.0443,8.3008],[-89.4969,21.045,8.8952],[-89.498,21.0386,7.8585],[-89.4891,21.0394,7.4685],[-89.4804,21.0364,9.5159],[-89.46,21.034,10.4051],[-89.4693,21.029,9.6492],[-89.4655,21.0286,8.2715],[-89.4665,21.0227,9.1431],[-89.4603,21.0233,10.112],[-89.4583,21.0299,8.1917],[-89.4562,21.0298,8.7791],[-89.4549,21.033,9.1759],[-89.4524,21.0332,8.4253],[-89.4522,21.0372,10.4714],[-89.4447,21.0397,10.7499],[-89.4417,21.0369,10.8766],[-89.4393,21.0369,11.0208],[-89.439,21.039,10.5002],[-89.4426,21.0403,10.254],[-89.4388,21.0416,10.5469],[-89.4389,21.0398,10.5002],[-89.4296,21.0384,9.123],[-89.4298,21.0364,10.366],[-89.4238,21.0366,10.1462],[-89.4239,21.0335,9.5691],[-89.4217,21.0333,8.357],[-89.4189,21.0333,9.0172],[-89.418,21.0362,9.6009],[-89.4156,21.036,10.516],[-89.4151,21.0402,10.3183],[-89.4124,21.04,10.1014],[-89.4109,21.0357,10.4846],[-89.4123,21.0342,10.7811],[-89.3992,21.0304,10.5761],[-89.4009,21.0389,8.0416],[-89.4,21.0432,9.8434],[-89.3965,21.0536,10.5912],[-89.3891,21.0489,10.7514],[-89.3859,21.0624,9.4688],[-89.3871,21.068,9.337],[-89.3939,21.0694,8.968],[-89.394,21.0734,10.0391],[-89.3975,21.0732,9.2862],[-89.3974,21.0762,9.2149],[-89.3998,21.0756,8.9534],[-89.4001,21.0734,7.4186],[-89.3999,21.0717,8.2035],[-89.3982,21.072,10.2299],[-89.3977,21.0664,7.9575],[-89.4017,21.0666,10.0795],[-89.4064,21.0705,10.2027],[-89.415,21.072,8.0005],[-89.414,21.0801,10.9346],[-89.4175,21.0807,10.6333],[-89.4181,21.0876,10.7362],[-89.4315,21.0897,9.3178]]]]}
,"properties": {"GID_2": "MEX.31.105_2","GID_0": "MEX","country": "México","GID_1": "MEX.31_1","province": "Yucatán","NL_NAME_1": "NA","county": "Yaxkukul","VARNAME_2": "NA","NL_NAME_2": "NA","TYPE_2": "Município","ENGTYPE_2": "Municipality","CC_2": "NA","HASC_2": "NA","name": "Yaxkukul.county","area_km2": 49.86164,"hist_schema_id": "Elevation0-9000","hist_area_km2": {"0": 49.82206,"25": 0.03957}}}