{"type": "Feature","bbox": [-102.1621,22.166,-101.7813,22.3814],"geometry": {"type": "MultiPolygon","coordinates": [[[[-101.9994,22.2195,2023.0012],[-101.9854,22.2187,2060.6304],[-101.97,22.2307,2075.197],[-101.9414,22.223,2290.9561],[-101.9355,22.2237,2243.5562],[-101.9188,22.2208,2294.0278],[-101.9171,22.2213,2294.0278],[-101.9173,22.2233,2287.7288],[-101.9161,22.2216,2289.1792],[-101.9109,22.2231,2280.5581],[-101.9089,22.2221,2279.2429],[-101.8958,22.2253,2224.6541],[-101.8954,22.2196,2224.6948],[-101.8971,22.2181,2203.0469],[-101.8973,22.2118,2217.2278],[-101.8996,22.2069,2219.3713],[-101.8946,22.2058,2242.1562],[-101.8917,22.1988,2256.5107],[-101.8839,22.1911,2273.4827],[-101.8796,22.184,2285.0454],[-101.8691,22.1769,2339.6116],[-101.8719,22.1747,2388.4031],[-101.8712,22.1725,2363.5256],[-101.8586,22.1681,2283.5823],[-101.8419,22.1737,2286.6594],[-101.8388,22.1725,2283.8738],[-101.8274,22.1744,2269.5859],[-101.8102,22.1728,2302.5203],[-101.7839,22.166,2276.4595],[-101.7822,22.1683,2273.207],[-101.7836,22.1756,2264.2112],[-101.7813,22.1781,2265.0493],[-101.7977,22.1866,2428.3979],[-101.8128,22.1849,2296.9106],[-101.8135,22.1875,2309.7866],[-101.8186,22.1909,2423.5093],[-101.817,22.2088,2272.3772],[-101.8218,22.2159,2241.7236],[-101.8206,22.2235,2251.0693],[-101.8227,22.2258,2234.8643],[-101.82,22.2311,2208.1753],[-101.8152,22.2334,2204.2317],[-101.8158,22.2413,2194.9124],[-101.8132,22.2425,2195.0105],[-101.809,22.2406,2201.6636],[-101.8021,22.2439,2195.5476],[-101.7994,22.2426,2209.3789],[-101.7984,22.2451,2206.8164],[-101.8007,22.2455,2193.6702],[-101.7988,22.2488,2196.8799],[-101.7972,22.2485,2205.4468],[-101.7968,22.2499,2200.6042],[-101.7916,22.2492,2207.7329],[-101.7897,22.2595,2176.0547],[-101.7831,22.2616,2175.9692],[-101.7979,22.2645,2159.6948],[-101.7922,22.2994,2143.7788],[-101.8492,22.2955,2134.5276],[-101.8467,22.3022,2142.3291],[-101.8493,22.3035,2144.2197],[-101.8496,22.3066,2149.0889],[-101.8586,22.3128,2177.2756],[-101.8635,22.3236,2179.9771],[-101.8712,22.3225,2177.0273],[-101.8703,22.3238,2171.1963],[-101.8757,22.3258,2167.0906],[-101.8853,22.3254,2141.7744],[-101.9005,22.3295,2240.7124],[-101.9064,22.3318,2195.7949],[-101.9074,22.3345,2188.7261],[-101.9117,22.3377,2191.2412],[-101.9232,22.3427,2193.5625],[-101.9257,22.3457,2146.5854],[-101.9304,22.3476,2177.7358],[-101.9335,22.3462,2177.4282],[-101.9366,22.3498,2186.7876],[-101.9416,22.3491,2147.6355],[-101.9433,22.351,2116.7285],[-101.9464,22.3495,2118.8398],[-101.9501,22.3525,2105.8345],[-101.9785,22.3533,2069.0342],[-101.9784,22.3549,2069.5286],[-101.9844,22.3554,2061.6602],[-101.9849,22.3534,2059.5647],[-101.9864,22.3534,2059.5647],[-101.9865,22.3502,2058.7258],[-101.9888,22.3496,2056.8433],[-101.9981,22.35,2047.0605],[-101.9983,22.3484,2046.375],[-102.0059,22.3483,2040.2622],[-102.0193,22.3492,2032.125],[-102.0186,22.3604,2033.7123],[-102.0841,22.3609,2058.437],[-102.1068,22.3795,2114.262],[-102.1246,22.3812,2070.9746],[-102.1275,22.3814,2066.5496],[-102.1329,22.3787,2070.2407],[-102.1359,22.3746,2061.3376],[-102.1397,22.3726,2063.6328],[-102.1407,22.3678,2052.0361],[-102.1491,22.3665,2043.3251],[-102.1621,22.3485,1995.7782],[-102.1498,22.3472,2027.6338],[-102.1532,22.2904,2218.7947],[-102.1066,22.2854,2154.9797],[-102.1078,22.2827,2160.606],[-102.1052,22.2808,2161.6599],[-102.0909,22.2912,2132.45],[-102.0896,22.289,2120.5708],[-102.0756,22.3061,2050.8569],[-102.0567,22.2999,2035.4127],[-102.0576,22.2961,2039.5536],[-102.0557,22.2953,2039.4934],[-102.0584,22.2937,2042.6692],[-102.0512,22.2912,2039.7509],[-102.0435,22.2939,2029.2528],[-102.0418,22.2952,2028.5017],[-102.0423,22.297,2026.7719],[-102.0373,22.299,2023.8136],[-102.0318,22.2889,2021.5291],[-102.0299,22.289,2021.5935],[-102.028,22.2787,2021.6169],[-102.0298,22.2784,2020.5735],[-102.0292,22.269,2021.4435],[-102.0223,22.2458,2019.7445],[-102.0225,22.2416,2020.6777],[-102.0025,22.2414,2020.7737],[-101.9997,22.2337,2017.2616],[-101.9994,22.2195,2023.0012]]]]}
,"properties": {"GID_2": "MEX.32.24_2","GID_0": "MEX","country": "México","GID_1": "MEX.32_1","province": "Zacatecas","NL_NAME_1": "NA","county": "Loreto","VARNAME_2": "NA","NL_NAME_2": "NA","TYPE_2": "Município","ENGTYPE_2": "Municipality","CC_2": "NA","HASC_2": "NA","name": "Loreto.county","area_km2": 429.7661,"hist_schema_id": "Elevation0-9000","hist_area_km2": {"2000": 0.3137,"2025": 91.0197,"2050": 41.5647,"2075": 32.9102,"2100": 30.7339,"2125": 40.2738,"2150": 59.9165,"2175": 40.5363,"2200": 27.784,"2225": 16.6397,"2250": 12.9142,"2275": 13.3091,"2300": 9.0111,"2325": 5.1238,"2350": 4.103,"2375": 2.2969,"2400": 1.2172,"2425": 0.0785,"2450": 0.0196}}}