{"type": "Feature","bbox": [-105.5248,22.5372,-104.8927,23.0841],"geometry": {"type": "MultiPolygon","coordinates": [[[[-105.0033,22.977,554.5573],[-105.0138,22.9777,1061.8142],[-105.076,22.9596,1676.6974],[-105.1636,22.9539,1352.7838],[-105.2541,22.9563,237.6424],[-105.2977,22.9542,1006.1395],[-105.3236,22.9413,393.591],[-105.3283,22.943,514.0417],[-105.3284,22.947,480.3533],[-105.3304,22.9477,474.583],[-105.3282,22.9526,436.6397],[-105.332,22.9517,446.634],[-105.3341,22.9534,449.3189],[-105.3308,22.9632,436.988],[-105.3357,22.9626,451.5594],[-105.3373,22.9641,470.9998],[-105.3371,22.9677,448.6149],[-105.339,22.9664,452.7033],[-105.343,22.9682,472.6533],[-105.3425,22.9704,472.6845],[-105.3384,22.9697,476.5112],[-105.3368,22.9712,477.4845],[-105.3395,22.9761,497.5023],[-105.3363,22.9805,498.9713],[-105.3401,22.9825,498.7511],[-105.3367,22.9847,502.2513],[-105.3351,22.9888,511.8028],[-105.339,22.9929,533.8113],[-105.3337,22.9947,537.8014],[-105.3386,22.9996,546.9746],[-105.341,23.0084,603.6567],[-105.3441,23.0078,587.1492],[-105.345,23.0099,589.4907],[-105.3431,23.0123,618.9529],[-105.3494,23.0149,634.5151],[-105.3495,23.0172,627.0159],[-105.3537,23.0194,688.5697],[-105.3525,23.0248,694.1592],[-105.3533,23.0285,697.5886],[-105.3508,23.0356,814.5365],[-105.3552,23.0385,858.9069],[-105.3561,23.0442,877.1316],[-105.3588,23.0463,882.0103],[-105.3551,23.0471,899.9712],[-105.354,23.0503,928.2407],[-105.3509,23.0509,923.0835],[-105.3529,23.0553,912.9595],[-105.3503,23.0602,917.808],[-105.3581,23.0635,964.1145],[-105.3561,23.0651,966.723],[-105.359,23.0671,971.7972],[-105.3573,23.0719,1035.3064],[-105.3583,23.0739,993.1887],[-105.3613,23.0734,1005.2421],[-105.3645,23.0752,1012.8295],[-105.3679,23.0741,1027.7784],[-105.3754,23.079,1091.2681],[-105.3779,23.0778,1075.1554],[-105.3804,23.0789,1120.709],[-105.3812,23.0822,1126.7631],[-105.3833,23.0816,1112.7594],[-105.387,23.0837,1153.9891],[-105.3897,23.0823,1149.5686],[-105.3922,23.0841,1153.9869],[-105.413,23.0741,1650.4255],[-105.4131,23.0643,1497.4691],[-105.4104,23.0601,1387.8688],[-105.412,23.0483,1258.0203],[-105.4099,23.0444,1238.0846],[-105.4116,23.0412,1123.088],[-105.4101,23.0391,1091.4919],[-105.4132,23.0371,1172.0938],[-105.409,23.0236,958.6363],[-105.4326,23.024,1583.626],[-105.4533,22.9774,1045.5226],[-105.5013,22.9586,895.6523],[-105.4961,22.9342,1060.7324],[-105.4987,22.9336,1188.8545],[-105.4712,22.8833,773.8056],[-105.4753,22.8806,674.9637],[-105.4842,22.8587,498.4452],[-105.4747,22.8517,497.6346],[-105.4752,22.8499,394.8211],[-105.4769,22.85,418.2694],[-105.4792,22.842,379.4922],[-105.482,22.8421,380.4958],[-105.4872,22.8391,385.9768],[-105.4857,22.8353,348.6152],[-105.4883,22.8323,331.9911],[-105.4877,22.831,328.4218],[-105.4866,22.8316,334.7898],[-105.4888,22.8296,324.6119],[-105.4877,22.826,319.9348],[-105.4902,22.8244,318.1821],[-105.4934,22.8262,343.1361],[-105.4929,22.8214,303.1966],[-105.4959,22.8174,308.8318],[-105.4934,22.8152,294.2343],[-105.4965,22.814,295.165],[-105.4949,22.813,292.701],[-105.495,22.8105,274.9656],[-105.4989,22.8111,275.1431],[-105.5005,22.8094,272.6213],[-105.5024,22.8098,277.3332],[-105.5028,22.8063,261.5011],[-105.505,22.8065,253.6881],[-105.5062,22.8046,252.426],[-105.5052,22.8031,255.716],[-105.5065,22.7977,243.6021],[-105.5112,22.7969,232.7959],[-105.5113,22.794,227.3671],[-105.509,22.7944,247.2229],[-105.5092,22.7922,247.7232],[-105.5114,22.7909,223.291],[-105.5116,22.7891,242.0863],[-105.515,22.7879,220.8367],[-105.5149,22.7857,223.5486],[-105.5191,22.7839,219.6753],[-105.5165,22.7806,220.7554],[-105.5199,22.7728,216.1438],[-105.5226,22.7756,208.3928],[-105.5248,22.7748,192.6722],[-105.5194,22.759,323.7662],[-105.5141,22.7593,310.2625],[-105.5153,22.7395,199.275],[-105.5229,22.7243,126.9123],[-105.5115,22.6852,187.8286],[-105.4981,22.6514,264.5427],[-105.4591,22.6605,68.219],[-105.4607,22.6637,65.0368],[-105.4547,22.6657,101.2909],[-105.4533,22.6607,66.5239],[-105.4055,22.6559,254.1417],[-105.4032,22.6237,235.3553],[-105.3833,22.5653,237.4025],[-105.3664,22.5658,79.4233],[-105.3483,22.5685,44.3359],[-105.3246,22.567,69.929],[-105.324,22.5713,81.3224],[-105.2684,22.5687,141.0539],[-105.2681,22.5837,213.8063],[-105.2456,22.5874,518.8992],[-105.2304,22.5587,167.5684],[-105.2282,22.5579,158.1713],[-105.2272,22.5603,148.3279],[-105.2256,22.5598,172.4656],[-105.2224,22.5556,187.2704],[-105.2196,22.5545,277.1752],[-105.2185,22.5515,250.3717],[-105.2113,22.546,333.8865],[-105.2114,22.5444,332.0685],[-105.2091,22.5451,345.2841],[-105.2072,22.5402,389.5135],[-105.2029,22.5372,489.321],[-105.1997,22.5386,557.5676],[-105.1762,22.5383,955.0262],[-105.1716,22.5461,1442.2688],[-105.1652,22.5487,1385.5879],[-105.1619,22.5512,1252.4385],[-105.1613,22.5537,1230.3875],[-105.1565,22.5561,1091.0066],[-105.1521,22.5642,866.1876],[-105.1491,22.5617,775.4088],[-105.1394,22.5598,761.8628],[-105.1281,22.5658,793.978],[-105.1225,22.5643,739.1947],[-105.1209,22.5687,690.5216],[-105.1145,22.5676,790.6662],[-105.1117,22.5705,830.8865],[-105.107,22.582,1109.5522],[-105.1028,22.5834,1174.9492],[-105.1013,22.5862,1212.8735],[-105.0974,22.5857,1279.3123],[-105.1158,22.6144,1688.7732],[-105.0861,22.6148,1980.4911],[-105.0724,22.6565,1716.5312],[-105.0684,22.6784,1826.1647],[-105.0573,22.6881,1769.5081],[-104.8927,22.7374,864.9668],[-104.913,22.7456,486.6588],[-104.9156,22.7485,460.7375],[-104.9143,22.7603,434.4693],[-104.9115,22.7692,414.9421],[-104.9134,22.7753,535.7089],[-104.9097,22.7844,431.2224],[-104.9134,22.7905,489.7573],[-104.9104,22.7952,414.6702],[-104.9066,22.7962,432.0136],[-104.9056,22.7996,413.8812],[-104.911,22.8013,461.2816],[-104.9113,22.8034,438.1723],[-104.9084,22.8054,454.0164],[-104.9083,22.8076,421.1534],[-104.9115,22.8093,421.9998],[-104.912,22.8122,468.9514],[-104.9184,22.8198,424.5382],[-104.9298,22.8264,449.7336],[-104.9342,22.8273,470.8811],[-104.936,22.8265,458.2039],[-104.9405,22.8162,451.3587],[-104.9517,22.8218,470.7942],[-104.955,22.8162,533.618],[-104.959,22.8136,491.4945],[-104.965,22.8156,479.363],[-104.9674,22.8193,451.6332],[-104.9711,22.8206,448.3038],[-104.9717,22.8247,473.7762],[-104.9783,22.8262,478.8359],[-104.9815,22.8324,497.635],[-104.9884,22.836,469.5649],[-104.9896,22.8396,480.991],[-104.9875,22.8462,478.4265],[-104.9906,22.8521,485.377],[-104.9879,22.8555,480.6801],[-104.9885,22.875,478.8503],[-104.9897,22.8761,468.1551],[-104.987,22.8808,499.3385],[-104.98779999999999,22.8883,509.1552],[-104.9896,22.8914,480.796],[-104.9943,22.8923,486.041],[-105.0004,22.9003,500.0039],[-105.0051,22.9036,489.24],[-105.0055,22.9071,510.9705],[-105.0014,22.906,482.9224],[-105.0001,22.9089,536.1013],[-105.01,22.9224,541.5267],[-105.0099,22.9265,534.3026],[-105.0042,22.932,540.7856],[-105.004,22.9407,612.2427],[-104.9969,22.952,614.4963],[-104.998,22.9572,542.1559],[-105.0032,22.9601,622.0796],[-105.0083,22.9685,594.2378],[-105.0082,22.9715,604.4731],[-105.0033,22.977,554.5573]]]]}
,"properties": {"GID_2": "MEX.18.7_2","GID_0": "MEX","country": "México","GID_1": "MEX.18_1","province": "Nayarit","NL_NAME_1": "NA","county": "Huajicori","VARNAME_2": "NA","NL_NAME_2": "NA","TYPE_2": "Município","ENGTYPE_2": "Municipality","CC_2": "NA","HASC_2": "NA","name": "Huajicori.county","area_km2": 2243.112,"hist_schema_id": "Elevation0-9000","hist_area_km2": {"25": 0.666,"50": 18.418,"75": 46.453,"100": 66.868,"125": 66.998,"150": 59.952,"175": 56.715,"200": 46.935,"225": 45.816,"250": 43.349,"275": 41.467,"300": 40.41,"325": 39.879,"350": 37.277,"375": 36.728,"400": 37.236,"425": 36.219,"450": 35.162,"475": 35.355,"500": 34.357,"525": 33.067,"550": 32.948,"575": 31.481,"600": 30.211,"625": 28.667,"650": 28.217,"675": 28.001,"700": 25.539,"725": 26.594,"750": 24.307,"775": 23.898,"800": 23.645,"825": 23.429,"850": 21.18,"875": 22.822,"900": 23.212,"925": 23.195,"950": 23.41,"975": 22.804,"1000": 22.646,"1025": 23.448,"1050": 24.602,"1075": 22.435,"1100": 22.59,"1125": 21.143,"1150": 22.18,"1175": 22.512,"1200": 22.354,"1225": 21.692,"1250": 21.614,"1275": 21.83,"1300": 22.161,"1325": 21.361,"1350": 21.557,"1375": 22.004,"1400": 25.894,"1425": 27.303,"1450": 31.622,"1475": 33.303,"1500": 34.006,"1525": 30.058,"1550": 29.549,"1575": 28.396,"1600": 27.205,"1625": 24.606,"1650": 25.154,"1675": 24.997,"1700": 27.85,"1725": 27.754,"1750": 28.051,"1775": 28.031,"1800": 23.245,"1825": 16.209,"1850": 11.947,"1875": 11.107,"1900": 9.093,"1925": 7.489,"1950": 6.825,"1975": 6.493,"2000": 5.73,"2025": 3.93,"2050": 2.835,"2075": 1.838,"2100": 1.701,"2125": 1.251,"2150": 0.508,"2175": 0.117}}}