{"type":"Feature","properties":{"GID_2":"MEX.14.17_2","GID_0":"MEX","country":"México","GID_1":"MEX.14_1","province":"Jalisco","NL_NAME_1":"NA","county":"CaboCorrientes","VARNAME_2":"NA","NL_NAME_2":"NA","TYPE_2":"Município","ENGTYPE_2":"Municipality","CC_2":"NA","HASC_2":"NA","name":"Cabo_Corrientes.county"},
"geometry":{"type": "MultiPolygon","coordinates": [[[[-105.3254,20.5122,0.0],[-105.3356,20.5119,15.1774],[-105.3441,20.5073,0.0],[-105.3538,20.5083,22.7643],[-105.3697,20.5042,1.9199],[-105.372,20.5061,7.7484],[-105.3748,20.5044,8.6721],[-105.3801,20.5057,0.0],[-105.3815,20.5045,19.222],[-105.3859,20.5056,6.0412],[-105.3864,20.5073,0.0],[-105.3913,20.5059,7.7514],[-105.3989,20.5074,26.1613],[-105.4001,20.5089,0.0],[-105.4019,20.5067,43.6605],[-105.4065,20.5061,9.9486],[-105.4079,20.5035,90.9421],[-105.4112,20.5044,0.0],[-105.4112,20.5021,18.8684],[-105.4162,20.5036,33.7401],[-105.42,20.5019,63.9725],[-105.4248,20.4971,163.7264],[-105.4273,20.4996,31.069],[-105.4421,20.5009,3.1939],[-105.4456,20.4983,78.4391],[-105.4425,20.492,0.8788],[-105.4453,20.4883,14.1014],[-105.4488,20.489,16.0622],[-105.4573,20.495,45.8346],[-105.4646,20.4964,28.1444],[-105.4756,20.4959,0.0],[-105.4811,20.4923,36.1141],[-105.4842,20.494,0.0],[-105.4871,20.4924,2.0952],[-105.4875,20.4901,75.4076],[-105.4944,20.4894,15.3413],[-105.502,20.4922,0.0],[-105.5131,20.4918,48.5472],[-105.5167,20.4934,11.8493],[-105.5198,20.491,94.9185],[-105.5279,20.4919,35.6182],[-105.5365,20.4889,0.0],[-105.5405,20.4894,0.7218],[-105.5434,20.4858,46.8326],[-105.5538,20.4879,14.2741],[-105.558,20.4873,0.0],[-105.5672,20.4821,12.1557],[-105.5744,20.4834,16.7143],[-105.5843,20.4765,39.525],[-105.5875,20.4765,15.4816],[-105.5918,20.4735,32.9638],[-105.6041,20.4758,0.0],[-105.6062,20.4732,26.041],[-105.608,20.4735,11.647],[-105.6092,20.4686,173.2586],[-105.6103,20.4711,15.1918],[-105.6143,20.4711,9.6127],[-105.6211,20.4614,0.0],[-105.6214,20.4587,197.5586],[-105.626,20.4561,5.0428],[-105.6356,20.4458,0.0],[-105.643,20.4423,0.0],[-105.6482,20.4446,10.3345],[-105.6482,20.4432,36.8751],[-105.6513,20.4413,0.0],[-105.6497,20.4384,0.0],[-105.6544,20.4281,0.0],[-105.6576,20.4259,26.8125],[-105.6595,20.4274,0.0],[-105.6662,20.4278,0.0],[-105.6713,20.4259,0.5702],[-105.6708,20.4221,6.6518],[-105.6726,20.4179,0.0],[-105.6704,20.4145,2.3937],[-105.6738,20.4129,37.7056],[-105.672,20.4106,16.0644],[-105.6724,20.4074,0.0],[-105.678,20.4082,20.3236],[-105.6802,20.4119,3.3341],[-105.6887,20.4117,6.922],[-105.6886,20.4103,58.8845],[-105.6948,20.4091,2.9874],[-105.6927,20.3885,4.4812],[-105.6863,20.3732,5.1905],[-105.6854,20.3693,0.4193],[-105.6865,20.3677,2.9054],[-105.6763,20.3523,16.705],[-105.6764,20.3485,14.7432],[-105.6706,20.3381,0.0],[-105.6594,20.3254,0.0],[-105.6562,20.3177,1.713],[-105.6476,20.3123,12.5885],[-105.5902,20.2631,0.0],[-105.5848,20.2556,2.1848],[-105.5848,20.2479,8.0387],[-105.5824,20.2471,5.4785],[-105.5824,20.2442,4.2933],[-105.5784,20.2397,53.1942],[-105.5811,20.2382,17.4838],[-105.5766,20.2352,3.4676],[-105.5748,20.2354,0.0],[-105.5746,20.2384,9.3627],[-105.5723,20.2392,20.8996],[-105.5587,20.2317,18.7118],[-105.5532,20.2223,0.0],[-105.5481,20.2082,3.587],[-105.5428,20.1857,2.4137],[-105.5432,20.1814,2.3784],[-105.542,20.1826,5.7346],[-105.539,20.1813,7.1903],[-105.5311,20.1817,13.0132],[-105.5212,20.1857,32.931],[-105.5161,20.1854,28.6682],[-105.5148,20.1839,29.3919],[-105.5138,20.188,36.93],[-105.497,20.1936,80.4173],[-105.4971,20.1969,79.4163],[-105.4903,20.1967,80.01],[-105.4893,20.2015,75.9085],[-105.4752,20.2034,81.5643],[-105.472,20.2103,88.9884],[-105.4694,20.2101,97.0463],[-105.4715,20.2124,94.244],[-105.4673,20.2161,110.956],[-105.4651,20.2144,109.6341],[-105.4627,20.2168,114.7311],[-105.4625,20.2319,147.9314],[-105.4531,20.2315,162.3154],[-105.4514,20.2328,163.2845],[-105.4464,20.2294,170.92],[-105.4468,20.2258,180.7934],[-105.4409,20.2249,201.3619],[-105.4388,20.2264,206.0609],[-105.4185,20.2166,565.3865],[-105.4118,20.2174,631.9988],[-105.3996,20.2232,570.9398],[-105.3945,20.2219,417.9828],[-105.3937,20.2128,330.5758],[-105.3896,20.2105,260.212],[-105.3807,20.2099,225.2357],[-105.3773,20.2069,205.3521],[-105.3787,20.2017,203.4823],[-105.3739,20.1966,202.9523],[-105.3763,20.1871,167.5641],[-105.3704,20.1889,165.4893],[-105.3701,20.1865,163.9492],[-105.3731,20.1846,158.2228],[-105.3659,20.1819,137.9874],[-105.3686,20.1759,185.6504],[-105.3663,20.1758,146.8112],[-105.3609,20.1698,129.778],[-105.3565,20.1715,121.133],[-105.354,20.168,124.0268],[-105.3506,20.168,114.798],[-105.3478,20.1711,130.386],[-105.3454,20.1698,128.7883],[-105.3436,20.1718,117.9171],[-105.3345,20.1737,135.06],[-105.3329,20.1763,141.7289],[-105.33,20.1761,126.7677],[-105.33,20.1785,129.1031],[-105.3261,20.1776,133.4371],[-105.3204,20.1816,148.2116],[-105.3183,20.1797,154.6376],[-105.3171,20.181,162.5651],[-105.315,20.1801,172.6342],[-105.313,20.1823,175.3651],[-105.3104,20.1817,177.5779],[-105.3079,20.1832,192.5911],[-105.2987,20.1783,382.5551],[-105.2889,20.1785,187.5554],[-105.2845,20.1863,208.7991],[-105.2773,20.186,237.0858],[-105.2709,20.1908,277.1819],[-105.2656,20.1914,293.0715],[-105.2647,20.1869,521.5872],[-105.2661,20.185,575.1335],[-105.259,20.1798,259.2897],[-105.258,20.175,196.6202],[-105.2596,20.165,129.8253],[-105.2554,20.1624,114.619],[-105.2537,20.1635,100.5992],[-105.2508,20.1622,101.9084],[-105.2503,20.1591,96.574],[-105.2539,20.1541,93.6523],[-105.2532,20.153199999999998,94.4891],[-105.2472,20.1565,96.5712],[-105.2427,20.1613,143.901],[-105.2409,20.1659,194.2801],[-105.2231,20.1709,714.2233],[-105.212,20.1686,844.5621],[-105.195,20.1706,615.1608],[-105.1908,20.1659,513.0356],[-105.187,20.1643,469.1072],[-105.183,20.1716,441.5143],[-105.172,20.1771,414.7784],[-105.1654,20.176,411.5715],[-105.1612,20.1808,398.3645],[-105.1576,20.1819,377.2666],[-105.1552,20.1845,366.0562],[-105.156,20.1881,345.2651],[-105.1527,20.191,348.3754],[-105.1478,20.1886,346.1343],[-105.1427,20.1907,342.7708],[-105.1413,20.1856,335.965],[-105.1383,20.1836,339.8928],[-105.1363,20.1842,335.2924],[-105.1352,20.1871,338.2574],[-105.1317,20.186,333.2614],[-105.1311,20.1898,384.1463],[-105.1412,20.1922,339.2531],[-105.1486,20.2061,361.3477],[-105.1479,20.2084,371.1838],[-105.1504,20.2144,378.6341],[-105.1489,20.2156,424.6093],[-105.1496,20.222,417.2227],[-105.1708,20.2319,426.5237],[-105.1817,20.2324,452.049],[-105.1806,20.2355,483.2145],[-105.1845,20.2352,475.2959],[-105.1866,20.238,490.7919],[-105.1938,20.2353,517.8359],[-105.1951,20.2379,514.7522],[-105.1994,20.2389,547.2617],[-105.199,20.2456,589.2129],[-105.2018,20.2496,612.3978],[-105.1977,20.253,621.4563],[-105.1938,20.2531,659.1782],[-105.1908,20.2587,728.358],[-105.1848,20.2598,850.1979],[-105.1841,20.2653,932.9623],[-105.1798,20.2726,957.4583],[-105.1767,20.2745,974.6884],[-105.1765,20.2781,1042.1187],[-105.1735,20.2797,1030.3423],[-105.1735,20.2824,1029.8569],[-105.1752,20.2832,1041.8008],[-105.1754,20.2862,1081.9065],[-105.1732,20.2884,1087.2046],[-105.1757,20.2924,1140.6399],[-105.1751,20.2936,1140.6399],[-105.1792,20.2994,1181.5303],[-105.1807,20.3048,1250.0526],[-105.1843,20.3056,1289.2604],[-105.1842,20.3116,1386.4341],[-105.1816,20.3161,1474.1925],[-105.1825,20.3315,1756.9031],[-105.1771,20.3583,1316.7543],[-105.1713,20.3646,1157.3606],[-105.1719,20.3711,1067.2867],[-105.1654,20.3679,1137.906],[-105.1597,20.3715,1381.0317],[-105.1554,20.3714,1226.8558],[-105.1574,20.3736,1201.2582],[-105.1575,20.3792,1157.9751],[-105.1588,20.3792,1102.356],[-105.1589,20.3808,1110.7283],[-105.1614,20.3801,1115.6725],[-105.1622,20.3822,1086.7849],[-105.1702,20.3814,1033.9535],[-105.1789,20.3842,1023.9131],[-105.1806,20.384,1041.7812],[-105.1818,20.3816,1000.2505],[-105.1843,20.3841,1004.0417],[-105.1879,20.3811,951.2287],[-105.1929,20.3806,968.4713],[-105.193,20.3843,913.9836],[-105.196,20.3854,916.1702],[-105.1948,20.3894,870.2763],[-105.197,20.3891,881.537],[-105.198,20.3907,894.2195],[-105.2014,20.3884,901.2926],[-105.2027,20.3907,845.1556],[-105.2045,20.3893,851.4687],[-105.2055,20.3901,901.3745],[-105.2045,20.3922,836.0747],[-105.2079,20.3918,845.844],[-105.2082,20.395,809.0281],[-105.21,20.3941,813.2852],[-105.2173,20.3966,813.7155],[-105.2197,20.4014,786.3058],[-105.2183,20.405,782.6266],[-105.2192,20.4094,751.13],[-105.2176,20.4106,750.601],[-105.22,20.4164,782.2783],[-105.2238,20.4186,786.672],[-105.225,20.421,696.6371],[-105.2214,20.4218,695.9957],[-105.2268,20.4233,694.088],[-105.2246,20.4252,686.3986],[-105.2262,20.4257,695.2115],[-105.2264,20.43,691.1857],[-105.2312,20.4299,695.794],[-105.2315,20.4317,694.7415],[-105.2358,20.4318,682.3914],[-105.2312,20.4346,680.2436],[-105.2338,20.4369,667.2373],[-105.235,20.4353,678.4767],[-105.235,20.438,677.5955],[-105.2319,20.4413,772.6771],[-105.2292,20.4398,811.6131],[-105.2291,20.4421,858.4709],[-105.2336,20.4473,1027.4531],[-105.2327,20.4538,1253.4872],[-105.2354,20.4578,1323.2651],[-105.2264,20.4731,1313.6752],[-105.2263,20.4772,1328.4774],[-105.2305,20.4836,1160.5558],[-105.2375,20.4862,977.0677],[-105.2403,20.4838,880.6871],[-105.2486,20.4857,708.5048],[-105.2552,20.4849,610.6504],[-105.2607,20.4877,520.3817],[-105.2634,20.4864,468.7321],[-105.2683,20.4905,423.4141],[-105.276,20.4893,370.2495],[-105.2691,20.4949,413.679],[-105.2683,20.4987,429.6672],[-105.2706,20.5074,564.8973],[-105.2743,20.5124,475.0508],[-105.2785,20.5096,390.4956],[-105.2847,20.5118,331.9582],[-105.3019,20.5068,149.2405],[-105.3048,20.4972,184.0425],[-105.2995,20.493,216.6919],[-105.2951,20.4822,318.7508],[-105.2993,20.4791,287.7928],[-105.3025,20.4801,315.2062],[-105.3076,20.4783,370.6231],[-105.3193,20.4778,422.0809],[-105.3138,20.4818,432.5001],[-105.3178,20.483,449.8003],[-105.3228,20.4879,530.2691],[-105.3221,20.4926,589.6014],[-105.3245,20.4981,568.8994],[-105.3243,20.5117,140.2956],[-105.3254,20.5122,0.0]]]]}}