{"type":"Feature","properties":{"GID_2":"MEX.20.193_2","GID_0":"MEX","country":"México","GID_1":"MEX.20_1","province":"Oaxaca","NL_NAME_1":"NA","county":"SanJuanCoatzóspam","VARNAME_2":"NA","NL_NAME_2":"NA","TYPE_2":"Município","ENGTYPE_2":"Municipality","CC_2":"NA","HASC_2":"NA","name":"San_Juan_Coatzóspam.county"},
"geometry":{"type": "MultiPolygon","coordinates": [[[[-96.7198,18.0142,226.8462],[-96.7212,18.0204,391.0048],[-96.7195,18.0361,893.3966],[-96.7253,18.0437,1164.4305],[-96.7253,18.0518,1530.5709],[-96.7209,18.0474,1478.651],[-96.7172,18.0483,1458.9795],[-96.7137,18.0537,1668.7927],[-96.7064,18.0552,1490.5742],[-96.6978,18.0506,1222.0671],[-96.6885,18.0504,1104.0282],[-96.6815,18.0436,1061.801],[-96.6783,18.0443,1259.7804],[-96.6707,18.0827,2001.2456],[-96.7112,18.1074,1326.3792],[-96.7256,18.1053,1398.0425],[-96.7384,18.111,1411.8865],[-96.731,18.0728,2194.0303],[-96.7619,18.0554,1984.7402],[-96.7773,18.0588,1728.463],[-96.7813,18.0548,1706.0905],[-96.7836,18.0497,1603.3199],[-96.7847,18.0367,1091.3462],[-96.7918,18.0283,340.9115],[-96.7866,18.0167,422.5561],[-96.7831,18.0153,452.7474],[-96.7677,18.0185,274.6024],[-96.7492,18.0173,265.5276],[-96.739,18.0206,313.6541],[-96.7347,18.0199,245.5279],[-96.7313,18.0167,232.292],[-96.7244,18.018,236.7908],[-96.7198,18.0142,226.8462]]]]}}