{"type": "Feature","bbox": [-97.1575,19.9586,-96.9431,20.2808],"geometry": {"type": "MultiPolygon","coordinates": [[[[-97.1406,20.1198,113.1816],[-97.1352,20.1208,113.4279],[-97.1321,20.1185,108.1956],[-97.1263,20.1198,106.0906],[-97.1227,20.1187,104.7185],[-97.1161,20.1215,105.3241],[-97.1199,20.1107,113.3287],[-97.1192,20.1078,107.4766],[-97.113,20.1052,98.2019],[-97.1095,20.1066,99.0961],[-97.1081,20.0957,93.662],[-97.1107,20.0958,95.5917],[-97.1119,20.0935,101.7942],[-97.1133,20.0946,95.9429],[-97.1153,20.0936,99.5578],[-97.115,20.0921,99.5578],[-97.1186,20.0906,99.4399],[-97.1201,20.0864,113.6761],[-97.1243,20.0862,100.0829],[-97.1229,20.084,102.8236],[-97.1213,20.0851,117.2512],[-97.1188,20.0834,114.6685],[-97.1113,20.0758,108.4893],[-97.1102,20.0766,108.4893],[-97.1075,20.0728,119.8593],[-97.1059,20.0738,115.8748],[-97.1033,20.0699,111.1714],[-97.1017,20.071,115.6085],[-97.1004,20.0691,110.3326],[-97.0972,20.071,107.2542],[-97.0963,20.0697,105.2236],[-97.0907,20.0697,101.8364],[-97.0919,20.0675,105.6819],[-97.089,20.0644,109.7553],[-97.0866,20.0645,103.7304],[-97.0848,20.0615,101.5633],[-97.087,20.0594,102.5527],[-97.0877,20.0547,94.7826],[-97.0854,20.0569,104.4885],[-97.083,20.0516,78.9091],[-97.078,20.0537,89.4792],[-97.0712,20.0481,97.9602],[-97.0678,20.0483,87.7753],[-97.0663,20.0506,85.7819],[-97.0629,20.0511,81.3927],[-97.0591,20.0484,76.9505],[-97.052,20.0485,75.8879],[-97.0479,20.0502,72.6358],[-97.044,20.0501,69.7612],[-97.0413,20.0481,69.0934],[-97.0395,20.0421,69.7217],[-97.0403,20.0337,83.2278],[-97.0502,20.0309,118.2937],[-97.0529,20.0414,97.3345],[-97.0555,20.0435,102.0338],[-97.0604,20.0382,108.1907],[-97.0618,20.0335,113.1021],[-97.0544,20.0073,186.3739],[-97.0549,19.9959,251.8577],[-97.0529,19.991,253.7319],[-97.0504,19.9911,257.1461],[-97.0493,19.9888,254.9327],[-97.0389,19.9851,278.2635],[-97.0332,19.9792,451.6745],[-97.0279,19.9778,431.4982],[-97.024,19.9786,403.0345],[-97.0186,19.9761,367.8263],[-97.0167,19.9781,312.4186],[-97.0131,19.9771,241.2008],[-97.0129,19.9747,299.6639],[-97.0068,19.9797,190.5223],[-97.0078,19.9726,275.8531],[-97.0137,19.9676,332.5363],[-97.0121,19.9648,385.5347],[-97.007,19.9637,308.5677],[-97.0018,19.9587,291.9229],[-96.9989,19.9586,258.5511],[-96.9935,19.9613,231.6294],[-96.9962,19.9687,185.2358],[-96.9874,19.9774,126.7799],[-96.9879,19.9813,120.5437],[-96.993,19.9834,120.1033],[-96.9875,19.9833,122.555],[-96.9837,19.9867,208.9265],[-96.9808,19.9865,235.7652],[-96.9805,19.9912,205.4823],[-96.957,19.9927,105.5665],[-96.9549,20.0006,109.9745],[-96.9571,20.0034,101.4694],[-96.9597,20.0036,93.0241],[-96.9645,20.0071,88.4496],[-96.9635,20.0051,92.8059],[-96.98,20.0078,132.261],[-96.9806,20.0068,134.1921],[-96.9828,20.0107,125.9062],[-96.9853,20.024,109.392],[-96.9853,20.0357,92.985],[-96.9816,20.0355,68.6097],[-96.9809,20.0374,71.2845],[-96.9854,20.0374,92.3809],[-96.9863,20.0419,88.7181],[-96.9835,20.0415,88.0788],[-96.9838,20.0397,89.8183],[-96.9761,20.0357,63.1822],[-96.9753,20.0404,63.3236],[-96.9716,20.0408,56.0284],[-96.971,20.0426,56.0065],[-96.9738,20.0467,55.3295],[-96.9724,20.0493,53.5156],[-96.9856,20.0549,70.8086],[-96.9865,20.0687,46.8205],[-96.9848,20.0718,50.9617],[-96.993,20.0816,35.6774],[-96.9832,20.0877,29.4352],[-96.9841,20.0956,26.3658],[-96.9794,20.1015,23.2266],[-96.9802,20.1076,21.3297],[-96.9749,20.1248,18.4953],[-96.9687,20.1283,12.9356],[-96.9431,20.1349,11.8277],[-96.9444,20.1353,9.0],[-96.9469,20.1428,14.7981],[-96.9458,20.1433,14.7981],[-96.9482,20.1469,27.8131],[-96.9539,20.1467,47.482],[-96.9563,20.149,50.1365],[-96.9622,20.1493,52.1945],[-96.9706,20.1446,57.934],[-96.9857,20.1462,64.3427],[-96.9866,20.1504,63.8099],[-96.99,20.1496,63.3709],[-96.9931,20.153,61.6613],[-96.9926,20.1543,58.8995],[-96.9861,20.1558,54.7375],[-96.9856,20.1635,45.9431],[-96.9887,20.1644,45.1991],[-96.9912,20.1674,45.5203],[-96.9936,20.1662,48.1865],[-96.9961,20.1673,38.7869],[-96.9993,20.1746,62.9086],[-97.0055,20.176,65.4573],[-97.0073,20.1814,65.0343],[-97.0104,20.1805,59.9006],[-97.0146,20.187,55.396],[-97.0136,20.1911,82.917],[-97.0159,20.1933,95.2046],[-97.018,20.2026,101.3423],[-97.0202,20.203,86.3286],[-97.0198,20.2093,83.4877],[-97.0167,20.2117,91.0888],[-97.0214,20.215,73.1212],[-97.0186,20.2167,76.5007],[-97.018,20.2187,88.2295],[-97.0194,20.2201,80.3524],[-97.0169,20.2216,71.0531],[-97.016,20.2296,39.8497],[-97.0009,20.2506,28.5599],[-97.0046,20.2536,24.4018],[-97.0035,20.2553,22.6814],[-97.0046,20.2586,21.9115],[-97.0071,20.2586,30.1737],[-97.005,20.2624,26.2903],[-97.0073,20.2632,22.1453],[-97.006,20.2641,41.1293],[-97.0079,20.2662,38.0608],[-97.0064,20.2696,42.6011],[-97.009,20.2717,18.0611],[-97.01,20.2754,16.472],[-97.0105,20.2742,16.472],[-97.0102,20.2768,17.9066],[-97.0147,20.2764,16.2089],[-97.0149,20.2752,13.8792],[-97.0161,20.2787,16.7831],[-97.018,20.2779,15.2776],[-97.0176,20.2764,15.6322],[-97.0209,20.2764,16.9238],[-97.0228,20.277,14.8103],[-97.0233,20.2808,21.491],[-97.0276,20.2785,14.486],[-97.0327,20.2795,17.3551],[-97.044,20.2775,17.4107],[-97.0446,20.2739,19.6613],[-97.0479,20.2704,17.6547],[-97.0467,20.2683,18.0956],[-97.0432,20.2681,17.6105],[-97.0428,20.2657,18.221],[-97.0469,20.2622,18.1121],[-97.050299999999993,20.2635,18.8546],[-97.0527,20.2616,18.4103],[-97.0559,20.2622,20.0679],[-97.0596,20.26,18.4755],[-97.0614,20.2605,19.8392],[-97.0617,20.2593,19.0754],[-97.0624,20.2628,19.5443],[-97.0665,20.265,23.1441],[-97.0651,20.2667,21.7707],[-97.069,20.2657,21.9259],[-97.0711,20.2684,24.6899],[-97.0721,20.2666,21.2517],[-97.074,20.2702,22.2434],[-97.0761,20.2694,24.0734],[-97.0782,20.2724,22.0989],[-97.0796,20.2687,28.3944],[-97.0824,20.2684,32.7263],[-97.0815,20.2709,22.8887],[-97.0843,20.2695,26.0448],[-97.0835,20.2715,23.4153],[-97.0859,20.2716,24.2594],[-97.0849,20.2728,23.0275],[-97.0883,20.2746,25.9489],[-97.0907,20.2738,23.1014],[-97.0887,20.2723,25.0102],[-97.0895,20.2706,26.2202],[-97.0909,20.2698,25.1949],[-97.0921,20.2714,26.4805],[-97.0956,20.2692,26.3744],[-97.0966,20.2678,28.11],[-97.0951,20.2672,26.9204],[-97.097,20.2648,29.7511],[-97.0956,20.2642,25.6687],[-97.0984,20.2632,30.2301],[-97.0999,20.2617,31.9591],[-97.0989,20.2601,26.621],[-97.1048,20.255,26.2344],[-97.1074,20.2539,31.2393],[-97.1118,20.2548,39.9445],[-97.1178,20.2495,31.802],[-97.1276,20.2462,31.727],[-97.1247,20.2446,32.7478],[-97.1267,20.2437,32.7086],[-97.1255,20.2416,35.4314],[-97.128,20.2423,32.7086],[-97.1284,20.2409,34.9667],[-97.1225,20.2392,35.3117],[-97.1238,20.2386,41.6515],[-97.1237,20.2357,47.0756],[-97.1257,20.2355,34.0945],[-97.1267,20.2304,38.3257],[-97.1295,20.2294,38.8709],[-97.1298,20.2319,37.6037],[-97.1308,20.2295,39.0464],[-97.1323,20.23,39.0464],[-97.1327,20.2234,50.474],[-97.1292,20.2213,38.728],[-97.1312,20.2211,42.6684],[-97.1324,20.2186,40.9031],[-97.1313,20.2173,40.9031],[-97.126,20.2181,40.7249],[-97.1239,20.2169,38.1504],[-97.126,20.2137,39.1328],[-97.1222,20.2134,42.3688],[-97.1247,20.2115,39.4105],[-97.1242,20.209,39.8093],[-97.1285,20.2099,43.7886],[-97.1286,20.2065,42.2144],[-97.1307,20.2067,49.8516],[-97.1288,20.2022,44.332],[-97.1309,20.2005,44.1429],[-97.1322,20.2022,51.0152],[-97.1358,20.2014,54.5626],[-97.1355,20.199,46.1314],[-97.138,20.1971,51.186],[-97.1372,20.1956,46.71],[-97.1395,20.1954,49.937],[-97.1378,20.1943,46.2331],[-97.1394,20.193,46.9943],[-97.1378,20.1896,44.0392],[-97.1412,20.1867,46.9592],[-97.1449,20.1665,50.7957],[-97.1485,20.1604,52.7056],[-97.15,20.1606,54.4502],[-97.1538,20.1534,62.7627],[-97.1533,20.152,64.9332],[-97.1575,20.1496,69.6367],[-97.1567,20.1469,91.096],[-97.152,20.1461,101.6865],[-97.1527,20.139,158.1113],[-97.1514,20.1375,167.0513],[-97.1438,20.1364,240.3255],[-97.1378,20.1401,210.8668],[-97.1306,20.1398,130.743],[-97.1224,20.1367,99.4124],[-97.1331,20.1272,107.0864],[-97.1336,20.1239,113.1481],[-97.1416,20.1225,115.9279],[-97.1406,20.1198,113.1816]]]]}
,"properties": {"GID_2": "MEX.30.108_2","GID_0": "MEX","country": "México","GID_1": "MEX.30_1","province": "Veracruz","NL_NAME_1": "NA","county": "MartínezdelaTorre","VARNAME_2": "NA","NL_NAME_2": "NA","TYPE_2": "Município","ENGTYPE_2": "Municipality","CC_2": "NA","HASC_2": "NA","name": "Martínezdela_Torre.county","area_km2": 399.6449,"hist_schema_id": "Elevation0-9000","hist_area_km2": {"0": 0.0597,"25": 46.5955,"50": 85.4237,"75": 117.4639,"100": 100.5793,"125": 21.5519,"150": 10.5979,"175": 7.3513,"200": 2.9086,"225": 1.5937,"250": 1.0759,"275": 0.9166,"300": 0.9166,"325": 0.9564,"350": 0.7373,"375": 0.538,"400": 0.2391,"425": 0.0598,"450": 0.0797}}}