{"type": "Feature","bbox": [-96.9673,19.6632,-96.8716,19.7777],"geometry": {"type": "MultiPolygon","coordinates": [[[[-96.9141,19.6632,1664.5743],[-96.9039,19.6665,1728.7241],[-96.8926,19.6664,1619.5459],[-96.8924,19.6699,1658.2396],[-96.8959,19.6727,1678.3087],[-96.8945,19.6777,1698.6523],[-96.8978,19.6794,1723.4447],[-96.8996,19.6827,1749.3114],[-96.9004,19.696,1891.8053],[-96.9021,19.7007,1876.2041],[-96.9059,19.7,1875.4196],[-96.9095,19.7077,1950.8685],[-96.9137,19.7018,1838.5564],[-96.9166,19.7042,1833.303],[-96.9155,19.7105,1880.1908],[-96.9182,19.7154,1914.7061],[-96.9168,19.7162,1928.1105],[-96.917,19.7209,2004.7241],[-96.9126,19.7199,2002.9531],[-96.9092,19.7221,2012.2458],[-96.9073,19.7207,1992.4728],[-96.903,19.721,1966.3876],[-96.9001,19.7309,1980.5354],[-96.9014,19.7325,2001.0325],[-96.9032,19.7318,2006.365],[-96.9034,19.7355,1833.0714],[-96.897,19.7384,1549.8533],[-96.8935,19.7444,1419.0011],[-96.8881,19.7473,1431.4071],[-96.8895,19.7564,1190.3281],[-96.8827,19.7634,1072.938],[-96.8818,19.7725,1007.7797],[-96.877,19.7704,951.4116],[-96.8716,19.7744,886.5228],[-96.874,19.7777,809.9735],[-96.8788,19.7751,915.5525],[-96.8856,19.7748,975.2084],[-96.8946,19.7673,1053.1884],[-96.8986,19.7697,1173.0087],[-96.9025,19.7692,1266.8007],[-96.9075,19.7648,1289.6671],[-96.9227,19.7609,1511.6229],[-96.9368,19.7531,1955.1829],[-96.9489,19.7435,2421.6787],[-96.9511,19.7453,2495.6445],[-96.9594,19.7457,2500.5183],[-96.9619,19.7476,2617.2039],[-96.9646,19.7461,2574.1663],[-96.9656,19.7361,2218.3325],[-96.9673,19.7332,2171.5071],[-96.9668,19.7312,2134.9084],[-96.9616,19.7275,2080.23],[-96.963,19.7249,2082.8015],[-96.9587,19.7219,2071.5312],[-96.9575,19.7188,1955.2463],[-96.9513,19.7171,1895.5178],[-96.946,19.7099,1709.1147],[-96.9426,19.7102,1657.5377],[-96.9417,19.7097,1657.5377],[-96.943,19.7082,1713.6245],[-96.9397,19.7075,1656.8452],[-96.9417,19.7035,1654.85],[-96.9334,19.6968,1586.3669],[-96.9336,19.6937,1591.5215],[-96.9294,19.6852,1563.3236],[-96.9325,19.6799,1593.042],[-96.9295,19.6762,1560.2545],[-96.9309,19.6728,1559.0984],[-96.9248,19.6716,1636.6096],[-96.9226,19.6734,1765.8079],[-96.9184,19.6729,1736.5067],[-96.9138,19.6697,1704.5679],[-96.9141,19.6632,1664.5743]]]]}
,"properties": {"GID_2": "MEX.30.192_2","GID_0": "MEX","country": "México","GID_1": "MEX.30_1","province": "Veracruz","NL_NAME_1": "NA","county": "Tonayán","VARNAME_2": "NA","NL_NAME_2": "NA","TYPE_2": "Município","ENGTYPE_2": "Municipality","CC_2": "NA","HASC_2": "NA","name": "Tonayán.county","area_km2": 50.53446,"hist_schema_id": "Elevation0-9000","hist_area_km2": {"800": 0.01995,"825": 0.01995,"850": 0.0399,"875": 0.09976,"900": 0.05986,"925": 0.07981,"950": 0.09976,"975": 0.13966,"1000": 0.13967,"1025": 0.03991,"1050": 0.09976,"1075": 0.15962,"1100": 0.19953,"1125": 0.09977,"1150": 0.23943,"1175": 0.15963,"1200": 0.21949,"1225": 0.23944,"1250": 0.11972,"1275": 0.15963,"1300": 0.19953,"1325": 0.19954,"1350": 0.15963,"1375": 0.2594,"1400": 0.2594,"1425": 0.15964,"1450": 0.29932,"1475": 0.37913,"1500": 0.15963,"1525": 0.2195,"1550": 0.29934,"1575": 0.75853,"1600": 0.61876,"1625": 0.87828,"1650": 0.81836,"1675": 1.21767,"1700": 1.71675,"1725": 1.39733,"1750": 1.81653,"1775": 1.97626,"1800": 1.57695,"1825": 1.91628,"1850": 1.97611,"1875": 1.33728,"1900": 1.05785,"1925": 1.03785,"1950": 1.2973,"1975": 1.17752,"2000": 1.71637,"2025": 1.71635,"2050": 1.61657,"2075": 1.69636,"2100": 1.57662,"2125": 1.65643,"2150": 1.31718,"2175": 1.21738,"2200": 1.19742,"2225": 1.2972,"2250": 0.99783,"2275": 1.07765,"2300": 1.07765,"2325": 0.83817,"2350": 0.89803,"2375": 0.67852,"2400": 0.55878,"2425": 0.47895,"2450": 0.35922,"2475": 0.21952,"2500": 0.25943,"2525": 0.19956,"2550": 0.21952,"2575": 0.05987}}}