{"type": "Feature","bbox": [-96.7974,19.8723,-96.6374,19.9985],"geometry": {"type": "MultiPolygon","coordinates": [[[[-96.6503,19.9027,159.2307],[-96.6509,19.908,195.0981],[-96.6543,19.9112,145.2767],[-96.6548,19.9149,142.9801],[-96.6503,19.9205,144.0217],[-96.6447,19.9216,127.258],[-96.6434,19.9248,118.0227],[-96.6438,19.9355,135.0158],[-96.6382,19.94,104.3057],[-96.6374,19.9477,87.4521],[-96.6402,19.9462,91.2733],[-96.6451,19.948,188.5299],[-96.6543,19.9469,383.3282],[-96.6542,19.9488,361.4087],[-96.647,19.9573,230.4952],[-96.6422,19.9595,212.4532],[-96.6414,19.9703,233.6348],[-96.6456,19.9761,105.2342],[-96.6451,19.9908,88.4121],[-96.6499,19.9884,103.4786],[-96.6534,19.9894,124.5766],[-96.6564,19.9854,119.6063],[-96.6591,19.9857,90.9893],[-96.6617,19.9896,54.757],[-96.6599,19.9925,47.2167],[-96.6606,19.998,31.3659],[-96.6625,19.9985,34.0783],[-96.6676,19.9955,36.0632],[-96.6726,19.9892,46.0314],[-96.678,19.9873,51.694],[-96.6826,19.9787,71.9871],[-96.6888,19.9817,82.5529],[-96.6923,19.9794,76.7735],[-96.6902,19.9777,73.0428],[-96.6952,19.9721,79.5106],[-96.6982,19.9734,79.4092],[-96.6996,19.9708,81.1477],[-96.7032,19.9691,85.9199],[-96.7034,19.9715,86.5734],[-96.7053,19.9725,118.764],[-96.7092,19.9691,120.4272],[-96.7157,19.9755,314.4678],[-96.7191,19.9759,426.5748],[-96.7203,19.9788,375.5025],[-96.725,19.9753,461.2655],[-96.7232,19.9736,480.7342],[-96.7265,19.9693,489.8389],[-96.73,19.9714,365.3129],[-96.7282,19.9739,338.5091],[-96.7316,19.9757,474.5487],[-96.7302,19.9781,314.1736],[-96.7287,19.9777,335.6376],[-96.7311,19.9836,389.6603],[-96.7298,19.9852,448.0265],[-96.7314,19.9855,439.3359],[-96.73,19.9867,439.3359],[-96.7344,19.9881,318.3965],[-96.7383,19.977,497.02],[-96.7575,19.9599,204.5653],[-96.7578,19.956,208.4806],[-96.7565,19.9546,218.7321],[-96.7596,19.9571,208.2625],[-96.7631,19.9529,230.7432],[-96.7646,19.9479,264.8389],[-96.7725,19.9448,355.3784],[-96.7725,19.9368,414.1317],[-96.775,19.9372,402.7868],[-96.779,19.9419,386.8404],[-96.7831,19.9406,347.3049],[-96.7936,19.9417,281.0953],[-96.7947,19.9342,305.5135],[-96.7971,19.9345,324.1891],[-96.7974,19.9324,327.2012],[-96.794,19.9319,311.6759],[-96.7905,19.9259,344.9887],[-96.7858,19.9246,368.5517],[-96.7858,19.9208,387.7661],[-96.7839,19.9208,383.0227],[-96.7838,19.9177,406.11],[-96.7798,19.9167,442.752],[-96.7803,19.9154,421.0816],[-96.7704,19.9053,289.2579],[-96.7708,19.9027,301.3308],[-96.7672,19.9011,335.871],[-96.7557,19.8889,297.9146],[-96.7496,19.8944,283.0501],[-96.7395,19.9084,230.5409],[-96.7257,19.9058,216.9028],[-96.7242,19.9033,212.3799],[-96.7215,19.9054,205.9403],[-96.7196,19.9029,205.5246],[-96.7163,19.9025,295.0066],[-96.7128,19.8952,334.5845],[-96.7092,19.892,330.2489],[-96.7121,19.8887,291.164],[-96.7182,19.8864,236.5108],[-96.7177,19.8815,240.7251],[-96.7154,19.878,247.1742],[-96.702,19.8841,366.7054],[-96.7015,19.8815,363.9899],[-96.695,19.8798,545.52],[-96.6972,19.8756,502.8861],[-96.6934,19.8723,353.1653],[-96.6733,19.8727,232.6473],[-96.6704,19.8775,220.8878],[-96.6646,19.8821,202.9953],[-96.6627,19.8909,191.8343],[-96.6567,19.894,178.1297],[-96.6548,19.8978,178.906],[-96.6517,19.8987,169.1938],[-96.6503,19.9027,159.2307]]]]}
,"properties": {"GID_2": "MEX.30.53_2","GID_0": "MEX","country": "México","GID_1": "MEX.30_1","province": "Veracruz","NL_NAME_1": "NA","county": "Colipa","VARNAME_2": "NA","NL_NAME_2": "NA","TYPE_2": "Município","ENGTYPE_2": "Municipality","CC_2": "NA","HASC_2": "NA","name": "Colipa.county","area_km2": 130.6739,"hist_schema_id": "Elevation0-9000","hist_area_km2": {"25": 0.2192,"50": 1.9327,"75": 3.2081,"100": 4.4439,"125": 5.4407,"150": 7.7331,"175": 10.4642,"200": 13.3749,"225": 11.9995,"250": 11.6806,"275": 10.3453,"300": 11.5016,"325": 8.7706,"350": 6.7373,"375": 5.641,"400": 4.6044,"425": 3.6277,"450": 3.2688,"475": 1.6144,"500": 1.9133,"525": 1.1759,"550": 0.578,"575": 0.299,"600": 0.0997}}}