{"type":"Feature","properties":{"GID_2":"MEX.16.16_2","GID_0":"MEX","country":"México","GID_1":"MEX.16_1","province":"Michoacán","NL_NAME_1":"NA","county":"Chavinda","VARNAME_2":"NA","NL_NAME_2":"NA","TYPE_2":"Município","ENGTYPE_2":"Municipality","CC_2":"NA","HASC_2":"NA","name":"Chavinda.county"},
"geometry":{"type": "MultiPolygon","coordinates": [[[[-102.4382,20.1077,1844.9381],[-102.4672,20.1153,1655.5337],[-102.4753,20.1154,1524.2664],[-102.4779,20.1109,1524.6359],[-102.4814,20.1125,1525.094],[-102.4823,20.1094,1541.1948],[-102.4879,20.1049,1632.5593],[-102.4897,20.0987,1858.1632],[-102.5061,20.0955,2264.895],[-102.5217,20.0807,1955.363],[-102.524,20.082,1956.4312],[-102.5182,20.0679,1860.7788],[-102.5159,20.0686,1866.8481],[-102.5035,20.0655,1776.0194],[-102.4941,20.0592,1716.8406],[-102.4885,20.0577,1696.4858],[-102.4845,20.0529,1607.2444],[-102.4804,20.0529,1581.4374],[-102.4794,20.0511,1592.4686],[-102.4799,20.0479,1607.7944],[-102.4814,20.0484,1622.0983],[-102.4898,20.039,1758.326],[-102.493,20.0132,1645.1309],[-102.4991,20.011,1656.797],[-102.5012,20.0074,1697.8595],[-102.4989,19.9987,1798.4647],[-102.5005,19.9951,1937.0592],[-102.499,19.9908,2048.3018],[-102.5002,19.9849,2076.3223],[-102.4838,19.9792,1995.3882],[-102.4605,19.9819,1581.7664],[-102.4573,19.9843,1575.8455],[-102.4517,19.9835,1579.879],[-102.4492,19.9808,1581.5383],[-102.4464,19.9812,1583.1973],[-102.4437,19.9792,1589.782],[-102.4387,19.9809,1599.5807],[-102.4333,19.9786,1620.9282],[-102.4134,19.9811,1805.5845],[-102.3903,19.9915,1720.9688],[-102.3762,20.0057,1794.9248],[-102.379,20.0111,1732.756],[-102.3965,20.0117,1646.0925],[-102.3993,20.0142,1582.6807],[-102.4013,20.02,1562.6436],[-102.3993,20.0211,1562.8541],[-102.4046,20.0333,1560.1156],[-102.4043,20.0388,1555.6798],[-102.4061,20.0387,1555.3864],[-102.4059,20.0424,1555.7671],[-102.4072,20.0423,1555.8226],[-102.4071,20.0437,1555.8226],[-102.395,20.047,1555.2471],[-102.3794,20.0483,1555.2227],[-102.3737,20.0594,1556.7059],[-102.376,20.0618,1555.6135],[-102.3723,20.0739,1555.7229],[-102.3823,20.0779,1555.1547],[-102.3899,20.0835,1555.329],[-102.4223,20.0865,1588.0897],[-102.4382,20.1077,1844.9381]]]]}}