{"type":"Feature","properties":{"GID_2":"MEX.30.87_2","GID_0":"MEX","country":"México","GID_1":"MEX.30_1","province":"Veracruz","NL_NAME_1":"NA","county":"Jalacingo","VARNAME_2":"NA","NL_NAME_2":"NA","TYPE_2":"Município","ENGTYPE_2":"Municipality","CC_2":"NA","HASC_2":"NA","name":"Jalacingo.county"},
"geometry":{"type": "MultiPolygon","coordinates": [[[[-97.3019,19.8767,1307.7986],[-97.3046,19.8705,1403.9523],[-97.3045,19.8657,1441.467],[-97.3096,19.8558,1565.6548],[-97.3081,19.8527,1567.5391],[-97.3094,19.849,1601.2566],[-97.3078,19.8475,1619.53],[-97.3106,19.840699999999998,1693.0818],[-97.3082,19.8344,1713.7192],[-97.315,19.8278,1755.8062],[-97.3156,19.8249,1768.4633],[-97.3135,19.8218,1784.8478],[-97.3167,19.8178,1808.4843],[-97.3155,19.8145,1825.0079],[-97.3168,19.8129,1829.2681],[-97.3166,19.8069,1858.0564],[-97.3135,19.8022,1880.3547],[-97.3151,19.7997,1885.3137],[-97.3133,19.7974,1901.2144],[-97.3131,19.7905,1937.8077],[-97.317,19.7776,1967.4452],[-97.3197,19.7739,1985.3149],[-97.3186,19.7733,1990.1196],[-97.32,19.7698,2015.8424],[-97.3179,19.7672,2019.0142],[-97.3196,19.7613,2045.3851],[-97.3188,19.7507,2098.3215],[-97.3211,19.7478,2131.7017],[-97.3197,19.7396,2256.5098],[-97.3219,19.7348,2335.1401],[-97.3138,19.7351,2329.0359],[-97.3156,19.7291,2372.1309],[-97.3222,19.7224,2479.9951],[-97.3331,19.7168,2570.2004],[-97.3283,19.7118,2581.7957],[-97.3311,19.7076,2635.3054],[-97.3247,19.7071,2572.0032],[-97.3166,19.6933,2584.802],[-97.3104,19.686,2546.7681],[-97.3074,19.6845,2512.7871],[-97.3039,19.6712,2478.739],[-97.3109,19.6752,2534.0684],[-97.3167,19.6739,2551.2471],[-97.3197,19.6766,2571.6094],[-97.3264,19.6789,2632.0637],[-97.3316,19.6764,2660.6843],[-97.3412,19.6758,2741.2285],[-97.3419,19.6702,2748.7178],[-97.3474,19.6634,2793.7666],[-97.3659,19.6483,2815.3076],[-97.3767,19.6348,2910.0471],[-97.3804,19.634,2941.2214],[-97.3753,19.6275,2750.0325],[-97.3671,19.6238,2651.7209],[-97.3646,19.6201,2586.0984],[-97.3644,19.622,2599.2346],[-97.3617,19.6233,2612.9473],[-97.3586,19.6278,2649.1819],[-97.3581,19.623,2605.6648],[-97.3548,19.6211,2576.0349],[-97.3506,19.6139,2518.7371],[-97.3515,19.6108,2502.5327],[-97.3424,19.6146,2487.8115],[-97.3268,19.6267,2523.4753],[-97.3191,19.6297,2458.9385],[-97.3179,19.6321,2445.1462],[-97.3108,19.6331,2409.9385],[-97.3062,19.629,2399.7654],[-97.3082,19.6268,2400.7566],[-97.3052,19.6237,2395.2163],[-97.3096,19.6096,2388.2246],[-97.2888,19.6172,2382.3982],[-97.2873,19.6158,2381.3081],[-97.2735,19.6272,2380.9092],[-97.2737,19.6336,2383.6868],[-97.2679,19.638,2384.7681],[-97.2713,19.6507,2397.1558],[-97.2757,19.6599,2381.8689],[-97.2767,19.6671,2370.1077],[-97.278,19.6675,2372.1067],[-97.2809,19.6861,2359.3652],[-97.2749,19.6922,2321.874],[-97.2744,19.6909,2309.1455],[-97.269,19.702,2256.8926],[-97.2719,19.7103,2218.4688],[-97.2714,19.7169,2191.2974],[-97.2823,19.7255,2211.5752],[-97.2826,19.7388,2149.6484],[-97.2803,19.7514,2085.4875],[-97.2812,19.7552,2066.9656],[-97.2768,19.759,2043.7399],[-97.2721,19.7688,1979.2036],[-97.2685,19.7691,1970.7323],[-97.2672,19.7721,1939.2344],[-97.2617,19.7732,1880.2834],[-97.2598,19.7758,1826.975],[-97.2629,19.7793,1877.0389],[-97.2655,19.7798,1896.4739],[-97.263,19.7832,1889.7426],[-97.2619,19.7824,1860.9526],[-97.2634,19.7854,1889.2318],[-97.2609,19.7862,1852.3582],[-97.2603,19.7894,1845.5868],[-97.2479,19.7943,1717.5254],[-97.2479,19.7954,1717.5254],[-97.2605,19.7973,1829.3689],[-97.258,19.7996,1877.969],[-97.2559,19.7982,1792.1545],[-97.2556,19.8002,1807.3549],[-97.2511,19.7992,1763.395],[-97.2489,19.8036,1706.1903],[-97.2437,19.8066,1648.9508],[-97.244,19.812,1585.0388],[-97.239,19.8159,1526.6],[-97.2392,19.8252,1439.5037],[-97.2363,19.8289,1303.9045],[-97.2364,19.8311,1277.0526],[-97.2405,19.828,1473.4928],[-97.2459,19.8368,1519.8755],[-97.2509,19.8363,1330.6864],[-97.2557,19.8397,1275.9897],[-97.2541,19.8404,1275.9897],[-97.2526,19.8473,1246.7397],[-97.2481,19.8503,1242.2592],[-97.2462,19.8617,983.181],[-97.2495,19.8641,858.9669],[-97.2502,19.868,851.072],[-97.2465,19.8742,811.4672],[-97.247,19.8763,795.0157],[-97.252,19.8843,778.6063],[-97.2504,19.8868,722.3416],[-97.251,19.889,748.9031],[-97.2489,19.8897,727.2527],[-97.2492,19.893,719.7018],[-97.2401,19.9056,692.1587],[-97.2359,19.9086,656.0741],[-97.2341,19.907,634.8701],[-97.2319,19.9082,638.2256],[-97.2247,19.9076,602.8986],[-97.2254,19.9186,589.3283],[-97.2228,19.9226,552.8189],[-97.2254,19.9237,543.4018],[-97.2289,19.9227,560.8664],[-97.2306,19.9309,570.4745],[-97.2358,19.935,586.024],[-97.2368,19.9342,586.024],[-97.237,19.9364,594.836],[-97.2406,19.9342,649.1385],[-97.2417,19.9376,667.8055],[-97.2441,19.9374,707.8895],[-97.2497,19.9338,726.8947],[-97.2512,19.9351,742.5624],[-97.2542,19.9343,796.5182],[-97.2632,19.9225,863.2844],[-97.2667,19.9204,960.525],[-97.2701,19.9207,916.5186],[-97.2714,19.9153,990.1652],[-97.2727,19.9176,984.0361],[-97.2748,19.9147,1020.7391],[-97.2769,19.9162,1024.9551],[-97.2811,19.9122,1027.2469],[-97.2817,19.9069,1049.0752],[-97.2863,19.9052,1058.9006],[-97.2864,19.9016,1089.1824],[-97.2887,19.9038,1060.4794],[-97.2898,19.8994,1130.8956],[-97.2918,19.9003,1151.6295],[-97.2918,19.8967,1196.6047],[-97.2934,19.8968,1197.4814],[-97.2953,19.8934,1224.25],[-97.2904,19.8906,1048.5127],[-97.2905,19.8868,1104.9772],[-97.2999,19.8815,1244.0229],[-97.3019,19.8767,1307.7986]]]]}}