{"type": "Feature","bbox": [-97.8213,16.5931,-97.5529,16.9211],"geometry": {"type": "MultiPolygon","coordinates": [[[[-97.7984,16.6007,933.8394],[-97.779,16.5931,802.5598],[-97.7929,16.6175,1453.3706],[-97.7938,16.6216,1486.1648],[-97.7664,16.625,1210.4124],[-97.7447,16.6237,986.6292],[-97.7227,16.6141,1063.8464],[-97.7166,16.6205,1183.1121],[-97.703,16.6222,1010.5422],[-97.6826,16.6177,596.0665],[-97.6749,16.6177,401.5109],[-97.6712,16.6197,615.0557],[-97.6491,16.6145,818.5095],[-97.6333,16.6064,741.6688],[-97.6259,16.6081,385.3036],[-97.6216,16.6102,399.6357],[-97.6198,16.6145,387.4146],[-97.6157,16.6162,431.5766],[-97.6158,16.6246,426.0707],[-97.6075,16.6307,423.7924],[-97.6077,16.6327,451.7358],[-97.6111,16.6341,410.085],[-97.6115,16.6366,410.8669],[-97.6088,16.6405,555.7051],[-97.6022,16.6423,586.6594],[-97.5992,16.6504,534.1284],[-97.5908,16.6562,483.8531],[-97.5801,16.6577,488.8207],[-97.5632,16.664,591.3211],[-97.5602,16.673,527.1016],[-97.5539,16.6748,583.5753],[-97.5548,16.6771,533.4094],[-97.5586,16.6793,561.6926],[-97.5576,16.6812,547.3907],[-97.5644,16.6864,578.8295],[-97.5625,16.6896,563.1391],[-97.5596,16.6908,566.1592],[-97.5611,16.6967,599.0238],[-97.5554,16.7016,601.1766],[-97.5551,16.7095,627.4705],[-97.557,16.7138,695.21],[-97.5546,16.718,657.1356],[-97.5568,16.7209,705.7551],[-97.5529,16.7264,638.4694],[-97.5563,16.7298,716.0565],[-97.5581,16.7294,749.7571],[-97.5594,16.733,786.4143],[-97.5663,16.7337,933.448],[-97.5745,16.7396,1174.3672],[-97.5764,16.751,1421.2355],[-97.5757,16.7686,1754.7327],[-97.5846,16.7782,1625.6914],[-97.5854,16.7819,1686.6187],[-97.6038,16.7987,2495.6199],[-97.6086,16.8186,2540.9087],[-97.6129,16.8283,2400.603],[-97.6158,16.8437,2268.5078],[-97.6247,16.864,1945.4053],[-97.6269,16.8657,1997.3676],[-97.6263,16.8702,1899.4531],[-97.6305,16.8745,1937.2328],[-97.6298,16.8807,1967.3652],[-97.6318,16.8811,1973.1476],[-97.6318,16.8866,1996.2383],[-97.6354,16.8898,2048.1826],[-97.6334,16.8918,2041.5748],[-97.6367,16.8971,2032.9159],[-97.6364,16.9004,2031.9449],[-97.6426,16.9086,2034.2234],[-97.6414,16.9102,2037.0179],[-97.6439,16.9128,2066.3726],[-97.6429,16.9195,2061.4185],[-97.6525,16.9196,2248.1519],[-97.6541,16.9211,2301.4067],[-97.6565,16.9187,2353.1177],[-97.656,16.9157,2291.1733],[-97.6621,16.9085,2421.9419],[-97.6637,16.8996,2403.5554],[-97.6711,16.8916,2435.7747],[-97.6693,16.8808,2353.5063],[-97.6857,16.8679,1569.7854],[-97.69,16.8576,1331.712],[-97.6931,16.8553,1184.7529],[-97.6935,16.8515,1149.3328],[-97.6974,16.8507,1079.6592],[-97.7032,16.8449,968.6021],[-97.7104,16.8418,1024.6731],[-97.7223,16.8267,1049.8296],[-97.7372,16.8117,1074.8011],[-97.7375,16.809,1057.1926],[-97.7525,16.7848,550.1443],[-97.7518,16.7793,663.0139],[-97.7691,16.7617,660.7097],[-97.8061,16.7031,1801.8983],[-97.8175,16.6783,1566.7734],[-97.7974,16.6572,1576.2097],[-97.8094,16.6462,1214.6371],[-97.8213,16.6296,943.9232],[-97.8183,16.6246,993.3505],[-97.8175,16.6128,845.8808],[-97.8114,16.6076,934.265],[-97.7984,16.6007,933.8394]]]]}
,"properties": {"GID_2": "MEX.20.381_2","GID_0": "MEX","country": "México","GID_1": "MEX.20_1","province": "Oaxaca","NL_NAME_1": "NA","county": "SantaCruzItundujia","VARNAME_2": "NA","NL_NAME_2": "NA","TYPE_2": "Município","ENGTYPE_2": "Municipality","CC_2": "NA","HASC_2": "NA","name": "Santa_Cruz_Itundujia.county","area_km2": 566.1829,"hist_schema_id": "Elevation0-9000","hist_area_km2": {"375": 0.061,"400": 0.5282,"425": 0.9751,"450": 1.7063,"475": 2.3766,"500": 3.8999,"525": 4.9558,"550": 6.0724,"575": 6.6408,"600": 8.0015,"625": 8.5699,"650": 10.3977,"675": 11.1085,"700": 11.738,"725": 12.9161,"750": 16.674,"775": 16.0644,"800": 12.8145,"825": 10.4381,"850": 10.8846,"875": 10.3159,"900": 8.7319,"925": 8.3662,"950": 8.8336,"975": 8.9758,"1000": 8.6302,"1025": 8.4273,"1050": 8.8533,"1075": 8.6096,"1100": 8.1636,"1125": 8.204,"1150": 8.4681,"1175": 7.8588,"1200": 8.7321,"1225": 8.6103,"1250": 8.0821,"1275": 8.7118,"1300": 8.7929,"1325": 7.7574,"1350": 8.3461,"1375": 7.8993,"1400": 7.1278,"1425": 6.5389,"1450": 6.3153,"1475": 6.3965,"1500": 5.8481,"1525": 5.7873,"1550": 5.4014,"1575": 5.4421,"1600": 5.4623,"1625": 5.3404,"1650": 4.8328,"1675": 4.7311,"1700": 4.853,"1725": 4.2641,"1750": 4.2234,"1775": 3.9999,"1800": 2.8831,"1825": 2.8222,"1850": 2.8425,"1875": 2.6799,"1900": 2.5175,"1925": 2.2131,"1950": 2.4159,"1975": 1.8271,"2000": 1.9285,"2025": 2.4969,"2050": 2.253,"2075": 2.4966,"2100": 2.4358,"2125": 2.5168,"2150": 2.3544,"2175": 2.3342,"2200": 2.7403,"2225": 3.2274,"2250": 3.2477,"2275": 3.836,"2300": 4.0795,"2325": 4.8505,"2350": 5.1346,"2375": 5.1751,"2400": 5.5812,"2425": 5.7237,"2450": 6.3328,"2475": 7.5304,"2500": 6.8607,"2525": 6.1708,"2550": 5.5416,"2575": 5.704,"2600": 4.1611,"2625": 3.1664,"2650": 2.5777,"2675": 1.8064,"2700": 1.441,"2725": 1.4207,"2750": 1.4816,"2775": 1.3801,"2800": 1.4613,"2825": 1.2786,"2850": 1.4613,"2875": 0.8727,"2900": 0.1624}}}