{"type": "Feature","bbox": [-92.3525,16.0743,-90.6547,17.2398],"geometry": {"type": "MultiPolygon","coordinates": [[[[-91.0593,16.0743,209.714],[-90.9611,16.0743,165.5008],[-90.9599,16.077,161.3651],[-90.9524,16.0784,154.9591],[-90.9451,16.077,152.8438],[-90.9437,16.0807,147.6353],[-90.9507,16.081,145.3151],[-90.9568,16.0949,144.4382],[-90.9555,16.0984,144.7961],[-90.9586,16.1003,147.701],[-90.9549,16.1009,146.3734],[-90.9563,16.1023,144.5903],[-90.9549,16.1042,144.0959],[-90.9384,16.1086,157.6984],[-90.938,16.1103,153.7744],[-90.9304,16.1138,153.3085],[-90.9215,16.1307,143.2194],[-90.9174,16.1345,142.8647],[-90.9084,16.1388,142.0],[-90.905,16.1429,157.4162],[-90.8993,16.1572,146.6929],[-90.8887,16.1689,144.8552],[-90.8829,16.1783,143.2809],[-90.881,16.1873,141.2797],[-90.8852,16.1952,138.8124],[-90.8901,16.1978,137.3467],[-90.9072,16.1974,138.5362],[-90.909,16.198,136.2066],[-90.9089,16.201,137.3971],[-90.9004,16.213,136.3657],[-90.8959,16.2162,142.2576],[-90.8911,16.2136,152.8491],[-90.8891,16.2032,135.1175],[-90.8875,16.2014,141.4061],[-90.8834,16.1995,148.8702],[-90.8773,16.1997,145.2653],[-90.8656,16.2145,134.2333],[-90.8611,16.2159,139.081],[-90.8528,16.2146,133.2486],[-90.8434,16.2222,135.0898],[-90.8429,16.226,133.4013],[-90.8457,16.2298,134.3293],[-90.8595,16.2334,134.3787],[-90.867,16.2338,133.2763],[-90.8701,16.2362,133.156],[-90.8668,16.2422,131.2523],[-90.8627,16.2423,128.625],[-90.8546,16.2383,132.4834],[-90.8505,16.238,137.1035],[-90.8468,16.2408,128.5],[-90.8476,16.2448,143.8576],[-90.855,16.2468,131.4525],[-90.8587,16.2501,129.1857],[-90.8665,16.264,138.5658],[-90.8703,16.2729,137.0741],[-90.8715,16.2918,132.0685],[-90.8747,16.2985,132.5136],[-90.873,16.3088,130.1486],[-90.8596,16.3148,135.155],[-90.8568,16.3366,124.0],[-90.8535,16.338,126.677],[-90.8394,16.3331,129.0416],[-90.8299,16.3323,124.5025],[-90.8187,16.3386,128.6481],[-90.8066,16.3426,123.9779],[-90.7923,16.3374,127.5945],[-90.7827,16.345,125.353],[-90.7782,16.3463,125.3067],[-90.7695,16.3455,119.932],[-90.766,16.3402,126.7165],[-90.7618,16.3383,123.7983],[-90.7561,16.3383,125.5605],[-90.7528,16.3406,118.0],[-90.7529,16.3459,119.4566],[-90.7577,16.3489,124.8892],[-90.7627,16.3553,121.9023],[-90.7635,16.3596,124.4034],[-90.7612,16.3637,123.4569],[-90.7502,16.3679,119.0297],[-90.7494,16.371,127.8639],[-90.7537,16.3749,120.2779],[-90.7688,16.3756,120.4854],[-90.7731,16.3817,119.6794],[-90.7696,16.3898,119.7903],[-90.7578,16.3906,117.0],[-90.7558,16.3934,119.1365],[-90.7558,16.397,116.5],[-90.7726,16.4079,117.4487],[-90.7743,16.4123,118.1456],[-90.7739,16.4187,120.3327],[-90.7695,16.4222,115.375],[-90.7608,16.4232,117.366],[-90.7553,16.4263,118.5869],[-90.7532,16.4298,118.3924],[-90.7527,16.4369,118.0594],[-90.7452,16.4471,115.8458],[-90.7347,16.4558,115.8221],[-90.7303,16.4681,120.3267],[-90.7247,16.4718,118.6706],[-90.7165,16.473,117.2557],[-90.7119,16.4674,113.0],[-90.7142,16.4637,112.5],[-90.722,16.4649,115.2728],[-90.725,16.4625,120.9954],[-90.7252,16.4571,116.1553],[-90.7195,16.4521,113.5453],[-90.7193,16.45,115.5151],[-90.721,16.4465,114.9487],[-90.7286,16.4412,115.0462],[-90.7309,16.4371,112.0],[-90.7292,16.4298,117.1997],[-90.7241,16.4243,112.7963],[-90.7258,16.4166,119.2112],[-90.7226,16.4139,111.5],[-90.7185,16.4144,117.3222],[-90.7137,16.4197,121.9341],[-90.7136,16.4261,135.6745],[-90.7155,16.4274,113.0438],[-90.717,16.4359,111.0],[-90.7142,16.4431,116.8737],[-90.7109,16.4449,116.2287],[-90.6989,16.4465,113.7218],[-90.6963,16.4488,111.3848],[-90.6959,16.4565,115.0125],[-90.6934,16.4585,116.7316],[-90.6895,16.4583,114.8527],[-90.6833,16.4554,115.3662],[-90.677,16.4574,112.0392],[-90.6762,16.4627,110.6644],[-90.6795,16.4666,114.4245],[-90.6847,16.4679,112.2756],[-90.6936,16.4666,113.551],[-90.6978,16.4686,109.7602],[-90.6996,16.4729,111.2726],[-90.698,16.4796,111.8627],[-90.6988,16.4845,108.7541],[-90.7067,16.4912,114.3745],[-90.7039,16.4949,114.0324],[-90.7,16.4957,108.4146],[-90.6944,16.4947,112.5703],[-90.681,16.4876,110.2303],[-90.6783,16.4881,113.5844],[-90.6768,16.4908,118.7657],[-90.6833,16.511,111.7034],[-90.6852,16.5277,116.2346],[-90.6882,16.5326,106.9245],[-90.6975,16.5407,108.1376],[-90.6902,16.5482,107.4629],[-90.6947,16.5566,109.3251],[-90.6944,16.5635,110.9357],[-90.7044,16.5732,107.2349],[-90.7027,16.5766,109.2611],[-90.6956,16.5799,121.0703],[-90.6936,16.5836,120.7829],[-90.6926,16.5895,111.2257],[-90.6956,16.599,116.0339],[-90.6947,16.6028,110.0875],[-90.6922,16.6048,109.0436],[-90.6864,16.5974,105.549],[-90.6762,16.5904,115.595],[-90.6557,16.5933,102.5],[-90.6547,16.5959,102.5],[-90.6559,16.6091,102.5],[-90.6608,16.6194,103.8871],[-90.6626,16.6283,102.0],[-90.6583,16.6357,102.0],[-90.6582,16.6399,102.0],[-90.676,16.6603,101.5],[-90.677,16.6668,104.082],[-90.6793,16.6706,105.7501],[-90.68,16.6833,104.1596],[-90.6817,16.6877,104.8313],[-90.6839,16.6899,103.0621],[-90.6894,16.6916,101.0],[-90.7006,16.7004,100.5],[-90.7097,16.7042,100.5],[-90.7107,16.7094,105.6247],[-90.7082,16.7165,100.5],[-90.7113,16.7239,102.6941],[-90.7156,16.728,100.0],[-90.7227,16.7295,109.1478],[-90.7547,16.7492,111.1394],[-90.7581,16.7531,152.5029],[-90.7586,16.7594,148.0563],[-90.762,16.7621,116.3261],[-90.8041,16.7738,112.6364],[-90.8059,16.7805,106.1758],[-90.8027,16.7909,98.0],[-90.8039,16.796,107.2554],[-90.8125,16.7969,115.1488],[-90.836,16.7939,131.9327],[-90.8554,16.7956,110.8054],[-90.8583,16.7978,115.7519],[-90.863,16.811,125.7808],[-90.8804,16.8226,106.4071],[-90.8999,16.8229,95.5],[-90.9218,16.8193,99.6196],[-90.9254,16.8231,103.8189],[-90.9268,16.831,101.7246],[-90.9352,16.8409,102.4688],[-90.9329,16.8537,96.1797],[-90.9343,16.857,98.9225],[-90.9444,16.8619,113.8543],[-90.9521,16.8636,104.0293],[-90.9593,16.8631,102.3832],[-90.9685,16.8589,99.5294],[-90.9743,16.8601,201.0338],[-90.9757,16.8652,95.0],[-90.9721,16.871,104.9225],[-90.9579,16.8785,97.1973],[-90.9558,16.8833,114.7803],[-90.9589,16.895,106.4243],[-90.9653,16.8996,132.9121],[-90.9694,16.9013,123.4943],[-90.9779,16.9014,148.1975],[-90.9851,16.898,103.2158],[-90.9863,16.8917,144.4389],[-90.9806,16.8771,98.5857],[-90.9806,16.8713,95.0],[-90.9823,16.8658,95.0],[-90.9885,16.8614,145.4565],[-90.9916,16.8632,144.4752],[-90.9944,16.8748,115.1025],[-91.0072,16.8838,199.0797],[-91.050299999999993,16.8968,138.7417],[-91.0606,16.8979,110.1572],[-91.0672,16.9012,167.2053],[-91.0725,16.9064,123.3832],[-91.0753,16.9116,191.7375],[-91.0725,16.9166,119.9842],[-91.0657,16.9209,100.2855],[-91.0664,16.9243,170.1773],[-91.073,16.9301,101.6326],[-91.0749,16.9348,192.2012],[-91.081,16.9421,158.9688],[-91.0945,16.95,207.1799],[-91.0982,16.9556,140.3395],[-91.1001,16.963,146.1594],[-91.1044,16.9677,197.3896],[-91.1104,16.9715,186.0778],[-91.1175,16.9728,118.6221],[-91.1226,16.977,134.0135],[-91.1238,16.9814,122.6803],[-91.1212,16.9925,142.9017],[-91.1222,17.0023,101.8099],[-91.1277,17.006,92.5565],[-91.1322,17.0066,94.673],[-91.1549,17.0047,107.4772],[-91.1757,17.0161,87.2949],[-91.1928,17.0379,81.4815],[-91.2008,17.0428,89.8964],[-91.2095,17.052,73.0843],[-91.2137,17.0529,70.0],[-91.2143,17.0625,83.4709],[-91.2172,17.0656,82.6109],[-91.2167,17.0717,82.7767],[-91.2186,17.0794,74.0266],[-91.2249,17.0928,91.9863],[-91.2327,17.0999,92.4877],[-91.2547,17.1007,89.9441],[-91.2604,17.103,69.5],[-91.3018,17.067,178.9891],[-91.2994,17.0775,168.3073],[-91.308,17.0846,233.8858],[-91.3089,17.0874,282.3362],[-91.3039,17.0868,304.944],[-91.3017,17.0892,326.2268],[-91.3028,17.0924,298.2226],[-91.3012,17.0919,319.1426],[-91.3,17.0947,242.4557],[-91.3023,17.1001,256.0588],[-91.2978,17.0983,202.7045],[-91.2941,17.1007,223.4988],[-91.2945,17.1036,207.4943],[-91.2881,17.1064,216.9449],[-91.2888,17.1086,264.6418],[-91.2823,17.1063,231.6382],[-91.2788,17.1089,188.3262],[-91.2785,17.115,292.3519],[-91.3022,17.1221,331.1495],[-91.3049,17.1123,358.6288],[-91.3149,17.1079,246.8564],[-91.3233,17.1089,271.658],[-91.3213,17.1259,337.1514],[-91.3538,17.1307,176.3454],[-91.3609,17.0959,130.9231],[-91.3748,17.1052,124.1178],[-91.3859,17.0748,204.5909],[-91.4035,17.0833,322.452],[-91.4075,17.0975,246.2097],[-91.4063,17.1024,192.1431],[-91.415,17.1148,179.9105],[-91.4124,17.1267,132.3976],[-91.4227,17.1266,163.3542],[-91.4226,17.1299,150.4907],[-91.4272,17.1323,167.5723],[-91.4404,17.1466,131.6284],[-91.4446,17.1364,485.4382],[-91.4514,17.1401,466.4482],[-91.4594,17.1417,523.104],[-91.466,17.1497,480.5056],[-91.4709,17.1622,309.7741],[-91.4677,17.1654,154.54],[-91.4788,17.1746,134.8283],[-91.4855,17.1686,345.688],[-91.4776,17.164,343.2739],[-91.4974,17.1346,416.9324],[-91.4961,17.1337,411.4006],[-91.4995,17.1312,442.8191],[-91.4948,17.1274,406.7103],[-91.4658,17.1165,451.8269],[-91.444,17.104,482.368],[-91.4535,17.0897,455.5674],[-91.4519,17.0884,461.1505],[-91.4555,17.0829,432.8899],[-91.4707,17.0955,372.3517],[-91.4737,17.0923,382.2647],[-91.4938,17.1048,360.9368],[-91.4949,17.106,357.932],[-91.4905,17.1098,397.307],[-91.4961,17.1145,390.7122],[-91.509,17.118,391.0752],[-91.5124,17.1207,381.6838],[-91.5187,17.1157,357.5525],[-91.5201,17.1207,363.2584],[-91.5227,17.1219,362.9629],[-91.5239,17.1257,356.9914],[-91.5409,17.1115,396.7081],[-91.5489,17.121,347.9365],[-91.5602,17.1293,349.3013],[-91.5618,17.1332,341.478],[-91.5516,17.1658,449.1183],[-91.5245,17.1914,411.2852],[-91.5263,17.1967,289.3604],[-91.5297,17.1983,326.0933],[-91.5261,17.2109,158.2686],[-91.5575,17.2132,380.5374],[-91.5569,17.2224,244.8619],[-91.5861,17.2249,387.4129],[-91.584,17.2326,366.5708],[-91.6011,17.2248,448.6544],[-91.6265,17.221,459.6699],[-91.6324,17.2061,307.6714],[-91.6381,17.2108,301.8971],[-91.6485,17.216,303.6702],[-91.6508,17.2159,304.3016],[-91.6526,17.2127,297.138],[-91.6552,17.2119,307.9027],[-91.6549,17.2158,272.9211],[-91.6524,17.2199,360.8223],[-91.6679,17.2291,352.5614],[-91.675,17.2388,381.4483],[-91.6785,17.2398,357.9617],[-91.687,17.2384,370.5085],[-91.6927,17.2329,345.9634],[-91.6958,17.227,377.0167],[-91.7084,17.2227,404.068],[-91.7057,17.2163,414.6734],[-91.7068,17.2149,438.4946],[-91.7153,17.2139,424.7918],[-91.7227,17.2101,398.8169],[-91.7285,17.2102,420.0499],[-91.7346,17.2052,416.7776],[-91.7347,17.201,462.1842],[-91.7256,17.1873,480.3089],[-91.7257,17.1815,471.365],[-91.7354,17.1602,680.7641],[-91.7269,17.1676,494.4641],[-91.7182,17.1646,497.6491],[-91.7172,17.1675,475.2234],[-91.7202,17.1688,477.745],[-91.719,17.1699,477.745],[-91.712,17.1659,477.0176],[-91.7084,17.1672,545.6221],[-91.7057,17.1717,486.5186],[-91.6994,17.1685,485.6013],[-91.6923,17.1702,630.331],[-91.6875,17.1775,548.1283],[-91.6854,17.1866,458.1489],[-91.6774,17.1861,429.626],[-91.6746,17.1914,358.9619],[-91.6863,17.202,348.7656],[-91.6794,17.2013,350.0333],[-91.6714,17.1981,333.9161],[-91.6667,17.1989,332.9033],[-91.6643,17.1971,330.5165],[-91.6614,17.2008,339.3707],[-91.6549,17.2044,311.9181],[-91.6535,17.2072,307.1988],[-91.6494,17.2041,333.8367],[-91.6479,17.1723,469.522],[-91.6802,17.1707,676.8295],[-91.6794,17.1587,569.1212],[-91.6823,17.1505,602.5031],[-91.6872,17.1496,651.3451],[-91.6924,17.1461,680.8128],[-91.6957,17.1404,661.1458],[-91.6973,17.14,711.7837],[-91.6981,17.1357,657.7596],[-91.717,17.1372,689.3152],[-91.7389,17.1483,698.7055],[-91.7456,17.1445,739.7039],[-91.7514,17.1382,724.508],[-91.7532,17.1243,765.0262],[-91.7342,17.1171,721.3007],[-91.733,17.1181,687.7323],[-91.7005,17.1042,845.5356],[-91.7033,17.096,687.8344],[-91.7052,17.0937,739.8623],[-91.7139,17.0935,734.3134],[-91.7216,17.0977,771.101],[-91.737,17.0997,696.4085],[-91.7401,17.1017,779.7874],[-91.7437,17.1072,702.4802],[-91.7466,17.105,774.4594],[-91.7531,17.0895,1032.3688],[-91.7614,17.088,970.5],[-91.7656,17.0743,973.8745],[-91.7788,17.0499,865.2502],[-91.7809,17.0482,856.4556],[-91.7815,17.0443,804.4006],[-91.7873,17.0431,812.6415],[-91.7931,17.0352,1066.5391],[-91.8037,17.0379,1098.8682],[-91.8797,16.9969,942.5129],[-91.9196,16.9994,992.8741],[-91.9171,17.0066,1258.1138],[-91.9208,17.0071,1287.0708],[-91.9389,17.0053,1200.4814],[-91.9542,16.9876,1137.7122],[-91.9723,16.9845,1322.5684],[-92.0566,16.9801,1877.7002],[-92.0709,16.9876,1733.1416],[-92.0762,16.9742,1642.6084],[-92.1063,16.9738,1236.0857],[-92.1275,16.9618,1065.724],[-92.1547,16.9707,1159.0122],[-92.1539,16.9774,1380.155],[-92.1557,16.9805,1390.8682],[-92.174,16.991,1364.2866],[-92.1767,16.9889,1330.1736],[-92.1812,16.9886,1282.8655],[-92.1855,16.9937,1353.4348],[-92.1852,16.9982,1476.0535],[-92.1945,16.9949,1284.3307],[-92.2009,16.9959,1254.6726],[-92.2051,16.999,1331.9047],[-92.2106,16.9922,1105.4595],[-92.2062,16.9876,1279.3936],[-92.2064,16.982,1092.1046],[-92.2245,16.9474,1244.0948],[-92.2599,16.9463,1529.2334],[-92.2682,16.9367,1208.075],[-92.2735,16.9434,1755.6973],[-92.2949,16.9456,1599.8812],[-92.2941,16.9526,1271.8225],[-92.3015,16.9528,1343.1273],[-92.3017,16.9511,1389.7471],[-92.3043,16.9506,1402.9376],[-92.304,16.9538,1329.4998],[-92.3095,16.9551,1343.7494],[-92.3184,16.9527,1267.3579],[-92.3212,16.9496,1343.3171],[-92.3101,16.9491,1300.8293],[-92.314,16.938,894.8667],[-92.3184,16.9372,885.187],[-92.3218,16.9344,847.9578],[-92.3259,16.9347,834.9025],[-92.3275,16.9329,878.337],[-92.3286,16.9345,834.4239],[-92.3339,16.9345,854.7632],[-92.336,16.9327,795.3529],[-92.3374,16.9337,825.9343],[-92.3373,16.9318,818.6805],[-92.3394,16.9322,827.604],[-92.3441,16.9238,892.4507],[-92.343,16.9168,1048.1744],[-92.3509,16.9058,1171.1067],[-92.3525,16.9003,1228.0382],[-92.3488,16.9025,1186.3339],[-92.3445,16.9012,1161.3453],[-92.3377,16.9019,1141.0928],[-92.3356,16.9043,1078.7695],[-92.3316,16.905,1079.4348],[-92.3211,16.9037,1110.5835],[-92.3149,16.9057,1020.0858],[-92.2968,16.9008,1036.2358],[-92.2935,16.8947,1100.8242],[-92.3014,16.8904,1241.353],[-92.3032,16.8884,1260.3054],[-92.3034,16.8849,1301.5466],[-92.2892,16.8739,1302.3417],[-92.2763,16.8666,1313.5747],[-92.2665,16.8514,1483.8867],[-92.2624,16.8493,1419.2272],[-92.2584,16.8442,1452.4183],[-92.2514,16.8299,1467.1792],[-92.2373,16.8234,1283.7977],[-92.2338,16.8053,1575.1844],[-92.2427,16.7948,1548.0731],[-92.2003,16.7887,1578.0957],[-92.1931,16.785,1461.1797],[-92.1909,16.7912,1307.0669],[-92.1922,16.7947,1242.2577],[-92.1837,16.7959,1219.5057],[-92.1814,16.7941,1220.1434],[-92.1745,16.7934,1216.9729],[-92.1721,16.7904,1216.6141],[-92.1703,16.7912,1216.0188],[-92.1675,16.7899,1215.2384],[-92.1668,16.7871,1216.3594],[-92.1728,16.7858,1225.126],[-92.174,16.7817,1241.7437],[-92.1799,16.7796,1380.0416],[-92.1798,16.777,1454.0828],[-92.1723,16.7724,1371.228],[-92.1678,16.772,1404.5217],[-92.1624,16.7792,1244.5106],[-92.1575,16.7806,1230.0463],[-92.1557,16.7849,1229.7172],[-92.1478,16.7791,1236.8297],[-92.149,16.7742,1281.8241],[-92.1334,16.768,1228.4977],[-92.1301,16.7542,1221.2205],[-92.1335,16.7534,1224.7629],[-92.1322,16.748,1224.9653],[-92.1076,16.7582,1655.4193],[-92.1002,16.7587,1546.8198],[-92.1016,16.7608,1427.691],[-92.0592,16.7789,1187.5392],[-92.0598,16.7958,1043.9307],[-92.0504,16.8005,1134.0068],[-92.0537,16.821,910.0175],[-92.0442,16.8224,999.3943],[-92.0386,16.8258,955.2347],[-92.0376,16.832,977.1843],[-92.0399,16.8326,976.828],[-92.039,16.8512,943.3728],[-92.0316,16.8488,968.7065],[-92.0302,16.8517,1045.7023],[-91.9994,16.8392,1035.2124],[-92.0058,16.8277,1120.1875],[-92.0114,16.8258,1021.3375],[-92.0119,16.821,941.2337],[-92.0034,16.8105,1118.7294],[-91.9809,16.804,1027.5195],[-91.9797,16.8102,955.004],[-91.9812,16.8105,912.4317],[-91.9793,16.8153,906.7684],[-91.9737,16.8134,925.078],[-91.9701,16.8152,946.2048],[-91.9593,16.8159,1081.3672],[-91.9432,16.813,906.6293],[-91.9383,16.8092,873.011],[-91.9363,16.8102,874.1754],[-91.932,16.8194,854.802],[-91.934,16.8101,879.6865],[-91.9196,16.8028,937.2057],[-91.912,16.8042,897.57],[-91.912,16.8002,1009.4638],[-91.9064,16.7975,1055.5387],[-91.9054,16.7816,1279.4907],[-91.9015,16.7808,1283.1926],[-91.9051,16.7614,1333.3726],[-91.8942,16.7578,1381.6688],[-91.8952,16.7508,1363.9979],[-91.8696,16.7483,1462.3409],[-91.833,16.7475,1678.0277],[-91.7993,16.7434,1665.5072],[-91.797,16.7472,1589.921],[-91.7917,16.7477,1370.5399],[-91.7893,16.7461,1405.9012],[-91.7829,16.7493,1316.5796],[-91.7835,16.7512,1265.745],[-91.7824,16.7518,1252.2532],[-91.7789,16.7499,1244.2603],[-91.7757,16.7513,1204.3947],[-91.7681,16.7511,1095.4646],[-91.7791,16.7024,1364.0881],[-91.7486,16.681,1471.4569],[-91.7333,16.6759,1696.4163],[-91.7053,16.6519,1514.5768],[-91.685,16.648,978.6987],[-91.6848,16.637,1205.3579],[-91.6656,16.6231,990.1667],[-91.6544,16.6184,582.2181],[-91.6525,16.6199,605.4947],[-91.6514,16.6153,654.7883],[-91.6229,16.6139,760.3741],[-91.619,16.6011,673.9212],[-91.6021,16.6197,342.522],[-91.599,16.6188,331.9781],[-91.6014,16.5969,790.0959],[-91.5887,16.5979,1084.684],[-91.5709,16.6056,312.1603],[-91.5519,16.5729,290.7224],[-91.5872,16.56,1121.5045],[-91.6181,16.5665,1250.6426],[-91.6048,16.5534,1005.8447],[-91.6103,16.5401,739.7838],[-91.6035,16.5341,890.7969],[-91.596,16.5387,697.3177],[-91.5921,16.5393,842.648],[-91.5855,16.5314,679.4531],[-91.5836,16.5146,1072.5287],[-91.5782,16.5093,1043.9924],[-91.5791,16.5053,1004.5542],[-91.5839,16.5001,525.4077],[-91.5849,16.4968,362.5165],[-91.5819,16.4908,332.3269],[-91.578,16.4872,330.7471],[-91.534,16.5123,1399.9805],[-91.5071,16.4967,1180.9009],[-91.4973,16.5043,1146.5687],[-91.4943,16.5031,1154.2073],[-91.4865,16.5137,603.2239],[-91.49,16.5169,529.7192],[-91.4908,16.522,360.8429],[-91.4883,16.525,328.6928],[-91.4817,16.5255,246.9541],[-91.4723,16.5163,241.6009],[-91.4615,16.5165,228.0831],[-91.4552,16.5136,222.1151],[-91.4529,16.5117,221.4881],[-91.4516,16.5066,230.5819],[-91.4425,16.5025,248.0057],[-91.4359,16.4939,223.0842],[-91.4352,16.4897,222.458],[-91.4331,16.4881,226.9481],[-91.4455,16.4624,666.1315],[-91.4209,16.4432,220.2346],[-91.4359,16.4235,797.3698],[-91.4211,16.4038,855.5836],[-91.4115,16.4091,252.1527],[-91.4011,16.3945,441.9692],[-91.3968,16.3972,238.3806],[-91.3891,16.3873,262.012],[-91.3625,16.403199999999998,211.5948],[-91.3459,16.4023,223.2877],[-91.3441,16.4039,221.2777],[-91.3422,16.4027,222.3642],[-91.34,16.4071,209.4837],[-91.336,16.4068,212.0289],[-91.3376,16.3979,219.3133],[-91.3407,16.3947,212.3131],[-91.3411,16.3898,197.5],[-91.3354,16.3847,222.5488],[-91.3434,16.3813,215.0458],[-91.3439,16.3799,205.2717],[-91.3333,16.382,200.9355],[-91.3307,16.381,201.9551],[-91.3337,16.3753,216.3527],[-91.3376,16.3726,206.9016],[-91.3369,16.3715,202.1768],[-91.3303,16.3732,200.6479],[-91.3281,16.3725,200.8229],[-91.3272,16.3697,224.2703],[-91.3319,16.3415,202.7568],[-91.3292,16.3368,196.7356],[-91.3382,16.3356,214.5949],[-91.3417,16.3325,199.77],[-91.3385,16.3286,203.0173],[-91.3334,16.327,198.6457],[-91.3311,16.3279,197.2168],[-91.3322,16.3333,191.8149],[-91.329,16.3329,195.439],[-91.3252,16.3281,208.3365],[-91.3287,16.3242,195.5105],[-91.3275,16.322,196.5936],[-91.3243,16.322,196.6898],[-91.3213,16.325,193.5908],[-91.3211,16.3207,190.728],[-91.319,16.3197,192.3685],[-91.3064,16.3162,195.7783],[-91.3002,16.3181,195.2553],[-91.3062,16.3031,187.872],[-91.3021,16.2886,206.0108],[-91.2913,16.2824,200.9089],[-91.2851,16.2934,239.6198],[-91.283,16.3023,237.6103],[-91.2757,16.2968,206.4955],[-91.2808,16.2755,190.1805],[-91.2773,16.2686,197.1494],[-91.273,16.2721,198.9451],[-91.2714,16.2701,201.3467],[-91.2542,16.2661,197.3171],[-91.2487,16.2672,192.2941],[-91.2438,16.2642,195.0961],[-91.2401,16.259,198.9934],[-91.2389,16.2958,253.9834],[-91.2305,16.3067,246.1026],[-91.2343,16.3281,301.6152],[-91.2326,16.3346,248.2627],[-91.2333,16.3442,341.4896],[-91.2251,16.3357,222.7318],[-91.2149,16.3333,224.5264],[-91.2114,16.3304,212.1084],[-91.2058,16.3303,211.1353],[-91.2068,16.3283,221.4749],[-91.2003,16.3254,213.8111],[-91.2013,16.3227,213.9425],[-91.198,16.3204,207.7461],[-91.1803,16.3273,238.1883],[-91.1645,16.3529,509.3372],[-91.1308,16.3391,472.6857],[-91.1354,16.3273,426.319],[-91.1521,16.303,595.8591],[-91.172,16.3191,339.6994],[-91.1731,16.2989,248.7223],[-91.1771,16.2789,275.6929],[-91.1799,16.2731,326.2636],[-91.179,16.2703,353.2483],[-91.1807,16.2667,380.5564],[-91.1497,16.2625,535.3422],[-91.1646,16.2204,293.9689],[-91.116,16.1725,582.5485],[-91.15,16.1372,170.5237],[-91.1626,16.127,281.0025],[-91.1668,16.0778,513.0294],[-91.1658,16.0743,605.4822],[-91.0593,16.0743,209.714]]]]}
,"properties": {"GID_2": "MEX.5.67_2","GID_0": "MEX","country": "México","GID_1": "MEX.5_1","province": "Chiapas","NL_NAME_1": "NA","county": "Ocosingo","VARNAME_2": "NA","NL_NAME_2": "NA","TYPE_2": "Município","ENGTYPE_2": "Municipality","CC_2": "NA","HASC_2": "NA","name": "Ocosingo.county","area_km2": 9599.337,"hist_schema_id": "Elevation0-9000","hist_area_km2": {"75": 1.966,"100": 48.564,"125": 262.942,"150": 561.522,"175": 652.386,"200": 418.729,"225": 335.48,"250": 280.41,"275": 264.576,"300": 197.557,"325": 187.604,"350": 206.075,"375": 215.018,"400": 209.866,"425": 202.41,"450": 162.33,"475": 168.385,"500": 147.155,"525": 157.135,"550": 177.113,"575": 174.77,"600": 195.94,"625": 209.692,"650": 203.613,"675": 188.185,"700": 164.069,"725": 145.345,"750": 132.935,"775": 122.484,"800": 120.173,"825": 153.185,"850": 192.088,"875": 205.432,"900": 197.181,"925": 177.816,"950": 169.309,"975": 162.077,"1000": 153.26,"1025": 149.891,"1050": 140.156,"1075": 120.89,"1100": 109.845,"1125": 97.021,"1150": 89.393,"1175": 80.142,"1200": 77.707,"1225": 86.255,"1250": 81.91,"1275": 78.863,"1300": 69.809,"1325": 63.999,"1350": 55.797,"1375": 49.665,"1400": 43.513,"1425": 36.205,"1450": 31.294,"1475": 27.882,"1500": 23.254,"1525": 21.143,"1550": 19.783,"1575": 18.261,"1600": 15.46,"1625": 15.541,"1650": 12.904,"1675": 12.193,"1700": 9.596,"1725": 7.425,"1750": 5.498,"1775": 5.396,"1800": 4.503,"1825": 5.193,"1850": 4.138,"1875": 2.19,"1900": 1.115,"1925": 0.568,"1950": 0.162}}}