{"type": "Feature","bbox": [-98.162,17.756,-98.1122,17.7965],"geometry": {"type": "MultiPolygon","coordinates": [[[[-98.1147,17.756,1488.2034],[-98.1122,17.7818,1292.5328],[-98.1287,17.7851,1110.1377],[-98.1364,17.7965,1077.1562],[-98.149,17.7947,1082.7544],[-98.1491,17.7901,1087.7797],[-98.1513,17.7873,1101.5046],[-98.1549,17.7888,1112.2921],[-98.1596,17.7877,1116.5437],[-98.162,17.7824,1174.4104],[-98.1552,17.7813,1120.9861],[-98.1529,17.7764,1136.1735],[-98.1374,17.7811,1090.0319],[-98.134,17.7768,1092.2732],[-98.1308,17.7765,1089.1125],[-98.1319,17.7723,1094.9084],[-98.1433,17.7634,1123.366],[-98.1436,17.7594,1120.8732],[-98.1304,17.7591,1287.2947],[-98.1147,17.756,1488.2034]]]]}
,"properties": {"GID_2": "MEX.20.292_2","GID_0": "MEX","country": "México","GID_1": "MEX.20_1","province": "Oaxaca","NL_NAME_1": "NA","county": "SanNicolásHidalgo","VARNAME_2": "NA","NL_NAME_2": "NA","TYPE_2": "Município","ENGTYPE_2": "Municipality","CC_2": "NA","HASC_2": "NA","name": "San_Nicolás_Hidalgo.county","area_km2": 11.366926,"hist_schema_id": "Elevation0-9000","hist_area_km2": {"1075": 2.463012,"1100": 2.14008,"1125": 1.110434,"1150": 0.545136,"1175": 0.403808,"1200": 0.524946,"1225": 0.524945,"1250": 0.40381,"1275": 0.403812,"1300": 0.484578,"1325": 0.302867,"1350": 0.383628,"1375": 0.464395,"1400": 0.363437,"1425": 0.2221,"1450": 0.222103,"1475": 0.181724,"1500": 0.080767,"1525": 0.060576,"1550": 0.080768}}}