{"type": "Feature","bbox": [-103.3907,21.8887,-103.1357,22.0009],"geometry": {"type": "MultiPolygon","coordinates": [[[[-103.3387,21.9423,1655.6282],[-103.3418,21.9395,1681.2437],[-103.3398,21.9387,1703.0144],[-103.341,21.9322,1714.0104],[-103.344,21.9297,1721.4039],[-103.3416,21.921,1775.3717],[-103.3441,21.9135,1791.386],[-103.3551,21.9149,1772.5137],[-103.369,21.9123,1797.5868],[-103.3741,21.9138,1891.8787],[-103.38,21.9102,1934.8591],[-103.3824,21.9106,1945.0881],[-103.3907,21.904,1980.1208],[-103.3851,21.8909,2010.2253],[-103.3785,21.8937,1964.2133],[-103.3771,21.8962,1924.1504],[-103.3613,21.8977,1822.4648],[-103.3454,21.892,1900.0494],[-103.3265,21.8918,1821.7795],[-103.32,21.8887,1658.1873],[-103.318,21.8899,1649.9512],[-103.3194,21.8927,1659.5403],[-103.3171,21.8946,1645.011],[-103.3141,21.8945,1645.5956],[-103.3109,21.8914,1650.7031],[-103.3093,21.8927,1652.1978],[-103.3,21.8919,1662.0781],[-103.294,21.8974,1674.694],[-103.289,21.8998,1684.3094],[-103.2866,21.8987,1693.7032],[-103.2822,21.9029,1698.0967],[-103.2781,21.904,1725.6234],[-103.2806,21.9091,1691.3481],[-103.2779,21.9113,1696.5867],[-103.2768,21.9088,1701.5079],[-103.2692,21.914,1725.9458],[-103.2678,21.9115,1719.8696],[-103.2641,21.9119,1739.1423],[-103.2548,21.917,1757.9872],[-103.2407,21.9174,1811.6284],[-103.2288,21.9148,1881.0703],[-103.2272,21.9083,1871.365],[-103.2206,21.91,1962.2617],[-103.214,21.9075,2137.0735],[-103.2109,21.9091,2277.2971],[-103.2027,21.9028,2618.6641],[-103.2005,21.9027,2630.8018],[-103.1892,21.9105,2710.7214],[-103.1761,21.9129,2717.6125],[-103.1718,21.9159,2686.5847],[-103.1689,21.913,2677.6313],[-103.1662,21.9143,2689.3665],[-103.1635,21.9131,2687.6636],[-103.1578,21.9174,2659.8264],[-103.1516,21.9183,2663.3828],[-103.1505,21.917,2674.772],[-103.1432,21.9345,2615.95],[-103.1357,21.9406,2446.3459],[-103.1369,21.9425,2419.3953],[-103.145,21.9461,2396.5688],[-103.1443,21.9495,2320.9878],[-103.1389,21.9541,2296.8093],[-103.1432,21.9676,2247.9597],[-103.1527,21.9792,2097.3223],[-103.1588,21.9819,2075.6421],[-103.1596,21.984,2029.4924],[-103.1668,21.9846,1971.0813],[-103.1667,21.9879,1963.0516],[-103.1736,21.9978,1906.1534],[-103.1907,21.9979,1832.4832],[-103.1967,22.0009,1842.7371],[-103.1977,21.9991,1868.6008],[-103.2017,21.9986,1876.7706],[-103.2031,21.9956,1906.736],[-103.2003,21.9916,1981.7927],[-103.194,21.9901,2073.9634],[-103.1982,21.9846,2111.3081],[-103.1955,21.9798,2155.6702],[-103.1916,21.9782,2211.7727],[-103.1931,21.9696,2271.0879],[-103.2041,21.9677,2039.048],[-103.2047,21.9655,2005.7876],[-103.2087,21.9651,1977.0214],[-103.2107,21.9681,1941.6412],[-103.2157,21.9668,1870.688],[-103.2215,21.968,1846.7939],[-103.224,21.9718,1822.7003],[-103.2451,21.9772,1755.3384],[-103.2468,21.9759,1739.2874],[-103.2414,21.9708,1778.3131],[-103.2448,21.9666,1751.2555],[-103.247,21.9668,1748.2278],[-103.2622,21.9726,1714.9005],[-103.2659,21.9725,1697.8477],[-103.2734,21.9791,1730.6644],[-103.276,21.9887,1733.5802],[-103.2786,21.9897,1734.1411],[-103.3092,21.9663,1727.843],[-103.3101,21.9591,1708.9221],[-103.3183,21.9561,1662.3097],[-103.3236,21.9511,1651.5386],[-103.3244,21.9484,1671.0425],[-103.3305,21.9459,1633.9045],[-103.3319,21.943,1618.9979],[-103.3387,21.9423,1655.6282]]]]}
,"properties": {"GID_2": "MEX.32.30_2","GID_0": "MEX","country": "México","GID_1": "MEX.32_1","province": "Zacatecas","NL_NAME_1": "NA","county": "Momax","VARNAME_2": "NA","NL_NAME_2": "NA","TYPE_2": "Município","ENGTYPE_2": "Municipality","CC_2": "NA","HASC_2": "NA","name": "Momax.county","area_km2": 162.4081,"hist_schema_id": "Elevation0-9000","hist_area_km2": {"1625": 0.708,"1650": 10.2872,"1675": 13.1381,"1700": 13.9439,"1725": 16.381,"1750": 7.9062,"1775": 8.398,"1800": 9.8339,"1825": 7.0999,"1850": 4.0319,"1875": 3.6976,"1900": 3.0683,"1925": 3.3828,"1950": 2.8518,"1975": 2.2616,"2000": 2.0452,"2025": 1.8484,"2050": 1.6321,"2075": 1.6124,"2100": 2.0253,"2125": 2.281,"2150": 2.045,"2175": 1.5928,"2200": 1.8091,"2225": 1.5142,"2250": 1.2782,"2275": 1.8092,"2300": 1.6913,"2325": 1.6912,"2350": 1.6322,"2375": 2.1042,"2400": 2.7532,"2425": 2.8909,"2450": 3.4218,"2475": 3.2646,"2500": 3.7366,"2525": 1.6521,"2550": 2.0848,"2575": 1.2981,"2600": 1.1605,"2625": 1.3768,"2650": 1.2785,"2675": 0.9441,"2700": 0.7868,"2725": 0.1574}}}