{"type": "Feature","bbox": [-102.8497,22.6172,-102.5393,22.8415],"geometry": {"type": "MultiPolygon","coordinates": [[[[-102.8432,22.838,2348.7808],[-102.8406,22.8211,2380.981],[-102.8458,22.8183,2386.4395],[-102.8463,22.8134,2400.2119],[-102.8494,22.8133,2397.2065],[-102.8497,22.8108,2400.7834],[-102.8467,22.811,2405.6741],[-102.847,22.8092,2411.1133],[-102.8449,22.809,2423.583],[-102.8442,22.8105,2415.0198],[-102.8177,22.8027,2372.5657],[-102.8089,22.8052,2372.3789],[-102.8093,22.795,2416.4573],[-102.793,22.7947,2369.0684],[-102.7869,22.7899,2337.5566],[-102.78,22.7876,2317.9473],[-102.7723,22.7813,2307.6755],[-102.7618,22.7814,2280.9099],[-102.7598,22.7791,2274.0894],[-102.7601,22.7757,2278.2756],[-102.7579,22.7751,2274.1172],[-102.7599,22.7666,2276.3418],[-102.7794,22.7657,2359.9673],[-102.7844,22.7593,2407.333],[-102.783,22.7543,2399.144],[-102.7793,22.7514,2326.8291],[-102.782,22.7407,2288.666],[-102.7804,22.7397,2278.0459],[-102.7802,22.7334,2304.8184],[-102.7784,22.7302,2285.5063],[-102.7697,22.7284,2263.5872],[-102.7619,22.7221,2243.9465],[-102.7718,22.7068,2278.7661],[-102.7702,22.7045,2264.3901],[-102.7754,22.7026,2289.6084],[-102.7805,22.6979,2353.52],[-102.7831,22.6997,2363.0352],[-102.7811,22.6879,2344.7808],[-102.7831,22.6879,2350.3018],[-102.7856,22.6825,2323.2744],[-102.7883,22.6813,2293.5039],[-102.7874,22.675,2247.6353],[-102.7859,22.6759,2263.9031],[-102.7802,22.6738,2348.186],[-102.774,22.6688,2283.2478],[-102.7662,22.6664,2250.7329],[-102.7603,22.6666,2224.948],[-102.7539,22.6729,2207.9658],[-102.7467,22.6702,2191.0874],[-102.7439,22.6708,2184.127],[-102.7406,22.6645,2167.8677],[-102.7344,22.6635,2165.7036],[-102.7404,22.6551,2165.6836],[-102.7365,22.6558,2178.4009],[-102.7221,22.6501,2242.4697],[-102.7162,22.6523,2266.229],[-102.7134,22.65,2282.8379],[-102.7069,22.6499,2349.5142],[-102.7047,22.6514,2447.4478],[-102.6997,22.647,2473.3145],[-102.7009,22.6431,2512.614],[-102.7076,22.6397,2558.0474],[-102.7062,22.6343,2508.9456],[-102.708,22.6322,2497.314],[-102.7078,22.6294,2479.4543],[-102.6938,22.6259,2453.9717],[-102.6943,22.6223,2459.8767],[-102.6868,22.6203,2469.8796],[-102.6743,22.6229,2483.8442],[-102.6581,22.6172,2287.0059],[-102.6544,22.6174,2288.0925],[-102.6529,22.6219,2291.1296],[-102.6486,22.6231,2332.0898],[-102.6476,22.6296,2329.1538],[-102.6409,22.6278,2337.8818],[-102.6397,22.6305,2325.4407],[-102.6345,22.6299,2311.6289],[-102.6319,22.631,2320.2358],[-102.6315,22.6327,2319.2102],[-102.6164,22.6318,2336.082],[-102.6153,22.6385,2368.9631],[-102.6112,22.641,2390.5281],[-102.6033,22.6534,2401.0288],[-102.5974,22.665,2409.5752],[-102.5968,22.6694,2389.6338],[-102.5913,22.6694,2410.884],[-102.5871,22.6717,2461.3557],[-102.5836,22.6696,2468.2825],[-102.5785,22.6704,2453.1592],[-102.5718,22.6684,2436.0593],[-102.5729,22.6718,2434.0276],[-102.5707,22.675,2414.5422],[-102.5722,22.6815,2441.0552],[-102.5707,22.6854,2464.7861],[-102.5732,22.6907,2516.196],[-102.5711,22.692,2490.7368],[-102.5723,22.6967,2513.4648],[-102.568,22.6943,2474.6099],[-102.5625,22.7003,2529.5696],[-102.5594,22.7014,2521.332],[-102.5567,22.7072,2484.6929],[-102.5573,22.7109,2484.7039],[-102.5516,22.7124,2437.6987],[-102.5571,22.7156,2475.9531],[-102.564,22.7297,2593.3989],[-102.5554,22.7389,2722.7002],[-102.5547,22.7502,2593.7451],[-102.5499,22.7531,2422.7991],[-102.5458,22.7528,2378.9944],[-102.5412,22.7639,2342.8237],[-102.544,22.7659,2345.5408],[-102.5409,22.7684,2348.1519],[-102.5412,22.7725,2365.4451],[-102.5393,22.7764,2392.7451],[-102.5399,22.7795,2423.2544],[-102.544,22.782,2414.3818],[-102.5437,22.7954,2562.4106],[-102.5471,22.7972,2561.9067],[-102.5522,22.7951,2538.2456],[-102.5533,22.7982,2544.575],[-102.5519,22.8021,2566.2231],[-102.5584,22.8036,2565.5796],[-102.5567,22.8105,2588.4795],[-102.5653,22.8079,2588.5984],[-102.571,22.8029,2605.7837],[-102.5854,22.8115,2497.6746],[-102.5888,22.8057,2445.3379],[-102.5886,22.8023,2459.3496],[-102.5919,22.7967,2499.5518],[-102.5919,22.7937,2462.824],[-102.5995,22.7914,2427.228],[-102.602,22.7926,2424.1152],[-102.604,22.7894,2414.4631],[-102.6085,22.7924,2428.6199],[-102.6105,22.7896,2364.1042],[-102.6056,22.7895,2456.8564],[-102.6051,22.7768,2393.833],[-102.6112,22.7828,2363.1421],[-102.6115,22.7862,2361.9395],[-102.6137,22.7883,2353.8169],[-102.6234,22.792,2336.7378],[-102.6258,22.8091,2316.1348],[-102.6286,22.8153,2310.2021],[-102.638,22.8185,2284.6824],[-102.6424,22.8173,2276.2305],[-102.6489,22.8185,2268.3486],[-102.6573,22.8177,2255.1221],[-102.6597,22.8165,2252.6499],[-102.6724,22.8179,2229.416],[-102.6777,22.8176,2221.5916],[-102.678,22.8162,2221.9521],[-102.6848,22.8171,2209.9556],[-102.6854,22.8144,2211.7764],[-102.6882,22.8124,2211.981],[-102.6907,22.8135,2209.6726],[-102.6911,22.8115,2210.7979],[-102.6995,22.8111,2206.4133],[-102.7033,22.8087,2203.9082],[-102.7065,22.8098,2204.9404],[-102.7063,22.8113,2203.6672],[-102.7144,22.8115,2211.041],[-102.7245,22.8091,2223.2363],[-102.7266,22.8066,2226.0112],[-102.7342,22.8101,2235.0366],[-102.7414,22.8068,2242.3813],[-102.7415,22.8055,2242.3813],[-102.7425,22.8065,2244.3066],[-102.7473,22.8047,2252.1641],[-102.7451,22.8178,2272.7729],[-102.7454,22.8283,2274.3013],[-102.7474,22.8311,2289.8232],[-102.7454,22.8298,2278.5269],[-102.7465,22.8351,2283.1729],[-102.7528,22.8348,2293.6572],[-102.7528,22.8371,2282.7646],[-102.7664,22.8374,2293.5994],[-102.767,22.8363,2299.8501],[-102.7683,22.8372,2292.7166],[-102.7651,22.8412,2282.7766],[-102.7669,22.8415,2288.2898],[-102.7727,22.841,2299.3623],[-102.7774,22.8377,2333.7256],[-102.7839,22.8378,2353.6907],[-102.7854,22.8354,2369.9033],[-102.7889,22.8367,2358.2197],[-102.795,22.8356,2317.5444],[-102.8073,22.84,2354.7849],[-102.8075,22.8367,2359.3555],[-102.8432,22.838,2348.7808]]]]}
,"properties": {"GID_2": "MEX.32.58_2","GID_0": "MEX","country": "México","GID_1": "MEX.32_1","province": "Zacatecas","NL_NAME_1": "NA","county": "Zacatecas","VARNAME_2": "NA","NL_NAME_2": "NA","TYPE_2": "Município","ENGTYPE_2": "Municipality","CC_2": "NA","HASC_2": "NA","name": "Zacatecas.county","area_km2": 442.9537,"hist_schema_id": "Elevation0-9000","hist_area_km2": {"2175": 10.3099,"2200": 30.0607,"2225": 70.0003,"2250": 54.6529,"2275": 40.2433,"2300": 30.798,"2325": 26.9267,"2350": 32.0665,"2375": 31.2854,"2400": 26.9476,"2425": 20.0848,"2450": 16.2712,"2475": 17.9529,"2500": 14.491,"2525": 8.3303,"2550": 3.9884,"2575": 3.519,"2600": 1.8768,"2625": 0.8212,"2650": 0.8017,"2675": 0.743,"2700": 0.6257,"2725": 0.1564}}}