{"type":"Feature","properties":{"GID_2":"MEX.28.18_2","GID_0":"MEX","country":"México","GID_1":"MEX.28_1","province":"Tamaulipas","NL_NAME_1":"NA","county":"Jaumave","VARNAME_2":"NA","NL_NAME_2":"NA","TYPE_2":"Município","ENGTYPE_2":"Municipality","CC_2":"NA","HASC_2":"NA","name":"Jaumave.county"},
"geometry":{"type": "MultiPolygon","coordinates": [[[[-99.6599,23.7707,1758.7358],[-99.6661,23.7496,2464.4121],[-99.6453,23.6997,2536.5205],[-99.6576,23.6776,2596.5554],[-99.6639,23.6744,2760.9302],[-99.6655,23.6778,2728.4724],[-99.6746,23.6792,2840.4644],[-99.6803,23.675,2876.4368],[-99.6717,23.6524,3081.657],[-99.6422,23.5981,2517.522],[-99.5814,23.4239,2371.6895],[-99.5516,23.4238,1679.4535],[-99.5531,23.4559,1412.833],[-99.5426,23.4559,1439.807],[-99.5275,23.4282,1817.8788],[-99.4749,23.4211,1829.2913],[-99.5015,23.4159,1088.1221],[-99.5015,23.3901,1035.2686],[-99.4976,23.3897,1014.7208],[-99.4988,23.3852,1005.2075],[-99.4965,23.381,997.8529],[-99.5003,23.3829,1005.8499],[-99.5041,23.3797,1022.5521],[-99.5002,23.3567,1468.2092],[-99.5138,23.359,1102.0674],[-99.5165,23.3499,1179.2267],[-99.4912,23.2713,1980.2759],[-99.4918,23.2676,1903.6045],[-99.4967,23.2607,2087.5862],[-99.5359,23.2732,1335.5558],[-99.5348,23.2487,1354.2535],[-99.5006,23.2488,2072.71],[-99.5011,23.2271,2304.0386],[-99.4994,23.2193,2193.6077],[-99.4924,23.1183,1331.478],[-99.478,23.1044,1216.3481],[-99.4777,23.0984,1592.8297],[-99.4736,23.0987,1351.359],[-99.4727,23.0782,1355.1113],[-99.4619,23.0727,1116.4482],[-99.4601,23.0985,1007.748],[-99.4481,23.0978,1020.9449],[-99.448,23.0997,1116.8445],[-99.4417,23.0997,1358.1449],[-99.4426,23.0897,876.6474],[-99.4218,23.0918,793.782],[-99.4159,23.0801,772.7985],[-99.4109,23.0607,924.4886],[-99.3585,23.0604,1239.7268],[-99.3464,23.1441,1390.3208],[-99.3083,23.1479,1474.2397],[-99.2688,23.1315,2050.9575],[-99.2672,23.1434,1847.5488],[-99.2096,23.1664,1603.5148],[-99.2168,23.2023,1424.1493],[-99.1973,23.2066,755.6654],[-99.198,23.2159,717.0764],[-99.1816,23.2196,359.7122],[-99.1856,23.238,397.5958],[-99.1834,23.269,493.7712],[-99.1574,23.2625,435.8923],[-99.1446,23.2661,771.7547],[-99.1778,23.3027,708.6815],[-99.1755,23.3114,725.4818],[-99.187,23.3124,802.0162],[-99.1957,23.3724,1059.2068],[-99.1937,23.375,980.3676],[-99.193,23.3698,995.5969],[-99.1923,23.3994,684.5735],[-99.1563,23.3976,427.8422],[-99.1638,23.4062,422.4839],[-99.1803,23.4191,552.447],[-99.1811,23.4207,519.7474],[-99.1783,23.4264,488.1356],[-99.183,23.4305,544.5282],[-99.1849,23.4303,483.8899],[-99.1849,23.4263,505.2868],[-99.1867,23.4259,491.8228],[-99.1999,23.4322,536.3876],[-99.206,23.4278,494.8983],[-99.2172,23.4345,508.7813],[-99.2345,23.4319,552.4243],[-99.2406,23.4352,538.0442],[-99.2491,23.4313,554.3605],[-99.2492,23.4273,726.4179],[-99.2554,23.4661,1448.2982],[-99.2537,23.4779,1489.3031],[-99.2588,23.4847,1379.6597],[-99.2788,23.5351,1214.568],[-99.2839,23.5679,1199.8612],[-99.2806,23.5689,1334.8347],[-99.2873,23.6171,948.7628],[-99.2612,23.6135,1441.386],[-99.2544,23.6313,1453.9667],[-99.2585,23.6454,1483.5933],[-99.2874,23.6347,963.1248],[-99.2872,23.6569,1342.4844],[-99.2709,23.6728,1821.3846],[-99.2802,23.6788,1715.5067],[-99.3068,23.6829,1210.3651],[-99.3046,23.7102,2123.428],[-99.3064,23.7266,2030.7312],[-99.326,23.7661,1525.8867],[-99.3243,23.7695,1548.3346],[-99.3037,23.7742,1013.9941],[-99.2925,23.7823,980.127],[-99.2867,23.7832,1125.0122],[-99.2838,23.7879,1122.1216],[-99.3057,23.822,1216.8008],[-99.3503,23.8214,1841.8669],[-99.3527,23.8261,1683.3312],[-99.3668,23.8253,1587.5902],[-99.3675,23.8324,1672.0132],[-99.3792,23.8312,1669.4041],[-99.3764,23.8153,1510.2059],[-99.4065,23.8148,1603.6401],[-99.4134,23.8176,1699.0112],[-99.4148,23.8201,1798.8507],[-99.45,23.8164,2427.2864],[-99.4545,23.8413,2563.2886],[-99.4565,23.8461,2569.0425],[-99.464,23.8533,2385.7969],[-99.4674,23.8605,2330.2847],[-99.4674,23.8695,2281.7666],[-99.4938,23.8787,1745.936],[-99.5767,23.7755,1347.7823],[-99.6022,23.7629,1949.818],[-99.6195,23.7597,1639.0548],[-99.6599,23.7707,1758.7358]]]]}}