{"type":"Feature","properties":{"GID_2":"MEX.6.27_2","GID_0":"MEX","country":"México","GID_1":"MEX.6_1","province":"Chihuahua","NL_NAME_1":"NA","county":"Guadalupe","VARNAME_2":"NA","NL_NAME_2":"NA","TYPE_2":"Município","ENGTYPE_2":"Municipality","CC_2":"NA","HASC_2":"NA","name":"Guadalupe.county"},
"geometry":{"type": "MultiPolygon","coordinates": [[[[-105.5697,30.3449,1263.4155],[-105.5631,30.3377,1271.4297],[-105.5194,30.3251,1300.7449],[-105.5216,30.2928,1295.3809],[-105.484,30.2933,1335.736],[-105.493,30.3305,1337.7163],[-105.3518,30.3294,1336.6648],[-105.3677,30.3777,1295.6095],[-105.3143,30.3776,1253.9741],[-105.3142,30.4287,1305.931],[-105.2617,30.4283,1242.5132],[-105.2608,30.3557,1226.7267],[-105.2085,30.3545,1179.9536],[-105.2086,30.3829,1184.4971],[-105.1667,30.383,1163.998],[-105.1714,30.4848,1169.4535],[-105.0929,30.4841,1206.1447],[-105.1022,30.5086,1307.0228],[-104.9797,30.5072,1524.3823],[-104.9583,30.4787,1676.646],[-104.934,30.4675,1471.7261],[-104.8686,30.4726,933.395],[-104.8697,30.479,928.7462],[-104.8718,30.48,928.3093],[-104.8706,30.4842,929.1919],[-104.8673,30.4854,938.3133],[-104.8665,30.4941,938.0116],[-104.8742,30.4955,929.8981],[-104.8727,30.5024,928.1745],[-104.8739,30.5061,928.3854],[-104.8722,30.5107,928.9721],[-104.8736,30.5135,928.5206],[-104.8776,30.511,931.3173],[-104.88,30.5131,928.4195],[-104.8792,30.5165,929.5804],[-104.8857,30.5181,929.3865],[-104.8845,30.5205,930.2285],[-104.8815,30.5213,930.1641],[-104.886,30.5256,930.551],[-104.8843,30.5263,930.551],[-104.8815,30.524,930.6244],[-104.8807,30.5305,930.9297],[-104.8819,30.5322,930.871],[-104.8892,30.535,940.2412],[-104.8909,30.5408,932.985],[-104.8878,30.544,932.3939],[-104.8877,30.5466,932.6877],[-104.8909,30.5464,932.2458],[-104.89,30.5491,933.2791],[-104.8942,30.5512,933.4655],[-104.893,30.5528,933.5943],[-104.8977,30.5541,934.7932],[-104.8962,30.5637,936.782],[-104.8996,30.5708,936.5496],[-104.907,30.5774,937.6358],[-104.909,30.5843,938.8749],[-104.9195,30.5863,939.2458],[-104.9212,30.5901,938.9158],[-104.9197,30.5916,939.0092],[-104.9191,30.5975,939.6],[-104.9215,30.5977,939.4846],[-104.9224,30.6034,939.9768],[-104.927,30.6046,940.7237],[-104.9305,30.5985,941.4073],[-104.9345,30.5999,941.892],[-104.9359,30.6061,941.5282],[-104.9442,30.6029,943.8111],[-104.9515,30.6043,944.3405],[-104.9552,30.609,945.7892],[-104.9581,30.6099,945.8671],[-104.967,30.6079,958.4619],[-104.9731,30.611,948.2228],[-104.9802,30.6219,948.7342],[-104.9809,30.6257,948.6385],[-104.9794,30.6281,959.1625],[-104.983,30.6312,997.9783],[-104.9842,30.6352,962.0587],[-104.9869,30.6628,956.8259],[-104.9934,30.6651,972.3856],[-104.9949,30.6703,956.0551],[-104.9993,30.6707,958.5354],[-105.0014,30.6726,962.9611],[-105.0022,30.6807,957.8185],[-105.0069,30.6858,967.4438],[-105.0136,30.6822,961.4203],[-105.0186,30.6847,977.5711],[-105.0212,30.6813,979.8248],[-105.0259,30.6812,964.6445],[-105.0272,30.6789,959.6486],[-105.0318,30.6808,959.8461],[-105.0364,30.6869,960.7322],[-105.0395,30.6885,960.9824],[-105.0428,30.6872,960.648],[-105.0471,30.6882,961.3699],[-105.0446,30.6842,960.3252],[-105.0469,30.6799,961.2693],[-105.0488,30.6823,961.535],[-105.0546,30.6821,962.2075],[-105.0547,30.6846,962.0053],[-105.0573,30.6877,962.6073],[-105.0619,30.6858,962.0222],[-105.0636,30.6895,962.6765],[-105.0616,30.6946,963.4967],[-105.0627,30.6982,963.333],[-105.0657,30.6983,963.9779],[-105.0689,30.7035,963.3369],[-105.0696,30.702,963.4727],[-105.0759,30.7016,963.9725],[-105.0783,30.6996,963.839],[-105.0826,30.7014,964.1755],[-105.0825,30.7032,964.2201],[-105.0795,30.705,963.8831],[-105.0806,30.7079,964.7709],[-105.0875,30.71,964.9194],[-105.0878,30.7154,965.2745],[-105.0918,30.7171,965.6516],[-105.0985,30.7165,969.3982],[-105.1005,30.7222,967.6898],[-105.1056,30.7237,968.9819],[-105.1034,30.7288,968.0454],[-105.1067,30.7319,968.2576],[-105.1078,30.7298,968.5134],[-105.1118,30.7327,967.8502],[-105.1106,30.7402,968.6647],[-105.1122,30.7409,968.3112],[-105.1117,30.7438,969.6648],[-105.1141,30.7458,970.8097],[-105.117,30.7428,970.1537],[-105.1208,30.7442,970.2021],[-105.1188,30.7497,971.3665],[-105.1267,30.7476,971.9754],[-105.1298,30.7504,972.1237],[-105.1407,30.7523,973.3276],[-105.1428,30.7546,974.0023],[-105.1516,30.7512,974.9631],[-105.1557,30.7534,976.1952],[-105.1617,30.7524,976.2388],[-105.1566,30.7698,977.5101],[-105.1636,30.7712,978.3717],[-105.1659,30.7795,980.1409],[-105.1681,30.7789,980.643],[-105.1701,30.7728,992.3629],[-105.1748,30.7675,984.3666],[-105.185,30.7773,983.257],[-105.1857,30.7835,982.9283],[-105.1914,30.7865,986.1353],[-105.1956,30.7922,989.0251],[-105.1993,30.7881,989.2916],[-105.2066,30.7861,985.7754],[-105.2086,30.7827,987.0408],[-105.2123,30.7819,986.5609],[-105.2168,30.7835,986.6477],[-105.2199,30.7866,990.1342],[-105.2201,30.7892,1002.33],[-105.2175,30.7935,987.5115],[-105.2118,30.7941,988.1339],[-105.2107,30.7986,989.2244],[-105.2155,30.8058,989.6415],[-105.2178,30.8058,989.581],[-105.2274,30.7993,990.2735],[-105.2291,30.8005,989.8769],[-105.2287,30.8028,990.5806],[-105.2307,30.8038,1000.7855],[-105.2416,30.8022,992.9314],[-105.244,30.8001,1014.533],[-105.2504,30.799,1010.7972],[-105.2564,30.7944,1008.1631],[-105.2649,30.8016,1083.241],[-105.2674,30.8086,1043.6855],[-105.2717,30.8092,1008.0632],[-105.2758,30.8071,1009.9588],[-105.2799,30.8162,1005.6926],[-105.2832,30.8183,1012.0337],[-105.2891,30.8191,1025.359],[-105.2912,30.8258,1008.9734],[-105.2998,30.825,1005.3428],[-105.301,30.8183,1004.7708],[-105.3062,30.8098,1013.6194],[-105.3089,30.8106,1014.9767],[-105.3082,30.8148,1006.8569],[-105.3096,30.8168,1007.8306],[-105.3115,30.8128,1008.4166],[-105.3165,30.8109,1022.8268],[-105.3189,30.8132,1008.9958],[-105.3164,30.8186,1008.9487],[-105.3189,30.8229,1011.0394],[-105.3186,30.8283,1011.4794],[-105.3242,30.8284,1012.6553],[-105.3274,30.8248,1017.4659],[-105.3296,30.8255,1014.2489],[-105.3282,30.8311,1020.0172],[-105.3371,30.8336,1014.8752],[-105.3398,30.84,1014.851],[-105.3458,30.8405,1021.1322],[-105.3491,30.8359,1016.2065],[-105.3518,30.8355,1017.0171],[-105.3542,30.8374,1019.6833],[-105.3542,30.8425,1017.0249],[-105.3595,30.8462,1017.459],[-105.3619,30.8506,1016.8307],[-105.369,30.8474,1017.6729],[-105.376,30.8483,1018.6644],[-105.3836,30.852,1019.0061],[-105.3853,30.8508,1019.0596],[-105.3877,30.8537,1019.4564],[-105.3962,30.8505,1019.7401],[-105.4012,30.8532,1020.8384],[-105.4003,30.8571,1020.5817],[-105.3951,30.8624,1021.7672],[-105.3963,30.8662,1022.0485],[-105.3945,30.8682,1022.3989],[-105.3954,30.8719,1024.2076],[-105.392,30.8747,1023.1971],[-105.3946,30.8767,1024.6807],[-105.4003,30.8766,1029.3213],[-105.4045,30.8802,1033.7513],[-105.3994,30.8843,1025.6113],[-105.4001,30.8894,1030.8591],[-105.4041,30.8921,1026.0913],[-105.4124,30.8889,1026.5352],[-105.4109,30.8921,1027.1475],[-105.4138,30.8986,1029.2905],[-105.4162,30.9003,1029.1063],[-105.4254,30.9009,1032.051],[-105.4303,30.9057,1031.5485],[-105.4416,30.9084,1039.0667],[-105.445,30.9135,1041.752],[-105.445,30.9176,1037.0173],[-105.4471,30.9194,1041.886],[-105.4532,30.9162,1041.8223],[-105.4548,30.9192,1041.2579],[-105.4539,30.9212,1037.0632],[-105.452,30.9205,1041.9081],[-105.4519,30.9244,1039.3687],[-105.4672,30.9248,1041.9823],[-105.4678,30.9294,1040.9833],[-105.4712,30.9313,1041.4366],[-105.4711,30.9337,1041.3843],[-105.4764,30.9343,1041.5791],[-105.4787,30.9386,1042.7015],[-105.4824,30.9409,1046.5616],[-105.4864,30.9422,1043.5499],[-105.4895,30.9409,1044.6421],[-105.4915,30.9423,1042.8135],[-105.4919,30.9435,1042.8135],[-105.4885,30.9433,1043.942],[-105.4899,30.9457,1043.88],[-105.4939,30.9491,1045.665],[-105.4993,30.9508,1044.8859],[-105.4955,30.9587,1046.1138],[-105.5027,30.9678,1051.7347],[-105.5163,30.9655,1048.48],[-105.5179,30.971,1057.2024],[-105.5222,30.9762,1048.9122],[-105.5277,30.9787,1048.953],[-105.533,30.9846,1049.2858],[-105.5381,30.9859,1050.1829],[-105.5432,30.9848,1049.3735],[-105.5576,30.99,1049.8931],[-105.5704,31.0087,1050.2997],[-105.5688,31.0151,1051.3492],[-105.5703,31.0174,1051.2842],[-105.5789,31.0212,1051.9031],[-105.5812,31.0274,1051.9856],[-105.5799,31.0357,1051.9651],[-105.5856,31.0573,1053.5217],[-105.5956,31.0647,1053.8799],[-105.5988,31.0753,1054.6008],[-105.6056,31.0846,1055.5428],[-105.627,31.0982,1057.0969],[-105.6423,31.0985,1059.1494],[-105.6485,31.1155,1058.6882],[-105.711,31.137,1061.8882],[-105.7171,31.1412,1062.3488],[-105.7183,31.1473,1062.5369],[-105.7204,31.1498,1062.9559],[-105.7431,31.1646,1064.1366],[-105.7634,31.1639,1064.8317],[-105.7712,31.1652,1067.5054],[-105.774,31.1677,1065.4508],[-105.7761,31.1761,1065.6666],[-105.7804,31.183,1066.1974],[-105.7798,31.191,1066.6318],[-105.7823,31.1963,1066.9143],[-105.7862,31.1995,1067.2225],[-105.7939,31.2019,1067.571],[-105.8087,31.2186,1068.7463],[-105.8257,31.2028,1076.3729],[-105.8069,31.1076,1166.5255],[-105.8287,31.117,1195.3003],[-105.8389,31.1037,1267.1119],[-105.9193,31.1466,1467.483],[-105.9316,31.1636,1365.7206],[-105.9316,31.162,1367.7085],[-105.9389,31.1592,1398.0649],[-105.9449,31.1603,1384.4149],[-105.9463,31.1634,1374.3721],[-105.9518,31.163,1390.99],[-105.9591,31.165,1410.7634],[-105.9605,31.1668,1413.6331],[-105.9652,31.1674,1432.3992],[-105.9698,31.1654,1462.2554],[-105.9785,31.1705,1472.9023],[-105.9795,31.1745,1476.5599],[-105.9911,31.1849,1430.6173],[-106.0074,31.1805,1485.9249],[-106.0359,31.2319,1347.964],[-105.9966,31.2534,1427.444],[-105.9906,31.2781,1202.5748],[-106.0309,31.2992,1161.0114],[-106.0272,31.3475,1086.5312],[-106.0253,31.3543,1084.7864],[-106.0249,31.3741,1085.9669],[-106.0276,31.3746,1086.2762],[-106.0274,31.3768,1086.0269],[-106.0249,31.3762,1086.402],[-106.0239,31.3866,1085.8352],[-106.0203,31.3938,1085.9532],[-106.0802,31.3985,1089.7115],[-106.1068,31.4218,1092.4351],[-106.1108,31.4236,1092.5714],[-106.1304,31.4245,1093.214],[-106.1358,31.4267,1093.8049],[-106.1563,31.437,1095.2766],[-106.1723,31.4535,1096.5221],[-106.1833,31.4582,1097.7019],[-106.1811,31.4549,1097.073],[-106.1821,31.4518,1097.5859],[-106.1984,31.4431,1116.4956],[-106.2035,31.4362,1124.9712],[-106.2097,31.4333,1129.8695],[-106.2124,31.4272,1135.6675],[-106.2223,31.4165,1149.5083],[-106.2349,31.4102,1164.5981],[-106.2595,31.4339,1177.9153],[-106.281,31.3712,1278.4199],[-106.2701,31.3706,1270.7942],[-106.2665,31.3227,1325.3762],[-106.2552,31.3231,1334.6],[-106.255,31.3176,1332.9067],[-106.2661,31.3182,1336.1816],[-106.2636,31.2731,1435.5376],[-106.2804,31.272,1494.6982],[-106.2804,31.254,1642.3904],[-106.2717,31.2452,1696.3779],[-106.2646,31.2546,1497.4491],[-106.2643,31.1766,1496.4783],[-106.3103,31.1537,1456.917],[-106.3049,31.1513,1550.8619],[-106.2985,31.0909,1393.7305],[-106.2903,31.0928,1396.835],[-106.2889,31.0903,1398.4745],[-106.2766,31.0896,1402.4409],[-106.275,31.0875,1403.4557],[-106.2768,31.0784,1415.8347],[-106.283,31.0629,1441.4187],[-106.2791,31.0519,1421.2728],[-106.2793,31.0472,1414.6091],[-106.2718,31.0389,1393.0303],[-106.2728,31.0375,1391.5999],[-106.2531,31.0341,1408.1156],[-106.2517,31.0313,1408.9351],[-106.2437,31.0309,1419.5687],[-106.2378,31.0269,1424.3284],[-106.2322,31.0255,1431.141],[-106.2264,31.0251,1440.9468],[-106.2198,31.0273,1451.4161],[-106.2134,31.0263,1463.9342],[-106.1934,31.0188,1502.6292],[-106.1935,31.0116,1495.5475],[-106.1849,31.0084,1515.1058],[-106.1918,31.0072,1506.5864],[-106.1937,31.0051,1493.3188],[-106.187,31.005,1513.1069],[-106.1783,31.0004,1553.1372],[-106.1849,30.9982,1521.4597],[-106.1943,30.9987,1495.5491],[-106.1937,30.9529,1426.2584],[-106.1333,30.9564,1619.5022],[-106.1324,30.9852,1559.3518],[-106.0912,30.9851,1485.1685],[-106.0916,30.9292,1548.9587],[-106.0853,30.9228,1523.0173],[-106.082,30.9101,1485.9935],[-106.075,30.899,1462.4238],[-106.0721,30.8959,1456.7053],[-106.0368,30.9065,1441.3239],[-106.0311,30.907,1434.6505],[-106.03,30.905,1429.4036],[-106.0289,30.8967,1418.175],[-106.0544,30.8963,1440.1323],[-106.0536,30.8198,1367.41],[-105.881,30.8196,1437.6562],[-105.882,30.8424,1443.3629],[-105.8768,30.8467,1449.7272],[-105.8197,30.8466,1501.0083],[-105.7968,30.8357,1522.1787],[-105.7666,30.8116,1513.1409],[-105.7626,30.8056,1522.989],[-105.7651,30.8029,1515.2814],[-105.7656,30.7992,1513.9932],[-105.7655,30.7958,1517.0902],[-105.7633,30.7942,1519.7429],[-105.7412,30.7868,1510.2041],[-105.7099,30.7705,1538.9137],[-105.7183,30.7104,1748.6785],[-105.7283,30.6567,1525.7976],[-105.7147,30.6551,1447.9583],[-105.6848,30.642,1455.2549],[-105.6859,30.5052,1286.7715],[-105.6168,30.5051,1334.3159],[-105.5965,30.4973,1339.3746],[-105.5934,30.4708,1322.2526],[-105.5969,30.4619,1312.7319],[-105.5975,30.4525,1307.7516],[-105.6045,30.4349,1295.1379],[-105.6023,30.4257,1291.9066],[-105.5981,30.4173,1288.4242],[-105.6036,30.4078,1279.9471],[-105.6041,30.4007,1275.9385],[-105.6072,30.3932,1269.0349],[-105.5752,30.3689,1264.9258],[-105.5752,30.3641,1262.8232],[-105.5697,30.3449,1263.4155]]]]}}