{"type":"Feature","properties":{"GID_2":"MEX.12.25_2","GID_0":"MEX","country":"México","GID_1":"MEX.12_1","province":"Guerrero","NL_NAME_1":"NA","county":"CoyucadeBenítez","VARNAME_2":"NA","NL_NAME_2":"NA","TYPE_2":"Município","ENGTYPE_2":"Municipality","CC_2":"NA","HASC_2":"NA","name":"Coyucade_Benítez.county"},
"geometry":{"type": "MultiPolygon","coordinates": [[[[-99.8058,17.1736,2024.5962],[-99.8332,17.2125,811.778],[-99.8342,17.2107,861.6089],[-99.8356,17.2118,832.625],[-99.8371,17.2179,953.9146],[-99.8456,17.2287,1040.0455],[-99.8539,17.2452,768.6465],[-99.8503,17.2457,870.1642],[-99.8393,17.2634,1245.8729],[-99.8342,17.2772,1679.3428],[-99.8358,17.2786,1582.8784],[-99.8562,17.2799,1030.5408],[-99.8676,17.267,957.0041],[-99.8857,17.2689,834.8298],[-99.8924,17.2673,821.6484],[-99.8942,17.2685,811.0397],[-99.894,17.2749,840.6489],[-99.899,17.2761,832.8351],[-99.9016,17.2749,829.8298],[-99.9046,17.2763,866.2086],[-99.9069,17.2751,836.7557],[-99.9101,17.2777,939.621],[-99.9082,17.2749,836.7557],[-99.9113,17.2777,926.7114],[-99.9124,17.2641,935.7268],[-99.9175,17.2578,1022.9983],[-99.9211,17.2576,1031.1359],[-99.9199,17.255,1158.8848],[-99.9216,17.2512,1267.8462],[-99.9244,17.2514,1201.177],[-99.9278,17.2547,1004.0939],[-99.9312,17.2547,1051.0417],[-99.9329,17.2569,1051.8141],[-99.9348,17.2559,1050.9995],[-99.9407,17.2607,1082.9062],[-99.9439,17.2613,1038.0261],[-99.9453,17.2601,1106.157],[-99.9462,17.2631,1006.5929],[-99.9541,17.2591,1075.748],[-99.9549,17.2657,983.5424],[-99.9586,17.2703,1108.7712],[-99.9592,17.2769,972.1561],[-99.9609,17.278,1014.4811],[-99.9619,17.2967,1452.8516],[-99.9683,17.3035,1724.4377],[-99.9792,17.3065,1901.3671],[-99.9832,17.3106,1891.6958],[-100.0376,17.3764,2089.0889],[-100.048,17.4031,2578.6873],[-100.0636,17.3991,2965.4446],[-100.0721,17.3996,3229.5171],[-100.0771,17.4122,2530.8875],[-100.0826,17.4203,2091.7263],[-100.081,17.4207,2190.7131],[-100.0848,17.4224,2036.1658],[-100.0849,17.4247,2061.5176],[-100.0891,17.424,2020.7448],[-100.0937,17.4273,1849.9001],[-100.0965,17.4273,1861.6541],[-100.0985,17.4384,2201.9531],[-100.1154,17.4544,3147.106],[-100.13,17.4546,3118.1929],[-100.1348,17.4581,3191.8098],[-100.1571,17.4041,1942.2729],[-100.1067,17.357,2461.2283],[-100.2141,17.3017,1453.2502],[-100.2076,17.2856,1475.8344],[-100.2193,17.2553,619.48],[-100.2132,17.2525,555.5303],[-100.2177,17.2459,546.4724],[-100.2155,17.2431,543.8563],[-100.2191,17.242,508.1637],[-100.2188,17.2401,455.6639],[-100.2223,17.2375,442.5809],[-100.2267,17.2375,423.1255],[-100.229,17.2312,436.6674],[-100.2258,17.228,386.842],[-100.2262,17.2251,398.4597],[-100.2196,17.2244,372.9029],[-100.25,17.1829,882.8704],[-100.2339,17.1727,897.2568],[-100.2351,17.1721,897.2568],[-100.2208,17.1643,561.7054],[-100.2334,17.1623,788.7771],[-100.2331,17.1607,815.5789],[-100.2486,17.1502,772.5373],[-100.2468,17.1528,769.1107],[-100.2546,17.1553,576.476],[-100.2735,17.1514,549.4635],[-100.2871,17.1538,664.6238],[-100.2797,17.1449,389.7161],[-100.2867,17.1356,340.5109],[-100.291,17.1352,316.4451],[-100.2896,17.1292,244.1914],[-100.2932,17.1282,179.5913],[-100.2954,17.1205,123.4836],[-100.2914,17.1173,122.3311],[-100.2921,17.1149,99.598],[-100.2998,17.1145,100.7226],[-100.3012,17.1086,55.6458],[-100.3063,17.1072,48.4297],[-100.3047,17.1036,119.5272],[-100.3063,17.103,84.7556],[-100.3054,17.1017,119.457],[-100.3116,17.0955,48.4528],[-100.3096,17.0936,39.5122],[-100.3046,17.0946,110.0313],[-100.3049,17.0923,112.2367],[-100.3014,17.0901,186.0333],[-100.3033,17.0867,179.2485],[-100.3008,17.0845,242.2666],[-100.3043,17.074,114.2125],[-100.3032,17.0742,92.5023],[-100.3034,17.0711,34.5492],[-100.3009,17.0716,36.8178],[-100.3009,17.069,32.7111],[-100.3034,17.0674,28.6241],[-100.2979,17.062,12.275],[-100.3,17.0571,9.0675],[-100.2991,17.0551,2.3469],[-100.2973,17.0564,6.4181],[-100.2935,17.0497,1.5],[-100.2887,17.0479,4.0805],[-100.29,17.0388,5.3109],[-100.2948,17.0378,3.0373],[-100.2888,17.0363,7.1135],[-100.2844,17.0282,2.27],[-100.2716,17.026,5.739],[-100.2701,17.0215,3.0741],[-100.2682,17.0209,4.6374],[-100.2638,17.0231,2.7013],[-100.2559,17.0214,7.6162],[-100.2513,17.0185,2.8944],[-100.2495,17.015,2.5991],[-100.2392,17.0082,2.3904],[-100.238,17.0097,6.504],[-100.2388,17.0131,6.9371],[-100.2376,17.0132,6.3385],[-100.2308,17.0078,3.356],[-100.2214,17.0073,6.8514],[-100.2186,17.0057,11.6042],[-100.2189,17.0042,8.4976],[-100.2213,17.0036,7.71],[-100.2269,17.0071,7.5049],[-100.2321,17.004,1.5],[-100.2332,16.9984,2.7299],[-100.2241,16.9925,2.2561],[-100.2248,16.9908,3.2238],[-100.2287,16.9902,0.0],[-100.192,16.9781,1.1867],[-100.12,16.9485,0.0],[-100.102,16.9458,3.2019],[-100.0822,16.9407,2.684],[-100.0022,16.914,2.0102],[-100.001,16.9189,1.0],[-99.9889,16.9154,5.204],[-99.9783,16.9106,1.0],[-99.9764,16.908,2.0701],[-99.9766,16.9049,5.405],[-99.9688,16.9005,2.1293],[-99.9677,16.9014,4.2573],[-99.9712,16.9062,2.7303],[-99.9718,16.9102,5.7885],[-99.9705,16.9134,1.5695],[-99.9708,16.9251,3.0299],[-99.9649,16.9246,9.3785],[-99.964,16.9263,6.7195],[-99.9598,16.926,9.9511],[-99.9595,16.929,8.0125],[-99.9437,16.9232,71.525],[-99.9428,16.9146,142.25],[-99.939,16.9153,187.54],[-99.9333,16.9085,289.7246],[-99.89,16.9117,725.3149],[-99.8916,16.9294,496.1981],[-99.9211,16.9411,163.9183],[-99.9242,16.9439,132.0515],[-99.9081,16.9587,76.5167],[-99.8969,16.9721,278.7924],[-99.8849,16.9714,228.7388],[-99.8805,16.9728,210.0419],[-99.8724,17.009,549.3708],[-99.848,17.0429,576.6176],[-99.8569,17.0432,535.5773],[-99.8702,17.0518,732.1526],[-99.8712,17.0565,695.7104],[-99.8836,17.0599,742.848],[-99.8833,17.0724,791.2605],[-99.8896,17.0997,1047.6125],[-99.8979,17.1011,1046.6346],[-99.8988,17.1041,1131.4003],[-99.8841,17.1214,1585.2496],[-99.8762,17.1241,1288.9028],[-99.8511,17.124,965.1072],[-99.8418,17.1046,839.8038],[-99.8454,17.1671,1345.5488],[-99.8058,17.1736,2024.5962]]]]}}