{"type": "Feature","bbox": [-96.1976,17.2864,-96.0771,17.46],"geometry": {"type": "MultiPolygon","coordinates": [[[[-96.1799,17.2873,683.0134],[-96.1759,17.2912,805.802],[-96.1686,17.2924,967.8622],[-96.1569,17.3017,1412.139],[-96.1545,17.3015,1447.9443],[-96.1452,17.3099,1881.7751],[-96.152,17.3122,1830.3379],[-96.1467,17.3237,1378.1562],[-96.1387,17.3269,1155.8877],[-96.1307,17.3281,1022.6036],[-96.1241,17.3506,946.9596],[-96.085,17.3528,1648.0286],[-96.0788,17.3626,1939.8918],[-96.0771,17.3825,1997.3003],[-96.081,17.3884,1985.7854],[-96.0854,17.3904,2088.5012],[-96.0859,17.3953,2026.4873],[-96.0922,17.3924,2293.2756],[-96.0979,17.3965,2168.8936],[-96.1025,17.4041,2312.0698],[-96.1008,17.4119,2402.4719],[-96.1176,17.4356,2159.4272],[-96.1263,17.4421,2293.8562],[-96.1301,17.4405,2313.3416],[-96.1344,17.4503,1955.9874],[-96.1389,17.454,1442.0071],[-96.1538,17.4585,1113.5928],[-96.1626,17.4577,985.7366],[-96.1677,17.46,911.7749],[-96.1715,17.4588,880.6158],[-96.1733,17.4556,871.8405],[-96.1674,17.4449,1453.6047],[-96.1652,17.446,1443.2092],[-96.1632,17.4424,1593.5876],[-96.1627,17.4338,1893.9407],[-96.1601,17.428,1825.1718],[-96.1606,17.4237,1660.9453],[-96.1507,17.4192,1223.4158],[-96.1514,17.4081,1151.4656],[-96.1434,17.4005,1527.3965],[-96.146,17.3986,1481.5079],[-96.1435,17.3982,1566.4277],[-96.1414,17.3943,1765.4126],[-96.1451,17.3854,1549.7361],[-96.1433,17.3776,1308.5114],[-96.1416,17.3734,1188.1331],[-96.1359,17.3733,909.5249],[-96.1358,17.3712,881.1749],[-96.1406,17.3641,823.4901],[-96.1428,17.3645,819.5652],[-96.1412,17.3615,893.6471],[-96.1425,17.3592,1020.9343],[-96.1459,17.3592,987.9244],[-96.1522,17.353,708.8732],[-96.1503,17.3584,759.3621],[-96.1565,17.3606,632.9387],[-96.1553,17.3571,680.2412],[-96.1565,17.3527,736.0189],[-96.1553,17.3536,736.0189],[-96.1569,17.3504,848.653],[-96.1553,17.3492,848.653],[-96.1547,17.3503,901.4539],[-96.1539,17.3475,926.8792],[-96.1541,17.3381,1218.8484],[-96.1562,17.3392,1186.774],[-96.1572,17.334,1277.2565],[-96.1617,17.3341,1255.6272],[-96.1617,17.3264,1618.4597],[-96.1648,17.3256,1667.9028],[-96.1743,17.3274,1364.2961],[-96.1731,17.328,1381.0303],[-96.1807,17.34,874.3803],[-96.1852,17.3428,782.4167],[-96.1926,17.3426,532.5577],[-96.1926,17.3385,533.4404],[-96.1949,17.3383,535.3917],[-96.1947,17.3338,549.2488],[-96.1976,17.3329,545.7208],[-96.1938,17.3262,629.5018],[-96.1956,17.3253,596.2274],[-96.194,17.3115,683.8787],[-96.1957,17.3102,636.8867],[-96.1908,17.3017,642.6241],[-96.195,17.2987,642.3123],[-96.1962,17.2903,772.4892],[-96.1939,17.2906,650.3768],[-96.1899,17.2864,645.3312],[-96.1799,17.2873,683.0134]]]]}
,"properties": {"GID_2": "MEX.20.158_2","GID_0": "MEX","country": "México","GID_1": "MEX.20_1","province": "Oaxaca","NL_NAME_1": "NA","county": "SanIldefonsoVillaAlta","VARNAME_2": "NA","NL_NAME_2": "NA","TYPE_2": "Município","ENGTYPE_2": "Municipality","CC_2": "NA","HASC_2": "NA","name": "San_Ildefonso_Villa_Alta.county","area_km2": 94.23385,"hist_schema_id": "Elevation0-9000","hist_area_km2": {"525": 0.10119,"550": 0.1012,"575": 0.18216,"600": 0.22265,"625": 0.62748,"650": 0.68822,"675": 0.70844,"700": 0.68818,"725": 0.58694,"750": 0.74888999999999994,"775": 0.87029,"800": 0.74888,"825": 1.0727,"850": 1.07267,"875": 1.21436,"900": 1.11314,"925": 1.2143,"950": 1.17383,"975": 1.43691,"1000": 1.35599,"1025": 1.3357,"1050": 1.47737,"1075": 1.57849,"1100": 1.67972,"1125": 1.49759,"1150": 1.43679,"1175": 1.65944,"1200": 1.80102,"1225": 1.57844,"1250": 1.74037,"1275": 1.72,"1300": 1.47714,"1325": 1.63911,"1350": 1.53786,"1375": 1.65932,"1400": 1.3962,"1425": 1.71992,"1450": 1.37602,"1475": 1.80087,"1500": 1.80096,"1525": 1.63896,"1550": 1.57825,"1575": 1.61871,"1600": 1.76032,"1625": 1.7199,"1650": 1.71985,"1675": 1.80075,"1700": 1.9626,"1725": 1.98289,"1750": 2.00311,"1775": 2.28629,"1800": 1.65906,"1825": 1.65912,"1850": 1.74004,"1875": 1.76017,"1900": 1.67919,"1925": 1.49712,"1950": 1.51737,"1975": 1.31503,"2000": 0.97109,"2025": 1.31504,"2050": 0.99137,"2075": 1.09251,"2100": 1.05204,"2125": 1.11277,"2150": 1.0116,"2175": 0.72832,"2200": 0.86999,"2225": 0.66763,"2250": 0.74857,"2275": 0.6474,"2300": 0.70808,"2325": 0.40462,"2350": 0.28322,"2375": 0.18207,"2400": 0.20231,"2425": 0.18207,"2450": 0.12138,"2475": 0.02023,"2500": 0.04046,"2525": 0.08092,"2550": 0.02023,"2575": 0.04046}}}