{"type":"Feature","properties":{"GID_2":"MEX.32.36_2","GID_0":"MEX","country":"México","GID_1":"MEX.32_1","province":"Zacatecas","NL_NAME_1":"NA","county":"Ojocaliente","VARNAME_2":"NA","NL_NAME_2":"NA","TYPE_2":"Município","ENGTYPE_2":"Municipality","CC_2":"NA","HASC_2":"NA","name":"Ojocaliente.county"},
"geometry":{"type": "MultiPolygon","coordinates": [[[[-102.2757,22.5123,2019.5822],[-102.2498,22.5081,2033.068],[-102.2501,22.5192,2029.2046],[-102.2289,22.5174,2097.3948],[-102.2183,22.5073,2113.5891],[-102.2073,22.5035,2115.3069],[-102.2057,22.5048,2105.552],[-102.2031,22.5039,2108.3296],[-102.1969,22.4964,2121.9705],[-102.201,22.4911,2143.146],[-102.1972,22.4895,2153.1433],[-102.1976,22.4882,2173.2031],[-102.1923,22.4869,2153.103],[-102.192,22.4834,2170.9426],[-102.1988,22.4729,2114.0547],[-102.1974,22.4694,2104.363],[-102.1979,22.462,2074.6831],[-102.2004,22.4612,2071.3125],[-102.205,22.4541,2055.1472],[-102.2141,22.4448,2030.8918],[-102.213,22.4431,2031.9941],[-102.2171,22.4154,1997.1138],[-102.16,22.4099,2048.739],[-102.1574,22.4108,2061.5598],[-102.1564,22.4095,2066.8618],[-102.135,22.4073,2128.8901],[-102.1103,22.4008,2153.6907],[-102.1134,22.3868,2116.0581],[-102.0988,22.3858,2107.624],[-102.096,22.3864,2109.4944],[-102.0981,22.3931,2122.5991],[-102.0995,22.3933,2122.5991],[-102.0991,22.3953,2127.6045],[-102.0911,22.4009,2120.1616],[-102.0801,22.4027,2100.3208],[-102.07,22.4071,2099.5723],[-102.0697,22.4093,2100.9539],[-102.0662,22.41,2095.2949],[-102.0665,22.4078,2094.2266],[-102.0649,22.4077,2091.6348],[-102.0642,22.4126,2093.9541],[-102.0615,22.4126,2089.1255],[-102.0569,22.4158,2089.0439],[-102.0557,22.4201,2091.8066],[-102.0521,22.4195,2086.2676],[-102.0484,22.4227,2087.2456],[-102.047,22.4276,2093.7776],[-102.0451,22.4279,2092.5078],[-102.0475,22.4323,2099.6597],[-102.0459,22.435,2098.8398],[-102.0463,22.4444,2102.5754],[-102.0494,22.4449,2107.4172],[-102.0491,22.4499,2111.3694],[-102.0514,22.4508,2116.106],[-102.0513,22.4528,2118.7271],[-102.0581,22.4529,2134.0291],[-102.0571,22.4619,2151.0378],[-102.0596,22.4673,2169.8716],[-102.062,22.4714,2176.6023],[-102.0686,22.4741,2206.8372],[-102.073,22.4809,2234.9246],[-102.0749,22.4812,2239.5037],[-102.0741,22.4898,2217.8101],[-102.0763,22.4901,2216.6252],[-102.0677,22.4904,2216.5532],[-102.0628,22.496,2218.4902],[-102.0645,22.4995,2197.0266],[-102.055,22.4983,2213.6064],[-102.0501,22.5001,2162.8914],[-102.0453,22.4999,2151.946],[-102.0442,22.5012,2146.3767],[-102.0444,22.5165,2128.2202],[-102.0412,22.5275,2115.5376],[-102.0418,22.5344,2119.9551],[-102.0483,22.5349,2102.564],[-102.0561,22.5441,2084.866],[-102.0802,22.5528,2068.3345],[-102.0829,22.5576,2060.3179],[-102.0869,22.5553,2064.854],[-102.0882,22.5496,2069.5566],[-102.0919,22.5508,2064.7571],[-102.0819,22.5364,2094.0461],[-102.0797,22.5363,2094.5369],[-102.0815,22.5241,2115.3345],[-102.0914,22.524,2099.22],[-102.1297,22.5301,2075.5469],[-102.1271,22.569,2099.8501],[-102.1375,22.5707,2170.3545],[-102.1384,22.5645,2110.8906],[-102.1441,22.5664,2112.73],[-102.146,22.5725,2120.4912],[-102.1427,22.5833,2114.9661],[-102.1606,22.5867,2165.1201],[-102.1598,22.5983,2311.7903],[-102.166,22.5985,2271.8462],[-102.1654,22.6051,2283.604],[-102.1682,22.6064,2205.5078],[-102.1723,22.6057,2193.155],[-102.1742,22.6159,2273.9397],[-102.1798,22.6212,2256.2432],[-102.178,22.629,2238.7485],[-102.1789,22.6349,2214.1968],[-102.1859,22.6377,2270.9829],[-102.188,22.6414,2238.0322],[-102.1873,22.6477,2185.8911],[-102.1964,22.6496,2167.1099],[-102.191,22.6601,2192.3904],[-102.1851,22.661,2181.3848],[-102.1754,22.6725,2143.3091],[-102.1738,22.6721,2140.8782],[-102.1887,22.6854,2150.6616],[-102.1876,22.688,2143.9775],[-102.1722,22.6847,2132.4812],[-102.1682,22.6899,2126.3325],[-102.1726,22.6994,2124.8872],[-102.1789,22.704,2123.5286],[-102.1772,22.704,2123.5347],[-102.1766,22.7113,2125.6621],[-102.1697,22.7102,2133.97],[-102.1663,22.7105,2140.9883],[-102.1667,22.7125,2141.7046],[-102.1576,22.7125,2171.2876],[-102.1634,22.7211,2159.4302],[-102.1973,22.7454,2133.104],[-102.2023,22.7454,2127.199],[-102.2025,22.7422,2126.8542],[-102.2059,22.7415,2124.1406],[-102.2059,22.7402,2125.3999],[-102.2091,22.7405,2126.2671],[-102.2094,22.7391,2128.7561],[-102.2273,22.7423,2130.1831],[-102.2285,22.7306,2152.1123],[-102.2461,22.7345,2135.0293],[-102.2469,22.7062,2162.2122],[-102.2554,22.6895,2129.8716],[-102.313,22.6904,2116.0884],[-102.3612,22.6762,2158.4331],[-102.3717,22.6778,2175.3069],[-102.3736,22.6713,2183.7263],[-102.3786,22.6657,2195.3013],[-102.3823,22.6671,2206.1516],[-102.388,22.6614,2212.2183],[-102.3917,22.6611,2215.3018],[-102.395,22.6629,2221.6279],[-102.3998,22.6621,2231.312],[-102.4029,22.6542,2247.2668],[-102.4014,22.6506,2252.9792],[-102.4047,22.6459,2273.8394],[-102.4105,22.6295,2357.5278],[-102.4145,22.6295,2360.8074],[-102.4231,22.6346,2340.6624],[-102.4279,22.6351,2346.3423],[-102.4282,22.6301,2315.405],[-102.4316,22.6278,2312.6055],[-102.4304,22.6244,2306.8779],[-102.4336,22.6231,2315.9719],[-102.4335,22.6187,2287.1113],[-102.4299,22.6127,2265.3521],[-102.4312,22.608,2257.5581],[-102.4249,22.6056,2243.7866],[-102.4253,22.6041,2251.2708],[-102.4275,22.604,2252.7927],[-102.4261,22.6014,2267.6179],[-102.4284,22.6006,2269.73],[-102.4275,22.5975,2266.9031],[-102.4308,22.5933,2255.322],[-102.4241,22.5939,2246.3474],[-102.4222,22.5988,2241.5791],[-102.417,22.6001,2238.0005],[-102.3964,22.5967,2223.0396],[-102.3849,22.5985,2197.9602],[-102.3769,22.5942,2196.5132],[-102.3749,22.5924,2186.0471],[-102.3758,22.5918,2184.0564],[-102.37,22.5903,2177.75],[-102.362,22.5848,2165.2898],[-102.3624,22.5829,2170.2017],[-102.3571,22.5781,2154.5276],[-102.3513,22.5766,2158.4194],[-102.3449,22.572,2141.7793],[-102.3393,22.5706,2127.2991],[-102.3291,22.5714,2117.7754],[-102.326,22.57,2108.7122],[-102.3202,22.5631,2098.7764],[-102.3176,22.5545,2087.4211],[-102.3055,22.5539,2077.8479],[-102.2953,22.5597,2070.4893],[-102.2941,22.5585,2069.5522],[-102.2695,22.5632,2047.5635],[-102.2689,22.5556,2045.0336],[-102.2709,22.5558,2046.4355],[-102.2712,22.5471,2040.947],[-102.2728,22.5469,2039.5946],[-102.2757,22.5123,2019.5822]]]]}}