{"type":"Feature","properties":{"GID_2":"MEX.15.69_2","GID_0":"MEX","country":"México","GID_1":"MEX.15_1","province":"México","NL_NAME_1":"NA","county":"Otzolotepec","VARNAME_2":"NA","NL_NAME_2":"NA","TYPE_2":"Município","ENGTYPE_2":"Municipality","CC_2":"NA","HASC_2":"NA","name":"Otzolotepec.county"},
"geometry":{"type": "MultiPolygon","coordinates": [[[[-99.4894,19.5115,3396.5693],[-99.4947,19.5079,3286.5562],[-99.5027,19.5081,3237.5481],[-99.5039,19.5041,3209.7793],[-99.5098,19.5013,3197.5894],[-99.5137,19.5019,3189.6169],[-99.5287,19.499,3142.9211],[-99.5299,19.4938,3131.459],[-99.5388,19.4903,3136.3005],[-99.5453,19.4839,2968.7866],[-99.5501,19.4715,2707.0215],[-99.5637,19.472,2728.0403],[-99.5661,19.4652,2695.8545],[-99.5703,19.46,2668.9797],[-99.5654,19.4454,2611.3027],[-99.5677,19.43,2590.6929],[-99.5689,19.4279,2589.2222],[-99.5801,19.4279,2598.3181],[-99.5795,19.4248,2587.2102],[-99.5819,19.4236,2585.6465],[-99.5832,19.4248,2589.5801],[-99.5908,19.425,2580.1682],[-99.597,19.4089,2570.5144],[-99.5844,19.4062,2572.6074],[-99.5807,19.4141,2577.7104],[-99.578,19.4151,2582.8877],[-99.5757,19.4137,2577.6155],[-99.5717,19.4154,2579.9954],[-99.5768,19.4034,2571.2041],[-99.5661,19.4025,2573.2114],[-99.5675,19.401,2572.4141],[-99.5785,19.3985,2571.7837],[-99.5984,19.4064,2571.5374],[-99.607,19.406,2571.6006],[-99.6101,19.4093,2572.6001],[-99.6114,19.4039,2572.0103],[-99.6099,19.4032,2571.3394],[-99.6102,19.3963,2574.9399],[-99.6302,19.4036,2575.5906],[-99.6348,19.3943,2578.939],[-99.6242,19.392,2578.7476],[-99.6275,19.3807,2585.021],[-99.6204,19.3796,2582.6519],[-99.6152,19.3863,2579.6184],[-99.6064,19.381,2580.075],[-99.5994,19.3826,2578.083],[-99.5837,19.3756,2577.0535],[-99.5719,19.3953,2572.0195],[-99.5657,19.3954,2571.6455],[-99.5426,19.4061,2574.5933],[-99.5371,19.4116,2576.0312],[-99.5288,19.413,2578.2122],[-99.5295,19.4154,2578.2725],[-99.5259,19.4169,2579.2378],[-99.5264,19.4183,2581.5459],[-99.5186,19.4252,2588.1111],[-99.5177,19.4226,2586.3191],[-99.5044,19.4249,2632.0867],[-99.5048,19.4313,2611.2732],[-99.5023,19.4303,2616.4028],[-99.499,19.4338,2636.0784],[-99.4902,19.4356,2667.0271],[-99.4887,19.4377,2673.9907],[-99.485,19.4384,2691.5425],[-99.4821,19.4408,2767.6584],[-99.4835,19.4427,2728.5867],[-99.4805,19.4433,2765.146],[-99.4801,19.4447,2750.1741],[-99.4765,19.4428,2768.2375],[-99.4759,19.4474,2793.7903],[-99.4703,19.453,2816.344],[-99.4666,19.4618,2944.1482],[-99.4665,19.4691,3003.0981],[-99.4578,19.4718,3098.1738],[-99.4474,19.4824,3206.5059],[-99.4434,19.4826,3241.4136],[-99.4427,19.4875,3248.2559],[-99.4329,19.4907,3447.9629],[-99.449,19.4951,3395.6577],[-99.4538,19.5006,3486.4824],[-99.4795,19.5132,3459.8459],[-99.481,19.5116,3431.0659],[-99.4894,19.5115,3396.5693]]]]}}