{"type": "Feature","bbox": [-100.9758,19.7346,-100.5918,19.9783],"geometry": {"type": "MultiPolygon","coordinates": [[[[-100.9587,19.9308,1834.687],[-100.9515,19.8873,1834.8127],[-100.9599,19.8875,1835.4045],[-100.9703,19.8814,1835.8328],[-100.9758,19.8715,1838.2625],[-100.9738,19.8692,1838.4186],[-100.9672,19.8637,1836.4056],[-100.9585,19.8613,1836.5544],[-100.9578,19.855,1835.5649],[-100.9446,19.8564,1835.1577],[-100.942,19.8527,1835.251],[-100.9314,19.8489,1836.4036],[-100.9215,19.8508,1835.9001],[-100.8973,19.8482,1836.3462],[-100.886,19.8375,1837.4705],[-100.8779,19.835,1840.4517],[-100.8435,19.8362,1848.2878],[-100.8468,19.8261,1846.1957],[-100.8449,19.826,1846.1957],[-100.8454,19.8238,1845.175],[-100.8426,19.824,1847.1425],[-100.8438,19.8205,1844.3713],[-100.8419,19.8174,1844.5258],[-100.8437,19.8151,1844.2107],[-100.8428,19.8117,1845.7883],[-100.8457,19.8103,1850.0579],[-100.8449,19.8086,1865.1635],[-100.8382,19.8069,1970.4813],[-100.8367,19.8029,2090.5986],[-100.8259,19.8052,2298.0977],[-100.8217,19.7974,2230.48],[-100.8163,19.7942,2243.2971],[-100.817,19.7916,2257.5039],[-100.8148,19.7919,2274.8105],[-100.8114,19.7874,2360.1372],[-100.8133,19.7812,2277.2644],[-100.812,19.7806,2277.2644],[-100.8132,19.7798,2280.0181],[-100.7997,19.7625,2269.0139],[-100.7946,19.7621,2307.6924],[-100.7899,19.7597,2301.6531],[-100.7875,19.7548,2354.8406],[-100.7797,19.7521,2352.1484],[-100.7753,19.7467,2384.8975],[-100.7695,19.7451,2369.1951],[-100.764,19.7393,2402.9695],[-100.7613,19.7424,2434.3652],[-100.7565,19.7417,2445.1836],[-100.7549,19.744,2412.6003],[-100.751,19.743,2435.4448],[-100.7512,19.7405,2452.4248],[-100.7486,19.7391,2467.3481],[-100.7444,19.7408,2468.2908],[-100.736,19.7404,2493.3386],[-100.7303,19.7352,2512.5449],[-100.7063,19.7346,2763.2852],[-100.7027,19.7446,2725.5012],[-100.7091,19.7519,2586.2871],[-100.7079,19.7547,2551.8691],[-100.7099,19.7568,2591.3271],[-100.7071,19.7578,2619.9829],[-100.7071,19.7618,2660.1775],[-100.7048,19.7639,2680.2222],[-100.7009,19.7643,2641.3208],[-100.6993,19.7683,2659.7715],[-100.6997,19.77,2658.5171],[-100.7079,19.773,2708.0989],[-100.7164,19.7827,2579.478],[-100.7164,19.7866,2581.9451],[-100.7181,19.7868,2567.5547],[-100.7168,19.7924,2575.7227],[-100.7183,19.7935,2574.5652],[-100.7181,19.7975,2565.2219],[-100.72,19.8004,2549.936],[-100.7168,19.8001,2567.9109],[-100.7163,19.8025,2554.4927],[-100.7137,19.8007,2569.2795],[-100.7095,19.8038,2668.208],[-100.6945,19.8061,2736.1733],[-100.6914,19.8056,2742.3057],[-100.6917,19.8035,2774.8511],[-100.6874,19.8026,2776.8689],[-100.6839,19.8075,2839.6619],[-100.6806,19.8089,2855.1797],[-100.6675,19.8085,2972.3293],[-100.6593,19.81,2993.8325],[-100.6565,19.8149,3002.4995],[-100.6509,19.8172,3038.6323],[-100.6529,19.823,2932.301],[-100.6379,19.8211,3176.249],[-100.623,19.8216,2932.115],[-100.6249,19.8147,2969.5457],[-100.6229,19.8123,2977.8091],[-100.6192,19.812,2999.3062],[-100.6166,19.8193,2939.5154],[-100.6101,19.8216,2974.5908],[-100.6098,19.8354,2874.6519],[-100.6052,19.8387,2824.1606],[-100.6025,19.8441,2753.0698],[-100.6012,19.8526,2716.8704],[-100.5982,19.8527,2717.3486],[-100.5973,19.8562,2658.8154],[-100.5974,19.8585,2630.4958],[-100.5997,19.8601,2623.1475],[-100.5988,19.8625,2570.2974],[-100.6001,19.8753,2565.9795],[-100.6034,19.8828,2451.1367],[-100.6061,19.8836,2444.9756],[-100.6063,19.8888,2433.8525],[-100.6033,19.8996,2417.1162],[-100.5988,19.9018,2415.6099],[-100.5944,19.9018,2414.4756],[-100.5933,19.9051,2412.2349],[-100.5918,19.9052,2412.2349],[-100.5962,19.9133,2618.6467],[-100.5948,19.9271,2764.1733],[-100.5962,19.9305,2736.6924],[-100.6056,19.936,2589.1025],[-100.6062,19.9421,2445.1987],[-100.6094,19.946,2396.2148],[-100.6065,19.9517,2311.8857],[-100.607,19.9538,2354.8335],[-100.6197,19.9572,2188.8003],[-100.6489,19.958,2450.1213],[-100.6604,19.9645,2293.3997],[-100.6718,19.9585,2392.8013],[-100.6806,19.9505,2488.8821],[-100.695,19.9477,2312.0627],[-100.7043,19.9428,2290.354],[-100.7188,19.9405,2210.8391],[-100.7328,19.9306,2145.603],[-100.7471,19.9131,2300.7612],[-100.7488,19.9128,2258.8879],[-100.7535,19.9171,2185.6973],[-100.7652,19.9158,2095.8452],[-100.772,19.9179,2038.6401],[-100.7769,19.9146,1992.1313],[-100.7795,19.9158,1990.0807],[-100.7811,19.9189,2085.6174],[-100.7809,19.924,2018.9042],[-100.7837,19.9361,2091.1997],[-100.7907,19.9454,2045.9235],[-100.7921,19.9556,1973.0154],[-100.8022,19.9583,1931.9323],[-100.8124,19.9714,1917.218],[-100.8243,19.9783,1906.5886],[-100.8329,19.9724,1976.7887],[-100.83,19.9597,2090.645],[-100.8302,19.9541,2011.5989],[-100.834,19.9472,2174.0303],[-100.8358,19.9346,1841.9922],[-100.8545,19.9349,1832.9169],[-100.8547,19.9393,1833.9431],[-100.853,19.9417,1838.0907],[-100.8562,19.9423,1834.5057],[-100.8572,19.9466,1833.8867],[-100.8603,19.9489,1835.9395],[-100.8639,19.9487,1835.1899],[-100.8642,19.9465,1833.4824],[-100.8727,19.944,1834.5823],[-100.8826,19.9439,1834.4683],[-100.9016,19.9595,1834.2788],[-100.906,19.9616,1833.063],[-100.9111,19.9617,1833.6605],[-100.9159,19.9579,1836.0474],[-100.9237,19.9582,1835.2405],[-100.9298,19.9564,1833.9918],[-100.9326,19.9535,1832.5],[-100.9356,19.9572,1834.6226],[-100.9475,19.9625,1836.8801],[-100.9479,19.9336,1832.5],[-100.9587,19.9308,1834.687]]]]}
,"properties": {"GID_2": "MEX.16.111_2","GID_0": "MEX","country": "México","GID_1": "MEX.16_1","province": "Michoacán","NL_NAME_1": "NA","county": "Zinapécuaro","VARNAME_2": "NA","NL_NAME_2": "NA","TYPE_2": "Município","ENGTYPE_2": "Municipality","CC_2": "NA","HASC_2": "NA","name": "Zinapécuaro.county","area_km2": 598.3552,"hist_schema_id": "Elevation0-9000","hist_area_km2": {"1825": 92.9361,"1850": 41.355,"1875": 15.2137,"1900": 12.4414,"1925": 12.3213,"1950": 17.6843,"1975": 15.8104,"2000": 13.3985,"2025": 10.1286,"2050": 7.4568,"2075": 6.9187,"2100": 6.5202,"2125": 6.2415,"2150": 6.481,"2175": 6.3214,"2200": 6.0024,"2225": 6.0821,"2250": 6.6004,"2275": 6.3014,"2300": 6.5214,"2325": 8.456,"2350": 8.7552,"2375": 9.9111,"2400": 12.2837,"2425": 22.1141,"2450": 32.1815,"2475": 34.2166,"2500": 27.1788,"2525": 23.0926,"2550": 22.1164,"2575": 16.2937,"2600": 10.9485,"2625": 7.8175,"2650": 6.4615,"2675": 6.1622,"2700": 5.6042,"2725": 5.7443,"2750": 6.1433,"2775": 4.0289,"2800": 3.61,"2825": 2.1341,"2850": 2.4532,"2875": 1.9147,"2900": 2.2538,"2925": 3.3907,"2950": 3.1115,"2975": 2.2538,"3000": 1.9547,"3025": 1.2167,"3050": 0.8178,"3075": 0.4189,"3100": 0.2393,"3125": 0.0598,"3150": 0.1596,"3175": 0.0997,"3200": 0.0199}}}