{"type": "Feature","bbox": [-100.9496,22.5055,-100.6607,22.8229],"geometry": {"type": "MultiPolygon","coordinates": [[[[-100.9452,22.6545,1632.7302],[-100.933,22.6523,1630.8224],[-100.9311,22.6607,1627.5254],[-100.8951,22.6553,1621.1053],[-100.9022,22.6367,1625.9697],[-100.8891,22.6323,1626.0452],[-100.9327,22.5758,1653.8616],[-100.9335,22.578,1654.0088],[-100.9427,22.5784,1659.2839],[-100.9458,22.5767,1660.1138],[-100.9428,22.5682,1661.1089],[-100.9302,22.5572,1664.084],[-100.9302,22.552,1680.5967],[-100.9267,22.5517,1675.1987],[-100.9156,22.5314,1711.9119],[-100.9075,22.5342,1713.6106],[-100.9031,22.5224,1751.2179],[-100.9101,22.519,1755.511],[-100.9091,22.5168,1738.2627],[-100.8933,22.5201,1741.3771],[-100.8808,22.5361,1738.7695],[-100.8893,22.5442,1709.4124],[-100.9019,22.561,1665.5857],[-100.8847,22.578,1648.4089],[-100.8206,22.5225,2002.6562],[-100.8189,22.5232,1998.286],[-100.7878,22.5055,2225.228],[-100.785,22.5059,2237.1438],[-100.7761,22.5182,2165.8809],[-100.779,22.5306,2142.9014],[-100.7557,22.5295,1887.009],[-100.7609,22.5865,1798.7634],[-100.7146,22.5862,1653.4771],[-100.7086,22.6146,1603.2826],[-100.689,22.619,1550.7402],[-100.6607,22.6107,1531.1654],[-100.6663,22.693,1798.3918],[-100.7308,22.7361,1793.2996],[-100.7098,22.7614,2108.5283],[-100.7413,22.7715,1989.0027],[-100.7713,22.8064,1891.509],[-100.8028,22.8229,1852.8861],[-100.8049,22.8125,1788.543],[-100.8359,22.8123,1776.9778],[-100.8362,22.7884,1729.609],[-100.8433,22.7889,1709.8815],[-100.8453,22.7646,1639.0684],[-100.8373,22.7643,1656.1545],[-100.8366,22.7696,1659.0967],[-100.8181,22.7656,1692.2777],[-100.8242,22.7498,1646.5862],[-100.8497,22.7523,1618.1024],[-100.8492,22.7506,1616.2524],[-100.8594,22.7425,1601.4849],[-100.864,22.7408,1601.3339],[-100.864,22.7465,1602.1755],[-100.8776,22.7522,1604.375],[-100.8816,22.7431,1604.866],[-100.8722,22.7384,1603.3982],[-100.8793,22.7317,1604.5126],[-100.8795,22.7332,1604.7257],[-100.8879,22.7391,1606.0334],[-100.8912,22.7251,1606.6769],[-100.8983,22.7251,1608.3391],[-100.899,22.7229,1609.2306],[-100.9159,22.7237,1614.4708],[-100.9143,22.7294,1613.5566],[-100.9229,22.7297,1616.6396],[-100.9248,22.7188,1616.5732],[-100.9295,22.7189,1619.4813],[-100.9323,22.7133,1622.7217],[-100.9297,22.7131,1620.6973],[-100.9275,22.7096,1620.3093],[-100.9339,22.7104,1625.2441],[-100.9361,22.7061,1625.8435],[-100.9329,22.7055,1624.2019],[-100.9335,22.7036,1625.0342],[-100.9267,22.7023,1620.3843],[-100.9272,22.6988,1621.0574],[-100.9411,22.7011,1628.509],[-100.9413,22.6963,1628.8723],[-100.9353,22.6955,1625.3247],[-100.9367,22.6835,1624.4818],[-100.9295,22.6821,1621.7166],[-100.9323,22.6609,1627.5409],[-100.9496,22.6634,1633.1113],[-100.9452,22.6545,1632.7302]]]]}
,"properties": {"GID_2": "MEX.24.49_2","GID_0": "MEX","country": "México","GID_1": "MEX.24_1","province": "SanLuisPotosí","NL_NAME_1": "NA","county": "VilladeArista","VARNAME_2": "NA","NL_NAME_2": "NA","TYPE_2": "Município","ENGTYPE_2": "Municipality","CC_2": "NA","HASC_2": "NA","name": "Villade_Arista.county","area_km2": 588.2185,"hist_schema_id": "Elevation0-9000","hist_area_km2": {"1525": 4.3642,"1550": 18.8831,"1575": 24.711,"1600": 111.8678,"1625": 115.4635,"1650": 53.2509,"1675": 38.8229,"1700": 39.4437,"1725": 34.1585,"1750": 28.6561,"1775": 20.4796,"1800": 15.7665,"1825": 12.756,"1850": 11.5048,"1875": 9.628,"1900": 9.2955,"1925": 8.1999,"1950": 7.6908,"1975": 5.7928,"2000": 4.9317,"2025": 3.1906,"2050": 2.2714,"2075": 1.8995,"2100": 1.2925,"2125": 1.3317,"2150": 1.2338,"2175": 0.7442,"2200": 0.4113,"2225": 0.1567,"2250": 0.0196}}}