{"type":"Feature","properties":{"GID_2":"MEX.19.48_2","GID_0":"MEX","country":"México","GID_1":"MEX.19_1","province":"NuevoLeón","NL_NAME_1":"NA","county":"SantaCatarina","VARNAME_2":"NA","NL_NAME_2":"NA","TYPE_2":"Município","ENGTYPE_2":"Municipality","CC_2":"NA","HASC_2":"NA","name":"Santa_Catarina.county"},
"geometry":{"type": "MultiPolygon","coordinates": [[[[-100.5309,25.4635,3151.9189],[-100.5002,25.4554,2896.1284],[-100.4771,25.4514,2914.7725],[-100.4721,25.4538,2694.3921],[-100.4694,25.4483,2792.5298],[-100.4577,25.4379,2094.3057],[-100.4437,25.435,2702.2197],[-100.4255,25.4358,3215.3923],[-100.4195,25.4422,2611.4463],[-100.4232,25.4445,2616.6382],[-100.4175,25.4519,2130.4817],[-100.4142,25.4514,2088.2681],[-100.4036,25.469,2688.6738],[-100.3867,25.4558,2655.1455],[-100.3448,25.435,2642.6157],[-100.3427,25.4354,2607.6626],[-100.3306,25.4304,2525.0093],[-100.3263,25.4303,2451.3452],[-100.3178,25.4237,2571.4878],[-100.3101,25.4212,2525.0635],[-100.3091,25.4189,2514.9536],[-100.2961,25.4135,2483.095],[-100.2753,25.4244,1134.2666],[-100.2759,25.4199,1163.7371],[-100.2719,25.4193,1258.4747],[-100.2387,25.4295,2211.4587],[-100.2499,25.4453,1788.8395],[-100.2576,25.4821,1968.5809],[-100.2661,25.4979,1868.426],[-100.2734,25.5019,2381.0967],[-100.271,25.5077,1875.9099],[-100.2781,25.5195,1657.5133],[-100.2866,25.5236,1369.6853],[-100.2886,25.5292,1424.3365],[-100.2944,25.5289,2003.4829],[-100.2996,25.5328,1947.8984],[-100.2996,25.5362,2021.54],[-100.3032,25.5393,1908.7054],[-100.3183,25.5472,2156.8284],[-100.3147,25.5589,1546.9451],[-100.3188,25.5608,1370.0726],[-100.3193,25.5668,1244.8898],[-100.3165,25.5697,1142.6956],[-100.317,25.5718,1057.9713],[-100.3215,25.5748,1507.9709],[-100.3293,25.5768,1648.7197],[-100.3419,25.5862,2042.6044],[-100.3441,25.5898,2090.3049],[-100.3645,25.6015,1898.0455],[-100.3686,25.6054,1861.5276],[-100.3866,25.6142,1748.7523],[-100.3962,25.6213,1630.505],[-100.4246,25.6366,1514.6094],[-100.4257,25.6384,1537.5065],[-100.4196,25.6685,628.4678],[-100.4194,25.6743,633.7988],[-100.4207,25.674,633.7988],[-100.418,25.6788,634.225],[-100.416,25.6913,783.3062],[-100.423,25.6952,798.8043],[-100.4275,25.715699999999998,1788.2983],[-100.4766,25.7319,1416.1547],[-100.4791,25.735,1397.2905],[-100.4954,25.7405,901.9708],[-100.5069,25.75,763.8761],[-100.5098,25.75,756.3122],[-100.5133,25.7435,754.6935],[-100.5347,25.7274,780.0927],[-100.5495,25.7101,834.8119],[-100.5545,25.7136,839.3145],[-100.5614,25.7074,871.162],[-100.5655,25.7012,878.3837],[-100.5672,25.7022,883.825],[-100.5757,25.7192,1418.6315],[-100.5849,25.7193,1411.3667],[-100.5919,25.7221,1214.3915],[-100.5999,25.7145,1175.4337],[-100.6025,25.7138,1221.9805],[-100.6025,25.7044,1002.322],[-100.6202,25.7006,1080.7405],[-100.6263,25.6968,1130.0764],[-100.6453,25.6932,1173.2303],[-100.6695,25.6622,1350.012],[-100.6757,25.6604,1605.7059],[-100.7091,25.6584,1133.2472],[-100.6999,25.6388,1693.6228],[-100.7234,25.627,1629.4349],[-100.7298,25.6339,1863.479],[-100.7199,25.6031,2461.6147],[-100.6903,25.5671,2372.6108],[-100.6643,25.5694,2566.3921],[-100.6585,25.568,2568.0544],[-100.6443,25.5725,2248.2234],[-100.6329,25.5713,2627.4521],[-100.612,25.5514,2046.547],[-100.615,25.5466,2071.1797],[-100.6147,25.5423,2078.9004],[-100.5943,25.5444,2684.137],[-100.56,25.5349,2548.562],[-100.5483,25.5343,2803.9683],[-100.5384,25.5319,3002.7859],[-100.5297,25.5144,2701.6074],[-100.5998,25.52,2802.8584],[-100.6191,25.5057,2742.2971],[-100.5795,25.4945,2800.3015],[-100.5849,25.4708,3028.7915],[-100.561,25.4645,3204.5889],[-100.5309,25.4635,3151.9189]]]]}}