{"type": "Feature","bbox": [-90.491,19.7851,-89.9912,20.1424],"geometry": {"type": "MultiPolygon","coordinates": [[[[-90.0659,19.791,97.5732],[-90.0553,19.8222,84.5333],[-90.0241,19.8114,100.3513],[-90.0237,19.804,103.8945],[-90.0192,19.7942,92.8158],[-90.0199,19.7871,83.7657],[-90.0,19.7851,92.5556],[-89.9967,19.8491,74.6252],[-90.0044,19.8398,77.9882],[-90.036,19.8449,73.8872],[-90.0361,19.9029,62.9964],[-90.0077,19.8923,84.5158],[-89.9936,19.8901,103.6895],[-89.9935,19.9036,68.8062],[-89.9998,19.9036,105.0633],[-90.0,19.9169,97.0611],[-90.0086,19.9164,106.0217],[-90.0084,19.9259,107.3888],[-89.9966,19.9257,96.9565],[-89.9966,19.9292,97.177],[-89.9912,19.9295,120.7736],[-89.9918,19.944,104.5309],[-90.0015,19.9444,111.3974],[-90.0007,19.9684,65.724],[-90.0211,19.9683,92.8028],[-90.0203,19.9815,76.1571],[-90.0071,19.9815,79.582],[-90.0014,19.983,86.2911],[-89.9999,19.9955,75.446],[-90.0098,19.9947,66.2147],[-90.0423,19.9988,65.956],[-90.0424,19.9933,59.3373],[-90.055,19.9937,54.7589],[-90.0713,19.9913,90.0552],[-90.0872,20.0138,78.1133],[-90.109,20.031,72.6417],[-90.1126,20.0364,51.3819],[-90.1314,20.028,44.7323],[-90.1555,20.0232,73.8211],[-90.1602,20.0086,78.2534],[-90.1771,20.0113,60.5466],[-90.1791,20.0447,82.308],[-90.1765,20.0746,80.6614],[-90.2016,20.0774,14.3509],[-90.2025,20.0732,16.0617],[-90.2357,20.0773,7.7174],[-90.243,20.0743,5.0913],[-90.255,20.074,11.419],[-90.2583,20.0721,9.0603],[-90.2665,20.073,6.5837],[-90.263,20.0812,9.0087],[-90.3007,20.0954,6.6426],[-90.3004,20.1005,10.9421],[-90.3064,20.1107,7.0716],[-90.3648,20.1115,6.8748],[-90.3603,20.1173,8.5265],[-90.3667,20.1276,9.6632],[-90.3767,20.1277,6.0792],[-90.3947,20.1394,7.6496],[-90.4079,20.123,1.2351],[-90.4401,20.1247,2.5009],[-90.4387,20.1407,7.9165],[-90.4888,20.1424,0.0],[-90.4874,20.1356,1.0659],[-90.4818,20.1261,4.2691],[-90.481,20.1175,0.9354],[-90.4788,20.1135,0.0],[-90.4804,20.1074,0.0],[-90.4785,20.1051,0.0],[-90.4806,20.1003,0.4818],[-90.4803,20.096,0.0],[-90.4845,20.0924,0.6482],[-90.4863,20.0885,0.0],[-90.4861,20.0692,3.2946],[-90.491,20.0609,0.0],[-90.4854,20.0487,1.2644],[-90.4796,20.0408,1.8549],[-90.4786,20.0312,0.0],[-90.4741,20.0283,2.1739],[-90.4654,20.0152,0.489],[-90.4626,20.0139,3.325],[-90.4624,20.0006,0.3924],[-90.4729,19.9951,0.5519],[-90.4698,19.9907,0.0],[-90.4706,19.986,0.0],[-90.4655,19.9816,6.99],[-90.4667,19.9805,1.507],[-90.4621,19.974,0.3564],[-90.4606,19.973,0.4983],[-90.4599,19.9746,3.0197],[-90.4519,19.9743,1.8206],[-90.4515,19.9703,0.0],[-90.4541,19.9652,0.9086],[-90.4515,19.9597,0.0],[-90.4488,19.9616,4.5885],[-90.4473,19.9595,2.8453],[-90.4308,19.9559,0.4338],[-90.3891,19.9527,4.4068],[-90.3881,19.9628,2.6681],[-90.38,19.962,7.3999],[-90.3797,19.965,6.5184],[-90.3504,19.9599,7.8915],[-90.3459,19.9479,24.5291],[-90.3229,19.9434,27.7058],[-90.3097,19.9386,17.4411],[-90.2975,19.8945,26.2395],[-90.2736,19.8905,14.7004],[-90.2589,19.8944,15.6047],[-90.2382,19.9101,19.842],[-90.2359,19.881,29.174],[-90.254,19.854,22.1421],[-90.235,19.8425,34.6078],[-90.2104,19.8475,27.5557],[-90.188,19.8294,51.6193],[-90.1824,19.8232,38.765],[-90.2091,19.799,59.8697],[-90.2055,19.7971,47.7156],[-90.1841,19.796,47.011],[-90.147,19.8112,39.2969],[-90.1477,19.8069,32.803],[-90.1091,19.806,49.2958],[-90.0974,19.8015,53.1828],[-90.0974,19.8031,64.0193],[-90.081,19.7955,86.6133],[-90.0659,19.791,97.5732]]]]}
,"properties": {"GID_2": "MEX.4.11_2","GID_0": "MEX","country": "México","GID_1": "MEX.4_1","province": "Campeche","NL_NAME_1": "NA","county": "Tenabo","VARNAME_2": "NA","NL_NAME_2": "NA","TYPE_2": "Município","ENGTYPE_2": "Municipality","CC_2": "NA","HASC_2": "NA","name": "Tenabo.county","area_km2": 1061.611,"hist_schema_id": "Elevation0-9000","hist_area_km2": {"0": 391.6843,"25": 182.212,"50": 245.2253,"75": 181.2233,"100": 55.6842,"125": 5.5818}}}