{"type":"Feature","properties":{"GID_2":"MEX.7.6_2","GID_0":"MEX","country":"México","GID_1":"MEX.7_1","province":"Coahuila","NL_NAME_1":"NA","county":"Castaños","VARNAME_2":"NA","NL_NAME_2":"NA","TYPE_2":"Município","ENGTYPE_2":"Municipality","CC_2":"NA","HASC_2":"NA","name":"Castaños.county"},
"geometry":{"type": "MultiPolygon","coordinates": [[[[-101.1126,26.6977,1935.2863],[-101.1291,26.707,1941.7151],[-101.1342,26.7165,1953.8888],[-101.1442,26.725,1952.8462],[-101.1735,26.7415,2133.2385],[-101.1958,26.748,2095.8359],[-101.1981,26.7877,1732.9508],[-101.205,26.8073,1776.25],[-101.2299,26.8298,1969.7626],[-101.2407,26.8378,2021.5345],[-101.256,26.8452,2161.6414],[-101.2683,26.8451,2081.9871],[-101.2842,26.8393,1859.7937],[-101.367,26.8193,1661.0018],[-101.3717,26.8237,1533.2646],[-101.3857,26.8294,924.1267],[-101.4051,26.8331,816.8987],[-101.4105,26.8376,790.3829],[-101.4219,26.8307,726.4325],[-101.4307,26.8301,703.944],[-101.4406,26.8368,724.166],[-101.4713,26.8182,1188.222],[-101.4882,26.8171,1444.6221],[-101.5272,26.8438,771.4482],[-101.5817,26.8067,984.0714],[-101.5907,26.8174,1024.1874],[-101.6233,26.8389,1080.9081],[-101.6259,26.8446,1109.0927],[-101.6352,26.8422,1127.2584],[-101.6532,26.8578,1074.4895],[-101.65,26.8921,752.507],[-101.8043,26.7953,1813.5544],[-101.8381,26.769,1956.3179],[-101.7837,26.6846,2014.5436],[-101.7335,26.6123,1959.7463],[-101.7174,26.6334,1965.0818],[-101.6844,26.6094,1845.7444],[-101.6842,26.5892,1560.2601],[-101.6564,26.5588,1549.8696],[-101.5953,26.5297,1755.3687],[-101.5169,26.4533,1802.8376],[-101.5147,26.4473,1683.4738],[-101.5085,26.4441,1849.3021],[-101.5028,26.4315,1830.114],[-101.4964,26.4312,1955.8157],[-101.4849,26.4206,1387.8555],[-101.5111,26.4107,1378.2815],[-101.5609,26.4183,2406.0603],[-101.505,26.3911,1840.9501],[-101.5291,26.3772,1749.9742],[-101.5053,26.3388,1262.662],[-101.4549,26.2674,1164.8551],[-101.3713,26.2702,1131.4318],[-101.348,26.2958,1230.446],[-101.3454,26.3006,1326.2366],[-101.3462,26.3052,1263.501],[-101.3299,26.2987,1744.5159],[-101.3224,26.2977,1906.5935],[-101.316,26.3001,2067.0847],[-101.3125,26.3054,2134.0042],[-101.3115,26.3101,2252.3604],[-101.2378,26.2851,1764.759],[-101.2356,26.2899,2004.4437],[-101.2205,26.2815,1875.9893],[-101.182,26.2411,1640.2561],[-101.1403,26.2174,1581.0464],[-101.1231,26.1852,1359.3962],[-101.0746,26.199,919.0245],[-101.0917,26.2445,899.9786],[-101.1041,26.2612,819.2291],[-101.1854,26.3454,1349.7726],[-101.2068,26.3698,1803.4446],[-101.1896,26.3847,1096.7007],[-101.0789,26.4693,765.1478],[-100.9838,26.5456,1091.8049],[-100.9891,26.5538,1063.5864],[-100.9896,26.5583,1092.3838],[-100.9873,26.5594,1087.4193],[-100.9929,26.5696,1002.1479],[-100.9949,26.5799,1080.6216],[-100.9915,26.5887,1019.9918],[-100.9964,26.5931,1068.8268],[-100.996,26.5978,921.0546],[-101.0187,26.5977,1135.3999],[-101.0364,26.6221,1251.0991],[-101.0387,26.6224,1187.6577],[-101.0439,26.6288,1335.4004],[-101.0442,26.6348,1392.0853],[-101.0534,26.6377,1413.4663],[-101.0562,26.6368,1475.2383],[-101.1126,26.6977,1935.2863]]]]}}