{"type":"Feature","properties":{"GID_2":"MEX.20.234_2","GID_0":"MEX","country":"México","GID_1":"MEX.20_1","province":"Oaxaca","NL_NAME_1":"NA","county":"SanLorenzoVictoria","VARNAME_2":"NA","NL_NAME_2":"NA","TYPE_2":"Município","ENGTYPE_2":"Municipality","CC_2":"NA","HASC_2":"NA","name":"San_Lorenzo_Victoria.county"},
"geometry":{"type": "MultiPolygon","coordinates": [[[[-98.1235,17.6854,1157.8459],[-98.1364,17.6798,1269.63],[-98.1466,17.6827,1369.8792],[-98.1481,17.6814,1373.6306],[-98.1517,17.6825,1438.3989],[-98.1512,17.6803,1484.6753],[-98.1549,17.6789,1454.6946],[-98.1628,17.6791,1554.715],[-98.161,17.6758,1615.5332],[-98.1619,17.6722,1729.8385],[-98.1685,17.6713,1774.5914],[-98.1676,17.67,1835.3789],[-98.1694,17.6674,1691.3923],[-98.1567,17.6607,1489.1068],[-98.1546,17.6561,1428.5466],[-98.1549,17.6528,1360.3005],[-98.1427,17.6465,1242.8242],[-98.1483,17.6409,1259.2349],[-98.1508,17.6409,1271.2517],[-98.1542,17.6366,1300.1169],[-98.1225,17.6181,1823.2634],[-98.1296,17.5853,1713.832],[-98.1366,17.5826,1584.3164],[-98.1376,17.58,1617.26],[-98.1367,17.5739,1633.4169],[-98.1383,17.5731,1642.0294],[-98.1394,17.5654,1693.0789],[-98.1356,17.566,1710.0237],[-98.1321,17.5644,1744.6846],[-98.1235,17.5674,1644.1379],[-98.1271,17.5705,1745.1963],[-98.1143,17.5705,1629.3295],[-98.1108,17.5688,1634.2136],[-98.1094,17.5697,1637.1094],[-98.107,17.5787,1589.3896],[-98.1044,17.5815,1609.4875],[-98.1004,17.5924,1599.6215],[-98.1021,17.5964,1557.6149],[-98.1009,17.5982,1569.3298],[-98.0966,17.5991,1484.4414],[-98.0969,17.6094,1387.6089],[-98.0988,17.6135,1309.0819],[-98.0968,17.619,1272.3833],[-98.0971,17.6253,1247.0414],[-98.0945,17.6289,1256.6229],[-98.0927,17.6364,1229.9463],[-98.0885,17.6413,1237.0663],[-98.0871,17.637,1332.0719],[-98.0841,17.6332,1404.6764],[-98.0838,17.6343,1348.7015],[-98.0859,17.6417,1231.6353],[-98.0837,17.6435,1214.7141],[-98.0843,17.6445,1191.0543],[-98.0965,17.6479,1188.9967],[-98.1009,17.6435,1190.7311],[-98.1031,17.6442,1184.8586],[-98.1038,17.6486,1183.5132],[-98.0984,17.6507,1183.2385],[-98.0978,17.6544,1206.7664],[-98.1084,17.6513,1175.4103],[-98.1131,17.6547,1171.3553],[-98.1138,17.6621,1214.864],[-98.116,17.6649,1167.9091],[-98.1182,17.6733,1166.9589],[-98.1199,17.6733,1173.656],[-98.1159,17.6839,1195.7144],[-98.1227,17.6832,1160.4108],[-98.1235,17.6854,1157.8459]]]]}}