{"type":"Feature","properties":{"GID_2":"MEX.20.55_2","GID_0":"MEX","country":"México","GID_1":"MEX.20_1","province":"Oaxaca","NL_NAME_1":"NA","county":"MagdalenaPeñasco","VARNAME_2":"NA","NL_NAME_2":"NA","TYPE_2":"Município","ENGTYPE_2":"Municipality","CC_2":"NA","HASC_2":"NA","name":"Magdalena_Peñasco.county"},
"geometry":{"type": "MultiPolygon","coordinates": [[[[-97.5787,17.1754,2328.2617],[-97.5775,17.1857,2189.7012],[-97.5726,17.1939,2161.4604],[-97.5457,17.2075,2228.3696],[-97.5127,17.2393,1804.6465],[-97.5091,17.2359,1806.0759],[-97.5024,17.2345,1801.4517],[-97.4917,17.2349,1771.1624],[-97.4902,17.2413,1856.2401],[-97.4899,17.2655,1833.2588],[-97.4958,17.2705,1865.3416],[-97.5011,17.27,1860.4954],[-97.5214,17.2905,2221.2798],[-97.5253,17.2875,2065.7502],[-97.5286,17.2896,2079.4641],[-97.5403,17.2903,2089.2649],[-97.5385,17.2947,2177.835],[-97.5446,17.2942,2179.0132],[-97.5442,17.2873,2188.1487],[-97.5502,17.275,2143.8652],[-97.5614,17.2657,2177.3296],[-97.6099,17.2529,2269.9973],[-97.6126,17.2222,2462.4705],[-97.5787,17.1754,2328.2617]]]]}}