{"type": "Feature","bbox": [-109.484,28.4926,-108.5516,29.5454],"geometry": {"type": "MultiPolygon","coordinates": [[[[-108.7303,29.2691,1578.1155],[-108.7338,29.2822,1552.8254],[-108.7381,29.2846,1587.5569],[-108.7442,29.2767,1494.197],[-108.7445,29.3126,1551.2822],[-108.778,29.296,1398.816],[-108.7943,29.2965,1127.5365],[-108.8188,29.3097,1274.6458],[-108.8306,29.3026,1479.9757],[-108.8354,29.3141,1485.1268],[-108.8824,29.3672,1299.7946],[-108.8824,29.3782,1143.5317],[-108.9185,29.391,581.4401],[-108.9264,29.3793,609.2186],[-108.9386,29.3802,570.0404],[-108.9372,29.3767,614.3679],[-108.9473,29.3781,541.9319],[-108.9504,29.3693,579.5634],[-108.9676,29.3693,658.5417],[-108.9765,29.3744,557.8957],[-108.9968,29.375,517.2435],[-109.0079,29.3658,535.1578],[-109.0138,29.3638,519.1185],[-109.0172,29.3666,522.9816],[-109.0186,29.3728,515.4254],[-109.0257,29.3746,516.4829],[-109.0291,29.3788,544.1742],[-109.0325,29.3802,517.5042],[-109.0322,29.3824,577.8472],[-109.037,29.3907,554.0161],[-109.037,29.3946,568.8522],[-109.0432,29.4001,576.9669],[-109.0453,29.4047,497.8202],[-109.0501,29.4037,510.6192],[-109.0519,29.406,501.94],[-109.0575,29.4066,540.9681],[-109.0629,29.4027,491.1033],[-109.0658,29.4028,504.8611],[-109.0738,29.4105,499.1459],[-109.0807,29.4119,502.2876],[-109.0819,29.4174,498.9523],[-109.0948,29.4285,489.9223],[-109.0974,29.4348,502.0196],[-109.0969,29.4443,478.665],[-109.1021,29.4485,476.6613],[-109.1092,29.4485,480.5592],[-109.1179,29.4433,483.6992],[-109.125,29.4438,471.1113],[-109.1237,29.4501,472.8955],[-109.1253,29.4513,494.076],[-109.1159,29.4546,466.2822],[-109.1144,29.4584,464.8097],[-109.1235,29.4628,472.6183],[-109.1338,29.4625,471.3989],[-109.1372,29.4647,463.2439],[-109.1366,29.47,460.5601],[-109.1384,29.4716,464.2549],[-109.139,29.4775,519.3192],[-109.1484,29.4852,523.4586],[-109.1456,29.4881,526.0922],[-109.1471,29.4921,486.298],[-109.1463,29.5003,466.2238],[-109.1503,29.5132,485.2638],[-109.163,29.5225,463.5307],[-109.1691,29.5325,454.3322],[-109.1837,29.5371,450.2851],[-109.1861,29.5427,449.118],[-109.1899,29.5426,452.1744],[-109.2048,29.5358,439.7989],[-109.2093,29.5282,459.1289],[-109.214,29.5239,436.4821],[-109.2164,29.5247,431.0268],[-109.2195,29.5318,436.6554],[-109.2237,29.5331,430.6484],[-109.2269,29.5314,427.1977],[-109.2257,29.5287,439.3567],[-109.2499,29.5321,456.6016],[-109.2665,29.5265,707.4442],[-109.2879,29.5232,1101.5559],[-109.3238,29.5454,1189.8475],[-109.3559,29.5244,1075.3831],[-109.3437,29.5134,994.7284],[-109.3443,29.5034,912.3199],[-109.3426,29.5029,880.2291],[-109.334,29.4553,841.3276],[-109.3533,29.4413,1024.4575],[-109.3522,29.4392,966.97],[-109.3534,29.4354,905.3706],[-109.3508,29.4315,809.7416],[-109.3503,29.4227,725.1003],[-109.3569,29.4189,867.6387],[-109.3651,29.4168,977.4984],[-109.3802,29.4063,1244.0908],[-109.3819,29.387,1611.807],[-109.3864,29.3773,1525.9846],[-109.403,29.3689,1134.0754],[-109.4003,29.374,1399.1207],[-109.3952,29.3772,1389.7618],[-109.3943,29.3934,1521.2996],[-109.4059,29.4004,1421.6838],[-109.4256,29.3871,1415.9341],[-109.4279,29.373,1226.0319],[-109.4321,29.3603,1246.5254],[-109.4262,29.352,1152.2091],[-109.427,29.3451,948.9367],[-109.4393,29.3405,1195.7161],[-109.4763,29.3445,836.259],[-109.4788,29.3198,1102.332],[-109.484,29.2929,1635.3701],[-109.4837,29.2729,1351.2751],[-109.477,29.2699,1586.4552],[-109.4706,29.2696,1632.0911],[-109.4644,29.2725,1665.403],[-109.455,29.2821,1204.4272],[-109.4515,29.2822,1439.1383],[-109.4446,29.2859,1136.6215],[-109.4407,29.2846,1077.8818],[-109.4276,29.2737,968.8326],[-109.3602,29.3277,718.0038],[-109.3407,29.3293,1313.4869],[-109.3195,29.3088,975.9839],[-109.3102,29.2948,1010.8043],[-109.304,29.2892,825.5363],[-109.2794,29.25,913.7175],[-109.2587,29.2124,371.0426],[-109.2655,29.2127,379.6566],[-109.2749,29.2085,350.8587],[-109.277,29.1995,352.1287],[-109.2753,29.1921,352.1176],[-109.2793,29.1888,353.1386],[-109.274,29.1841,354.0161],[-109.2688,29.1823,417.8473],[-109.2701,29.1731,445.8187],[-109.269,29.1718,475.6178],[-109.2678,29.1446,605.4531],[-109.258,29.1294,645.577],[-109.3333,29.1024,1104.5691],[-109.3442,29.1,1234.3274],[-109.3466,29.0977,1260.0836],[-109.3085,29.0231,827.4208],[-109.2993,28.9977,1084.387],[-109.3142,28.9997,1240.7227],[-109.3182,28.954,839.9375],[-109.3142,28.9364,874.4482],[-109.2546,28.9472,664.3373],[-109.1399,28.972,620.6193],[-109.1348,28.9634,618.9691],[-109.1009,28.9712,1041.1309],[-109.0861,28.9446,983.6704],[-109.0084,28.9523,1091.2528],[-109.0147,28.966,1036.6606],[-109.014,28.9737,1115.9883],[-108.9723,28.9608,1639.6669],[-108.9683,28.9498,1915.6147],[-108.9476,28.9393,1486.702],[-108.93,28.9374,1338.9076],[-108.9259,28.9355,1263.1591],[-108.9189,28.9388,1341.4041],[-108.8911,28.9426,1211.3629],[-108.8804,28.9525,1129.1241],[-108.879,28.957,1217.0277],[-108.8515,28.9319,1168.2668],[-108.8498,28.9235,1134.8284],[-108.8444,28.911,1008.3348],[-108.8421,28.8985,1185.1158],[-108.8491,28.8807,988.2635],[-108.8465,28.8643,1195.0317],[-108.8563,28.8582,1088.1965],[-108.8537,28.8495,1098.2002],[-108.8544,28.8261,1408.1931],[-108.8584,28.8174,1472.465],[-108.8652,28.814,1411.6066],[-108.8675,28.8094,1497.9508],[-108.8656,28.8058,1461.3076],[-108.8714,28.804,1636.7979],[-108.878,28.8075,1727.7688],[-108.8811,28.7952,1736.7664],[-108.8741,28.7809,1747.6653],[-108.8736,28.7748,1829.4431],[-108.8761,28.7723,1763.451],[-108.8726,28.7642,1859.1252],[-108.9099,28.7663,1347.4615],[-108.9321,28.7721,1249.001],[-108.9302,28.7821,1216.2924],[-108.9264,28.787,1246.1426],[-108.931,28.7849,1213.2963],[-108.9299,28.7836,1216.2924],[-108.9343,28.7803,1224.875],[-108.9331,28.7766,1253.9159],[-108.9345,28.7707,1255.2825],[-108.9403,28.7721,1366.6024],[-108.9454,28.7756,1301.7913],[-108.9527,28.774,1232.0459],[-108.9537,28.77,1265.5463],[-108.9897,28.7723,1483.5099],[-108.9942,28.7621,1452.7798],[-109.0187,28.7597,1627.262],[-109.0194,28.7583,1631.6155],[-109.0242,28.7617,1705.7107],[-109.0254,28.7561,1602.8794],[-109.0369,28.7562,1709.5127],[-109.0433,28.7424,2059.7163],[-109.0646,28.7657,1276.6167],[-109.0767,28.7602,883.7222],[-109.0768,28.7851,1696.2883],[-109.0907,28.8047,895.3256],[-109.1058,28.8321,1084.3698],[-109.1147,28.8414,1001.0039],[-109.1698,28.8263,541.5463],[-109.2286,28.819,955.7578],[-109.234,28.8128,1137.2704],[-109.2488,28.8091,1160.2004],[-109.2496,28.8168,1170.4921],[-109.2433,28.8246,919.7458],[-109.2597,28.8519,1083.8933],[-109.2692,28.8621,1379.5273],[-109.2724,28.8684,1366.1968],[-109.3134,28.8253,1827.8254],[-109.3174,28.8041,1103.4514],[-109.2926,28.8002,1300.762],[-109.2686,28.7521,1320.3408],[-109.2713,28.7464,1162.2269],[-109.2675,28.7424,1197.7395],[-109.2651,28.7436,1278.4669],[-109.2596,28.743,1262.3512],[-109.2595,28.7302,1049.822],[-109.2625,28.729,1029.527],[-109.2673,28.7299,997.52],[-109.2726,28.724,984.3481],[-109.2726,28.7192,965.6636],[-109.2783,28.7167,922.1197],[-109.2795,28.7139,927.8269],[-109.2772,28.7105,964.7602],[-109.2733,28.7102,951.4324],[-109.2701,28.7078,978.7119],[-109.2615,28.6928,1255.931],[-109.2456,28.6867,1666.6948],[-109.2404,28.6634,1832.1981],[-109.2252,28.6509,1623.9136],[-109.2292,28.6353,1215.3112],[-109.2111,28.6348,1250.0751],[-109.2107,28.6316,1124.1815],[-109.1908,28.6296,1026.8239],[-109.1858,28.62,1112.8231],[-109.1764,28.6237,1099.5253],[-109.1646,28.6415,860.6465],[-109.1562,28.6403,1055.6116],[-109.1449,28.6424,824.9221],[-109.14,28.6449,766.0119],[-109.1378,28.604,876.4991],[-109.0813,28.6064,893.6824],[-109.0734,28.5922,786.8327],[-109.0724,28.5932,786.8327],[-109.0666,28.5912,801.235],[-109.0626,28.5925,847.664],[-109.0606,28.5899,812.2474],[-109.0562,28.5886,855.9554],[-109.0527,28.591,837.3799],[-109.048,28.5912,847.5961],[-109.0502,28.5981,1161.0364],[-109.0299,28.5995,1233.2064],[-109.0264,28.5892,1047.7181],[-109.0197,28.5895,1117.4557],[-109.0166,28.596,1577.9465],[-109.0025,28.5789,1234.5502],[-108.9961,28.5677,1225.8221],[-108.9922,28.5686,1237.0062],[-108.9899,28.573,1383.6212],[-108.9851,28.5676,1252.1353],[-108.9821,28.5685,1265.3773],[-108.9784,28.5674,1283.6886],[-108.9775,28.5643,1339.0431],[-108.9723,28.5641,1390.2113],[-108.9711,28.5617,1361.2655],[-108.9679,28.5618,1353.8995],[-108.9647,28.5688,1339.2039],[-108.9601,28.5688,1339.042],[-108.9581,28.5719,1350.9258],[-108.9534,28.5705,1360.6263],[-108.9452,28.5735,1413.6523],[-108.9225,28.5879,1477.3971],[-108.9132,28.5677,1878.2686],[-108.9057,28.5628,1981.3593],[-108.8964,28.5532,1912.3895],[-108.8968,28.5457,1696.27],[-108.8699,28.5489,1894.2726],[-108.882,28.5728,1910.7305],[-108.8798,28.5792,2007.6527],[-108.8819,28.5947,1740.927],[-108.8536,28.5982,1460.4117],[-108.8352,28.5912,1556.8634],[-108.8313,28.5945,1558.6426],[-108.8247,28.5922,1561.2202],[-108.8235,28.5827,1461.3446],[-108.8128,28.5738,1540.2883],[-108.8122,28.5547,1589.8604],[-108.8107,28.5493,1554.7148],[-108.8133,28.5464,1469.3616],[-108.8062,28.5429,1445.4752],[-108.7995,28.5426,1620.9629],[-108.7876,28.5235,1317.2422],[-108.7765,28.5207,1456.7124],[-108.7543,28.5107,1129.6536],[-108.7536,28.5136,1134.7802],[-108.7475,28.5147,1085.9976],[-108.7509,28.5228,1095.5491],[-108.7496,28.526,1080.3877],[-108.7465,28.5281,1064.7123],[-108.7469,28.5349,1142.2678],[-108.7452,28.5385,1121.1426],[-108.7552,28.5447,1149.8804],[-108.7533,28.5452,1109.2812],[-108.7437,28.5383,1250.579],[-108.7456,28.5297,1071.3337],[-108.7446,28.5275,1064.7123],[-108.7487,28.5217,1138.2346],[-108.7426,28.5115,1113.6655],[-108.731,28.5099,1158.2507],[-108.7272,28.5073,1154.7998],[-108.7218,28.5071,1208.2809],[-108.7201,28.5047,1210.8129],[-108.7108,28.5052,1258.7107],[-108.7048,28.4977,1177.2258],[-108.7055,28.4941,1207.5264],[-108.7036,28.4926,1183.6115],[-108.696,28.4964,1175.4259],[-108.6907,28.4953,1239.7438],[-108.6909,28.5003,1211.5376],[-108.6858,28.5004,1203.5217],[-108.6811,28.5043,1221.2119],[-108.6736,28.503,1210.7021],[-108.6647,28.505,1222.8618],[-108.6613,28.5031,1214.5455],[-108.6586,28.5042,1236.231],[-108.6472,28.5023,1264.2971],[-108.6387,28.506,1598.9225],[-108.6238,28.5385,1695.4363],[-108.6158,28.5378,1448.8778],[-108.6138,28.5353,1446.9691],[-108.5989,28.5439,1569.8528],[-108.5865,28.5467,1565.6083],[-108.5816,28.553,1609.9749],[-108.5734,28.5558,1661.2231],[-108.5664,28.5677,1698.5081],[-108.5562,28.5777,1899.3938],[-108.5516,28.5778,1988.0928],[-108.5556,28.5873,2139.937],[-108.5619,28.5923,1913.2449],[-108.5644,28.6127,2011.4396],[-108.5802,28.6324,1863.0522],[-108.579,28.6573,1853.4521],[-108.5839,28.6659,2018.6958],[-108.5838,28.7401,2247.0923],[-108.6066,28.7446,1938.7529],[-108.6207,28.7503,1879.6361],[-108.6252,28.7593,1788.4482],[-108.6301,28.7598,1645.7357],[-108.6433,28.7651,1524.4875],[-108.6456,28.7947,1674.5245],[-108.6363,28.7919,1667.6869],[-108.6244,28.8001,2039.8901],[-108.6238,28.8061,1944.3972],[-108.6296,28.8117,1653.7598],[-108.6578,28.8092,1303.4304],[-108.6658,28.8282,1050.9492],[-108.6812,28.8548,1069.7714],[-108.6782,28.8633,1235.8583],[-108.6871,28.8757,1048.7587],[-108.7068,28.8843,769.0853],[-108.706,28.8892,756.1665],[-108.7098,28.8895,849.1555],[-108.7061,28.8928,741.8732],[-108.7049,28.9002,735.7545],[-108.7089,28.9059,746.3962],[-108.7059,28.9066,738.3027],[-108.7011,28.9276,970.5864],[-108.6978,28.9314,1106.3259],[-108.6981,28.9363,1181.1497],[-108.7078,28.9856,1296.2906],[-108.71,28.9832,1090.3806],[-108.7142,29.0015,1116.2668],[-108.7113,29.0035,1229.8542],[-108.7244,29.0699,1115.811],[-108.7131,29.0704,912.5423],[-108.715,29.0766,1059.5332],[-108.711,29.0775,963.9509],[-108.7094,29.083,1004.2606],[-108.7115,29.0874,976.9659],[-108.7275,29.0858,1236.5726],[-108.7296,29.0965,1479.6183],[-108.7083,29.1143,1531.8014],[-108.6985,29.1277,1685.8893],[-108.7,29.135,1682.8389],[-108.7095,29.1491,1515.1013],[-108.7289,29.1718,1645.6187],[-108.7453,29.1623,1105.6697],[-108.7456,29.174,1217.4611],[-108.7492,29.1806,1291.4886],[-108.7539,29.2001,1485.3794],[-108.7398,29.2008,1649.9102],[-108.7354,29.2177,1688.7833],[-108.7428,29.2259,1693.2601],[-108.7412,29.2404,1430.3295],[-108.7511,29.2509,1465.9106],[-108.7587,29.2509,1562.8518],[-108.7619,29.2539,1544.9978],[-108.761,29.2555,1552.9902],[-108.7573,29.2557,1567.7037],[-108.7543,29.2595,1494.1498],[-108.7501,29.2567,1553.7843],[-108.7429,29.2601,1480.4916],[-108.7414,29.2585,1445.5979],[-108.7307,29.2634,1530.741],[-108.7303,29.2691,1578.1155]]]]}
,"properties": {"GID_2": "MEX.26.54_2","GID_0": "MEX","country": "México","GID_1": "MEX.26_1","province": "Sonora","NL_NAME_1": "NA","county": "Sahuaripa","VARNAME_2": "NA","NL_NAME_2": "NA","TYPE_2": "Município","ENGTYPE_2": "Municipality","CC_2": "NA","HASC_2": "NA","name": "Sahuaripa.county","area_km2": 5011.029,"hist_schema_id": "Elevation0-9000","hist_area_km2": {"350": 2.054,"375": 7.601,"400": 16.62,"425": 33.604,"450": 54.07,"475": 67.997,"500": 76.722,"525": 73.805,"550": 74.049,"575": 74.957,"600": 79.575,"625": 79.632,"650": 91.482,"675": 105.029,"700": 110.58,"725": 114.749,"750": 115.857,"775": 116.772,"800": 121.322,"825": 120.401,"850": 118.831,"875": 121.201,"900": 121.838,"925": 121.421,"950": 120.446,"975": 123.347,"1000": 120.988,"1025": 119.807,"1050": 113.072,"1075": 110.818,"1100": 105.877,"1125": 103.982,"1150": 103.474,"1175": 101.024,"1200": 94.317,"1225": 94.711,"1250": 94.606,"1275": 95.798,"1300": 90.891,"1325": 91.733,"1350": 93.015,"1375": 96.004,"1400": 101.118,"1425": 95.632,"1450": 91.626,"1475": 86.589,"1500": 80.167,"1525": 75.135,"1550": 67.771,"1575": 63.9,"1600": 55.321,"1625": 51.519,"1650": 45.188,"1675": 38.184,"1700": 34.821,"1725": 32.779,"1750": 32.986,"1775": 28.466,"1800": 23.164,"1825": 21.359,"1850": 16.318,"1875": 15.276,"1900": 13.378,"1925": 11.368,"1950": 9.862,"1975": 6.81,"2000": 4.986,"2025": 3.051,"2050": 2.623,"2075": 1.712,"2100": 1.339,"2125": 0.949,"2150": 0.967,"2175": 0.93,"2200": 0.539,"2225": 0.428,"2250": 0.297,"2275": 0.205,"2300": 0.13,"2350": 0.056}}}