{"type": "Feature","bbox": [-89.1593,19.678,-88.9094,20.1646],"geometry": {"type": "MultiPolygon","coordinates": [[[[-88.9564,19.8168,48.2106],[-88.9545,19.8229,49.1899],[-88.9736,19.824,51.7515],[-88.9733,19.8187,58.928],[-88.9969,19.8203,41.9451],[-88.9901,19.8756,39.48],[-88.9888,19.8759,39.48],[-88.9849,19.8934,39.5414],[-88.9587,19.8903,37.4106],[-88.9649,19.8629,37.6437],[-88.9347,19.8579,40.054],[-88.9317,19.8637,43.2332],[-88.9276,19.862,41.5718],[-88.9256,19.869,29.95],[-88.9195,19.8669,34.2574],[-88.9123,19.8821,32.2484],[-88.9167,19.8831,33.839],[-88.9094,19.9418,35.8178],[-88.9192,19.9428,39.0307],[-88.9173,19.9602,41.0152],[-88.9339,19.9609,41.606],[-88.9342,19.9654,43.1426],[-88.9453,19.969,44.1657],[-88.9419,19.9809,40.1029],[-88.9453,19.9822,42.352],[-88.9463,19.9871,41.1242],[-88.9671,19.9906,44.1497],[-88.9997,20.0327,42.8434],[-88.9963,20.0408,42.485],[-88.9767,20.0379,43.7154],[-88.9675,20.0536,42.6586],[-88.9692,20.0541,44.5955],[-88.9676,20.0676,41.4688],[-88.9773,20.0719,39.3865],[-88.9788,20.0775,36.4846],[-88.9764,20.0905,39.034],[-88.987799999999993,20.0945,40.2693],[-88.9847,20.1238,37.1824],[-89.0297,20.1291,35.1153],[-89.0296,20.1354,37.0918],[-89.0386,20.1356,37.4596],[-89.0686,20.1437,37.4747],[-89.0691,20.1411,39.2756],[-89.0728,20.1422,40.2827],[-89.088,20.1497,39.5646],[-89.0868,20.158,40.1568],[-89.1027,20.1646,40.2847],[-89.1064,20.1391,45.3725],[-89.1418,20.1431,36.6489],[-89.1472,20.1385,34.9481],[-89.1593,20.112,31.6349],[-89.1412,20.0978,34.6103],[-89.1433,20.0937,59.3702],[-89.1482,20.0908,108.8991],[-89.1506,20.0873,116.4655],[-89.1387,20.0821,123.0316],[-89.1343,20.0891,45.008],[-89.1256,20.0826,43.2606],[-89.1297,20.0626,105.9408],[-89.1287,20.0497,83.6934],[-89.1323,20.05,83.5291],[-89.143,20.0368,126.1207],[-89.1404,20.0249,135.1613],[-89.141,20.0201,128.8332],[-89.1135,20.0128,107.2981],[-89.1139,19.9993,119.6291],[-89.1274,19.9987,99.5865],[-89.1314,19.9671,135.9908],[-89.1151,19.9624,121.2581],[-89.115,19.9391,111.9081],[-89.1039,19.9385,102.7781],[-89.1053,19.9251,99.6013],[-89.1155,19.8857,106.8769],[-89.1173,19.8858,115.7411],[-89.122,19.8476,97.9096],[-89.145,19.8507,122.2955],[-89.1466,19.8301,98.3213],[-89.1369,19.8302,104.2359],[-89.1375,19.8066,98.8795],[-89.1404,19.8075,108.3677],[-89.1462,19.7815,61.7204],[-89.1413,19.7793,68.8803],[-89.1424,19.777,59.348],[-89.1339,19.7775,62.9326],[-89.1303,19.7743,57.5926],[-89.1284,19.7746,57.4321],[-89.1241,19.7701,58.3822],[-89.1208,19.7717,55.8956],[-89.1159,19.7687,54.8672],[-89.1138,19.769,60.3609],[-89.1109,19.7646,59.2113],[-89.113,19.759,57.2592],[-89.1117,19.7568,53.7061],[-89.1057,19.7567,61.5093],[-89.1043,19.7541,66.708],[-89.0997,19.7566,63.928],[-89.0971,19.7515,70.9948],[-89.1002,19.7481,60.5705],[-89.1038,19.7471,53.2213],[-89.1065,19.7426,55.1816],[-89.1023,19.7453,69.0124],[-89.1032,19.7339,57.478],[-89.0801,19.731,59.1222],[-89.0821,19.723,75.6678],[-89.0767,19.7219,61.211],[-89.0729,19.7086,83.6329],[-89.076,19.6854,81.8075],[-89.0362,19.678,83.6047],[-89.0305,19.7088,61.934],[-88.9975,19.7049,52.9019],[-88.9947,19.7274,73.7806],[-89.0154,19.723,77.2821],[-89.017,19.7264,82.9393],[-89.0488,19.7215,59.9457],[-89.0252,19.7767,62.5247],[-89.0041,19.772,69.2992],[-88.9995,19.798,52.1501],[-88.9844,19.7982,54.2566],[-88.9844,19.8052,60.5651],[-88.9761,19.8108,57.9853],[-88.9745,19.8181,61.9186],[-88.9564,19.8168,48.2106]]]]}
,"properties": {"GID_2": "MEX.31.98_2","GID_0": "MEX","country": "México","GID_1": "MEX.31_1","province": "Yucatán","NL_NAME_1": "NA","county": "Tzucacab","VARNAME_2": "NA","NL_NAME_2": "NA","TYPE_2": "Município","ENGTYPE_2": "Municipality","CC_2": "NA","HASC_2": "NA","name": "Tzucacab.county","area_km2": 768.0744,"hist_schema_id": "Elevation0-9000","hist_area_km2": {"25": 115.2822,"50": 327.3686,"75": 142.4662,"100": 107.2538,"125": 63.6883,"150": 12.0153}}}