{"type":"Feature","properties":{"GID_2":"MEX.20.372_2","GID_0":"MEX","country":"México","GID_1":"MEX.20_1","province":"Oaxaca","NL_NAME_1":"NA","county":"SantaCatarinaQuiané","VARNAME_2":"NA","NL_NAME_2":"NA","TYPE_2":"Município","ENGTYPE_2":"Municipality","CC_2":"NA","HASC_2":"NA","name":"Santa_Catarina_Quiané.county"},
"geometry":{"type": "MultiPolygon","coordinates": [[[[-96.7538,16.8781,1485.105],[-96.7504,16.8772,1484.7012],[-96.7518,16.8707,1484.4918],[-96.7532,16.8711,1482.4288],[-96.7546,16.8684,1481.021],[-96.7583,16.8581,1479.9514],[-96.7426,16.8533,1552.3242],[-96.7432,16.8579,1571.2202],[-96.7408,16.8623,1516.6315],[-96.7385,16.8618,1545.6702],[-96.7225,16.8687,1631.4731],[-96.7173,16.8725,1747.9316],[-96.7123,16.8732,1663.7435],[-96.7056,16.8821,1780.6226],[-96.7032,16.8884,1791.657],[-96.6994,16.8891,1806.7699],[-96.6965,16.8924,1784.499],[-96.7054,16.8938,1665.5342],[-96.7081,16.8898,1789.9753],[-96.7157,16.9059,1556.2417],[-96.731,16.904,1505.9714],[-96.7391,16.9073,1491.8599],[-96.7475,16.903,1489.6705],[-96.7461,16.8979,1489.1932],[-96.7518,16.8941,1487.8671],[-96.7538,16.8781,1485.105]]]]}}