{"type":"Feature","properties":{"GID_2":"MEX.16.32_2","GID_0":"MEX","country":"México","GID_1":"MEX.16_1","province":"Michoacán","NL_NAME_1":"NA","county":"EpitacioHuerta","VARNAME_2":"NA","NL_NAME_2":"NA","TYPE_2":"Município","ENGTYPE_2":"Municipality","CC_2":"NA","HASC_2":"NA","name":"Epitacio_Huerta.county"},
"geometry":{"type": "MultiPolygon","coordinates": [[[[-100.3809,20.1301,2513.0225],[-100.3836,20.1291,2525.3599],[-100.3915,20.121,2799.908],[-100.3853,20.1045,2807.7344],[-100.3973,20.097,2739.1865],[-100.3898,20.0808,2916.0203],[-100.3673,20.0675,2856.5967],[-100.3583,20.0649,2698.0657],[-100.3606,20.0543,2598.8035],[-100.362,20.0534,2582.4731],[-100.3587,20.0477,2542.1968],[-100.3544,20.0278,2597.3926],[-100.355,20.0101,2629.4143],[-100.3593,20.0097,2625.8079],[-100.361,20.0242,2607.8494],[-100.3647,20.0197,2602.4224],[-100.3704,20.0213,2632.6765],[-100.37,20.0157,2785.7402],[-100.3629,19.989,2809.45],[-100.3487,19.9879,2741.8914],[-100.3388,20.0012,2668.4692],[-100.3393,20.005,2663.7546],[-100.3441,20.0082,2602.7197],[-100.343,20.0086,2602.7197],[-100.3451,20.0095,2591.7869],[-100.345,20.0119,2602.5195],[-100.3426,20.0195,2526.3848],[-100.3392,20.0228,2486.6404],[-100.3394,20.0292,2469.2544],[-100.3358,20.0341,2464.3242],[-100.3278,20.0381,2430.4685],[-100.3178,20.04,2405.1406],[-100.3112,20.0346,2424.856],[-100.3024,20.0375,2382.1963],[-100.2934,20.0373,2376.4524],[-100.2856,20.0402,2361.4038],[-100.2804,20.0445,2346.0],[-100.2636,20.0418,2346.0],[-100.2606,20.0461,2346.0],[-100.2695,20.0645,2346.0],[-100.2702,20.0699,2346.0],[-100.2688,20.0707,2346.0],[-100.2626,20.0586,2346.0],[-100.2579,20.0584,2346.0],[-100.2564,20.0591,2346.0],[-100.2556,20.066,2346.0],[-100.2523,20.0729,2346.0],[-100.2481,20.0729,2346.0],[-100.2526,20.0646,2346.0],[-100.2526,20.0575,2346.0],[-100.2558,20.0466,2346.0],[-100.2555,20.0381,2346.0],[-100.2542,20.0366,2346.0],[-100.2469,20.0426,2346.0],[-100.2477,20.0475,2346.0],[-100.2509,20.0519,2346.0],[-100.2494,20.0571,2346.0],[-100.242,20.0576,2346.0],[-100.2368,20.054,2346.0],[-100.2433,20.0508,2346.0],[-100.2414,20.0433,2346.0],[-100.2352,20.0385,2346.0],[-100.2363,20.034,2346.0],[-100.2322,20.0404,2346.0],[-100.2373,20.0435,2346.0],[-100.2375,20.0469,2346.0],[-100.2298,20.0454,2346.0],[-100.2271,20.0434,2346.0],[-100.2278,20.0512,2346.0],[-100.2237,20.054,2346.0],[-100.2187,20.0537,2346.0],[-100.2191,20.049,2346.0],[-100.2228,20.0482,2346.0],[-100.2211,20.0455,2346.0],[-100.2179,20.0463,2346.0],[-100.2177,20.0483,2346.0],[-100.2148,20.05,2350.821],[-100.2167,20.054,2346.0],[-100.2123,20.059,2346.0],[-100.2158,20.0604,2346.0],[-100.214,20.0638,2346.0],[-100.2146,20.0669,2346.0],[-100.2101,20.0692,2348.543],[-100.2099,20.0725,2346.0],[-100.2066,20.0716,2348.5381],[-100.2013,20.0742,2354.9419],[-100.2029,20.0766,2361.9099],[-100.2015,20.0777,2358.3655],[-100.1974,20.1299,2418.7563],[-100.2356,20.1435,2531.5215],[-100.2294,20.1469,2564.2778],[-100.2275,20.15,2561.5229],[-100.2219,20.1506,2569.5532],[-100.2133,20.1568,2601.0735],[-100.2094,20.1613,2634.2319],[-100.2096,20.1635,2649.0312],[-100.2038,20.167,2690.1519],[-100.2033,20.1718,2693.3643],[-100.1919,20.176,2658.6284],[-100.1884,20.1942,2596.3213],[-100.1853,20.1943,2609.1365],[-100.1842,20.1894,2620.9802],[-100.1811,20.2088,2580.9961],[-100.1839,20.209,2583.1143],[-100.1845,20.2116,2583.7737],[-100.1965,20.2223,2613.4478],[-100.2072,20.2294,2608.7026],[-100.2216,20.2346,2625.6985],[-100.2243,20.2379,2640.1741],[-100.2451,20.2504,2898.2075],[-100.2605,20.2675,2739.4241],[-100.3093,20.2824,2500.6082],[-100.3075,20.2856,2555.5642],[-100.3458,20.298,2482.7388],[-100.3507,20.2884,2453.0068],[-100.3459,20.2844,2458.8452],[-100.3474,20.2805,2459.6589],[-100.3441,20.2729,2447.8132],[-100.3419,20.2736,2439.8149],[-100.3391,20.2718,2430.6367],[-100.3342,20.2654,2459.6821],[-100.3311,20.2668,2457.9045],[-100.3294,20.263,2458.364],[-100.3258,20.261,2477.7581],[-100.3273,20.2577,2427.0393],[-100.3236,20.2519,2413.8789],[-100.3328,20.2426,2392.7112],[-100.3415,20.2391,2391.1296],[-100.3418,20.2321,2422.2383],[-100.3435,20.229,2376.1965],[-100.3461,20.2277,2354.7024],[-100.3475,20.2247,2358.3],[-100.35,20.2242,2347.2739],[-100.3502,20.2214,2350.98],[-100.3552,20.219,2346.9014],[-100.3539,20.2132,2340.8987],[-100.3553,20.2111,2328.8635],[-100.3526,20.2063,2353.5769],[-100.3523,20.2005,2323.7166],[-100.3502,20.1991,2314.5796],[-100.346,20.201,2323.0332],[-100.3454,20.1965,2372.1924],[-100.3423,20.1955,2425.3306],[-100.3403,20.1897,2351.4177],[-100.3558,20.1824,2271.5239],[-100.3539,20.1795,2268.999],[-100.3611,20.1726,2300.748],[-100.3612,20.1695,2311.9358],[-100.3589,20.1672,2315.9355],[-100.3699,20.1467,2390.46],[-100.3709,20.1362,2405.729],[-100.3809,20.1301,2513.0225]]]]}}