{"type":"Feature","properties":{"GID_2":"MEX.9.2_2","GID_0":"MEX","country":"México","GID_1":"MEX.9_1","province":"DistritoFederal","NL_NAME_1":"NA","county":"Azcapotzalco","VARNAME_2":"NA","NL_NAME_2":"NA","TYPE_2":"Município","ENGTYPE_2":"Municipality","CC_2":"NA","HASC_2":"NA","name":"Azcapotzalco.county"},
"geometry":{"type": "MultiPolygon","coordinates": [[[[-99.1572,19.5028,2240.1963],[-99.173,19.5086,2243.2542],[-99.1771,19.5062,2244.2742],[-99.1823,19.5075,2244.2302],[-99.2047,19.5151,2249.7688],[-99.2102,19.5111,2251.1829],[-99.2211,19.4751,2260.0918],[-99.2068,19.4712,2254.6877],[-99.201,19.4734,2249.4851],[-99.191,19.4706,2247.7859],[-99.1907,19.4647,2247.3252],[-99.188,19.4638,2248.0813],[-99.1885,19.4608,2249.2908],[-99.1637,19.4564,2238.7983],[-99.1587,19.4639,2238.5728],[-99.1506,19.4629,2236.988],[-99.1431,19.4651,2236.0337],[-99.1572,19.5028,2240.1963]]]]}}