{"type": "Feature","bbox": [-103.6375,26.8731,-101.8935,29.2405],"geometry": {"type": "MultiPolygon","coordinates": [[[[-103.6375,28.5545,1600.947],[-103.4314,28.4564,1335.3618],[-103.427,28.4689,1306.2235],[-103.4136,28.4481,1669.6086],[-103.634,27.8646,1942.2174],[-103.6044,27.9028,1376.8804],[-103.5374,27.88,1259.3038],[-103.5109,27.8928,1222.6628],[-103.5049,27.9078,1214.2543],[-103.4903,27.903,1194.1825],[-103.4972,27.8857,1205.4628],[-103.507,27.8671,1225.4807],[-103.4782,27.8622,1182.1219],[-103.48,27.8578,1192.2407],[-103.4496,27.8635,1151.4554],[-103.4361,27.8385,1135.5419],[-103.494,27.7804,1219.9009],[-103.4727,27.7648,1193.6367],[-103.506,27.4351,1279.2592],[-103.3563,27.4112,1201.8282],[-103.4621,27.2816,1174.9675],[-103.5215,27.2816,1462.5752],[-103.5307,27.1826,1145.5815],[-103.4538,27.0532,1040.1323],[-103.335,26.9739,1111.2821],[-103.087,26.9791,1051.4822],[-103.0272,26.9779,1058.6245],[-102.9888,26.9632,1119.8035],[-102.9876,26.9796,1374.9922],[-102.8458,26.9005,1163.4088],[-102.7997,26.8731,1460.05],[-102.8084,27.081,1223.1047],[-102.7893,27.0529,1234.1204],[-102.7827,27.0484,1226.1235],[-102.754,27.0493,1204.2705],[-102.7437,27.045,1196.0944],[-102.7281,27.0835,1293.3298],[-102.6953,27.0644,1253.9392],[-102.6603,27.122,2465.0349],[-102.6542,27.1224,2595.9102],[-102.6402,27.16,2461.1938],[-102.6181,27.1486,2644.9194],[-102.5721,27.1134,2789.0571],[-102.5292,27.1001,2815.7881],[-102.516,27.1005,2714.8396],[-102.4856,27.0806,2736.2217],[-102.4703,27.0646,2777.499],[-102.4667,27.053,2757.3689],[-102.4429,27.0269,2789.5552],[-102.4243,27.034,2761.9375],[-102.3919,27.0345,3000.6694],[-102.3338,27.0173,2319.0576],[-102.3066,27.0118,2645.5276],[-102.2948,27.0115,2587.7324],[-102.289,27.0148,2368.0842],[-102.326,27.1148,1054.4174],[-102.3381,27.1224,1068.3362],[-102.3303,27.1265,1046.3866],[-102.3325,27.1315,1043.7596],[-102.4119,27.1924,1186.8828],[-102.3658,27.262,1102.2065],[-102.3039,27.2316,1001.0978],[-102.2949,27.2464,991.7428],[-102.3167,27.2728,1026.547],[-102.1447,27.2788,1108.7627],[-102.1285,27.2641,1265.6018],[-102.1242,27.2487,1385.7014],[-102.0974,27.2406,1772.7429],[-102.0344,27.2364,2134.1223],[-102.0279,27.253,2026.2922],[-102.0111,27.2632,2202.6409],[-101.9952,27.264,1959.1743],[-101.9714,27.2479,2140.741],[-101.8957,27.3056,1982.2878],[-101.8935,27.3168,1899.5956],[-101.9087,27.3364,1712.7345],[-101.9188,27.356,1659.2864],[-101.9253,27.3774,1645.4229],[-101.9392,27.3904,1666.9968],[-101.9458,27.4022,1890.0632],[-101.9396,27.42,2083.4636],[-101.9617,27.4298,1709.8269],[-101.973,27.445,1839.488],[-101.9818,27.4638,1856.943],[-102.0243,27.5003,1933.324],[-102.0489,27.5132,1693.3313],[-102.0568,27.5218,1783.3998],[-102.0687,27.5387,1757.6235],[-102.0698,27.5425,1686.0208],[-102.0901,27.568,1770.2266],[-102.1069,27.6031,1731.7998],[-102.1212,27.6569,1800.6951],[-102.1238,27.6619,1648.1284],[-102.1244,27.6685,1703.6519],[-102.137,27.6951,1667.3112],[-102.1824,27.657,1741.0635],[-102.1995,27.6924,1443.3792],[-102.157,27.8181,1924.91],[-102.2013,27.8515,1717.8977],[-102.2191,27.8484,2009.4535],[-102.2469,27.8639,1744.3712],[-102.255,27.8455,1742.6586],[-102.2653,27.8482,1654.7537],[-102.272,27.8527,1623.0721],[-102.2729,27.8567,1528.5841],[-102.2837,27.8718,1644.5258],[-102.30029999999999,27.8871,1730.0288],[-102.277,27.8871,1361.5219],[-102.2666,27.8929,1324.6608],[-102.2541,27.8972,1306.1477],[-102.2555,27.8996,1301.792],[-102.2499,27.9018,1290.1768],[-102.215,27.948,1411.1079],[-102.2407,27.9774,1589.7523],[-102.2529,27.9717,1307.6917],[-102.2824,28.005,1324.0493],[-102.2875,28.0043,1311.2249],[-102.3476,27.9646,2004.6835],[-102.3619,27.9808,2041.2997],[-102.3641,27.9856,2021.125],[-102.3623,27.9892,1962.8113],[-102.3674,27.9919,1942.5596],[-102.3845,28.0155,1589.7278],[-102.3814,28.0487,1470.3767],[-102.4017,28.115,1770.9219],[-102.4129,28.142,1603.6708],[-102.4124,28.1476,1747.5012],[-102.426,28.1654,1736.7626],[-102.4288,28.1781,1809.082],[-102.436,28.187,1794.2578],[-102.4359,28.1903,1785.2021],[-102.442,28.2027,1802.6072],[-102.4414,28.2054,1812.7964],[-102.4445,28.2123,1716.6221],[-102.4819,28.2666,1826.1252],[-102.4929,28.2896,1733.3126],[-102.4424,28.3311,1556.0474],[-102.4366,28.3329,1587.3695],[-102.4408,28.3483,1631.5072],[-102.4869,28.5906,1494.5356],[-102.5057,28.5823,1829.2959],[-102.5696,28.6383,1878.407],[-102.5528,28.6706,1635.973],[-102.638,28.697,1199.1094],[-102.5688,28.8061,1625.3351],[-102.4788,28.9569,2046.7823],[-102.4667,28.9701,1823.8152],[-102.6418,29.1103,1677.715],[-102.7554,29.1689,2040.2494],[-102.8711,29.2405,580.4397],[-102.8712,29.2321,593.6557],[-102.8679,29.2295,591.695],[-102.8666,29.2254,602.7745],[-102.869,29.2219,585.995],[-102.877,29.2167,590.4862],[-102.8786,29.2135,567.205],[-102.8903,29.2091,596.8182],[-102.898,29.2086,708.835],[-102.9087,29.2197,587.403],[-102.912,29.2192,567.066],[-102.9157,29.2154,588.5181],[-102.9158,29.2123,606.5359],[-102.9129,29.2069,699.2507],[-102.9144,29.2001,553.9771],[-102.9189,29.1982,551.4254],[-102.9172,29.1915,550.2572],[-102.9197,29.1909,551.3612],[-102.9254,29.1937,554.77],[-102.9323,29.1947,554.189],[-102.938,29.1882,556.3232],[-102.94,29.1886,556.4941],[-102.9418,29.1916,555.0919],[-102.9437,29.1911,555.0919],[-102.9453,29.1839,554.7347],[-102.9504,29.1783,567.6857],[-102.9508,29.1735,556.1827],[-102.957,29.1787,559.1026],[-102.9744,29.1857,569.1564],[-102.9786,29.1862,568.6714],[-102.9913,29.1817,562.5918],[-102.9967,29.1775,562.8344],[-102.9978,29.1734,562.3021],[-102.9958,29.1607,561.9991],[-103.0016,29.1507,564.1569],[-103.0082,29.1483,562.9888],[-103.0088,29.1375,573.2858],[-103.0125,29.1371,565.7594],[-103.0151,29.1348,565.1446],[-103.0151,29.132,565.038],[-103.0118,29.1265,566.4965],[-103.0152,29.1245,567.0568],[-103.0191,29.1259,566.5736],[-103.0231,29.1234,566.5688],[-103.0243,29.1193,567.3477],[-103.0302,29.1128,570.7601],[-103.0338,29.1012,570.4792],[-103.0395,29.0968,573.1572],[-103.045,29.0953,576.6152],[-103.054,29.1005,572.546],[-103.0646,29.0911,581.7568],[-103.0697,29.0936,574.6992],[-103.0765,29.0909,573.7638],[-103.0796,29.0878,579.3322],[-103.0765,29.0806,650.0336],[-103.077,29.0756,620.95],[-103.0872,29.0667,599.6947],[-103.0852,29.0599,597.0687],[-103.0857,29.0534,601.8699],[-103.0899,29.0533,611.7827],[-103.0915,29.055,575.4716],[-103.0916,29.0634,583.2365],[-103.0928,29.0645,584.0886],[-103.0959,29.0642,582.1249],[-103.0971,29.0605,598.8235],[-103.1007,29.0603,578.1171],[-103.1007,29.0502,581.4311],[-103.1063,29.0399,590.1945],[-103.1033,29.0329,583.7881],[-103.098,29.0268,611.7519],[-103.1015,29.0176,582.041],[-103.1078,29.0133,690.5668],[-103.1164,29.0003,713.8586],[-103.1136,28.9885,712.5263],[-103.1161,28.9842,693.5588],[-103.1234,28.9843,701.7241],[-103.1269,28.9819,599.8231],[-103.1341,28.9837,700.7236],[-103.144,28.9775,726.1774],[-103.1512,28.9751,694.6635],[-103.1538,28.9715,669.8564],[-103.1602,28.9736,605.5247],[-103.1639,28.972,632.2533],[-103.1663,28.9742,601.0079],[-103.1659,28.9777,612.4799],[-103.1706,28.9803,596.7966],[-103.1756,28.9776,597.8327],[-103.1814,28.9825,598.0834],[-103.2025,28.9871,603.7965],[-103.2148,28.9876,608.5015],[-103.2204,28.9835,603.6255],[-103.2279,28.9917,602.7952],[-103.2382,28.9812,602.5802],[-103.2505,28.9803,611.3898],[-103.2532,28.9866,605.3134],[-103.2671,28.996,611.0344],[-103.269,28.9939,606.1255],[-103.272,28.984,611.3337],[-103.2807,28.9759,613.4633],[-103.2884,28.9781,611.4737],[-103.2885,28.9812,610.8804],[-103.283,28.9831,609.5712],[-103.2817,28.9875,613.9199],[-103.2864,29.0006,614.3956],[-103.2965,29.0066,611.8503],[-103.3019,29.0072,613.229],[-103.3076,29.0032,616.2182],[-103.3577,28.9203,793.7766],[-103.4037,28.8693,826.8721],[-103.4041,28.8664,884.5539],[-103.3949,28.8438,983.5441],[-103.3942,28.8401,947.2429],[-103.3963,28.8335,956.1025],[-103.4003,28.8286,950.7305],[-103.4046,28.8296,921.0212],[-103.41,28.8409,920.049],[-103.4236,28.8213,850.1288],[-103.4317,28.8132,835.5534],[-103.4663,28.7595,920.9652],[-103.4633,28.7566,926.9669],[-103.5145,28.665,1872.1511],[-103.5198,28.6687,1802.1445],[-103.5573,28.6113,1674.9548],[-103.5727,28.6406,1618.0098],[-103.582,28.6288,1533.7269],[-103.5964,28.6395,1830.3303],[-103.616,28.5982,1621.3802],[-103.5919,28.5908,1769.9939],[-103.601,28.5749,1710.5323],[-103.6246,28.5811,1627.291],[-103.6375,28.5545,1600.947]]]]}
,"properties": {"GID_2": "MEX.7.23_2","GID_0": "MEX","country": "México","GID_1": "MEX.7_1","province": "Coahuila","NL_NAME_1": "NA","county": "Ocampo","VARNAME_2": "NA","NL_NAME_2": "NA","TYPE_2": "Município","ENGTYPE_2": "Municipality","CC_2": "NA","HASC_2": "NA","name": "Ocampo.county","area_km2": 26059.87,"hist_schema_id": "Elevation0-9000","hist_area_km2": {"550": 4.94,"575": 26.22,"600": 37.2,"625": 58.21,"650": 86.87,"675": 108.48,"700": 101.55,"725": 117.57,"750": 116.37,"775": 130.25,"800": 159.82,"825": 167.21,"850": 233.68,"875": 289.35,"900": 326.88,"925": 357.97,"950": 413.37,"975": 408.78,"1000": 467.2,"1025": 499.43,"1050": 1644.62,"1075": 1783.17,"1100": 1659.89,"1125": 1381.75,"1150": 1224.66,"1175": 1104.75,"1200": 1202.11,"1225": 1242.47,"1250": 1045.05,"1275": 895.18,"1300": 782.39,"1325": 702.53,"1350": 647.72,"1375": 594.41,"1400": 561.55,"1425": 487.0,"1450": 426.05,"1475": 387.58,"1500": 342.42,"1525": 319.76,"1550": 302.23,"1575": 266.8,"1600": 232.49,"1625": 213.72,"1650": 199.37,"1675": 192.22,"1700": 178.76,"1725": 165.03,"1750": 151.13,"1775": 137.33,"1800": 136.71,"1825": 127.58,"1850": 121.62,"1875": 109.68,"1900": 98.75,"1925": 88.88,"1950": 78.09,"1975": 70.89,"2000": 65.64,"2025": 64.99,"2050": 59.77,"2075": 55.9,"2100": 50.15,"2125": 43.81,"2150": 37.47,"2175": 31.13,"2200": 27.34,"2225": 24.25,"2250": 19.58,"2275": 18.09,"2300": 16.9,"2325": 15.36,"2350": 12.13,"2375": 11.19,"2400": 10.5,"2425": 9.46,"2450": 8.74,"2475": 7.38,"2500": 7.6,"2525": 6.85,"2550": 6.59,"2575": 6.28,"2600": 6.03,"2625": 4.07,"2650": 3.18,"2675": 2.67,"2700": 1.92,"2725": 1.89,"2750": 1.72,"2775": 1.28,"2800": 0.81,"2825": 0.47,"2850": 0.38,"2875": 0.26}}}