{"type":"Feature","properties":{"GID_2":"MEX.5.109_2","GID_0":"MEX","country":"México","GID_1":"MEX.5_1","province":"Chiapas","NL_NAME_1":"NA","county":"TuxtlaGutiérrez","VARNAME_2":"NA","NL_NAME_2":"NA","TYPE_2":"Município","ENGTYPE_2":"Municipality","CC_2":"NA","HASC_2":"NA","name":"Tuxtla_Gutiérrez.county"},
"geometry":{"type": "MultiPolygon","coordinates": [[[[-93.2427,16.747,762.4567],[-93.2251,16.7444,720.3309],[-93.2379,16.7303,718.0124],[-93.2447,16.7309,791.9078],[-93.2476,16.7211,806.8286],[-93.2406,16.7197,820.8467],[-93.2412,16.7089,818.8633],[-93.2443,16.6987,963.2872],[-93.2336,16.694,908.7363],[-93.2311,16.6904,904.2667],[-93.2336,16.6733,1025.375],[-93.2211,16.6788,886.6113],[-93.2116,16.6703,912.2892],[-93.216,16.6602,1105.3751],[-93.2115,16.6596,1086.2986],[-93.2009,16.6507,1079.8593],[-93.194,16.6577,844.7584],[-93.1905,16.6553,853.56],[-93.1918,16.6529,877.119],[-93.1808,16.6475,869.9468],[-93.1797,16.6577,764.3721],[-93.159,16.6452,483.9515],[-93.1564,16.6527,457.0004],[-93.15,16.6575,450.5286],[-93.1545,16.6654,483.258],[-93.1589,16.6698,487.6743],[-93.1476,16.6742,627.0712],[-93.1446,16.6742,679.6017],[-93.1431,16.6658,474.1302],[-93.138,16.6591,458.5103],[-93.1268,16.6693,835.7919],[-93.1051,16.6588,737.9493],[-93.1011,16.6592,699.5126],[-93.0984,16.6568,629.3795],[-93.0956,16.6571,744.3352],[-93.0899,16.6614,690.0837],[-93.089,16.6659,711.1265],[-93.0776,16.6719,730.5035],[-93.0765,16.6712,714.153],[-93.0741,16.675,737.0205],[-93.0747,16.6764,747.63],[-93.0782,16.6739,790.7534],[-93.0851,16.6787,846.4172],[-93.0896,16.6948,876.7034],[-93.0737,16.6857,853.8903],[-93.0654,16.6747,820.7449],[-93.065,16.681,834.7034],[-93.0574,16.6774,838.3792],[-93.0545,16.6702,836.7192],[-93.0455,16.6653,746.8521],[-93.0339,16.6776,506.8764],[-93.0379,16.7011,586.3564],[-93.0452,16.7063,616.5707],[-93.0476,16.7115,608.6179],[-93.0435,16.7172,523.9844],[-93.0342,16.7218,423.6678],[-93.0353,16.7262,430.8681],[-93.0408,16.7318,456.1765],[-93.0404,16.7296,454.9681],[-93.0446,16.7302,459.6671],[-93.0474,16.7352,474.7043],[-93.0449,16.7368,470.0784],[-93.0582,16.7521,655.8905],[-93.0375,16.7516,448.9235],[-93.0401,16.7568,412.2495],[-93.0459,16.7603,386.7366],[-93.0563,16.7769,421.7762],[-93.0702,16.7932,408.1949],[-93.0708,16.7963,411.3042],[-93.0653,16.8095,436.8484],[-93.0661,16.8163,531.1174],[-93.064,16.8331,421.997],[-93.0679,16.8382,594.4039],[-93.0755,16.8372,461.9501],[-93.084,16.8389,473.7506],[-93.081,16.8409,560.2358],[-93.0858,16.8401,657.6331],[-93.0904,16.8366,499.0117],[-93.0922,16.8447,1258.8698],[-93.1372,16.8443,1239.3313],[-93.1415,16.8255,1140.4436],[-93.1397,16.8175,1000.3169],[-93.1368,16.8157,973.7222],[-93.1383,16.8123,947.5938],[-93.1366,16.8093,826.7996],[-93.1402,16.8059,834.8531],[-93.1639,16.8092,925.6591],[-93.1641,16.8011,954.0087],[-93.1796,16.7957,758.465],[-93.1916,16.8042,911.587],[-93.2036,16.8009,1025.0952],[-93.2086,16.8051,980.8334],[-93.2131,16.7888,715.6356],[-93.2047,16.7848,684.1852],[-93.2044,16.7828,679.1609],[-93.2064,16.7816,669.1826],[-93.2064,16.7834,675.6861],[-93.2083,16.784,680.8384],[-93.2095,16.7832,689.2717],[-93.2082,16.7821,674.6564],[-93.2089,16.7801,677.594],[-93.2141,16.7803,723.5704],[-93.2211,16.7864,726.7577],[-93.2228,16.7814,759.1863],[-93.2191,16.7784,746.52],[-93.2204,16.7719,682.2257],[-93.2248,16.7704,691.4641],[-93.2292,16.7661,729.1726],[-93.236,16.7651,778.2091],[-93.2417,16.7568,804.4319],[-93.2427,16.747,762.4567]]]]}}