{"type":"Feature","properties":{"GID_2":"MEX.12.54_2","GID_0":"MEX","country":"México","GID_1":"MEX.12_1","province":"Guerrero","NL_NAME_1":"NA","county":"PedroAscencioAlquisiras","VARNAME_2":"NA","NL_NAME_2":"NA","TYPE_2":"Município","ENGTYPE_2":"Municipality","CC_2":"NA","HASC_2":"NA","name":"Pedro_Ascencio_Alquisiras.county"},
"geometry":{"type": "MultiPolygon","coordinates": [[[[-99.762,18.553,1839.4612],[-99.7598,18.5564,1848.658],[-99.7598,18.5634,1851.3911],[-99.7555,18.5724,1897.7301],[-99.7578,18.5782,1897.7847],[-99.7539,18.5836,2023.6584],[-99.7566,18.5883,2057.323],[-99.7614,18.5897,2233.8694],[-99.7643,18.5832,2144.4382],[-99.7637,18.5801,2033.3324],[-99.7706,18.5796,2153.8782],[-99.7724,18.5884,2360.6785],[-99.7691,18.5964,2414.5977],[-99.7719,18.5991,2467.5356],[-99.7733,18.6035,2434.3374],[-99.7661,18.6046,2191.4663],[-99.7685,18.6064,2227.0417],[-99.7679,18.6103,2268.7063],[-99.7718,18.621,2341.1382],[-99.7708,18.6271,2388.8975],[-99.7798,18.6382,2467.2241],[-99.7823,18.6387,2520.5652],[-99.7859,18.6369,2681.8257],[-99.7861,18.6396,2661.0896],[-99.7942,18.6299,2546.7798],[-99.7975,18.6338,2286.9629],[-99.7986,18.6311,2341.9624],[-99.8011,18.634,2144.0137],[-99.8007,18.6318,2273.5457],[-99.8027,18.6357,2077.2629],[-99.8047,18.6371,2001.6458],[-99.807,18.6363,1962.6738],[-99.8125,18.6409,1876.9636],[-99.8112,18.6365,2074.5256],[-99.8137,18.6348,2115.9326],[-99.8132,18.6298,2271.4351],[-99.8166,18.625,2275.6326],[-99.8175,18.6263,2322.6665],[-99.8209,18.625,2188.7454],[-99.8252,18.6263,2133.5122],[-99.8277,18.6241,2069.543],[-99.8305,18.6276,2149.9226],[-99.8379,18.6235,2069.9021],[-99.8437,18.6249,1846.9917],[-99.843,18.6213,2028.1736],[-99.8484,18.6203,2013.8337],[-99.8489,18.6188,1969.6528],[-99.8491,18.6125,2027.6628],[-99.8476,18.6127,2014.0864],[-99.8479,18.6113,2016.4913],[-99.8448,18.6092,2004.0231],[-99.8476,18.6055,1896.1216],[-99.8514,18.6063,1803.8529],[-99.8581,18.6123,1677.786],[-99.8633,18.6143,1510.8459],[-99.8637,18.6179,1651.906],[-99.8689,18.6147,1564.8208],[-99.8858,18.6193,1198.3329],[-99.889,18.6184,1169.925],[-99.8962,18.6101,1141.0276],[-99.9064,18.6051,1023.2318],[-99.907,18.6018,1018.2604],[-99.9167,18.5979,980.9129],[-99.9221,18.5986,957.4],[-99.9271,18.5948,894.5635],[-99.9333,18.5923,862.9568],[-99.9343,18.5933,862.9568],[-99.9365,18.591,844.8985],[-99.9391,18.592,841.7877],[-99.9409,18.5892,827.1407],[-99.9426,18.59,820.9531],[-99.9445,18.5877,813.4832],[-99.9472,18.5879,805.8694],[-99.9484,18.5841,807.4917],[-99.9473,18.583,847.7411],[-99.951,18.5804,803.3853],[-99.9489,18.5788,841.4177],[-99.9516,18.5784,797.2074],[-99.9539,18.575,849.6865],[-99.953,18.5725,795.1877],[-99.9562,18.5725,827.8582],[-99.9569,18.5694,795.5545],[-99.9606,18.5673,813.3536],[-99.9579,18.5649,843.9983],[-99.9609,18.564,808.2867],[-99.9599,18.5604,788.3951],[-99.962,18.5558,758.2847],[-99.9604,18.5554,765.4155],[-99.9614,18.5509,754.7106],[-99.9589,18.5508,765.8082],[-99.9576,18.5447,783.1583],[-99.9543,18.5444,789.8064],[-99.9541,18.5428,794.7908],[-99.9517,18.5438,835.2649],[-99.9504,18.5419,836.6937],[-99.9623,18.5309,1305.6881],[-99.9608,18.5287,1355.3622],[-99.953,18.5255,1179.1869],[-99.9529,18.5241,1206.0427],[-99.9575,18.5195,1304.8312],[-99.9613,18.5212,1268.7716],[-99.9701,18.5146,1507.9646],[-99.9739,18.5055,1477.5588],[-99.9727,18.5041,1458.1077],[-99.9679,18.5043,1495.0062],[-99.9658,18.4982,1528.0004],[-99.9608,18.4959,1547.6731],[-99.9617,18.4907,1621.2533],[-99.9573,18.4858,1616.0742],[-99.9577,18.4832,1584.8114],[-99.9536,18.4839,1598.7839],[-99.9505,18.4801,1587.0828],[-99.9525,18.4724,1543.2657],[-99.9474,18.4716,1566.1592],[-99.9442,18.4686,1574.5554],[-99.9447,18.4654,1605.9998],[-99.9475,18.4635,1649.837],[-99.9478,18.459,1680.7197],[-99.9459,18.4589,1688.1909],[-99.9417,18.4485,1740.8904],[-99.9441,18.445,1731.5554],[-99.9481,18.4465,1650.9501],[-99.9541,18.4403,1513.4214],[-99.9548,18.4352,1411.26],[-99.9512,18.4355,1548.844],[-99.9498,18.4332,1484.5552],[-99.9555,18.4307,1419.5747],[-99.9525,18.4266,1450.2377],[-99.9446,18.4276,1547.0767],[-99.9411,18.426,1601.678],[-99.9406,18.4223,1616.4409],[-99.9445,18.421,1508.2375],[-99.9422,18.42,1560.5393],[-99.94,18.416,1622.103],[-99.9358,18.4152,1619.098],[-99.9327,18.417,1576.6931],[-99.9257,18.412,1536.1887],[-99.9258,18.4197,1630.3846],[-99.9293,18.4201,1642.7657],[-99.9301,18.4245,1906.1213],[-99.9332,18.4274,1916.2795],[-99.9353,18.4273,1897.5729],[-99.9359,18.4295,1858.1602],[-99.934,18.4319,1915.1437],[-99.9391,18.4353,1917.5466],[-99.9294,18.4418,1866.9319],[-99.9303,18.4431,1836.0544],[-99.9341,18.4407,1863.2153],[-99.9344,18.442,1863.2153],[-99.9317,18.444,1853.1951],[-99.925299999999993,18.4436,1830.8646],[-99.9201,18.4509,1802.0798],[-99.9105,18.4554,1807.2976],[-99.9103,18.4664,1811.9297],[-99.9171,18.4679,1825.0833],[-99.9242,18.4717,1806.7002],[-99.915,18.477,1757.2183],[-99.9129,18.4819,1757.337],[-99.9047,18.4875,1735.814],[-99.8962,18.4841,1692.3409],[-99.8963,18.4816,1682.5045],[-99.8915,18.48,1760.2992],[-99.8905,18.4774,1769.2837],[-99.8935,18.4743,1733.7943],[-99.8907,18.4724,1727.0206],[-99.8878,18.4742,1781.8481],[-99.8802,18.4704,1704.283],[-99.8757,18.4707,1649.4586],[-99.8713,18.4685,1618.4653],[-99.8686,18.4704,1565.8733],[-99.8634,18.4676,1530.5499],[-99.8603,18.4686,1499.14],[-99.8539,18.4666,1472.7545],[-99.8554,18.4645,1490.1528],[-99.8593,18.4644,1508.0582],[-99.8615,18.4616,1587.9219],[-99.8532,18.4562,1489.8647],[-99.8487,18.4503,1441.9486],[-99.8476,18.4517,1418.593],[-99.8429,18.448,1430.042],[-99.8417,18.4433,1394.6631],[-99.8448,18.4412,1489.8418],[-99.8433,18.4384,1436.8877],[-99.8381,18.4373,1364.4683],[-99.8372,18.4355,1385.2521],[-99.8347,18.437,1386.4293],[-99.832,18.4441,1390.1605],[-99.8389,18.4513,1529.8857],[-99.8404,18.4577,1458.1362],[-99.8359,18.4581,1419.2239],[-99.8381,18.4624,1443.8525],[-99.8414,18.4631,1438.6787],[-99.8401,18.4656,1451.094],[-99.8425,18.4681,1434.8134],[-99.841,18.4703,1436.1095],[-99.8429,18.4698,1453.3861],[-99.8441,18.4726,1449.616],[-99.8465,18.473,1441.3618],[-99.8456,18.4792,1449.3313],[-99.8436,18.4805,1466.5438],[-99.8395,18.4792,1469.5387],[-99.8376,18.4816,1483.084],[-99.8373,18.4857,1501.2052],[-99.8328,18.4862,1498.6968],[-99.8292,18.493,1529.1548],[-99.8248,18.497,1537.6451],[-99.8281,18.5057,1553.676],[-99.8263,18.5095,1574.9978],[-99.8203,18.514,1597.6736],[-99.8166,18.5238,1642.5795],[-99.8135,18.5262,1640.2739],[-99.8103,18.5251,1667.0081],[-99.8057,18.528,1661.9376],[-99.8032,18.5274,1663.6454],[-99.8028,18.529,1670.7423],[-99.8004,18.5281,1675.5973],[-99.795,18.5296,1679.0303],[-99.7935,18.5318,1695.9363],[-99.7908,18.5311,1699.2374],[-99.7903,18.54,1723.7125],[-99.7854,18.5471,1828.0568],[-99.7753,18.5501,1797.6251],[-99.7716,18.5484,1826.714],[-99.762,18.553,1839.4612]]]]}}