{"type":"Feature","properties":{"GID_2":"MEX.25.17_2","GID_0":"MEX","country":"México","GID_1":"MEX.25_1","province":"Sinaloa","NL_NAME_1":"NA","county":"SanIgnacio","VARNAME_2":"NA","NL_NAME_2":"NA","TYPE_2":"Município","ENGTYPE_2":"Municipality","CC_2":"NA","HASC_2":"NA","name":"San_Ignacio.county"},
"geometry":{"type": "MultiPolygon","coordinates": [[[[-106.7533,23.6136,1.0],[-106.752,23.6143,1.0],[-106.7519,23.6154,1.0],[-106.7547,23.615,1.3787],[-106.7533,23.6136,1.0]]],
[[[-106.7944,23.6779,0.0],[-106.7947,23.6795,0.6124],[-106.7947,23.6747,0.0],[-106.7944,23.6779,0.0]]],
[[[-106.0925,24.2874,1587.292],[-106.1525,24.3388,2926.7891],[-106.17,24.3337,1889.0459],[-106.1944,24.3518,2697.9033],[-106.2689,24.3748,1975.7458],[-106.3278,24.3611,1970.4438],[-106.3441,24.3488,1574.8568],[-106.3526,24.3165,1546.3796],[-106.3592,24.3075,1359.639],[-106.3675,24.3019,966.7905],[-106.4295,24.2851,1814.0994],[-106.4697,24.2779,1482.594],[-106.5083,24.2909,1074.3434],[-106.4629,24.2697,1706.4263],[-106.4631,24.238,1203.3135],[-106.4852,24.24,665.3038],[-106.4855,24.2382,617.156],[-106.4915,24.2384,598.0101],[-106.4944,24.2351,590.3008],[-106.4985,24.2349,567.5682],[-106.5015,24.2324,565.8371],[-106.5051,24.2328,542.884],[-106.5059,24.2312,534.7275],[-106.504,24.2294,514.6792],[-106.5074,24.2292,539.1039],[-106.5104,24.2239,493.543],[-106.513,24.2254,474.6593],[-106.514,24.2283,475.4203],[-106.5174,24.2248,452.1602],[-106.5244,24.2272,484.4862],[-106.526,24.2235,430.1368],[-106.5282,24.2269,407.8683],[-106.532,24.2281,404.4682],[-106.5357,24.2259,415.0767],[-106.5358,24.2238,392.7225],[-106.548,24.2254,335.5877],[-106.5488,24.2225,334.9222],[-106.5513,24.2239,334.3325],[-106.552,24.227,337.722],[-106.5564,24.2264,306.4162],[-106.5595,24.224,296.6993],[-106.5612,24.2264,320.2666],[-106.5674,24.2251,292.2411],[-106.575,24.2297,275.0741],[-106.5805,24.2298,278.2464],[-106.5983,24.2374,276.5269],[-106.6059,24.2377,224.4378],[-106.6054,24.2349,209.1305],[-106.6097,24.2331,206.3209],[-106.6117,24.2285,228.9885],[-106.6134,24.2279,190.0851],[-106.611,24.225,196.1472],[-106.6113,24.2209,186.1019],[-106.603,24.2209,195.9592],[-106.6065,24.215699999999998,181.4195],[-106.6107,24.2136,208.6956],[-106.609,24.2113,195.6458],[-106.6059,24.2112,182.7462],[-106.6048,24.207,189.6986],[-106.6067,24.2044,181.9087],[-106.621,24.1995,176.4891],[-106.6184,24.1942,208.7838],[-106.6211,24.1914,172.5644],[-106.6206,24.1848,182.5643],[-106.6238,24.1789,170.4116],[-106.6308,24.176,164.0826],[-106.6295,24.1709,163.2269],[-106.6351,24.1682,156.0533],[-106.6349,24.1642,153.5753],[-106.632,24.1602,153.5281],[-106.6344,24.156,150.97],[-106.6378,24.156,151.7388],[-106.6435,24.16,147.489],[-106.6472,24.1575,146.9956],[-106.6481,24.1544,155.0824],[-106.6543,24.1512,149.6654],[-106.6526,24.1454,169.0575],[-106.6456,24.14,166.1464],[-106.6463,24.138,140.7264],[-106.6483,24.1362,139.5],[-106.6565,24.1368,139.5],[-106.6611,24.1443,139.5],[-106.6652,24.1455,141.7513],[-106.6683,24.1424,143.4146],[-106.6635,24.1381,160.1003],[-106.664,24.1349,180.3106],[-106.6682,24.1384,159.8863],[-106.6687,24.1363,171.0651],[-106.6706,24.137,163.002],[-106.6752,24.1344,145.6062],[-106.6739,24.1322,193.0018],[-106.6755,24.1306,155.6265],[-106.6776,24.1316,158.0408],[-106.6871,24.129,160.3815],[-106.6887,24.1308,145.5926],[-106.692,24.13,190.2837],[-106.6907,24.126,181.2576],[-106.6963,24.128,161.0213],[-106.6947,24.1236,149.4807],[-106.6957,24.1204,196.9562],[-106.6819,24.119,118.5924],[-106.6788,24.1163,103.7223],[-106.6776,24.1086,98.7289],[-106.6806,24.1014,98.8069],[-106.6767,24.0967,105.2617],[-106.6748,24.0904,132.6221],[-106.6626,24.0858,92.8517],[-106.6587,24.0822,91.1372],[-106.6538,24.0696,107.1784],[-106.6549,24.0601,100.1963],[-106.6593,24.0581,96.3128],[-106.6547,24.0481,88.3893],[-106.6569,24.0443,80.3748],[-106.6637,24.0408,82.167],[-106.666,24.0361,79.0442],[-106.6706,24.0318,75.8099],[-106.6779,24.0307,80.5817],[-106.6801,24.0234,74.8803],[-106.6754,24.0171,73.3751],[-106.6799,24.0127,73.0142],[-106.6823,24.0056,69.0931],[-106.682,24.0018,83.7738],[-106.6853,23.9975,80.1125],[-106.6884,23.9856,68.2736],[-106.6911,23.9609,62.5502],[-106.6943,23.9591,58.8095],[-106.6991,23.9608,57.1784],[-106.7041,23.9576,56.2494],[-106.7079,23.9638,54.8781],[-106.7125,23.9662,55.5196],[-106.7152,23.962,53.6952],[-106.714,23.959,55.0982],[-106.7089,23.958,75.8844],[-106.7032,23.9449,70.7276],[-106.6966,23.9504,98.3172],[-106.6904,23.9491,113.4424],[-106.6719,23.9238,178.8029],[-106.6706,23.9196,149.5474],[-106.6769,23.9063,120.8383],[-106.6855,23.8936,110.3827],[-106.7356,23.8533,123.4982],[-106.7317,23.8344,106.1898],[-106.7374,23.8332,112.9461],[-106.7429,23.8026,58.0758],[-106.7379,23.8006,42.1655],[-106.7401,23.7893,22.591],[-106.8619,23.7744,0.0],[-106.8444,23.7548,0.0],[-106.8432,23.7461,0.0],[-106.8468,23.7399,0.7783],[-106.8154,23.7101,1.13],[-106.8092,23.7001,0.0],[-106.8012,23.6916,0.0],[-106.7929,23.6773,3.1815],[-106.794,23.6719,0.5056],[-106.7923,23.6694,1.3824],[-106.7951,23.6717,0.5056],[-106.799,23.666,0.8957],[-106.8043,23.6676,1.7436],[-106.8043,23.6604,4.3922],[-106.8116,23.6581,0.0],[-106.8108,23.6529,0.0],[-106.8063,23.6489,4.7273],[-106.8021,23.6483,0.0],[-106.7901,23.6405,0.0],[-106.7851,23.6354,4.3448],[-106.7849,23.6327,7.3211],[-106.7688,23.6215,4.4999],[-106.7642,23.6132,0.0],[-106.7537,23.6092,2.2255],[-106.7301,23.5958,0.0],[-106.7308,23.598,3.2722],[-106.7271,23.5987,0.5],[-106.7282,23.6004,2.0649],[-106.7338,23.5998,2.2347],[-106.7577,23.613,2.4408],[-106.759,23.6201,4.5689],[-106.7535,23.6216,2.0492],[-106.7512,23.6266,2.8438],[-106.7484,23.6202,1.2241],[-106.7467,23.6201,1.2241],[-106.7465,23.6215,1.8383],[-106.7397,23.6204,1.0],[-106.7461,23.6145,1.0],[-106.7533,23.6127,1.0],[-106.7369,23.603,1.9976],[-106.7331,23.6022,1.5242],[-106.7294,23.6033,3.9296],[-106.729,23.6051,4.5728],[-106.7252,23.6006,0.942],[-106.7247,23.6076,5.6826],[-106.7224,23.6086,3.9993],[-106.7236,23.6063,3.104],[-106.721,23.6063,3.5841],[-106.7214,23.605,2.3774],[-106.7177,23.6021,2.3836],[-106.7221,23.6014,0.5],[-106.7242,23.5971,0.5],[-106.7259,23.5971,0.5],[-106.7249,23.5953,3.4463],[-106.7273,23.5959,0.7171],[-106.727,23.5974,0.5],[-106.7286,23.5968,0.586],[-106.7284,23.5947,0.0],[-106.6952,23.5695,0.0],[-106.6851,23.5568,0.0],[-106.684,23.5521,3.3395],[-106.6858,23.5505,0.3994],[-106.682,23.5439,6.6943],[-106.6821,23.5413,5.1709],[-106.6757,23.5386,0.0],[-106.6534,23.5183,0.0],[-106.6391,23.5084,1.9359],[-106.6275,23.4969,0.0],[-106.6263,23.492,15.8625],[-106.6299,23.4899,5.3168],[-106.6301,23.4837,8.8664],[-106.6268,23.4782,8.4095],[-106.6231,23.4778,13.0059],[-106.6184,23.4736,1.0253],[-106.6148,23.5012,1.9826],[-106.6045,23.5508,149.1609],[-106.5974,23.6162,218.9065],[-106.5187,23.6242,597.9213],[-106.5258,23.6445,462.0353],[-106.5293,23.6602,384.1173],[-106.5266,23.6642,300.3046],[-106.5296,23.6681,302.7603],[-106.5212,23.691,227.6903],[-106.4773,23.6895,280.5668],[-106.4667,23.6988,360.3098],[-106.4165,23.6927,237.1708],[-106.386,23.6777,153.5375],[-106.3691,23.6382,122.4799],[-106.3664,23.641,120.503],[-106.3622,23.6391,120.7324],[-106.3588,23.6406,127.2536],[-106.3566,23.6384,123.448],[-106.3534,23.6383,123.4136],[-106.3516,23.6339,129.8266],[-106.3477,23.6344,129.4994],[-106.3451,23.6309,130.4593],[-106.3419,23.6304,134.712],[-106.3415,23.6261,140.4458],[-106.3367,23.6247,142.877],[-106.332,23.6153,155.5388],[-106.3296,23.6173,159.8656],[-106.3237,23.6144,150.5001],[-106.3107,23.6147,160.9616],[-106.3081,23.6117,168.4586],[-106.3105,23.6096,183.5148],[-106.3103,23.6057,206.753],[-106.3039,23.6013,178.769],[-106.2959,23.6046,200.0319],[-106.2943,23.6019,215.4242],[-106.2913,23.6028,200.0124],[-106.2901,23.6002,252.2953],[-106.2859,23.6028,201.1844],[-106.2843,23.6002,216.7716],[-106.2807,23.6003,223.4375],[-106.2776,23.6017,211.7881],[-106.2788,23.6029,200.9777],[-106.2758,23.6054,209.212],[-106.2717,23.6033,235.5559],[-106.2722,23.6067,222.7784],[-106.2668,23.6086,238.6127],[-106.2671,23.614,299.225],[-106.2643,23.6132,240.6995],[-106.2667,23.6154,235.2914],[-106.2652,23.6196,258.1622],[-106.2604,23.6187,313.8906],[-106.2595,23.6211,252.2858],[-106.2614,23.6222,254.5731],[-106.2604,23.6234,254.7242],[-106.2558,23.6249,258.7193],[-106.2527,23.6242,252.0927],[-106.2542,23.6306,276.2374],[-106.2516,23.6323,300.9037],[-106.2518,23.6298,275.8338],[-106.2494,23.6295,278.9412],[-106.249,23.6338,279.9895],[-106.2502,23.6346,279.9895],[-106.2464,23.6357,365.1395],[-106.2481,23.6365,300.8631],[-106.2473,23.6389,330.5928],[-106.2432,23.6427,321.5194],[-106.2415,23.639,335.0278],[-106.2423,23.6372,312.5839],[-106.2394,23.6376,328.3508],[-106.2367,23.636,316.2333],[-106.2361,23.6423,347.6727],[-106.2345,23.6417,338.4899],[-106.2344,23.6392,339.1654],[-106.2315,23.6408,348.9235],[-106.2324,23.6459,361.3365],[-106.228,23.6488,371.0001],[-106.2293,23.6501,371.0001],[-106.2272,23.6543,388.4845],[-106.2233,23.6537,411.8163],[-106.2202,23.6573,419.9518],[-106.2177,23.6576,412.2137],[-106.2124,23.6555,418.1089],[-106.2091,23.6583,494.8271],[-106.2088,23.6599,472.9036],[-106.2121,23.6632,483.0653],[-106.2084,23.6633,459.8216],[-106.2076,23.6644,456.6956],[-106.2101,23.666,452.1359],[-106.2074,23.6661,453.2683],[-106.2092,23.6679,459.7933],[-106.2063,23.6682,470.106],[-106.2043,23.6709,472.0276],[-106.2076,23.6719,487.6642],[-106.2043,23.6737,483.2596],[-106.2062,23.6746,484.4467],[-106.2057,23.6765,488.6356],[-106.2033,23.6776,494.1185],[-106.1792,23.6632,857.9458],[-106.1731,23.7074,745.0411],[-106.1154,23.7285,579.8586],[-106.1597,23.7702,1683.4546],[-106.0683,23.8912,2436.7112],[-105.9519,23.8196,987.549],[-105.9613,23.840699999999998,1561.8535],[-105.9537,23.9086,1482.1866],[-105.8833,23.8785,1604.6323],[-105.8641,23.8756,559.4913],[-105.8629,23.8783,571.2582],[-105.8655,23.8807,607.9702],[-105.8632,23.8811,636.7604],[-105.8636,23.8844,662.5256],[-105.8616,23.8844,696.3605],[-105.8607,23.8864,721.2579],[-105.8633,23.8894,770.7526],[-105.8585,23.8931,898.7704],[-105.8576,23.8993,960.6492],[-105.8588,23.9021,1055.5093],[-105.8641,23.9053,1182.7566],[-105.8653,23.9082,1193.9166],[-105.8639,23.9128,1297.3372],[-105.866,23.9161,1456.9114],[-105.879,23.9261,1880.871],[-105.8816,23.9328,1548.7397],[-105.8999,23.9439,1523.5651],[-105.9454,23.948,2257.9512],[-105.9085,23.9834,1213.3444],[-105.9087,23.9866,1276.0596],[-105.9129,23.992,1296.9661],[-105.9121,23.9975,1117.3522],[-105.9171,24.0001,808.0469],[-105.923,23.998,771.6613],[-105.9289,23.9993,760.6888],[-105.9376,24.005,733.5365],[-105.9423,24.0143,683.9715],[-105.946,24.0122,642.1218],[-105.9469,24.0152,641.7543],[-105.9487,24.0118,683.5446],[-105.9503,24.0148,643.0484],[-105.9598,24.0174,626.9504],[-105.961,24.0219,614.9434],[-105.9598,24.0238,646.4478],[-105.9654,24.0271,605.9446],[-105.9666,24.0318,593.2365],[-105.973,24.0327,609.8934],[-105.9795,24.042,555.6666],[-105.9819,24.0416,550.2734],[-105.9843,24.0387,552.4364],[-105.989,24.042,541.5605],[-105.9919,24.0414,538.6876],[-105.9941,24.0446,491.6669],[-105.9979,24.0425,477.4586],[-105.9987,24.0434,477.4586],[-105.9995,24.0497,528.2138],[-105.9967,24.0542,590.4088],[-105.9999,24.0551,470.6877],[-106.0002,24.0581,432.7954],[-106.0025,24.0595,422.8953],[-106.0012,24.0631,433.3488],[-106.0029,24.0661,445.0226],[-106.0066,24.0672,443.4576],[-106.0079,24.0725,537.2947],[-106.0036,24.0762,477.5545],[-106.0007,24.0761,473.8331],[-106.0027,24.0832,499.943],[-106.0006,24.0864,508.5755],[-106.0021,24.0881,530.5905],[-105.9994,24.0901,537.5194],[-105.9963,24.0894,539.4751],[-105.994,24.0936,549.1149],[-105.9956,24.0983,575.683],[-105.9935,24.0992,590.8847],[-105.9932,24.1012,571.0801],[-105.9894,24.1024,559.1459],[-105.9911,24.1056,630.8969],[-105.9891,24.108,626.1906],[-105.9897,24.1144,599.3092],[-105.9966,24.1145,611.829],[-106.004,24.1205,652.3599],[-106.0037,24.1253,701.1499],[-106.0012,24.1283,660.0375],[-106.0042,24.13,675.4636],[-106.004,24.1377,735.7978],[-106.002,24.1387,689.3525],[-106.004,24.14,751.3617],[-106.0032,24.1468,685.3504],[-106.0065,24.1487,716.3511],[-106.0062,24.1509,720.9019],[-106.011,24.1568,783.8859],[-106.0121,24.1612,834.1959],[-106.0182,24.1645,888.4197],[-106.0211,24.1732,841.0366],[-106.0286,24.1803,1023.5452],[-106.0268,24.1865,984.9274],[-106.034,24.1919,1008.2008],[-106.0364,24.204,1175.1489],[-106.0442,24.2117,1263.8971],[-106.0439,24.2209,1496.0833],[-106.0699,24.2202,2670.8306],[-106.0713,24.2496,2238.6416],[-106.0745,24.2694,1812.5822],[-106.0772,24.2726,1771.8674],[-106.0813,24.2734,1665.7142],[-106.0872,24.278,1647.2048],[-106.0893,24.2818,1608.0256],[-106.0889,24.2844,1649.9211],[-106.0925,24.2874,1587.292]]]]}}