{"type": "Feature","bbox": [-96.305,16.2792,-96.1909,16.392],"geometry": {"type": "MultiPolygon","coordinates": [[[[-96.2955,16.392,1323.5087],[-96.3004,16.3873,1355.2601],[-96.3023,16.3795,1361.8981],[-96.305,16.3759,1372.2183],[-96.3047,16.3626,1403.6482],[-96.2974,16.361,1439.9824],[-96.2941,16.3493,1503.771],[-96.2872,16.3464,1543.489],[-96.2865,16.3433,1581.6577],[-96.2821,16.3409,1641.1735],[-96.2785,16.3319,1702.0872],[-96.2801,16.3279,1694.7871],[-96.2777,16.3228,1742.4407],[-96.275,16.3225,1746.4972],[-96.2716,16.3166,1878.3372],[-96.2614,16.3132,1916.1584],[-96.2429,16.3146,2090.1782],[-96.237799999999993,16.3123,2168.2422],[-96.236,16.3029,2400.7847],[-96.2262,16.2927,2714.8457],[-96.2214,16.2914,2847.2173],[-96.2177,16.2845,3060.4023],[-96.2101,16.2792,3394.061],[-96.1923,16.301,3107.8174],[-96.1968,16.3136,3040.0376],[-96.1909,16.3183,2959.8596],[-96.1958,16.3337,2569.251],[-96.1999,16.3382,2517.9248],[-96.2043,16.3558,2363.75],[-96.2278,16.336,2850.0071],[-96.2338,16.3355,2801.1082],[-96.2618,16.3465,2457.0188],[-96.2784,16.3643,1621.0763],[-96.284,16.3673,1553.4336],[-96.2876,16.3736,1510.3823],[-96.2928,16.3896,1357.3052],[-96.2955,16.392,1323.5087]]]]}
,"properties": {"GID_2": "MEX.20.364_2","GID_0": "MEX","country": "México","GID_1": "MEX.20_1","province": "Oaxaca","NL_NAME_1": "NA","county": "SantaCatalinaQuierí","VARNAME_2": "NA","NL_NAME_2": "NA","TYPE_2": "Município","ENGTYPE_2": "Municipality","CC_2": "NA","HASC_2": "NA","name": "Santa_Catalina_Quierí.county","area_km2": 51.41663,"hist_schema_id": "Elevation0-9000","hist_area_km2": {"1325": 0.08136,"1350": 0.04068,"1375": 0.26444,"1400": 0.22376,"1425": 0.36616,"1450": 0.42718,"1475": 0.42719,"1500": 0.50857,"1525": 0.38652,"1550": 0.67132,"1575": 0.71202,"1600": 0.7527,"1625": 0.95615,"1650": 0.85444,"1675": 0.83409,"1700": 0.67135,"1725": 0.69172,"1750": 0.59001,"1775": 0.42726,"1800": 0.36623,"1825": 0.46796,"1850": 0.34589,"1875": 0.46797,"1900": 0.50866,"1925": 0.42728,"1950": 0.36624,"1975": 0.6104,"2000": 0.36624,"2025": 0.6104,"2050": 0.48833,"2075": 0.52902,"2100": 0.54935,"2125": 0.59006,"2150": 0.52902,"2175": 0.59006,"2200": 0.42729,"2225": 0.6511,"2250": 0.69177,"2275": 0.73247,"2300": 0.73247,"2325": 0.89524,"2350": 0.54936,"2375": 0.71213,"2400": 0.71213,"2425": 0.83421,"2450": 0.71214,"2475": 0.99702,"2500": 1.09874,"2525": 1.24117,"2550": 1.26155,"2575": 1.30223,"2600": 1.28192,"2625": 1.20054,"2650": 1.30226,"2675": 1.30227,"2700": 1.36332,"2725": 1.5261,"2750": 1.42438,"2775": 1.11916,"2800": 1.07848,"2825": 1.01742,"2850": 0.77324,"2875": 0.7936,"2900": 0.85466,"2925": 0.50873,"2950": 0.61048,"2975": 0.50873,"3000": 0.34595,"3025": 0.4884,"3050": 0.38665,"3075": 0.3256,"3100": 0.36631,"3125": 0.22386,"3150": 0.22386,"3175": 0.26456,"3200": 0.14246,"3225": 0.20351,"3250": 0.24422,"3275": 0.06105,"3300": 0.08141,"3325": 0.10176,"3350": 0.02035,"3375": 0.02035}}}