{"type": "Feature","bbox": [-98.0456,17.7974,-97.9633,17.8789],"geometry": {"type": "MultiPolygon","coordinates": [[[[-98.0323,17.808,1746.3973],[-98.0151,17.798,1705.4202],[-98.0112,17.7974,1718.1228],[-98.009,17.7996,1719.2449],[-98.0061,17.7998,1721.7502],[-98.0042,17.7974,1735.7136],[-97.9849,17.8013,1998.7223],[-97.9783,17.8051,2044.9714],[-97.9738,17.8108,2063.8101],[-97.9766,17.8201,2025.7086],[-97.9688,17.8352,1997.3671],[-97.9633,17.842,1858.2324],[-97.966,17.8647,1646.5902],[-97.9696,17.8665,1544.4082],[-97.9697,17.8692,1532.6801],[-97.974,17.8678,1537.2728],[-97.9764,17.8726,1502.7932],[-97.9802,17.8747,1488.4343],[-97.9828,17.8745,1488.8995],[-97.9822,17.8729,1535.2589],[-97.9851,17.8732,1489.9185],[-97.9856,17.8759,1465.4465],[-97.9876,17.8729,1446.5278],[-97.9921,17.8705,1432.8602],[-97.997,17.8739,1441.1368],[-97.9966,17.8757,1426.7372],[-97.999,17.8763,1438.5928],[-97.9992,17.8778,1400.7131],[-98.0057,17.8789,1393.9568],[-98.0081,17.8759,1385.0543],[-98.0131,17.875,1387.7561],[-98.0163,17.8708,1375.1183],[-98.0149,17.87,1382.5183],[-98.0155,17.8664,1384.6125],[-98.0142,17.8649,1356.3765],[-98.0171,17.8625,1353.2098],[-98.0149,17.8603,1415.4084],[-98.0127,17.8514,1502.5641],[-98.0079,17.8454,1617.6572],[-98.0144,17.8432,1759.7678],[-98.0222,17.8342,1764.9229],[-98.04,17.8264,1785.9012],[-98.0456,17.8199,1451.5892],[-98.0439,17.8194,1501.0537],[-98.0406,17.822,1498.4316],[-98.0359,17.8168,1620.5894],[-98.0323,17.808,1746.3973]]]]}
,"properties": {"GID_2": "MEX.20.352_2","GID_0": "MEX","country": "México","GID_1": "MEX.20_1","province": "Oaxaca","NL_NAME_1": "NA","county": "SanSimónZahuatlán","VARNAME_2": "NA","NL_NAME_2": "NA","TYPE_2": "Município","ENGTYPE_2": "Municipality","CC_2": "NA","HASC_2": "NA","name": "San_Simón_Zahuatlán.county","area_km2": 46.40126,"hist_schema_id": "Elevation0-9000","hist_area_km2": {"1350": 0.06054,"1375": 0.14125,"1400": 0.24215,"1425": 0.44395,"1450": 0.58521,"1475": 0.72648,"1500": 0.84757,"1525": 0.98886,"1550": 1.31179,"1575": 1.51358,"1600": 1.93746,"1625": 2.28065,"1650": 2.19995,"1675": 3.08803,"1700": 2.94679,"1725": 3.18905,"1750": 3.04777,"1775": 3.26983,"1800": 2.80556,"1825": 3.2698,"1850": 2.64408,"1875": 2.66427,"1900": 1.756,"1925": 1.43309,"1950": 0.96887,"1975": 0.84775,"2000": 0.56517,"2025": 0.34315,"2050": 0.22204,"2075": 0.06056}}}