{"type": "Feature","bbox": [-97.9119,18.8869,-97.872,18.9219],"geometry": {"type": "MultiPolygon","coordinates": [[[[-97.872,18.9073,2075.0378],[-97.8767,18.9193,2095.4185],[-97.8933,18.9219,2109.2976],[-97.9083,18.9198,2131.3772],[-97.9119,18.9111,2121.6348],[-97.8989,18.8977,2065.9077],[-97.8977,18.8944,2055.502],[-97.8932,18.8929,2043.8608],[-97.8918,18.8869,2028.3734],[-97.885,18.8882,2075.0046],[-97.8794,18.9001,2051.7856],[-97.8798,18.9079,2090.4346],[-97.872,18.9073,2075.0378]]]]}
,"properties": {"GID_2": "MEX.21.100_2","GID_0": "MEX","country": "México","GID_1": "MEX.21_1","province": "Puebla","NL_NAME_1": "NA","county": "Mixtla","VARNAME_2": "NA","NL_NAME_2": "NA","TYPE_2": "Município","ENGTYPE_2": "Municipality","CC_2": "NA","HASC_2": "NA","name": "Mixtla.county","area_km2": 9.607861,"hist_schema_id": "Elevation0-9000","hist_area_km2": {"2025": 0.080242,"2050": 1.92572,"2075": 2.587546,"2100": 3.510059,"2125": 1.504295}}}