{"type":"Feature","properties":{"GID_2":"MEX.20.274_2","GID_0":"MEX","country":"México","GID_1":"MEX.20_1","province":"Oaxaca","NL_NAME_1":"NA","county":"SanMiguelHuautla","VARNAME_2":"NA","NL_NAME_2":"NA","TYPE_2":"Município","ENGTYPE_2":"Municipality","CC_2":"NA","HASC_2":"NA","name":"San_Miguel_Huautla.county"},
"geometry":{"type": "MultiPolygon","coordinates": [[[[-97.1612,17.7064,2240.5029],[-97.1611,17.7036,2246.1689],[-97.1379,17.7058,2391.1523],[-97.1069,17.7174,2308.2808],[-97.1137,17.7509,2433.6763],[-97.1119,17.7606,2456.2485],[-97.1147,17.779,2200.9871],[-97.1198,17.7847,2230.2097],[-97.1362,17.7895,1581.0004],[-97.1362,17.7998,1534.3647],[-97.1392,17.7983,1556.5178],[-97.143,17.7989,1575.156],[-97.1497,17.801,1584.8608],[-97.1539,17.8043,1614.7441],[-97.1651,17.7997,1733.9069],[-97.185,17.7867,2358.062],[-97.1952,17.7843,2655.8208],[-97.1927,17.7764,2530.8018],[-97.1777,17.7584,2563.7891],[-97.1746,17.7513,2423.3662],[-97.1761,17.7499,2412.2554],[-97.1746,17.7449,2375.3223],[-97.1692,17.736,2319.8237],[-97.1666,17.7345,2302.1177],[-97.1612,17.7064,2240.5029]]]]}}