{"type":"Feature","properties":{"GID_2":"MEX.20.285_2","GID_0":"MEX","country":"México","GID_1":"MEX.20_1","province":"Oaxaca","NL_NAME_1":"NA","county":"SanMiguelTequixtepec","VARNAME_2":"NA","NL_NAME_2":"NA","TYPE_2":"Município","ENGTYPE_2":"Municipality","CC_2":"NA","HASC_2":"NA","name":"San_Miguel_Tequixtepec.county"},
"geometry":{"type": "MultiPolygon","coordinates": [[[[-97.3451,17.7638,2008.4761],[-97.3022,17.7693,2299.6895],[-97.2531,17.8161,2222.5574],[-97.2432,17.8125,2187.3018],[-97.2461,17.8154,2271.2432],[-97.2466,17.8204,2273.2805],[-97.2435,17.8453,2182.0879],[-97.2454,17.9153,2580.4233],[-97.3886,17.8259,2174.9893],[-97.3959,17.8242,2188.2251],[-97.3742,17.7778,2066.7949],[-97.3883,17.7772,2101.1077],[-97.4069,17.7734,2280.2437],[-97.4139,17.7699,2356.6956],[-97.4154,17.771,2379.8555],[-97.4168,17.7692,2282.0923],[-97.4086,17.7558,2175.1404],[-97.4051,17.7542,2168.3027],[-97.4023,17.7457,2097.7358],[-97.3846,17.7553,2166.0752],[-97.3813,17.7596,2150.6145],[-97.3681,17.7693,2014.9543],[-97.3449,17.7653,2008.4761],[-97.3451,17.7638,2008.4761]]]]}}