{"type": "Feature","bbox": [-99.2172,18.836,-99.1196,18.9368],"geometry": {"type": "MultiPolygon","coordinates": [[[[-99.2061,18.8758,1404.8123],[-99.2021,18.8763,1407.656],[-99.2027,18.8738,1428.0734],[-99.2018,18.8743,1428.0734],[-99.2009,18.8759,1407.656],[-99.2001,18.8746,1426.0311],[-99.1988,18.8755,1408.8044],[-99.1991,18.8685,1442.4512],[-99.1974,18.8702,1447.2031],[-99.1962,18.8667,1420.6487],[-99.1912,18.8651,1385.7727],[-99.1886,18.8672,1374.9556],[-99.1874,18.8654,1349.2756],[-99.1883,18.8646,1349.2756],[-99.1848,18.8624,1345.7037],[-99.1847,18.8582,1325.5579],[-99.1803,18.857,1318.0039],[-99.1779,18.8533,1283.5817],[-99.176,18.8551,1290.7802],[-99.1786,18.8574,1306.8988],[-99.1782,18.8595,1318.875],[-99.1728,18.8579,1294.447],[-99.171,18.8556,1291.4856],[-99.1722,18.8588,1296.2012],[-99.1708,18.861,1298.5884],[-99.1645,18.8566,1286.672],[-99.1484,18.836,1633.2695],[-99.1357,18.8517,1609.0906],[-99.1359,18.8589,1456.5802],[-99.1344,18.8641,1383.2917],[-99.1288,18.8646,1351.0288],[-99.1219,18.8619,1305.1145],[-99.1196,18.8682,1367.7849],[-99.1202,18.8808,1440.3301],[-99.1231,18.8833,1444.198],[-99.1254,18.8889,1416.3649],[-99.1334,18.895,1412.2393],[-99.1317,18.8965,1399.652],[-99.1499,18.9084,1413.2051],[-99.1579,18.918,1422.1023],[-99.1847,18.9368,1506.803],[-99.1849,18.9309,1491.3752],[-99.182,18.9217,1460.407],[-99.1841,18.9195,1454.9609],[-99.1819,18.9199,1454.8724],[-99.1808,18.9115,1432.8329],[-99.1884,18.9183,1452.1555],[-99.1935,18.9198,1456.043],[-99.194,18.9122,1429.6849],[-99.1969,18.9116,1428.4561],[-99.1965,18.9098,1417.5186],[-99.2006,18.9087,1421.5848],[-99.199,18.903,1411.806],[-99.1959,18.9007,1410.7462],[-99.1925,18.9008,1398.189],[-99.1918,18.8934,1394.7133],[-99.1959,18.8937,1405.1311],[-99.1958,18.8978,1408.0569],[-99.1982,18.8986,1408.0046],[-99.1982,18.901,1409.6952],[-99.2018,18.9013,1411.2195],[-99.2019,18.9035,1412.2903],[-99.2102,18.9062,1442.7612],[-99.2111,18.9079,1420.7946],[-99.2129,18.9053,1436.1707],[-99.2095,18.8984,1388.2045],[-99.2116,18.8952,1375.205],[-99.2117,18.8905,1379.252],[-99.2162,18.8876,1367.4453],[-99.2172,18.8792,1352.3149],[-99.2061,18.8758,1404.8123]]]]}
,"properties": {"GID_2": "MEX.17.11_2","GID_0": "MEX","country": "México","GID_1": "MEX.17_1","province": "Morelos","NL_NAME_1": "NA","county": "Jiutepec","VARNAME_2": "NA","NL_NAME_2": "NA","TYPE_2": "Município","ENGTYPE_2": "Municipality","CC_2": "NA","HASC_2": "NA","name": "Jiutepec.county","area_km2": 55.96985,"hist_schema_id": "Elevation0-9000","hist_area_km2": {"1275": 0.04013,"1300": 2.48792,"1325": 3.04957,"1350": 5.59729,"1375": 11.35443,"1400": 12.91853,"1425": 6.51922,"1450": 4.33277,"1475": 2.18648,"1500": 1.40426,"1525": 1.0232,"1550": 0.94297,"1575": 0.84263999999999994,"1600": 1.06336,"1625": 1.02325,"1650": 0.86278,"1675": 0.32104}}}