{"type":"Feature","properties":{"GID_2":"MEX.18.17_2","GID_0":"MEX","country":"México","GID_1":"MEX.18_1","province":"Nayarit","NL_NAME_1":"NA","county":"Tecuala","VARNAME_2":"NA","NL_NAME_2":"NA","TYPE_2":"Município","ENGTYPE_2":"Municipality","CC_2":"NA","HASC_2":"NA","name":"Tecuala.county"},
"geometry":{"type": "MultiPolygon","coordinates": [[[[-105.6793,22.5699,1.5897],[-105.6836,22.5697,0.5],[-105.6863,22.5727,0.5],[-105.6913,22.5689,0.5],[-105.6981,22.5694,0.5],[-105.7011,22.5607,4.3367],[-105.6754,22.5081,2.9812],[-105.6716,22.479,2.781],[-105.6769,22.4694,0.5],[-105.6894,22.4679,0.5],[-105.7015,22.4685,5.1847],[-105.7139,22.4756,0.9153],[-105.7267,22.4915,0.5],[-105.748,22.5373,0.5],[-105.7518,22.5408,0.5],[-105.7557,22.5409,0.9011],[-105.7599,22.532,0.0],[-105.7586,22.5271,0.0],[-105.747,22.5093,0.0],[-105.7212,22.4616,1.3833],[-105.6974,22.4083,0.0],[-105.6765,22.3487,0.0],[-105.6626,22.2923,0.6213],[-105.6362,22.2924,3.3214],[-105.6347,22.2653,2.4565],[-105.6305,22.2545,0.5],[-105.6203,22.241,0.5],[-105.6197,22.2274,2.3587],[-105.6225,22.2177,0.0],[-105.6141,22.1847,0.0],[-105.6108,22.1772,0.0],[-105.605,22.1716,3.0707],[-105.6037,22.1571,0.0],[-105.5993,22.1452,3.8286],[-105.5954,22.1397,0.0],[-105.5798,22.1792,0.0],[-105.5738,22.1703,0.0],[-105.5734,22.164,3.0054],[-105.5747,22.1607,0.0],[-105.562,22.1606,7.9833],[-105.5531,22.1569,0.0],[-105.5455,22.148,1.1065],[-105.5442,22.133,6.8823],[-105.534,22.1254,0.0],[-105.5287,22.1278,6.6995],[-105.5305,22.1335,6.2564],[-105.5444,22.1572,0.0],[-105.5604,22.1709,0.0],[-105.5621,22.1767,5.7519],[-105.5613,22.1825,6.0653],[-105.5605,22.1851,1.063],[-105.5548,22.1869,4.2751],[-105.5493,22.1803,3.8749],[-105.5475,22.1732,3.0121],[-105.5413,22.1726,5.8266],[-105.5341,22.1785,7.0236],[-105.5333,22.1736,4.3245],[-105.5297,22.1709,7.0346],[-105.511,22.1735,2.9218],[-105.5101,22.2369,-0.3271],[-105.5057,22.2374,-0.3361],[-105.5043,22.2337,-0.5],[-105.5006,22.2344,0.2166],[-105.5007,22.2303,1.0734],[-105.5052,22.2284,0.2471],[-105.4981,22.219,0.9469],[-105.4932,22.2181,1.6894],[-105.4921,22.2147,2.4284],[-105.4895,22.2133,3.5004],[-105.4882,22.2085,2.207],[-105.4869,22.2083,0.7462],[-105.4843,22.2148,0.3694],[-105.4805,22.2133,0.0],[-105.4784,22.2148,0.5386],[-105.4783,22.2098,0.555],[-105.4813,22.2065,0.478],[-105.4804,22.1994,0.4029],[-105.4758,22.1995,0.7423],[-105.4765,22.196,0.1987],[-105.4719,22.1962,0.92],[-105.4683,22.2,1.0154],[-105.4655,22.2002,2.1912],[-105.462,22.2058,1.9051],[-105.4598,22.2067,2.4239],[-105.4572,22.2053,0.8377],[-105.4549,22.2064,3.2704],[-105.4521,22.2028,2.5553],[-105.4465,22.2026,2.175],[-105.4438,22.2051,1.9104],[-105.4336,22.2056,1.571],[-105.4332,22.2083,1.8424],[-105.4312,22.2085,1.1376],[-105.4242,22.201,0.8264],[-105.4261,22.1961,0.814],[-105.4051,22.2118,0.0],[-105.4114,22.2288,2.0136],[-105.4127,22.2388,1.9788],[-105.4088,22.2388,1.4609],[-105.4095,22.2419,2.1498],[-105.385,22.2434,1.3816],[-105.3728,22.2553,0.7309],[-105.3664,22.2578,1.3544],[-105.3602,22.2511,1.8553],[-105.3597,22.2435,2.3235],[-105.3647,22.2428,2.2651],[-105.3629,22.2382,0.2925],[-105.387,22.2281,1.8028],[-105.3582,22.22,0.0],[-105.3382,22.2361,0.9616],[-105.3382,22.2414,1.0596],[-105.3452,22.2459,1.9137],[-105.3182,22.2539,81.8707],[-105.2927,22.2409,117.9663],[-105.2836,22.2411,60.9749],[-105.282,22.2578,59.505],[-105.2665,22.2597,46.5087],[-105.2672,22.2642,45.6107],[-105.2609,22.2631,47.3529],[-105.2618,22.2672,46.2309],[-105.2551,22.2676,47.9396],[-105.2544,22.2663,50.8716],[-105.2662,22.3075,45.4444],[-105.2858,22.303,141.0985],[-105.2944,22.3047,57.9956],[-105.2934,22.3098,49.4588],[-105.2946,22.31,52.5056],[-105.295,22.3138,49.5012],[-105.292,22.3135,46.7054],[-105.2914,22.3169,46.6792],[-105.2956,22.3202,45.9303],[-105.2998,22.329,50.3546],[-105.3006,22.3401,38.157],[-105.298,22.3432,33.0458],[-105.3137,22.355,40.1644],[-105.3265,22.3736,46.7939],[-105.3317,22.3708,23.1919],[-105.3408,22.3713,17.7755],[-105.3414,22.3539,92.2247],[-105.3556,22.3483,16.3422],[-105.3568,22.3514,9.7597],[-105.3945,22.3694,12.1529],[-105.4055,22.3709,12.0056],[-105.3984,22.398,14.6826],[-105.4107,22.401,14.9865],[-105.4079,22.4162,14.7954],[-105.413,22.4169,14.2473],[-105.4098,22.4385,15.6695],[-105.456,22.4451,4.0809],[-105.4598,22.4383,6.5429],[-105.4697,22.4483,6.3335],[-105.4738,22.4503,5.7369],[-105.4741,22.4633,9.4429],[-105.4795,22.4621,3.5046],[-105.4794,22.4584,3.388],[-105.4998,22.4539,3.1347],[-105.5002,22.4627,3.585],[-105.5029,22.4615,3.4979],[-105.5051,22.4667,2.8579],[-105.518,22.4615,3.0745],[-105.5186,22.4643,1.5],[-105.5211,22.464,3.0675],[-105.5204,22.4614,3.5934],[-105.5229,22.4615,3.7816],[-105.5247,22.4671,2.6706],[-105.5304,22.4681,4.1724],[-105.5293,22.4735,3.9865],[-105.5329,22.4746,3.4749],[-105.5356,22.4726,3.7396],[-105.5359,22.4699,3.7868],[-105.5392,22.4699,4.0933],[-105.5382,22.4656,4.3115],[-105.54,22.464,3.9013],[-105.534,22.4593,4.6204],[-105.5368,22.4589,3.6181],[-105.5343,22.447,3.3151],[-105.528,22.4487,4.9754],[-105.5179,22.4063,5.4735],[-105.5296,22.427,3.9476],[-105.5653,22.4502,2.8612],[-105.5641,22.454,3.5143],[-105.5604,22.4537,2.7672],[-105.5601,22.4555,3.0393],[-105.556,22.4556,2.3751],[-105.5571,22.4606,4.0664],[-105.5529,22.4628,3.0389],[-105.5487,22.4628,3.4838],[-105.5499,22.4728,3.3332],[-105.5565,22.4766,3.3275],[-105.556,22.4791,3.2029],[-105.5577,22.4785,3.2944],[-105.5565,22.4822,4.2783],[-105.5648,22.4819,4.0866],[-105.5643,22.4875,2.9018],[-105.5898,22.5005,2.3091],[-105.5969,22.5003,3.1755],[-105.6053,22.4965,2.1467],[-105.6163,22.5036,0.5485],[-105.6165,22.5124,3.7075],[-105.6184,22.5134,2.8097],[-105.6183,22.5152,4.2276],[-105.6208,22.5154,2.3344],[-105.6278,22.5094,4.1872],[-105.6321,22.5099,3.5213],[-105.639,22.5164,5.6373],[-105.6385,22.5223,4.6741],[-105.6402,22.5237,5.1869],[-105.6448,22.5232,4.5203],[-105.6433,22.5202,3.9248],[-105.6448,22.5185,3.2416],[-105.6519,22.5195,2.8409],[-105.6485,22.5195,2.5518],[-105.6466,22.5189,4.656],[-105.6493,22.5202,2.5518],[-105.6576,22.5185,1.2655],[-105.6599,22.5234,4.3105],[-105.6685,22.5324,0.5],[-105.6716,22.5388,2.1385],[-105.6716,22.558,1.5663],[-105.6774,22.5644,0.5],[-105.6793,22.5699,1.5897]]]]}}