{"type": "Feature","bbox": [-95.5704,16.7244,-95.300299999999993,16.955],"geometry": {"type": "MultiPolygon","coordinates": [[[[-95.5409,16.7603,1313.3933],[-95.543,16.762,1377.4233],[-95.5449,16.759,1307.4175],[-95.5485,16.7575,1301.4867],[-95.5524,16.7593,1370.0637],[-95.5531,16.7567,1448.7504],[-95.5554,16.7575,1417.7865],[-95.5625,16.7496,982.9169],[-95.5704,16.748,862.5652],[-95.5621,16.7407,1019.0985],[-95.5616,16.7384,1059.7517],[-95.557,16.7355,1190.78],[-95.5583,16.7286,1234.1915],[-95.5563,16.7299,1092.0709],[-95.5491,16.7287,1071.0331],[-95.5441,16.7244,954.1927],[-95.5408,16.7336,972.8015],[-95.5378,16.7335,1036.0532],[-95.5265,16.7393,1195.0319],[-95.522,16.7395,1308.7092],[-95.5262,16.7423,1218.1595],[-95.5292,16.7416,1208.4124],[-95.5268,16.7401,1195.0319],[-95.5302,16.7409,1169.6813],[-95.5346,16.7372,1097.7532],[-95.5332,16.743,1080.175],[-95.5353,16.7427,1066.0537],[-95.5331,16.7448,1101.059],[-95.5323,16.7487,1155.7094],[-95.5273,16.752,1238.0258],[-95.527,16.7551,1277.7521],[-95.5279,16.7563,1313.2865],[-95.533,16.7538,1314.88],[-95.5271,16.7606,1472.6023],[-95.5351,16.7594,1245.8497],[-95.5409,16.7603,1313.3933]]],
[[[-95.3397,16.9287,420.3919],[-95.3404,16.9245,424.6876],[-95.347,16.9272,497.0907],[-95.3506,16.9234,480.0364],[-95.3539,16.9238,433.9033],[-95.3561,16.9278,450.239],[-95.3599,16.9283,438.7587],[-95.362799999999993,16.9235,489.9785],[-95.3659,16.9217,506.7292],[-95.3686,16.9224,492.963],[-95.3717,16.9256,527.3389],[-95.3788,16.9285,556.0858],[-95.3816,16.9329,602.6384],[-95.3829,16.9411,912.8696],[-95.3863,16.9433,1025.3005],[-95.3903,16.9435,842.4376],[-95.3944,16.9466,658.4624],[-95.401,16.9465,524.1716],[-95.4061,16.9484,499.5051],[-95.4084,16.955,494.9402],[-95.4123,16.949,479.9303],[-95.4328,16.9377,651.3068],[-95.4195,16.918,827.0406],[-95.4209,16.9143,815.3096],[-95.4241,16.9145,780.0195],[-95.4248,16.9129,647.0414],[-95.424,16.905,771.2423],[-95.4154,16.8965,855.3302],[-95.4178,16.8933,952.4236],[-95.4174,16.8888,864.8265],[-95.4197,16.886,746.4305],[-95.4177,16.8811,571.7283],[-95.4217,16.8794,507.8223],[-95.4235,16.8761,542.1086],[-95.4193,16.8735,639.9317],[-95.4132,16.8726,639.5938],[-95.4085,16.8693,699.8126],[-95.4106,16.8627,776.3155],[-95.4196,16.8561,420.4753],[-95.4251,16.8607,406.1297],[-95.429,16.8546,472.8799],[-95.4325,16.8568,500.9172],[-95.4374,16.8516,603.8412],[-95.4458,16.8503,648.8162],[-95.4507,16.8528,729.537],[-95.4583,16.8504,679.4735],[-95.4658,16.8428,701.8661],[-95.4703,16.8427,862.476],[-95.4786,16.839,596.1146],[-95.483,16.8392,493.9785],[-95.4868,16.8349,560.73],[-95.4701,16.8153,928.2662],[-95.4632,16.7697,1304.4635],[-95.3767,16.7494,789.3766],[-95.319,16.788,1385.5579],[-95.300299999999993,16.8894,508.2206],[-95.3034,16.8929,613.3703],[-95.304,16.8995,579.8331],[-95.3082,16.9025,621.2549],[-95.3094,16.9074,719.136],[-95.3144,16.9148,576.801],[-95.324,16.9131,787.7853],[-95.3286,16.9177,640.6524],[-95.3282,16.9261,609.297],[-95.33,16.9328,509.9057],[-95.3346,16.9327,419.3856],[-95.3397,16.9287,420.3919]]]]}
,"properties": {"GID_2": "MEX.20.36_2","GID_0": "MEX","country": "México","GID_1": "MEX.20_1","province": "Oaxaca","NL_NAME_1": "NA","county": "GueveadeHumboldt","VARNAME_2": "NA","NL_NAME_2": "NA","TYPE_2": "Município","ENGTYPE_2": "Municipality","CC_2": "NA","HASC_2": "NA","name": "Gueveade_Humboldt.county","area_km2": 281.9527,"hist_schema_id": "Elevation0-9000","hist_area_km2": {"375": 0.1218,"400": 0.4668,"425": 1.948,"450": 3.4291,"475": 4.6668,"500": 6.0668,"525": 6.4527,"550": 7.4269,"575": 7.3458,"600": 8.7662,"625": 8.4618,"650": 8.766,"675": 8.9081,"700": 8.279,"725": 9.1719,"750": 9.0502,"775": 8.056,"800": 9.1721,"825": 9.0909,"850": 9.0505,"875": 8.7869,"900": 9.2333,"925": 9.4158,"950": 9.7,"975": 9.2945,"1000": 9.0915,"1025": 8.5844,"1050": 9.315,"1075": 9.234,"1100": 8.3411,"1125": 8.8889,"1150": 7.4685,"1175": 6.9001,"1200": 6.5147,"1225": 5.9668,"1250": 4.2013,"1275": 3.9984,"1300": 3.0649,"1325": 2.6792,"1350": 2.0907,"1375": 1.7456,"1400": 1.157,"1425": 0.751,"1450": 0.548,"1475": 0.203,"1500": 0.0609,"1525": 0.0203}}}