{"type": "Feature","bbox": [-102.3103,21.9431,-102.1346,22.1003],"geometry": {"type": "MultiPolygon","coordinates": [[[[-102.1409,22.0753,2032.4553],[-102.1437,22.078,2052.5391],[-102.1473,22.0863,2049.3047],[-102.1566,22.0912,2060.7969],[-102.1564,22.0979,2064.7769],[-102.1629,22.1003,2060.146],[-102.1714,22.0838,2046.7098],[-102.1803,22.0843,2048.0029],[-102.1846,22.0652,2018.0129],[-102.191,22.0661,2013.8455],[-102.1933,22.0636,1995.3387],[-102.194,22.0574,2020.3833],[-102.2004,22.0549,1978.8945],[-102.2,22.0569,1983.4309],[-102.2034,22.0619,1989.3173],[-102.1983,22.064,1992.4601],[-102.1977,22.067,1994.9958],[-102.1996,22.0672,2005.5797],[-102.1993,22.0691,2008.7051],[-102.2025,22.0679,2009.2605],[-102.204,22.0719,2008.947],[-102.2115,22.0734,1997.4014],[-102.2158,22.0765,1988.8524],[-102.2209,22.0779,1980.4867],[-102.2227,22.0764,1977.9427],[-102.2257,22.078,1958.7878],[-102.2229,22.0816,1960.676],[-102.2262,22.0861,1953.2921],[-102.2605,22.0872,1905.7848],[-102.2608,22.0794,1899.1274],[-102.2685,22.0799,1890.8894],[-102.2731,22.0879,1887.1274],[-102.2793,22.0892,1881.2788],[-102.2832,22.0873,1882.9187],[-102.2852,22.0826,1885.4407],[-102.2918,22.0822,1895.0176],[-102.2919,22.0836,1895.0176],[-102.2963,22.0843,1899.2419],[-102.2965,22.0755,1903.3391],[-102.2875,22.0742,1890.8135],[-102.2861,22.063,1887.3938],[-102.2937,22.0529,1885.385],[-102.2969,22.0503,1879.8102],[-102.3001,22.0509,1886.5659],[-102.3103,22.0372,1883.8209],[-102.3065,22.0358,1879.1934],[-102.3096,22.0326,1876.3158],[-102.3095,22.0256,1870.5742],[-102.3064,22.0331,1872.9952],[-102.3029,22.033,1875.8604],[-102.3013,22.0311,1877.6011],[-102.2962,22.0331,1883.0979],[-102.2791,22.0332,1902.1152],[-102.2806,22.0212,1899.165],[-102.2656,22.0207,1893.7852],[-102.2663,22.0135,1880.7128],[-102.265,22.0097,1881.0322],[-102.2694,22.0076,1878.7539],[-102.2701,22.0042,1879.2803],[-102.2714,22.0069,1878.959],[-102.2729,22.0046,1879.3596],[-102.2823,22.0072,1885.2574],[-102.2816,22.0092,1888.3669],[-102.283,22.0097,1888.3669],[-102.2837,22.003,1879.9722],[-102.2779,21.9991,1877.1],[-102.2736,22.0003,1884.9366],[-102.2748,21.9952,1880.3973],[-102.2785,21.9911,1879.0322],[-102.2808,21.9852,1883.5507],[-102.274,21.9861,1888.2253],[-102.2692,21.9828,1897.8417],[-102.2704,21.9762,1902.2421],[-102.2836,21.9805,1869.2426],[-102.2831,21.9849,1880.248],[-102.2852,21.9832,1870.0013],[-102.2846,21.9815,1869.2426],[-102.2887,21.9802,1865.2698],[-102.2892,21.9758,1878.2513],[-102.2892,21.9741,1878.0953],[-102.2876,21.9741,1878.0953],[-102.2869,21.9769,1874.9614],[-102.2735,21.9726,1897.571],[-102.2788,21.9584,1906.3782],[-102.2723,21.9573,1926.7432],[-102.2741,21.9538,1918.0433],[-102.2664,21.9516,1960.0032],[-102.2667,21.9431,1940.1685],[-102.2495,21.952,1979.1105],[-102.2484,21.95,1991.1899],[-102.2345,21.9569,2018.8257],[-102.23,21.9614,2007.9636],[-102.2276,21.9748,1979.0662],[-102.2032,21.9716,1992.288],[-102.2078,21.9947,1931.3762],[-102.2123,21.9942,1925.1514],[-102.2147,21.9963,1927.4209],[-102.2262,21.997,1929.9236],[-102.2291,21.9992,1907.7551],[-102.2272,22.01,1907.5193],[-102.2234,22.0106,1913.5432],[-102.2228,22.0315,1967.8844],[-102.2093,22.0288,1927.5369],[-102.2079,22.0379,1937.167],[-102.2067,22.0362,1939.866],[-102.2051,22.0375,1941.4465],[-102.1797,22.0332,1975.4769],[-102.1767,22.0412,1978.7699],[-102.1662,22.0397,2007.2347],[-102.171,22.0257,1994.2523],[-102.1578,22.0264,1959.7102],[-102.1584,22.0166,1938.8322],[-102.1532,22.0225,1930.4537],[-102.1432,22.0274,1929.9847],[-102.1346,22.029,1935.7592],[-102.1446,22.0354,1944.0276],[-102.1385,22.0602,1991.3196],[-102.1409,22.0753,2032.4553]]]]}
,"properties": {"GID_2": "MEX.1.9_2","GID_0": "MEX","country": "México","GID_1": "MEX.1_1","province": "Aguascalientes","NL_NAME_1": "NA","county": "SanFranciscodelosRomo","VARNAME_2": "NA","NL_NAME_2": "NA","TYPE_2": "Município","ENGTYPE_2": "Municipality","CC_2": "NA","HASC_2": "NA","name": "San_Franciscodelos_Romo.county","area_km2": 139.3843,"hist_schema_id": "Elevation0-9000","hist_area_km2": {"1875": 13.7771,"1900": 31.7406,"1925": 18.5744,"1950": 20.4806,"1975": 21.4037,"2000": 17.7081,"2025": 9.6289,"2050": 5.953,"2075": 0.1179}}}