{"type": "Feature","bbox": [-98.6403,19.0934,-98.3307,19.2351],"geometry": {"type": "MultiPolygon","coordinates": [[[[-98.6362,19.1536,4599.7603],[-98.6159,19.1486,3861.282],[-98.6098,19.1438,3679.0129],[-98.6046,19.1432,3637.2349],[-98.6034,19.1403,3777.8955],[-98.5933,19.1447,3594.7349],[-98.5912,19.1433,3575.4929],[-98.588,19.1466,3335.8955],[-98.5847,19.1451,3349.3872],[-98.5799,19.1464,3222.0759],[-98.5743,19.1413,3097.415],[-98.57,19.1417,3076.0925],[-98.5683,19.1444,3100.6309],[-98.5618,19.1422,3056.5449],[-98.5516,19.1426,2992.6538],[-98.5289,19.1329,2811.1814],[-98.5204,19.1305,2751.1855],[-98.5155,19.1311,2703.9346],[-98.5069,19.1269,2636.5972],[-98.4938,19.1277,2561.8318],[-98.4853,19.1244,2523.5322],[-98.4597,19.1194,2411.5874],[-98.4558,19.121,2391.9634],[-98.4631,19.1244,2438.291],[-98.4631,19.1315,2453.2026],[-98.4609,19.1337,2420.8477],[-98.4674,19.1351,2441.6377],[-98.4753,19.14,2472.0779],[-98.4785,19.1425,2516.3022],[-98.4785,19.1457,2462.7146],[-98.4754,19.1467,2425.771],[-98.462,19.1446,2397.8948],[-98.4489,19.1494,2366.9441],[-98.4453,19.1445,2392.228],[-98.436,19.1481,2341.3218],[-98.427,19.148,2307.4368],[-98.4254,19.1462,2310.7773],[-98.4262,19.1435,2321.5593],[-98.4291,19.1426,2330.4944],[-98.4321,19.1383,2349.4553],[-98.4144,19.1361,2296.3816],[-98.4174,19.131,2301.9768],[-98.4134,19.1268,2274.9875],[-98.4139,19.1247,2272.4241],[-98.4119,19.125,2270.8982],[-98.4111,19.1234,2268.3259],[-98.4121,19.1145,2268.3833],[-98.3965,19.0934,2254.4172],[-98.3927,19.1012,2255.3442],[-98.3818,19.116,2242.4338],[-98.3854,19.1178,2235.7185],[-98.3674,19.1252,2215.3789],[-98.3768,19.1356,2222.6021],[-98.3748,19.1403,2225.355],[-98.3764,19.1411,2231.021],[-98.3712,19.1496,2230.2058],[-98.3677,19.1485,2224.5303],[-98.3581,19.1681,2234.0457],[-98.3595,19.1678,2236.302],[-98.355,19.1791,2207.1924],[-98.3454,19.192,2198.7612],[-98.3398,19.1861,2196.7429],[-98.3379,19.1921,2194.3979],[-98.3349,19.1938,2193.1921],[-98.3307,19.2002,2194.7424],[-98.3349,19.2045,2197.2329],[-98.3368,19.2036,2195.4678],[-98.3442,19.2053,2198.7344],[-98.3519,19.219,2201.3425],[-98.3544,19.2209,2202.1611],[-98.3697,19.2259,2210.4417],[-98.3735,19.229,2214.8872],[-98.3885,19.2156,2228.4761],[-98.4052,19.2042,2242.2153],[-98.4062,19.2301,2237.2988],[-98.4119,19.2316,2244.5269],[-98.4159,19.2308,2252.6772],[-98.4166,19.2271,2253.9529],[-98.4235,19.2297,2267.0908],[-98.4248,19.2351,2264.5168],[-98.4302,19.2348,2272.5132],[-98.4326,19.2332,2281.3511],[-98.4422,19.2336,2295.1326],[-98.4389,19.2166,2295.8474],[-98.4411,19.1997,2296.7446],[-98.451,19.1956,2339.6523],[-98.4542,19.1923,2355.6353],[-98.4625,19.1913,2369.3477],[-98.4728,19.1809,2413.2144],[-98.4917,19.1687,2523.6697],[-98.5057,19.1683,2545.95],[-98.5128,19.1644,2574.5039],[-98.5278,19.1631,2658.5991],[-98.5315,19.1643,2720.0442],[-98.5456,19.1627,2871.2551],[-98.5499,19.1607,3036.3154],[-98.5463,19.1656,2979.1704],[-98.5553,19.1657,3037.1836],[-98.5605,19.1615,3150.6658],[-98.5688,19.1619,3211.6982],[-98.5708,19.1587,3230.7581],[-98.5733,19.1619,3325.7219],[-98.5789,19.1608,3347.353],[-98.5843,19.1631,3421.4875],[-98.5887,19.1676,3521.1064],[-98.5876,19.1717,3597.4941],[-98.595,19.1718,3622.8008],[-98.598,19.1679,3741.9248],[-98.6029,19.1674,3779.0671],[-98.6264,19.1702,4527.9453],[-98.6403,19.1672,5050.5684],[-98.6362,19.1536,4599.7603]]]]}
,"properties": {"GID_2": "MEX.21.77_2","GID_0": "MEX","country": "México","GID_1": "MEX.21_1","province": "Puebla","NL_NAME_1": "NA","county": "Huejotzingo","VARNAME_2": "NA","NL_NAME_2": "NA","TYPE_2": "Município","ENGTYPE_2": "Municipality","CC_2": "NA","HASC_2": "NA","name": "Huejotzingo.county","area_km2": 173.3526,"hist_schema_id": "Elevation0-9000","hist_area_km2": {"2200": 13.215,"2225": 19.7849,"2250": 31.3618,"2275": 21.8089,"2300": 10.854,"2325": 4.8665,"2350": 3.4245,"2375": 3.2243,"2400": 2.7838,"2425": 2.5035,"2450": 2.9442,"2475": 3.5452,"2500": 3.6653,"2525": 3.1646,"2550": 2.6438,"2575": 2.6238,"2600": 2.2232,"2625": 1.9428,"2650": 1.7626,"2675": 1.6023,"2700": 1.2218,"2725": 1.4221,"2750": 1.342,"2775": 0.9814,"2800": 1.1817,"2825": 0.9614,"2850": 0.9013,"2875": 1.0816,"2900": 0.8412,"2925": 0.8813,"2950": 0.7411,"2975": 0.6409,"3000": 0.6409,"3025": 0.7611,"3050": 0.701,"3075": 0.6209,"3100": 0.5408,"3125": 0.4807,"3150": 0.3405,"3175": 0.3605,"3200": 0.4607,"3225": 0.4607,"3250": 0.4006,"3275": 0.3605,"3300": 0.3004,"3325": 0.3805,"3350": 0.3405,"3375": 0.3004,"3400": 0.2604,"3425": 0.2604,"3450": 0.3004,"3475": 0.3004,"3500": 0.2804,"3525": 0.4807,"3550": 0.3605,"3575": 0.3204,"3600": 0.5808,"3625": 0.5207,"3650": 0.5207,"3675": 0.681,"3700": 0.4607,"3725": 0.4206,"3750": 0.3004,"3775": 0.2403,"3800": 0.3805,"3825": 0.3204,"3850": 0.3004,"3875": 0.2804,"3900": 0.2804,"3925": 0.1602,"3950": 0.1602,"3975": 0.2403,"4000": 0.1803,"4025": 0.1001,"4050": 0.1001,"4075": 0.1202,"4100": 0.1402,"4125": 0.1802,"4150": 0.1803,"4175": 0.2003,"4200": 0.0601,"4225": 0.2403,"4250": 0.2003,"4275": 0.1602,"4300": 0.2203,"4325": 0.1802,"4350": 0.0401,"4375": 0.1602,"4400": 0.2203,"4425": 0.1402,"4450": 0.2403,"4475": 0.1001,"4500": 0.1602,"4525": 0.2203,"4550": 0.1602,"4575": 0.1001,"4600": 0.2203,"4625": 0.1202,"4650": 0.0401,"4675": 0.1802,"4700": 0.1202,"4725": 0.0601,"4750": 0.0601,"4775": 0.02,"4800": 0.0601,"4825": 0.1001,"4850": 0.0801,"4875": 0.0601,"4925": 0.1202,"4950": 0.0401,"4975": 0.1001,"5000": 0.02,"5025": 0.0601,"5050": 0.0601,"5075": 0.02}}}