{"type":"Feature","properties":{"featurecla":"River","scalerank":8,"rivernum":687,"dissolve":"687River","name":"Coatzacoalcos1","name_alt":null,"note":null,"min_zoom":7.0,"strokeweig":0.15,"name_en":"Coatzacoalcos","min_label":8.0},
"geometry":{"type": "LineString","coordinates": [[-94.928076171874991,17.182733465619123,67.8446],[-94.90390625,17.220575262494123,79.9001],[-94.893115234374989,17.242303778119123,68.9807],[-94.889990234374991,17.26227448124412,68.8768],[-94.897314453124991,17.301532293744117,73.73],[-94.896240234375,17.30609772343162,75.8032],[-94.912158203124989,17.312860418744123,44.5419],[-94.93212890625,17.31268952030662,130.5074],[-94.9521484375,17.31476471561912,61.1795],[-94.968017578125,17.32819244999412,25.2016],[-94.972338867187489,17.342547918744117,25.8446],[-94.967333984374989,17.34979889530662,25.476],[-94.959326171874991,17.35614655155662,22.7933],[-94.954833984375,17.367792059369123,45.108],[-94.957568359374989,17.379754949994123,17.5],[-94.971606445312489,17.39154694218162,35.8317],[-94.975195312499991,17.401629949994117,17.7859],[-94.97265625,17.416522528119117,20.5973],[-94.965185546874991,17.419696356244117,21.0436],[-94.929052734374991,17.41058991093162,19.2544],[-94.921435546874989,17.41046784061912,22.3543],[-94.9140625,17.41376373905662,16.715699999999998],[-94.900073242187489,17.42621491093162,18.7049],[-94.893310546875,17.43109772343162,18.2889],[-94.857104492187489,17.439715887494117,13.0471],[-94.849707031249991,17.44245026249412,16.1424],[-94.840136718749989,17.455096746869117,11.5],[-94.839892578124989,17.46588776249412,22.3056],[-94.84375,17.477313543744117,14.3913],[-94.846289062499991,17.49176666874412,19.463],[-94.836669921875,17.50665924686912,15.4916],[-94.814257812499989,17.50824616093162,12.656],[-94.772265624999989,17.50055573124412,14.9964],[-94.760913085937489,17.50092194218162,21.5382],[-94.748583984374989,17.502801824994123,30.2861],[-94.736572265625,17.50702545780662,12.2059],[-94.726367187499989,17.514276434369123,11.4537]]}}