{"type": "Feature","bbox": [-96.8486,16.7795,-96.7513,16.8505],"geometry": {"type": "MultiPolygon","coordinates": [[[[-96.8479,16.7972,2014.3157],[-96.8474,16.7903,2045.0477],[-96.8306,16.7795,1537.5198],[-96.8175,16.7836,1494.9485],[-96.8285,16.7917,1585.4271],[-96.8379,16.8014,1858.209],[-96.8231,16.8096,1574.035],[-96.8037,16.8007,1509.7823],[-96.8033,16.8027,1502.4003],[-96.7999,16.8018,1495.2465],[-96.7945,16.795,1480.1843],[-96.7763,16.7993,1464.9778],[-96.7644,16.7957,1465.0197],[-96.7659,16.8124,1468.9409],[-96.7609,16.8121,1468.9949],[-96.7599,16.8152,1469.2598],[-96.7513,16.8115,1468.5524],[-96.7553,16.8279,1472.4109],[-96.7818,16.835,1484.7748],[-96.7879,16.8394,1499.2137],[-96.7883,16.8379,1499.0581],[-96.7947,16.8394,1515.3618],[-96.7867,16.843,1496.2009],[-96.7992,16.8443,1527.5259],[-96.7981,16.848,1531.2783],[-96.8133,16.8505,1650.5349],[-96.8149,16.8305,1822.7789],[-96.8279,16.8349,2019.3654],[-96.8484,16.8468,2113.9854],[-96.8486,16.8187,1823.5865],[-96.8471,16.8156,1819.7852],[-96.8485,16.8099,1899.9824],[-96.8456,16.8014,2020.8386],[-96.8482,16.799,2039.0194],[-96.8479,16.7972,2014.3157]]]]}
,"properties": {"GID_2": "MEX.20.297_2","GID_0": "MEX","country": "México","GID_1": "MEX.20_1","province": "Oaxaca","NL_NAME_1": "NA","county": "SanPabloHuixtepec","VARNAME_2": "NA","NL_NAME_2": "NA","TYPE_2": "Município","ENGTYPE_2": "Municipality","CC_2": "NA","HASC_2": "NA","name": "San_Pablo_Huixtepec.county","area_km2": 43.65533,"hist_schema_id": "Elevation0-9000","hist_area_km2": {"1475": 11.99476,"1500": 4.66796,"1525": 4.05911,"1550": 2.94283,"1575": 2.31365,"1600": 1.94834,"1625": 1.54244,"1650": 1.38004,"1675": 1.2583,"1700": 1.42067,"1725": 1.21771,"1750": 1.29889,"1775": 1.2989,"1800": 1.05535,"1825": 0.87268,"1850": 0.8524,"1875": 0.62915,"1900": 0.60883,"1925": 0.44649,"1950": 0.50738,"1975": 0.42618,"2000": 0.3856,"2025": 0.28412,"2050": 0.06089,"2075": 0.16237,"2100": 0.0203}}}