{"type":"Feature","properties":{"GID_2":"MEX.20.278_2","GID_0":"MEX","country":"México","GID_1":"MEX.20_1","province":"Oaxaca","NL_NAME_1":"NA","county":"SanMiguelPiedras","VARNAME_2":"NA","NL_NAME_2":"NA","TYPE_2":"Município","ENGTYPE_2":"Municipality","CC_2":"NA","HASC_2":"NA","name":"San_Miguel_Piedras.county"},
"geometry":{"type": "MultiPolygon","coordinates": [[[[-97.1702,16.9796,2308.9763],[-97.1654,16.9972,2121.3728],[-97.175,17.0086,2012.639],[-97.1889,17.0156,1614.3079],[-97.1893,17.0196,1554.6545],[-97.1951,17.0288,1769.5419],[-97.1983,17.039,1875.9863],[-97.2082,17.0246,2200.6921],[-97.2074,17.0052,2042.9945],[-97.2326,17.0357,1719.5106],[-97.2359,17.0317,1749.6875],[-97.2324,17.0223,1756.6033],[-97.2338,17.0178,1795.1439],[-97.2282,17.0149,1737.2325],[-97.2269,17.0056,1719.0741],[-97.2337,17.0061,1871.3154],[-97.2386,17.0041,1925.5551],[-97.255,17.0019,1851.9143],[-97.2606,17.0061,1774.5291],[-97.2674,17.0051,1745.0284],[-97.2734,17.0134,1567.0319],[-97.279,17.0131,1484.0164],[-97.2788,17.0119,1492.8018],[-97.2823,17.0106,1496.6949],[-97.2824,17.0,1600.5917],[-97.2752,16.9883,1766.2366],[-97.2714,16.9856,1756.3494],[-97.2702,16.9857,1775.3868],[-97.2681,16.9961,2125.1143],[-97.2665,16.9979,2089.5483],[-97.2638,16.9978,2131.5381],[-97.2584,16.9928,1921.3322],[-97.2522,16.9898,1701.0098],[-97.2386,16.9907,2044.0427],[-97.2356,16.9885,2012.1774],[-97.2339,16.9854,1999.5488],[-97.2341,16.962,1888.8584],[-97.2371,16.9546,1772.796],[-97.2483,16.9426,1432.8962],[-97.2409,16.937,1374.1133],[-97.2396,16.931,1382.3564],[-97.2409,16.9304,1354.3613],[-97.2125,16.9181,1917.6396],[-97.2088,16.9187,1966.2429],[-97.1956,16.9603,1682.499],[-97.1966,16.9767,1728.7455],[-97.1702,16.9796,2308.9763]]]]}}