{"type":"Feature","properties":{"GID_2":"MEX.13.22_2","GID_0":"MEX","country":"México","GID_1":"MEX.13_1","province":"Hidalgo","NL_NAME_1":"NA","county":"Epazoyucan","VARNAME_2":"NA","NL_NAME_2":"NA","TYPE_2":"Município","ENGTYPE_2":"Municipality","CC_2":"NA","HASC_2":"NA","name":"Epazoyucan.county"},
"geometry":{"type": "MultiPolygon","coordinates": [[[[-98.587,19.9922,2579.1733],[-98.5826,19.9995,2585.9739],[-98.589,20.0028,2615.7981],[-98.5932,20.0071,2678.9365],[-98.5988,20.0,2620.0044],[-98.6006,20.0015,2625.7271],[-98.6002,20.0056,2644.5559],[-98.6152,20.0176,2661.1216],[-98.6206,20.0186,2644.3901],[-98.6052,20.036,2518.7996],[-98.6003,20.0371,2521.2832],[-98.6003,20.0412,2543.79],[-98.5916,20.055,2694.6934],[-98.5759,20.0708,2881.687],[-98.5776,20.0724,2854.6011],[-98.5806,20.0701,2834.5061],[-98.5868,20.0774,2869.2378],[-98.5928,20.0717,2676.5635],[-98.5976,20.0718,2647.5476],[-98.5986,20.0701,2752.4387],[-98.6007,20.0721,2606.6372],[-98.599,20.0731,2598.5781],[-98.6005,20.0737,2606.6372],[-98.596,20.0805,2690.426],[-98.6033,20.0866,2681.6865],[-98.5945,20.0942,2728.1819],[-98.5939,20.0995,2755.4763],[-98.5894,20.0994,2777.9094],[-98.5939,20.1034,2738.2019],[-98.5839,20.122,2689.0713],[-98.603,20.117,2709.6042],[-98.6055,20.1175,2689.5122],[-98.6081,20.1146,2722.2559],[-98.6072,20.1122,2691.6411],[-98.615,20.1077,2812.2119],[-98.6158,20.096,2664.2087],[-98.6182,20.0925,2625.856],[-98.617,20.0904,2545.8682],[-98.6193,20.0883,2522.2554],[-98.6215,20.0883,2505.165],[-98.6225,20.0921,2566.8501],[-98.6254,20.0938,2628.2847],[-98.6295,20.093,2633.1233],[-98.6386,20.0977,2655.8379],[-98.6539,20.1,2823.8135],[-98.6616,20.1055,2932.3562],[-98.6631,20.1096,2921.3398],[-98.6629,20.104,2966.7239],[-98.6657,20.1003,2922.1318],[-98.6618,20.0867,2653.0474],[-98.6651,20.0805,2533.2021],[-98.6622,20.0683,2406.5305],[-98.664,20.0671,2413.1606],[-98.6641,20.0639,2399.8564],[-98.6754,20.061,2395.8809],[-98.6842,20.062,2386.1504],[-98.69,20.0549,2385.8071],[-98.6943,20.0539,2377.2004],[-98.6935,20.0509,2385.4561],[-98.6989,20.045,2372.6118],[-98.6983,20.0396,2375.5825],[-98.6897,20.0402,2392.8174],[-98.6899,20.042,2390.0864],[-98.6868,20.0342,2412.0244],[-98.6817,20.0267,2423.5359],[-98.6764,20.0262,2444.4255],[-98.6882,20.0208,2428.7581],[-98.7156,20.021,2350.3601],[-98.7163,20.017,2342.9456],[-98.7149,20.0161,2346.2852],[-98.7188,20.0144,2341.9736],[-98.7206,20.0177,2342.6907],[-98.7247,20.0181,2342.9795],[-98.7267,20.0106,2340.5278],[-98.7198,20.0092,2341.0508],[-98.7202,20.0074,2341.179],[-98.7228,20.0079,2340.8252],[-98.7219,20.0027,2340.7512],[-98.7281,20.0047,2339.1482],[-98.7154,19.9923,2345.5708],[-98.7187,19.9929,2344.6155],[-98.7194,19.9866,2346.1882],[-98.7082,19.9842,2351.9302],[-98.7015,19.9784,2356.8643],[-98.7045,19.9869,2359.415],[-98.7018,19.99,2373.0698],[-98.6989,19.9892,2396.1509],[-98.6953,19.9916,2450.6719],[-98.6864,19.9876,2447.5906],[-98.6829,19.9903,2453.8994],[-98.6835,19.9931,2477.6765],[-98.6821,19.9943,2477.6077],[-98.679,19.9897,2430.0977],[-98.6752,19.9882,2389.0806],[-98.6749,19.9844,2378.3806],[-98.6708,19.9871,2379.5923],[-98.6629,19.9817,2400.5269],[-98.6579,19.9737,2435.0034],[-98.6563,19.9666,2444.6819],[-98.6579,19.9611,2436.0874],[-98.654,19.9605,2448.2959],[-98.6574,19.9545,2473.1611],[-98.6522,19.9539,2461.9341],[-98.6486,19.9597,2477.2263],[-98.6417,19.9537,2476.4011],[-98.6372,19.9573,2500.4192],[-98.6355,19.956,2501.7573],[-98.6295,19.9599,2513.439],[-98.6319,19.9652,2510.5457],[-98.6089,19.9716,2545.4602],[-98.6035,19.9765,2567.3679],[-98.5971,19.9869,2574.8601],[-98.5923,19.9834,2574.5063],[-98.587,19.9922,2579.1733]]]]}}