{"type":"Feature","properties":{"GID_2":"MEX.30.182_2","GID_0":"MEX","country":"México","GID_1":"MEX.30_1","province":"Veracruz","NL_NAME_1":"NA","county":"Tlacolulan","VARNAME_2":"NA","NL_NAME_2":"NA","TYPE_2":"Município","ENGTYPE_2":"Municipality","CC_2":"NA","HASC_2":"NA","name":"Tlacolulan.county"},
"geometry":{"type": "MultiPolygon","coordinates": [[[[-97.0025,19.617,1983.1743],[-96.9962,19.6204,1928.8335],[-96.9875,19.6207,1814.4937],[-96.987799999999993,19.6233,1809.1681],[-96.9848,19.6298,1798.9288],[-96.98,19.6299,1737.5271],[-96.9758,19.6269,1692.5183],[-96.979,19.635,1728.1204],[-96.9739,19.6365,1550.9805],[-96.9666,19.6485,1739.8883],[-96.9729,19.6648,1797.1641],[-96.9722,19.6728,1934.1989],[-96.9743,19.6809,2045.2847],[-96.9765,19.683,2092.6968],[-96.9703,19.6836,1980.0729],[-96.9663,19.6822,1811.3225],[-96.9709,19.6853,1952.605],[-96.9698,19.6866,1951.8236],[-96.9725,19.6892,1960.2128],[-96.9721,19.6921,2065.2959],[-96.9742,19.6944,2082.8188],[-96.9755,19.7007,2213.4204],[-96.9774,19.7013,2181.6978],[-96.9759,19.7051,2276.616],[-96.9811,19.716,2356.0181],[-96.9853,19.7183,2487.0364],[-96.9901,19.7153,2326.1636],[-96.9931,19.717,2395.6089],[-96.9903,19.7192,2388.0989],[-96.9898,19.7255,2601.3606],[-96.9857,19.7274,2589.8657],[-96.9807,19.7265,2558.2837],[-96.9751,19.7188,2497.4307],[-96.9737,19.7197,2461.0061],[-96.9741,19.7217,2466.0149],[-96.9703,19.7214,2434.054],[-96.969,19.719,2393.3569],[-96.962,19.7208,2125.021],[-96.9596,19.7224,2024.0575],[-96.963,19.7249,2082.8015],[-96.9616,19.7275,2080.23],[-96.9668,19.7312,2134.9084],[-96.9673,19.7332,2171.5071],[-96.9656,19.7361,2218.3325],[-96.9646,19.7461,2574.1663],[-96.9619,19.7476,2617.2039],[-96.9594,19.7457,2500.5183],[-96.9511,19.7453,2495.6445],[-96.9489,19.7435,2421.6787],[-96.9323,19.7552,1830.2666],[-96.9338,19.7579,2161.1191],[-96.9362,19.757,2129.6333],[-96.9441,19.7618,1844.7419],[-96.9469,19.7684,1417.2535],[-96.9494,19.7647,1528.5472],[-96.9565,19.7634,1785.1063],[-96.9632,19.77,2042.3124],[-96.9722,19.7693,1866.6805],[-96.9722,19.773,1873.2648],[-96.9671,19.7771,1555.8689],[-96.9699,19.781,1427.556],[-96.9686,19.7839,1401.8861],[-96.9743,19.7848,1541.5388],[-96.9845,19.7828,1833.8361],[-96.9883,19.7789,2124.9353],[-96.9895,19.7831,2149.5012],[-96.9941,19.785,1874.3367],[-96.9969,19.7792,2361.6133],[-96.9959,19.7767,2505.8892],[-97.004,19.7755,2459.6343],[-97.0057,19.7786,2344.6934],[-97.0111,19.7791,2117.7319],[-97.0198,19.7881,1492.5808],[-97.0227,19.7825,1865.9968],[-97.0259,19.78,2112.8579],[-97.0233,19.7751,2065.6035],[-97.0244,19.7723,2000.3687],[-97.0299,19.7663,1700.0699],[-97.0268,19.7648,1840.0627],[-97.0261,19.762,1763.2858],[-97.0223,19.7585,1532.9675],[-97.0286,19.7547,1482.1554],[-97.0308,19.7565,1479.1538],[-97.0317,19.7543,1441.553],[-97.0296,19.7474,1523.9307],[-97.0331,19.7431,1679.3879],[-97.0335,19.7402,1854.9033],[-97.0318,19.7378,2003.4889],[-97.0347,19.7327,2286.5962],[-97.0293,19.7266,2332.6494],[-97.0302,19.7205,2348.7725],[-97.0367,19.7153,2174.9583],[-97.0442,19.706,1832.5028],[-97.0538,19.7028,1710.0944],[-97.0565,19.6993,1610.1083],[-97.0605,19.6985,1579.9767],[-97.0635,19.6938,1522.9419],[-97.0659,19.6938,1582.5472],[-97.0685,19.6857,1579.7565],[-97.065,19.6821,1606.2754],[-97.0651,19.6795,1709.8146],[-97.0569,19.6705,2018.5994],[-97.055,19.6696,2173.874],[-97.0544,19.6719,2189.6492],[-97.05,19.6693,2093.8147],[-97.0639,19.6613,2115.4172],[-97.0641,19.6563,2217.2407],[-97.0481,19.6584,2203.8184],[-97.0452,19.6622,2051.8594],[-97.0423,19.6575,2121.4338],[-97.0365,19.6556,2159.0708],[-97.0326,19.6571,2078.3481],[-97.0277,19.654,1979.0476],[-97.0222,19.6565,1939.6671],[-97.0215,19.6538,1949.9744],[-97.0228,19.6513,1994.0947],[-97.0291,19.6491,2151.8564],[-97.0295,19.6476,2154.1147],[-97.0258,19.6396,2094.1978],[-97.0235,19.6393,2065.8899],[-97.0228,19.6375,2073.5417],[-97.0262,19.6362,2083.167],[-97.0308,19.6369,2148.293],[-97.0339,19.6419,2163.0012],[-97.0363,19.6401,2175.6343],[-97.0336,19.6353,2149.5469],[-97.0384,19.6365,2224.646],[-97.0432,19.6345,2195.5508],[-97.0333,19.6321,2127.9722],[-97.0378,19.6159,2205.0527],[-97.022,19.6199,2156.3608],[-97.0204,19.6217,2135.2253],[-97.0025,19.617,1983.1743]]]]}}