{"type":"Feature","properties":{"GID_2":"MEX.5.65_2","GID_0":"MEX","country":"México","GID_1":"MEX.5_1","province":"Chiapas","NL_NAME_1":"NA","county":"Motozintla","VARNAME_2":"NA","NL_NAME_2":"NA","TYPE_2":"Município","ENGTYPE_2":"Municipality","CC_2":"NA","HASC_2":"NA","name":"Motozintla.county"},
"geometry":{"type": "MultiPolygon","coordinates": [[[[-92.2104,15.2612,2774.7725],[-92.2173,15.2623,2707.3835],[-92.2288,15.2752,2566.49],[-92.2307,15.2919,2314.8484],[-92.2335,15.2949,2464.3765],[-92.2358,15.3056,2460.448],[-92.2338,15.3143,2312.0364],[-92.2232,15.3144,2024.2002],[-92.2226,15.2934,2146.95],[-92.2214,15.2934,2146.95],[-92.2134,15.2985,2104.6768],[-92.2147,15.3137,1771.0093],[-92.2059,15.3128,1565.4874],[-92.2054,15.3152,1511.7476],[-92.2018,15.3156,1446.7668],[-92.1998,15.3188,1467.5947],[-92.191,15.3225,1388.1855],[-92.1906,15.3254,1382.304],[-92.188,15.3256,1380.5864],[-92.1854,15.3293,1400.4038],[-92.1914,15.3428,1257.8511],[-92.2129,15.3497,2064.1431],[-92.2164,15.3694,1486.0077],[-92.2132,15.3689,1626.7273],[-92.2127,15.3735,1562.2025],[-92.2197,15.3759,1404.017],[-92.2224,15.3809,1182.5856],[-92.2202,15.3851,1158.3195],[-92.2213,15.3917,1489.8276],[-92.2185,15.3952,1661.1714],[-92.2156,15.395,1648.5557],[-92.2161,15.3991,1500.2559],[-92.2145,15.4025,1309.4301],[-92.226,15.3971,1392.6517],[-92.233,15.3981,1412.647],[-92.2357,15.3901,1707.4514],[-92.2381,15.3896,1751.2076],[-92.2486,15.3926,1830.8066],[-92.2863,15.41,2224.9895],[-92.3059,15.4094,2104.3152],[-92.3099,15.4118,2054.1089],[-92.3138,15.4117,2154.6545],[-92.32,15.4168,2204.4951],[-92.324,15.4171,2250.9707],[-92.3413,15.4264,3047.3494],[-92.3438,15.4263,3041.9036],[-92.3873,15.4462,2005.7637],[-92.4029,15.4386,2340.2092],[-92.4254,15.4394,2471.7825],[-92.4338,15.4081,2046.7036],[-92.4338,15.3869,1383.0854],[-92.4378,15.3869,1399.3665],[-92.4365,15.3838,1479.6442],[-92.4391,15.3836,1592.97],[-92.4438,15.3786,1557.9487],[-92.4445,15.3704,1271.6674],[-92.4431,15.3677,1235.5576],[-92.4443,15.3658,1287.7064],[-92.4374,15.3639,1102.8765],[-92.4367,15.362,1063.0579],[-92.444,15.3601,1160.7964],[-92.4451,15.3618,1181.4998],[-92.4547,15.3613,1315.1658],[-92.4547,15.3568,1288.5466],[-92.4589,15.3545,1266.3624],[-92.4605,15.3498,1279.4709],[-92.4635,15.3479,1324.7963],[-92.4633,15.3444,1299.6602],[-92.465,15.3431,1240.0483],[-92.4629,15.3406,1200.093],[-92.465,15.337,1099.2518],[-92.4711,15.337,888.4244],[-92.4714,15.3444,1154.9536],[-92.4755,15.3441,987.4072],[-92.4783,15.3395,765.8909],[-92.4817,15.3392,689.3871],[-92.4811,15.3317,672.7218],[-92.4594,15.3287,928.0547],[-92.4624,15.3015,951.3903],[-92.4551,15.2985,736.7908],[-92.4557,15.29,630.1084],[-92.4524,15.2928,659.4504],[-92.4491,15.2871,790.7181],[-92.4306,15.2863,999.5443],[-92.425299999999993,15.275,1189.0674],[-92.4431,15.2671,1356.8232],[-92.4504,15.2596,1365.3823],[-92.4376,15.2492,930.218],[-92.4406,15.248,927.695],[-92.4417,15.2498,1017.5447],[-92.4551,15.2446,1508.3301],[-92.4566,15.2408,1567.1978],[-92.4683,15.229,1306.1548],[-92.4258,15.2259,573.1459],[-92.424,15.2263,495.4669],[-92.4213,15.2337,593.4573],[-92.4155,15.2311,467.8648],[-92.4196,15.2248,431.2086],[-92.4116,15.224,353.8589],[-92.4083,15.2268,359.1164],[-92.4079,15.2289,492.0755],[-92.4113,15.2313,388.4799],[-92.4081,15.2349,411.9718],[-92.3936,15.2206,705.8265],[-92.3887,15.2195,794.8817],[-92.3854,15.2207,816.8858],[-92.3844,15.2191,793.2145],[-92.3827,15.2204,806.7868],[-92.3813,15.2161,813.9488],[-92.3796,15.2178,837.2648],[-92.3798,15.2158,813.9488],[-92.3703,15.2039,1088.835],[-92.3703,15.1923,763.6821],[-92.3661,15.1956,854.6162],[-92.3665,15.1994,940.6503],[-92.3608,15.2011,1103.5668],[-92.3614,15.2075,1083.5032],[-92.3549,15.2074,1131.4617],[-92.3518,15.2102,1185.9373],[-92.3454,15.2053,1341.5874],[-92.3335,15.2017,1428.0913],[-92.3349,15.2042,1454.3043],[-92.3335,15.2054,1468.9974],[-92.3339,15.2099,1556.3416],[-92.332,15.2142,1581.6987],[-92.3293,15.2146,1647.5009],[-92.327,15.2355,1714.4425],[-92.3058,15.2288,2390.8711],[-92.3049,15.2337,2305.6016],[-92.2762,15.2189,2225.5754],[-92.2672,15.1948,1845.9875],[-92.2928,15.1976,1678.8458],[-92.2941,15.1841,1313.5261],[-92.2896,15.1847,1532.2186],[-92.2865,15.1638,1013.1612],[-92.284,15.1641,1016.0192],[-92.2822,15.1711,1095.7454],[-92.2768,15.1771,1250.9636],[-92.2712,15.1738,1322.1958],[-92.2678,15.1838,1490.8696],[-92.2594,15.1826,1457.1912],[-92.2523,15.1878,1596.0728],[-92.2434,15.1891,1904.6732],[-92.2344,15.1989,2552.5981],[-92.2503,15.2058,2255.4814],[-92.2466,15.2123,2450.3875],[-92.2227,15.2039,2324.5779],[-92.2155,15.2096,2221.3379],[-92.2051,15.2123,1955.2886],[-92.2023,15.2206,1854.2053],[-92.1944,15.224,1946.9363],[-92.1932,15.2278,1985.6021],[-92.1911,15.2263,2027.2438],[-92.184,15.2276,2211.9512],[-92.2104,15.2612,2774.7725]]]]}}