{"type":"Feature","properties":{"featurecla":"River","scalerank":11,"rivernum":22241,"dissolve":"22241River","name":"Candelaria4","name_alt":null,"note":"ID is link back to CEC data","name_full":"Candelaria","min_zoom":6.7,"strokeweig":0.2,"uident":2035501,"min_label":7.7},
"geometry":{"type": "LineString","coordinates": [[-90.802316861062067,18.126491603639863,33.9106],[-90.804554816791224,18.123155015098206,41.9875],[-90.805165168353724,18.118353582806535,42.3994],[-90.805653449603724,18.116522528119035,41.3305],[-90.8058162100204,18.114325262494035,40.7844],[-90.804432746478724,18.111761785931535,36.8446],[-90.807484504291224,18.105007228639863,35.12],[-90.8087458975204,18.102972723431535,35.161],[-90.811105923562067,18.094549871869035,35.4575],[-90.812611457416224,18.093125718223206,35.1445],[-90.813099738666224,18.091823634889863,35.0647],[-90.8138728506454,18.090440171348206,34.9888],[-90.8155818350204,18.080755926556535,35.1583],[-90.817128058978724,18.073024806764863,35.4362],[-90.822499152728724,18.066677150514863,53.8938],[-90.8243708975204,18.065781968223206,47.7468],[-90.826486782937067,18.064398504681535,40.3931],[-90.826649543353724,18.061957098431535,42.5351],[-90.8263240225204,18.059678452598206,41.593],[-90.826975064187067,18.054877020306535,43.2499],[-90.828195767312067,18.052028713014863,40.4089]]}}