{"type":"Feature","properties":{"featurecla":"River","scalerank":12,"rivernum":22231,"dissolve":"22231River","name":"Candelaria2","name_alt":null,"note":"ID is link back to CEC data","name_full":"Candelaria","min_zoom":7.0,"strokeweig":0.2,"uident":2036701,"min_label":8.0},
"geometry":{"type": "LineString","coordinates": [[-90.828195767312067,18.052028713014863,40.4089],[-90.837880012103724,18.051296291139863,42.3809],[-90.858387824603724,18.046820379681535,36.0411],[-90.867746548562067,18.042832749473206,43.7355],[-90.888742642312067,18.019558009889863,39.7327],[-90.890370246478724,18.006659246869035,40.1455],[-90.875233527728724,17.985907293744035,37.7845],[-90.869007941791224,17.940619207806535,35.2492],[-90.853342251687067,17.910996811973206,35.2214],[-90.845529751687067,17.901312567181535,44.1654],[-90.833322720437067,17.898708400514863,35.2382],[-90.805531379291224,17.902451890098206,38.2289],[-90.786488410541224,17.908799546348206,39.3316]]}}