{"type":"Feature","properties":{"featurecla":"River","scalerank":11,"rivernum":22233,"dissolve":"22233River","name":"Candelaria3","name_alt":null,"note":"ID is link back to CEC data","name_full":"Candelaria","min_zoom":6.7,"strokeweig":0.2,"uident":2036301,"min_label":7.7},
"geometry":{"type": "LineString","coordinates": [[-90.828195767312067,18.052028713014863,40.4089],[-90.824818488666224,18.048203843223206,37.3869],[-90.815012173562067,18.046494858848206,34.824],[-90.7977595693954,18.047878322389863,44.4184],[-90.780100064187067,18.046250718223206,53.0583],[-90.767893032937067,18.041774806764863,41.2176],[-90.741810676166224,18.042832749473206,42.4134],[-90.7267146475204,18.039658921348206,51.2376],[-90.692372199603724,18.025742905723206,45.3729],[-90.678822394916224,18.017401434369035,47.6213],[-90.6676326162704,18.004706121869035,65.9388],[-90.660959439187067,17.991563218223206,53.9206],[-90.649973111062067,17.982448634889863,49.7216],[-90.631662564187067,17.979315496869035,56.7518],[-90.6019587881454,17.983669338014863,57.8945],[-90.569894986062067,17.974391994264863,62.5934],[-90.5597224600204,17.967637436973206,65.7311],[-90.518381314187067,17.924872137494035,76.5635]]}}