{"type": "Feature","bbox": [-97.0311,19.1947,-96.597,19.3727],"geometry": {"type": "MultiPolygon","coordinates": [[[[-97.0296,19.218,1247.6201],[-97.0311,19.2114,1529.1119],[-97.03,19.2087,1667.2231],[-97.0261,19.2073,1654.6544],[-97.0259,19.2039,1662.1431],[-97.02,19.2091,1629.5077],[-97.0173,19.2055,1600.0696],[-97.0122,19.2064,1607.0387],[-97.0111,19.2084,1577.0388],[-97.0063,19.2098,1548.6475],[-96.9955,19.2054,1513.8608],[-96.993,19.2012,1480.0659],[-96.9826,19.201,1451.1903],[-96.9771,19.1966,1406.3508],[-96.9735,19.1974,1370.177],[-96.9678,19.1947,1318.9697],[-96.967,19.1993,1361.7885],[-96.9701,19.2019,1363.3229],[-96.9692,19.2038,1378.2979],[-96.9764,19.2076,1433.0801],[-96.9752,19.2099,1430.6836],[-96.9776,19.2106,1454.7808],[-96.9767,19.2124,1457.1248],[-96.9779,19.2155,1463.5579],[-96.9814,19.2143,1465.7821],[-96.9857,19.2169,1507.4427],[-96.9778,19.2176,1457.5554],[-96.9794,19.2193,1475.7251],[-96.9762,19.2218,1446.8795],[-96.9761,19.2237,1451.0442],[-96.9686,19.2229,1399.3865],[-96.9667,19.224,1391.1218],[-96.9673,19.2255,1370.6619],[-96.9644,19.2262,1363.0],[-96.9631,19.2314,1318.8383],[-96.9597,19.2359,1273.3147],[-96.9581,19.2352,1289.0864],[-96.9508,19.2396,1222.8768],[-96.952,19.2411,1271.4772],[-96.9504,19.2429,1227.8669],[-96.9494,19.2423,1187.5754],[-96.9492,19.2438,1193.476],[-96.9479,19.2427,1187.5754],[-96.9447,19.2485,1153.9915],[-96.9368,19.2538,1048.1772],[-96.9344,19.2616,1009.0932],[-96.9237,19.2674,962.8129],[-96.9137,19.2773,940.4787],[-96.8998,19.2798,828.3616],[-96.8928,19.2827,795.1773],[-96.8887,19.287,782.9561],[-96.8875,19.2834,950.4231],[-96.8737,19.2893,921.847],[-96.8686,19.2897,910.918],[-96.8613,19.2867,828.224],[-96.857,19.2871,867.9803],[-96.8496,19.2896,837.2454],[-96.8318,19.2998,702.5001],[-96.8276,19.2978,622.7764],[-96.8234,19.2997,576.6186],[-96.8213,19.298,623.8185],[-96.8196,19.2987,590.3356],[-96.8134,19.2922,564.1148],[-96.8114,19.2928,556.1252],[-96.8108,19.2911,552.9005],[-96.806,19.2901,544.1476],[-96.8036,19.2872,550.3215],[-96.8007,19.2879,510.3333],[-96.7979,19.2846,478.1913],[-96.7927,19.2832,444.4919],[-96.7907,19.2861,473.3964],[-96.7876,19.2853,499.1024],[-96.7876,19.2872,519.8464],[-96.785,19.2848,460.5903],[-96.7833,19.287,446.8639],[-96.7806,19.2839,436.1554],[-96.77,19.2879,476.01],[-96.7665,19.2852,440.6042],[-96.7643,19.2858,398.7118],[-96.763,19.2828,367.4603],[-96.7603,19.2822,381.8642],[-96.7586,19.2799,440.9221],[-96.7595,19.2787,459.5773],[-96.7569,19.2785,478.6046],[-96.7572,19.276,533.7665],[-96.7552,19.2757,566.5864],[-96.754,19.2733,611.2244],[-96.7661,19.27,640.3901],[-96.7785,19.269,665.6129],[-96.7782,19.2677,666.5001],[-96.7824,19.2665,675.1409],[-96.7819,19.2645,674.7078],[-96.8224,19.2491,739.4324],[-96.8262,19.2463,781.9207],[-96.831,19.2393,850.7306],[-96.8284,19.234,846.6375],[-96.8231,19.2323,805.1395],[-96.8183,19.2334,789.5491],[-96.8153,19.2301,814.2381],[-96.8151,19.2273,820.444],[-96.8124,19.2272,814.4377],[-96.8123,19.2243,806.0266],[-96.8115,19.2265,796.9068],[-96.8081,19.225,786.9744],[-96.8079,19.2263,784.7947],[-96.8068,19.2253,783.5497],[-96.8046,19.2273,782.8138],[-96.8033,19.2267,765.3937],[-96.8037,19.2234,785.4531],[-96.8069,19.2215,794.976],[-96.8073,19.2196,796.5693],[-96.8006,19.2201,776.4412],[-96.7797,19.2288,696.7005],[-96.7748,19.2286,681.2159],[-96.7742,19.2313,660.5027],[-96.7714,19.2328,650.4985],[-96.7688,19.2332,641.2536],[-96.7679,19.2297,664.7838],[-96.735,19.2451,555.2787],[-96.7296,19.2455,546.7306],[-96.7278,19.2486,538.764],[-96.726,19.248,540.2753],[-96.7263,19.2491,540.9033],[-96.7209,19.2507,538.6868],[-96.7159,19.2488,505.3209],[-96.7144,19.2507,516.3047],[-96.7114,19.2502,522.2218],[-96.7078,19.2534,471.0634],[-96.7058,19.253,463.299],[-96.7016,19.2554,446.813],[-96.6948,19.2543,333.2499],[-96.6884,19.2594,294.9717],[-96.6874,19.2625,284.416],[-96.6818,19.2656,266.4766],[-96.681,19.2695,246.9988],[-96.6759,19.2711,233.5044],[-96.6729,19.2698,242.7667],[-96.6682,19.2716,240.3476],[-96.6672,19.2749,247.1846],[-96.663,19.2718,231.1829],[-96.6575,19.2713,217.9055],[-96.6551,19.2721,212.835],[-96.6549,19.2761,228.2865],[-96.6524,19.2777,226.0671],[-96.6353,19.2776,196.3584],[-96.6269,19.2846,191.9584],[-96.6195,19.2872,180.8403],[-96.6145,19.2925,174.5434],[-96.6093,19.2931,172.406],[-96.6111,19.2996,213.0121],[-96.6148,19.3025,326.2965],[-96.6043,19.3094,286.4456],[-96.6038,19.316,297.2635],[-96.6031,19.3176,280.7498],[-96.6008,19.3176,277.3389],[-96.6006,19.321,221.854],[-96.5984,19.3188,202.5969],[-96.597,19.32,186.5336],[-96.602,19.3262,205.605],[-96.6025,19.3329,178.1445],[-96.608,19.3363,187.6253],[-96.6117,19.3366,187.5024],[-96.6173,19.3344,190.9369],[-96.622,19.3281,200.8951],[-96.6273,19.3256,219.6716],[-96.6286,19.3205,213.4227],[-96.6317,19.3193,211.9439],[-96.6382,19.3209,214.8076],[-96.6453,19.3163,220.5665],[-96.6509,19.3172,226.7062],[-96.6574,19.3158,232.0482],[-96.6582,19.3111,240.0401],[-96.6649,19.3145,241.5893],[-96.6707,19.3058,236.9766],[-96.676,19.3037,266.7097],[-96.6843,19.3061,269.6314],[-96.6866,19.3094,257.8129],[-96.6889,19.3088,272.6395],[-96.6899,19.305,297.7899],[-96.6928,19.3055,257.0169],[-96.6956,19.3082,264.3693],[-96.6969,19.3141,268.0844],[-96.6994,19.3159,280.3223],[-96.7029,19.3118,275.1878],[-96.7014,19.3106,298.7967],[-96.7026,19.3074,324.9533],[-96.7015,19.3043,353.292],[-96.703,19.304,398.9876],[-96.7071,19.297,393.3511],[-96.7043,19.2949,545.8185],[-96.7073,19.2886,538.2326],[-96.7094,19.2875,533.2997],[-96.7007,19.2765,321.1119],[-96.7006,19.2716,260.4252],[-96.6948,19.27,250.816],[-96.6996,19.2669,304.3768],[-96.716,19.2694,444.9645],[-96.7234,19.2678,535.7817],[-96.7253,19.2691,547.2933],[-96.7253,19.2828,314.8423],[-96.7323,19.2841,379.2689],[-96.7328,19.2892,592.9069],[-96.7365,19.2897,598.0038],[-96.7429,19.2999,604.5829],[-96.7443,19.3078,590.2837],[-96.7416,19.3128,571.5948],[-96.7425,19.3166,577.2758],[-96.7448,19.3136,586.8604],[-96.7617,19.3111,632.1478],[-96.7692,19.3066,647.0952],[-96.7692,19.3043,636.6738],[-96.77,19.3065,647.0952],[-96.7741,19.3054,652.3654],[-96.7762,19.3096,642.0598],[-96.7731,19.3217,496.7707],[-96.7737,19.3252,418.1057],[-96.7698,19.3276,344.425],[-96.7746,19.3326,376.8188],[-96.7762,19.3384,372.9222],[-96.7899,19.3355,370.2126],[-96.7921,19.3368,379.8556],[-96.7974,19.3347,388.0754],[-96.7994,19.3369,389.4203],[-96.7977,19.3397,391.0744],[-96.7989,19.3442,441.8566],[-96.8027,19.3431,413.7437],[-96.8048,19.3451,409.967],[-96.8045,19.3486,428.6937],[-96.8025,19.3501,465.2101],[-96.8045,19.3591,460.3105],[-96.8188,19.3663,513.5691],[-96.8384,19.367,545.6452],[-96.8421,19.3681,514.9996],[-96.8442,19.372,490.1825],[-96.8443,19.369,493.2139],[-96.8556,19.3727,534.7269],[-96.8568,19.3676,512.2998],[-96.854,19.3658,548.0857],[-96.8547,19.3646,588.681],[-96.859,19.3643,545.6835],[-96.8604,19.3603,544.6199],[-96.8646,19.3595,547.5369],[-96.8691,19.355,584.4399],[-96.8703,19.3588,603.059],[-96.8722,19.3592,606.2902],[-96.8728,19.3529,574.2293],[-96.8747,19.3528,563.2471],[-96.8749,19.3544,591.7034],[-96.8794,19.3533,581.0048],[-96.8807,19.3481,592.4878],[-96.8828,19.3468,601.1386],[-96.8822,19.3444,594.1068],[-96.8859,19.3442,648.7546],[-96.8864,19.3429,609.8696],[-96.8892,19.3446,608.335],[-96.8949,19.3442,629.7094],[-96.8934,19.3426,671.0751],[-96.8963,19.3394,624.7389],[-96.8957,19.336,672.6757],[-96.9019,19.3348,639.8369],[-96.9025,19.3324,635.3031],[-96.9075,19.328,638.3922],[-96.9106,19.3272,672.2352],[-96.9133,19.3238,643.2464],[-96.9194,19.3218,657.8845],[-96.9183,19.3182,729.1464],[-96.9214,19.3154,705.0581],[-96.9213,19.3131,704.9],[-96.9245,19.3129,711.7582],[-96.924,19.3094,681.8959],[-96.9297,19.3111,700.0703],[-96.935,19.3058,705.9323],[-96.9391,19.3089,799.9752],[-96.9441,19.3041,791.8093],[-96.9443,19.3002,765.9376],[-96.9476,19.3001,755.265],[-96.9468,19.2968,830.3473],[-96.9519,19.2987,784.2814],[-96.951,19.2958,778.2771],[-96.959,19.2933,785.2736],[-96.9605,19.2888,779.0421],[-96.9649,19.2906,827.1638],[-96.9715,19.2898,811.5286],[-96.9742,19.2864,865.1229],[-96.9746,19.2831,839.5262],[-96.9752,19.2868,851.3438],[-96.9791,19.2843,859.7299],[-96.9842,19.2872,912.4142],[-96.9859,19.2855,943.269],[-96.9846,19.2824,973.4257],[-96.9857,19.2787,962.8868],[-96.9897,19.2785,926.2821],[-96.9918,19.2725,949.9148],[-96.9947,19.2702,995.817],[-96.9959,19.266,975.7631],[-96.9946,19.2639,991.5605],[-96.9974,19.2625,1031.8219],[-96.9997,19.2584,1100.9088],[-97.0026,19.2588,1139.3273],[-97.0044,19.2569,1261.9202],[-97.0025,19.2541,1103.0303],[-97.0053,19.2495,1374.302],[-97.0002,19.2389,1121.7812],[-97.0012,19.2365,1220.0667],[-97.0052,19.2347,1185.7052],[-97.0077,19.231,1144.0402],[-97.0149,19.2319,1154.6769],[-97.0173,19.2283,1246.7966],[-97.0198,19.2272,1227.5305],[-97.0204,19.2228,1206.751],[-97.0237,19.2221,1299.8999],[-97.0273,19.2174,1224.4089],[-97.0296,19.218,1247.6201]]]]}
,"properties": {"GID_2": "MEX.30.187_2","GID_0": "MEX","country": "México","GID_1": "MEX.30_1","province": "Veracruz","NL_NAME_1": "NA","county": "Tlaltetela","VARNAME_2": "NA","NL_NAME_2": "NA","TYPE_2": "Município","ENGTYPE_2": "Municipality","CC_2": "NA","HASC_2": "NA","name": "Tlaltetela.county","area_km2": 278.568,"hist_schema_id": "Elevation0-9000","hist_area_km2": {"175": 1.5007,"200": 2.9415,"225": 3.1216,"250": 4.3024,"275": 4.8427,"300": 4.5225,"325": 6.5436,"350": 6.3836,"375": 6.2636,"400": 5.6633,"425": 5.6632,"450": 5.6229,"475": 4.6025,"500": 4.3225,"525": 5.1432,"550": 4.0023,"575": 4.4828,"600": 7.7047,"625": 9.5258,"650": 10.846,"675": 13.0269,"700": 12.5262,"725": 11.2662,"750": 10.7059,"775": 9.185,"800": 8.6845,"825": 7.6237,"850": 7.1832,"875": 6.1828,"900": 4.8824,"925": 5.3427,"950": 4.3422,"975": 4.6625,"1000": 4.1824,"1025": 3.6822,"1050": 4.1226,"1075": 4.2027,"1100": 2.4217,"1125": 2.2616,"1150": 2.2817,"1175": 2.6019,"1200": 2.4219,"1225": 2.8222,"1250": 3.1626,"1275": 2.6622,"1300": 2.4821,"1325": 2.4221,"1350": 2.6223,"1375": 2.4022,"1400": 2.8026,"1425": 2.4424,"1450": 2.5626,"1475": 3.1232,"1500": 2.7428,"1525": 2.3224,"1550": 1.3414,"1575": 0.3604,"1600": 0.1802,"1625": 0.1802,"1650": 0.1402}}}