{"type": "Feature","bbox": [-95.9023,17.5656,-95.3496,17.9498],"geometry": {"type": "MultiPolygon","coordinates": [[[[-95.8911,17.7668,42.0563],[-95.8935,17.764,38.0],[-95.8926,17.7603,42.0964],[-95.8992,17.7536,43.9287],[-95.8977,17.749,61.138],[-95.9023,17.7382,45.8515],[-95.9019,17.7296,43.3936],[-95.8951,17.7276,50.7404],[-95.8944,17.7226,47.1124],[-95.8921,17.7206,46.0063],[-95.8897,17.7253,44.0838],[-95.8803,17.728,49.2636],[-95.8736,17.7278,50.7567],[-95.8721,17.7252,44.5006],[-95.8734,17.7171,49.7545],[-95.877,17.7157,47.4773],[-95.8828,17.717,48.9903],[-95.8905,17.7126,50.4638],[-95.894,17.7123,66.8177],[-95.8932,17.7077,56.6015],[-95.8953,17.7045,62.7769],[-95.871,17.7022,75.3406],[-95.8708,17.6927,87.0243],[-95.8675,17.6848,83.1754],[-95.8613,17.6825,91.2243],[-95.8529,17.6753,108.8891],[-95.8502,17.6758,100.2999],[-95.8471,17.6733,108.0096],[-95.844,17.6731,110.1779],[-95.8441,17.6685,121.2373],[-95.8409,17.6669,126.1642],[-95.8385,17.66,202.1453],[-95.8335,17.6574,178.0662],[-95.8306,17.6526,143.8831],[-95.8233,17.649,117.7243],[-95.8203,17.6507,113.8736],[-95.82,17.6483,116.0197],[-95.8136,17.6483,126.2964],[-95.8127,17.6459,126.8541],[-95.808,17.6468,135.9653],[-95.8056,17.6434,138.2643],[-95.8073,17.6427,138.2643],[-95.8074,17.6394,150.5332],[-95.8096,17.6382,134.3605],[-95.8054,17.6361,156.7519],[-95.8033,17.6294,161.1444],[-95.7991,17.6276,171.1612],[-95.7978,17.6306,153.2168],[-95.7883,17.6344,131.4224],[-95.7856,17.6334,125.2404],[-95.7845,17.6375,125.4809],[-95.7815,17.639,118.0386],[-95.7825,17.6258,157.3566],[-95.7738,17.6238,170.3331],[-95.7668,17.6693,109.9038],[-95.7664,17.673,108.4045],[-95.7686,17.6734,106.0262],[-95.7666,17.687,85.855],[-95.7598,17.6862,99.3861],[-95.7581,17.6979,93.1567],[-95.7521,17.6969,111.3796],[-95.749,17.7227,129.0081],[-95.7407,17.7179,123.4275],[-95.7353,17.7172,126.9107],[-95.7202,17.7211,116.5428],[-95.6866,17.7506,135.0379],[-95.6829,17.7493,130.3322],[-95.6746,17.7275,132.4347],[-95.6607,17.7321,118.9439],[-95.6552,17.7193,125.6181],[-95.6597,17.7178,129.1845],[-95.6513,17.6949,84.0226],[-95.6368,17.6891,91.0946],[-95.6258,17.6925,109.5421],[-95.6234,17.6965,79.4506],[-95.6264,17.6838,106.3613],[-95.6188,17.6827,83.8351],[-95.6184,17.6838,84.2369],[-95.612,17.6819,99.4893],[-95.6098,17.6876,93.4453],[-95.6035,17.6841,87.6982],[-95.6023,17.6856,77.4461],[-95.5985,17.6763,89.0292],[-95.6023,17.6759,93.6917],[-95.6,17.6686,89.0842],[-95.5966,17.6713,87.9742],[-95.5955,17.6684,92.5635],[-95.5923,17.6682,97.1635],[-95.5893,17.6607,94.7601],[-95.5967,17.66,98.1113],[-95.5918,17.636,124.5192],[-95.587,17.6367,121.5639],[-95.588,17.6413,120.7176],[-95.5809,17.6427,120.7043],[-95.5798,17.65,126.3454],[-95.5753,17.6496,123.7389],[-95.5745,17.6476,114.4728],[-95.5657,17.6512,112.2829],[-95.5653,17.6502,116.6143],[-95.5605,17.6522,107.0916],[-95.5595,17.6496,107.7806],[-95.5513,17.6526,116.2058],[-95.5465,17.6428,103.7366],[-95.5508,17.6412,107.4319],[-95.5481,17.6345,96.7386],[-95.5342,17.6373,82.3186],[-95.5337,17.6327,86.2227],[-95.529,17.6353,76.2057],[-95.5269,17.6345,75.9628],[-95.5307,17.6411,80.998],[-95.5271,17.6425,90.4216],[-95.5269,17.6459,97.9085],[-95.5234,17.648,90.8584],[-95.522,17.6445,94.1389],[-95.52,17.6444,87.5275],[-95.5212,17.6425,79.4321],[-95.5202,17.64,83.2735],[-95.5112,17.6283,68.0168],[-95.5259,17.62,78.4986],[-95.5253,17.619,91.7305],[-95.5294,17.6168,83.5515],[-95.53,17.6179,83.4587],[-95.5667,17.5974,109.1336],[-95.5633,17.5913,109.8693],[-95.5637,17.5894,111.2179],[-95.5658,17.5899,110.9067],[-95.5647,17.5879,107.4145],[-95.5627,17.5889,111.2179],[-95.5587,17.582,103.619],[-95.555,17.583,99.0536],[-95.5539,17.5811,87.2443],[-95.5552,17.5806,101.2208],[-95.5541,17.5804,95.6918],[-95.5539,17.5671,68.1888],[-95.5509,17.5656,65.5839],[-95.5334,17.5716,65.8409],[-95.5267,17.5716,58.9404],[-95.5248,17.576,57.5122],[-95.5217,17.5708,58.5974],[-95.5174,17.5696,47.7073],[-95.5213,17.577,47.3056],[-95.5147,17.5797,49.2986],[-95.514,17.5855,72.8299],[-95.5037,17.5838,50.0157],[-95.5018,17.5859,60.5744],[-95.5072,17.588,48.335],[-95.5063,17.5908,53.3167],[-95.4977,17.5919,46.1616],[-95.4951,17.5951,47.6283],[-95.4886,17.5968,46.0695],[-95.4842,17.6019,49.7426],[-95.4783,17.5954,47.038],[-95.4779,17.5923,43.6271],[-95.4798,17.5884,46.0566],[-95.4774,17.588,48.2751],[-95.4714,17.5948,43.6505],[-95.4627,17.5969,50.4121],[-95.464,17.5996,43.4511],[-95.4724,17.6041,43.1184],[-95.4738,17.6066,44.0524],[-95.4731,17.6091,49.1084],[-95.4626,17.6087,41.8545],[-95.4545,17.6111,44.879],[-95.4539,17.6148,42.267],[-95.4561,17.6231,39.9624],[-95.4461,17.6218,43.0937],[-95.4401,17.6267,41.9262],[-95.4384,17.6311,40.5134],[-95.4342,17.6351,39.6547],[-95.4268,17.6366,39.3546],[-95.4257,17.6387,41.1548],[-95.427,17.6452,40.5084],[-95.4255,17.6475,43.8888],[-95.4226,17.6473,53.6044],[-95.4185,17.644,37.2402],[-95.4155,17.6508,38.5414],[-95.413,17.6519,38.5414],[-95.4107,17.6497,38.6529],[-95.4103,17.6436,35.1704],[-95.4072,17.6433,35.2999],[-95.403,17.652,35.4231],[-95.3953,17.6518,35.3866],[-95.3868,17.6639,35.7676],[-95.3697,17.6691,33.5108],[-95.3679,17.6737,32.3633],[-95.3545,17.6712,32.1196],[-95.3517,17.6718,33.6457],[-95.3496,17.6745,30.9199],[-95.3512,17.6782,31.2197],[-95.3539,17.6742,35.3254],[-95.3576,17.6771,40.037],[-95.3623,17.6749,41.2757],[-95.3686,17.6828,37.7871],[-95.3723,17.6823,43.0648],[-95.3745,17.684,43.2368],[-95.379,17.6825,42.9334],[-95.3824,17.6839,40.6603],[-95.3812,17.6871,46.4058],[-95.3851,17.6918,41.4882],[-95.3883,17.6904,42.5022],[-95.3915,17.6921,43.3549],[-95.3939,17.6894,42.3074],[-95.3964,17.6898,44.9597],[-95.4012,17.6914,45.0271],[-95.4032,17.6952,39.7554],[-95.405,17.693,43.923],[-95.4072,17.6943,43.1144],[-95.4098,17.6937,45.1645],[-95.4145,17.6969,41.6247],[-95.412,17.7029,48.2785],[-95.4191,17.7098,60.6946],[-95.4117,17.7122,50.8295],[-95.4103,17.7155,58.7902],[-95.4139,17.7177,53.2848],[-95.4186,17.7169,62.2772],[-95.4193,17.7189,50.4263],[-95.4177,17.7217,57.0492],[-95.4207,17.7243,55.5121],[-95.4258,17.7262,54.4393],[-95.4286,17.7255,56.7158],[-95.4238,17.7314,61.0473],[-95.4283,17.7374,59.6415],[-95.429,17.7482,61.7292],[-95.4342,17.7483,65.3429],[-95.4344,17.7531,64.4746],[-95.4361,17.7532,67.6355],[-95.4346,17.7553,66.1701],[-95.4387,17.7564,65.4843],[-95.4387,17.7673,75.3162],[-95.4417,17.7672,80.1326],[-95.4424,17.7712,70.9119],[-95.4456,17.7707,70.2419],[-95.4464,17.7738,82.1021],[-95.4506,17.772,87.9864],[-95.4524,17.7729,74.9867],[-95.4535,17.7706,79.3223],[-95.4558,17.77,73.5137],[-95.4614,17.7715,78.45],[-95.4634,17.7699,79.0546],[-95.4686,17.7736,75.165],[-95.4689,17.7772,84.4233],[-95.4725,17.7827,83.3804],[-95.4719,17.7895,94.0882],[-95.4746,17.793,90.3058],[-95.4752,17.8014,95.8613],[-95.4726,17.8043,101.4064],[-95.4735,17.8133,117.9398],[-95.4724,17.8177,124.0646],[-95.4687,17.817,106.8666],[-95.4687,17.8217,100.8767],[-95.4741,17.8227,116.6861],[-95.4754,17.8288,116.1983],[-95.4811,17.8353,126.5543],[-95.4844,17.8338,139.5041],[-95.4898,17.836,135.6469],[-95.4921,17.8328,140.3293],[-95.497,17.832,126.7967],[-95.4956,17.8442,94.9314],[-95.4874,17.8457,123.4614],[-95.4804,17.8443,147.1296],[-95.4779,17.8487,189.6844],[-95.4794,17.8528,201.7724],[-95.4776,17.8589,149.1757],[-95.4814,17.8604,147.8259],[-95.4903,17.8737,94.6583],[-95.4959,17.8733,104.2994],[-95.5018,17.8777,75.8206],[-95.5083,17.8757,74.9936],[-95.5132,17.8771,67.2397],[-95.5165,17.8828,64.8161],[-95.5222,17.8882,63.837],[-95.5231,17.8999,59.9455],[-95.5277,17.9004,55.0245],[-95.5314,17.9058,56.93],[-95.5347,17.9061,51.9331],[-95.5355,17.9037,52.8474],[-95.5402,17.9006,53.8006],[-95.544,17.9019,58.2015],[-95.5513,17.8993,58.0676],[-95.5658,17.9022,93.6029],[-95.567,17.8928,76.1894],[-95.5621,17.8914,67.3663],[-95.559,17.8866,62.808],[-95.5622,17.8859,63.2007],[-95.5627,17.8833,64.909],[-95.5638,17.885,66.6461],[-95.5642,17.8834,64.909],[-95.5657,17.8848,67.9124],[-95.569,17.8837,68.2561],[-95.6317,17.8915,123.6529],[-95.6343,17.893,122.8541],[-95.6341,17.9003,121.7347],[-95.6367,17.9005,114.2101],[-95.6435,17.9061,111.7657],[-95.6519,17.9097,67.7442],[-95.6547,17.9058,91.6933],[-95.6571,17.8922,107.2084],[-95.6662,17.8893,128.2917],[-95.6715,17.8851,132.2573],[-95.6847,17.8839,64.3938],[-95.687,17.8821,56.601],[-95.6909,17.8853,58.292],[-95.6968,17.8815,38.8688],[-95.7003,17.8908,48.1422],[-95.698,17.8967,59.795],[-95.7037,17.9027,42.9338],[-95.7009,17.9089,47.4975],[-95.7057,17.9125,31.4566],[-95.7096,17.9124,30.1833],[-95.7152,17.9178,29.7386],[-95.7261,17.9182,26.9241],[-95.729,17.9157,26.9238],[-95.7277,17.9208,17.5],[-95.7326,17.9193,22.8814],[-95.7361,17.9234,22.7286],[-95.7393,17.9216,21.5134],[-95.7504,17.9233,33.0466],[-95.755,17.9283,32.3484],[-95.7597,17.929,35.554],[-95.7601,17.9262,52.4585],[-95.765,17.9259,39.6866],[-95.7719,17.9288,68.0026],[-95.7736,17.9244,58.9487],[-95.7805,17.9273,78.692],[-95.7784,17.9315,85.5949],[-95.7897,17.9361,95.0885],[-95.7955,17.9274,102.8606],[-95.8001,17.9414,95.0913],[-95.7986,17.9457,88.3869],[-95.8,17.9498,91.8938],[-95.8502,17.8445,30.0],[-95.8556,17.8466,32.5424],[-95.8588,17.8448,35.3099],[-95.8586,17.8392,31.0],[-95.851,17.8307,35.225],[-95.8493,17.8258,33.2756],[-95.8533,17.8188,32.5],[-95.8558,17.8056,37.4809],[-95.86,17.8021,35.3697],[-95.8668,17.7996,35.1935],[-95.869,17.7966,40.7183],[-95.8658,17.7824,35.0],[-95.8664,17.7744,40.0673],[-95.8672,17.7732,36.0],[-95.8789,17.7735,43.1896],[-95.8848,17.7718,40.8511],[-95.8911,17.7668,42.0563]]]]}
,"properties": {"GID_2": "MEX.30.136_2","GID_0": "MEX","country": "México","GID_1": "MEX.30_1","province": "Veracruz","NL_NAME_1": "NA","county": "PlayaVicente","VARNAME_2": "NA","NL_NAME_2": "NA","TYPE_2": "Município","ENGTYPE_2": "Municipality","CC_2": "NA","HASC_2": "NA","name": "Playa_Vicente.county","area_km2": 1196.0924,"hist_schema_id": "Elevation0-9000","hist_area_km2": {"25": 66.2694,"50": 212.0664,"75": 277.7243,"100": 285.0543,"125": 213.3332,"150": 107.4047,"175": 33.5538,"200": 0.6863}}}