{"type": "Feature","bbox": [-96.2504,17.0958,-96.1601,17.1608],"geometry": {"type": "MultiPolygon","coordinates": [[[[-96.1618,17.1322,951.5048],[-96.1784,17.1311,1484.9062],[-96.1975,17.1365,1597.3826],[-96.2163,17.1511,1621.3853],[-96.2232,17.1608,1068.3104],[-96.2293,17.1572,1082.4399],[-96.2326,17.1575,1129.0652],[-96.2334,17.1595,1135.2559],[-96.2401,17.1567,1250.8569],[-96.2415,17.1353,1885.6943],[-96.2451,17.1335,1947.7245],[-96.2504,17.1338,1896.4625],[-96.2487,17.1236,2194.7312],[-96.2449,17.119,2280.2375],[-96.2488,17.1101,1980.1624],[-96.2458,17.1017,1773.291],[-96.2477,17.0976,1712.6687],[-96.2408,17.0958,1924.9192],[-96.2253,17.1013,1880.0413],[-96.2161,17.099,1684.6304],[-96.2047,17.1022,1423.6168],[-96.2021,17.1013,1300.8533],[-96.1941,17.1042,1056.0596],[-96.19,17.1093,1047.25],[-96.1886,17.1158,1098.7837],[-96.1816,17.1196,1042.0256],[-96.1743,17.1264,1012.5344],[-96.1689,17.1267,982.9854],[-96.1648,17.1242,979.2729],[-96.1618,17.1245,964.6271],[-96.1601,17.1287,1005.0872],[-96.1618,17.1322,951.5048]]]]}
,"properties": {"GID_2": "MEX.20.301_2","GID_0": "MEX","country": "México","GID_1": "MEX.20_1","province": "Oaxaca","NL_NAME_1": "NA","county": "SanPabloYaganiza","VARNAME_2": "NA","NL_NAME_2": "NA","TYPE_2": "Município","ENGTYPE_2": "Municipality","CC_2": "NA","HASC_2": "NA","name": "San_Pablo_Yaganiza.county","area_km2": 35.45885,"hist_schema_id": "Elevation0-9000","hist_area_km2": {"975": 0.1621,"1000": 0.18236,"1025": 0.08105,"1050": 0.24315,"1075": 0.28367,"1100": 0.24314,"1125": 0.34445,"1150": 0.48629,"1175": 0.50655,"1200": 0.34445,"1225": 0.70918,"1250": 0.42549,"1275": 0.56733,"1300": 0.44577,"1325": 0.50655,"1350": 0.60785,"1375": 0.56732,"1400": 0.64838,"1425": 0.62811,"1450": 0.76993,"1475": 0.60786,"1500": 0.58759,"1525": 0.64836,"1550": 0.83073,"1575": 0.60785,"1600": 0.74967,"1625": 0.79022,"1650": 0.91177,"1675": 1.07385,"1700": 1.17517,"1725": 0.93204,"1750": 1.03335,"1775": 1.19546,"1800": 1.13468,"1825": 1.19547,"1850": 1.1955,"1875": 1.27657,"1900": 1.01315,"1925": 1.19551,"1950": 0.95235,"1975": 0.81053,"2000": 0.95236,"2025": 0.87132,"2050": 0.66869,"2075": 0.42552,"2100": 0.66867,"2125": 0.8713,"2150": 0.6484,"2175": 0.36473,"2200": 0.4863,"2225": 0.24315,"2250": 0.28368,"2275": 0.24315,"2300": 0.06079}}}