{"type": "Feature","bbox": [-89.8707,20.3365,-89.6139,20.5962],"geometry": {"type": "MultiPolygon","coordinates": [[[[-89.8707,20.3521,61.8453],[-89.8644,20.3514,59.3746],[-89.8647,20.3497,60.1946],[-89.8213,20.3418,50.2705],[-89.8182,20.3394,45.4875],[-89.8182,20.3365,61.7101],[-89.7876,20.3372,64.4054],[-89.7878,20.3566,68.5159],[-89.7777,20.3555,64.2812],[-89.7757,20.3685,45.9751],[-89.7721,20.3672,45.0224],[-89.772,20.3748,53.3107],[-89.7691,20.3746,52.6383],[-89.769,20.3662,43.4041],[-89.7584,20.3622,48.4945],[-89.7589,20.3604,51.9534],[-89.7463,20.3566,62.1707],[-89.7478,20.3404,53.8522],[-89.7304,20.3391,68.5046],[-89.7205,20.3934,61.8677],[-89.6947,20.3855,40.1721],[-89.6778,20.4139,49.0521],[-89.6276,20.4008,49.0988],[-89.6342,20.413,41.0937],[-89.6292,20.425,71.9639],[-89.6189,20.4291,81.7573],[-89.615,20.4274,58.237],[-89.6139,20.4296,35.9221],[-89.6385,20.4426,30.1522],[-89.6389,20.4634,28.3991],[-89.6413,20.483,25.3543],[-89.6399,20.4877,27.2388],[-89.6423,20.4885,27.249],[-89.6414,20.4947,27.2712],[-89.6362,20.5002,26.7909],[-89.6329,20.5112,23.283],[-89.6359,20.5161,20.5935],[-89.6331,20.525,23.3251],[-89.6338,20.5598,22.6086],[-89.6824,20.559,24.454],[-89.6837,20.5241,24.9686],[-89.6918,20.5236,24.0628],[-89.6913,20.5331,23.0823],[-89.6986,20.5334,21.1536],[-89.7006,20.5344,19.3459],[-89.7005,20.5366,21.5339],[-89.7027,20.5368,20.69],[-89.7048,20.533,17.7545],[-89.7137,20.5341,24.6078],[-89.7137,20.5413,19.9188],[-89.7065,20.5394,21.1513],[-89.7084,20.5476,17.3292],[-89.7013,20.5454,17.2661],[-89.7033,20.5548,20.9327],[-89.7021,20.5576,22.8439],[-89.7029,20.5611,21.841],[-89.7093,20.5617,18.3596],[-89.7268,20.5734,20.1719],[-89.7277,20.5808,19.3293],[-89.7508,20.5962,14.8182],[-89.7526,20.5952,14.4929],[-89.7556,20.5916,10.3186],[-89.7548,20.58,16.5092],[-89.7629,20.5437,23.1942],[-89.7565,20.5448,21.9113],[-89.7568,20.5422,22.2222],[-89.7602,20.536,22.4933],[-89.7629,20.5345,23.9737],[-89.7756,20.535,24.7966],[-89.7782,20.5365,24.5505],[-89.7847,20.5347,22.5602],[-89.7881,20.5235,21.6341],[-89.7933,20.5163,24.8084],[-89.7872,20.5136,30.4564],[-89.7884,20.5117,54.1916],[-89.7859,20.5109,48.2268],[-89.787,20.5083,64.3509],[-89.7886,20.509,73.2029],[-89.7929,20.4719,57.6752],[-89.8228,20.4754,62.098],[-89.8298,20.433,44.6326],[-89.8331,20.4208,43.9966],[-89.8504,20.3829,63.2502],[-89.8557,20.3778,67.8326],[-89.8699,20.3792,53.9121],[-89.8707,20.3521,61.8453]]]]}
,"properties": {"GID_2": "MEX.31.53_2","GID_0": "MEX","country": "México","GID_1": "MEX.31_1","province": "Yucatán","NL_NAME_1": "NA","county": "Muna","VARNAME_2": "NA","NL_NAME_2": "NA","TYPE_2": "Município","ENGTYPE_2": "Municipality","CC_2": "NA","HASC_2": "NA","name": "Muna.county","area_km2": 398.7217,"hist_schema_id": "Elevation0-9000","hist_area_km2": {"0": 0.7939,"25": 145.0021,"50": 200.5316,"75": 48.8979,"100": 3.4565,"125": 0.0397}}}