{"type":"Feature","properties":{"GID_2":"MEX.29.1_2","GID_0":"MEX","country":"México","GID_1":"MEX.29_1","province":"Tlaxcala","NL_NAME_1":"NA","county":"AcuamanaladeMiguelHidalgo","VARNAME_2":"NA","NL_NAME_2":"NA","TYPE_2":"Município","ENGTYPE_2":"Municipality","CC_2":"NA","HASC_2":"NA","name":"Acuamanalade_Miguel_Hidalgo.county"},
"geometry":{"type": "MultiPolygon","coordinates": [[[[-98.127,19.2147,2640.0461],[-98.1227,19.222,2702.582],[-98.1286,19.2223,2664.1514],[-98.1415,19.219,2566.1387],[-98.1599,19.2205,2451.9248],[-98.1642,19.2234,2435.8665],[-98.1747,19.2248,2390.3809],[-98.1755,19.231,2386.5063],[-98.1826,19.2297,2353.791],[-98.1893,19.2312,2327.4456],[-98.1912,19.2289,2325.1465],[-98.2075,19.2274,2276.4612],[-98.2073,19.2244,2275.7166],[-98.2114,19.2258,2268.1372],[-98.2132,19.2165,2260.1746],[-98.1964,19.2163,2309.7681],[-98.1965,19.2131,2312.531],[-98.1942,19.2122,2323.5547],[-98.1946,19.2104,2312.5691],[-98.1899,19.2099,2332.1963],[-98.1723,19.2138,2389.5962],[-98.1743,19.2102,2385.9534],[-98.1737,19.2047,2386.4778],[-98.1756,19.2041,2380.2988],[-98.176,19.2017,2368.8357],[-98.1717,19.2026,2388.158],[-98.1707,19.2013,2388.5679],[-98.1684,19.2026,2397.7534],[-98.1648,19.2018,2418.5598],[-98.1599,19.2049,2432.5942],[-98.1512,19.2045,2490.4514],[-98.1374,19.211,2570.2778],[-98.1291,19.2115,2627.2283],[-98.127,19.2147,2640.0461]]]]}}