{"type":"Feature","properties":{"GID_2":"MEX.20.546_2","GID_0":"MEX","country":"México","GID_1":"MEX.20_1","province":"Oaxaca","NL_NAME_1":"NA","county":"Teotongo","VARNAME_2":"NA","NL_NAME_2":"NA","TYPE_2":"Município","ENGTYPE_2":"Municipality","CC_2":"NA","HASC_2":"NA","name":"Teotongo.county"},
"geometry":{"type": "MultiPolygon","coordinates": [[[[-97.5208,17.7869,2258.6152],[-97.5532,17.7803,2169.7969],[-97.5662,17.7888,2220.3601],[-97.5694,17.7818,2037.7933],[-97.5736,17.7797,1992.368],[-97.5747,17.7774,1987.4038],[-97.5716,17.7672,2072.6953],[-97.5751,17.7612,2318.2744],[-97.572,17.7582,2307.1128],[-97.5681,17.7571,2269.2744],[-97.5676,17.7534,2158.5488],[-97.566,17.7523,2233.459],[-97.5624,17.7317,2359.7754],[-97.5445,17.7113,2030.6688],[-97.5235,17.7027,2255.7144],[-97.5103,17.7166,2256.605],[-97.4944,17.721,2265.8083],[-97.5013,17.7226,2260.7986],[-97.5061,17.7184,2261.9478],[-97.5021,17.7235,2260.7986],[-97.5039,17.7259,2174.2363],[-97.5088,17.7253,2166.7397],[-97.5215,17.7484,2158.3982],[-97.5099,17.755,2140.1475],[-97.5095,17.7565,2138.9055],[-97.5142,17.7712,2168.3005],[-97.5149,17.7824,2386.2947],[-97.5185,17.787,2409.7705],[-97.5208,17.7869,2258.6152]]]]}}