{"type": "Feature","bbox": [-99.3595,20.2391,-99.1556,20.4168],"geometry": {"type": "MultiPolygon","coordinates": [[[[-99.3395,20.3071,2405.5667],[-99.3424,20.3057,2425.3464],[-99.3445,20.31,2367.6138],[-99.3466,20.3105,2368.3462],[-99.3477,20.3084,2335.4976],[-99.3504,20.3086,2334.9922],[-99.3504,20.3054,2314.6938],[-99.3595,20.3074,2135.7334],[-99.3574,20.3027,2189.2395],[-99.3513,20.2983,2237.5583],[-99.349,20.2882,2497.2502],[-99.3418,20.2828,2521.0776],[-99.3383,20.2758,2351.02],[-99.3368,20.2697,2281.7585],[-99.3386,20.2624,2268.7607],[-99.3377,20.2551,2204.0242],[-99.3367,20.2521,2200.9148],[-99.3326,20.2499,2187.0049],[-99.3237,20.2509,2151.894],[-99.3153,20.2481,2135.748],[-99.31,20.2504,2116.5037],[-99.3067,20.2489,2092.4863],[-99.3037,20.2497,2088.2478],[-99.2969,20.2483,2060.5999],[-99.2912,20.2448,2079.8889],[-99.284,20.2508,2164.9929],[-99.2813,20.2492,2119.8918],[-99.2779,20.2438,2068.7073],[-99.2573,20.2432,2000.0503],[-99.2501,20.2449,1995.469],[-99.2449,20.243,1991.1276],[-99.2444,20.2459,1987.0754],[-99.2364,20.2404,1954.3732],[-99.224,20.2391,1915.6705],[-99.2133,20.2392,1939.7389],[-99.2102,20.242,1920.0245],[-99.2072,20.2422,1924.5552],[-99.2031,20.2516,1901.2997],[-99.1953,20.252,1898.3911],[-99.1962,20.2554,1888.2118],[-99.202,20.2575,1883.9506],[-99.1971,20.2601,1878.5057],[-99.2005,20.262,1881.5316],[-99.2,20.2632,1879.4664],[-99.1919,20.2628,1900.6248],[-99.1908,20.271,1877.9353],[-99.199,20.2713,1879.7988],[-99.1989,20.2738,1884.6045],[-99.1949,20.2771,1898.9415],[-99.1965,20.2808,1877.911],[-99.2025,20.2811,1853.6777],[-99.2053,20.286,1853.3916],[-99.2104,20.2868,1847.7103],[-99.2119,20.2906,1890.9119],[-99.2154,20.2918,1871.0382],[-99.2162,20.2936,1857.1171],[-99.214,20.297,1848.0812],[-99.2148,20.3011,1851.5754],[-99.2191,20.3072,1900.3186],[-99.2252,20.3106,1828.8838],[-99.2187,20.3199,1863.087],[-99.2232,20.325,1819.374],[-99.2242,20.3316,1819.0339],[-99.2224,20.3355,1835.4126],[-99.2263,20.34,1819.198],[-99.2319,20.3404,1838.2994],[-99.2296,20.3479,1826.6057],[-99.2307,20.353,1805.0426],[-99.2184,20.3564,1876.3723],[-99.2113,20.3541,1905.3889],[-99.2085,20.3551,1916.0996],[-99.2063,20.3585,1941.6086],[-99.2038,20.3581,1954.1072],[-99.2029,20.3602,1982.2146],[-99.201,20.359,1993.4725],[-99.2008,20.3544,1977.436],[-99.1934,20.3559,2132.1628],[-99.1876,20.3533,2114.2268],[-99.1761,20.3603,2112.4409],[-99.1712,20.3668,2106.6821],[-99.1635,20.372,2318.6621],[-99.1655,20.3781,2183.1252],[-99.1645,20.3836,2032.2766],[-99.1556,20.3891,1955.9177],[-99.1584,20.3928,1955.9891],[-99.167,20.3971,1889.2593],[-99.1636,20.4105,1857.1857],[-99.1942,20.4089,1892.2006],[-99.2006,20.4062,1833.8312],[-99.2105,20.4109,1778.962],[-99.2181,20.4105,1766.3735],[-99.2238,20.413,1790.6687],[-99.2272,20.4118,1774.6504],[-99.2423,20.412,1830.6742],[-99.2498,20.4147,1834.3284],[-99.2505,20.4129,1836.5071],[-99.2534,20.4121,1846.1963],[-99.2544,20.4086,1889.5691],[-99.2572,20.4076,1881.5287],[-99.2614,20.41,1963.5719],[-99.266,20.41,2105.6406],[-99.2678,20.4168,1926.5219],[-99.2794,20.4126,1996.4622],[-99.2826,20.4086,2118.6191],[-99.2897,20.4065,2076.7854],[-99.287,20.3984,2009.6455],[-99.291,20.3953,2096.2358],[-99.286,20.3945,2028.6281],[-99.2838,20.3959,2003.6144],[-99.2869,20.3851,2130.231],[-99.2871,20.3789,2261.061],[-99.2908,20.3752,2395.5784],[-99.2923,20.3687,2344.5271],[-99.2889,20.3594,2432.7915],[-99.2907,20.358,2408.0889],[-99.2903,20.3535,2419.2808],[-99.2931,20.3498,2312.3398],[-99.2937,20.3391,2198.4485],[-99.2952,20.337,2256.2219],[-99.3054,20.3367,2065.959],[-99.299,20.3245,2448.8232],[-99.3017,20.3235,2314.3035],[-99.3097,20.3263,2124.1877],[-99.31,20.3243,2124.1689],[-99.3124,20.3239,2112.0356],[-99.3152,20.3205,2173.9409],[-99.3156,20.3092,2571.0564],[-99.3216,20.3111,2511.4575],[-99.3254,20.3156,2297.218],[-99.33,20.3149,2175.6362],[-99.3329,20.3165,2128.7605],[-99.3328,20.3108,2198.2236],[-99.3363,20.3073,2315.6245],[-99.3395,20.3071,2405.5667]]]]}
,"properties": {"GID_2": "MEX.13.17_2","GID_0": "MEX","country": "México","GID_1": "MEX.13_1","province": "Hidalgo","NL_NAME_1": "NA","county": "Chilcuautla","VARNAME_2": "NA","NL_NAME_2": "NA","TYPE_2": "Município","ENGTYPE_2": "Municipality","CC_2": "NA","HASC_2": "NA","name": "Chilcuautla.county","area_km2": 223.8137,"hist_schema_id": "Elevation0-9000","hist_area_km2": {"1775": 2.4642,"1800": 5.9624,"1825": 7.7716,"1850": 10.3166,"1875": 12.0666,"1900": 16.5382,"1925": 11.9279,"1950": 9.8606,"1975": 16.6617,"2000": 18.8112,"2025": 14.5361,"2050": 10.3995,"2075": 7.6155,"2100": 6.8996,"2125": 5.6668,"2150": 5.7067,"2175": 5.7267,"2200": 5.6472,"2225": 5.3091,"2250": 6.1443,"2275": 4.9313,"2300": 5.4685,"2325": 5.0903,"2350": 4.4144,"2375": 3.5991,"2400": 3.6787,"2425": 3.0822,"2450": 2.4061,"2475": 1.3721,"2500": 1.3721,"2525": 0.8352,"2550": 0.5966,"2575": 0.517,"2600": 0.1989,"2625": 0.179,"2650": 0.0398}}}