{"type": "Feature","bbox": [-110.8537,27.8582,-110.5153,28.1506],"geometry": {"type": "MultiPolygon","coordinates": [[[[-110.5914,27.8848,0.3722],[-110.5153,28.0281,52.0239],[-110.5213,28.0433,57.7247],[-110.5233,28.045,57.2158],[-110.5193,28.0524,60.7871],[-110.5259,28.0579,60.215],[-110.6228,28.1168,70.0868],[-110.618,28.1272,74.7272],[-110.6326,28.1353,72.47],[-110.6296,28.1418,75.0203],[-110.6615,28.1468,69.7401],[-110.6624,28.1449,69.6528],[-110.7065,28.146,65.7621],[-110.7067,28.1506,67.4855],[-110.7163,28.1502,64.3337],[-110.7166,28.1408,62.474],[-110.7235,28.1289,60.5039],[-110.7351,28.136,61.6228],[-110.7401,28.0935,51.3589],[-110.7782,28.0722,325.7604],[-110.7797,28.0434,37.0188],[-110.7637,28.037,29.1589],[-110.7743,28.0372,27.8056],[-110.803,27.9906,21.1031],[-110.8189,27.9773,4.9866],[-110.821,27.9767,5.8713],[-110.8215,27.9789,3.8126],[-110.8229,27.9771,3.6364],[-110.8265,27.979,3.1117],[-110.8292,27.9758,1.6119],[-110.8294,27.9659,0.7185],[-110.8278,27.9608,0.5685],[-110.8266,27.9616,1.9797],[-110.8279,27.9543,1.1701],[-110.822,27.9506,0.7366],[-110.8171,27.9386,0.0],[-110.8151,27.9373,0.3531],[-110.8126,27.9306,0.3759],[-110.8122,27.9233,0.2511],[-110.8097,27.9214,0.0],[-110.8091,27.9245,1.2644],[-110.8032,27.9219,0.5514],[-110.7993,27.9221,0.7553],[-110.7994,27.9201,1.6517],[-110.8136,27.9193,1.0054],[-110.8145,27.9228,0.0],[-110.8396,27.914,0.0],[-110.8461,27.9132,1.3226],[-110.8524,27.9165,0.0],[-110.8537,27.9133,4.7107],[-110.8425,27.9104,0.0],[-110.8285,27.9167,0.0],[-110.7968,27.919,1.3169],[-110.7576,27.9147,0.8896],[-110.7259,27.9081,1.6087],[-110.6998,27.9002,0.2053],[-110.6804,27.89,3.3825],[-110.6724,27.8925,0.5811],[-110.6625,27.8915,0.17],[-110.6544,27.8888,0.9524],[-110.6413,27.88,0.6353],[-110.6316,27.8711,0.0],[-110.6271,27.8691,2.0759],[-110.6234,27.8648,0.0],[-110.6197,27.8644,0.5557],[-110.6174,27.8617,0.0],[-110.6123,27.8582,0.4509],[-110.6105,27.8586,0.0],[-110.6186,27.8634,0.1246],[-110.6191,27.8644,0.0],[-110.6175,27.8641,0.0],[-110.6201,27.8664,0.1958],[-110.6192,27.8708,0.0],[-110.6214,27.8695,7.9754],[-110.6276,27.87,1.4184],[-110.6298,27.8753,3.3257],[-110.629,27.8781,0.0],[-110.632,27.8776,0.9085],[-110.6369,27.8822,0.0],[-110.6457,27.884,0.0],[-110.6489,27.892,1.032],[-110.6532,27.8913,0.7051],[-110.6646,27.8943,0.9467],[-110.6654,27.8952,0.9467],[-110.6632,27.8997,0.2766],[-110.6617,27.9008,11.5699],[-110.6611,27.8985,0.0882],[-110.6592,27.8983,1.2492],[-110.6551,27.9052,0.233],[-110.6522,27.9018,-0.5],[-110.6491,27.904,1.1035],[-110.6453,27.9009,0.0906],[-110.642,27.9011,0.3759],[-110.6398,27.8974,0.7131],[-110.6417,27.8983,0.7131],[-110.6437,27.8965,1.4848],[-110.6427,27.888,0.3464],[-110.631,27.8822,0.8384],[-110.6139,27.8883,0.3129],[-110.6068,27.8883,0.1465],[-110.5914,27.8848,0.3722]]]]}
,"properties": {"GID_2": "MEX.26.25_2","GID_0": "MEX","country": "México","GID_1": "MEX.26_1","province": "Sonora","NL_NAME_1": "NA","county": "Empalme","VARNAME_2": "NA","NL_NAME_2": "NA","TYPE_2": "Município","ENGTYPE_2": "Municipality","CC_2": "NA","HASC_2": "NA","name": "Empalme.county","area_km2": 595.4322,"hist_schema_id": "Elevation0-9000","hist_area_km2": {"0": 105.279,"25": 247.5304,"50": 192.4493,"75": 42.2718,"100": 3.6138,"125": 2.7342,"150": 0.7116,"175": 0.4117,"200": 0.1497,"225": 0.1123,"250": 0.0561,"275": 0.0561,"300": 0.0561}}}