{"type":"Feature","properties":{"GID_2":"MEX.21.185_2","GID_0":"MEX","country":"México","GID_1":"MEX.21_1","province":"Puebla","NL_NAME_1":"NA","county":"Tlapanalá","VARNAME_2":"NA","NL_NAME_2":"NA","TYPE_2":"Município","ENGTYPE_2":"Municipality","CC_2":"NA","HASC_2":"NA","name":"Tlapanalá.county"},
"geometry":{"type": "MultiPolygon","coordinates": [[[[-98.5813,18.6794,1352.6804],[-98.5752,18.6733,1339.9106],[-98.5743,18.6696,1330.9309],[-98.5751,18.6677,1329.1622],[-98.5793,18.6666,1328.5103],[-98.5747,18.6636,1322.4414],[-98.5744,18.66,1320.9622],[-98.5721,18.6587,1318.1213],[-98.5696,18.6598,1317.6578],[-98.5707,18.6573,1314.9996],[-98.5696,18.65,1300.7883],[-98.5716,18.6475,1301.6018],[-98.5675,18.6473,1299.8525],[-98.5649,18.6444,1294.5819],[-98.561,18.646,1310.3605],[-98.5609,18.6429,1302.6389],[-98.5554,18.6409,1304.8462],[-98.5495,18.654,1338.3921],[-98.5487,18.6605,1363.2097],[-98.5401,18.652,1328.8859],[-98.5404,18.6506,1333.877],[-98.5382,18.6514,1328.8859],[-98.5389,18.6482,1321.8319],[-98.5403,18.648,1319.4962],[-98.5392,18.6463,1329.2183],[-98.527,18.6449,1356.52],[-98.5242,18.646,1362.9768],[-98.5212,18.6434,1353.7308],[-98.5171,18.6427,1362.4939],[-98.5131,18.6463,1364.9526],[-98.5123,18.651,1363.6698],[-98.5136,18.656,1364.0681],[-98.5121,18.6584,1374.3545],[-98.5002,18.65,1366.4335],[-98.4993,18.6545,1384.8879],[-98.497,18.6557,1385.2695],[-98.4858,18.6546,1401.1007],[-98.484,18.6566,1375.1285],[-98.4846,18.6621,1376.4825],[-98.4803,18.6651,1372.9399],[-98.4806,18.668,1386.1431],[-98.4766,18.6706,1398.6229],[-98.4771,18.6742,1429.9927],[-98.4797,18.6768,1472.6621],[-98.4892,18.6803,1510.8145],[-98.49,18.6822,1490.9413],[-98.4828,18.683,1548.177],[-98.4843,18.6868,1543.7747],[-98.5035,18.7039,1445.2377],[-98.4986,18.7125,1465.4923],[-98.4994,18.7175,1476.136],[-98.4964,18.7269,1491.5919],[-98.5024,18.728,1493.8153],[-98.507,18.7186,1472.5569],[-98.512,18.7131,1457.0913],[-98.5138,18.7198,1467.2339],[-98.5128,18.7214,1472.8175],[-98.5144,18.7238,1477.4785],[-98.5151,18.7184,1464.5803],[-98.5211,18.7114,1444.3274],[-98.5197,18.7166,1461.8735],[-98.5227,18.7191,1464.259],[-98.5246,18.7238,1473.6492],[-98.5297,18.7255,1451.8333],[-98.5276,18.7289,1468.3922],[-98.5354,18.7319,1457.665],[-98.5339,18.7351,1460.0038],[-98.5343,18.7428,1511.4468],[-98.5372,18.745,1519.8813],[-98.5387,18.7409,1544.8164],[-98.5462,18.7346,1506.7158],[-98.549,18.7367,1496.7123],[-98.5468,18.7449,1515.6116],[-98.549,18.7485,1526.1176],[-98.5504,18.7475,1526.1176],[-98.5567,18.749,1519.894],[-98.5632,18.7459,1508.8612],[-98.5682,18.7388,1494.1426],[-98.5721,18.7281,1471.5409],[-98.5753,18.733,1470.551],[-98.579,18.7327,1471.0315],[-98.5774,18.73,1462.7666],[-98.5799,18.7251,1450.8672],[-98.5785,18.7235,1448.2054],[-98.5799,18.7215,1443.0244],[-98.5777,18.7201,1441.7489],[-98.5772,18.7153,1444.7202],[-98.574,18.7122,1444.1661],[-98.5709,18.7165,1455.7543],[-98.5638,18.7128,1456.6587],[-98.5616,18.7131,1458.8877],[-98.5646,18.7096,1453.0092],[-98.5704,18.711,1443.1578],[-98.5752,18.7089,1435.7498],[-98.5751,18.705,1420.4358],[-98.5774,18.7005,1409.804],[-98.5834,18.696,1396.2874],[-98.5843,18.6912,1372.6411],[-98.583,18.6904,1374.3638],[-98.5844,18.6879,1376.4043],[-98.5791,18.6787,1354.2156],[-98.5813,18.6794,1352.6804]]]]}}