{"type":"Feature","properties":{"GID_2":"MEX.30.126_2","GID_0":"MEX","country":"México","GID_1":"MEX.30_1","province":"Veracruz","NL_NAME_1":"NA","county":"Otatitlán","VARNAME_2":"NA","NL_NAME_2":"NA","TYPE_2":"Município","ENGTYPE_2":"Municipality","CC_2":"NA","HASC_2":"NA","name":"Otatitlán.county"},
"geometry":{"type": "MultiPolygon","coordinates": [[[[-95.9906,18.1512,6.9215],[-95.9928,18.1596,8.1063],[-95.9994,18.1625,8.424],[-96.0025,18.1716,11.4666],[-96.006,18.1659,8.9474],[-96.0115,18.1654,9.6831],[-96.0158,18.1677,10.282],[-96.0071,18.184,2.5],[-96.0096,18.1862,6.4342],[-96.01,18.1903,4.4063],[-96.0067,18.1985,3.5],[-96.0113,18.2084,10.0732],[-96.023,18.217,6.7849],[-96.0317,18.2155,4.5],[-96.0398,18.2085,7.0262],[-96.0389,18.1851,5.0],[-96.041,18.1745,6.1328],[-96.0432,18.1714,9.5304],[-96.0527,18.1705,5.5],[-96.0631,18.1754,11.2983],[-96.066,18.1675,6.7434],[-96.0714,18.1629,9.8982],[-96.0749,18.161,9.4612],[-96.0838,18.1614,11.5611],[-96.0795,18.1498,13.2132],[-96.0689,18.1408,11.82],[-96.0664,18.1316,12.0567],[-96.061,18.1313,11.1286],[-96.0591,18.1339,9.7363],[-96.057,18.134,10.4514],[-96.0514,18.1267,18.5908],[-96.047,18.1307,15.4303],[-96.0469,18.1366,10.4231],[-96.0431,18.1347,10.7936],[-96.0411,18.1385,8.2394],[-96.0257,18.1335,8.82],[-96.0209,18.1379,7.8347],[-96.0182,18.136,7.0308],[-96.0136,18.1376,7.7042],[-96.0102,18.1421,8.1381],[-96.0004,18.1444,9.441],[-95.9967,18.1469,8.2824],[-95.9953,18.1506,7.1366],[-95.9906,18.1512,6.9215]]]]}}