{"type": "Feature","bbox": [-101.332,18.9315,-101.0802,19.2242],"geometry": {"type": "MultiPolygon","coordinates": [[[[-101.0802,19.1695,761.1624],[-101.0812,19.1731,767.9432],[-101.0872,19.1724,843.2469],[-101.1054,19.189,1410.3984],[-101.1094,19.1902,1351.8567],[-101.1151,19.1909,1571.057],[-101.1268,19.1843,1646.1416],[-101.142,19.1839,1471.9678],[-101.1488,19.1894,1755.3201],[-101.1631,19.1831,1703.9573],[-101.1662,19.1869,1603.29],[-101.1674,19.1861,1603.29],[-101.1773,19.1912,1479.5894],[-101.1767,19.1932,1451.5103],[-101.1808,19.1975,1419.1876],[-101.1805,19.2053,1376.9486],[-101.1832,19.2082,1366.0623],[-101.1897,19.2095,1347.1407],[-101.1908,19.2142,1380.6874],[-101.1926,19.2126,1375.8966],[-101.196,19.2172,1309.781],[-101.2012,19.2163,1346.4241],[-101.2106,19.2229,1430.4846],[-101.2148,19.2212,1349.4824],[-101.2153,19.2191,1360.1921],[-101.2165,19.2193,1360.1921],[-101.2175,19.224,1440.6544],[-101.2237,19.2229,1431.7382],[-101.2261,19.2204,1351.0742],[-101.2264,19.2132,1301.2434],[-101.2242,19.2113,1287.6824],[-101.223,19.2031,1242.5143],[-101.2246,19.1994,1320.3604],[-101.2303,19.2024,1296.4426],[-101.2338,19.2072,1314.0732],[-101.2332,19.2107,1325.2939],[-101.2351,19.2129,1366.2457],[-101.2436,19.2172,1412.5046],[-101.2473,19.2166,1442.9388],[-101.2495,19.219,1485.1403],[-101.2526,19.2194,1589.9954],[-101.2547,19.2161,1587.9891],[-101.2557,19.2171,1612.1326],[-101.258,19.2153,1587.3208],[-101.2607,19.2161,1592.7688],[-101.2632,19.2202,1608.599],[-101.2698,19.2214,1440.4229],[-101.2718,19.2177,1433.8052],[-101.274,19.2178,1470.0837],[-101.2743,19.2195,1496.6797],[-101.2765,19.2168,1433.5813],[-101.2806,19.2188,1519.5847],[-101.2852,19.2184,1518.4253],[-101.2853,19.2173,1537.9513],[-101.2894,19.219,1490.2902],[-101.2931,19.2165,1431.0511],[-101.294,19.2191,1462.7194],[-101.2974,19.2207,1510.8165],[-101.301,19.2197,1452.6864],[-101.3009,19.2238,1456.6467],[-101.3037,19.2242,1495.2812],[-101.3091,19.2218,1524.8235],[-101.309,19.2182,1488.5994],[-101.3121,19.2167,1434.1499],[-101.3143,19.2238,1489.8746],[-101.3198,19.2233,1278.5338],[-101.3163,19.2144,1285.323],[-101.3174,19.2088,1150.4463],[-101.3143,19.2038,1147.0437],[-101.3143,19.2016,1112.6565],[-101.3159,19.2006,1112.6565],[-101.3135,19.1945,1089.7056],[-101.3152,19.1931,1072.3242],[-101.3124,19.1857,1075.0022],[-101.3099,19.1833,1048.0703],[-101.3104,19.1793,1059.9788],[-101.309,19.1783,1023.8513],[-101.3078,19.1804,1142.6182],[-101.3017,19.1785,1305.7111],[-101.299,19.1732,1370.0422],[-101.2988,19.1655,1324.0464],[-101.3011,19.1651,1220.1559],[-101.301,19.1635,1150.4773],[-101.3075,19.157,992.728],[-101.3091,19.153,981.8353],[-101.3092,19.1467,928.3875],[-101.3109,19.1437,937.3336],[-101.3088,19.1409,918.1927],[-101.3094,19.1375,903.5067],[-101.3132,19.1388,1055.2206],[-101.318,19.129,1125.3286],[-101.3263,19.1315,1130.6694],[-101.3262,19.13,1137.2335],[-101.3289,19.129,1093.2656],[-101.3274,19.1279,1067.8601],[-101.3282,19.1264,1068.2197],[-101.3252,19.1258,1142.8417],[-101.332,19.1246,1071.3384],[-101.3314,19.1185,1032.3191],[-101.3294,19.1151,1016.4814],[-101.3308,19.1132,1025.8364],[-101.3288,19.1102,1009.7703],[-101.3293,19.1061,999.8519],[-101.3268,19.1043,1001.672],[-101.3273,19.1017,1015.5287],[-101.3253,19.1008,986.1882],[-101.327,19.0941,995.9055],[-101.3243,19.0934,945.8483],[-101.3266,19.0907,995.843],[-101.3247,19.0897,957.5488],[-101.326,19.0864,948.9418],[-101.3247,19.0849,922.6124],[-101.3261,19.0839,922.6124],[-101.3227,19.0808,909.0516],[-101.3238,19.0744,881.3797],[-101.3219,19.0742,909.8155],[-101.3227,19.0719,892.2448],[-101.3199,19.0697,872.1665],[-101.3217,19.0658,846.8285],[-101.3195,19.0648,851.288],[-101.3213,19.0636,841.0891],[-101.3202,19.0603,850.5203],[-101.3222,19.0551,816.0948],[-101.3207,19.0499,799.4678],[-101.3121,19.0529,808.7081],[-101.3013,19.0473,850.572],[-101.3,19.0411,845.7446],[-101.2966,19.0411,889.655],[-101.2982,19.0372,872.5355],[-101.2958,19.0242,767.8008],[-101.2974,19.0194,745.2253],[-101.2967,19.0072,652.4393],[-101.2843,18.988,607.2432],[-101.2862,18.986,598.6102],[-101.2826,18.9833,587.106],[-101.286,18.9804,581.9845],[-101.2826,18.9748,573.2189],[-101.2831,18.9733,572.459],[-101.2749,18.9742,634.1342],[-101.2735,18.9723,615.8544],[-101.2756,18.9707,627.6392],[-101.2739,18.9684,574.7256],[-101.2752,18.9677,610.7333],[-101.2741,18.9632,553.3071],[-101.2674,18.9653,802.9343],[-101.263,18.9635,870.9261],[-101.258,18.9629,912.9022],[-101.2569,18.964,844.4851],[-101.256,18.9597,862.0621],[-101.2539,18.9598,893.192],[-101.2463,18.9516,786.7059],[-101.2385,18.9542,865.177],[-101.2332,18.9521,960.8423],[-101.1973,18.9315,1011.6617],[-101.1929,18.9405,584.5216],[-101.1932,18.9503,518.9207],[-101.1911,18.9521,514.9222],[-101.1858,18.9506,498.8411],[-101.184,18.9545,513.0842],[-101.1793,18.9521,517.6737],[-101.1781,18.9494,498.7306],[-101.1741,18.952,499.7805],[-101.1677,18.95,490.4801],[-101.1672,18.9475,480.8227],[-101.1663,18.9509,481.5452],[-101.1686,18.954,549.1674],[-101.1682,18.9565,551.1736],[-101.165,18.9585,483.7507],[-101.163,18.9553,493.1796],[-101.1584,18.9553,497.759],[-101.1643,18.9671,520.9335],[-101.1665,18.9664,501.4081],[-101.172,18.9717,501.3242],[-101.1688,18.9724,503.2993],[-101.171,18.9732,514.0041],[-101.1697,18.9786,515.1714],[-101.1707,18.983,511.8964],[-101.1721,18.9828,524.9323],[-101.1715,18.9797,521.5292],[-101.1763,18.9823,535.5211],[-101.1781,18.9812,529.7159],[-101.18,18.9846,532.1573],[-101.1785,18.9858,533.6559],[-101.1805,18.987,534.9274],[-101.1819,18.986,534.9274],[-101.1841,18.988,534.5195],[-101.1793,18.9945,547.3953],[-101.1836,19.0001,568.4217],[-101.1877,19.0009,580.6613],[-101.1884,19.004,626.697],[-101.1863,19.0052,658.8904],[-101.1865,19.0076,713.8143],[-101.1722,19.0114,754.3026],[-101.1742,19.0166,696.9603],[-101.1687,19.0118,679.3212],[-101.1659,19.0137,615.1766],[-101.1629,19.0121,593.3292],[-101.1631,19.0099,638.4271],[-101.1574,19.0121,611.8485],[-101.1518,19.0089,563.1594],[-101.1509,19.014,585.4459],[-101.1536,19.0218,605.7286],[-101.146,19.0199,679.7546],[-101.1411,19.0219,638.9611],[-101.1379,19.0265,705.1458],[-101.1264,19.0278,553.1225],[-101.1241,19.0316,591.5523],[-101.1204,19.0336,631.3221],[-101.115,19.0441,739.7855],[-101.1072,19.0505,957.3947],[-101.1053,19.0557,1172.4587],[-101.0996,19.0539,907.0678],[-101.0948,19.0549,773.817],[-101.0872,19.0514,623.8195],[-101.0855,19.0547,582.9556],[-101.0825,19.056,580.1875],[-101.0893,19.0687,601.2623],[-101.0938,19.0683,606.0195],[-101.0972,19.0827,952.809],[-101.1048,19.0842,624.7167],[-101.1047,19.086,625.6293],[-101.1066,19.0866,648.8747],[-101.1076,19.0918,633.5833],[-101.1064,19.0971,629.2908],[-101.1111,19.0994,635.4707],[-101.1101,19.1019,646.9073],[-101.1158,19.1045,679.7265],[-101.1195,19.1115,682.9132],[-101.1155,19.115,685.5613],[-101.1153,19.1172,668.9886],[-101.1173,19.1186,674.6189],[-101.1156,19.1231,694.4413],[-101.1203,19.1223,676.0825],[-101.1214,19.1247,679.7173],[-101.116,19.128,685.1619],[-101.1204,19.1277,693.0483],[-101.124,19.1315,693.1822],[-101.1197,19.1349,701.9407],[-101.1218,19.1395,694.9452],[-101.1178,19.14,706.1194],[-101.1164,19.1422,729.9343],[-101.1134,19.1386,883.7604],[-101.1047,19.1371,1041.0485],[-101.1061,19.1472,763.0969],[-101.1095,19.1513,733.9002],[-101.1079,19.1533,722.4456],[-101.0971,19.1491,753.2864],[-101.0907,19.1513,754.3307],[-101.0899,19.1531,781.4701],[-101.0872,19.1509,772.2997],[-101.0874,19.153199999999998,753.6255],[-101.0816,19.1581,762.0406],[-101.0838,19.1609,763.3058],[-101.0817,19.1629,765.1382],[-101.0827,19.1687,769.2879],[-101.0802,19.1695,761.1624]]]]}
,"properties": {"GID_2": "MEX.16.61_2","GID_0": "MEX","country": "México","GID_1": "MEX.16_1","province": "Michoacán","NL_NAME_1": "NA","county": "Nocupétaro","VARNAME_2": "NA","NL_NAME_2": "NA","TYPE_2": "Município","ENGTYPE_2": "Municipality","CC_2": "NA","HASC_2": "NA","name": "Nocupétaro.county","area_km2": 547.5376,"hist_schema_id": "Elevation0-9000","hist_area_km2": {"475": 0.1604,"500": 1.1831,"525": 3.3286,"550": 6.4964,"575": 11.0669,"600": 16.2783,"625": 19.6849,"650": 23.4118,"675": 26.4976,"700": 21.9069,"725": 17.3764,"750": 17.8965,"775": 16.2522,"800": 15.4099,"825": 14.9881,"850": 14.6068,"875": 14.5464,"900": 15.4476,"925": 15.0866,"950": 16.2278,"975": 16.2679,"1000": 16.8485,"1025": 15.9665,"1050": 15.0842,"1075": 14.2026,"1100": 13.3004,"1125": 11.7982,"1150": 11.2971,"1175": 9.6343,"1200": 9.5341,"1225": 9.2535,"1250": 8.9327,"1275": 8.472,"1300": 8.7123,"1325": 9.4933,"1350": 9.7335,"1375": 9.1921,"1400": 8.1706,"1425": 7.6698,"1450": 7.3095,"1475": 7.63,"1500": 7.089,"1525": 6.5484,"1550": 4.6862,"1575": 2.884,"1600": 2.8039,"1625": 1.8626,"1650": 1.3219,"1675": 1.1816,"1700": 1.1015,"1725": 0.6008,"1750": 0.4406,"1775": 0.3204,"1800": 0.2003,"1825": 0.1001,"1850": 0.02,"1875": 0.02}}}