{"type":"Feature","properties":{"GID_2":"MEX.20.119_2","GID_0":"MEX","country":"México","GID_1":"MEX.20_1","province":"Oaxaca","NL_NAME_1":"NA","county":"SanBartoloYautepec","VARNAME_2":"NA","NL_NAME_2":"NA","TYPE_2":"Município","ENGTYPE_2":"Municipality","CC_2":"NA","HASC_2":"NA","name":"San_Bartolo_Yautepec.county"},
"geometry":{"type": "MultiPolygon","coordinates": [[[[-95.8449,16.4388,811.177],[-95.8478,16.4441,844.2685],[-95.8513,16.4449,797.9595],[-95.8525,16.4431,786.2971],[-95.854,16.4436,792.3375],[-95.8558,16.4479,860.0835],[-95.8599,16.4502,866.5992],[-95.8634,16.4487,809.686],[-95.8668,16.4386,679.7687],[-95.8709,16.4346,692.8516],[-95.8781,16.4336,646.7167],[-95.8818,16.4359,635.3414],[-95.8858,16.4332,661.6874],[-95.9638,16.4735,1236.6505],[-95.9778,16.4598,1333.7169],[-95.9799,16.4477,1082.0847],[-95.9881,16.4398,918.7252],[-95.987799999999993,16.4382,904.3176],[-95.9916,16.4386,924.7563],[-95.9942,16.4433,965.9361],[-96.0,16.4468,966.3193],[-96.014,16.4406,1213.4513],[-96.0156,16.4363,1413.7742],[-96.0047,16.428,1219.2341],[-95.9969,16.4254,1096.3783],[-95.9941,16.4232,1043.6758],[-95.9924,16.4179,977.4975],[-95.9829,16.4186,932.7761],[-95.9848,16.4107,965.5144],[-95.977,16.4003,1008.927],[-95.9771,16.3936,997.0176],[-95.9701,16.39,981.8264],[-95.9677,16.3906,961.2975],[-95.9658,16.3947,962.1584],[-95.9618,16.3935,1009.1123],[-95.96,16.3791,1277.124],[-95.9566,16.3782,1294.5836],[-95.9519,16.3824,1192.6862],[-95.9442,16.3801,889.5164],[-95.9479,16.3866,961.007],[-95.9115,16.4136,643.1296],[-95.9086,16.4089,635.7719],[-95.9063,16.4114,656.2662],[-95.9027,16.4103,619.0189],[-95.9021,16.4085,650.338],[-95.9038,16.4054,641.3441],[-95.9003,16.4046,607.6036],[-95.8974,16.408,600.4427],[-95.8959,16.4072,590.2556],[-95.8944,16.4087,590.2556],[-95.8927,16.4053,623.8436],[-95.8898,16.4077,619.2673],[-95.8868,16.4074,585.0753],[-95.8853,16.4103,570.1196],[-95.8827,16.4083,580.2502],[-95.8851,16.407,569.0258],[-95.8848,16.4055,569.0258],[-95.879,16.405,583.369],[-95.88,16.3994,587.0762],[-95.876,16.3999,547.1741],[-95.8751,16.3973,533.6011],[-95.8708,16.3984,535.3741],[-95.8697,16.3968,546.7316],[-95.8607,16.3988,534.4057],[-95.8609,16.3947,524.6017],[-95.8549,16.3929,506.1572],[-95.856,16.3902,493.7152],[-95.8532,16.3889,498.5063],[-95.8516,16.3844,551.8987],[-95.8499,16.3897,481.4149],[-95.8451,16.3886,569.3716],[-95.8449,16.4388,811.177]]]]}}