{"type":"Feature","properties":{"GID_2":"MEX.32.25_2","GID_0":"MEX","country":"México","GID_1":"MEX.32_1","province":"Zacatecas","NL_NAME_1":"NA","county":"LuisMoya","VARNAME_2":"NA","NL_NAME_2":"NA","TYPE_2":"Município","ENGTYPE_2":"Municipality","CC_2":"NA","HASC_2":"NA","name":"Luis_Moya.county"},
"geometry":{"type": "MultiPolygon","coordinates": [[[[-102.2532,22.3745,1952.9587],[-102.2356,22.3735,1962.0129],[-102.2281,22.3747,1964.0093],[-102.2252,22.3741,1963.9956],[-102.2233,22.3713,1961.0676],[-102.212,22.3727,1965.9215],[-102.212,22.3625,1957.9081],[-102.1774,22.3624,1987.1249],[-102.1807,22.3504,1973.8635],[-102.1621,22.3485,1995.7782],[-102.1491,22.3665,2043.3251],[-102.1402,22.3681,2052.0361],[-102.1397,22.3726,2063.6328],[-102.1359,22.3746,2061.3376],[-102.1329,22.3787,2070.2407],[-102.1275,22.3814,2066.5496],[-102.1123,22.3802,2099.7861],[-102.1111,22.3862,2116.8081],[-102.1134,22.3868,2116.0581],[-102.1132,22.3917,2127.9692],[-102.1103,22.4008,2153.6907],[-102.135,22.4073,2128.8901],[-102.1564,22.4095,2066.8618],[-102.1574,22.4108,2061.5598],[-102.16,22.4099,2048.739],[-102.2171,22.4154,1997.1138],[-102.213,22.4431,2031.9941],[-102.2141,22.4448,2030.8918],[-102.205,22.4541,2055.1472],[-102.2004,22.4612,2071.3125],[-102.1979,22.462,2074.6831],[-102.1974,22.4694,2104.363],[-102.1988,22.4729,2114.0547],[-102.192,22.4834,2170.9426],[-102.1923,22.4869,2153.103],[-102.1976,22.4882,2173.2031],[-102.1972,22.4895,2153.1433],[-102.201,22.4911,2143.146],[-102.1968,22.4951,2125.019],[-102.1976,22.4973,2118.5781],[-102.2031,22.5039,2108.3296],[-102.2057,22.5048,2105.552],[-102.2073,22.5035,2115.3069],[-102.2183,22.5073,2113.5891],[-102.2289,22.5174,2097.3948],[-102.2501,22.5192,2029.2046],[-102.2498,22.5081,2033.068],[-102.292,22.5146,2031.7292],[-102.2929,22.5097,2028.1985],[-102.2952,22.5101,2028.8789],[-102.2973,22.5014,2024.8679],[-102.3069,22.5017,2033.6058],[-102.2901,22.4199,1976.627],[-102.2875,22.4161,1974.7249],[-102.2854,22.4171,1975.9429],[-102.2818,22.4138,1974.0789],[-102.274,22.4143,1972.6229],[-102.2709,22.4118,1971.0774],[-102.2731,22.4088,1970.5686],[-102.2674,22.4066,1968.4694],[-102.2643,22.3992,1965.811],[-102.261,22.3986,1964.7679],[-102.2608,22.3957,1965.4761],[-102.2556,22.3914,1962.563],[-102.2552,22.3874,1962.6709],[-102.2536,22.3874,1960.2103],[-102.2536,22.3888,1959.9043],[-102.2503,22.3872,1959.9771],[-102.2492,22.3856,1958.6931],[-102.2506,22.3809,1957.3936],[-102.2549,22.3789,1957.7188],[-102.2532,22.3745,1952.9587]]]]}}