{"type": "Feature","bbox": [-114.82219397694746,18.283514715619077,-114.70537268788497,18.400397039837884],"geometry": {"type": "Polygon","coordinates": [[[-114.70537268788497,18.341986395306577,0.0],[-114.76366126210374,18.400397039837884,0.0],[-114.82219397694746,18.341986395306577,0.0],[-114.76366126210374,18.283514715619077,0.0],[-114.70537268788497,18.341986395306577,0.0]]]}
,"properties": {"featurecla": "Island","name": "I. Clarión","namealt": null,"region": "Seven seas (open ocean)","subregion": "Is. Revillagigedo","min_label": 6.0,"max_label": 11.0,"scalerank": 6,"area_km2": 80.13787,"hist_schema_id": "Elevation0-9000","hist_area_km2": {"0": 70.25728,"25": 1.34831,"50": 1.34832,"75": 1.20744,"100": 1.10679,"125": 0.80492,"150": 1.3281,"175": 1.50921,"200": 1.00614,"225": 0.18111,"250": 0.02012,"275": 0.02012}}}