{"type":"Feature","properties":{"GID_2":"MEX.15.15_2","GID_0":"MEX","country":"México","GID_1":"MEX.15_1","province":"México","NL_NAME_1":"NA","county":"Atlautla","VARNAME_2":"NA","NL_NAME_2":"NA","TYPE_2":"Município","ENGTYPE_2":"Municipality","CC_2":"NA","HASC_2":"NA","name":"Atlautla.county"},
"geometry":{"type": "MultiPolygon","coordinates": [[[[-98.7875,19.0568,2391.3667],[-98.788,19.0554,2385.0129],[-98.7778,19.0477,2393.2314],[-98.7825,19.0456,2383.7805],[-98.7812,19.0443,2381.2195],[-98.7829,19.0436,2379.2576],[-98.7827,19.0379,2370.5808],[-98.7911,19.0275,2330.1494],[-98.7914,19.0226,2300.3696],[-98.788,19.0194,2320.7427],[-98.782,19.0181,2341.9048],[-98.7762,19.0141,2349.2991],[-98.7751,19.0116,2341.9958],[-98.7731,19.0122,2343.4102],[-98.7714,19.0102,2319.8765],[-98.7775,19.0034,2272.8806],[-98.7839,19.0,2232.4575],[-98.7869,18.9966,2222.5159],[-98.793,18.9947,2189.7808],[-98.7944,18.9919,2171.769],[-98.7989,18.9892,2152.7749],[-98.8024,18.9846,2121.1909],[-98.802,18.982,2099.1626],[-98.8042,18.9786,2090.5532],[-98.8063,18.9795,2093.5613],[-98.807,18.9766,2075.0349],[-98.8084,18.9766,2070.3306],[-98.8068,18.9748,2067.6675],[-98.8088,18.9746,2060.9136],[-98.8079,18.9729,2043.0682],[-98.8113,18.9665,2045.8163],[-98.8189,18.9619,2019.2842],[-98.8197,18.9592,1994.684],[-98.825,18.9588,1979.7516],[-98.8242,18.9549,1910.905],[-98.8215,18.9528,1989.3287],[-98.8208,18.9472,1977.0309],[-98.8169,18.9433,1995.161],[-98.7995,18.9403,2047.046],[-98.7885,18.9616,2248.6196],[-98.7888,18.9695,2249.2026],[-98.7843,18.9723,2190.1575],[-98.7764,18.9742,2322.7126],[-98.776,18.9786,2306.4543],[-98.7729,18.9773,2347.363],[-98.7726,18.9806,2351.1318],[-98.7691,18.9859,2352.3733],[-98.7676,18.9857,2361.6797],[-98.7689,18.9865,2352.3733],[-98.7668,18.9891,2348.2656],[-98.7698,18.9918,2334.5435],[-98.7679,18.9956,2326.1855],[-98.7644,18.9949,2355.3408],[-98.7627,18.9922,2362.2732],[-98.7557,18.9879,2398.5017],[-98.7483,18.9893,2440.3882],[-98.7436,18.9878,2494.8933],[-98.7362,18.9921,2599.967],[-98.7311,18.9886,2694.8477],[-98.7224,18.9905,2810.877],[-98.7209,18.9876,2900.1104],[-98.6911,18.9969,3309.3481],[-98.6663,19.0013,3737.3469],[-98.6645,19.0036,3786.5591],[-98.6522,19.006,3965.1177],[-98.6293,19.0171,5057.9014],[-98.6199,19.0351,4623.7041],[-98.6298,19.0436,4218.6426],[-98.627,19.0498,4033.5125],[-98.6275,19.0544,3932.2007],[-98.6311,19.0596,3869.9932],[-98.6235,19.0664,3742.4277],[-98.6276,19.0694,3881.5273],[-98.6302,19.0678,3916.0767],[-98.6472,19.086,3681.5879],[-98.6796,19.0869,3310.5122],[-98.69,19.0779,3141.3232],[-98.6955,19.0773,2953.3533],[-98.6952,19.076,2963.5674],[-98.6985,19.0743,2954.1694],[-98.7017,19.0744,2925.0854],[-98.7108,19.0759,2843.8689],[-98.7228,19.0822,2715.6665],[-98.7288,19.089,2648.9438],[-98.7403,19.0923,2570.4036],[-98.7417,19.0889,2583.2131],[-98.7372,19.0881,2611.0498],[-98.7319,19.0843,2647.0657],[-98.7288,19.0848,2677.0676],[-98.7291,19.0775,2685.6577],[-98.7421,19.079,2597.6885],[-98.7483,19.0776,2558.5576],[-98.7613,19.0712,2484.4658],[-98.7642,19.0793,2502.5823],[-98.7713,19.0736,2467.5505],[-98.7734,19.0749,2465.1357],[-98.7755,19.0727,2451.0747],[-98.7843,19.0764,2460.8906],[-98.7846,19.0706,2433.1465],[-98.7831,19.0693,2425.7739],[-98.7875,19.0568,2391.3667]]]]}}