{"type":"Feature","properties":{"GID_2":"MEX.20.61_2","GID_0":"MEX","country":"México","GID_1":"MEX.20_1","province":"Oaxaca","NL_NAME_1":"NA","county":"MariscaladeJuárez","VARNAME_2":"NA","NL_NAME_2":"NA","TYPE_2":"Município","ENGTYPE_2":"Municipality","CC_2":"NA","HASC_2":"NA","name":"Mariscalade_Juárez.county"},
"geometry":{"type": "MultiPolygon","coordinates": [[[[-98.166,17.9193,1035.0311],[-98.1651,17.9178,1043.5887],[-98.1663,17.9158,1050.5671],[-98.1708,17.9141,1091.1223],[-98.1676,17.9125,1174.4575],[-98.1676,17.9099,1191.1499],[-98.1702,17.9084,1163.6156],[-98.1721,17.9033,1174.4172],[-98.1709,17.9021,1137.1631],[-98.175,17.9015,1168.1912],[-98.1748,17.8991,1200.8859],[-98.1818,17.8959,1216.6378],[-98.1849,17.8966,1259.1646],[-98.1837,17.8978,1263.5812],[-98.1877,17.8954,1347.1611],[-98.1885,17.8965,1287.9851],[-98.1964,17.8955,1289.4233],[-98.1951,17.8937,1307.6255],[-98.1959,17.8922,1307.6255],[-98.1972,17.8935,1326.6462],[-98.1975,17.8912,1324.7523],[-98.2005,17.8909,1336.7341],[-98.2028,17.8924,1375.3337],[-98.2054,17.8893,1382.2607],[-98.2049,17.8876,1370.6749],[-98.2071,17.887,1374.3615],[-98.2009,17.8739,1472.7184],[-98.1993,17.8406,1308.2141],[-98.1977,17.8383,1310.0786],[-98.1976,17.8399,1275.5769],[-98.1959,17.8385,1301.1218],[-98.195,17.8402,1281.8994],[-98.1941,17.8367,1268.5725],[-98.1952,17.8359,1322.1455],[-98.1939,17.8351,1265.3301],[-98.1895,17.8359,1262.7188],[-98.1836,17.8327,1212.4875],[-98.1833,17.8363,1188.0875],[-98.1768,17.8422,1204.0768],[-98.172,17.84,1136.5154],[-98.1721,17.842,1145.762],[-98.1684,17.8423,1124.5763],[-98.1659,17.8448,1095.9348],[-98.163,17.8425,1085.9535],[-98.1592,17.8436,1073.5085],[-98.1541,17.839,1061.8103],[-98.1503,17.843,1060.8947],[-98.1407,17.8444,1335.6077],[-98.1315,17.8097,1123.1104],[-98.1432,17.8061,1073.9749],[-98.1287,17.7851,1110.1377],[-98.1122,17.7818,1292.5328],[-98.1147,17.756,1488.2034],[-98.1115,17.755,1527.8695],[-98.1201,17.7294,1377.5205],[-98.1237,17.7285,1145.8143],[-98.1228,17.726,1160.463],[-98.1215,17.7264,1158.795],[-98.1216,17.7239,1162.3724],[-98.1153,17.7234,1217.3851],[-98.1154,17.7256,1220.1211],[-98.1141,17.7245,1215.2006],[-98.1133,17.7265,1196.2626],[-98.1118,17.7262,1212.6124],[-98.1099,17.7245,1222.171],[-98.1122,17.7242,1215.2006],[-98.1116,17.7225,1213.2048],[-98.1074,17.7211,1311.114],[-98.1106,17.7152,1378.374],[-98.1086,17.7163,1278.5986],[-98.1075,17.7147,1348.196],[-98.1065,17.7162,1326.652],[-98.1026,17.7151,1361.8704],[-98.1006,17.7198,1419.6844],[-98.0987,17.718,1408.8634],[-98.0992,17.7205,1454.9877],[-98.0983,17.7217,1454.9877],[-98.0979,17.72,1393.8678],[-98.0959,17.7204,1447.121],[-98.0956,17.7229,1448.5925],[-98.0908,17.7202,1509.4172],[-98.0882,17.7211,1495.0056],[-98.0875,17.7192,1475.5696],[-98.0792,17.7196,1509.1086],[-98.0782,17.7175,1493.3947],[-98.0718,17.7222,1553.8303],[-98.0715,17.7179,1532.2184],[-98.0702,17.7218,1530.1364],[-98.0669,17.7197,1542.7024],[-98.0651,17.7315,1632.2607],[-98.0699,17.7398,1664.1732],[-98.0601,17.7405,1683.0485],[-98.0589,17.744,1670.4221],[-98.0495,17.7416,1588.6149],[-98.0448,17.7422,1640.4894],[-98.0537,17.7524,1493.8995],[-98.0547,17.7559,1469.6992],[-98.061,17.7569,1449.7502],[-98.0646,17.7619,1407.8153],[-98.0687,17.7617,1416.6514],[-98.0718,17.7635,1403.8899],[-98.0738,17.7619,1417.2976],[-98.0728,17.7673,1478.8745],[-98.0696,17.7719,1572.9868],[-98.0783,17.7815,1532.8016],[-98.0953,17.8121,1242.8737],[-98.1158,17.8343,1131.6178],[-98.11,17.8421,1109.3275],[-98.102,17.8488,1180.2292],[-98.0897,17.837,1228.8202],[-98.0823,17.8458,1173.7441],[-98.0843,17.8531,1190.0532],[-98.0826,17.8579,1174.1624],[-98.0783,17.8551,1219.3989],[-98.0724,17.8565,1232.1212],[-98.0711,17.8541,1196.9277],[-98.0684,17.8548,1220.064],[-98.0681,17.8698,1345.7377],[-98.0705,17.8749,1294.0951],[-98.0693,17.8821,1320.549],[-98.0918,17.8907,1237.0518],[-98.1041,17.8933,1121.5261],[-98.1,17.8833,1210.5024],[-98.1084,17.8779,1262.5455],[-98.1138,17.886,1174.6501],[-98.1268,17.8888,1210.1351],[-98.1305,17.8937,1228.7521],[-98.1358,17.8942,1150.5338],[-98.1404,17.891,1110.979],[-98.1419,17.8921,1093.915],[-98.1424,17.8966,1086.7377],[-98.1558,17.8973,1049.9548],[-98.1559,17.8994,1085.4252],[-98.1496,17.9005,1063.1985],[-98.1486,17.9038,1050.4576],[-98.145,17.9064,1032.0159],[-98.1454,17.9091,1052.2014],[-98.1515,17.9049,1058.3468],[-98.1554,17.9059,1108.4449],[-98.1566,17.9148,1201.3962],[-98.1525,17.9179,1187.7095],[-98.1598,17.9266,1316.9596],[-98.1599,17.9254,1301.2505],[-98.1617,17.926,1307.1147],[-98.1616,17.9229,1250.0741],[-98.1649,17.9221,1220.4735],[-98.166,17.9193,1035.0311]]]]}}