{"type": "Feature","bbox": [-101.8462,22.2929,-101.5865,22.5204],"geometry": {"type": "MultiPolygon","coordinates": [[[[-101.7978,22.4701,2108.7241],[-101.8087,22.4402,2136.1458],[-101.8167,22.4073,2173.113],[-101.822,22.4033,2177.4885],[-101.8226,22.4009,2179.7583],[-101.7978,22.3908,2136.6741],[-101.8033,22.3722,2135.6047],[-101.8153,22.3717,2152.9956],[-101.8143,22.3749,2154.7991],[-101.8347,22.3756,2188.1357],[-101.8461,22.3556,2171.1807],[-101.8462,22.3522,2167.5171],[-101.7779,22.3511,2120.3843],[-101.7592,22.3528,2128.2769],[-101.7639,22.3312,2132.5862],[-101.7786,22.2989,2147.3091],[-101.7424,22.294,2156.5605],[-101.7342,22.2929,2165.4663],[-101.733,22.2957,2162.0869],[-101.7264,22.2949,2169.6985],[-101.7254,22.2975,2172.2654],[-101.7241,22.2973,2172.2654],[-101.7244,22.2996,2172.0417],[-101.7202,22.2991,2181.9211],[-101.7192,22.3011,2185.1606],[-101.7067,22.3006,2223.592],[-101.6928,22.3167,2210.877],[-101.6864,22.316,2216.0842],[-101.6862,22.3191,2215.2202],[-101.6803,22.3281,2220.0615],[-101.6788,22.3353,2231.0615],[-101.6461,22.3282,2309.0076],[-101.646,22.324,2309.3743],[-101.6161,22.3219,2437.9165],[-101.615,22.323,2437.2009],[-101.6198,22.3323,2378.6526],[-101.6327,22.3427,2330.7937],[-101.6354,22.3476,2318.9531],[-101.6348,22.3563,2322.9854],[-101.6385,22.356,2317.0068],[-101.6385,22.3585,2316.5425],[-101.6419,22.3621,2305.2922],[-101.6411,22.3675,2296.2944],[-101.6359,22.3669,2305.064],[-101.6368,22.3804,2277.9355],[-101.6393,22.3814,2273.5315],[-101.6262,22.3938,2257.7825],[-101.6242,22.3927,2266.2632],[-101.6265,22.3974,2264.7827],[-101.6251,22.3989,2267.4478],[-101.6294,22.4031,2272.2883],[-101.6257,22.4092,2278.4749],[-101.6214,22.4126,2277.3845],[-101.6108,22.4057,2243.2327],[-101.6052,22.4149,2238.1804],[-101.5865,22.4281,2209.8474],[-101.5917,22.4314,2227.0059],[-101.596,22.4368,2244.5303],[-101.5941,22.437,2245.3635],[-101.6071,22.4445,2293.4204],[-101.619,22.4475,2336.4453],[-101.6271,22.4412,2353.0581],[-101.6336,22.442,2372.3438],[-101.6315,22.4511,2406.7715],[-101.6339,22.4536,2393.0408],[-101.6339,22.4569,2370.5955],[-101.6262,22.4637,2334.416],[-101.6217,22.4727,2296.7563],[-101.6132,22.4798,2271.7563],[-101.627,22.4825,2312.3193],[-101.6373,22.4798,2340.7173],[-101.6425,22.4815,2358.4812],[-101.6461,22.4852,2373.689],[-101.6498,22.4847,2398.1135],[-101.6535,22.4889,2418.0173],[-101.6626,22.4914,2450.5845],[-101.6566,22.4966,2402.9746],[-101.6593,22.5006,2382.4629],[-101.656,22.5138,2329.8979],[-101.6599,22.5053,2375.6895],[-101.6744,22.5065,2374.7886],[-101.6855,22.5116,2355.7017],[-101.688,22.516,2311.8882],[-101.6949,22.5178,2292.4617],[-101.696,22.5204,2275.2954],[-101.7462,22.5087,2132.0906],[-101.7354,22.4802,2183.8164],[-101.7715,22.4882,2103.4468],[-101.7785,22.4849,2101.5066],[-101.7834,22.465,2105.4858],[-101.7978,22.4701,2108.7241]]]]}
,"properties": {"GID_2": "MEX.32.56_2","GID_0": "MEX","country": "México","GID_1": "MEX.32_1","province": "Zacatecas","NL_NAME_1": "NA","county": "VillaHidalgo","VARNAME_2": "NA","NL_NAME_2": "NA","TYPE_2": "Município","ENGTYPE_2": "Municipality","CC_2": "NA","HASC_2": "NA","name": "Villa_Hidalgo.county","area_km2": 376.6797,"hist_schema_id": "Elevation0-9000","hist_area_km2": {"2100": 19.3633,"2125": 62.9833,"2150": 55.995,"2175": 29.5809,"2200": 19.8955,"2225": 20.7794,"2250": 20.2884,"2275": 29.4436,"2300": 27.5801,"2325": 22.1096,"2350": 14.895,"2375": 13.9139,"2400": 10.9146,"2425": 8.1312,"2450": 5.9952,"2475": 4.4277,"2500": 2.6252,"2525": 2.1354,"2550": 1.4693,"2575": 1.4693,"2600": 1.0187,"2625": 0.7444,"2650": 0.6661,"2675": 0.2351,"2700": 0.0196}}}