{"type": "Feature","bbox": [-96.4191,17.3938,-96.3373,17.4576],"geometry": {"type": "MultiPolygon","coordinates": [[[[-96.3752,17.4397,1866.2622],[-96.3772,17.4426,1856.5239],[-96.405,17.4576,2875.8333],[-96.4087,17.4504,2914.8318],[-96.4164,17.443,2879.7007],[-96.4191,17.4371,2879.5259],[-96.41,17.4364,2207.271],[-96.4,17.4316,1814.9808],[-96.3955,17.4195,1532.5642],[-96.3878,17.4158,1448.6448],[-96.3886,17.4132,1482.2029],[-96.3843,17.4126,1280.3154],[-96.3817,17.4078,1264.6035],[-96.3852,17.4065,1264.9513],[-96.3884,17.4091,1394.0671],[-96.3898,17.4067,1400.7048],[-96.3952,17.4072,1420.6388],[-96.4043,17.4102,1558.7626],[-96.407,17.4086,1760.0294],[-96.4096,17.4027,2127.5911],[-96.416,17.4005,2261.0669],[-96.4169,17.3987,2384.6353],[-96.4132,17.3976,2098.2034],[-96.4073,17.3988,1938.22],[-96.3983,17.3959,1730.7498],[-96.3926,17.3968,1567.0809],[-96.3873,17.3938,1443.6123],[-96.3838,17.3941,1408.7843],[-96.3821,17.3981,1299.6227],[-96.3793,17.3951,1344.0862],[-96.3768,17.3979,1206.6665],[-96.3732,17.398,1167.3765],[-96.3739,17.4029,1144.8419],[-96.3698,17.4036,1131.2163],[-96.369,17.4057,1035.6792],[-96.3661,17.4055,1044.7777],[-96.3654,17.4029,1051.3439],[-96.3612,17.401,983.4644],[-96.3591,17.4065,954.4827],[-96.3554,17.4058,920.8045],[-96.3528,17.4086,923.6371],[-96.3486,17.4086,956.6791],[-96.3447,17.4137,843.6838],[-96.3398,17.4158,768.2196],[-96.3373,17.4204,791.1655],[-96.3385,17.4234,953.7986],[-96.3487,17.426,1234.3708],[-96.3552,17.4313,1246.6968],[-96.3752,17.4397,1866.2622]]]]}
,"properties": {"GID_2": "MEX.20.339_2","GID_0": "MEX","country": "México","GID_1": "MEX.20_1","province": "Oaxaca","NL_NAME_1": "NA","county": "SanPedroYaneri","VARNAME_2": "NA","NL_NAME_2": "NA","TYPE_2": "Município","ENGTYPE_2": "Municipality","CC_2": "NA","HASC_2": "NA","name": "San_Pedro_Yaneri.county","area_km2": 28.22007,"hist_schema_id": "Elevation0-9000","hist_area_km2": {"750": 0.02023,"775": 0.06069,"825": 0.08092,"850": 0.02023,"875": 0.08092,"900": 0.16184,"925": 0.18207,"950": 0.18207,"975": 0.18207,"1000": 0.24277,"1025": 0.28323,"1050": 0.28323,"1075": 0.30346,"1100": 0.32369,"1125": 0.24277,"1150": 0.32369,"1175": 0.263,"1200": 0.36415,"1225": 0.32369,"1250": 0.526,"1275": 0.50577,"1300": 0.48553,"1325": 0.44507,"1350": 0.54622,"1375": 0.34391,"1400": 0.72828,"1425": 0.56646,"1450": 0.52599,"1475": 0.50575,"1500": 0.60691,"1525": 0.74851,"1550": 0.52598,"1575": 0.52598,"1600": 0.74852,"1625": 0.66759,"1650": 0.48552,"1675": 0.58666,"1700": 0.68781,"1725": 0.60689,"1750": 0.93057,"1775": 0.32367,"1800": 0.58666,"1825": 0.60687,"1850": 0.62712,"1875": 0.6271,"1900": 0.58665,"1925": 0.44505,"1950": 0.4248,"1975": 0.42482,"2000": 0.50572,"2025": 0.44504,"2050": 0.2832,"2075": 0.34388,"2100": 0.26298,"2125": 0.32365,"2150": 0.30342,"2175": 0.30342,"2200": 0.3641,"2225": 0.24273,"2250": 0.1416,"2275": 0.24274,"2300": 0.2225,"2325": 0.18205,"2350": 0.28318,"2375": 0.14159,"2400": 0.3034,"2425": 0.12136,"2450": 0.18204,"2475": 0.24272,"2500": 0.14159,"2525": 0.14159,"2550": 0.12136,"2575": 0.10114,"2600": 0.10114,"2625": 0.16182,"2650": 0.08091,"2675": 0.10113,"2700": 0.12136,"2725": 0.08091,"2750": 0.16181,"2775": 0.02023,"2800": 0.14159,"2825": 0.12136,"2850": 0.06068,"2875": 0.16181,"2900": 0.06068,"2925": 0.02023}}}