{"type": "Feature","bbox": [-107.8753,28.6456,-107.5442,28.9856],"geometry": {"type": "MultiPolygon","coordinates": [[[[-107.5442,28.8902,1992.6843],[-107.5535,28.8918,1954.2236],[-107.5536,28.8999,1953.0973],[-107.5704,28.8997,1972.5852],[-107.5721,28.916,1956.8586],[-107.5808,28.9109,1966.1536],[-107.5872,28.9182,1973.5376],[-107.5893,28.9229,1988.8265],[-107.5943,28.9273,2004.7925],[-107.5867,28.9292,1986.3074],[-107.5805,28.9347,1972.2898],[-107.5751,28.9366,1959.7728],[-107.5739,28.9425,1958.7957],[-107.5817,28.9444,1978.4734],[-107.594,28.9514,2021.5289],[-107.6054,28.9525,2061.7173],[-107.6076,28.9545,2066.8274],[-107.6298,28.9605,2164.8521],[-107.6343,28.9587,2198.2354],[-107.6394,28.9604,2227.9204],[-107.6447,28.9553,2242.4758],[-107.6556,28.9548,2529.5762],[-107.657,28.9619,2426.6182],[-107.6634,28.97,2322.2056],[-107.6729,28.9748,2259.5681],[-107.6826,28.9761,2219.0132],[-107.6866,28.9748,2195.7527],[-107.7002,28.9751,2177.2163],[-107.7071,28.9769,2146.8281],[-107.7125,28.9805,2133.4807],[-107.7174,28.9796,2107.373],[-107.7211,28.9835,2090.8145],[-107.7275,28.9856,2091.9238],[-107.7331,28.9848,2062.7522],[-107.7362,28.9716,2068.8796],[-107.7463,28.9541,1982.2303],[-107.7548,28.9556,1997.8202],[-107.7556,28.9512,1983.7805],[-107.7608,28.9518,1980.5643],[-107.7611,28.9502,1976.3752],[-107.7664,28.9504,1978.9133],[-107.7665,28.9487,1973.2257],[-107.7739,28.9472,1950.476],[-107.7754,28.944,1951.2478],[-107.7797,28.9435,1936.5602],[-107.7844,28.9392,1937.8245],[-107.788,28.927,1933.4277],[-107.7931,28.9264,1905.9121],[-107.7938,28.9279,1907.6165],[-107.80029999999999,28.9291,1908.5496],[-107.8016,28.9307,1915.599],[-107.795,28.9177,1919.9916],[-107.7856,28.9065,1903.3138],[-107.7773,28.887,1900.7031],[-107.7796,28.8857,1886.2866],[-107.788,28.8896,1883.8396],[-107.7915,28.8935,1895.4368],[-107.7991,28.8947,1914.7289],[-107.8007,28.8924,1923.5383],[-107.8037,28.8928,1928.76],[-107.8105,28.8887,1958.8124],[-107.8119,28.8838,1956.6124],[-107.829,28.8833,1980.478],[-107.8197,28.9122,1922.5833],[-107.8293,28.9148,1934.724],[-107.8753,28.8529,2236.0259],[-107.853,28.8487,2072.5051],[-107.8589,28.8411,2074.0444],[-107.8561,28.8401,2083.603],[-107.8529,28.8287,2063.9895],[-107.8585,28.8249,2099.5601],[-107.8572,28.807,2149.1416],[-107.8614,28.7937,2034.4886],[-107.8588,28.7901,2012.307],[-107.8639,28.786,1981.8695],[-107.8487,28.7493,1919.4246],[-107.8436,28.7286,1999.0691],[-107.8424,28.7283,2006.274],[-107.8321,28.6973,2035.0822],[-107.8332,28.6896,2021.9259],[-107.8315,28.6882,2056.467],[-107.8335,28.6877,2016.8884],[-107.8361,28.6702,1903.429],[-107.8393,28.667,1891.0072],[-107.8384,28.6551,2021.0657],[-107.8095,28.6665,2162.2102],[-107.7767,28.6952,2234.8337],[-107.7789,28.6472,2290.0193],[-107.7739,28.6485,2258.7393],[-107.7652,28.6456,2397.7427],[-107.762,28.6494,2364.3022],[-107.7626,28.6509,2324.0391],[-107.7589,28.647,2317.2366],[-107.7609,28.6456,2317.2366],[-107.7549,28.6456,2291.1658],[-107.7523,28.6468,2265.6787],[-107.7435,28.6707,2451.9265],[-107.6796,28.6988,2038.2209],[-107.669,28.7211,2062.1138],[-107.6543,28.7111,2058.6719],[-107.6555,28.7317,2059.1443],[-107.6534,28.733,2024.384],[-107.6397,28.7267,2027.8564],[-107.6344,28.73,2032.4938],[-107.6383,28.7329,2022.8744],[-107.6311,28.7374,2034.3325],[-107.631,28.7427,2027.3104],[-107.6337,28.7447,2022.5033],[-107.6111,28.7587,2076.1777],[-107.6035,28.795,2149.6504],[-107.5866,28.8025,2405.8599],[-107.5816,28.8344,2390.5894],[-107.5796,28.8642,2010.8893],[-107.5442,28.8902,1992.6843]]]]}
,"properties": {"GID_2": "MEX.6.43_2","GID_0": "MEX","country": "México","GID_1": "MEX.6_1","province": "Chihuahua","NL_NAME_1": "NA","county": "Matachí","VARNAME_2": "NA","NL_NAME_2": "NA","TYPE_2": "Município","ENGTYPE_2": "Municipality","CC_2": "NA","HASC_2": "NA","name": "Matachí.county","area_km2": 727.9849,"hist_schema_id": "Elevation0-9000","hist_area_km2": {"1875": 0.3527,"1900": 25.275,"1925": 41.2729,"1950": 50.3733,"1975": 67.5215,"2000": 72.7313,"2025": 68.3336,"2050": 60.841,"2075": 51.2901,"2100": 45.1194,"2125": 40.3088,"2150": 36.6336,"2175": 32.6179,"2200": 25.5772,"2225": 20.1342,"2250": 17.9051,"2275": 14.7288,"2300": 13.3904,"2325": 10.2143,"2350": 9.1185,"2375": 6.5734,"2400": 4.9942,"2425": 3.9353,"2450": 3.1742,"2475": 1.8748,"2500": 1.1512,"2525": 0.8538,"2550": 0.6123,"2575": 0.4824,"2600": 0.2969,"2625": 0.1484,"2650": 0.1299,"2675": 0.0186}}}