{"type":"Feature","properties":{"GID_2":"MEX.16.10_2","GID_0":"MEX","country":"México","GID_1":"MEX.16_1","province":"Michoacán","NL_NAME_1":"NA","county":"Arteaga","VARNAME_2":"NA","NL_NAME_2":"NA","TYPE_2":"Município","ENGTYPE_2":"Municipality","CC_2":"NA","HASC_2":"NA","name":"Arteaga.county"},
"geometry":{"type": "MultiPolygon","coordinates": [[[[-101.8559,18.5595,155.0],[-101.8612,18.562,168.2118],[-101.868,18.5688,331.2818],[-101.8764,18.6184,221.7849],[-101.88,18.6242,178.6156],[-101.9195,18.6336,167.2353],[-101.9253,18.6373,170.3517],[-101.9267,18.6352,169.1404],[-101.9299,18.6374,189.2809],[-101.9355,18.6367,200.7888],[-101.934,18.6421,204.168],[-101.9368,18.6431,193.764],[-101.9417,18.6503,203.4378],[-101.9512,18.6559,229.6615],[-101.9572,18.6568,238.6183],[-101.9596,18.6535,262.229],[-101.9644,18.6509,245.7523],[-101.9685,18.6505,283.9898],[-101.9688,18.6487,272.9012],[-101.9736,18.6464,289.9872],[-101.9786,18.6473,303.7767],[-101.9859,18.6414,378.0027],[-101.989,18.6446,430.731],[-101.9933,18.6419,526.9665],[-101.9972,18.6419,583.2131],[-101.9989,18.6442,606.9524],[-102.0027,18.6431,739.11],[-102.0082,18.6405,823.0671],[-102.0123,18.634,790.457],[-102.0319,18.6259,1334.1992],[-102.0506,18.6402,1374.4725],[-102.0635,18.6441,1741.6154],[-102.073,18.6541,1436.3485],[-102.0811,18.6581,1382.0707],[-102.0855,18.6654,1308.1462],[-102.0921,18.683,1259.4221],[-102.0956,18.6876,1188.3362],[-102.111,18.6802,656.6508],[-102.119,18.6796,582.8632],[-102.1231,18.6773,571.1148],[-102.1268,18.6794,539.7396],[-102.1284,18.6776,534.5477],[-102.1313,18.6774,518.2744],[-102.1346,18.6826,502.988],[-102.1365,18.6825,504.143],[-102.1379,18.6795,495.676],[-102.1433,18.6797,492.4296],[-102.1445,18.6774,469.0231],[-102.1462,18.6824,458.418],[-102.154,18.685,420.2628],[-102.1576,18.6851,420.2202],[-102.1592,18.6833,429.007],[-102.1607,18.6855,401.2078],[-102.1656,18.6828,451.835],[-102.178,18.6824,773.347],[-102.1816,18.6787,994.1295],[-102.1831,18.6702,1005.1901],[-102.1867,18.6645,898.5484],[-102.1736,18.6508,818.7098],[-102.1676,18.6379,1121.7065],[-102.1668,18.6324,1206.5691],[-102.1715,18.6285,1054.8503],[-102.1818,18.6306,951.2272],[-102.1867,18.6261,733.3527],[-102.2018,18.6294,594.5574],[-102.2037,18.6232,742.1838],[-102.2085,18.6215,865.1663],[-102.2136,18.6266,576.321],[-102.2171,18.6261,591.7336],[-102.2193,18.6233,624.5299],[-102.2193,18.617,679.1351],[-102.2247,18.6141,714.6195],[-102.225,18.6023,869.7124],[-102.2296,18.5929,1243.6787],[-102.2451,18.5943,870.203],[-102.2503,18.592,817.9659],[-102.2558,18.5961,674.9721],[-102.263,18.5961,611.452],[-102.2638,18.5983,621.4946],[-102.2659,18.5986,579.051],[-102.2654,18.5935,586.9595],[-102.2678,18.5916,596.6603],[-102.2684,18.586,612.7815],[-102.2708,18.5851,609.3626],[-102.2717,18.5822,632.7916],[-102.2733,18.5828,699.5596],[-102.2742,18.5789,640.4555],[-102.2767,18.5791,659.8559],[-102.2761,18.5769,678.4043],[-102.2812,18.5751,758.9843],[-102.2834,18.5689,788.9159],[-102.2827,18.5649,778.2574],[-102.2868,18.5664,797.8102],[-102.2854,18.5629,838.0957],[-102.2872,18.561,857.9816],[-102.2865,18.5557,919.5907],[-102.2814,18.5517,1046.9232],[-102.2811,18.5481,1236.8571],[-102.2697,18.5321,1399.1],[-102.2767,18.5264,1195.0753],[-102.2758,18.5173,1065.863],[-102.2779,18.5127,1018.8002],[-102.2894,18.5121,1450.1354],[-102.2853,18.5083,1264.3521],[-102.2856,18.5064,1280.3199],[-102.2811,18.4996,1307.9077],[-102.283,18.4911,1316.885],[-102.2867,18.4904,1271.6504],[-102.2902,18.4875,1350.1057],[-102.2913,18.484,1299.1967],[-102.2985,18.4838,1352.6454],[-102.3121,18.4946,1047.562],[-102.3134,18.4945,1047.562],[-102.3142,18.4913,1048.9062],[-102.3177,18.4949,1038.6846],[-102.3172,18.4931,1025.1451],[-102.3191,18.4915,1036.4642],[-102.3204,18.493,1021.1891],[-102.322,18.4917,1037.2748],[-102.3228,18.4934,999.9967],[-102.3254,18.4916,1032.0581],[-102.328,18.4921,1005.431],[-102.3273,18.4907,991.7413],[-102.3306,18.4879,1001.3485],[-102.3291,18.4877,984.9663],[-102.3289,18.4854,999.4385],[-102.3312,18.4871,1001.3485],[-102.3306,18.4841,976.5319],[-102.3342,18.4842,976.4294],[-102.3375,18.4807,992.1414],[-102.3356,18.4766,967.8984],[-102.3389,18.4785,957.2164],[-102.3402,18.4764,980.5225],[-102.3453,18.4762,976.3707],[-102.3421,18.4726,982.6205],[-102.3453,18.4717,971.2178],[-102.3444,18.4684,949.1194],[-102.3476,18.4676,955.1003],[-102.3469,18.466,933.245],[-102.3457,18.4666,933.245],[-102.3462,18.4631,945.1057],[-102.3443,18.4625,940.4972],[-102.3429,18.464,991.1683],[-102.3414,18.4617,933.3825],[-102.3426,18.4536,946.8835],[-102.345,18.4498,958.4991],[-102.3418,18.4442,872.7172],[-102.3468,18.4428,847.9938],[-102.35,18.4389,844.6945],[-102.355,18.44,823.6268],[-102.3539,18.4379,839.3712],[-102.3502,18.4363,824.7656],[-102.3507,18.4331,815.6201],[-102.3447,18.4285,799.9988],[-102.3451,18.4264,798.0747],[-102.3487,18.4248,794.1462],[-102.3495,18.4212,803.222],[-102.3482,18.4185,800.8229],[-102.3688,18.4081,797.123],[-102.372,18.4092,833.5767],[-102.3744,18.4028,735.1379],[-102.3774,18.407,839.0101],[-102.3818,18.4068,754.5452],[-102.3947,18.4162,760.2415],[-102.3995,18.4113,992.5161],[-102.3982,18.4072,1099.1433],[-102.4041,18.3998,1556.613],[-102.4215,18.401,1635.7174],[-102.4392,18.405,1663.8727],[-102.4559,18.4044,1571.8136],[-102.4577,18.4028,1518.438],[-102.4565,18.3986,1420.1886],[-102.4582,18.3959,1387.9636],[-102.476,18.393,1098.7942],[-102.4793,18.3893,1079.2025],[-102.4794,18.3855,1061.6503],[-102.4833,18.3836,1069.8251],[-102.484,18.3752,871.7728],[-102.4866,18.3705,797.8367],[-102.4901,18.3691,755.386],[-102.4904,18.3633,742.3126],[-102.494,18.3596,663.6614],[-102.4961,18.3601,655.6561],[-102.4976,18.358,648.3281],[-102.4968,18.3552,654.3736],[-102.5013,18.3531,639.6006],[-102.5011,18.3504,696.8977],[-102.5049,18.3504,600.314],[-102.5024,18.3455,581.532],[-102.4998,18.3458,587.6982],[-102.4955,18.3396,534.6142],[-102.4986,18.3287,553.1478],[-102.506,18.3225,473.9694],[-102.5124,18.3211,574.2812],[-102.5149,18.322,596.9943],[-102.5153,18.3245,612.1396],[-102.5182,18.3239,620.7067],[-102.5195,18.3257,638.8088],[-102.5233,18.3249,663.3356],[-102.5243,18.3281,680.7184],[-102.5317,18.3296,738.1078],[-102.535,18.3331,788.6185],[-102.535,18.3362,825.8286],[-102.5397,18.3379,865.3812],[-102.5374,18.341,901.0748],[-102.5394,18.3443,913.6873],[-102.5409,18.3433,935.5989],[-102.5461,18.3464,1013.2691],[-102.5512,18.3441,1107.2507],[-102.5562,18.3447,1190.3853],[-102.5547,18.3426,1190.2859],[-102.5606,18.3428,1237.0785],[-102.5679,18.339,1094.8829],[-102.5724,18.3396,1003.8864],[-102.5762,18.3368,949.8466],[-102.5802,18.3375,893.0455],[-102.5865,18.3323,805.1942],[-102.5882,18.3333,786.8724],[-102.5898,18.3318,773.4246],[-102.5927,18.3323,737.7849],[-102.5969,18.3351,736.567],[-102.5935,18.3365,756.9783],[-102.5953,18.3458,840.5533],[-102.5973,18.3455,839.562],[-102.6022,18.3493,908.6553],[-102.6054,18.348,947.8848],[-102.6099,18.3488,1110.917],[-102.615,18.3523,1247.9333],[-102.6247,18.3501,1292.7169],[-102.6329,18.346,1079.3431],[-102.639,18.3423,948.6661],[-102.6407,18.3391,901.8232],[-102.6486,18.3391,799.7091],[-102.657,18.3431,715.377],[-102.6592,18.3405,698.3132],[-102.6615,18.3411,675.2206],[-102.6613,18.3386,653.9819],[-102.6627,18.3401,628.1558],[-102.6638,18.3374,639.1171],[-102.669,18.3356,550.8801],[-102.6701,18.3376,541.3457],[-102.6717,18.3368,590.8036],[-102.6725,18.3407,533.3561],[-102.6745,18.3414,538.6432],[-102.6751,18.3452,529.5707],[-102.6767,18.3449,555.0129],[-102.6778,18.3479,530.7631],[-102.6817,18.3479,514.916],[-102.6802,18.3532,578.2586],[-102.6824,18.3616,646.1038],[-102.6864,18.3623,781.9344],[-102.6919,18.3673,1080.6716],[-102.708,18.3726,492.7256],[-102.7164,18.3718,604.5445],[-102.7241,18.3804,872.7435],[-102.7286,18.3781,1054.2227],[-102.745,18.3902,616.1597],[-102.7471,18.3867,505.2314],[-102.7525,18.3857,486.2327],[-102.7523,18.3874,504.9297],[-102.7559,18.3875,459.8676],[-102.7585,18.3904,470.6504],[-102.7612,18.3905,479.0099],[-102.7618,18.3874,433.0739],[-102.7653,18.386,451.5132],[-102.7668,18.383,379.6677],[-102.7699,18.3827,364.8152],[-102.7717,18.3795,330.1088],[-102.776,18.3807,325.7063],[-102.7784,18.3861,382.7692],[-102.781,18.3846,394.3257],[-102.7815,18.388,395.2759],[-102.7862,18.3888,410.9764],[-102.7891,18.3928,444.3155],[-102.7936,18.39,473.5283],[-102.7981,18.3934,469.4836],[-102.8012,18.3912,482.5413],[-102.8021,18.3962,521.639],[-102.8042,18.3961,518.4586],[-102.8066,18.3984,529.7243],[-102.8108,18.3972,548.2805],[-102.8161,18.4001,573.7924],[-102.8222,18.3978,686.8894],[-102.8245,18.4058,687.3914],[-102.836,18.4037,768.7205],[-102.8388,18.3914,910.8658],[-102.843,18.3917,1043.7457],[-102.845,18.3881,1048.6257],[-102.8443,18.3867,1044.0383],[-102.8466,18.3863,1034.9586],[-102.8474,18.383,1081.6722],[-102.8491,18.3825,1099.7517],[-102.8482,18.3799,1156.0951],[-102.8497,18.3766,1265.105],[-102.8551,18.3743,1254.5239],[-102.8574,18.3469,1090.5355],[-102.8603,18.3412,1000.721],[-102.8657,18.3395,908.6396],[-102.8558,18.3339,1095.3748],[-102.8516,18.3289,1045.9952],[-102.8508,18.3264,1011.8799],[-102.8532,18.3246,1031.9675],[-102.8506,18.3211,891.0058],[-102.8515,18.3177,867.3298],[-102.8498,18.3121,686.7914],[-102.8467,18.3141,726.8293],[-102.8412,18.3136,904.0857],[-102.8326,18.3156,1258.4938],[-102.8228,18.3057,886.3482],[-102.8145,18.3022,696.6496],[-102.8062,18.3019,580.7263],[-102.8021,18.3036,556.2013],[-102.7976,18.3082,517.9445],[-102.794,18.3079,500.8326],[-102.792,18.3103,493.0657],[-102.7899,18.3058,501.9926],[-102.7874,18.3042,437.4706],[-102.7863,18.3051,429.331],[-102.784,18.3036,445.9044],[-102.7792,18.3071,433.7373],[-102.7757,18.303,392.0436],[-102.7737,18.3071,398.0807],[-102.77,18.3093,391.2021],[-102.7685,18.3148,357.2515],[-102.7666,18.3141,358.02],[-102.7664,18.3121,330.2201],[-102.7631,18.3126,330.2675],[-102.7632,18.3071,253.4965],[-102.7599,18.3078,249.1236],[-102.7576,18.3107,248.7296],[-102.7549,18.3097,243.5259],[-102.7541,18.307,211.4094],[-102.7576,18.304,216.3374],[-102.7572,18.2991,213.5145],[-102.7549,18.2966,242.2435],[-102.7504,18.2959,196.1649],[-102.7491,18.2932,203.8273],[-102.7561,18.2859,188.5368],[-102.7495,18.2825,175.8199],[-102.7545,18.2798,279.9395],[-102.7549,18.2769,329.6225],[-102.7531,18.2751,199.8539],[-102.7465,18.2757,174.4018],[-102.7451,18.273,186.3513],[-102.7476,18.2703,200.1259],[-102.7528,18.2707,206.2769],[-102.7536,18.2682,149.0483],[-102.7499,18.2661,155.1662],[-102.7405,18.2703,163.0931],[-102.7378,18.2679,198.6588],[-102.7428,18.2564,158.9765],[-102.7426,18.2499,128.4201],[-102.7453,18.2467,120.0169],[-102.7431,18.2441,130.77],[-102.7446,18.2376,126.1358],[-102.7473,18.2376,117.4847],[-102.7526,18.2419,117.1858],[-102.7597,18.2402,130.1479],[-102.7607,18.2449,116.4046],[-102.7625,18.2455,115.2295],[-102.7654,18.2417,116.7621],[-102.7624,18.2375,132.8654],[-102.7629,18.2348,100.2577],[-102.7714,18.2354,95.5006],[-102.7756,18.2319,127.1503],[-102.7792,18.2336,85.663],[-102.7827,18.2263,82.4178],[-102.7902,18.2255,123.1762],[-102.7921,18.2218,94.1482],[-102.7923,18.2165,106.1783],[-102.7895,18.2089,121.7177],[-102.7914,18.2067,61.6979],[-102.797,18.2057,61.9416],[-102.8,18.1988,125.7822],[-102.7887,18.19,61.024],[-102.7904,18.1851,73.9948],[-102.7869,18.1814,43.8407],[-102.7885,18.179,41.7755],[-102.7938,18.1782,62.466],[-102.7912,18.172,34.5327],[-102.793,18.1633,31.0573],[-102.7874,18.1577,28.3254],[-102.7846,18.1518,37.7729],[-102.7746,18.1458,436.4133],[-102.7681,18.1439,292.2691],[-102.769,18.1421,286.0713],[-102.7673,18.1426,277.8656],[-102.7669,18.1407,270.2214],[-102.7682,18.1362,241.7274],[-102.7555,18.1389,270.7686],[-102.7554,18.1412,231.2492],[-102.7524,18.1419,219.0349],[-102.7526,18.146,220.0821],[-102.754,18.1463,220.0821],[-102.7482,18.1539,278.6287],[-102.7349,18.1506,297.2427],[-102.7132,18.1546,157.7465],[-102.7082,18.1598,205.2789],[-102.6996,18.1528,305.2926],[-102.6986,18.1474,229.332],[-102.7001,18.1455,209.1431],[-102.6998,18.1402,176.5492],[-102.7022,18.1376,163.2233],[-102.7035,18.1387,148.6034],[-102.7045,18.1375,148.6034],[-102.7048,18.1341,125.0994],[-102.7101,18.1273,75.6827],[-102.6917,18.1249,156.057],[-102.6738,18.1194,246.3554],[-102.6664,18.1114,95.4333],[-102.6635,18.1114,48.9563],[-102.662,18.1082,76.8202],[-102.6578,18.1083,43.603],[-102.6566,18.1051,39.5959],[-102.6552,18.1083,62.7808],[-102.6504,18.1103,125.6177],[-102.6453,18.1111,304.0467],[-102.6408,18.109,401.3814],[-102.6398,18.1165,403.4024],[-102.6303,18.1191,122.4209],[-102.6386,18.1361,301.9921],[-102.63,18.1385,402.9931],[-102.6271,18.1415,401.2761],[-102.6278,18.1437,404.4178],[-102.6235,18.1455,281.0319],[-102.6199,18.1451,235.1273],[-102.617,18.1505,373.4322],[-102.6119,18.1503,493.5507],[-102.6068,18.153,556.4169],[-102.6057,18.1629,616.8535],[-102.6025,18.1613,495.7281],[-102.5979,18.1538,341.6243],[-102.5931,18.1569,424.2375],[-102.5842,18.1577,544.9169],[-102.5819,18.1601,595.1984],[-102.5817,18.1562,590.3576],[-102.5842,18.1539,624.748],[-102.5848,18.1506,673.3677],[-102.5803,18.1488,554.7853],[-102.5751,18.1369,341.5371],[-102.5778,18.1216,206.4559],[-102.5761,18.119,224.1897],[-102.562,18.1164,47.5361],[-102.5615,18.1187,25.9452],[-102.5645,18.12,37.8702],[-102.5621,18.1249,129.6237],[-102.547,18.1256,447.6393],[-102.5385,18.1331,546.1342],[-102.5319,18.1314,507.0879],[-102.5265,18.1256,486.4294],[-102.5255,18.1181,602.0919],[-102.5221,18.1138,540.1152],[-102.5192,18.1135,469.2586],[-102.5192,18.1102,397.5287],[-102.5223,18.1045,334.5399],[-102.521,18.103,302.4706],[-102.522,18.1,290.4966],[-102.5153,18.0929,155.949],[-102.517,18.0902,91.9037],[-102.5145,18.0885,100.6802],[-102.5132,18.0885,114.7466],[-102.5136,18.0906,107.3875],[-102.5075,18.0908,113.2115],[-102.5057,18.093,107.3542],[-102.5085,18.0951,199.9046],[-102.5075,18.0988,318.9919],[-102.5051,18.0984,267.354],[-102.4984,18.0906,113.2102],[-102.4913,18.0923,148.1824],[-102.4881,18.095,155.162],[-102.485,18.0939,169.596],[-102.4851,18.0958,201.463],[-102.4829,18.0947,174.3871],[-102.4806,18.097,213.6338],[-102.4732,18.0981,269.6151],[-102.4717,18.0999,277.0005],[-102.4621,18.0981,480.9769],[-102.4579,18.1029,228.3753],[-102.4466,18.0998,165.1827],[-102.4494,18.1048,221.2883],[-102.4471,18.1123,449.6024],[-102.4482,18.1159,583.6079],[-102.4296,18.1186,192.3902],[-102.4267,18.1203,201.5584],[-102.4231,18.1186,236.3351],[-102.4205,18.1222,225.7941],[-102.4191,18.1301,235.661],[-102.4243,18.1333,253.2858],[-102.4229,18.1381,267.0071],[-102.4202,18.14,299.0709],[-102.4232,18.1439,286.8772],[-102.4278,18.1429,274.0001],[-102.4339,18.1468,324.3458],[-102.4314,18.1529,399.4537],[-102.4326,18.1607,486.9699],[-102.4307,18.1643,536.6979],[-102.4222,18.1668,586.2289],[-102.4193,18.1654,519.0189],[-102.4204,18.164,519.0189],[-102.4194,18.1629,527.2111],[-102.4103,18.1647,519.0256],[-102.3996,18.1608,475.1331],[-102.3861,18.1644,506.5197],[-102.3873,18.1689,631.0705],[-102.3854,18.1719,621.4529],[-102.3861,18.1753,641.9676],[-102.3808,18.169,525.9786],[-102.3783,18.1706,576.3998],[-102.3672,18.1711,565.8849],[-102.3643,18.1691,512.0078],[-102.3565,18.1746,427.5092],[-102.3279,18.178,428.9501],[-102.326,18.1832,564.6905],[-102.3277,18.1861,637.2791],[-102.3261,18.2019,657.2693],[-102.3331,18.2082,719.3851],[-102.3297,18.2128,710.4279],[-102.3337,18.2212,723.9254],[-102.3126,18.2317,776.4974],[-102.3041,18.2318,428.3178],[-102.302,18.2301,342.1068],[-102.2986,18.2323,359.907],[-102.2893,18.2329,430.9357],[-102.2842,18.2294,579.0891],[-102.2815,18.2291,621.9188],[-102.2799,18.2309,672.8757],[-102.2777,18.2196,415.4017],[-102.2771,18.2207,414.9986],[-102.2726,18.2166,525.4407],[-102.269,18.2165,535.0931],[-102.2675,18.2136,592.4652],[-102.2641,18.2146,628.6182],[-102.2602,18.2122,681.2111],[-102.2546,18.2171,699.6686],[-102.2456,18.2202,661.5903],[-102.2481,18.2227,680.091],[-102.2511,18.2231,722.1346],[-102.2505,18.2258,704.5624],[-102.2543,18.2277,708.9528],[-102.2575,18.2388,738.8901],[-102.2563,18.2402,737.6809],[-102.2583,18.2435,760.3137],[-102.258,18.2466,805.7908],[-102.2597,18.2478,821.9245],[-102.2573,18.25,835.8736],[-102.2479,18.2496,849.0671],[-102.2362,18.2465,862.7213],[-102.2344,18.2482,857.9523],[-102.2218,18.2424,820.2518],[-102.2191,18.2436,799.3821],[-102.2186,18.2492,729.7581],[-102.2083,18.2474,709.9747],[-102.2081,18.2463,697.6836],[-102.2053,18.2489,702.7197],[-102.2005,18.2473,733.9226],[-102.2,18.2452,696.5282],[-102.1963,18.2471,742.4303],[-102.1952,18.2443,735.7909],[-102.1926,18.2436,679.7292],[-102.1783,18.2442,502.0685],[-102.1766,18.2418,539.2016],[-102.1611,18.2383,395.5646],[-102.1593,18.2359,396.4543],[-102.156,18.2354,431.9122],[-102.1538,18.2371,375.594],[-102.1356,18.2419,214.4966],[-102.1334,18.2384,236.4296],[-102.1291,18.2377,187.8239],[-102.1276,18.2399,163.3257],[-102.1218,18.2386,168.419],[-102.1187,18.2334,172.7011],[-102.115,18.2375,173.3322],[-102.1139,18.2285,140.5288],[-102.1107,18.2251,144.0673],[-102.1137,18.2245,143.9861],[-102.1135,18.2214,153.972],[-102.1152,18.2195,128.4787],[-102.1179,18.2241,132.6396],[-102.1196,18.2238,147.0343],[-102.1198,18.2212,123.2863],[-102.1165,18.215699999999998,113.0082],[-102.1183,18.2108,97.7392],[-102.117,18.2076,113.7519],[-102.1217,18.2059,99.5715],[-102.1284,18.2084,78.2071],[-102.1307,18.2056,89.0739],[-102.1295,18.204,65.2245],[-102.1196,18.2009,51.0],[-102.1236,18.1984,66.962],[-102.1253,18.1952,56.0598],[-102.1304,18.1927,51.0],[-102.1311,18.1889,51.0],[-102.1197,18.1864,51.0],[-102.1104,18.1906,69.8519],[-102.0941,18.1949,51.0],[-102.0724,18.1935,51.0],[-102.0562,18.1955,67.0527],[-102.0477,18.2001,51.0],[-102.0423,18.2065,57.8599],[-102.0387,18.2082,51.0],[-102.0308,18.2085,51.0],[-102.0191,18.2021,51.0],[-102.0105,18.2048,51.0],[-101.9999,18.2025,51.0],[-101.9781,18.2073,55.9917],[-101.9751,18.2091,58.0675],[-101.9737,18.212,74.518],[-101.9778,18.2272,60.6074],[-101.9734,18.2323,59.4972],[-101.9697,18.2331,51.0],[-101.9506,18.2278,51.0],[-101.9369,18.2326,51.0],[-101.928,18.2316,58.4479],[-101.9201,18.2407,52.3506],[-101.9109,18.2421,70.3005],[-101.9066,18.2448,52.3364],[-101.9046,18.2479,79.8716],[-101.9071,18.2612,58.6101],[-101.8968,18.2771,62.0494],[-101.883,18.2624,156.5],[-101.8705,18.2597,155.5],[-101.8637,18.2612,155.0],[-101.8629,18.2657,155.0],[-101.8761,18.2708,155.0],[-101.8829,18.2779,155.0],[-101.8813,18.2802,155.0],[-101.8648,18.2857,155.0],[-101.862,18.2884,155.0],[-101.8671,18.2956,155.0],[-101.8702,18.3083,155.0],[-101.8672,18.3114,155.0],[-101.8573,18.3123,155.0],[-101.8558,18.315,155.0],[-101.8611,18.3225,155.0],[-101.8682,18.3271,155.0],[-101.8708,18.3318,155.0],[-101.8624,18.341,155.0],[-101.8614,18.3558,155.0],[-101.8741,18.3683,155.0],[-101.8748,18.3711,155.0],[-101.8713,18.3771,155.0],[-101.873,18.3843,155.0],[-101.8875,18.3967,155.0],[-101.8894,18.4031,155.0],[-101.887,18.4121,155.0],[-101.8782,18.4246,155.0],[-101.8738,18.4375,155.0],[-101.8617,18.4449,155.0],[-101.8604,18.4474,155.0],[-101.8865,18.4772,155.0],[-101.8883,18.4834,155.0],[-101.889,18.499,155.0],[-101.8816,18.5362,155.0],[-101.8774,18.5408,155.0],[-101.8593,18.5529,155.0],[-101.8559,18.5595,155.0]]]]}}