{"type": "Feature","bbox": [-92.5587,15.9013,-92.1584,16.302],"geometry": {"type": "MultiPolygon","coordinates": [[[[-92.1835,15.9013,525.9429],[-92.1746,15.908,525.1019],[-92.1771,15.9078,527.2178],[-92.1772,15.9128,527.5363],[-92.1786,15.9138,526.9329],[-92.1767,15.9165,522.0],[-92.1783,15.9213,526.8303],[-92.18,15.9222,524.1521],[-92.1749,15.9268,527.7092],[-92.1706,15.9243,532.8436],[-92.1702,15.9255,525.0976],[-92.169,15.9235,535.0582],[-92.1679,15.9249,529.0108],[-92.1626,15.9203,533.2466],[-92.1605,15.9204,530.3959],[-92.1593,15.9179,535.8345],[-92.1584,15.922,539.2882],[-92.1694,15.9334,523.0306],[-92.1706,15.9338,532.2568],[-92.172,15.9317,524.895],[-92.1755,15.932,523.0106],[-92.177,15.9344,521.1341],[-92.1748,15.9342,528.1217],[-92.1752,15.936,540.3967],[-92.1775,15.9363,525.9855],[-92.1777,15.9397,534.4734],[-92.1809,15.9397,521.5891],[-92.181,15.9421,546.0179],[-92.183,15.9409,523.579],[-92.187,15.9422,525.6689],[-92.1874,15.9474,562.6537],[-92.192,15.9484,525.1954],[-92.1967,15.9541,532.1174],[-92.2263,15.9651,522.0796],[-92.2243,15.9879,608.2328],[-92.2211,15.9886,600.3502],[-92.2247,15.991,601.4153],[-92.226,15.99,604.0402],[-92.237,15.9991,609.5546],[-92.2389,15.9847,648.6525],[-92.2406,15.9834,635.2186],[-92.2426,15.9738,552.7396],[-92.2474,15.9754,518.0],[-92.2718,15.9883,524.5765],[-92.2755,15.9961,558.521],[-92.278,15.9949,520.2692],[-92.2784,15.9975,555.6536],[-92.2804,15.9966,523.7861],[-92.2875,15.9996,520.8189],[-92.2912,16.0047,537.4086],[-92.2834,16.0099,602.2054],[-92.2854,16.0141,619.9025],[-92.2947,16.013,595.668],[-92.2939,16.0096,561.434],[-92.2975,16.0079,518.0],[-92.302,16.0097,518.0],[-92.3178,16.0213,518.0],[-92.3271,16.0316,518.0],[-92.3276,16.0332,518.0],[-92.324,16.0359,547.8359],[-92.3222,16.0531,734.3401],[-92.3324,16.0621,738.4825],[-92.3233,16.0669,721.6951],[-92.3265,16.069,746.2945],[-92.3274,16.068,752.3925],[-92.3314,16.0721,747.4158],[-92.3272,16.0769,742.9126],[-92.3307,16.0784,724.4485],[-92.3157,16.0967,676.7801],[-92.3125,16.0983,666.3309],[-92.3179,16.1055,650.0671],[-92.3159,16.1112,651.9006],[-92.3086,16.1089,652.9932],[-92.2988,16.1112,674.873],[-92.2911,16.1103,688.3456],[-92.2819,16.1149,678.4114],[-92.2752,16.1212,645.1132],[-92.2745,16.1239,645.7716],[-92.2755,16.1265,652.0191],[-92.2935,16.1374,666.0527],[-92.3033,16.1452,693.2045],[-92.3103,16.1479,631.9298],[-92.3322,16.1485,617.5181],[-92.3312,16.151,611.0878],[-92.333,16.1526,610.8848],[-92.3248,16.1614,608.7449],[-92.3258,16.1617,608.4357],[-92.3214,16.1638,610.2391],[-92.3259,16.1661,609.0652],[-92.3289,16.1694,608.2059],[-92.3265,16.1701,608.6625],[-92.3297,16.1704,608.2059],[-92.3351,16.1762,607.8813],[-92.3246,16.1736,609.3923],[-92.3183,16.1794,612.043],[-92.3169,16.1829,612.7277],[-92.3141,16.1831,613.2907],[-92.3088,16.1867,615.5243],[-92.305,16.1853,616.653],[-92.3023,16.1868,617.311],[-92.2935,16.1834,621.3691],[-92.2864,16.1848,627.6636],[-92.2862,16.1927,670.3279],[-92.2839,16.1965,760.5727],[-92.2772,16.1988,901.9172],[-92.2782,16.2021,1049.7319],[-92.3072,16.2258,1147.4452],[-92.3104,16.2381,1223.6637],[-92.3107,16.2489,1194.901],[-92.3094,16.252,1205.1504],[-92.301,16.2593,1370.8094],[-92.3055,16.27,1381.4705],[-92.3141,16.2814,1345.2141],[-92.3225,16.2808,1290.8347],[-92.3292,16.2774,1191.2466],[-92.3337,16.2772,1207.2554],[-92.3444,16.2804,1193.299],[-92.347,16.2791,1193.7698],[-92.3496,16.2812,1195.1722],[-92.356,16.277,965.9446],[-92.3605,16.2956,1158.3717],[-92.3606,16.302,1204.226],[-92.3643,16.302,1130.598],[-92.3692,16.2831,1004.6616],[-92.3717,16.2789,970.1255],[-92.3941,16.2609,789.1163],[-92.3918,16.2598,786.4565],[-92.3922,16.2509,752.1564],[-92.4,16.2495,734.9664],[-92.4012,16.255,757.1555],[-92.407,16.2509,723.729],[-92.4014,16.2596,779.152],[-92.4129,16.2638,770.8019],[-92.4199,16.254,689.5453],[-92.4184,16.252,684.2731],[-92.4273,16.2388,601.6011],[-92.4293,16.2404,600.7811],[-92.4511,16.2114,588.7791],[-92.4591,16.2092,588.6495],[-92.4709,16.2111,586.3572],[-92.4683,16.189,716.2264],[-92.4685,16.1786,790.5056],[-92.4625,16.1656,742.6974],[-92.4712,16.164,746.9503],[-92.469,16.1604,757.175],[-92.4713,16.161,754.1204],[-92.4806,16.1728,775.5909],[-92.4819,16.1344,656.3492],[-92.4914,16.1342,637.1482],[-92.497,16.1325,633.4689],[-92.5047,16.1335,633.4998],[-92.51,16.1253,613.5042],[-92.523,16.1273,568.1005],[-92.5274,16.12,518.0],[-92.5331,16.1205,518.0],[-92.5374,16.1169,518.0],[-92.5585,16.1107,518.0],[-92.5587,16.107,531.5417],[-92.5553,16.1043,518.0],[-92.5521,16.0978,521.949],[-92.5473,16.093,535.8748],[-92.545,16.0928,518.0],[-92.5418,16.0821,520.5433],[-92.5378,16.0759,582.7344],[-92.5236,16.0644,592.999],[-92.513,16.0624,518.0],[-92.5123,16.0596,521.2009],[-92.5069,16.0603,541.527],[-92.5025,16.0557,518.0],[-92.4873,16.0508,518.0],[-92.4852,16.0475,518.0],[-92.4822,16.0466,518.0],[-92.4816,16.0423,518.0],[-92.4787,16.0399,531.7451],[-92.4774,16.0409,518.0],[-92.4746,16.0383,525.7423],[-92.4685,16.0384,518.0],[-92.4687,16.0355,523.8322],[-92.4661,16.0349,523.8256],[-92.4556,16.0362,518.8893],[-92.4543,16.0417,518.0],[-92.4535,16.0384,518.0],[-92.4502,16.0394,518.0],[-92.4473,16.0345,518.0],[-92.4424,16.0339,518.0],[-92.4396,16.031,518.0],[-92.4321,16.029,518.0],[-92.428,16.0155,518.0],[-92.4237,16.0157,518.0],[-92.4234,16.0182,518.0],[-92.4219,16.0185,518.0],[-92.4181,16.0139,518.0],[-92.4192,16.0137,518.554],[-92.4188,16.0114,521.3097],[-92.4163,16.0142,518.0],[-92.4088,16.0071,518.0],[-92.4051,16.0116,518.0],[-92.401,16.0101,518.0],[-92.3995,16.0069,519.0168],[-92.3927,16.007,518.9297],[-92.3936,16.006,518.9297],[-92.3887,16.008,518.0],[-92.3857,16.0063,520.1357],[-92.3826,16.0092,518.0],[-92.3817,16.005,522.7086],[-92.375,16.0023,522.2966],[-92.3714,16.0017,523.724],[-92.3699,16.003,520.4958],[-92.3636,16.0012,522.1853],[-92.3632,15.998,528.6564],[-92.3581,15.9968,518.0],[-92.3563,15.9913,520.5666],[-92.3524,15.9894,518.0],[-92.3504,15.9933,518.0],[-92.3448,15.9968,518.0],[-92.3408,15.9933,518.0],[-92.3421,15.9907,518.0],[-92.3447,15.9914,518.0],[-92.3414,15.9892,518.0],[-92.3426,15.987,520.1108],[-92.3421,15.9872,518.9345],[-92.3401,15.9898,518.9252],[-92.3362,15.9912,518.0],[-92.3317,15.9905,518.0],[-92.3311,15.9879,518.0],[-92.3294,15.9893,518.0],[-92.3284,15.9877,518.0],[-92.3307,15.9811,528.2061],[-92.3257,15.9778,533.1492],[-92.3279,15.9751,534.5092],[-92.325,15.9688,538.8713],[-92.3325,15.9635,567.8958],[-92.3306,15.9626,560.4185],[-92.3239,15.9657,544.726],[-92.3233,15.964,547.3563],[-92.3209,15.964,546.2092],[-92.3178,15.9682,537.8146],[-92.311,15.9691,530.9865],[-92.311,15.9678,534.3145],[-92.3103,15.9691,530.9865],[-92.3083,15.967,536.7451],[-92.2982,15.9703,518.0],[-92.2955,15.9653,521.363],[-92.2985,15.9609,525.2716],[-92.3051,15.9574,540.3156],[-92.3064,15.9622,539.0508],[-92.3199,15.96,552.8004],[-92.3271,15.9605,555.9299],[-92.3352,15.9544,602.6084],[-92.338,15.9471,623.0134],[-92.3404,15.9476,631.7474],[-92.3414,15.9455,630.7653],[-92.3363,15.943,636.4291],[-92.3339,15.9387,641.2305],[-92.3217,15.9495,604.1453],[-92.317,15.9419,602.9817],[-92.3142,15.9447,578.1487],[-92.3082,15.9358,568.342],[-92.3023,15.9379,559.6556],[-92.3056,15.9435,558.7087],[-92.3019,15.9447,553.7994],[-92.3015,15.9433,553.5018],[-92.2982,15.9457,544.7833],[-92.2975,15.9446,546.121],[-92.3028,15.9342,565.7179],[-92.300299999999993,15.9312,568.4655],[-92.2853,15.9216,576.4509],[-92.2687,15.9329,549.8254],[-92.2593,15.9243,553.262],[-92.2562,15.925,557.8679],[-92.2501,15.9311,536.1623],[-92.2462,15.9259,531.0726],[-92.2434,15.9262,535.5868],[-92.2413,15.9303,520.87],[-92.2404,15.9264,527.3168],[-92.2358,15.9276,527.085],[-92.2305,15.9244,547.2605],[-92.2308,15.9296,528.6963],[-92.2284,15.9317,527.5524],[-92.2253,15.9314,526.7426],[-92.2222,15.926,546.0336],[-92.2172,15.9239,554.3851],[-92.2135,15.9278,534.295],[-92.2078,15.9281,530.8954],[-92.2011,15.9206,549.3148],[-92.1882,15.9212,529.265],[-92.188,15.9119,568.9167],[-92.1845,15.9104,590.0867],[-92.1837,15.9082,578.5038],[-92.1841,15.9063,582.5501],[-92.1903,15.9041,602.3451],[-92.1837,15.9025,542.868],[-92.1835,15.9013,525.9429]]]]}
,"properties": {"GID_2": "MEX.5.92_2","GID_0": "MEX","country": "México","GID_1": "MEX.5_1","province": "Chiapas","NL_NAME_1": "NA","county": "Socoltenango","VARNAME_2": "NA","NL_NAME_2": "NA","TYPE_2": "Município","ENGTYPE_2": "Municipality","CC_2": "NA","HASC_2": "NA","name": "Socoltenango.county","area_km2": 634.5445,"hist_schema_id": "Elevation0-9000","hist_area_km2": {"525": 250.1764,"550": 19.2622,"575": 9.9849,"600": 79.7183,"625": 36.9619,"650": 33.3,"675": 33.9512,"700": 38.085,"725": 40.4074,"750": 28.6134,"775": 13.318,"800": 4.3976,"825": 1.995,"850": 2.28,"875": 3.3589,"900": 5.842,"925": 5.2718,"950": 1.8116,"975": 1.8319,"1000": 1.7301,"1025": 1.7504,"1050": 1.0584,"1075": 1.0177,"1100": 0.977,"1125": 1.608,"1150": 5.3533,"1175": 4.661,"1200": 1.5672,"1225": 0.7327,"1250": 0.6106,"1275": 0.4071,"1300": 0.7531,"1325": 0.5902,"1350": 0.6513,"1375": 0.3257,"1400": 0.1425,"1425": 0.0407}}}