{"type":"Feature","properties":{"GID_2":"MEX.20.377_2","GID_0":"MEX","country":"México","GID_1":"MEX.20_1","province":"Oaxaca","NL_NAME_1":"NA","county":"SantaCatarinaZapoquila","VARNAME_2":"NA","NL_NAME_2":"NA","TYPE_2":"Município","ENGTYPE_2":"Municipality","CC_2":"NA","HASC_2":"NA","name":"Santa_Catarina_Zapoquila.county"},
"geometry":{"type": "MultiPolygon","coordinates": [[[[-97.4797,18.0271,1712.7087],[-97.4892,18.0256,1801.9049],[-97.4992,18.0298,2287.0176],[-97.5059,18.0278,2395.5935],[-97.5139,18.0377,2127.626],[-97.5224,18.0446,2526.4277],[-97.534,18.0463,2414.6445],[-97.5388,18.0421,2519.8208],[-97.5439,18.0334,2671.8936],[-97.5576,18.0469,2692.1313],[-97.5563,18.0517,2555.4561],[-97.5638,18.0626,2545.6179],[-97.5617,18.073,2489.6958],[-97.5668,18.0816,2424.7727],[-97.5681,18.0921,2453.5479],[-97.574,18.0835,2196.8767],[-97.5772,18.0829,2179.1885],[-97.5797,18.0884,2161.4709],[-97.5839,18.0862,2299.3286],[-97.5989,18.0905,2125.1831],[-97.6014,18.086,2274.0525],[-97.6033,18.0754,2085.5859],[-97.6116,18.0685,2002.6191],[-97.6166,18.0576,2267.7717],[-97.6323,18.0564,2530.4255],[-97.6349,18.044,2378.3225],[-97.6174,18.0405,2491.4036],[-97.6124,18.0317,2509.6589],[-97.6048,18.0283,2469.4224],[-97.5995,18.0194,2490.7178],[-97.5968,18.0194,2506.0723],[-97.5961,17.964,2459.418],[-97.598,17.961,2376.2117],[-97.5893,17.9587,2471.3999],[-97.5869,17.9654,2390.5107],[-97.5875,17.9683,2350.689],[-97.5793,17.974,2424.0103],[-97.583,17.9833,2118.4233],[-97.5795,17.9817,2149.2383],[-97.5729,17.982,2228.229],[-97.5667,17.9748,2272.4231],[-97.5521,17.9719,2392.3481],[-97.5363,17.9729,2479.4893],[-97.5255,17.976,2356.574],[-97.5221,17.9725,2200.6152],[-97.5139,17.9731,1941.0342],[-97.4984,17.9797,1938.1497],[-97.4835,17.9804,2076.8843],[-97.4824,18.0,1810.9031],[-97.4835,18.0086,1740.267],[-97.4805,18.0101,1691.2593],[-97.4826,18.0249,1774.4672],[-97.4797,18.0271,1712.7087]]]]}}