{"type": "Feature","bbox": [-97.1795,17.5615,-97.0878,17.7174],"geometry": {"type": "MultiPolygon","coordinates": [[[[-97.1313,17.5791,2425.3931],[-97.1149,17.5933,2608.3154],[-97.1187,17.6406,2347.0435],[-97.1078,17.6579,2120.1934],[-97.0878,17.6783,1472.3008],[-97.1011,17.6948,1907.8521],[-97.1059,17.7093,2190.3052],[-97.1069,17.7174,2308.2808],[-97.1379,17.7058,2391.1523],[-97.1611,17.7036,2246.1689],[-97.1612,17.7064,2240.5029],[-97.1795,17.6733,2310.2935],[-97.1726,17.678,2333.9045],[-97.1624,17.651,2370.5076],[-97.1635,17.6038,2232.5791],[-97.1615,17.5888,2282.4353],[-97.1396,17.5615,2456.4783],[-97.1313,17.5791,2425.3931]]]]}
,"properties": {"GID_2": "MEX.20.454_2","GID_0": "MEX","country": "México","GID_1": "MEX.20_1","province": "Oaxaca","NL_NAME_1": "NA","county": "SantiagoApoala","VARNAME_2": "NA","NL_NAME_2": "NA","TYPE_2": "Município","ENGTYPE_2": "Municipality","CC_2": "NA","HASC_2": "NA","name": "Santiago_Apoala.county","area_km2": 86.65576,"hist_schema_id": "Elevation0-9000","hist_area_km2": {"1475": 0.0202,"1500": 0.0404,"1525": 0.0202,"1550": 0.0808,"1575": 0.12121,"1600": 0.12121,"1625": 0.14141,"1650": 0.42424,"1675": 0.24242,"1700": 0.54545,"1725": 0.52526,"1750": 0.78789,"1775": 0.90911,"1800": 0.80809,"1825": 0.76769,"1850": 0.88891,"1875": 1.11112,"1900": 0.86868,"1925": 1.25249,"1950": 1.17168,"1975": 2.1414,"2000": 1.61613,"2025": 1.39392,"2050": 1.4949,"2075": 1.61617,"2100": 1.65649,"2125": 1.95957,"2150": 1.75755,"2175": 1.97979,"2200": 1.63647,"2225": 1.7173,"2250": 2.86878,"2275": 3.99992,"2300": 6.06056,"2325": 6.24261,"2350": 6.16206,"2375": 5.17238,"2400": 4.40493,"2425": 5.0721,"2450": 5.03186,"2475": 4.76931,"2500": 3.37497,"2525": 1.73798,"2550": 0.78815,"2575": 0.42442,"2600": 0.52548,"2625": 0.20211}}}