{"type":"Feature","properties":{"GID_2":"MEX.26.35_2","GID_0":"MEX","country":"México","GID_1":"MEX.26_1","province":"Sonora","NL_NAME_1":"NA","county":"Huépac","VARNAME_2":"NA","NL_NAME_2":"NA","TYPE_2":"Município","ENGTYPE_2":"Municipality","CC_2":"NA","HASC_2":"NA","name":"Huépac.county"},
"geometry":{"type": "MultiPolygon","coordinates": [[[[-110.0666,29.8424,1106.2513],[-110.0024,29.8614,1619.4514],[-110.0004,29.8954,1739.5677],[-110.0024,29.9073,1622.8588],[-110.0486,29.9161,1793.9541],[-110.0582,29.9496,1512.0867],[-110.0669,29.9398,1615.8033],[-110.0949,29.9529,1058.6572],[-110.0965,29.9667,1046.259],[-110.1182,29.9727,986.6118],[-110.1291,29.971,967.8665],[-110.1412,29.955,888.44],[-110.1666,29.9486,746.4808],[-110.2134,29.9498,634.8552],[-110.2126,29.9586,637.9468],[-110.2171,29.9588,638.6],[-110.2172,29.9601,638.6],[-110.2222,29.9601,636.5754],[-110.2248,29.9555,636.4862],[-110.2317,29.9568,644.5276],[-110.2337,29.9543,647.2593],[-110.3528,29.9837,854.9252],[-110.3475,30.0016,794.8072],[-110.3525,30.0088,812.1508],[-110.3567,30.0074,870.4609],[-110.366,30.0292,923.432],[-110.3725,30.0363,1180.2949],[-110.3778,30.0202,1025.6111],[-110.3805,30.0202,1068.0858],[-110.384,30.0159,956.5402],[-110.3911,30.0148,1091.8455],[-110.3919,30.0174,1011.5319],[-110.4025,30.0223,1089.6034],[-110.4118,30.0233,1151.5984],[-110.4118,30.0204,1150.939],[-110.4172,30.0267,1154.2493],[-110.4214,30.0283,1212.3198],[-110.4309,30.0242,1292.4518],[-110.4308,30.0212,1149.7717],[-110.434,30.0199,1205.9453],[-110.4658,30.0154,1437.8228],[-110.4703,30.0123,1365.8168],[-110.4704,30.0,1489.3804],[-110.4689,29.994,1463.5371],[-110.4839,29.9861,1093.3751],[-110.4426,29.9049,1538.5016],[-110.298,29.9211,1214.386],[-110.2273,29.8922,613.1623],[-110.2269,29.8975,614.4004],[-110.2235,29.9001,615.8185],[-110.2229,29.8958,614.8679],[-110.2244,29.8951,613.6169],[-110.22,29.8782,608.3732],[-110.2175,29.8782,636.8366],[-110.2234,29.8585,616.1382],[-110.2268,29.8542,599.3994],[-110.1753,29.8452,703.3098],[-110.1708,29.8647,724.8503],[-110.167,29.8727,749.606],[-110.1017,29.8771,1133.5728],[-110.1026,29.8439,949.2062],[-110.0762,29.8452,1017.4917],[-110.0666,29.8424,1106.2513]]]]}}