{"type":"Feature","properties":{"GID_2":"MEX.20.228_2","GID_0":"MEX","country":"México","GID_1":"MEX.20_1","province":"Oaxaca","NL_NAME_1":"NA","county":"SanJuanYucuita","VARNAME_2":"NA","NL_NAME_2":"NA","TYPE_2":"Município","ENGTYPE_2":"Municipality","CC_2":"NA","HASC_2":"NA","name":"San_Juan_Yucuita.county"},
"geometry":{"type": "MultiPolygon","coordinates": [[[[-97.2557,17.5291,2108.3855],[-97.2494,17.5351,2129.2156],[-97.2491,17.5386,2128.9602],[-97.2471,17.539,2169.4409],[-97.2464,17.5425,2134.9314],[-97.2481,17.5432,2148.5176],[-97.2494,17.5474,2182.3262],[-97.2511,17.5478,2203.0906],[-97.2493,17.5502,2209.7444],[-97.2522,17.5523,2226.4958],[-97.2549,17.5489,2199.2737],[-97.259,17.5474,2169.1489],[-97.2561,17.5614,2441.8965],[-97.259,17.5607,2363.9036],[-97.2693,17.5636,2183.0347],[-97.2725,17.5627,2163.7266],[-97.2771,17.5583,2140.6768],[-97.2809,17.5574,2162.4854],[-97.2836,17.5526,2118.5708],[-97.2779,17.544,2116.3889],[-97.2779,17.5403,2098.9109],[-97.2739,17.5357,2116.3723],[-97.2736,17.5286,2094.4722],[-97.27,17.5308,2105.6606],[-97.267,17.5264,2160.135],[-97.2757,17.5177,2076.8611],[-97.2889,17.5175,2153.1838],[-97.2971,17.5152,2183.4995],[-97.2916,17.5032,2239.199],[-97.2904,17.5033,2266.7866],[-97.2939,17.4993,2114.0591],[-97.2846,17.4942,2091.2607],[-97.2727,17.4919,2141.7854],[-97.2579,17.4807,2072.7349],[-97.2602,17.4989,2072.0554],[-97.2556,17.5004,2095.739],[-97.2545,17.5053,2087.5608],[-97.2499,17.5078,2173.4189],[-97.256,17.511,2081.8325],[-97.2557,17.5291,2108.3855]]]]}}