{"type":"Feature","properties":{"GID_2":"MEX.27.15_2","GID_0":"MEX","country":"México","GID_1":"MEX.27_1","province":"Tabasco","NL_NAME_1":"NA","county":"Tacotalpa","VARNAME_2":"NA","NL_NAME_2":"NA","TYPE_2":"Município","ENGTYPE_2":"Municipality","CC_2":"NA","HASC_2":"NA","name":"Tacotalpa.county"},
"geometry":{"type": "MultiPolygon","coordinates": [[[[-92.7536,17.3434,570.3765],[-92.7295,17.3481,252.6632],[-92.7085,17.3634,584.8505],[-92.7041,17.3636,461.3133],[-92.6971,17.3697,580.6427],[-92.6788,17.3785,350.3226],[-92.6777,17.38,358.0517],[-92.6785,17.3977,172.9192],[-92.6762,17.4116,254.6073],[-92.6679,17.426,208.2751],[-92.6682,17.4567,86.8646],[-92.6658,17.4568,95.2171],[-92.6594,17.4443,83.7062],[-92.6545,17.4557,269.6892],[-92.6489,17.4607,305.262],[-92.6414,17.4635,443.7567],[-92.6243,17.4659,340.0582],[-92.6058,17.4774,103.7428],[-92.5941,17.493,177.3756],[-92.5999,17.5008,90.0448],[-92.5939,17.5051,441.249],[-92.5923,17.5096,173.5018],[-92.5923,17.5129,165.1285],[-92.597,17.5204,126.1552],[-92.5714,17.5496,27.0987],[-92.5631,17.5457,24.2659],[-92.5593,17.5485,26.6514],[-92.5635,17.5481,23.6715],[-92.5653,17.5498,21.1489],[-92.5627,17.5501,29.2981],[-92.5638,17.5517,23.4654],[-92.562,17.5529,21.6819],[-92.5575,17.5517,30.3111],[-92.5598,17.5552,21.4517],[-92.5562,17.5542,27.7897],[-92.5557,17.5553,27.7897],[-92.5533,17.5536,22.1959],[-92.5535,17.5557,25.421],[-92.5564,17.558,29.8338],[-92.5524,17.5592,24.2467],[-92.5516,17.5574,20.5636],[-92.5509,17.5605,23.5828],[-92.5538,17.5611,22.6237],[-92.550299999999993,17.5622,21.1453],[-92.551,17.5649,20.5717],[-92.5463,17.5645,21.4926],[-92.5459,17.5667,22.3575],[-92.5489,17.5682,19.8757],[-92.5472,17.5695,19.2457],[-92.5493,17.5703,21.3814],[-92.5512,17.5693,21.222],[-92.5749,17.5727,23.8443],[-92.5744,17.577,23.3749],[-92.5727,17.5787,21.3277],[-92.5748,17.5836,19.9793],[-92.5728,17.5876,19.11],[-92.5735,17.5918,20.2374],[-92.5771,17.5938,19.6628],[-92.5788,17.5924,16.6561],[-92.5804,17.5969,16.9054],[-92.5829,17.5963,19.6364],[-92.5816,17.5935,19.2884],[-92.5868,17.5963,18.312],[-92.5878,17.5979,18.6796],[-92.5862,17.6003,18.6378],[-92.5925,17.6056,18.2002],[-92.6059,17.6049,17.163],[-92.606,17.6071,16.7597],[-92.6115,17.6101,18.0741],[-92.6149,17.6145,15.7755],[-92.6156,17.611,13.8962],[-92.6257,17.6128,14.383],[-92.6277,17.6028,17.3551],[-92.6287,17.6045,17.0112],[-92.6386,17.6069,13.3125],[-92.6364,17.6252,11.9105],[-92.6313,17.6243,14.3465],[-92.6266,17.6314,15.1115],[-92.6311,17.6355,15.024],[-92.6354,17.635,14.2699],[-92.6363,17.6392,15.1762],[-92.64,17.6413,16.1159],[-92.6383,17.6497,14.0201],[-92.6506,17.6525,10.0506],[-92.6536,17.6603,12.3325],[-92.6576,17.6564,12.0049],[-92.6544,17.6555,20.2439],[-92.6568,17.6496,13.8296],[-92.6585,17.6491,15.5758],[-92.6628,17.6518,19.7269],[-92.6654,17.6511,12.7398],[-92.6679,17.6423,14.5987],[-92.6809,17.6459,14.7124],[-92.6778,17.649,15.4218],[-92.6837,17.6509,13.3557],[-92.6846,17.6493,13.0619],[-92.7184,17.6532,15.3636],[-92.7189,17.6419,16.9294],[-92.7286,17.6419,16.7486],[-92.7287,17.6338,16.2744],[-92.7335,17.6351,17.1662],[-92.733,17.6374,16.3539],[-92.7345,17.6387,16.2757],[-92.7376,17.6389,14.9906],[-92.7372,17.6443,14.8458],[-92.7463,17.645,15.2283],[-92.7469,17.6401,15.9479],[-92.7563,17.6313,17.8564],[-92.7636,17.6323,17.4882],[-92.7614,17.626,16.5031],[-92.7861,17.6401,18.0292],[-92.7885,17.6394,18.6614],[-92.7884,17.6473,16.0767],[-92.7925,17.648,18.4884],[-92.8149,17.6388,13.6348],[-92.8109,17.642,20.2894],[-92.8102,17.6454,13.7299],[-92.8223,17.6391,17.2342],[-92.8298,17.6411,17.2474],[-92.8337,17.6404,18.6306],[-92.8363,17.6425,15.9918],[-92.8365,17.6457,14.9404],[-92.8395,17.6347,18.9912],[-92.8713,17.6385,13.8312],[-92.8759,17.6607,13.8085],[-92.8742,17.6731,10.9892],[-92.8841,17.6742,11.5423],[-92.8863,17.6813,13.8414],[-92.8889,17.6809,11.8934],[-92.8905,17.6827,10.77],[-92.8896,17.6852,10.6146],[-92.8934,17.6858,11.0779],[-92.8927,17.6875,13.6695],[-92.8953,17.6879,12.9415],[-92.8954,17.6891,11.7792],[-92.8987,17.6892,13.1477],[-92.8999,17.6798,11.1615],[-92.903,17.6792,10.7174],[-92.899,17.6782,10.9549],[-92.9013,17.6714,12.4794],[-92.9036,17.6738,11.337],[-92.9052,17.6714,11.4378],[-92.9065,17.6728,19.5518],[-92.9079,17.6716,16.9292],[-92.9071,17.6708,16.9292],[-92.9102,17.6688,13.4569],[-92.909,17.6675,12.2678],[-92.9104,17.6662,13.1565],[-92.9101,17.6634,13.8732],[-92.9125,17.6608,14.5451],[-92.9126,17.6532,12.8555],[-92.9099,17.6532,12.4591],[-92.9075,17.6484,14.4506],[-92.9032,17.6473,14.6803],[-92.9009,17.6429,15.4179],[-92.902,17.6424,15.759],[-92.9009,17.6401,16.1295],[-92.9096,17.6364,14.7377],[-92.9052,17.6257,15.8706],[-92.9057,17.6235,16.4021],[-92.8889,17.6072,21.388],[-92.876,17.6067,21.3335],[-92.8733,17.5933,18.1304],[-92.8616,17.5927,18.4518],[-92.861,17.5873,19.2257],[-92.8648,17.5818,16.6997],[-92.8616,17.5768,18.2395],[-92.8611,17.572,20.9735],[-92.8652,17.5643,19.819],[-92.8651,17.5617,34.5166],[-92.859,17.5446,65.0667],[-92.8625,17.5421,70.1238],[-92.8542,17.5327,36.3797],[-92.8522,17.5345,36.2201],[-92.8515,17.5329,29.9367],[-92.8476,17.5348,29.8188],[-92.847,17.5309,36.5844],[-92.8409,17.5268,39.2439],[-92.835,17.5196,55.2106],[-92.8335,17.5205,60.7453],[-92.8342,17.5123,177.0196],[-92.8282,17.5047,143.934],[-92.8287,17.5006,178.0305],[-92.8275,17.5005,83.6077],[-92.826,17.4911,119.0108],[-92.8335,17.482,312.97],[-92.8306,17.4796,340.9473],[-92.8288,17.4726,425.3698],[-92.8269,17.4536,344.3739],[-92.8223,17.4522,290.3013],[-92.8195,17.4358,364.3177],[-92.8202,17.4311,570.2308],[-92.8258,17.4238,798.6654],[-92.8562,17.4189,846.494],[-92.8543,17.4112,749.8422],[-92.8381,17.4035,877.8891],[-92.8292,17.3963,769.8618],[-92.8276,17.399,703.3679],[-92.8306,17.405,914.4137],[-92.8294,17.4086,783.9815],[-92.8063,17.4106,417.3448],[-92.8002,17.4138,291.6405],[-92.7911,17.415,93.7099],[-92.7858,17.4175,60.592],[-92.7856,17.4146,103.5047],[-92.7908,17.405,265.4875],[-92.7744,17.3923,163.9382],[-92.7683,17.3855,58.6158],[-92.7671,17.3812,63.694],[-92.7707,17.3604,219.4473],[-92.7587,17.3582,284.8099],[-92.7583,17.3491,393.7106],[-92.756,17.3471,463.1232],[-92.7556,17.3438,517.5528],[-92.7536,17.3434,570.3765]]]]}}