{"type": "Feature","bbox": [-98.3709,18.8521,-98.2685,19.0079],"geometry": {"type": "MultiPolygon","coordinates": [[[[-98.3304,18.8529,1792.1097],[-98.3267,18.8566,1882.8118],[-98.3283,18.8596,1809.199],[-98.3128,18.8589,1925.338],[-98.3083,18.8604,1992.1823],[-98.306,18.8539,1987.6963],[-98.3034,18.855,2028.7006],[-98.2921,18.8521,2188.5249],[-98.2899,18.853,2282.2744],[-98.2861,18.8599,2289.8584],[-98.2889,18.8609,2220.9036],[-98.2941,18.8671,2096.6128],[-98.2872,18.873,2198.9136],[-98.2815,18.8734,2304.3652],[-98.2826,18.8755,2286.6274],[-98.2851,18.8754,2274.3354],[-98.2809,18.8793,2229.616],[-98.2768,18.8871,2179.0989],[-98.2726,18.8877,2158.958],[-98.273,18.8928,2131.3645],[-98.2685,18.8989,2114.583],[-98.2717,18.9021,2116.105],[-98.2756,18.9033,2153.9773],[-98.2802,18.9008,2154.8948],[-98.2852,18.9006,2196.541],[-98.2902,18.9087,2094.3228],[-98.2854,18.9103,2115.5115],[-98.2864,18.9125,2096.8196],[-98.285,18.9138,2096.9546],[-98.277,18.9147,2087.7808],[-98.2804,18.9172,2093.7803],[-98.278,18.9232,2116.7751],[-98.2787,18.929,2215.311],[-98.2763,18.9304,2206.3987],[-98.2775,18.9313,2221.8853],[-98.2764,18.9359,2158.8076],[-98.278,18.9489,2066.1814],[-98.2701,18.9505,2059.9453],[-98.2733,18.9554,2060.8877],[-98.2757,18.9562,2057.3643],[-98.2744,18.9586,2080.7568],[-98.2772,18.9601,2063.1357],[-98.2772,18.9708,2062.4492],[-98.2838,18.9765,2070.752],[-98.2871,18.9862,2074.7271],[-98.2893,18.9852,2085.574],[-98.2926,18.989,2105.8303],[-98.2968,18.9802,2080.1555],[-98.3014,18.9814,2089.8831],[-98.3072,18.9903,2115.3035],[-98.3101,18.9982,2129.4585],[-98.3088,18.9996,2116.3977],[-98.3174,19.0025,2125.5225],[-98.3165,19.0041,2124.7239],[-98.3234,19.0079,2127.9243],[-98.328,19.0009,2131.9548],[-98.3449,18.9997,2170.8394],[-98.3542,18.9927,2204.5879],[-98.3444,18.9823,2199.9336],[-98.35,18.9776,2173.9331],[-98.3568,18.9779,2147.6843],[-98.361,18.9797,2128.1401],[-98.3673,18.9762,2089.1719],[-98.3689,18.9663,2055.3965],[-98.3679,18.9607,2029.646],[-98.3694,18.9519,2007.8083],[-98.3709,18.9504,2010.4561],[-98.3698,18.9504,2010.4561],[-98.3696,18.9474,2005.3794],[-98.3708,18.947,2006.933],[-98.3685,18.9348,1964.3035],[-98.3662,18.9295,1905.5513],[-98.3647,18.9283,1883.3276],[-98.3612,18.93,1889.6904],[-98.3536,18.9281,1883.4053],[-98.3539,18.9238,1881.1353],[-98.352,18.9218,1886.9872],[-98.3563,18.921,1876.3558],[-98.3618,18.9167,1866.9158],[-98.3596,18.9163,1870.3555],[-98.3618,18.9089,1862.1281],[-98.3604,18.8996,1866.6542],[-98.357,18.8946,1870.2156],[-98.3368,18.889,1934.1008],[-98.3369,18.8863,1897.2092],[-98.3398,18.8831,1869.2144],[-98.3368,18.8829,1897.0273],[-98.3314,18.8789,1872.8066],[-98.3292,18.8791,1860.5476],[-98.33,18.8682,1879.6338],[-98.3312,18.868,1860.5941],[-98.3315,18.86,1801.8906],[-98.3332,18.8569,1793.6672],[-98.3304,18.8552,1796.5521],[-98.3304,18.8529,1792.1097]]]]}
,"properties": {"GID_2": "MEX.21.108_2","GID_0": "MEX","country": "México","GID_1": "MEX.21_1","province": "Puebla","NL_NAME_1": "NA","county": "Ocoyucan","VARNAME_2": "NA","NL_NAME_2": "NA","TYPE_2": "Município","ENGTYPE_2": "Municipality","CC_2": "NA","HASC_2": "NA","name": "Ocoyucan.county","area_km2": 120.33172,"hist_schema_id": "Elevation0-9000","hist_area_km2": {"1800": 0.18058,"1825": 0.48152,"1850": 1.24388,"1875": 3.8515,"1900": 5.05461,"1925": 4.09164,"1950": 4.39249,"1975": 4.11168,"2000": 4.03147,"2025": 3.14911,"2050": 3.89102,"2075": 15.0603,"2100": 12.57365,"2125": 12.81357,"2150": 9.48535,"2175": 7.96143,"2200": 7.13932,"2225": 6.13686,"2250": 4.7534,"2275": 3.42966,"2300": 2.84814,"2325": 1.60456,"2350": 0.92263,"2375": 0.76227,"2400": 0.30089,"2425": 0.06018}}}