{"type":"Feature","properties":{"GID_2":"MEX.13.16_2","GID_0":"MEX","country":"México","GID_1":"MEX.13_1","province":"Hidalgo","NL_NAME_1":"NA","county":"Chapulhuacán","VARNAME_2":"NA","NL_NAME_2":"NA","TYPE_2":"Município","ENGTYPE_2":"Municipality","CC_2":"NA","HASC_2":"NA","name":"Chapulhuacán.county"},
"geometry":{"type": "MultiPolygon","coordinates": [[[[-98.8245,21.1612,183.0196],[-98.8285,21.1635,225.3253],[-98.8293,21.1667,216.502],[-98.8325,21.1671,226.8313],[-98.8376,21.1706,260.6379],[-98.8405,21.1691,246.5284],[-98.8436,21.1707,272.668],[-98.8471,21.1766,294.7158],[-98.8479,21.1747,282.2751],[-98.8521,21.1768,313.0782],[-98.8556,21.1801,434.4826],[-98.8564,21.1841,543.7189],[-98.8546,21.1873,602.4756],[-98.8574,21.1893,722.1717],[-98.8638,21.1884,1020.8547],[-98.8747,21.1809,1116.6246],[-98.8827,21.1796,1288.4083],[-98.8829,21.1926,694.8636],[-98.8857,21.1951,568.3317],[-98.8851,21.1963,510.7111],[-98.8954,21.2039,845.9444],[-98.8951,21.2104,776.5883],[-98.9036,21.2127,235.841],[-98.9066,21.2098,197.9496],[-98.9148,21.2087,220.292],[-98.9142,21.2024,216.7331],[-98.9229,21.2065,189.444],[-98.9237,21.2043,216.7339],[-98.9213,21.1989,221.5242],[-98.9219,21.1972,215.6023],[-98.9267,21.1988,262.7516],[-98.9355,21.1988,269.8214],[-98.9353,21.1902,212.559],[-98.9484,21.1891,213.6798],[-98.9552,21.186,208.2818],[-98.9516,21.1844,218.925],[-98.9469,21.1859,259.5433],[-98.945,21.1831,233.4781],[-98.946,21.1801,241.3433],[-98.9505,21.1811,236.8259],[-98.9582,21.1767,270.1382],[-98.96,21.1822,228.6745],[-98.9674,21.1849,230.6937],[-98.9747,21.1808,238.3018],[-98.9828,21.1821,237.6587],[-98.9877,21.1796,246.8613],[-98.9994,21.1808,264.7849],[-99.0012,21.1789,268.699],[-99.0002,21.1728,298.5677],[-98.9939,21.1706,244.1047],[-98.9922,21.1675,326.927],[-98.9934,21.1661,242.5588],[-98.9964,21.1659,246.0957],[-98.9993,21.1687,242.0068],[-99.0045,21.1695,250.8333],[-99.015,21.167,244.2751],[-99.0196,21.1573,267.1832],[-99.0226,21.1582,274.5594],[-99.0237,21.1664,295.4615],[-99.0276,21.1671,273.667],[-99.0305,21.165,278.2719],[-99.0281,21.1595,262.108],[-99.0288,21.1554,264.3801],[-99.0391,21.1515,278.2283],[-99.0344,21.1383,1236.7604],[-99.0312,21.1384,1030.8829],[-99.0294,21.1366,815.1503],[-99.0272,21.1307,399.2268],[-99.0356,21.1233,497.771],[-99.0363,21.1199,534.3045],[-99.0404,21.1172,618.4432],[-99.0412,21.114,541.3477],[-99.0398,21.1136,583.1476],[-99.0368,21.1065,672.4474],[-99.0359,21.0989,778.5906],[-99.0372,21.0929,774.7927],[-99.0349,21.0876,773.3686],[-99.0443,21.0783,884.9872],[-99.037,21.0719,1388.5277],[-99.029,21.0707,1615.0347],[-99.0227,21.0674,1548.4617],[-99.0205,21.0683,1509.4333],[-99.0092,21.0669,909.6385],[-99.0078,21.0633,794.3715],[-99.0145,21.0607,908.9218],[-99.016,21.0586,961.3058],[-99.0204,21.0577,1121.3645],[-99.0091,21.0535,581.9271],[-99.0075,21.0492,435.023],[-99.0026,21.0505,369.4217],[-99.0008,21.0456,367.5],[-98.9972,21.0422,383.1265],[-98.9863,21.0396,404.7924],[-98.9769,21.0449,389.3485],[-98.9747,21.0477,405.715],[-98.969,21.0469,417.1809],[-98.9628,21.0517,390.5113],[-98.9606,21.0499,395.7001],[-98.9615,21.045,413.4069],[-98.9548,21.0414,723.0284],[-98.9463,21.0469,1004.0524],[-98.9438,21.0655,816.6747],[-98.9375,21.0718,498.5604],[-98.9371,21.0757,302.0815],[-98.9319,21.0762,298.5999],[-98.9291,21.0787,292.3563],[-98.927,21.0833,292.169],[-98.928,21.0898,307.7048],[-98.9188,21.0979,299.186],[-98.912,21.0967,345.0323],[-98.9063,21.1012,290.2527],[-98.9037,21.1002,274.6554],[-98.9006,21.095,316.5725],[-98.8924,21.0967,262.1336],[-98.8904,21.0985,259.4789],[-98.8901,21.1056,355.8566],[-98.882,21.1106,289.9739],[-98.8787,21.1094,285.3799],[-98.8733,21.1037,290.1243],[-98.8713,21.1039,247.235],[-98.8792,21.1175,237.1891],[-98.8782,21.119,267.4868],[-98.8728,21.1186,255.6222],[-98.8694,21.1232,295.0846],[-98.875,21.1282,226.261],[-98.8814,21.1295,220.7914],[-98.8826,21.1319,238.9324],[-98.8747,21.1407,224.8561],[-98.8695,21.1419,213.1487],[-98.8671,21.1371,209.9799],[-98.8572,21.1374,214.825],[-98.8476,21.1333,203.2803],[-98.8408,21.1343,196.4419],[-98.8441,21.1541,196.584],[-98.8407,21.1606,193.6127],[-98.8358,21.1626,194.7482],[-98.8314,21.1594,188.6329],[-98.8245,21.1612,183.0196]]]]}}