{"type": "Feature","bbox": [-108.7619,28.6876,-107.7787,30.0052],"geometry": {"type": "MultiPolygon","coordinates": [[[[-108.6158,29.8835,1429.3611],[-108.6217,29.8782,1479.7659],[-108.6072,29.8471,1581.1624],[-108.6084,29.8451,1490.3701],[-108.6149,29.8441,1536.6947],[-108.6355,29.831,1530.3831],[-108.6294,29.8063,1622.8004],[-108.6186,29.8005,1848.3594],[-108.6017,29.7971,2037.6406],[-108.5413,29.7961,1716.6951],[-108.535,29.7514,2012.114],[-108.5384,29.7476,2016.6379],[-108.5408,29.7362,2023.2262],[-108.5478,29.7374,2030.259],[-108.5928,29.7284,2395.5613],[-108.5925,29.7176,2370.9314],[-108.6591,29.7161,2296.126],[-108.6452,29.692,2172.4907],[-108.6183,29.6605,2165.7344],[-108.655,29.6494,1776.5842],[-108.6447,29.6275,1748.2965],[-108.6463,29.6104,1580.8364],[-108.6411,29.5889,1573.1655],[-108.6595,29.584,1815.2227],[-108.6383,29.5583,1802.5482],[-108.6623,29.5445,1501.3528],[-108.6487,29.5091,1444.0657],[-108.6307,29.5043,1569.651],[-108.6252,29.501,1538.4707],[-108.644,29.4888,1589.4209],[-108.666,29.4851,1122.5428],[-108.6896,29.484,1675.3324],[-108.6943,29.4671,1334.3367],[-108.7178,29.466,897.821],[-108.7191,29.4598,940.7828],[-108.7074,29.4395,1401.3265],[-108.7036,29.4085,1411.42],[-108.6697,29.3074,1711.7924],[-108.6822,29.2674,1890.7404],[-108.7303,29.2691,1578.1155],[-108.7307,29.2634,1530.741],[-108.7414,29.2585,1445.5979],[-108.7429,29.2601,1480.4916],[-108.7501,29.2567,1553.7843],[-108.7543,29.2595,1494.1498],[-108.7573,29.2557,1567.7037],[-108.761,29.2555,1552.9902],[-108.7619,29.2539,1544.9978],[-108.7587,29.2509,1562.8518],[-108.7511,29.2509,1465.9106],[-108.7412,29.2404,1430.3295],[-108.7428,29.2259,1693.2601],[-108.7354,29.2177,1688.7833],[-108.7398,29.2008,1649.9102],[-108.7539,29.2001,1485.3794],[-108.7492,29.1806,1291.4886],[-108.7456,29.174,1217.4611],[-108.7453,29.1623,1105.6697],[-108.7289,29.1718,1645.6187],[-108.7095,29.1491,1515.1013],[-108.7,29.135,1682.8389],[-108.6985,29.1277,1685.8893],[-108.7083,29.1143,1531.8014],[-108.7296,29.0965,1479.6183],[-108.7275,29.0858,1236.5726],[-108.7115,29.0874,976.9659],[-108.7094,29.083,1004.2606],[-108.711,29.0775,963.9509],[-108.715,29.0766,1059.5332],[-108.7131,29.0704,912.5423],[-108.7244,29.0699,1115.811],[-108.7113,29.0035,1229.8542],[-108.7142,29.0015,1116.2668],[-108.71,28.9832,1090.3806],[-108.7078,28.9856,1296.2906],[-108.6981,28.9363,1181.1497],[-108.6978,28.9314,1106.3259],[-108.7011,28.9276,970.5864],[-108.7059,28.9066,738.3027],[-108.7089,28.9059,746.3962],[-108.7049,28.9002,735.7545],[-108.7061,28.8928,741.8732],[-108.7098,28.8895,849.1555],[-108.706,28.8892,756.1665],[-108.7068,28.8843,769.0853],[-108.6871,28.8757,1048.7587],[-108.6782,28.8633,1235.8583],[-108.6812,28.8548,1069.7714],[-108.6658,28.8282,1050.9492],[-108.6578,28.8092,1303.4304],[-108.6296,28.8117,1653.7598],[-108.6238,28.8061,1944.3972],[-108.6244,28.8001,2039.8901],[-108.6363,28.7919,1667.6869],[-108.6456,28.7947,1674.5245],[-108.6433,28.7651,1524.4875],[-108.6301,28.7598,1645.7357],[-108.6252,28.7593,1788.4482],[-108.6207,28.7503,1879.6361],[-108.6066,28.7446,1938.7529],[-108.5838,28.7401,2247.0923],[-108.5838,28.7163,2210.1025],[-108.5749,28.7124,2290.4138],[-108.5667,28.6954,1852.1976],[-108.5597,28.6994,1787.1572],[-108.5536,28.6965,1762.1566],[-108.551,28.701,1690.491],[-108.548,28.7019,1688.5491],[-108.5481,28.7036,1650.1909],[-108.5451,28.7061,1671.6333],[-108.5384,28.708,1553.0244],[-108.5361,28.7063,1543.8176],[-108.5365,28.7112,1527.6953],[-108.534,28.7126,1527.1832],[-108.5292,28.7104,1516.9655],[-108.5264,28.7072,1494.3083],[-108.5242,28.7083,1520.8928],[-108.5243,28.7041,1490.5894],[-108.5191,28.7055,1505.2075],[-108.5179,28.7022,1480.9015],[-108.5143,28.7031,1474.7593],[-108.512,28.6977,1472.9492],[-108.5096,28.6985,1454.9663],[-108.5102,28.6943,1472.4746],[-108.5075,28.6943,1457.7964],[-108.5068,28.6977,1441.2111],[-108.5024,28.6942,1423.1278],[-108.4982,28.6975,1422.1929],[-108.4936,28.692,1422.5879],[-108.4917,28.6966,1427.9698],[-108.4891,28.6959,1427.7113],[-108.4872,28.698,1410.4072],[-108.4827,28.6981,1396.2761],[-108.4795,28.7013,1405.5718],[-108.4762,28.6975,1406.3044],[-108.4726,28.6979,1430.7644],[-108.471,28.7073,1386.787],[-108.4735,28.7097,1433.3606],[-108.4684,28.7135,1387.0686],[-108.4759,28.7182,1392.551],[-108.476,28.7228,1384.9518],[-108.4737,28.7258,1394.9373],[-108.4733,28.7298,1436.027],[-108.4657,28.7362,1361.2852],[-108.4642,28.7307,1446.3059],[-108.4525,28.7204,1429.5061],[-108.3549,28.6876,2644.6331],[-108.3297,28.7199,2497.1238],[-108.3569,28.7588,2259.6309],[-108.1702,28.7639,2144.405],[-108.181,28.7741,2335.7021],[-108.185,28.7869,2018.6418],[-108.1656,28.793,2146.2493],[-108.1855,28.8145,2195.5674],[-108.2069,28.8024,2512.0298],[-108.2239,28.8254,2241.2031],[-108.2169,28.8418,2174.2722],[-108.1734,28.8485,1956.6788],[-108.177,28.8377,2042.2255],[-108.1729,28.8261,1984.026],[-108.1639,28.8393,1896.2953],[-108.1603,28.8407,1911.0833],[-108.1367,28.8366,1728.9172],[-108.1427,28.8497,1543.9426],[-108.1421,28.8536,1553.2305],[-108.1582,28.8703,1680.1619],[-108.1603,28.8747,1761.1851],[-108.0946,28.8837,2035.8507],[-108.0752,28.9087,2425.1362],[-108.0809,28.9165,2448.1597],[-108.0928,28.9606,2280.0288],[-107.9459,28.9569,1997.6255],[-107.953,29.0241,2513.5754],[-108.0063,29.0343,2101.7896],[-107.9972,29.0769,2216.3542],[-107.9924,29.121,2196.2827],[-107.9814,29.1188,2168.4478],[-107.9696,29.167,2177.6838],[-107.9098,29.1376,2238.6021],[-107.7787,29.1428,2216.6262],[-107.781,29.1851,2374.5405],[-107.8341,29.1854,2223.4482],[-107.8345,29.2389,2216.8679],[-107.9058,29.2247,2320.8423],[-107.9061,29.2585,2164.6597],[-107.9095,29.2585,2166.3774],[-107.9121,29.2609,2174.3269],[-107.9128,29.2648,2162.3489],[-107.9149,29.2666,2164.175],[-107.911,29.2709,2150.5103],[-107.9137,29.2773,2156.0376],[-107.9213,29.2822,2151.4441],[-107.9229,29.2891,2151.6035],[-107.906,29.2894,2142.0222],[-107.9061,29.3029,2140.2156],[-107.9133,29.3032,2141.5459],[-107.9134,29.3098,2141.3101],[-107.9185,29.3115,2141.8687],[-107.9187,29.3307,2141.7249],[-107.9062,29.3307,2140.9998],[-107.9062,29.3673,2143.1799],[-107.8855,29.3674,2138.7195],[-107.8855,29.3948,2140.9978],[-107.8818,29.3948,2138.9297],[-107.8817,29.396,2139.4436],[-107.826,29.39,2137.5],[-107.8232,29.4172,2137.5],[-107.8269,29.417,2137.5],[-107.8299,29.4499,2140.3564],[-107.8458,29.4497,2137.5],[-107.8497,29.457,2137.5],[-107.8514,29.4498,2137.5],[-107.8647,29.4497,2141.9973],[-107.8751,29.4583,2160.1936],[-107.8832,29.4706,2188.2595],[-107.8882,29.4723,2198.249],[-107.8957,29.4862,2234.457],[-107.8956,29.4895,2242.541],[-107.9197,29.4941,2429.2188],[-107.9267,29.5506,2426.1624],[-107.9354,29.5556,2423.3184],[-107.9582,29.5555,2401.6553],[-107.9556,29.619,2485.8035],[-107.9487,29.6609,2469.5488],[-107.9407,29.6806,2319.3098],[-107.9517,29.6755,2225.1396],[-107.9563,29.678,2216.8259],[-107.9675,29.6784,2226.4275],[-107.9719,29.6758,2263.6331],[-107.9762,29.6772,2301.7461],[-107.9793,29.674,2374.6343],[-107.9823,29.6748,2353.0164],[-107.9852,29.6728,2331.978],[-107.9893,29.6749,2298.9014],[-107.9934,29.6741,2246.0237],[-107.9974,29.6826,2215.0903],[-108.001,29.6826,2168.9082],[-108.0029,29.6878,2142.2622],[-108.0047,29.6878,2133.5825],[-108.0053,29.6912,2128.0234],[-108.023,29.7023,2490.2314],[-108.0244,29.7052,2490.8567],[-108.0229,29.7774,2144.022],[-108.0395,29.7797,2219.9834],[-108.0711,29.7767,2238.5369],[-108.0978,29.7766,1915.3937],[-108.1122,29.75,2161.5298],[-108.1275,29.7583,2288.332],[-108.2231,29.7584,2405.6104],[-108.2234,30.0052,2148.0205],[-108.3106,30.005,2164.5603],[-108.3106,29.9601,2254.592],[-108.3625,29.9601,2265.9966],[-108.3625,30.0048,2199.5889],[-108.5103,30.0052,2093.6602],[-108.5645,29.924,2069.4709],[-108.5543,29.8981,1575.4666],[-108.5572,29.8984,1568.835],[-108.5623,29.895,1554.2711],[-108.5686,29.8978,1536.9739],[-108.5749,29.8971,1549.3511],[-108.5786,29.8949,1541.6609],[-108.5845,29.8957,1490.5276],[-108.5855,29.8971,1521.3143],[-108.5896,29.8959,1489.3601],[-108.5913,29.8937,1531.3146],[-108.5951,29.8946,1483.6821],[-108.5949,29.893,1489.1218],[-108.5971,29.893,1480.781],[-108.5998,29.8904,1449.5886],[-108.5994,29.8882,1460.5452],[-108.6055,29.8876,1448.9353],[-108.6054,29.8855,1443.1429],[-108.6071,29.8844,1426.7822],[-108.613,29.8841,1475.2722],[-108.6141,29.8811,1408.1938],[-108.6158,29.8835,1429.3611]]]]}
,"properties": {"GID_2": "MEX.6.40_2","GID_0": "MEX","country": "México","GID_1": "MEX.6_1","province": "Chihuahua","NL_NAME_1": "NA","county": "Madera","VARNAME_2": "NA","NL_NAME_2": "NA","TYPE_2": "Município","ENGTYPE_2": "Municipality","CC_2": "NA","HASC_2": "NA","name": "Madera.county","area_km2": 8746.985,"hist_schema_id": "Elevation0-9000","hist_area_km2": {"700": 1.076,"725": 2.763,"750": 4.58,"775": 5.507,"800": 7.73,"825": 10.269,"850": 12.362,"875": 13.602,"900": 16.752,"925": 17.437,"950": 20.659,"975": 23.363,"1000": 24.658,"1025": 26.068,"1050": 29.568,"1075": 31.64,"1100": 33.214,"1125": 33.988,"1150": 38.73,"1175": 41.362,"1200": 43.735,"1225": 47.184,"1250": 50.313,"1275": 52.483,"1300": 57.765,"1325": 59.894,"1350": 63.62,"1375": 70.734,"1400": 73.805,"1425": 79.161,"1450": 83.674,"1475": 88.616,"1500": 96.4,"1525": 100.298,"1550": 101.146,"1575": 104.924,"1600": 107.654,"1625": 113.292,"1650": 120.74,"1675": 129.961,"1700": 134.369,"1725": 146.745,"1750": 157.065,"1775": 146.225,"1800": 139.597,"1825": 137.543,"1850": 136.334,"1875": 128.338,"1900": 124.453,"1925": 119.864,"1950": 117.704,"1975": 116.791,"2000": 125.09,"2025": 140.544,"2050": 160.787,"2075": 184.221,"2100": 278.261,"2125": 259.293,"2150": 449.894,"2175": 396.966,"2200": 392.946,"2225": 357.829,"2250": 321.115,"2275": 287.311,"2300": 255.608,"2325": 232.114,"2350": 211.853,"2375": 197.277,"2400": 182.778,"2425": 146.449,"2450": 124.487,"2475": 102.665,"2500": 80.079,"2525": 62.047,"2550": 40.785,"2575": 29.202,"2600": 23.242,"2625": 17.131,"2650": 13.178,"2675": 11.067,"2700": 7.886,"2725": 4.443,"2750": 3.127,"2775": 1.221,"2800": 0.333}}}