{"type":"Feature","properties":{"GID_2":"MEX.21.3_2","GID_0":"MEX","country":"México","GID_1":"MEX.21_1","province":"Puebla","NL_NAME_1":"NA","county":"Acatlán","VARNAME_2":"NA","NL_NAME_2":"NA","TYPE_2":"Município","ENGTYPE_2":"Municipality","CC_2":"NA","HASC_2":"NA","name":"Acatlán.county"},
"geometry":{"type": "MultiPolygon","coordinates": [[[[-98.1534,17.9674,1050.174],[-98.1567,17.9728,1029.506],[-98.162,17.9679,1018.0208],[-98.1669,17.9676,1020.4788],[-98.1734,17.9697,1011.8249],[-98.1768,17.9824,1000.1772],[-98.1806,17.978,1017.8452],[-98.1835,17.9791,1007.7728],[-98.1853,17.9726,1014.4227],[-98.1909,17.9743,1016.9414],[-98.1969,17.971,1011.0864],[-98.2027,17.9723,1077.3835],[-98.2044,17.9767,1093.7098],[-98.202,17.9884,1003.6965],[-98.1948,17.987,1096.0328],[-98.1893,17.9886,1156.4924],[-98.1877,18.0049,1107.7439],[-98.1841,18.0056,1134.321],[-98.185,18.0108,1104.7178],[-98.1795,18.0154,1089.8076],[-98.1845,18.0161,1076.5576],[-98.1842,18.018,1090.7427],[-98.1899,18.0218,1125.9292],[-98.1884,18.0329,1207.9706],[-98.1939,18.0349,1213.3815],[-98.1963,18.0386,1209.0648],[-98.2018,18.0411,1119.2111],[-98.2042,18.0444,1117.9469],[-98.2084,18.0436,1135.1907],[-98.2087,18.0377,1196.1968],[-98.2121,18.0348,1358.877],[-98.2169,18.0345,1208.6064],[-98.2195,18.0312,1167.4159],[-98.2336,18.0362,1062.8816],[-98.2365,18.0392,1024.0868],[-98.2381,18.0386,1012.4382],[-98.24,18.0335,995.0981],[-98.2442,18.0308,981.7991],[-98.2444,18.027,957.243],[-98.2492,18.0242,955.2991],[-98.2517,18.0281,958.8151],[-98.2569,18.0231,959.9276],[-98.2595,18.0258,956.9603],[-98.2601,18.0299,952.3599],[-98.2564,18.0308,966.5629],[-98.2537,18.0349,987.151],[-98.2572,18.0366,976.16],[-98.2602,18.0413,953.1992],[-98.2668,18.0452,950.9429],[-98.2756,18.0416,959.5336],[-98.2936,18.0415,953.0645],[-98.3001,18.0393,946.1033],[-98.2995,18.0353,1001.8774],[-98.3009,18.0327,990.4515],[-98.2944,18.0301,936.079],[-98.2961,18.0263,944.3794],[-98.2935,18.0165,950.7516],[-98.2948,18.0147,953.2488],[-98.2942,18.0046,974.2446],[-98.2901,18.0041,995.0],[-98.2858,17.9946,1068.5731],[-98.2941,17.9918,1053.2476],[-98.2937,17.9786,1233.105],[-98.2908,17.977,1155.6863],[-98.2881,17.9793,1109.4832],[-98.2851,17.9788,1084.8654],[-98.2888,17.9712,1194.6797],[-98.2748,17.9735,1041.8938],[-98.2784,17.9607,1248.6448],[-98.2817,17.9596,1326.2533],[-98.2768,17.9565,1209.996],[-98.2668,17.9597,1078.147],[-98.2674,17.9573,1078.9028],[-98.2646,17.9555,1089.8495],[-98.2635,17.9507,1111.5659],[-98.2606,17.9494,1105.4946],[-98.2592,17.9466,1146.7029],[-98.2582,17.9476,1124.9824],[-98.2572,17.9457,1121.7786],[-98.255,17.9459,1120.4791],[-98.252,17.9433,1138.6287],[-98.2514,17.9442,1128.6096],[-98.249,17.9415,1143.8275],[-98.2513,17.9383,1153.1989],[-98.2545,17.9386,1169.1233],[-98.2614,17.9342,1143.0732],[-98.2632,17.9257,1161.444],[-98.2612,17.9223,1166.4697],[-98.2702,17.9156,1186.1787],[-98.2677,17.9117,1241.3036],[-98.2611,17.9086,1260.1674],[-98.2585,17.9033,1311.3882],[-98.2586,17.8995,1349.9988],[-98.2569,17.899,1316.3794],[-98.2583,17.8955,1387.9597],[-98.2535,17.8894,1391.5247],[-98.2554,17.887,1405.129],[-98.255,17.8838,1403.4009],[-98.2521,17.8849,1415.1685],[-98.2475,17.8832,1445.3951],[-98.2465,17.8784,1465.4167],[-98.2097,17.8798,1417.386],[-98.2071,17.887,1374.3615],[-98.2049,17.8876,1370.6749],[-98.2054,17.8893,1382.2607],[-98.2028,17.8924,1375.3337],[-98.1975,17.8912,1324.7523],[-98.1972,17.8935,1326.6462],[-98.1959,17.8922,1307.6255],[-98.1951,17.8937,1307.6255],[-98.1964,17.8955,1289.4233],[-98.1946,17.8961,1289.4233],[-98.1885,17.8965,1287.9851],[-98.1877,17.8954,1347.1611],[-98.1837,17.8978,1263.5812],[-98.1849,17.8966,1259.1646],[-98.183,17.8958,1229.7266],[-98.1779,17.897,1238.4783],[-98.1748,17.8991,1200.8859],[-98.175,17.9015,1168.1912],[-98.1709,17.9021,1137.1631],[-98.1721,17.9033,1174.4172],[-98.1702,17.9084,1163.6156],[-98.1676,17.9099,1191.1499],[-98.1676,17.9125,1174.4575],[-98.1708,17.9141,1091.1223],[-98.1663,17.9158,1050.5671],[-98.1651,17.9185,1043.5887],[-98.172,17.9226,1061.1475],[-98.1729,17.9323,1043.7925],[-98.1694,17.9328,1029.4861],[-98.169,17.9349,1051.8395],[-98.1736,17.9419,1025.6302],[-98.1707,17.9426,1019.1804],[-98.1696,17.9528,1024.7244],[-98.1657,17.954,1026.5559],[-98.1623,17.9626,1048.8822],[-98.156,17.9628,1021.9764],[-98.1534,17.9674,1050.174]]],
[[[-97.9568,18.3301,1301.8093],[-97.964,18.3219,1289.1116],[-97.9672,18.3242,1359.5868],[-97.9672,18.3277,1427.2941],[-97.9718,18.3305,1535.6489],[-97.9795,18.3319,1654.7954],[-97.9895,18.3314,1800.1665],[-97.9967,18.3347,1839.6309],[-97.9994,18.33,1794.8556],[-98.0022,18.3314,1782.3141],[-98.0071,18.3296,1759.6194],[-98.0096,18.3215,1724.7321],[-98.0119,18.3194,1680.4539],[-98.0151,18.3179,1668.7792],[-98.0187,18.3197,1668.2363],[-98.0203,18.3181,1630.426],[-98.0207,18.3101,1679.5256],[-98.0235,18.3053,1602.5964],[-98.0328,18.3035,1331.8003],[-98.0256,18.3213,1407.0909],[-98.0217,18.3251,1410.1729],[-98.0236,18.3259,1440.0433],[-98.026,18.3408,1783.6055],[-98.0264,18.3396,1732.7174],[-98.0323,18.3441,1793.1058],[-98.0364,18.3501,1825.1011],[-98.0419,18.3388,1839.8296],[-98.052,18.3364,1578.3964],[-98.0522,18.3343,1560.7151],[-98.0555,18.3313,1492.5581],[-98.061,18.3339,1495.1968],[-98.0659,18.3426,1559.7343],[-98.0692,18.3442,1595.6995],[-98.0727,18.3421,1675.1265],[-98.076,18.3358,1606.7582],[-98.0791,18.3335,1597.7874],[-98.0808,18.3343,1544.7213],[-98.0828,18.339,1594.0421],[-98.0826,18.3431,1621.7897],[-98.0864,18.3449,1699.9447],[-98.0888,18.3435,1799.5509],[-98.0909,18.3468,1828.4109],[-98.094,18.3427,1823.0142],[-98.1051,18.3397,1826.4766],[-98.1072,18.3358,1848.3652],[-98.1053,18.3299,1782.4285],[-98.1102,18.3299,1842.6265],[-98.117,18.3423,1658.543],[-98.1076,18.348,1609.3931],[-98.1082,18.3561,1536.0034],[-98.1112,18.3604,1504.3286],[-98.1105,18.3637,1495.2506],[-98.1149,18.3684,1481.6219],[-98.1192,18.3691,1471.5408],[-98.1225,18.3668,1465.5343],[-98.1228,18.3647,1495.9916],[-98.1183,18.3587,1689.3666],[-98.1271,18.3544,1516.7786],[-98.1338,18.357,1525.7612],[-98.1375,18.3542,1607.7307],[-98.1375,18.3526,1625.6824],[-98.1404,18.3533,1636.4575],[-98.1432,18.3518,1667.3798],[-98.1375,18.3444,1651.3328],[-98.1399,18.3329,1647.1527],[-98.1397,18.3306,1677.0431],[-98.1364,18.3275,1562.8649],[-98.1448,18.3198,1502.4188],[-98.1435,18.3189,1502.4188],[-98.1456,18.3144,1498.5414],[-98.1445,18.3108,1465.649],[-98.1465,18.3078,1473.8553],[-98.1555,18.3099,1418.5986],[-98.168,18.3012,1367.1752],[-98.1678,18.2979,1378.5352],[-98.1603,18.2923,1464.6968],[-98.1587,18.2878,1588.3444],[-98.1598,18.2859,1656.833],[-98.1578,18.2809,1714.6705],[-98.155,18.2815,1799.1052],[-98.1563,18.2767,1814.3761],[-98.1533,18.2732,1820.9036],[-98.1539,18.269,1829.239],[-98.1603,18.262,1642.5654],[-98.167,18.2511,1519.6282],[-98.1682,18.2288,1294.7355],[-98.1671,18.2294,1318.7751],[-98.1655,18.2263,1324.4204],[-98.1619,18.2243,1337.976],[-98.1638,18.2171,1462.2382],[-98.1593,18.2196,1494.86],[-98.1606,18.2144,1449.8748],[-98.163,18.2129,1416.1195],[-98.1619,18.2097,1388.0947],[-98.1628,18.2045,1376.6184],[-98.166,18.2026,1389.4712],[-98.1634,18.2002,1403.0944],[-98.1598,18.2009,1382.2358],[-98.1597,18.1982,1370.3108],[-98.1581,18.1976,1360.4761],[-98.1602,18.195,1347.6428],[-98.1585,18.1948,1353.6057],[-98.1602,18.1924,1329.7896],[-98.1601,18.1852,1295.5111],[-98.1632,18.1873,1334.3638],[-98.164,18.1862,1320.6172],[-98.1588,18.1773,1279.1512],[-98.1577,18.1777,1279.1512],[-98.1586,18.1754,1321.1798],[-98.157,18.1748,1299.3735],[-98.1574,18.1776,1271.0712],[-98.1551,18.1772,1256.3887],[-98.1543,18.1784,1256.3887],[-98.1492,18.1715,1237.9641],[-98.1448,18.1713,1302.8589],[-98.1446,18.1781,1286.7986],[-98.1428,18.1809,1314.8635],[-98.1455,18.1831,1370.9983],[-98.1468,18.182,1375.8239],[-98.1474,18.1841,1328.1689],[-98.1461,18.1868,1347.2897],[-98.1426,18.1873,1343.1389],[-98.1431,18.1906,1360.998],[-98.1386,18.1877,1320.5432],[-98.1385,18.1835,1386.5775],[-98.132,18.1761,1255.3048],[-98.1319,18.1742,1254.7683],[-98.1274,18.1757,1302.3851],[-98.1264,18.1787,1342.3821],[-98.1192,18.1734,1279.9342],[-98.113,18.1784,1224.1704],[-98.1067,18.1805,1189.5173],[-98.0954,18.174,1167.3525],[-98.0997,18.17,1198.7639],[-98.0984,18.1692,1198.7639],[-98.0986,18.1657,1253.688],[-98.0942,18.1664,1237.011],[-98.0886,18.1622,1197.5071],[-98.0846,18.1615,1190.1492],[-98.0807,18.1587,1200.3916],[-98.0792,18.1551,1136.0289],[-98.0768,18.157,1138.541],[-98.0581,18.1495,1214.8884],[-98.0618,18.147,1186.6331],[-98.06,18.1467,1183.7047],[-98.0595,18.1444,1196.6382],[-98.0611,18.1458,1186.6331],[-98.0642,18.1454,1164.4575],[-98.0612,18.1441,1200.9318],[-98.0615,18.142,1205.9564],[-98.0632,18.142,1182.1034],[-98.0636,18.1372,1162.1133],[-98.0623,18.1359,1149.9158],[-98.0573,18.1355,1153.7261],[-98.0559,18.1329,1156.3831],[-98.0532,18.135,1177.7002],[-98.0501,18.1337,1177.5635],[-98.0494,18.1361,1175.9326],[-98.0443,18.1355,1180.5581],[-98.045,18.1382,1187.9341],[-98.0416,18.1401,1204.0398],[-98.0365,18.1401,1215.5514],[-98.0308,18.1291,1264.9357],[-98.031,18.1248,1244.7203],[-98.0343,18.1156,1225.5984],[-98.0366,18.1161,1225.0078],[-98.0378,18.1126,1249.2284],[-98.039,18.1128,1250.7789],[-98.0371,18.111,1244.0956],[-98.0393,18.1103,1221.0305],[-98.0379,18.1081,1225.1504],[-98.0407,18.1082,1223.98],[-98.0388,18.1049,1184.0862],[-98.0426,18.1053,1230.1763],[-98.0442,18.103,1168.3291],[-98.0469,18.1037,1160.572],[-98.0485,18.1062,1176.674],[-98.0508,18.0973,1168.5264],[-98.0464,18.0942,1159.2041],[-98.0483,18.0933,1154.5247],[-98.0466,18.0909,1182.2311],[-98.0475,18.0872,1175.9343],[-98.043,18.086,1168.3142],[-98.0373,18.0876,1198.5503],[-98.0365,18.0799,1183.73],[-98.0345,18.0835,1180.5945],[-98.031,18.085,1178.5021],[-98.0291,18.0829,1185.9865],[-98.0251,18.0836,1190.1066],[-98.02,18.0795,1213.7627],[-98.0149,18.0808,1225.074],[-98.0129,18.0772,1205.6526],[-98.0088,18.0792,1234.2351],[-98.0084,18.0829,1231.6963],[-98.0042,18.0863,1246.325],[-97.997,18.0831,1287.9203],[-97.9962,18.0846,1249.0708],[-97.993,18.0845,1239.6843],[-97.9902,18.0816,1246.5217],[-97.9869,18.0842,1283.4258],[-97.9856,18.0888,1263.1744],[-97.9872,18.0922,1280.2296],[-97.9841,18.0996,1295.1047],[-97.9795,18.0999,1313.7006],[-97.9772,18.1042,1372.3752],[-97.9726,18.1057,1348.3438],[-97.9724,18.1072,1371.696],[-97.9649,18.1069,1389.5135],[-97.9609,18.1086,1403.1321],[-97.9682,18.1221,1484.6318],[-97.9734,18.1276,1497.6226],[-97.9868,18.13,1456.2273],[-97.9924,18.1271,1440.1637],[-97.995,18.1274,1412.8992],[-97.9942,18.1308,1439.1665],[-97.9961,18.1333,1403.6561],[-97.9975,18.1326,1413.3589],[-97.9985,18.1355,1345.8176],[-97.9766,18.1489,1430.3733],[-97.978,18.1544,1378.9766],[-97.9767,18.1589,1451.3394],[-97.9747,18.1601,1391.3755],[-97.9761,18.1625,1435.2007],[-97.9815,18.1641,1350.8944],[-97.987799999999993,18.1601,1334.0469],[-97.9896,18.1604,1323.6902],[-97.9892,18.1667,1350.8193],[-97.9853,18.1708,1415.8394],[-97.9887,18.1749,1397.6194],[-97.9829,18.1804,1418.4219],[-97.9802,18.1944,1511.6154],[-97.9775,18.192,1521.0166],[-97.9737,18.1914,1474.6281],[-97.9731,18.1948,1442.3579],[-97.9681,18.1967,1421.9821],[-97.9685,18.1995,1419.5598],[-97.9672,18.2008,1379.012],[-97.9699,18.2027,1364.4761],[-97.9698,18.2073,1361.1311],[-97.9728,18.2081,1341.7894],[-97.9731,18.2102,1320.8406],[-97.9709,18.2124,1306.5508],[-97.9731,18.2182,1279.5398],[-97.9728,18.222,1265.8253],[-97.9777,18.2196,1285.8291],[-97.9826,18.2216,1333.8191],[-97.9856,18.2191,1360.7517],[-97.9839,18.2226,1323.8472],[-97.9873,18.2231,1404.1903],[-97.9916,18.2172,1455.2208],[-97.9916,18.2276,1370.0658],[-97.9897,18.2316,1432.1058],[-97.9862,18.2342,1338.6553],[-97.9922,18.2383,1307.6232],[-97.9962,18.2381,1286.4895],[-98.0026,18.2457,1255.027],[-98.0012,18.251,1211.4813],[-97.996,18.2532,1222.6801],[-97.9959,18.2493,1221.8917],[-97.9917,18.2484,1248.2633],[-97.9891,18.2496,1231.6426],[-97.9879,18.2481,1225.2825],[-97.9849,18.2563,1355.5641],[-97.9784,18.2582,1418.0264],[-97.9746,18.2617,1579.5706],[-97.9707,18.2601,1559.8092],[-97.9685,18.2622,1626.4929],[-97.9729,18.2758,1556.1456],[-97.9713,18.2808,1435.2703],[-97.973,18.2839,1327.4934],[-97.9646,18.2853,1364.9764],[-97.9662,18.2916,1478.1074],[-97.9624,18.2938,1513.3057],[-97.9595,18.3016,1678.0671],[-97.9527,18.3086,1634.4873],[-97.9419,18.3133,1657.6794],[-97.9419,18.3172,1598.1721],[-97.9391,18.3201,1715.3162],[-97.933,18.3203,1726.2457],[-97.9298,18.3242,1801.7482],[-97.9477,18.333,1314.5227],[-97.95,18.3321,1312.7209],[-97.9539,18.3334,1312.7655],[-97.9568,18.3301,1301.8093]]]]}}