{"type": "Feature","bbox": [-100.8432,22.0854,-100.4493,22.4367],"geometry": {"type": "MultiPolygon","coordinates": [[[[-100.4493,22.3908,1840.5139],[-100.4651,22.383,1818.1837],[-100.466,22.3898,1726.2289],[-100.4708,22.3953,1729.8203],[-100.4712,22.4045,1696.2838],[-100.4783,22.4023,1705.5569],[-100.4798,22.4062,1707.2284],[-100.4776,22.4068,1704.9022],[-100.4779,22.4088,1703.2738],[-100.4753,22.4104,1700.9385],[-100.4728,22.4102,1697.4558],[-100.474,22.4199,1687.7745],[-100.4721,22.4216,1687.1135],[-100.4821,22.4266,1708.4414],[-100.4822,22.4293,1710.1177],[-100.4877,22.4338,1715.3115],[-100.4955,22.4338,1688.1976],[-100.5019,22.4367,1707.7587],[-100.5222,22.4349,1745.7097],[-100.5195,22.4298,1791.1346],[-100.5428,22.4163,1644.624],[-100.5421,22.413,1650.9852],[-100.5362,22.409,1664.8367],[-100.5353,22.4046,1699.911],[-100.5374,22.4029,1677.849],[-100.5462,22.4058,1633.8174],[-100.5478,22.3966,1637.6379],[-100.553,22.3921,1608.9727],[-100.5518,22.3859,1625.9895],[-100.5477,22.3819,1637.3899],[-100.5569,22.3701,1703.8459],[-100.5944,22.3754,1599.7089],[-100.5978,22.3592,1607.1836],[-100.6126,22.362,1590.769],[-100.6141,22.3611,1590.769],[-100.6145,22.356,1591.1399],[-100.6128,22.3477,1592.1338],[-100.6197,22.3482,1591.0502],[-100.6199,22.3465,1590.1614],[-100.6313,22.3448,1599.7908],[-100.6351,22.3472,1602.422],[-100.6354,22.351,1597.9064],[-100.6388,22.3563,1603.2982],[-100.6429,22.3552,1618.7306],[-100.6434,22.3587,1626.1882],[-100.6466,22.3589,1632.0991],[-100.6485,22.3609,1638.7126],[-100.6545,22.3604,1660.959],[-100.6613,22.3575,1680.4156],[-100.6646,22.3532,1692.6256],[-100.6741,22.3479,1719.3984],[-100.6736,22.3615,1699.2311],[-100.6777,22.3618,1707.2839],[-100.6784,22.3455,1733.6331],[-100.6875,22.3392,1754.7125],[-100.702,22.3382,1786.4329],[-100.7099,22.3385,1817.8938],[-100.712,22.3439,1803.429],[-100.7341,22.3515,1835.7253],[-100.7388,22.35,1851.3823],[-100.7427,22.3415,1911.2704],[-100.754,22.3431,1986.4387],[-100.7504,22.363,1966.26],[-100.7553,22.364,1963.303],[-100.7597,22.3594,1941.5156],[-100.7618,22.3617,1926.3718],[-100.7697,22.3625,1893.8303],[-100.7744,22.3604,1870.3541],[-100.7811,22.3602,1835.0417],[-100.7898,22.3647,1822.0464],[-100.7934,22.3589,1834.8423],[-100.793,22.3538,1844.3867],[-100.7821,22.329,1972.7792],[-100.7969,22.3458,1860.1205],[-100.7998,22.3266,1892.3904],[-100.8119,22.3246,1874.2655],[-100.8432,22.2944,1828.0656],[-100.8164,22.2871,1898.2429],[-100.8201,22.2777,1898.8945],[-100.8049,22.2737,1971.0747],[-100.8102,22.2609,2082.9275],[-100.7871,22.2637,2170.658],[-100.7619,22.2738,2122.9658],[-100.761,22.2709,2183.9531],[-100.7847,22.2604,2292.0576],[-100.7819,22.2532,2317.0571],[-100.7553,22.2577,2186.9868],[-100.752,22.2602,2203.6533],[-100.7448,22.2577,2254.135],[-100.7346,22.2595,2325.0059],[-100.7225,22.255,2116.2395],[-100.7205,22.2404,2083.9741],[-100.7182,22.2378,2115.252],[-100.7217,22.2376,2211.2026],[-100.7263,22.2345,2296.3218],[-100.7178,22.2154,2179.8486],[-100.7199,22.2089,2152.8704],[-100.7105,22.2125,2186.9036],[-100.7068,22.2076,2086.0049],[-100.7086,22.1977,2186.7556],[-100.7105,22.197,2280.9084],[-100.7062,22.184,2167.2285],[-100.6996,22.1728,2195.5508],[-100.6972,22.1713,2147.5544],[-100.6909,22.1552,2133.3301],[-100.7069,22.1401,2034.0171],[-100.7201,22.1366,2056.0737],[-100.7128,22.1338,2060.9597],[-100.7015,22.1322,2089.9873],[-100.6908,22.1335,2137.542],[-100.6898,22.1231,2177.5769],[-100.6873,22.1177,2127.675],[-100.6833,22.1175,2141.4595],[-100.6815,22.1015,2172.1123],[-100.6775,22.0984,2183.3953],[-100.6778,22.0967,2204.5798],[-100.6542,22.0854,2539.885],[-100.6545,22.0935,2416.2793],[-100.6632,22.1061,2416.186],[-100.6535,22.1126,2186.1729],[-100.6484,22.108,2119.8943],[-100.6437,22.1076,2052.864],[-100.6343,22.1123,2074.189],[-100.6285,22.1127,2052.7253],[-100.6208,22.1106,2070.689],[-100.6164,22.1063,2169.3486],[-100.6171,22.096,2191.3655],[-100.6018,22.0913,2286.9541],[-100.592,22.0934,2174.9231],[-100.5853,22.0929,2108.0586],[-100.5767,22.096,2004.1237],[-100.5801,22.1052,2094.8936],[-100.5782,22.1309,1952.8381],[-100.5605,22.1424,1809.3463],[-100.5554,22.1558,1884.2024],[-100.5763,22.1778,1881.6803],[-100.5743,22.1879,2007.3362],[-100.5689,22.1869,1950.354],[-100.562,22.1965,1722.5684],[-100.5701,22.2089,1570.0278],[-100.5666,22.2127,1539.0681],[-100.5648,22.2186,1548.3611],[-100.5756,22.2261,1698.8727],[-100.59,22.2435,1631.9204],[-100.5936,22.2566,1659.106],[-100.5947,22.2562,1673.571],[-100.5927,22.26,1661.4083],[-100.5876,22.2629,1611.9695],[-100.5837,22.2697,1539.486],[-100.5757,22.2696,1504.8665],[-100.5737,22.2748,1543.6833],[-100.5702,22.2775,1581.5017],[-100.5683,22.2764,1566.7231],[-100.5652,22.2775,1625.2864],[-100.5596,22.2818,1705.3967],[-100.5564,22.2809,1714.0862],[-100.5252,22.2869,1695.8473],[-100.5276,22.2917,1750.4882],[-100.529,22.308,1858.8115],[-100.4767,22.3233,1759.3528],[-100.4891,22.3656,2183.592],[-100.4497,22.3882,1805.6902],[-100.4493,22.3908,1840.5139]]]]}
,"properties": {"GID_2": "MEX.24.4_2","GID_0": "MEX","country": "México","GID_1": "MEX.24_1","province": "SanLuisPotosí","NL_NAME_1": "NA","county": "ArmadillodelosInfante","VARNAME_2": "NA","NL_NAME_2": "NA","TYPE_2": "Município","ENGTYPE_2": "Municipality","CC_2": "NA","HASC_2": "NA","name": "Armadillodelos_Infante.county","area_km2": 624.8813,"hist_schema_id": "Elevation0-9000","hist_area_km2": {"1500": 0.2355,"1525": 1.6874,"1550": 7.4946,"1575": 11.163,"1600": 30.6965,"1625": 23.6761,"1650": 26.599,"1675": 26.8342,"1700": 30.7954,"1725": 32.464,"1750": 34.231,"1775": 31.4081,"1800": 30.3705,"1825": 26.448,"1850": 29.0394,"1875": 28.6077,"1900": 27.6467,"1925": 26.4512,"1950": 28.3557,"1975": 24.7864,"2000": 24.4333,"2025": 21.9807,"2050": 19.2338,"2075": 15.2695,"2100": 12.1881,"2125": 10.7365,"2150": 8.9309,"2175": 7.7539,"2200": 6.4387,"2225": 5.3785,"2250": 3.4941,"2275": 3.3568,"2300": 2.1203,"2325": 1.4922,"2350": 1.1978,"2375": 0.4714,"2400": 0.4518,"2425": 0.4322,"2450": 0.2554,"2475": 0.0982,"2500": 0.0786,"2525": 0.0786,"2550": 0.0196}}}