{"type": "Feature","bbox": [-96.3218,17.3528,-96.2695,17.4133],"geometry": {"type": "MultiPolygon","coordinates": [[[[-96.319,17.3763,1086.9668],[-96.3139,17.3726,842.1313],[-96.3132,17.3682,918.5967],[-96.3048,17.3622,1233.644],[-96.2873,17.3626,1483.5273],[-96.2805,17.3574,1790.6067],[-96.2774,17.3528,1904.7402],[-96.2738,17.3595,1876.0836],[-96.2735,17.3656,2021.1763],[-96.2736,17.3698,1994.7158],[-96.2771,17.3737,2011.2831],[-96.2774,17.3768,2048.9578],[-96.2742,17.3799,1921.1796],[-96.2729,17.3785,1907.2083],[-96.2721,17.383,1931.438],[-96.2695,17.3849,1922.7766],[-96.2709,17.3948,1776.7124],[-96.277,17.4026,1720.6886],[-96.2805,17.4023,1715.8281],[-96.2876,17.4121,1592.8086],[-96.2904,17.4133,1501.467],[-96.2924,17.4071,1342.9949],[-96.3111,17.4076,969.8],[-96.3144,17.3986,944.2881],[-96.3117,17.3956,965.4543],[-96.3144,17.3951,1006.4144],[-96.3164,17.3864,973.6257],[-96.3198,17.3849,979.5405],[-96.3218,17.3819,1027.009],[-96.319,17.3763,1086.9668]]]]}
,"properties": {"GID_2": "MEX.20.540_2","GID_0": "MEX","country": "México","GID_1": "MEX.20_1","province": "Oaxaca","NL_NAME_1": "NA","county": "TanetzedeZaragoza","VARNAME_2": "NA","NL_NAME_2": "NA","TYPE_2": "Município","ENGTYPE_2": "Municipality","CC_2": "NA","HASC_2": "NA","name": "Tanetzede_Zaragoza.county","area_km2": 22.58088,"hist_schema_id": "Elevation0-9000","hist_area_km2": {"675": 0.06069,"700": 0.10116,"725": 0.12139,"750": 0.20232,"775": 0.34396,"800": 0.3035,"825": 0.42489,"850": 0.46537,"875": 0.40465,"900": 0.48561,"925": 0.40466,"950": 0.40467,"975": 0.56654,"1000": 0.56653,"1025": 0.22256,"1050": 0.30351,"1075": 0.50584,"1100": 0.38444,"1125": 0.44515,"1150": 0.38445,"1175": 0.58678,"1200": 0.46539,"1225": 0.50584,"1250": 0.50585,"1275": 0.48561,"1300": 0.52607,"1325": 0.64748,"1350": 0.38443,"1375": 0.54631,"1400": 0.50585,"1425": 0.46538,"1450": 0.44515,"1475": 0.46537,"1500": 0.4856,"1525": 0.7284,"1550": 0.34397,"1575": 0.58677,"1600": 0.38444,"1625": 0.64748,"1650": 0.46538,"1675": 0.44512,"1700": 0.46538,"1725": 0.44515,"1750": 0.40469,"1775": 0.40469,"1800": 0.40469,"1825": 0.28328,"1850": 0.52611,"1875": 0.344,"1900": 0.38446,"1925": 0.34399,"1950": 0.20235,"1975": 0.16188,"2000": 0.12141,"2025": 0.20235,"2050": 0.16188}}}