{"type": "Feature","bbox": [-97.5747,19.1004,-97.4209,19.3425],"geometry": {"type": "MultiPolygon","coordinates": [[[[-97.4814,19.1004,2509.9363],[-97.4779,19.1128,2498.8267],[-97.4781,19.1147,2498.4487],[-97.4821,19.1179,2490.9058],[-97.4811,19.1193,2489.1655],[-97.4838,19.127,2479.2903],[-97.4752,19.1424,2466.2471],[-97.4787,19.1439,2458.5659],[-97.4616,19.1665,2453.2957],[-97.4681,19.1704,2442.1194],[-97.4421,19.1941,2417.908],[-97.4436,19.1954,2416.8965],[-97.442,19.1969,2416.8569],[-97.4427,19.1993,2415.7705],[-97.4402,19.1984,2417.8862],[-97.4392,19.1997,2448.3733],[-97.4386,19.2116,2416.7778],[-97.4356,19.215,2418.0093],[-97.4386,19.2159,2414.627],[-97.4333,19.2303,2435.4409],[-97.4242,19.2429,2461.6375],[-97.4238,19.2498,2494.2432],[-97.428,19.253,2505.6494],[-97.4244,19.2545,2484.1865],[-97.4209,19.2591,2476.1675],[-97.447,19.2646,3445.4556],[-97.456,19.268,3377.1743],[-97.4574,19.2709,3228.6316],[-97.4632,19.2748,2815.4822],[-97.4704,19.297,3201.9656],[-97.4686,19.3081,3043.8135],[-97.4717,19.3186,2645.9116],[-97.4679,19.327,2470.7495],[-97.4784,19.3315,2442.8296],[-97.4764,19.3361,2426.9006],[-97.4705,19.3425,2424.8616],[-97.5074,19.326,2401.9287],[-97.5108,19.321,2376.8584],[-97.5129,19.3234,2372.5798],[-97.5143,19.321,2374.2329],[-97.5179,19.32,2375.094],[-97.5252,19.3205,2370.6111],[-97.5266,19.3221,2368.729],[-97.5302,19.3201,2370.9326],[-97.528,19.3189,2375.3208],[-97.5281,19.3171,2378.2434],[-97.5322,19.3177,2372.9854],[-97.532,19.3156,2375.6648],[-97.557,19.3131,2349.813],[-97.5314,19.2686,2364.6855],[-97.5298,19.269,2364.5911],[-97.5262,19.2767,2370.8376],[-97.5213,19.2741,2370.5469],[-97.5202,19.2751,2370.5469],[-97.5214,19.2757,2380.2119],[-97.5174,19.2777,2378.8662],[-97.5116,19.2746,2389.4116],[-97.5172,19.2667,2390.1479],[-97.5319,19.2633,2365.3147],[-97.5426,19.2514,2361.4626],[-97.5281,19.2424,2375.6921],[-97.537,19.2284,2374.5662],[-97.5305,19.2253,2378.9905],[-97.5359,19.2173,2376.9507],[-97.5261,19.2128,2379.6516],[-97.5295,19.2067,2379.5742],[-97.5372,19.2053,2376.5454],[-97.5606,19.1925,2366.1738],[-97.5573,19.1823,2370.3311],[-97.5717,19.1803,2369.6821],[-97.5747,19.1769,2374.6758],[-97.573,19.1759,2382.822],[-97.5694,19.1776,2376.855],[-97.5673,19.1647,2411.043],[-97.5613,19.161,2416.6602],[-97.5572,19.162,2425.4175],[-97.5569,19.1585,2438.1074],[-97.5533,19.1569,2433.501],[-97.5526,19.1581,2421.834],[-97.5526,19.1523,2449.9512],[-97.5404,19.1485,2408.126],[-97.5414,19.137,2417.811],[-97.5433,19.1333,2428.4768],[-97.5344,19.132,2447.5115],[-97.5325,19.1293,2444.2249],[-97.5054,19.1198,2460.1257],[-97.4998,19.1201,2466.7036],[-97.4993,19.1159,2472.2251],[-97.4944,19.1161,2475.0894],[-97.4814,19.1004,2509.9363]]]]}
,"properties": {"GID_2": "MEX.21.138_2","GID_0": "MEX","country": "México","GID_1": "MEX.21_1","province": "Puebla","NL_NAME_1": "NA","county": "SanNicolásBuenosAires","VARNAME_2": "NA","NL_NAME_2": "NA","TYPE_2": "Município","ENGTYPE_2": "Municipality","CC_2": "NA","HASC_2": "NA","name": "San_Nicolás_Buenos_Aires.county","area_km2": 211.1313,"hist_schema_id": "Elevation0-9000","hist_area_km2": {"2350": 2.4814,"2375": 41.7181,"2400": 63.5275,"2425": 37.6838,"2450": 19.3031,"2475": 10.1909,"2500": 6.546,"2525": 4.4231,"2550": 3.2224,"2575": 3.1223,"2600": 2.0815,"2625": 1.5811,"2650": 1.381,"2675": 1.1408,"2700": 0.7005,"2725": 0.9806,"2750": 0.7805,"2775": 1.1007,"2800": 0.9606,"2825": 0.6404,"2850": 0.6004,"2875": 0.4203,"2900": 0.4003,"2925": 0.4403,"2950": 0.3802,"2975": 0.4603,"3000": 0.3602,"3025": 0.4403,"3050": 0.3602,"3075": 0.2201,"3100": 0.3002,"3125": 0.4603,"3150": 0.3602,"3175": 0.4203,"3200": 0.2602,"3225": 0.1801,"3250": 0.2001,"3275": 0.3002,"3300": 0.1601,"3325": 0.2001,"3350": 0.2201,"3375": 0.1801,"3400": 0.0801,"3425": 0.0801,"3450": 0.06,"3475": 0.02}}}