{"type": "Feature","bbox": [-93.2255,17.1823,-93.1235,17.2665],"geometry": {"type": "MultiPolygon","coordinates": [[[[-93.1785,17.2665,966.4891],[-93.1832,17.2626,557.2989],[-93.1925,17.2606,511.3847],[-93.1884,17.2521,853.1753],[-93.1839,17.2478,1186.0535],[-93.1804,17.2469,1436.1838],[-93.2094,17.2318,1396.5696],[-93.2233,17.214,1414.4471],[-93.2215,17.2093,1658.3063],[-93.2225,17.2053,1616.927],[-93.2192,17.1996,1593.6947],[-93.2255,17.1996,1574.5735],[-93.2193,17.1869,1641.9714],[-93.2147,17.1823,1551.5582],[-93.2153,17.1863,1658.1613],[-93.2065,17.1847,1455.3087],[-93.1984,17.1891,1631.5735],[-93.1963,17.1949,1695.6816],[-93.1929,17.1916,1626.3124],[-93.1575,17.1903,1718.2218],[-93.1449,17.2003,1730.4281],[-93.1441,17.197,1727.4807],[-93.1347,17.1977,1803.6725],[-93.1309,17.1956,1949.4091],[-93.1267,17.1966,2020.4634],[-93.1235,17.2118,1474.1007],[-93.1311,17.2211,1273.5887],[-93.1383,17.2415,962.9266],[-93.1622,17.2651,974.1827],[-93.1755,17.2648,956.4122],[-93.1785,17.2665,966.4891]]]]}
,"properties": {"GID_2": "MEX.5.68_2","GID_0": "MEX","country": "México","GID_1": "MEX.5_1","province": "Chiapas","NL_NAME_1": "NA","county": "Ocotepec","VARNAME_2": "NA","NL_NAME_2": "NA","TYPE_2": "Município","ENGTYPE_2": "Municipality","CC_2": "NA","HASC_2": "NA","name": "Ocotepec.county","area_km2": 61.16025,"hist_schema_id": "Elevation0-9000","hist_area_km2": {"500": 0.02025,"550": 0.08099,"575": 0.06074,"600": 0.08099,"625": 0.14173,"650": 0.12148,"675": 0.14173,"700": 0.16198,"725": 0.18223,"750": 0.36445,"775": 0.20247,"800": 0.28347,"825": 0.28347,"850": 0.30371,"875": 0.20248,"900": 0.44545,"925": 0.30372,"950": 0.22273,"975": 0.34422,"1000": 0.30372,"1025": 0.58721,"1050": 0.44548,"1075": 0.34423,"1100": 0.46573,"1125": 0.40498,"1150": 0.50623,"1175": 0.60749,"1200": 0.6075,"1225": 0.648,"1250": 0.81003,"1275": 0.72903,"1300": 0.95179,"1325": 1.35684,"1350": 1.53913,"1375": 1.86313,"1400": 1.86316,"1425": 2.69344,"1450": 2.99728,"1475": 2.93653,"1500": 3.07833,"1525": 2.73402,"1550": 3.28086,"1575": 3.58467,"1600": 3.66578,"1625": 4.41515,"1650": 5.10377,"1675": 3.3012,"1700": 1.35691,"1725": 0.99234,"1750": 0.56705,"1775": 0.44557,"1800": 0.22279,"1825": 0.38482,"1850": 0.3038,"1875": 0.24304,"1900": 0.28355,"1925": 0.14178,"1950": 0.12152,"1975": 0.06076,"2000": 0.14178,"2025": 0.02025,"2050": 0.10127}}}