{"type":"Feature","properties":{"GID_2":"MEX.20.400_2","GID_0":"MEX","country":"México","GID_1":"MEX.20_1","province":"Oaxaca","NL_NAME_1":"NA","county":"SantaMaríaAlotepec","VARNAME_2":"NA","NL_NAME_2":"NA","TYPE_2":"Município","ENGTYPE_2":"Municipality","CC_2":"NA","HASC_2":"NA","name":"Santa_María_Alotepec.county"},
"geometry":{"type": "MultiPolygon","coordinates": [[[[-95.8785,16.9934,742.676],[-95.8741,16.988,790.0943],[-95.8712,16.9897,728.524],[-95.8704,16.9878,709.0972],[-95.8641,16.9884,717.1841],[-95.8596,16.9916,683.7147],[-95.8503,16.9903,678.1635],[-95.8465,16.9962,694.843],[-95.8474,17.0035,614.7225],[-95.8445,17.0052,745.1418],[-95.844,17.0076,596.4463],[-95.8378,17.0097,573.9],[-95.8349,17.0191,658.4503],[-95.837,17.022,768.7807],[-95.8368,17.027,615.6676],[-95.8388,17.0293,591.6556],[-95.8427,17.0286,618.5804],[-95.8512,17.0318,611.6888],[-95.8465,17.0486,1414.0519],[-95.8192,17.0667,816.1443],[-95.813,17.066,845.6439],[-95.8042,17.0688,827.3946],[-95.8026,17.0715,841.5636],[-95.7787,17.0729,398.4219],[-95.7829,17.0765,379.3829],[-95.7852,17.0753,433.435],[-95.7856,17.079,398.4109],[-95.7824,17.0801,418.7361],[-95.792,17.0897,812.9878],[-95.7991,17.1007,1005.0656],[-95.8133,17.1146,1194.4983],[-95.8162,17.1237,1295.2452],[-95.8234,17.1293,1294.0995],[-95.8035,17.1548,781.333],[-95.8156,17.1735,476.2184],[-95.8201,17.1595,790.063],[-95.8189,17.1436,1188.1057],[-95.8279,17.1371,1336.9153],[-95.8513,17.1282,1160.3892],[-95.8759,17.1321,1283.0133],[-95.878,17.13,1317.1368],[-95.8944,17.132,1256.7671],[-95.9094,17.1244,1621.9149],[-95.9111,17.121,1595.6759],[-95.9047,17.1151,1850.7904],[-95.9009,17.1142,1924.7802],[-95.8964,17.1084,2244.3489],[-95.8928,17.1084,2398.7036],[-95.8896,17.1164,1885.3757],[-95.8742,17.1123,1640.2742],[-95.866,17.113,1515.197],[-95.8812,17.1063,2547.1282],[-95.8662,17.0632,1882.1816],[-95.8709,17.0465,805.0479],[-95.8705,17.0398,669.7745],[-95.8816,17.043,734.3345],[-95.8852,17.0336,1227.0957],[-95.8968,17.0293,1415.5172],[-95.9007,17.0258,1483.0082],[-95.8976,17.0248,1344.5421],[-95.8914,17.0258,1202.2571],[-95.8836,17.0211,1045.3575],[-95.8802,17.0173,1002.4352],[-95.8761,17.0175,976.6242],[-95.8728,17.0157,946.0979],[-95.8699,17.0106,934.8424],[-95.8747,17.0066,968.2134],[-95.8713,17.0025,1087.4583],[-95.8785,16.9934,742.676]]]]}}