{"type": "Feature","bbox": [-101.1126,26.5456,-100.534,27.1111],"geometry": {"type": "MultiPolygon","coordinates": [[[[-101.0608,27.0236,1519.928],[-101.0534,27.0083,1346.1787],[-101.0379,26.9839,695.1531],[-100.9959,26.9754,671.8836],[-100.9817,26.9672,1155.8021],[-100.9588,26.9298,762.3517],[-100.9404,26.9126,687.8309],[-100.9167,26.8826,752.5835],[-100.9339,26.8701,787.9464],[-100.9383,26.8393,1100.3967],[-100.981,26.81,804.4591],[-100.9749,26.7953,689.9797],[-100.9663,26.7895,751.038],[-100.9701,26.7864,733.7111],[-100.9828,26.7852,702.1451],[-101.0073,26.7948,679.4388],[-101.1107,26.7042,1882.7317],[-101.1105,26.6987,1841.0969],[-101.1126,26.6977,1935.2863],[-101.0562,26.6368,1475.2383],[-101.0534,26.6377,1413.4663],[-101.0442,26.6348,1392.0853],[-101.0439,26.6288,1335.4004],[-101.0387,26.6224,1187.6577],[-101.0364,26.6221,1251.0991],[-101.0187,26.5977,1135.3999],[-100.996,26.5978,921.0546],[-100.9964,26.5931,1068.8268],[-100.9915,26.5887,1019.9918],[-100.9949,26.5799,1080.6216],[-100.9929,26.5696,1002.1479],[-100.9873,26.5594,1087.4193],[-100.9896,26.5583,1092.3838],[-100.9891,26.5538,1063.5864],[-100.9838,26.5456,1091.8049],[-100.9051,26.6086,768.1773],[-100.753,26.7352,508.7298],[-100.6912,26.6138,625.2104],[-100.6144,26.6856,1586.4028],[-100.6013,26.7371,1563.1285],[-100.5901,26.7595,1862.2517],[-100.5663,26.7821,463.5505],[-100.5607,26.7855,416.7529],[-100.5572,26.7903,409.1728],[-100.5537,26.7914,399.0272],[-100.5382,26.8086,378.7195],[-100.5386,26.8115,377.3978],[-100.5414,26.8127,377.0072],[-100.5417,26.8212,373.5296],[-100.5447,26.8227,372.8263],[-100.5462,26.8319,369.887],[-100.5456,26.8414,367.6274],[-100.5476,26.8452,365.8409],[-100.5466,26.8477,364.8646],[-100.5514,26.8587,361.1411],[-100.5407,26.881,352.3119],[-100.5416,26.8889,348.7649],[-100.5384,26.9061,342.7693],[-100.5449,26.9253,338.4988],[-100.5404,26.9325,329.8743],[-100.5382,26.9397,329.3901],[-100.5418,26.9492,323.9476],[-100.5408,26.9548,320.9809],[-100.5427,26.9604,318.884],[-100.5412,26.966,319.1718],[-100.5453,26.9784,317.4965],[-100.5397,26.9863,312.1343],[-100.5419,26.9966,308.8234],[-100.5408,27.0138,301.3292],[-100.5357,27.027,303.1606],[-100.5388,27.0387,293.9249],[-100.534,27.0456,289.9589],[-100.6537,27.0757,389.2236],[-100.656,27.0821,352.2791],[-100.6625,27.0865,377.8022],[-100.6693,27.0871,376.2224],[-100.6742,27.0846,402.1606],[-100.6768,27.1069,359.5533],[-100.6805,27.1108,351.5075],[-100.6872,27.1111,352.7535],[-100.6989,27.1076,390.0499],[-100.7008,27.1036,399.4614],[-100.7093,27.0988,396.2298],[-100.7116,27.0885,407.3099],[-100.7197,27.0792,416.1303],[-100.7261,27.0779,423.9413],[-100.7298,27.0814,431.7564],[-100.7377,27.0847,405.1169],[-100.7486,27.0813,406.363],[-100.7462,27.0624,420.0246],[-100.7358,27.0476,453.9333],[-100.7409,27.0411,461.463],[-100.7477,27.0363,460.0375],[-100.7476,27.0476,450.4206],[-100.7627,27.0626,425.8333],[-100.7702,27.0631,463.7836],[-100.7787,27.0591,451.466],[-100.7842,27.0589,444.8362],[-100.7942,27.0511,455.1401],[-100.7983,27.0453,459.6408],[-100.8093,27.0565,453.2844],[-100.8076,27.0658,450.6159],[-100.8096,27.0684,471.176],[-100.8149,27.0711,495.5639],[-100.8306,27.0739,488.7652],[-100.8716,27.0376,835.1342],[-100.884,27.0327,1195.3674],[-100.8903,27.0278,1315.5588],[-100.894,27.0279,1370.1287],[-100.8953,27.0247,1349.2277],[-100.8993,27.0213,1736.2056],[-100.91,27.0455,1740.7336],[-100.9165,27.0651,1484.7976],[-100.9133,27.0662,1539.7188],[-100.9226,27.0784,1497.2782],[-100.9221,27.0827,1516.5269],[-100.9251,27.0875,1444.1056],[-100.9211,27.0937,1303.5593],[-100.922,27.1017,1143.9977],[-100.9248,27.1074,1029.0725],[-101.0608,27.0236,1519.928]]]]}
,"properties": {"GID_2": "MEX.7.5_2","GID_0": "MEX","country": "México","GID_1": "MEX.7_1","province": "Coahuila","NL_NAME_1": "NA","county": "Candela","VARNAME_2": "NA","NL_NAME_2": "NA","TYPE_2": "Município","ENGTYPE_2": "Municipality","CC_2": "NA","HASC_2": "NA","name": "Candela.county","area_km2": 2121.789,"hist_schema_id": "Elevation0-9000","hist_area_km2": {"275": 0.019,"300": 28.573,"325": 73.993,"350": 78.318,"375": 86.18,"400": 71.042,"425": 49.468,"450": 38.217,"475": 38.424,"500": 51.623,"525": 67.705,"550": 92.048,"575": 111.468,"600": 112.862,"625": 137.746,"650": 123.42,"675": 107.69,"700": 90.024,"725": 71.662,"750": 64.152,"775": 63.706,"800": 73.898,"825": 74.499,"850": 71.16,"875": 58.566,"900": 27.198,"925": 23.696,"950": 21.48,"975": 19.15,"1000": 17.37,"1025": 15.799,"1050": 14.946,"1075": 14.794,"1100": 12.827,"1125": 13.434,"1150": 11.067,"1175": 10.31,"1200": 8.38,"1225": 8.324,"1250": 7.132,"1275": 6.714,"1300": 6.072,"1325": 5.201,"1350": 4.804,"1375": 4.785,"1400": 4.161,"1425": 3.613,"1450": 2.762,"1475": 2.535,"1500": 2.251,"1525": 2.498,"1550": 1.817,"1575": 1.684,"1600": 1.608,"1625": 1.457,"1650": 1.116,"1675": 1.23,"1700": 1.041,"1725": 0.776,"1750": 0.511,"1775": 0.738,"1800": 0.417,"1825": 0.227,"1850": 0.095,"1875": 0.284,"1900": 0.151,"1925": 0.36,"1950": 0.303,"1975": 0.208}}}