{"type":"Feature","properties":{"GID_2":"MEX.20.456_2","GID_0":"MEX","country":"México","GID_1":"MEX.20_1","province":"Oaxaca","NL_NAME_1":"NA","county":"SantiagoAstata","VARNAME_2":"NA","NL_NAME_2":"NA","TYPE_2":"Município","ENGTYPE_2":"Municipality","CC_2":"NA","HASC_2":"NA","name":"Santiago_Astata.county"},
"geometry":{"type": "MultiPolygon","coordinates": [[[[-95.7121,15.9078,0.0],[-95.6613,15.9128,0.0],[-95.6598,15.9169,0.0],[-95.6487,15.9193,0.0],[-95.6486,15.9213,0.0],[-95.6453,15.9234,0.0],[-95.6364,15.9259,0.0],[-95.6201,15.9276,0.0],[-95.6135,15.9308,2.7581],[-95.6124,15.9318,2.7581],[-95.6141,15.9335,0.0781],[-95.6133,15.9357,0.0],[-95.6056,15.9425,2.1885],[-95.5846,15.9445,0.0],[-95.5801,15.9478,0.0],[-95.5794,15.9518,0.9178],[-95.5685,15.9578,0.0],[-95.5212,15.9612,1.6017],[-95.5137,15.9638,19.4542],[-95.5201,15.9876,85.1428],[-95.5191,16.0033,395.0815],[-95.5363,16.0631,809.2151],[-95.5939,16.0244,111.4522],[-95.6172,16.0198,278.8348],[-95.665,15.9939,41.9853],[-95.6992,15.9887,49.1541],[-95.7072,15.9606,154.2236],[-95.7121,15.9078,0.0]]]]}}