{"type":"Feature","properties":{"GID_2":"MEX.13.37_2","GID_0":"MEX","country":"México","GID_1":"MEX.13_1","province":"Hidalgo","NL_NAME_1":"NA","county":"Metztitlán","VARNAME_2":"NA","NL_NAME_2":"NA","TYPE_2":"Município","ENGTYPE_2":"Municipality","CC_2":"NA","HASC_2":"NA","name":"Metztitlán.county"},
"geometry":{"type": "MultiPolygon","coordinates": [[[[-98.8157,20.3895,1409.5293],[-98.8116,20.3883,1482.4408],[-98.8072,20.3899,1691.4376],[-98.797,20.4033,1834.0815],[-98.7924,20.4051,1751.4517],[-98.7917,20.4107,1749.8632],[-98.7891,20.4127,1758.3242],[-98.785,20.4145,1858.3811],[-98.7738,20.4109,2163.4163],[-98.7727,20.4366,2001.8838],[-98.7433,20.4419,2130.1663],[-98.7242,20.4486,1917.8442],[-98.7221,20.4516,1893.365],[-98.7163,20.4476,1869.6406],[-98.7077,20.4455,1842.7751],[-98.7069,20.4468,1842.7751],[-98.6985,20.4465,1862.2539],[-98.6938,20.439,1809.3683],[-98.6929,20.4411,1792.8245],[-98.6894,20.4332,1817.3735],[-98.6894,20.4297,1816.9564],[-98.6854,20.4327,1682.2747],[-98.6839,20.4405,1653.2312],[-98.6763,20.4452,1616.3203],[-98.6677,20.4446,1509.3987],[-98.6623,20.4378,1418.2753],[-98.6566,20.4464,1331.2932],[-98.6631,20.4597,1312.4849],[-98.6699,20.4621,1307.7781],[-98.6705,20.4672,1308.4614],[-98.6684,20.4676,1311.6351],[-98.6685,20.4709,1313.6901],[-98.6769,20.4743,1353.6448],[-98.6749,20.4759,1357.6423],[-98.6775,20.476,1330.8914],[-98.6778,20.4806,1400.3713],[-98.6797,20.4823,1342.8894],[-98.6819,20.4815,1299.5662],[-98.6817,20.487,1397.1138],[-98.6765,20.4895,1522.335],[-98.6786,20.4942,1597.0115],[-98.6818,20.4964,1605.5658],[-98.6833,20.5008,1561.2388],[-98.6936,20.5094,1576.9688],[-98.6902,20.5114,1549.046],[-98.6894,20.5145,1499.1823],[-98.6874,20.5149,1496.827],[-98.6875,20.5271,1343.3513],[-98.6845,20.5297,1312.7781],[-98.6925,20.5303,1443.0237],[-98.6991,20.5269,1536.0231],[-98.7083,20.5258,1553.1865],[-98.7051,20.5361,1348.2814],[-98.709,20.5381,1384.0168],[-98.7072,20.5404,1288.0707],[-98.6882,20.5388,1302.2971],[-98.6869,20.5408,1328.9163],[-98.6881,20.5422,1367.0458],[-98.6816,20.5493,1594.9519],[-98.6823,20.5539,1681.5271],[-98.679,20.5571,1752.4937],[-98.6812,20.5642,1890.4519],[-98.6881,20.5656,1982.8425],[-98.6922,20.5633,1895.3022],[-98.6942,20.5657,1984.785],[-98.6981,20.566,1940.788],[-98.6964,20.5681,1956.6243],[-98.6968,20.5718,1745.5804],[-98.6933,20.5723,1923.4901],[-98.69,20.5706,1980.6426],[-98.6873,20.5743,1974.5977],[-98.6808,20.5752,1975.3423],[-98.6885,20.5854,1582.863],[-98.6811,20.5913,1653.1168],[-98.6838,20.5985,1722.075],[-98.6802,20.6014,1765.6387],[-98.682,20.605,1927.8783],[-98.6805,20.6092,2043.3564],[-98.6836,20.6115,2081.2559],[-98.6833,20.6155,2185.8127],[-98.6868,20.6147,2101.4792],[-98.6887,20.6159,2074.0542],[-98.6891,20.6243,1988.0999],[-98.6933,20.6244,1962.9584],[-98.694,20.6275,2024.1442],[-98.6967,20.6292,2030.6429],[-98.7042,20.6442,2064.4146],[-98.703,20.6462,2075.6985],[-98.7046,20.6509,2038.4294],[-98.7038,20.6551,2062.115],[-98.7053,20.6568,2077.1443],[-98.704,20.6586,2076.0327],[-98.705,20.6642,2097.1047],[-98.7,20.6598,2184.7056],[-98.6984,20.6624,2149.5513],[-98.6939,20.6614,2200.4609],[-98.6915,20.6621,2174.7617],[-98.6901,20.665,2169.8042],[-98.6861,20.6648,2140.9844],[-98.6863,20.668,2124.9087],[-98.6837,20.6711,2169.811],[-98.6847,20.6774,2025.8281],[-98.6856,20.6795,2006.1765],[-98.6889,20.6793,1848.3965],[-98.6923,20.6833,1782.046],[-98.6939,20.6785,1893.796],[-98.7007,20.6796,2193.1597],[-98.7037,20.6819,2206.6394],[-98.7045,20.6854,2216.4089],[-98.7104,20.6882,2234.6411],[-98.7117,20.6919,2239.0669],[-98.717,20.693,2267.2551],[-98.7223,20.6979,2464.5544],[-98.7247,20.6969,2502.0947],[-98.7291,20.6997,2452.2305],[-98.7261,20.7043,2094.6606],[-98.7297,20.7096,1927.9963],[-98.7277,20.7192,1642.2847],[-98.7254,20.7227,1480.1921],[-98.7288,20.7212,1558.553],[-98.7386,20.7234,2025.7551],[-98.7386,20.7275,1655.2231],[-98.7353,20.7292,1552.3875],[-98.7441,20.7358,1946.0078],[-98.7473,20.7407,2009.0677],[-98.7607,20.7402,2402.7959],[-98.7705,20.7347,2280.8408],[-98.7726,20.7316,2248.1279],[-98.7723,20.7286,2179.9546],[-98.7808,20.7249,2035.5896],[-98.7822,20.7223,1956.1848],[-98.7852,20.7212,1950.7649],[-98.7946,20.7237,1885.2156],[-98.7998,20.7215,1859.4666],[-98.8279,20.7177,1650.9165],[-98.8281,20.7138,1668.3542],[-98.8247,20.7123,1636.4257],[-98.8235,20.7084,1659.4832],[-98.8214,20.7098,1675.7408],[-98.8221,20.7073,1659.4832],[-98.8208,20.7068,1697.0934],[-98.8183,20.7082,1715.2227],[-98.8171,20.6991,1464.5596],[-98.8148,20.6957,1378.9644],[-98.8232,20.6908,1274.9341],[-98.8225,20.6857,1259.4626],[-98.8249,20.6853,1270.5627],[-98.8264,20.6818,1246.272],[-98.8308,20.6818,1245.8986],[-98.8308,20.6796,1245.908],[-98.8365,20.6797,1245.0581],[-98.8365,20.6776,1245.2112],[-98.8416,20.6766,1245.243],[-98.8528,20.6798,1243.9154],[-98.8417,20.68,1244.5283],[-98.8417,20.6822,1243.5836],[-98.8449,20.6823,1242.8701],[-98.8446,20.6859,1241.2747],[-98.8419,20.6859,1242.097],[-98.8417,20.6895,1241.0],[-98.8376,20.6893,1242.1077],[-98.8392,20.6942,1262.5608],[-98.8438,20.6981,1280.3077],[-98.8476,20.6968,1242.4801],[-98.8464,20.7002,1333.1223],[-98.8418,20.7032,1484.0331],[-98.8444,20.7126,1572.7759],[-98.8484,20.7119,1530.6279],[-98.8504,20.7144,1622.193],[-98.8499,20.7161,1637.4048],[-98.8522,20.7172,1644.6415],[-98.8552,20.7158,1650.3839],[-98.8583,20.7167,1645.5269],[-98.8622,20.7085,1703.4995],[-98.8667,20.7042,1552.7793],[-98.8764,20.7082,1255.7605],[-98.8781,20.707,1274.2743],[-98.8897,20.7155,1016.3199],[-98.8924,20.7051,1258.0303],[-98.8903,20.7002,1405.7554],[-98.8958,20.6986,1631.024],[-98.8991,20.6939,1864.6548],[-98.8911,20.6869,1656.8436],[-98.8935,20.6836,1774.2278],[-98.8947,20.677,1812.8773],[-98.8871,20.6685,1703.9556],[-98.8875,20.6663,1765.4033],[-98.8902,20.6632,1803.0063],[-98.8959,20.6623,1757.7788],[-98.9008,20.6633,1743.3574],[-98.9015,20.6664,1694.278],[-98.9087,20.6646,1574.2937],[-98.9105,20.66,1549.8386],[-98.9165,20.6572,1441.2773],[-98.9301,20.6585,969.4647],[-98.9318,20.6529,1062.4985],[-98.9314,20.6496,1111.3558],[-98.928,20.6454,1004.467],[-98.9283,20.6397,999.9847],[-98.932,20.6368,1058.335],[-98.9315,20.6347,1104.2247],[-98.9349,20.6311,1279.115],[-98.9335,20.6296,1383.6213],[-98.9398,20.6254,1579.9618],[-98.9419,20.6194,1682.6957],[-98.9451,20.6184,1655.8257],[-98.9476,20.6155,1687.884],[-98.9484,20.61,1695.7494],[-98.9457,20.6043,1726.1592],[-98.9527,20.6036,1792.2064],[-98.9485,20.5959,1451.1044],[-98.9453,20.5946,1370.6609],[-98.9452,20.5864,1392.957],[-98.9465,20.585,1362.8998],[-98.9442,20.5842,1375.2081],[-98.944,20.5826,1380.87],[-98.9489,20.5802,1550.9326],[-98.9519,20.5811,1452.9403],[-98.9551,20.575,1612.2626],[-98.9573,20.5753,1557.1355],[-98.9605,20.5723,1566.8002],[-98.9631,20.573,1557.7122],[-98.9654,20.5678,1574.1229],[-98.9637,20.5674,1641.1222],[-98.9648,20.565,1584.1315],[-98.9628,20.5603,1616.8923],[-98.9637,20.5551,1621.4219],[-98.9612,20.5541,1651.4404],[-98.9636,20.5526,1623.6599],[-98.9622,20.5526,1623.6599],[-98.9633,20.5488,1632.6312],[-98.962,20.5481,1693.4719],[-98.9639,20.5456,1657.601],[-98.9619,20.5447,1684.3926],[-98.9629,20.5429,1660.3311],[-98.9611,20.5419,1664.7297],[-98.9602,20.5359,1701.5775],[-98.959,20.5359,1676.5051],[-98.9589,20.5337,1734.4354],[-98.9571,20.5337,1722.0125],[-98.9577,20.5315,1727.1239],[-98.9516,20.5259,1716.7769],[-98.9402,20.5299,2083.3606],[-98.9377,20.5175,2131.6519],[-98.9412,20.5167,2099.645],[-98.9427,20.5186,2062.0112],[-98.9482,20.5191,1797.7322],[-98.9472,20.5061,1871.3641],[-98.9488,20.5027,1848.7599],[-98.9503,20.5025,1884.8168],[-98.9475,20.5009,1913.5862],[-98.949,20.4991,1844.4242],[-98.925299999999993,20.4992,2016.4082],[-98.9226,20.4973,2075.6672],[-98.9153,20.4968,2151.2041],[-98.9084,20.4858,2487.9114],[-98.9118,20.4771,2349.4683],[-98.9105,20.4692,2269.8865],[-98.8972,20.4667,2419.9888],[-98.8939,20.4625,2574.2986],[-98.8966,20.4505,2413.2644],[-98.8928,20.4443,2367.4077],[-98.9001,20.4447,2311.1958],[-98.9043,20.4422,2183.5444],[-98.903,20.4386,2169.8948],[-98.9046,20.4359,2178.3477],[-98.9,20.4321,2098.3574],[-98.9,20.4293,2049.2009],[-98.8879,20.4256,2005.9768],[-98.8841,20.4204,1847.5817],[-98.8821,20.4211,1796.4786],[-98.8816,20.4197,1776.953],[-98.8773,20.419,1731.0955],[-98.8683,20.4199,1669.4561],[-98.8654,20.4175,1646.7382],[-98.8613,20.4186,1620.7251],[-98.8608,20.4145,1590.103],[-98.8541,20.4136,1548.6567],[-98.8518,20.4109,1517.1757],[-98.8499,20.4116,1528.8174],[-98.8497,20.4093,1510.921],[-98.8473,20.41,1472.2046],[-98.8463,20.4078,1459.9381],[-98.8434,20.4066,1460.1694],[-98.8377,20.4085,1420.677],[-98.8341,20.4077,1432.6213],[-98.8318,20.4109,1388.8516],[-98.8278,20.4109,1364.1958],[-98.8288,20.4128,1388.4276],[-98.8266,20.414,1383.8401],[-98.8199,20.4079,1351.4062],[-98.8197,20.4042,1364.5391],[-98.8174,20.4035,1407.1077],[-98.8179,20.4008,1350.9391],[-98.8157,20.4024,1441.0574],[-98.8137,20.3989,1433.1279],[-98.8136,20.3972,1462.2416],[-98.8159,20.3968,1396.9904],[-98.8146,20.3944,1397.0894],[-98.8169,20.3938,1372.8652],[-98.8157,20.3895,1409.5293]]]]}}