{"type": "Feature","bbox": [-97.7415,20.1634,-97.6345,20.2629],"geometry": {"type": "MultiPolygon","coordinates": [[[[-97.6587,20.1686,167.3129],[-97.6567,20.1683,172.7481],[-97.6535,20.1634,212.7954],[-97.6475,20.1671,196.6561],[-97.6453,20.1693,172.2267],[-97.6463,20.1718,179.3635],[-97.6447,20.1777,158.9585],[-97.6384,20.1767,168.8189],[-97.6388,20.1824,160.6491],[-97.6354,20.1825,155.751],[-97.6345,20.1882,243.6897],[-97.6413,20.187,191.4272],[-97.6449,20.1827,195.1894],[-97.6504,20.1848,203.0587],[-97.6509,20.1838,203.0587],[-97.6518,20.1854,211.6937],[-97.6565,20.1813,224.6059],[-97.6582,20.1826,227.1841],[-97.6591,20.1804,272.08],[-97.6627,20.1825,242.7745],[-97.6632,20.1813,238.6008],[-97.6678,20.1817,287.4784],[-97.6762,20.1888,325.531],[-97.6808,20.189,309.5697],[-97.6847,20.1923,339.4346],[-97.6862,20.1962,408.2805],[-97.686,20.2037,605.1985],[-97.6899,20.2085,902.3805],[-97.6967,20.209,695.0026],[-97.7008,20.2193,747.9211],[-97.693,20.2288,451.4632],[-97.6887,20.2285,359.2971],[-97.6821,20.2341,311.807],[-97.6749,20.236,261.2006],[-97.6708,20.24,266.8828],[-97.6712,20.2424,221.8098],[-97.675,20.2437,430.3505],[-97.6786,20.2476,359.7512],[-97.6765,20.2507,291.3629],[-97.6769,20.2529,266.7966],[-97.6795,20.2531,236.2574],[-97.6797,20.2629,150.4585],[-97.6828,20.2623,153.2536],[-97.684,20.2602,160.2012],[-97.682,20.2572,178.6231],[-97.6863,20.2532,260.6127],[-97.6866,20.2491,229.4081],[-97.6895,20.2503,232.8987],[-97.6926,20.249,249.7918],[-97.698,20.2427,370.382],[-97.7052,20.2275,802.0974],[-97.7248,20.2437,746.7985],[-97.7261,20.2463,708.4413],[-97.732,20.2469,381.25],[-97.7365,20.2441,325.2925],[-97.7351,20.2424,344.6031],[-97.7346,20.2345,387.3827],[-97.7372,20.2316,425.8841],[-97.7373,20.2282,461.8203],[-97.733,20.2275,576.4244],[-97.7345,20.2234,597.7416],[-97.7329,20.2194,599.6815],[-97.7337,20.2154,607.1655],[-97.7309,20.2103,611.5779],[-97.7307,20.2052,511.867],[-97.7339,20.2024,408.2073],[-97.7386,20.2021,372.1884],[-97.7394,20.1954,370.9415],[-97.7415,20.1922,299.1219],[-97.7393,20.1892,283.7989],[-97.7362,20.1899,279.8752],[-97.7315,20.1813,268.1106],[-97.7293,20.1833,328.7637],[-97.7283,20.182,302.1537],[-97.725,20.1832,274.9029],[-97.7249,20.189,320.3145],[-97.7233,20.1876,294.3885],[-97.7202,20.1892,366.1078],[-97.7196,20.1871,332.5958],[-97.7146,20.1878,427.9474],[-97.714,20.1846,388.9301],[-97.7076,20.1816,489.1366],[-97.6987,20.1824,672.2035],[-97.6966,20.1769,632.3463],[-97.6933,20.1749,561.1422],[-97.693,20.1694,503.9039],[-97.6868,20.1658,419.2748],[-97.6827,20.1664,342.4889],[-97.6806,20.1651,299.8094],[-97.6704,20.1691,246.4037],[-97.6683,20.167,287.6971],[-97.6637,20.1695,211.215],[-97.6621,20.1681,229.0437],[-97.6587,20.1686,167.3129]]]]}
,"properties": {"GID_2": "MEX.30.68_2","GID_0": "MEX","country": "México","GID_1": "MEX.30_1","province": "Veracruz","NL_NAME_1": "NA","county": "FilomenoMata","VARNAME_2": "NA","NL_NAME_2": "NA","TYPE_2": "Município","ENGTYPE_2": "Municipality","CC_2": "NA","HASC_2": "NA","name": "Filomeno_Mata.county","area_km2": 43.49583,"hist_schema_id": "Elevation0-9000","hist_area_km2": {"125": 0.0199,"150": 0.33824,"175": 0.49749,"200": 0.63678,"225": 0.71632,"250": 1.39289,"275": 2.18874,"300": 2.169,"325": 2.24858,"350": 2.1092,"375": 1.93006,"400": 1.61171,"425": 1.69131,"450": 1.53217,"475": 1.39288,"500": 1.37298,"525": 1.35306,"550": 1.65152,"575": 1.71121,"600": 4.85465,"625": 3.36248,"650": 2.18864,"675": 1.59174,"700": 1.77077,"725": 1.35297,"750": 0.69637,"775": 0.55711,"800": 0.39791,"825": 0.09948,"850": 0.03979,"900": 0.0199}}}