{"type": "Feature","bbox": [-94.6417,16.2257,-94.429,16.4461],"geometry": {"type": "MultiPolygon","coordinates": [[[[-94.4651,16.4158,23.2124],[-94.4975,16.4393,248.4886],[-94.5651,16.442,26.3795],[-94.5659,16.4461,29.0862],[-94.5785,16.4452,34.1396],[-94.6108,16.4373,42.1409],[-94.6417,16.4352,32.9619],[-94.6265,16.409,34.4577],[-94.5796,16.4117,14.4558],[-94.5795,16.3962,11.5596],[-94.5715,16.397,9.4786],[-94.5714,16.3931,9.9973],[-94.5676,16.3933,8.9415],[-94.5669,16.3887,7.7187],[-94.5727,16.368,5.5638],[-94.5522,16.3606,7.9825],[-94.5322,16.3615,10.5343],[-94.5135,16.3647,10.0037],[-94.5091,16.3433,9.2321],[-94.5077,16.3435,9.9092],[-94.5075,16.3413,10.0528],[-94.4947,16.3498,11.8408],[-94.4889,16.3502,14.012],[-94.4861,16.3407,11.6276],[-94.4902,16.3373,9.6922],[-94.4916,16.3338,8.7562],[-94.4922,16.3259,9.6435],[-94.4887,16.3218,10.0684],[-94.4936,16.3176,10.9412],[-94.4955,16.3119,8.6981],[-94.4975,16.3109,8.9679],[-94.4942,16.3065,10.5105],[-94.5105,16.2968,6.4319],[-94.5132,16.3002,6.4831],[-94.5108,16.3052,6.6056],[-94.5113,16.3076,6.5079],[-94.5094,16.3091,7.3158],[-94.5158,16.3127,6.604],[-94.5167,16.3111,7.4596],[-94.5144,16.3076,5.7448],[-94.5192,16.3054,6.2896],[-94.523,16.3058,6.5081],[-94.5249,16.2993,7.6037],[-94.5285,16.3002,5.4273],[-94.5321,16.2973,9.2711],[-94.5365,16.2992,8.0474],[-94.5416,16.2991,7.5307],[-94.5431,16.3015,5.8328],[-94.5445,16.2926,12.3415],[-94.5531,16.2946,9.3817],[-94.5561,16.29,2.3745],[-94.5623,16.2859,3.447],[-94.5598,16.28,0.6449],[-94.5565,16.2779,0.0],[-94.5588,16.2804,0.6449],[-94.5566,16.2819,1.7751],[-94.5539,16.2789,3.6766],[-94.5588,16.2597,0.0],[-94.5511,16.2689,2.5],[-94.5475,16.2835,2.4673],[-94.5358,16.2814,3.103],[-94.5339,16.283,3.0392],[-94.5364,16.2753,2.9662],[-94.536,16.2706,4.2584],[-94.5336,16.2683,2.8054],[-94.5329,16.2725,3.0443],[-94.5259,16.2818,4.9995],[-94.5101,16.2545,4.2089],[-94.505,16.2507,3.5775],[-94.5047,16.2404,0.7338],[-94.4934,16.2307,2.8477],[-94.4933,16.2258,1.2887],[-94.465,16.2257,0.0],[-94.464,16.2476,4.9708],[-94.4456,16.2457,2.4668],[-94.429,16.2632,3.0385],[-94.4338,16.2686,3.248],[-94.4318,16.2758,3.5436],[-94.4333,16.2809,2.1905],[-94.4457,16.2824,3.3977],[-94.4446,16.2713,2.1622],[-94.4507,16.2713,2.4143],[-94.4513,16.2832,3.5598],[-94.462,16.2847,7.6344],[-94.4615,16.2989,5.4813],[-94.451,16.2986,4.0472],[-94.4477,16.3082,4.241],[-94.4441,16.3077,9.8064],[-94.441,16.3092,6.2798],[-94.4395,16.3135,6.0604],[-94.4419,16.3161,12.896],[-94.4433,16.3152,6.2124],[-94.4455,16.3166,12.0581],[-94.4439,16.318,15.883],[-94.4472,16.3192,10.5989],[-94.4484,16.3242,10.5131],[-94.4547,16.3247,9.3924],[-94.4534,16.3291,7.8849],[-94.4604,16.3344,7.5],[-94.4591,16.3382,7.6564],[-94.4534,16.3399,9.9317],[-94.455,16.3437,8.6177],[-94.4573,16.3447,8.3307],[-94.4598,16.3427,8.3811],[-94.4601,16.3402,8.882],[-94.4656,16.3393,9.9247],[-94.4566,16.3772,12.5254],[-94.4629,16.3774,11.931],[-94.4604,16.3835,14.0842],[-94.4641,16.3869,13.9231],[-94.4688,16.3876,17.2149],[-94.4706,16.3912,14.0501],[-94.468,16.402,15.4479],[-94.475,16.404,15.616],[-94.4758,16.4058,13.7493],[-94.4703,16.4083,15.8483],[-94.4696,16.4113,17.8892],[-94.4666,16.4122,20.1533],[-94.4651,16.4158,23.2124]]]]}
,"properties": {"GID_2": "MEX.20.145_2","GID_0": "MEX","country": "México","GID_1": "MEX.20_1","province": "Oaxaca","NL_NAME_1": "NA","county": "SanFranciscoIxhuatán","VARNAME_2": "NA","NL_NAME_2": "NA","TYPE_2": "Município","ENGTYPE_2": "Municipality","CC_2": "NA","HASC_2": "NA","name": "San_Francisco_Ixhuatán.county","area_km2": 213.2307,"hist_schema_id": "Elevation0-9000","hist_area_km2": {"0": 130.6164,"25": 78.6488,"50": 3.0098,"75": 0.4474,"100": 0.0813,"125": 0.1627,"150": 0.0813,"175": 0.1423,"225": 0.0203,"250": 0.0203}}}