{"type": "Feature","bbox": [-103.6245,21.1167,-103.4028,21.3293],"geometry": {"type": "MultiPolygon","coordinates": [[[[-103.4688,21.1435,1041.5687],[-103.4741,21.1486,1033.891],[-103.4635,21.1506,1186.3193],[-103.4622,21.1635,1320.6272],[-103.459,21.1685,1341.1606],[-103.437,21.1776,1746.6133],[-103.4344,21.1749,1798.1768],[-103.4326,21.1756,1755.7406],[-103.4333,21.1789,1614.9238],[-103.4306,21.1804,1599.2413],[-103.4294,21.1912,1996.0809],[-103.4234,21.1974,1900.6506],[-103.4245,21.201,1895.7888],[-103.422,21.2044,1903.5781],[-103.4143,21.2054,1891.7358],[-103.4146,21.2119,1838.9254],[-103.417,21.2122,1774.7571],[-103.4163,21.2141,1718.4725],[-103.4139,21.2183,1621.3306],[-103.4116,21.2191,1565.8278],[-103.4078,21.2292,1406.1715],[-103.4085,21.2309,1394.7563],[-103.4063,21.2332,1384.0341],[-103.4028,21.2336,1359.8467],[-103.4041,21.2347,1373.5476],[-103.4028,21.2371,1402.6765],[-103.4054,21.2379,1470.8208],[-103.4049,21.2408,1419.7556],[-103.4078,21.2402,1440.4546],[-103.4087,21.2415,1402.1064],[-103.4117,21.24,1407.4573],[-103.41,21.2444,1438.7119],[-103.4136,21.2462,1472.4478],[-103.4054,21.2505,1476.9784],[-103.4042,21.2531,1465.6295],[-103.4048,21.2572,1512.1616],[-103.4073,21.2568,1563.8832],[-103.4077,21.2589,1530.0739],[-103.4104,21.2602,1526.9464],[-103.4117,21.264,1557.8745],[-103.4113,21.2703,1605.2709],[-103.4101,21.2712,1618.1481],[-103.4129,21.278199999999998,1662.2676],[-103.4178,21.2809,1702.233],[-103.4195,21.2875,1744.6561],[-103.4174,21.3024,1799.7345],[-103.4191,21.3076,1817.9634],[-103.4182,21.3176,1885.202],[-103.4248,21.3261,2071.9937],[-103.4327,21.3291,1936.5444],[-103.4362,21.3293,1812.4122],[-103.4406,21.325,1800.9064],[-103.444,21.326,1781.0129],[-103.4508,21.3206,1759.7043],[-103.4535,21.3212,1777.7283],[-103.4592,21.3192,1794.3181],[-103.4632,21.3211,1736.4694],[-103.4656,21.3117,1731.2932],[-103.4689,21.3094,1731.2522],[-103.4732,21.3123,1789.4341],[-103.4725,21.3181,1856.5652],[-103.4783,21.3227,2036.6331],[-103.483,21.3096,1977.7532],[-103.4827,21.3082,1965.2095],[-103.4777,21.3068,1945.7965],[-103.4805,21.3028,1918.2008],[-103.4948,21.3041,1868.8083],[-103.4969,21.2985,1808.871],[-103.5047,21.2986,1745.5197],[-103.5073,21.2963,1750.1945],[-103.5071,21.2948,1747.3105],[-103.5127,21.2909,1698.4254],[-103.5196,21.292,1664.0988],[-103.5225,21.2863,1609.6558],[-103.5208,21.2836,1588.0135],[-103.5231,21.2763,1551.9348],[-103.5215,21.2748,1529.1929],[-103.5241,21.2725,1566.7285],[-103.5256,21.2722,1566.7285],[-103.5281,21.2758,1559.6948],[-103.5328,21.2774,1580.8472],[-103.5411,21.2729,1609.1322],[-103.5469,21.2717,1706.9325],[-103.5536,21.2675,1877.5427],[-103.548,21.2659,1805.4863],[-103.5514,21.2527,1666.4943],[-103.5623,21.2507,1752.0679],[-103.573,21.2518,1777.3766],[-103.5804,21.2472,1710.736],[-103.5789,21.2407,1687.8992],[-103.581,21.2328,1630.441],[-103.5797,21.2315,1622.4199],[-103.5812,21.2311,1622.4199],[-103.5789,21.2301,1623.806],[-103.5799,21.228,1641.9573],[-103.5769,21.2208,1587.0862],[-103.578,21.2196,1556.5859],[-103.5761,21.2173,1543.1265],[-103.5801,21.2141,1633.2131],[-103.5788,21.2037,1719.0208],[-103.5808,21.1957,1690.0349],[-103.5852,21.196,1716.4792],[-103.5862,21.1986,1741.2184],[-103.5891,21.1989,1763.6191],[-103.6002,21.2061,1763.0863],[-103.602,21.2111,1739.802],[-103.605,21.2136,1735.2761],[-103.6062,21.1947,1756.8715],[-103.616,21.1956,1778.957],[-103.6204,21.1927,1762.2345],[-103.6245,21.1931,1752.0649],[-103.6161,21.1857,1814.6699],[-103.6182,21.1835,1827.9716],[-103.6114,21.1787,1820.7059],[-103.6129,21.1676,1848.6738],[-103.6118,21.1648,1869.225],[-103.6149,21.1589,1926.9324],[-103.6136,21.1562,1940.6379],[-103.6071,21.1553,1946.5441],[-103.602,21.1517,1929.9642],[-103.6014,21.1479,1955.5126],[-103.5978,21.1436,1876.8994],[-103.5977,21.1422,1876.8994],[-103.5993,21.1417,1937.5364],[-103.597,21.1398,1889.7742],[-103.5968,21.1353,1894.2704],[-103.5917,21.1286,1853.1851],[-103.5877,21.1269,1823.8198],[-103.5833,21.1278,1828.4956],[-103.5837,21.126,1799.5905],[-103.5805,21.1273,1790.1088],[-103.5773,21.1215,1722.0414],[-103.5731,21.1216,1719.858],[-103.569,21.1167,1737.8555],[-103.5669,21.1208,1719.0897],[-103.5652,21.1179,1716.1521],[-103.5647,21.1196,1710.3505],[-103.56,21.1183,1675.6575],[-103.5571,21.1198,1679.7742],[-103.5537,21.1167,1667.1663],[-103.5545,21.1209,1660.9226],[-103.55029999999999,21.125,1640.4342],[-103.5467,21.1269,1637.696],[-103.5411,21.1263,1641.5304],[-103.5298,21.1341,1597.5065],[-103.5331,21.1385,1598.061],[-103.5315,21.142,1531.4094],[-103.5187,21.1417,1289.5183],[-103.511,21.1462,1214.9819],[-103.5095,21.1436,1256.1882],[-103.5102,21.1378,1587.2122],[-103.5073,21.135,1619.0275],[-103.5062,21.129,1654.5505],[-103.5041,21.1277,1696.3367],[-103.4754,21.1373,1265.5544],[-103.4688,21.1435,1041.5687]]]]}
,"properties": {"GID_2": "MEX.32.50_2","GID_0": "MEX","country": "México","GID_1": "MEX.32_1","province": "Zacatecas","NL_NAME_1": "NA","county": "TrinidadGarcíadelaCadena","VARNAME_2": "NA","NL_NAME_2": "NA","TYPE_2": "Município","ENGTYPE_2": "Municipality","CC_2": "NA","HASC_2": "NA","name": "Trinidad_Garcíadela_Cadena.county","area_km2": 308.4336,"hist_schema_id": "Elevation0-9000","hist_area_km2": {"1000": 0.0198,"1025": 0.2175,"1050": 0.1186,"1075": 0.2768,"1100": 0.4152,"1125": 0.6921,"1150": 0.7514,"1175": 1.0678,"1200": 1.305,"1225": 1.6807,"1250": 1.9377,"1275": 2.3924,"1300": 2.59,"1325": 2.8074,"1350": 3.2423,"1375": 3.1236,"1400": 3.4399,"1425": 3.3211,"1450": 3.6769,"1475": 2.965,"1500": 3.9928,"1525": 5.4161,"1550": 6.0879,"1575": 5.9098,"1600": 7.1155,"1625": 10.6928,"1650": 12.6494,"1675": 15.732,"1700": 22.2337,"1725": 26.3446,"1750": 28.4208,"1775": 26.7216,"1800": 27.0387,"1825": 22.1562,"1850": 16.5823,"1875": 12.5903,"1900": 9.4275,"1925": 5.7116,"1950": 3.1029,"1975": 1.5417,"2000": 1.3437,"2025": 0.6717,"2050": 0.3754,"2075": 0.2173,"2100": 0.158,"2125": 0.1185,"2150": 0.0395}}}