{"type": "Feature","bbox": [-99.6065,25.9927,-99.396,26.0996],"geometry": {"type": "MultiPolygon","coordinates": [[[[-99.561,25.9941,238.7654],[-99.5443,25.9944,217.905],[-99.5421,26.0034,204.4334],[-99.5403,26.0022,204.4334],[-99.5323,26.0024,199.6113],[-99.5296,25.9982,197.5208],[-99.5261,25.9987,196.9531],[-99.5241,25.9972,196.0647],[-99.5092,25.9984,189.5647],[-99.4959,25.9942,186.3036],[-99.4434,25.9927,203.636],[-99.4042,26.0054,156.1199],[-99.396,26.0949,141.9025],[-99.4606,26.0996,172.0191],[-99.484,26.0995,173.8827],[-99.5031,26.0978,181.2755],[-99.5581,26.0972,228.4886],[-99.5883,26.091,261.5922],[-99.6065,26.073,287.2285],[-99.5859,26.0419,271.5042],[-99.5886,26.0403,272.6672],[-99.5832,26.0337,250.5854],[-99.561,25.9941,238.7654]]]]}
,"properties": {"GID_2": "MEX.19.36_2","GID_0": "MEX","country": "México","GID_1": "MEX.19_1","province": "NuevoLeón","NL_NAME_1": "NA","county": "MelchorOcampo","VARNAME_2": "NA","NL_NAME_2": "NA","TYPE_2": "Município","ENGTYPE_2": "Municipality","CC_2": "NA","HASC_2": "NA","name": "Melchor_Ocampo.county","area_km2": 208.3523,"hist_schema_id": "Elevation0-9000","hist_area_km2": {"150": 51.4091,"175": 47.5832,"200": 37.9295,"225": 27.4692,"250": 28.5912,"275": 15.37}}}