{"type":"Feature","properties":{"GID_2":"MEX.29.55_2","GID_0":"MEX","country":"México","GID_1":"MEX.29_1","province":"Tlaxcala","NL_NAME_1":"NA","county":"Xaloztoc","VARNAME_2":"NA","NL_NAME_2":"NA","TYPE_2":"Município","ENGTYPE_2":"Municipality","CC_2":"NA","HASC_2":"NA","name":"Xaloztoc.county"},
"geometry":{"type": "MultiPolygon","coordinates": [[[[-98.0836,19.404,2443.1904],[-98.0471,19.3837,2492.0269],[-98.0414,19.377,2509.3101],[-98.0369,19.3759,2521.3442],[-98.0355,19.377,2519.6704],[-98.0373,19.3775,2523.248],[-98.0338,19.386,2557.752],[-98.0417,19.3863,2516.4863],[-98.0422,19.3904,2520.8967],[-98.0336,19.392,2551.4897],[-98.0368,19.3945,2551.9897],[-98.0345,19.3951,2563.2932],[-98.0339,19.3971,2558.8313],[-98.025,19.3993,2519.0156],[-98.0201,19.4027,2506.6836],[-98.0162,19.4087,2488.4841],[-98.0164,19.4161,2482.7878],[-98.0047,19.4069,2521.4995],[-98.0047,19.4043,2533.6919],[-97.9973,19.3987,2712.8843],[-97.9916,19.3982,2683.1423],[-97.9888,19.3996,2646.0793],[-97.9889,19.401,2627.1255],[-97.9933,19.4028,2631.8242],[-97.9927,19.4041,2587.1304],[-97.9876,19.41,2525.1284],[-97.9858,19.4087,2523.47],[-97.9851,19.4096,2516.7595],[-97.9884,19.413,2512.291],[-97.9873,19.4145,2510.147],[-97.9712,19.4142,2537.9993],[-97.9706,19.416,2533.9116],[-97.9852,19.4291,2528.8096],[-97.9934,19.4425,2538.4775],[-97.9951,19.4399,2522.8574],[-97.9994,19.4383,2506.0288],[-98.0072,19.438,2495.8977],[-98.0113,19.4332,2491.0376],[-98.0415,19.4488,2470.459],[-98.0352,19.4407,2476.2253],[-98.0449,19.4354,2507.2329],[-98.0486,19.44,2512.8447],[-98.0504,19.4377,2511.8958],[-98.0563,19.4419,2471.3459],[-98.0626,19.4331,2453.8455],[-98.0726,19.4014,2449.4277],[-98.0836,19.404,2443.1904]]]]}}