{"type": "Feature","bbox": [-98.9727,19.5769,-98.8975,19.6117],"geometry": {"type": "MultiPolygon","coordinates": [[[[-98.9726,19.5965,2234.5483],[-98.9673,19.5945,2234.5767],[-98.9488,19.594,2238.1309],[-98.9489,19.59,2238.4478],[-98.9423,19.5888,2239.1396],[-98.9389,19.5937,2240.3499],[-98.9369,19.5936,2240.9341],[-98.931,19.585,2244.6704],[-98.9283,19.5875,2245.2571],[-98.9289,19.5851,2244.6418],[-98.9252,19.5839,2245.2632],[-98.9258,19.5806,2245.8203],[-98.9109,19.5769,2244.6729],[-98.9108,19.5825,2249.0828],[-98.9023,19.5805,2248.8977],[-98.9008,19.5914,2256.3916],[-98.8975,19.5965,2261.3198],[-98.8977,19.5985,2264.1265],[-98.9004,19.599,2285.2478],[-98.8996,19.6002,2279.3606],[-98.9027,19.6045,2280.509],[-98.902,19.606,2273.4338],[-98.9076,19.6117,2260.6602],[-98.9086,19.6079,2277.0376],[-98.9109,19.6089,2268.314],[-98.9125,19.606,2280.8154],[-98.9226,19.6101,2248.3105],[-98.9246,19.6019,2247.4688],[-98.9383,19.6019,2242.6011],[-98.9374,19.6086,2243.4556],[-98.9392,19.6097,2246.1008],[-98.9695,19.6087,2238.3562],[-98.9727,19.6041,2236.8953],[-98.9726,19.5965,2234.5483]]]]}
,"properties": {"GID_2": "MEX.15.102_2","GID_0": "MEX","country": "México","GID_1": "MEX.15_1","province": "México","NL_NAME_1": "NA","county": "Tezoyuca","VARNAME_2": "NA","NL_NAME_2": "NA","TYPE_2": "Município","ENGTYPE_2": "Municipality","CC_2": "NA","HASC_2": "NA","name": "Tezoyuca.county","area_km2": 16.57851,"hist_schema_id": "Elevation0-9000","hist_area_km2": {"2225": 3.13586,"2250": 10.7462,"2275": 1.39815,"2300": 1.13851,"2325": 0.13982,"2350": 0.01997}}}