{"type": "Feature","bbox": [-99.235,18.3326,-98.915,18.6627],"geometry": {"type": "MultiPolygon","coordinates": [[[[-99.066,18.3326,702.4941],[-99.063,18.3328,724.1133],[-99.0577,18.3385,722.7337],[-99.0588,18.3489,787.2281],[-99.0485,18.3512,777.6323],[-99.047,18.3551,800.7496],[-99.0434,18.3558,820.569],[-99.0435,18.3594,799.6599],[-99.0384,18.3588,803.4857],[-99.0352,18.3629,840.4915],[-99.0356,18.3655,857.5475],[-99.0314,18.3649,833.1451],[-99.0315,18.3674,844.1273],[-99.0261,18.3722,864.4287],[-99.0236,18.3725,854.3862],[-99.0244,18.3756,871.8524],[-99.0199,18.3782,895.8436],[-99.0182,18.3878,847.0861],[-99.0156,18.3863,872.6645],[-99.0131,18.3886,867.8958],[-99.0131,18.3864,878.2271],[-99.0098,18.386,884.0443],[-99.0054,18.3899,917.0044],[-99.0009,18.3883,899.21489999999994],[-98.9982,18.3897,931.0137],[-98.9992,18.3922,1013.9786],[-98.997,18.394,1019.1744],[-98.9927,18.3958,955.8948],[-98.9906,18.3948,989.6109],[-98.9907,18.3974,972.8118],[-98.9879,18.3971,964.8182],[-98.989,18.3987,972.8118],[-98.9871,18.4002,972.5287],[-98.9866,18.4048,982.9666],[-98.9835,18.4054,1016.5537],[-98.9869,18.4095,1072.9504],[-98.9859,18.4111,1019.5569],[-98.9877,18.4119,1060.2814],[-98.9861,18.4138,1023.3838],[-98.984,18.4138,1041.3663],[-98.9863,18.4164,1030.9019],[-98.9832,18.4184,1047.23],[-98.9854,18.4212,1054.1912],[-98.9817,18.4236,1046.0889],[-98.979,18.4225,1048.0775],[-98.978,18.424,1074.0569],[-98.974,18.4171,1088.1191],[-98.9703,18.4189,1166.1519],[-98.9617,18.4184,1169.7131],[-98.9592,18.4203,1137.522],[-98.956,18.4197,1152.1847],[-98.9552,18.4177,1163.2476],[-98.9506,18.4177,1173.36],[-98.9494,18.4226,1190.551],[-98.9444,18.4204,1240.7887],[-98.9406,18.4234,1224.0403],[-98.9395,18.422,1242.4978],[-98.9352,18.4229,1241.1086],[-98.9295,18.4275,1312.2588],[-98.9246,18.4293,1310.093],[-98.9221,18.4285,1332.0153],[-98.9193,18.432,1337.3265],[-98.9203,18.4423,1647.9742],[-98.915,18.4414,1694.8796],[-98.9152,18.4573,1840.9242],[-98.9358,18.4834,1738.7482],[-98.9684,18.4966,1419.0317],[-98.9671,18.5237,1281.1832],[-98.9854,18.5255,1172.8494],[-98.9839,18.5332,1173.6029],[-98.9877,18.5382,1277.4734],[-98.9954,18.5394,1178.8477],[-98.9972,18.5692,1203.0305],[-99.0077,18.5747,1302.1223],[-99.017,18.5773,1119.7211],[-99.0261,18.573,1179.8684],[-99.0365,18.5642,1069.9906],[-99.0478,18.5809,904.4062],[-99.0457,18.5854,915.8223],[-99.0466,18.5863,904.5821],[-99.053,18.5825,896.5707],[-99.0647,18.5847,901.6465],[-99.0671,18.5834,922.7944],[-99.0659,18.5812,894.0249],[-99.0732,18.5835,896.5203],[-99.079,18.5997,951.1904],[-99.078,18.6027,967.7273],[-99.0792,18.6085,984.5579],[-99.0849,18.6177,1007.8442],[-99.0859,18.6242,1020.369],[-99.0885,18.6274,1031.548],[-99.0909,18.6423,1016.8943],[-99.0936,18.6465,1001.8698],[-99.098,18.6453,1073.0642],[-99.1078,18.6564,1015.6486],[-99.1169,18.6615,1061.9442],[-99.1174,18.6519,1450.8983],[-99.1209,18.6483,1503.0066],[-99.1617,18.6627,952.3869],[-99.1708,18.6577,939.2432],[-99.1777,18.6297,898.5999],[-99.1846,18.6343,900.8571],[-99.1871,18.6387,903.3657],[-99.1892,18.6351,901.4597],[-99.1866,18.6327,899.5085],[-99.1837,18.6254,893.0364],[-99.1775,18.6203,894.4028],[-99.1742,18.62,895.2635],[-99.1713,18.6222,897.8164],[-99.1702,18.621,897.2296],[-99.1683,18.6184,896.4001],[-99.1676,18.6118,896.5363],[-99.1643,18.61,894.4551],[-99.166,18.6082,893.2093],[-99.1643,18.6073,894.3625],[-99.1654,18.6044,898.8403],[-99.1599,18.5997,948.0795],[-99.1517,18.5986,947.2299],[-99.152,18.5785,1536.2307],[-99.1479,18.5723,1429.1189],[-99.1533,18.5596,1133.7434],[-99.1522,18.5543,1029.399],[-99.1629,18.5314,802.5695],[-99.1705,18.5332,779.9237],[-99.174,18.5319,818.2584],[-99.1761,18.5377,779.768],[-99.1797,18.5377,786.7443],[-99.1872,18.5318,789.3373],[-99.1899,18.5323,804.3542],[-99.189,18.524,782.8201],[-99.1916,18.5204,788.8374],[-99.1952,18.525,823.9889],[-99.1944,18.5302,836.9709],[-99.1966,18.5314,806.3925],[-99.2031,18.5274,886.2083],[-99.2033,18.5234,798.6542],[-99.2087,18.523,812.0509],[-99.235,18.5012,1076.6467],[-99.2332,18.4871,1345.8475],[-99.2292,18.4807,1483.5713],[-99.1759,18.4885,767.5068],[-99.2066,18.4657,1333.9802],[-99.2036,18.4565,968.5369],[-99.2067,18.4474,1051.2317],[-99.1888,18.4352,937.3257],[-99.1779,18.4247,939.7283],[-99.1823,18.4361,894.3065],[-99.1813,18.4484,825.9615],[-99.1705,18.4552,794.1124],[-99.1639,18.4626,834.1074],[-99.1603,18.4643,811.431],[-99.1585,18.4636,853.0754],[-99.1561,18.4663,796.703],[-99.1491,18.4674,817.394],[-99.1468,18.4649,778.5877],[-99.1448,18.4669,762.0048],[-99.1424,18.4653,824.8191],[-99.1427,18.4678,771.007],[-99.1412,18.4691,756.4673],[-99.1446,18.4727,782.0251],[-99.1449,18.4755,754.4718],[-99.1406,18.475,775.1993],[-99.1406,18.4707,754.5194],[-99.1379,18.4696,749.944],[-99.1394,18.4641,758.4395],[-99.134,18.458,774.8223],[-99.1361,18.4492,748.3619],[-99.1327,18.4464,761.1964],[-99.1324,18.4437,760.7122],[-99.1298,18.4409,752.7366],[-99.1252,18.4425,784.5795],[-99.1244,18.4412,780.5017],[-99.125,18.4363,756.6671],[-99.1301,18.4322,739.3991],[-99.1283,18.4273,743.797],[-99.1139,18.4188,734.6332],[-99.1107,18.4191,736.6556],[-99.1085,18.4163,771.7433],[-99.1077,18.4099,763.5353],[-99.1005,18.4012,731.3594],[-99.0956,18.4019,744.364],[-99.0895,18.4,768.8343],[-99.0842,18.3914,745.226],[-99.0785,18.3871,734.4242],[-99.0813,18.3731,709.8632],[-99.0792,18.3727,734.2344],[-99.0728,18.3773,736.0993],[-99.0712,18.3704,787.2356],[-99.0663,18.3678,715.7658],[-99.0662,18.3594,703.3535],[-99.0712,18.3595,740.9677],[-99.0699,18.3504,718.5691],[-99.076,18.3428,715.3339],[-99.0728,18.3363,718.3856],[-99.066,18.3326,702.4941]]]]}
,"properties": {"GID_2": "MEX.17.26_2","GID_0": "MEX","country": "México","GID_1": "MEX.17_1","province": "Morelos","NL_NAME_1": "NA","county": "Tlaquiltenango","VARNAME_2": "NA","NL_NAME_2": "NA","TYPE_2": "Município","ENGTYPE_2": "Municipality","CC_2": "NA","HASC_2": "NA","name": "Tlaquiltenango.county","area_km2": 544.8704,"hist_schema_id": "Elevation0-9000","hist_area_km2": {"700": 0.6842,"725": 1.4688,"750": 3.4598,"775": 6.7975,"800": 8.7679,"825": 11.1805,"850": 15.7647,"875": 23.243,"900": 32.9255,"925": 32.5243,"950": 25.8732,"975": 25.3738,"1000": 28.8521,"1025": 25.1144,"1050": 25.7576,"1075": 26.2607,"1100": 27.2668,"1125": 25.8387,"1150": 24.0086,"1175": 25.1341,"1200": 22.6613,"1225": 18.5198,"1250": 17.5548,"1275": 14.2168,"1300": 12.9294,"1325": 10.8983,"1350": 8.0431,"1375": 8.2433,"1400": 7.298,"1425": 5.4683,"1450": 4.6845,"1475": 3.6792,"1500": 2.8549,"1525": 2.473,"1550": 2.0108,"1575": 1.7497,"1600": 1.4077,"1625": 0.9854,"1650": 0.8044,"1675": 0.7441,"1700": 0.6033,"1725": 0.3419,"1750": 0.1207,"1775": 0.181,"1800": 0.0603,"1825": 0.0201,"1850": 0.0201}}}