{"type":"Feature","properties":{"GID_2":"MEX.30.37_2","GID_0":"MEX","country":"México","GID_1":"MEX.30_1","province":"Veracruz","NL_NAME_1":"NA","county":"Chalma","VARNAME_2":"NA","NL_NAME_2":"NA","TYPE_2":"Município","ENGTYPE_2":"Municipality","CC_2":"NA","HASC_2":"NA","name":"Chalma.county"},
"geometry":{"type": "MultiPolygon","coordinates": [[[[-98.2274,21.1504,77.7077],[-98.2231,21.1567,66.5294],[-98.2201,21.158,65.0786],[-98.2104,21.1537,69.9994],[-98.2071,21.1546,63.2995],[-98.2071,21.1565,65.2651],[-98.2107,21.1602,64.4638],[-98.2124,21.1705,71.1449],[-98.2167,21.1733,61.7979],[-98.2304,21.1767,69.8442],[-98.2312,21.1788,60.035],[-98.2296,21.184,60.3293],[-98.2339,21.1852,66.87],[-98.2349,21.1875,58.6738],[-98.2344,21.19,59.9607],[-98.228,21.1927,63.3574],[-98.2222,21.1817,66.801],[-98.2204,21.1815,70.3608],[-98.2218,21.192,73.646],[-98.2195,21.1988,59.9542],[-98.2217,21.2038,67.0565],[-98.217,21.2052,62.1344],[-98.2163,21.2078,60.984],[-98.2257,21.2134,58.1353],[-98.2284,21.2065,62.6425],[-98.2316,21.2055,64.7399],[-98.2321,21.2075,55.0973],[-98.2362,21.2102,60.2058],[-98.239,21.221,65.37],[-98.2438,21.2186,62.3466],[-98.248,21.2104,63.7652],[-98.2507,21.2105,53.5504],[-98.2518,21.2146,55.2511],[-98.2476,21.2262,65.2517],[-98.2485,21.2288,56.2059],[-98.2554,21.231,53.4533],[-98.2879,21.2055,62.7542],[-98.2918,21.2042,64.1267],[-98.2939,21.2011,65.3935],[-98.2923,21.1988,65.4043],[-98.2985,21.1932,67.4366],[-98.2987,21.1891,69.4332],[-98.2962,21.188,68.0408],[-98.2872,21.1943,62.9819],[-98.2791,21.1928,64.6012],[-98.2755,21.1874,69.1054],[-98.2789,21.1829,68.4057],[-98.2781,21.1745,70.5736],[-98.2793,21.1712,70.441],[-98.2847,21.1624,76.2296],[-98.2902,21.1609,76.9624],[-98.2954,21.156,80.1187],[-98.2957,21.1487,87.8563],[-98.2924,21.1461,81.261],[-98.2862,21.1451,79.5713],[-98.2812,21.1415,87.7393],[-98.2822,21.1364,83.9503],[-98.2647,21.1412,327.9729],[-98.262,21.1404,315.1844],[-98.2571,21.1339,255.7805],[-98.2491,21.1294,108.6922],[-98.2453,21.1322,96.1793],[-98.246,21.1346,95.593],[-98.2394,21.1381,102.9819],[-98.2369,21.1434,83.2825],[-98.2338,21.1406,82.2454],[-98.2342,21.1428,82.3884],[-98.2313,21.1424,77.7596],[-98.2317,21.1444,81.6108],[-98.2292,21.1456,86.0856],[-98.2274,21.1504,77.7077]]],
[[[-98.3655,21.1621,110.4708],[-98.3673,21.1625,110.4708],[-98.3662,21.1652,113.461],[-98.3676,21.1671,120.3162],[-98.3728,21.1664,121.2097],[-98.3763,21.1731,127.9889],[-98.3756,21.1746,131.865],[-98.3782,21.1745,132.9805],[-98.3786,21.1762,138.787],[-98.3754,21.177,148.7424],[-98.3738,21.1808,178.5039],[-98.3711,21.1812,195.292],[-98.3718,21.1839,243.6198],[-98.3681,21.1818,173.4648],[-98.3677,21.18,166.5374],[-98.3637,21.1803,196.5589],[-98.3612,21.1839,250.5543],[-98.3593,21.183,176.6926],[-98.3587,21.1801,214.4628],[-98.3424,21.1797,97.8608],[-98.3439,21.1762,98.6786],[-98.3409,21.1743,99.1331],[-98.3419,21.1715,100.2536],[-98.3407,21.1698,101.3178],[-98.3282,21.1788,90.3333],[-98.3211,21.1813,87.57],[-98.3159,21.1869,82.9151],[-98.3116,21.1836,80.2643],[-98.3099,21.184,80.9579],[-98.3096,21.1894,80.902],[-98.313,21.1901,88.6937],[-98.3136,21.1958,113.5523],[-98.3201,21.2002,110.0732],[-98.3258,21.1987,165.5697],[-98.3337,21.1995,135.0333],[-98.3357,21.2012,140.0591],[-98.3371,21.205,161.231],[-98.3358,21.2075,126.3315],[-98.3392,21.2081,162.2311],[-98.3364,21.2155,119.967],[-98.3472,21.2251,80.5958],[-98.3491,21.2245,85.285],[-98.3495,21.2219,82.8449],[-98.3537,21.2235,104.2628],[-98.3515,21.2268,105.8748],[-98.3553,21.2306,85.5258],[-98.359,21.2299,95.4429],[-98.3632,21.2326,104.8859],[-98.3681,21.2322,130.3623],[-98.3697,21.2387,123.4013],[-98.3674,21.2411,82.2273],[-98.3743,21.2455,145.1396],[-98.372,21.242,89.5706],[-98.3766,21.2408,92.2231],[-98.3809,21.2338,117.3709],[-98.3836,21.2373,163.8719],[-98.3801,21.239,131.4869],[-98.3849,21.2422,175.0756],[-98.383,21.2423,160.0799],[-98.3842,21.2435,175.0756],[-98.382,21.2451,141.1607],[-98.3836,21.2456,118.7475],[-98.3835,21.2477,100.2226],[-98.381,21.2527,77.9338],[-98.3834,21.2527,78.1123],[-98.3893,21.2569,100.5115],[-98.3925,21.2612,118.8974],[-98.3975,21.2643,104.1552],[-98.3991,21.2674,74.2001],[-98.4023,21.2655,78.2411],[-98.4095,21.266,93.2498],[-98.4091,21.2648,95.1603],[-98.4117,21.2641,94.8167],[-98.4133,21.2606,116.7871],[-98.4206,21.2593,129.0896],[-98.4238,21.2569,177.8023],[-98.4242,21.2581,134.6742],[-98.4276,21.2564,158.7492],[-98.4312,21.257,155.3876],[-98.4336,21.2527,158.038],[-98.4362,21.2529,162.5709],[-98.4399,21.2501,172.9921],[-98.443,21.2452,197.0565],[-98.4452,21.2454,207.0678],[-98.4457,21.2437,189.0071],[-98.4498,21.2454,156.4326],[-98.4495,21.2423,163.7484],[-98.4523,21.2393,120.3331],[-98.4496,21.2364,135.3232],[-98.4443,21.2353,150.4292],[-98.4451,21.2336,155.4924],[-98.4429,21.2321,160.5685],[-98.4451,21.2303,185.4999],[-98.4503,21.2299,204.2492],[-98.4379,21.2238,199.0804],[-98.4292,21.2147,201.0829],[-98.4306,21.2137,215.0325],[-98.4281,21.211,244.8597],[-98.4296,21.2099,255.7888],[-98.4279,21.207,266.2314],[-98.4311,21.203,243.2685],[-98.4272,21.2025,225.3423],[-98.4264,21.1981,252.9225],[-98.4242,21.1976,301.4443],[-98.4267,21.1973,252.9225],[-98.4263,21.1926,325.2132],[-98.4231,21.1879,252.5221],[-98.4244,21.1875,252.5221],[-98.4224,21.1815,211.0589],[-98.419,21.1782,182.4957],[-98.4228,21.1754,167.9651],[-98.4235,21.1636,183.0066],[-98.4204,21.1615,138.7048],[-98.4185,21.1622,143.7021],[-98.4164,21.155,135.0973],[-98.4054,21.1547,123.8134],[-98.4045,21.1527,125.5297],[-98.4032,21.1544,125.3853],[-98.4038,21.1576,127.1581],[-98.4011,21.1559,123.182],[-98.3995,21.1586,120.5112],[-98.3978,21.1565,123.3386],[-98.3911,21.1605,119.6127],[-98.3893,21.1587,119.6898],[-98.3881,21.1593,118.0329],[-98.3885,21.1616,118.6175],[-98.3862,21.1623,116.4828],[-98.384,21.1609,119.9508],[-98.3836,21.1585,115.6022],[-98.3802,21.1584,117.0476],[-98.3792,21.1552,115.2844],[-98.3677,21.1588,113.8765],[-98.3655,21.1621,110.4708]]]]}}