{"type":"Feature","properties":{"GID_2":"MEX.19.40_2","GID_0":"MEX","country":"México","GID_1":"MEX.19_1","province":"NuevoLeón","NL_NAME_1":"NA","county":"Monterrey","VARNAME_2":"NA","NL_NAME_2":"NA","TYPE_2":"Município","ENGTYPE_2":"Municipality","CC_2":"NA","HASC_2":"NA","name":"Monterrey.county"},
"geometry":{"type": "MultiPolygon","coordinates": [[[[-100.1788,25.5303,1084.9148],[-100.2,25.5517,1069.8977],[-100.2061,25.5634,1091.5424],[-100.2133,25.5731,1003.9609],[-100.2164,25.5812,1060.8013],[-100.2249,25.5896,1200.071],[-100.227,25.5952,1184.6692],[-100.2346,25.6031,1407.1643],[-100.2367,25.6096,1393.6932],[-100.2397,25.6113,1552.1438],[-100.2432,25.617,1587.8896],[-100.2421,25.6248,1617.9714],[-100.2433,25.6261,1701.9049],[-100.2695,25.6215,544.6619],[-100.2727,25.6252,542.0148],[-100.2708,25.6279,537.094],[-100.2716,25.6335,531.5659],[-100.2692,25.64,523.8805],[-100.27,25.642,523.8021],[-100.2735,25.6431,527.0144],[-100.2743,25.647,518.8188],[-100.2681,25.6508,514.8566],[-100.2736,25.6557,514.6136],[-100.269,25.66,505.3218],[-100.2714,25.6705,506.7854],[-100.2742,25.6735,508.2924],[-100.2717,25.6764,505.6736],[-100.2759,25.6763,499.4944],[-100.2709,25.6814,494.2456],[-100.2613,25.6827,487.2984],[-100.2618,25.7012,493.4863],[-100.2682,25.7033,498.4476],[-100.2686,25.7082,503.2138],[-100.2838,25.7081,514.3093],[-100.3103,25.7185,526.6582],[-100.3096,25.7205,521.3114],[-100.3171,25.7227,524.6384],[-100.316,25.7318,519.3472],[-100.3178,25.7323,522.0259],[-100.3171,25.7349,520.9257],[-100.3183,25.7373,527.3574],[-100.3239,25.7377,539.5421],[-100.321,25.7453,541.4038],[-100.3224,25.745,548.6024],[-100.3221,25.7501,542.9921],[-100.3368,25.7627,1002.1456],[-100.3392,25.7624,1033.8748],[-100.3481,25.7741,1151.979],[-100.3505,25.78,1109.6748],[-100.3618,25.7891,898.5096],[-100.3614,25.7921,713.6609],[-100.3746,25.7937,594.0237],[-100.3872,25.7974,544.9771],[-100.3933,25.7927,551.517],[-100.4035,25.7965,555.1674],[-100.4122,25.7893,563.4007],[-100.4154,25.7894,564.5938],[-100.4286,25.7516,674.7744],[-100.4361,25.7387,845.8264],[-100.4369,25.7329,960.6799],[-100.4434,25.7206,1780.8997],[-100.425,25.7148,1830.8535],[-100.4232,25.7124,1848.6653],[-100.4114,25.7076,1772.9919],[-100.4096,25.7046,1779.7197],[-100.4037,25.7025,1613.5726],[-100.3977,25.6945,1429.7083],[-100.3982,25.6768,623.2935],[-100.3954,25.6732,601.9871],[-100.383,25.6698,592.1909],[-100.3804,25.6678,597.0027],[-100.3668,25.6681,584.2209],[-100.3635,25.6711,577.0499],[-100.3554,25.6658,643.456],[-100.3422,25.6615,671.5017],[-100.3273,25.653199999999998,700.4047],[-100.3211,25.6525,690.8417],[-100.3129,25.647,693.9662],[-100.3266,25.6201,834.8591],[-100.3325,25.6144,956.4927],[-100.3336,25.6079,1128.9751],[-100.3444,25.5893,2090.3049],[-100.3293,25.5768,1648.7197],[-100.3215,25.5748,1507.9709],[-100.317,25.5718,1057.9713],[-100.3165,25.5697,1142.6956],[-100.3193,25.5668,1244.8898],[-100.3188,25.5608,1370.0726],[-100.3147,25.5589,1546.9451],[-100.3183,25.5472,2156.8284],[-100.3032,25.5393,1908.7054],[-100.2996,25.5362,2021.54],[-100.2996,25.5328,1947.8984],[-100.2944,25.5289,2003.4829],[-100.2886,25.5292,1424.3365],[-100.2866,25.5236,1369.6853],[-100.2781,25.5195,1657.5133],[-100.271,25.5077,1875.9099],[-100.2734,25.5019,2381.0967],[-100.2661,25.4979,1868.426],[-100.2576,25.4821,1968.5809],[-100.2447,25.4897,1130.4983],[-100.2388,25.4951,811.1461],[-100.2331,25.4961,694.8434],[-100.2294,25.4986,692.1516],[-100.2332,25.5054,672.7644],[-100.23,25.5076,666.3379],[-100.2249,25.5002,644.8214],[-100.2228,25.5004,647.3391],[-100.2123,25.5075,577.6943],[-100.2068,25.5132,546.1144],[-100.2061,25.5161,545.0721],[-100.202,25.5167,533.5316],[-100.1971,25.5147,529.0425],[-100.1958,25.5167,525.8575],[-100.1934,25.5169,521.83],[-100.1918,25.5204,542.7927],[-100.1891,25.519,551.2254],[-100.1866,25.5212,599.8824],[-100.1833,25.5198,624.8688],[-100.183,25.5182,590.181],[-100.1789,25.5182,738.679],[-100.1762,25.5131,665.2317],[-100.1709,25.5142,947.5447],[-100.1674,25.5169,1152.3613],[-100.1729,25.5211,1132.9521],[-100.1788,25.5303,1084.9148]]]]}}