{"type":"Feature","properties":{"GID_2":"MEX.20.28_2","GID_0":"MEX","country":"México","GID_1":"MEX.20_1","province":"Oaxaca","NL_NAME_1":"NA","county":"CuyamecalcoVilladeZaragoza","VARNAME_2":"NA","NL_NAME_2":"NA","TYPE_2":"Município","ENGTYPE_2":"Municipality","CC_2":"NA","HASC_2":"NA","name":"Cuyamecalco_Villade_Zaragoza.county"},
"geometry":{"type": "MultiPolygon","coordinates": [[[[-96.8345,17.9223,2626.563],[-96.8349,17.9276,2369.6736],[-96.8239,17.9244,2203.4197],[-96.8181,17.9297,1933.6587],[-96.8125,17.9318,1776.0178],[-96.8109,17.9317,1797.6196],[-96.8109,17.9289,1833.0171],[-96.8092,17.9289,1755.0815],[-96.8089,17.9343,1640.54],[-96.8036,17.9386,1584.7023],[-96.802,17.9422,1564.1639],[-96.8018,17.9484,1533.5844],[-96.8031,17.9519,1469.6973],[-96.8118,17.9612,1981.7389],[-96.8362,18.0141,341.3574],[-96.835,18.0165,325.8716],[-96.8397,18.0127,334.3878],[-96.8533,18.0133,363.2813],[-96.8625,18.0102,379.496],[-96.8717,18.0104,408.1575],[-96.8799,18.0017,424.3998],[-96.8834,18.0002,409.8928],[-96.8886,17.9889,436.0033],[-96.8961,17.9916,431.4849],[-96.8974,17.9883,501.7751],[-96.9021,17.985,477.2809],[-96.9037,17.9797,471.2667],[-96.908,17.9797,441.2202],[-96.9086,17.976,444.0735],[-96.9152,17.977,506.4086],[-96.918,17.9746,484.8081],[-96.9156,17.9734,484.2047],[-96.9175,17.9686,476.7376],[-96.9126,17.959,494.1338],[-96.8889,17.9336,1345.1705],[-96.864,17.928,2283.0],[-96.8534,17.9344,2454.9697],[-96.8504,17.9345,2460.157],[-96.8433,17.9294,2418.6304],[-96.8386,17.9221,2579.4375],[-96.8345,17.9223,2626.563]]]]}}