{"type":"Feature","properties":{"GID_2":"MEX.21.193_2","GID_0":"MEX","country":"México","GID_1":"MEX.21_1","province":"Puebla","NL_NAME_1":"NA","county":"Tzicatlacoyan","VARNAME_2":"NA","NL_NAME_2":"NA","TYPE_2":"Município","ENGTYPE_2":"Municipality","CC_2":"NA","HASC_2":"NA","name":"Tzicatlacoyan.county"},
"geometry":{"type": "MultiPolygon","coordinates": [[[[-97.9274,18.8122,1766.1997],[-97.9293,18.8125,1807.1685],[-97.9305,18.8088,1807.3846],[-97.9329,18.807,1827.7583],[-97.9334,18.8107,1827.6483],[-97.9344,18.8088,1779.6852],[-97.9417,18.8085,1826.9156],[-97.945,18.8102,1807.7866],[-97.9452,18.8121,1817.2609],[-97.9427,18.8115,1799.9617],[-97.9419,18.8128,1808.51],[-97.9452,18.8156,1838.0383],[-97.9476,18.8154,1806.6527],[-97.9477,18.8119,1823.2954],[-97.9501,18.8135,1844.7697],[-97.9482,18.8165,1804.1208],[-97.9508,18.8144,1797.177],[-97.9554,18.8163,1811.6265],[-97.9545,18.8198,1823.697],[-97.9522,18.8192,1811.0062],[-97.9492,18.8235,1840.0653],[-97.9548,18.8247,1818.4922],[-97.9615,18.8213,1825.3638],[-97.9656,18.824,1854.4142],[-97.966,18.8272,1881.3518],[-97.969,18.8306,1856.8418],[-97.9713,18.827,1858.9958],[-97.9745,18.8264,1838.3568],[-97.9749,18.8239,1830.4019],[-97.9784,18.8298,1841.8889],[-97.9792,18.8274,1839.2048],[-97.9827,18.8295,1849.1049],[-97.99,18.8265,1865.7372],[-97.9933,18.828,1866.0073],[-97.9963,18.8264,1865.0269],[-97.9996,18.8283,1881.3556],[-98.0063,18.8252,1899.8557],[-98.0079,18.8267,1881.7631],[-98.0066,18.8295,1874.3867],[-98.0086,18.831,1881.717],[-98.0069,18.8356,1913.8281],[-98.008,18.8366,1866.7745],[-98.0116,18.8288,1892.9661],[-98.0147,18.8273,1875.7045],[-98.0119,18.8324,1893.2004],[-98.0146,18.8318,1900.9103],[-98.0164,18.8335,1877.042],[-98.0192,18.8325,1875.5596],[-98.02,18.8395,1902.7111],[-98.0224,18.8387,1898.9832],[-98.0228,18.8352,1911.3601],[-98.0248,18.8357,1901.4907],[-98.0235,18.8374,1898.9832],[-98.0247,18.8385,1904.1729],[-98.027,18.8383,1912.0924],[-98.0279,18.8364,1942.4985],[-98.0297,18.8372,1918.8237],[-98.0289,18.8409,1911.3666],[-98.0308,18.8491,1926.5605],[-98.0299,18.8514,1921.0989],[-98.0266,18.8501,1942.652],[-98.0226,18.8551,1942.7733],[-98.0159,18.8592,1961.2722],[-98.0176,18.8632,1980.2064],[-98.0155,18.8643,1984.7955],[-98.0156,18.8689,1997.9996],[-98.0181,18.8695,2000.4197],[-98.0244,18.8767,2036.5281],[-98.0429,18.8834,2123.6741],[-98.0446,18.8859,2134.7363],[-98.0565,18.8873,2032.9413],[-98.0663,18.8812,1956.054],[-98.0656,18.8874,1973.5874],[-98.0599,18.8942,2061.5601],[-98.0689,18.8958,2058.1326],[-98.0748,18.9012,1991.8901],[-98.0753,18.8985,1990.4247],[-98.079,18.8979,1989.8135],[-98.0845,18.9029,1986.6055],[-98.0899,18.9014,2018.9465],[-98.09,18.9117,2015.0645],[-98.0967,18.9128,2012.3842],[-98.1036,18.9098,2006.0232],[-98.107,18.9122,2044.2283],[-98.1078,18.9106,2022.4395],[-98.1113,18.9101,2074.875],[-98.1163,18.9111,2054.0],[-98.1181,18.9078,2054.9744],[-98.1178,18.9035,2071.3215],[-98.12,18.905,2054.0],[-98.125,18.9026,2061.9814],[-98.1249,18.9031,2061.9814],[-98.1218,18.9059,2054.0],[-98.1218,18.9087,2054.0],[-98.1238,18.9105,2054.0],[-98.1272,18.9098,2064.1074],[-98.1267,18.9136,2058.7996],[-98.1315,18.9127,2056.3271],[-98.1319,18.9144,2054.0],[-98.1342,18.9139,2054.0],[-98.1335,18.9096,2060.7832],[-98.1353,18.9122,2054.0],[-98.1391,18.9126,2054.0],[-98.1384,18.9113,2066.4761],[-98.1415,18.9111,2054.0],[-98.1419,18.9094,2062.5371],[-98.1437,18.9103,2054.0],[-98.1439,18.9091,2054.0],[-98.1468,18.9091,2054.0],[-98.1448,18.9059,2064.0632],[-98.1473,18.9075,2054.0],[-98.1508,18.9062,2061.0083],[-98.1499,18.9024,2072.1338],[-98.1466,18.8993,2111.9556],[-98.1495,18.8974,2105.9482],[-98.147,18.8948,2138.7122],[-98.1347,18.8952,2156.519],[-98.1351,18.8894,2143.3257],[-98.1419,18.8849,2029.5946],[-98.1437,18.8819,2018.1145],[-98.1473,18.8809,2010.1517],[-98.149,18.8823,2011.5602],[-98.1509,18.8803,2005.7186],[-98.1502,18.8779,2014.0327],[-98.1539,18.8758,2019.7302],[-98.1531,18.8725,1993.2803],[-98.1562,18.8686,1979.162],[-98.1598,18.8681,2027.598],[-98.1583,18.8578,1914.0817],[-98.1503,18.8564,1906.8506],[-98.1465,18.8514,1849.1595],[-98.148,18.8466,1853.0432],[-98.1509,18.8463,1824.0562],[-98.1463,18.8296,1744.1709],[-98.1514,18.8208,1724.0311],[-98.1505,18.8196,1750.7722],[-98.1529,18.8136,1607.0267],[-98.1523,18.8105,1606.8745],[-98.1504,18.8108,1645.7498],[-98.1502,18.8081,1634.7908],[-98.145,18.8071,1723.9818],[-98.1423,18.8045,1710.2904],[-98.1336,18.8064,1779.7638],[-98.1312,18.8071,1787.9912],[-98.1267,18.8121,1796.7991],[-98.1234,18.8126,1851.3611],[-98.1162,18.8201,1971.6699],[-98.1139,18.8198,1985.1984],[-98.1132,18.8156,1925.7368],[-98.1142,18.812,1863.6934],[-98.1158,18.812,1911.657],[-98.1162,18.8077,1876.2344],[-98.1149,18.805,1871.3105],[-98.12,18.8017,1819.8519],[-98.1186,18.7979,1776.9088],[-98.1126,18.7943,1749.6746],[-98.1127,18.7815,1684.9536],[-98.1086,18.7776,1675.9803],[-98.1067,18.7789,1657.2845],[-98.1065,18.7811,1662.6978],[-98.105,18.7783,1663.7511],[-98.1005,18.7785,1668.9608],[-98.0984,18.7862,1715.6614],[-98.094,18.7876,1741.0221],[-98.0901,18.7923,1821.8506],[-98.0833,18.7931,1859.0879],[-98.08,18.7962,1895.4791],[-98.0792,18.7855,1851.1462],[-98.086,18.783,1724.7896],[-98.0795,18.7747,1658.4419],[-98.0807,18.7696,1655.1592],[-98.0541,18.7651,1698.6587],[-98.0504,18.7607,1675.3528],[-98.0481,18.7643,1677.1847],[-98.0468,18.764,1677.1847],[-98.0469,18.7601,1640.1444],[-98.0443,18.7615,1697.0503],[-98.0393,18.7585,1697.0491],[-98.0355,18.7583,1705.3163],[-98.0297,18.7504,1646.7341],[-98.0236,18.7528,1684.2166],[-98.019,18.7573,1725.1536],[-98.0139,18.7432,1679.1592],[-97.9947,18.7387,1728.3405],[-97.9719,18.737,1864.459],[-97.9663,18.7265,1829.5061],[-97.9627,18.7232,1764.7841],[-97.9596,18.7227,1738.7323],[-97.9586,18.7176,1716.2083],[-97.947,18.7251,1672.46],[-97.9239,18.7352,1727.3823],[-97.9166,18.7472,1703.2236],[-97.9155,18.7559,1720.5858],[-97.9181,18.7613,1723.5974],[-97.9155,18.7656,1722.2314],[-97.9175,18.7681,1752.5717],[-97.9167,18.7741,1772.4285],[-97.9225,18.7813,1768.6577],[-97.9222,18.7848,1775.4382],[-97.9241,18.788,1806.1157],[-97.9236,18.7965,1777.0205],[-97.927,18.799,1781.3444],[-97.925,18.7993,1751.6895],[-97.9242,18.8015,1767.9446],[-97.9263,18.8031,1766.6152],[-97.9252,18.806,1814.613],[-97.9278,18.8084,1801.8795],[-97.9274,18.8122,1766.1997]]]]}}