{"type": "Feature","bbox": [-97.6999,17.4673,-97.6398,17.5681],"geometry": {"type": "MultiPolygon","coordinates": [[[[-97.6999,17.4673,2470.8401],[-97.6856,17.4771,2914.2991],[-97.6398,17.5016,2159.7507],[-97.655,17.5458,1900.3153],[-97.6542,17.5496,1884.8818],[-97.6618,17.5574,1885.8854],[-97.6628,17.5618,1828.2378],[-97.6648,17.5634,1840.7927],[-97.6647,17.5681,1806.3159],[-97.672,17.5671,2142.6904],[-97.6821,17.5627,2277.0557],[-97.6971,17.5497,2607.0632],[-97.6982,17.5172,2523.439],[-97.697,17.5148,2583.1113],[-97.6983,17.514,2583.1113],[-97.6984,17.5089,2570.2593],[-97.696,17.506,2607.9778],[-97.6984,17.5027,2665.1301],[-97.6956,17.5005,2707.4202],[-97.6955,17.4982,2737.8691],[-97.6991,17.4933,2796.7959],[-97.6978,17.4805,2730.1226],[-97.6999,17.4673,2470.8401]]]]}
,"properties": {"GID_2": "MEX.20.346_2","GID_0": "MEX","country": "México","GID_1": "MEX.20_1","province": "Oaxaca","NL_NAME_1": "NA","county": "SanSebastiánNicananduta","VARNAME_2": "NA","NL_NAME_2": "NA","TYPE_2": "Município","ENGTYPE_2": "Municipality","CC_2": "NA","HASC_2": "NA","name": "San_Sebastián_Nicananduta.county","area_km2": 44.33961,"hist_schema_id": "Elevation0-9000","hist_area_km2": {"1825": 0.02021,"1850": 0.1415,"1875": 0.26279,"1900": 0.26279,"1925": 0.46494,"1950": 0.90969,"1975": 0.58625,"2000": 1.07142,"2025": 0.86928,"2050": 1.19275,"2075": 1.29383,"2100": 0.92996,"2125": 1.27363,"2150": 1.13213,"2175": 1.07151,"2200": 0.82891,"2225": 1.27371,"2250": 1.1524,"2275": 1.112,"2300": 1.2333,"2325": 1.2333,"2350": 1.45573,"2375": 1.13224,"2400": 1.43552,"2425": 1.13222,"2450": 1.63773,"2475": 1.23335,"2500": 1.25361,"2525": 1.09186,"2550": 1.01097,"2575": 0.82901,"2600": 0.78859,"2625": 0.93011,"2650": 1.07169,"2675": 0.97061,"2700": 0.93017,"2725": 0.97063,"2750": 0.70774,"2775": 0.97062,"2800": 1.0313,"2825": 0.86953,"2850": 0.82907,"2875": 0.80887,"2900": 0.86953,"2925": 0.72797,"2950": 0.72797,"2975": 0.2831,"3000": 0.26288,"3025": 0.04044,"3050": 0.02022}}}