{"type": "Feature","bbox": [-98.175,20.3868,-97.985,20.6771],"geometry": {"type": "MultiPolygon","coordinates": [[[[-97.985,20.517,351.1421],[-97.9897,20.5183,362.9837],[-97.99,20.5202,357.9444],[-97.9927,20.5199,360.1139],[-97.995,20.523,374.2439],[-97.9979,20.523,384.8231],[-97.9988,20.5252,396.2672],[-98.0035,20.5228,423.9384],[-98.0042,20.5249,401.7853],[-98.0126,20.5252,414.7748],[-98.0138,20.524,434.0428],[-98.0173,20.526,522.3217],[-98.0183,20.5288,733.2665],[-98.0121,20.5295,688.1608],[-98.0083,20.5327,736.1353],[-98.0287,20.5897,260.971],[-98.0177,20.6017,244.5883],[-98.021,20.6268,268.3331],[-98.0294,20.6321,304.637],[-98.036,20.6333,303.8407],[-98.04,20.6319,326.5344],[-98.0668,20.6739,172.6224],[-98.0713,20.6771,181.4257],[-98.0754,20.6763,167.7688],[-98.0764,20.6714,171.3353],[-98.0713,20.6699,180.1096],[-98.0702,20.6676,179.7133],[-98.0726,20.6607,177.6848],[-98.072,20.6577,181.5466],[-98.0793,20.6497,189.5793],[-98.0828,20.6421,209.9302],[-98.0806,20.6335,205.371],[-98.0855,20.6298,249.4243],[-98.0875,20.6225,220.8382],[-98.095,20.6255,296.292],[-98.0986,20.6241,311.6615],[-98.1006,20.6212,283.8495],[-98.0983,20.617,274.9555],[-98.1005,20.614,260.2357],[-98.0948,20.6081,394.9079],[-98.0964,20.6048,307.4648],[-98.0952,20.5999,316.6217],[-98.0888,20.5909,358.6364],[-98.0911,20.5855,329.5208],[-98.0945,20.5843,396.7115],[-98.0956,20.5795,390.3977],[-98.0932,20.5743,420.8031],[-98.0797,20.572,750.4587],[-98.0779,20.5659,792.7203],[-98.0703,20.5691,448.0522],[-98.0711,20.5661,418.4586],[-98.0693,20.5613,406.6954],[-98.0718,20.5538,446.6745],[-98.0692,20.5481,448.4128],[-98.0717,20.5444,449.5451],[-98.0715,20.5415,545.8644],[-98.0647,20.5342,1063.549],[-98.0621,20.5337,971.4351],[-98.0622,20.5317,967.6848],[-98.0612,20.5324,971.4351],[-98.06,20.5296,865.8027],[-98.0593,20.5298,865.8027],[-98.0596,20.533,872.6167],[-98.0565,20.5326,854.0466],[-98.0578,20.5314,759.8776],[-98.0564,20.5281,651.0818],[-98.0572,20.5235,759.1536],[-98.0431,20.5059,587.6796],[-98.048,20.5029,648.537],[-98.0529,20.5047,708.5937],[-98.0586,20.4998,840.034],[-98.0635,20.5002,1015.9119],[-98.0712,20.4979,1199.066],[-98.0709,20.5021,1054.6184],[-98.0733,20.5077,860.3196],[-98.0718,20.514,745.6871],[-98.0758,20.5106,743.836],[-98.0788,20.5121,850.1628],[-98.0869,20.5114,1101.677],[-98.0901,20.5078,1192.9326],[-98.0842,20.5046,945.2472],[-98.0838,20.5028,925.1495],[-98.0867,20.4992,984.8581],[-98.094,20.4959,1173.8414],[-98.0924,20.4921,1266.8269],[-98.0949,20.4865,1181.2427],[-98.1,20.4901,1036.4548],[-98.1051,20.484,829.3884],[-98.0964,20.4772,641.496],[-98.1135,20.4687,1237.3601],[-98.1207,20.4598,1576.6637],[-98.1204,20.4562,1371.7573],[-98.116,20.4563,1234.8124],[-98.1156,20.4499,778.7268],[-98.1093,20.4428,495.9562],[-98.1125,20.4422,531.116],[-98.1137,20.4396,557.4343],[-98.132,20.429,535.8849],[-98.1367,20.4305,537.735],[-98.14,20.4267,745.6943],[-98.1445,20.4263,588.634],[-98.1507,20.4211,597.2977],[-98.1499,20.4172,641.9596],[-98.1531,20.4166,602.8657],[-98.1545,20.4119,634.1201],[-98.1589,20.4084,654.0754],[-98.1654,20.4088,630.5637],[-98.1678,20.4134,649.9184],[-98.1719,20.4118,681.1768],[-98.1744,20.4135,653.007],[-98.175,20.4041,857.9019],[-98.171,20.3984,1478.2717],[-98.1627,20.3935,1566.5258],[-98.1583,20.3878,971.8247],[-98.1439,20.3914,855.7673],[-98.1404,20.3984,796.6378],[-98.1376,20.3981,803.9337],[-98.1376,20.4,803.756],[-98.1266,20.3985,749.3459],[-98.1245,20.4014,982.5672],[-98.1243,20.406,717.7726],[-98.1127,20.4093,676.5852],[-98.1071,20.4066,652.6324],[-98.1069,20.4048,684.3068],[-98.108,20.4035,728.4058],[-98.1119,20.4044,690.9791],[-98.1158,20.4018,746.3825],[-98.1149,20.3974,839.7261],[-98.1104,20.3972,996.39],[-98.1074,20.3934,1108.6628],[-98.1066,20.3947,1095.8069],[-98.1042,20.394,1122.0261],[-98.102,20.389,1275.1819],[-98.0917,20.3868,1633.4712],[-98.0886,20.3904,1554.421],[-98.0884,20.3964,1190.6405],[-98.0773,20.4031,1196.8311],[-98.0769,20.407,945.0266],[-98.079,20.4089,850.2338],[-98.0719,20.4164,785.9271],[-98.0761,20.4177,618.6866],[-98.0766,20.4208,578.9766],[-98.0743,20.4216,563.7434],[-98.0705,20.4303,576.2178],[-98.0634,20.4359,570.3583],[-98.0613,20.4355,519.4824],[-98.057,20.4387,493.9534],[-98.0536,20.4386,512.8555],[-98.052,20.4419,491.9425],[-98.0468,20.4369,531.6289],[-98.0446,20.4366,522.0331],[-98.0428,20.4406,515.825],[-98.04,20.4402,478.1291],[-98.0338,20.4477,420.8917],[-98.0219,20.4489,420.494],[-98.0171,20.4547,495.4733],[-98.0114,20.4558,477.7652],[-98.014,20.4564,540.5449],[-98.0121,20.4584,420.4677],[-98.015,20.4592,428.1577],[-98.0116,20.4612,433.9014],[-98.0141,20.4662,389.3165],[-98.0083,20.4747,703.9233],[-98.0089,20.4825,334.5808],[-97.9999,20.4825,305.6581],[-97.9979,20.4844,345.882],[-97.999,20.4871,544.2787],[-97.9934,20.4852,347.6703],[-97.9919,20.4928,291.5477],[-97.9888,20.4954,286.9493],[-97.9974,20.5061,629.0211],[-97.9929,20.5076,460.4139],[-97.9916,20.513,408.1988],[-97.9893,20.5155,397.1543],[-97.9853,20.5156,351.1421],[-97.985,20.517,351.1421]]]]}
,"properties": {"GID_2": "MEX.13.27_2","GID_0": "MEX","country": "México","GID_1": "MEX.13_1","province": "Hidalgo","NL_NAME_1": "NA","county": "Huehuetla","VARNAME_2": "NA","NL_NAME_2": "NA","TYPE_2": "Município","ENGTYPE_2": "Municipality","CC_2": "NA","HASC_2": "NA","name": "Huehuetla.county","area_km2": 215.7929,"hist_schema_id": "Elevation0-9000","hist_area_km2": {"175": 1.3292,"200": 1.6468,"225": 2.1429,"250": 2.2224,"275": 3.7704,"300": 4.485,"325": 5.8347,"350": 7.4231,"375": 7.4232,"400": 7.8802,"425": 9.171,"450": 8.1393,"475": 8.6962,"500": 7.9816,"525": 8.2402,"550": 6.8507,"575": 7.6054,"600": 7.169,"625": 7.4474,"650": 7.0104,"675": 6.8322,"700": 6.4749,"725": 6.0975,"750": 6.1175,"775": 6.0185,"800": 5.3431,"825": 4.3502,"850": 4.251,"875": 3.9333,"900": 3.5758,"925": 3.2381,"950": 2.7217,"975": 3.1587,"1000": 2.8012,"1025": 2.7814,"1050": 2.5031,"1075": 2.4834,"1100": 2.0264,"1125": 2.0264,"1150": 1.788,"1175": 1.6688,"1200": 1.8874,"1225": 1.8476,"1250": 1.8277,"1275": 1.5297,"1300": 1.2913,"1325": 0.9735,"1350": 0.7351,"1375": 0.5166,"1400": 0.3974,"1425": 0.298,"1450": 0.159,"1475": 0.2385,"1500": 0.1788,"1525": 0.2981,"1550": 0.3378,"1575": 0.2782,"1600": 0.159,"1625": 0.1789}}}