{"type":"Feature","properties":{"GID_2":"MEX.20.97_2","GID_0":"MEX","country":"México","GID_1":"MEX.20_1","province":"Oaxaca","NL_NAME_1":"NA","county":"SanAndrésPaxtlán","VARNAME_2":"NA","NL_NAME_2":"NA","TYPE_2":"Município","ENGTYPE_2":"Municipality","CC_2":"NA","HASC_2":"NA","name":"San_Andrés_Paxtlán.county"},
"geometry":{"type": "MultiPolygon","coordinates": [[[[-96.5349,16.2514,2148.645],[-96.5376,16.2522,2081.8057],[-96.5385,16.2505,2057.885],[-96.5455,16.2492,2042.5676],[-96.5475,16.2505,2010.2642],[-96.5489,16.2495,1995.6436],[-96.548,16.2527,1967.5271],[-96.5527,16.2509,1947.0604],[-96.5552,16.2539,1865.4408],[-96.5575,16.2519,1880.4723],[-96.5449,16.2244,2526.1143],[-96.5386,16.2163,2591.1572],[-96.5647,16.203,2531.5635],[-96.5406,16.2072,2631.7964],[-96.5851,16.1908,2470.8992],[-96.5855,16.1743,1769.625],[-96.5842,16.1708,1630.686],[-96.5596,16.1805,1618.7698],[-96.5522,16.1778,1889.7948],[-96.5139,16.188,2385.8789],[-96.5059,16.1837,2573.6133],[-96.4999,16.1838,2646.1448],[-96.4981,16.1865,2668.7285],[-96.4904,16.1876,2645.5774],[-96.4864,16.1852,2634.3777],[-96.4841,16.1867,2666.2749],[-96.4851,16.189,2622.0496],[-96.4838,16.1917,2616.8604],[-96.4843,16.2016,2594.4949],[-96.4855,16.2035,2589.8926],[-96.4845,16.2091,2437.5132],[-96.4871,16.2135,2387.5437],[-96.484,16.2272,2195.6313],[-96.4769,16.2317,1961.2279],[-96.4783,16.2354,1935.6886],[-96.4835,16.2401,1884.2527],[-96.4883,16.2509,1826.7266],[-96.4975,16.2488,2013.5532],[-96.5053,16.2446,1959.2998],[-96.51,16.2466,1906.0394],[-96.5138,16.2462,1976.9016],[-96.5204,16.2414,2204.9744],[-96.5266,16.2407,2240.396],[-96.5292,16.241,2239.6768],[-96.5349,16.2514,2148.645]]]]}}