{"type": "Feature","bbox": [-110.8399,30.1798,-110.4041,30.6789],"geometry": {"type": "MultiPolygon","coordinates": [[[[-110.4718,30.6431,1866.9642],[-110.4742,30.6342,1684.8016],[-110.5172,30.6338,1728.3003],[-110.5313,30.6312,1480.2494],[-110.5406,30.6314,1448.0537],[-110.5428,30.623,1408.9607],[-110.5825,30.6278,1178.5015],[-110.6503,30.5763,1077.6854],[-110.6506,30.5952,1127.6274],[-110.6877,30.593,1062.528],[-110.6815,30.5749,1044.2351],[-110.7007,30.5745,1120.5674],[-110.7033,30.6712,1233.562],[-110.7372,30.6789,1822.7069],[-110.7369,30.6697,1782.4005],[-110.7414,30.6689,1931.3555],[-110.7583,30.6356,1948.3961],[-110.7541,30.6218,1840.8719],[-110.7591,30.5791,1239.5858],[-110.7429,30.5781,1480.9993],[-110.7443,30.5758,1526.4371],[-110.7393,30.5718,1477.6437],[-110.7394,30.5689,1488.407],[-110.7456,30.5651,1524.3307],[-110.7424,30.5622,1442.0442],[-110.7432,30.5583,1541.9547],[-110.7391,30.5562,1554.4095],[-110.8015,30.52,959.6063],[-110.8015,30.5141,954.4117],[-110.8058,30.5121,951.6984],[-110.8094,30.5044,982.4738],[-110.8097,30.4989,999.6055],[-110.814,30.4976,997.5796],[-110.8188,30.4994,970.2136],[-110.8232,30.4989,943.7815],[-110.8217,30.4917,974.3972],[-110.8198,30.4908,966.8364],[-110.8243,30.4791,991.1906],[-110.819,30.4638,1076.5773],[-110.8255,30.4557,1186.9553],[-110.8304,30.4525,1362.9829],[-110.8279,30.4509,1252.6638],[-110.8399,30.4348,1132.5642],[-110.8235,30.3595,1420.6736],[-110.7968,30.2996,1408.5486],[-110.7949,30.2909,1377.7817],[-110.8337,30.2601,912.5684],[-110.8307,30.2554,958.5305],[-110.8314,30.2496,960.2003],[-110.8261,30.2309,932.2846],[-110.8292,30.2142,926.9864],[-110.7867,30.2068,1010.6089],[-110.7813,30.1798,1144.6219],[-110.6905,30.1883,787.4799],[-110.6342,30.1911,1001.5737],[-110.645,30.2072,910.7369],[-110.6359,30.2081,959.0095],[-110.6245,30.2118,992.8795],[-110.6246,30.221,980.0002],[-110.6209,30.224,988.0582],[-110.6192,30.2278,980.2764],[-110.6226,30.2325,986.9464],[-110.6026,30.2412,961.6883],[-110.6097,30.25,1008.9648999999999],[-110.5995,30.2535,1057.4775],[-110.5616,30.2231,1194.6726],[-110.5684,30.196,1195.696],[-110.5547,30.1944,1274.0063],[-110.5533,30.2021,1216.3485],[-110.5442,30.2007,1252.9873],[-110.5551,30.2238,1212.9399],[-110.5497,30.2245,1277.7385],[-110.5435,30.2287,1268.1309],[-110.5242,30.229,1087.9854],[-110.5182,30.2346,1074.7004],[-110.5138,30.2364,1090.1587],[-110.5155,30.2429,1067.4139],[-110.5142,30.2479,1051.6515],[-110.5088,30.2457,1057.5085],[-110.4944,30.246,1097.2334],[-110.49,30.2494,1117.4196],[-110.4895,30.2529,1128.7548],[-110.4849,30.2585,1188.2859],[-110.4673,30.2666,1315.5459],[-110.4856,30.3047,1189.4448],[-110.4116,30.3333,1477.1456],[-110.4329,30.3496,1538.7574],[-110.4196,30.3506,1565.9263],[-110.4338,30.3708,1543.099],[-110.4299,30.3772,1544.6333],[-110.4096,30.3692,1781.7117],[-110.4124,30.392,1621.2622],[-110.4041,30.4077,1777.0479],[-110.4064,30.4275,1870.7493],[-110.4279,30.4221,1562.6929],[-110.4067,30.476,1479.2858],[-110.4165,30.4934,1588.3766],[-110.4713,30.5303,1478.1055],[-110.4826,30.5309,1319.9323],[-110.4789,30.5498,1277.9618],[-110.4899,30.5586,1289.6226],[-110.4881,30.5763,1446.2654],[-110.5009,30.5756,1316.9979],[-110.5021,30.5782,1385.1901],[-110.5002,30.5809,1392.384],[-110.4948,30.5812,1448.2822],[-110.4929,30.5799,1483.6965],[-110.4851,30.5818,1445.502],[-110.4817,30.5851,1481.8734],[-110.4757,30.5848,1509.1929],[-110.4629,30.596,1670.2866],[-110.4596,30.5963,1596.024],[-110.4579,30.5982,1572.9115],[-110.4577,30.6077,1569.4644],[-110.4429,30.6028,1546.1499],[-110.4368,30.6077,1603.2217],[-110.4524,30.6235,1710.2012],[-110.4477,30.6342,1672.1934],[-110.4524,30.6381,1750.1652],[-110.4718,30.6431,1866.9642]]]]}
,"properties": {"GID_2": "MEX.26.22_2","GID_0": "MEX","country": "México","GID_1": "MEX.26_1","province": "Sonora","NL_NAME_1": "NA","county": "Cucurpe","VARNAME_2": "NA","NL_NAME_2": "NA","TYPE_2": "Município","ENGTYPE_2": "Municipality","CC_2": "NA","HASC_2": "NA","name": "Cucurpe.county","area_km2": 1579.404,"hist_schema_id": "Elevation0-9000","hist_area_km2": {"775": 1.173,"800": 5.185,"825": 13.593,"850": 27.124,"875": 40.244,"900": 48.681,"925": 61.256,"950": 69.198,"975": 85.781,"1000": 92.3,"1025": 97.615,"1050": 96.416,"1075": 88.587,"1100": 82.106,"1125": 81.274,"1150": 76.563,"1175": 76.331,"1200": 70.842,"1225": 63.53,"1250": 54.238,"1275": 50.746,"1300": 48.678,"1325": 41.42,"1350": 32.667,"1375": 29.69,"1400": 23.935,"1425": 20.317,"1450": 15.019,"1475": 13.006,"1500": 9.444,"1525": 8.311,"1550": 8.237,"1575": 6.994,"1600": 6.61,"1625": 5.405,"1650": 5.514,"1675": 4.546,"1700": 4.107,"1725": 3.34,"1750": 2.081,"1775": 1.606,"1800": 0.912,"1825": 1.095,"1850": 0.821,"1875": 0.858,"1900": 0.547,"1925": 0.657,"1950": 0.383,"1975": 0.255,"2000": 0.109,"2025": 0.036,"2050": 0.018}}}