{"type":"Feature","properties":{"featurecla":"River","scalerank":11,"rivernum":22281,"dissolve":"22281River","name":"Moctezuma","name_alt":null,"note":"ID is link back to CEC data","name_full":"Moctezuma","min_zoom":6.7,"strokeweig":0.15,"uident":2026701,"min_label":7.7},
"geometry":{"type": "LineString","coordinates": [[-100.37287350168707,21.311387436973206,2148.3823],[-100.35362708241622,21.285467840619035,1987.3174],[-100.34699459543707,21.285956121869035,1963.1237],[-100.33543860585372,21.304022528119035,1915.6073],[-100.32274329335372,21.291042384889863,1909.1405],[-100.3011775381454,21.266709702598206,1868.6906],[-100.26439368397872,21.251776434369035,1812.4845],[-100.2550349600204,21.237087306764863,1793.269],[-100.24767005116622,21.238470770306535,1791.2],[-100.23680579335372,21.227728582806535,1765.8156],[-100.2186580068954,21.217108465619035,1745.7878],[-100.17194576731207,21.206122137494035,1769.0339],[-100.16661536366622,21.200995184369035,1744.4822],[-100.15632076731207,21.190985418744035,1718.0234],[-100.14997311106207,21.193467515098206,1978.2097],[-100.13508053293707,21.199286199994035,2006.6655],[-100.1222224600204,21.193793035931535,1778.8274],[-100.11188717356207,21.182237046348206,1709.4736]]}}