{"type":"Feature","properties":{"featurecla":"River","scalerank":12,"rivernum":22278,"dissolve":"22278River","name":"Guanajuato1","name_alt":null,"note":"ID is link back to CEC data","name_full":"Guanajuato","min_zoom":7.0,"strokeweig":0.2,"uident":2028101,"min_label":8.0},
"geometry":{"type": "LineString","coordinates": [[-101.23924719960372,20.587347723431535,1708.1265],[-101.18175208241622,20.587998765098206,1713.7871],[-101.12437903554122,20.566839910931535,1716.469],[-101.05353756418707,20.562852280723206,1725.712],[-101.05231686106207,20.562811590619035,1725.8616],[-100.99909420481207,20.577988999473206,1733.9723],[-100.9518123037704,20.576035874473206,1740.009],[-100.9120173818954,20.566717840619035,1748.6135],[-100.8746638662704,20.558539129681535,1751.2307],[-100.82506262929122,20.567490952598206,1761.2268],[-100.78180904856207,20.588568426556535,1762.5426],[-100.77074134022872,20.611843166139863,1770.8811],[-100.76561438710372,20.639756577598206,1776.3201]]}}