{"type": "Feature","bbox": [-106.7108,24.9476,-106.1231,25.1972],"geometry": {"type": "MultiPolygon","coordinates": [[[[-106.258,25.1297,2374.7295],[-106.2723,25.108,2045.1338],[-106.3042,25.1552,2338.9402],[-106.3349,25.1828,1915.9301],[-106.2873,25.1972,2302.626],[-106.373,25.1824,2188.2629],[-106.3527,25.1776,2185.0798],[-106.3531,25.1576,2350.5479],[-106.3498,25.1469,2123.3147],[-106.375,25.1295,2444.8845],[-106.3822,25.1363,2490.105],[-106.39,25.1358,2549.7542],[-106.4003,25.1281,2838.3481],[-106.4132,25.141,2751.2327],[-106.4322,25.1472,2728.165],[-106.4051,25.1656,2659.9268],[-106.4513,25.1836,2753.9646],[-106.4767,25.1717,2684.0498],[-106.5709,25.1687,1224.6963],[-106.5786,25.1664,1066.3848],[-106.5933,25.1696,891.8074],[-106.5953,25.1643,858.7379],[-106.599,25.1653,825.2771],[-106.6022,25.1632,846.3162],[-106.6039,25.1637,820.8667],[-106.6046,25.1597,793.269],[-106.6068,25.1592,837.2977],[-106.6065,25.158,786.0103],[-106.6148,25.1564,810.4194],[-106.6139,25.154,835.6403],[-106.6166,25.1522,789.7502],[-106.616,25.1502,753.5999],[-106.6211,25.1482,723.6491],[-106.6232,25.145,716.7861],[-106.6297,25.1458,707.6456],[-106.6305,25.1495,731.4135],[-106.6338,25.15,752.1296],[-106.6347,25.1521,736.8012],[-106.6488,25.1526,677.6082],[-106.6564,25.1567,656.1533],[-106.6621,25.1544,693.5393],[-106.6684,25.1471,688.9156],[-106.6717,25.1457,637.8029],[-106.6752,25.1474,731.9433],[-106.6752,25.1428,678.7644],[-106.6776,25.1405,606.2366],[-106.6904,25.1337,620.8224],[-106.6939,25.1248,572.0485],[-106.7,25.1248,566.2974],[-106.7004,25.1232,603.3411],[-106.7059,25.1214,575.7275],[-106.709,25.1186,556.8022],[-106.7103,25.1144,593.9923],[-106.7094,25.1123,613.5049],[-106.7108,25.111,530.1705],[-106.6799,25.094,1026.4075],[-106.6842,25.0846,1337.0818],[-106.6877,25.0644,764.2892],[-106.6594,25.0659,1160.1436],[-106.6642,25.0558,734.1718],[-106.6669,25.0441,632.2568],[-106.6669,25.04,741.8513],[-106.6609,25.0271,1098.0073],[-106.678,25.0231,984.5161],[-106.6834,25.0121,1651.7983],[-106.6625,24.9607,2569.6709],[-106.6375,24.9476,2352.5945],[-106.6244,24.948,2188.8472],[-106.6079,24.951,2202.2939],[-106.6085,24.9587,2182.9487],[-106.616,24.9749,1385.2328],[-106.6145,24.9776,1335.624],[-106.6152,24.9795,1250.52],[-106.6092,24.9794,1193.8005],[-106.6029,24.9849,1114.5148],[-106.5981,24.9838,1100.7252],[-106.5986,24.9862,1084.3054],[-106.5952,24.9864,1094.5605],[-106.5932,24.9913,1024.7327],[-106.584,24.992,1292.7657],[-106.5819,24.9936,1243.7111],[-106.5592,24.9578,2343.1079],[-106.5067,24.9504,2725.6367],[-106.4993,24.9538,2736.9507],[-106.4947,24.9851,2738.0347],[-106.5017,25.0022,2658.7419],[-106.4662,24.9684,2496.863],[-106.4306,25.0229,2544.8159],[-106.4213,25.0239,2360.7148],[-106.4179,25.036,2060.0874],[-106.397,25.0694,2652.4236],[-106.3998,25.072,2606.498],[-106.3749,25.101,2761.3572],[-106.3807,25.0571,2258.2766],[-106.3908,25.0646,2522.7642],[-106.3874,25.0414,1733.7814],[-106.3595,25.0471,2371.3174],[-106.3436,25.064,2688.8552],[-106.3415,25.0713,2740.4102],[-106.3253,25.0809,2631.3567],[-106.3142,25.0543,2623.5828],[-106.3244,25.0464,2746.4124],[-106.3369,25.0322,2606.4263],[-106.2703,24.9914,2644.3569],[-106.2578,24.9967,2556.7563],[-106.2383,24.9917,2659.0027],[-106.2163,24.99,2546.1719],[-106.1759,24.9929,2457.7861],[-106.1902,25.0237,2112.6821],[-106.1691,25.0248,2225.6365],[-106.1658,25.0497,2259.0356],[-106.1733,25.0491,2352.167],[-106.1729,25.0699,2446.2656],[-106.1553,25.0709,2743.2749],[-106.1529,25.0678,2843.2],[-106.1247,25.0679,2649.0234],[-106.1247,25.0788,2510.9177],[-106.1319,25.0859,2478.3306],[-106.1329,25.0896,2470.5508],[-106.1231,25.0918,2493.5483],[-106.1231,25.1018,2552.1724],[-106.1739,25.1013,2662.5249],[-106.1617,25.1198,2378.123],[-106.168,25.1334,2330.7039],[-106.1913,25.137,2447.2646],[-106.1922,25.1419,2480.458],[-106.1986,25.1418,2306.6794],[-106.1987,25.1114,2465.8545],[-106.2252,25.091,2419.9702],[-106.2461,25.1027,2341.5698],[-106.258,25.1297,2374.7295]]]]}
,"properties": {"GID_2": "MEX.10.2_2","GID_0": "MEX","country": "México","GID_1": "MEX.10_1","province": "Durango","NL_NAME_1": "NA","county": "Canelas","VARNAME_2": "NA","NL_NAME_2": "NA","TYPE_2": "Município","ENGTYPE_2": "Municipality","CC_2": "NA","HASC_2": "NA","name": "Canelas.county","area_km2": 895.2476,"hist_schema_id": "Elevation0-9000","hist_area_km2": {"525": 0.0384,"550": 0.1152,"575": 0.3264,"600": 0.7104,"625": 0.6912,"650": 0.8449,"675": 1.152,"700": 1.1137,"725": 1.5552,"750": 1.8241,"775": 1.4785,"800": 2.3233,"825": 2.285,"850": 2.9377,"875": 3.418,"900": 3.4755,"925": 3.6676,"950": 3.8215,"975": 4.2055,"1000": 5.0891,"1025": 6.0877,"1050": 6.5488,"1075": 6.7024,"1100": 7.1057,"1125": 7.682,"1150": 8.5078,"1175": 8.2581,"1200": 8.3156,"1225": 9.0646,"1250": 9.2376,"1275": 9.3146,"1300": 10.1593,"1325": 9.8522,"1350": 9.8139,"1375": 10.6588,"1400": 9.5643,"1425": 10.774,"1450": 9.7948,"1475": 10.448,"1500": 9.6223,"1525": 9.6028,"1550": 9.6222,"1575": 9.603,"1600": 9.9486,"1625": 9.1614,"1650": 9.0266,"1675": 9.8914,"1700": 9.3342,"1725": 9.5646,"1750": 8.681,"1775": 8.4505,"1800": 8.6049,"1825": 8.7192,"1850": 8.2968,"1875": 7.8934,"1900": 7.759,"1925": 7.1831,"1950": 7.2596,"1975": 6.3767,"2000": 7.2219,"2025": 6.7034,"2050": 7.3178,"2075": 6.6652,"2100": 7.9898,"2125": 8.7585,"2150": 9.6221,"2175": 10.237,"2200": 10.9093,"2225": 12.0611,"2250": 12.6565,"2275": 13.6164,"2300": 15.3441,"2325": 18.9932,"2350": 25.5999,"2375": 28.1153,"2400": 26.0602,"2425": 25.5219,"2450": 21.6233,"2475": 21.0276,"2500": 21.2576,"2525": 21.7183,"2550": 21.0069,"2575": 22.8895,"2600": 27.0553,"2625": 26.9777,"2650": 21.3125,"2675": 15.4751,"2700": 11.8464,"2725": 8.4292,"2750": 5.0695,"2775": 4.0902,"2800": 2.7269,"2825": 2.2282,"2850": 1.3449,"2875": 0.9032,"2900": 0.4805,"2925": 0.4228,"2950": 0.2499,"2975": 0.1153,"3000": 0.0384}}}