{"type":"Feature","properties":{"GID_2":"MEX.15.81_2","GID_0":"MEX","country":"México","GID_1":"MEX.15_1","province":"México","NL_NAME_1":"NA","county":"SoyaniquilpandeJuárez","VARNAME_2":"NA","NL_NAME_2":"NA","TYPE_2":"Município","ENGTYPE_2":"Municipality","CC_2":"NA","HASC_2":"NA","name":"Soyaniquilpande_Juárez.county"},
"geometry":{"type": "MultiPolygon","coordinates": [[[[-99.4407,20.0134,2292.7405],[-99.4484,20.0422,2287.5044],[-99.4582,20.055,2298.5728],[-99.4598,20.0655,2302.5364],[-99.481,20.0822,2330.772],[-99.4835,20.101,2264.1514],[-99.487,20.1052,2279.6313],[-99.4984,20.1055,2310.927],[-99.5082,20.1189,2363.6326],[-99.5333,20.1202,2350.3999],[-99.5331,20.1148,2376.6301],[-99.5388,20.1145,2385.4321],[-99.5399,20.1024,2418.6519],[-99.5696,20.1035,2568.1592],[-99.5698,20.0994,2583.0862],[-99.5742,20.0997,2594.7527],[-99.5742,20.1022,2585.8594],[-99.5899,20.1044,2597.9817],[-99.5902,20.0968,2617.3125],[-99.5849,20.0966,2614.5916],[-99.5857,20.0909,2625.3828],[-99.5751,20.0893,2609.4915],[-99.5749,20.0823,2570.2473],[-99.5785,20.0836,2550.8828],[-99.5804,20.0826,2571.9646],[-99.5781,20.0757,2532.9495],[-99.5845,20.0754,2570.3345],[-99.5855,20.0657,2512.3647],[-99.5795,20.0648,2507.4868],[-99.573,20.0454,2520.1877],[-99.5751,20.0443,2520.4097],[-99.5771,20.0454,2522.3057],[-99.5834,20.0415,2538.877],[-99.5845,20.0395,2555.4382],[-99.5831,20.0344,2563.6458],[-99.5802,20.0275,2569.0166],[-99.5725,20.0306,2536.1543],[-99.5626,20.0276,2496.6428],[-99.5624,20.0126,2546.4541],[-99.5478,20.0126,2485.4575],[-99.5475,20.0075,2469.5977],[-99.5443,20.005,2458.6675],[-99.5372,20.0056,2440.3711],[-99.5346,20.0033,2433.8804],[-99.5309,20.0029,2456.1323],[-99.5225,20.0042,2406.7446],[-99.5206,20.0003,2408.6553],[-99.5222,19.9899,2413.8132],[-99.5136,19.9928,2396.3413],[-99.5116,20.0065,2381.1421],[-99.5065,20.0168,2401.0461],[-99.4991,20.0117,2406.6367],[-99.4897,20.0106,2441.5417],[-99.4909,19.9945,2377.6853],[-99.4732,19.9927,2372.561],[-99.4774,19.9868,2369.7],[-99.4748,19.9859,2368.9644],[-99.4681,19.9883,2354.6165],[-99.4684,19.9928,2368.428],[-99.4559,19.9903,2347.0361],[-99.452,19.9886,2337.5579],[-99.4522,19.987,2333.75],[-99.4445,19.9851,2325.3748],[-99.4436,19.9888,2320.3516],[-99.4455,19.9912,2318.4065],[-99.4368,19.9998,2311.1143],[-99.4407,20.0134,2292.7405]]]]}}