{"type":"Feature","properties":{"GID_2":"MEX.30.113_2","GID_0":"MEX","country":"México","GID_1":"MEX.30_1","province":"Veracruz","NL_NAME_1":"NA","county":"Minatitlán","VARNAME_2":"NA","NL_NAME_2":"NA","TYPE_2":"Município","ENGTYPE_2":"Municipality","CC_2":"NA","HASC_2":"NA","name":"Minatitlán.county"},
"geometry":{"type": "MultiPolygon","coordinates": [[[[-94.6489,17.8707,3.8075],[-94.648,17.8696,1.1641],[-94.6504,17.8677,1.4033],[-94.6571,17.8665,0.3849],[-94.659,17.8617,0.764],[-94.6557,17.8582,2.2474],[-94.6488,17.862,2.2664],[-94.6444,17.8618,2.7376],[-94.6392,17.8508,0.8678],[-94.6375,17.85,4.8304],[-94.6303,17.8531,2.3249],[-94.6305,17.8499,0.7567],[-94.6348,17.8445,4.251],[-94.626,17.8386,3.5274],[-94.6275,17.8366,3.7076],[-94.6247,17.8361,4.101],[-94.6252,17.8342,3.626],[-94.6202,17.8344,2.4453],[-94.6205,17.8312,2.5613],[-94.614,17.8315,2.1097],[-94.6161,17.8305,2.4325],[-94.6179,17.8247,2.801],[-94.616,17.82,6.6362],[-94.6188,17.8195,2.9794],[-94.6159,17.815,4.1531],[-94.6147,17.8189,6.6362],[-94.6078,17.8206,2.1686],[-94.6044,17.8245,3.3246],[-94.5999,17.8225,0.5],[-94.603,17.8202,0.8836],[-94.6024,17.8185,1.1272],[-94.6081,17.8153,0.5],[-94.6098,17.8091,2.1843],[-94.6055,17.807,1.9853],[-94.5886,17.8147,2.5099],[-94.5811,17.8139,2.5556],[-94.5777,17.8163,4.7092],[-94.5719,17.8119,27.5679],[-94.5702,17.8135,4.8447],[-94.5674,17.8108,13.5998],[-94.5659,17.8123,2.4444],[-94.5638,17.8104,2.4058],[-94.5677,17.8052,0.5],[-94.5718,17.8076,6.952],[-94.5761,17.804,4.3134],[-94.5875,17.7852,1.998],[-94.5887,17.7859,3.7265],[-94.5903,17.7838,3.1614],[-94.5916,17.7846,3.762],[-94.5973,17.7823,5.7058],[-94.5959,17.7802,2.3371],[-94.5999,17.7721,4.0279],[-94.599,17.7694,2.3407],[-94.6052,17.769,3.9681],[-94.6035,17.7669,2.2826],[-94.6043,17.7644,2.5506],[-94.607,17.763,2.9488],[-94.6058,17.758,2.3625],[-94.6089,17.7543,4.0867],[-94.6064,17.7518,2.5051],[-94.6037,17.7521,2.7767],[-94.6014,17.7452,2.9155],[-94.5989,17.7428,6.6857],[-94.5991,17.7398,3.439],[-94.6008,17.7387,2.8649],[-94.6003,17.7318,5.0012],[-94.6023,17.7273,4.0559],[-94.5992,17.7296,6.1963],[-94.5996,17.7271,6.4914],[-94.5976,17.7258,6.5091],[-94.5951,17.73,7.6306],[-94.5939,17.7261,8.2253],[-94.5919,17.7314,7.1768],[-94.5918,17.729,7.9035],[-94.589,17.7274,7.136],[-94.5899,17.7254,5.4955],[-94.5872,17.7259,5.5433],[-94.5874,17.7228,6.3419],[-94.5822,17.7224,5.4259],[-94.5825,17.7209,6.4899],[-94.5852,17.7215,6.0673],[-94.5819,17.7192,3.8044],[-94.5841,17.7176,4.7593],[-94.5812,17.7183,5.1467],[-94.5795,17.717,5.6756],[-94.5826,17.7158,6.378],[-94.5822,17.7123,6.149],[-94.5864,17.7132,6.687],[-94.5904,17.7111,4.5021],[-94.5775,17.6474,10.9329],[-94.5755,17.6484,13.4963],[-94.5708,17.6459,18.7962],[-94.561,17.6554,14.4579],[-94.5563,17.6554,7.6249],[-94.5571,17.6489,12.2065],[-94.5558,17.6457,11.2942],[-94.5544,17.6464,11.2942],[-94.5535,17.6419,13.9513],[-94.5485,17.6448,11.3547],[-94.5465,17.6429,13.9675],[-94.5394,17.647,5.4857],[-94.5418,17.6535,6.8738],[-94.5404,17.6511,7.8061],[-94.5354,17.6534,7.4529],[-94.5244,17.6485,8.2248],[-94.528,17.645,7.8952],[-94.5262,17.6432,7.8603],[-94.5257,17.645,8.9273],[-94.5209,17.645,8.5729],[-94.5174,17.6439,8.3259],[-94.5172,17.6411,6.3838],[-94.5134,17.6424,8.0048],[-94.514,17.644,7.7998],[-94.5106,17.6467,12.2355],[-94.5134,17.6497,23.5583],[-94.5107,17.6538,9.6235],[-94.5075,17.6484,9.8859],[-94.5046,17.6488,17.6149],[-94.5019,17.6464,10.0355],[-94.5064,17.6452,8.3771],[-94.5069,17.6425,8.223],[-94.4993,17.6442,12.5301],[-94.504,17.6397,7.3439],[-94.503,17.6385,6.5584],[-94.4973,17.642,10.6729],[-94.4993,17.6456,12.7145],[-94.4987,17.6485,9.8634],[-94.496,17.6486,9.7367],[-94.4925,17.6444,13.1906],[-94.4932,17.6485,9.8209],[-94.4886,17.6505,10.8405],[-94.487,17.6534,14.4084],[-94.4841,17.6511,15.1377],[-94.4865,17.6491,8.9769],[-94.4849,17.6473,9.3336],[-94.484,17.6487,14.2307],[-94.4829,17.6476,14.2307],[-94.4839,17.6461,11.326],[-94.4862,17.6455,8.3082],[-94.4872,17.647,9.1601],[-94.4875,17.646,9.1601],[-94.4832,17.6436,9.1627],[-94.4829,17.6416,10.049],[-94.4801,17.6416,10.931],[-94.4821,17.6435,8.331],[-94.4797,17.6452,11.0667],[-94.4779,17.6428,9.1909],[-94.4758,17.6445,9.7292],[-94.4716,17.6422,10.7811],[-94.4679,17.6439,13.0838],[-94.4681,17.6422,10.1725],[-94.4742,17.6375,10.2133],[-94.466,17.64,12.2855],[-94.4662,17.6321,10.6505],[-94.4608,17.6266,18.6825],[-94.4576,17.6263,11.2039],[-94.4551,17.628,10.5753],[-94.4511,17.6276,12.0165],[-94.4468,17.6243,11.382],[-94.4453,17.6252,11.382],[-94.444,17.6244,10.7012],[-94.4494,17.6211,13.4452],[-94.4465,17.6191,12.5323],[-94.4436,17.622,12.414],[-94.4398,17.6225,19.8271],[-94.4396,17.6209,11.4709],[-94.4429,17.6187,16.2912],[-94.4392,17.6187,12.0816],[-94.4409,17.6135,13.083],[-94.4394,17.6138,11.4046],[-94.4393,17.6119,12.1711],[-94.4405,17.6101,13.5718],[-94.4432,17.6113,12.8173],[-94.4427,17.6099,14.1218],[-94.4378,17.6101,13.3953],[-94.4355,17.608,12.7994],[-94.4389,17.6062,12.2293],[-94.4372,17.6061,12.2293],[-94.4361,17.602,15.8201],[-94.4397,17.5997,13.4138],[-94.4409,17.6018,16.3502],[-94.4435,17.6022,19.0201],[-94.4419,17.5975,18.8991],[-94.438,17.5976,23.263],[-94.4405,17.5938,15.5378],[-94.4356,17.5912,18.0153],[-94.439,17.5886,21.8951],[-94.4405,17.5858,17.924],[-94.4397,17.5842,25.5954],[-94.4431,17.583,16.2457],[-94.442,17.5807,16.3296],[-94.4441,17.5814,16.5404],[-94.444,17.5845,19.3852],[-94.4467,17.582,15.65],[-94.4439,17.5792,18.1617],[-94.446,17.5787,24.3164],[-94.4494,17.5818,18.3162],[-94.448,17.5791,18.2545],[-94.4495,17.5791,16.8242],[-94.4489,17.5769,22.109],[-94.4531,17.5677,16.2428],[-94.4584,17.5683,18.8799],[-94.4574,17.5645,23.6163],[-94.4593,17.5672,18.8799],[-94.4607,17.5644,17.5487],[-94.4643,17.5672,22.7809],[-94.4647,17.565,18.1543],[-94.4619,17.5624,18.455],[-94.4632,17.5603,22.3226],[-94.4682,17.5604,17.5388],[-94.4689,17.5596,17.5388],[-94.4675,17.5592,17.603],[-94.47,17.5563,25.7324],[-94.4692,17.554,17.5211],[-94.4741,17.5542,29.1524],[-94.4704,17.5512,19.1973],[-94.478,17.5505,20.8368],[-94.4731,17.5468,23.8356],[-94.4774,17.5456,20.6755],[-94.4772,17.5433,20.856],[-94.4751,17.5412,20.8341],[-94.4728,17.5437,24.6243],[-94.4737,17.5385,20.7066],[-94.4723,17.5396,22.741],[-94.4678,17.536,26.1409],[-94.4728,17.5362,23.9107],[-94.4728,17.5275,26.0675],[-94.4769,17.5285,23.1089],[-94.4767,17.5264,22.7326],[-94.4747,17.5254,23.161],[-94.4782,17.5251,23.32],[-94.4782,17.5233,28.5316],[-94.4757,17.521,26.1305],[-94.4711,17.5233,28.7834],[-94.4695,17.5225,26.5773],[-94.4702,17.519,26.2292],[-94.468,17.516,30.3732],[-94.4724,17.5128,26.9958],[-94.4714,17.5118,28.0032],[-94.4729,17.5088,27.5866],[-94.4666,17.5066,33.0544],[-94.4713,17.5037,36.1488],[-94.4681,17.5017,30.962],[-94.4701,17.4978,27.815],[-94.4667,17.4982,29.4481],[-94.4664,17.4961,33.863],[-94.4681,17.4952,32.4665],[-94.4637,17.4897,36.8235],[-94.4655,17.4878,34.6686],[-94.4594,17.4881,37.0582],[-94.4602,17.4916,42.0587],[-94.4566,17.4918,34.5283],[-94.457,17.4903,34.454],[-94.4545,17.489,35.6725],[-94.4578,17.4872,37.0582],[-94.4555,17.4848,39.1065],[-94.4575,17.4835,33.7781],[-94.4561,17.4832,33.7781],[-94.4566,17.482,38.4836],[-94.4587,17.4816,38.0873],[-94.4525,17.4795,42.2951],[-94.4488,17.4818,43.7376],[-94.4453,17.4776,45.891],[-94.4432,17.4784,45.1114],[-94.4448,17.4796,42.408],[-94.4431,17.4806,41.2012],[-94.4403,17.4752,47.9299],[-94.446,17.4754,44.09],[-94.4453,17.4711,55.8672],[-94.4428,17.4704,41.5999],[-94.4435,17.468,44.2646],[-94.4401,17.4688,51.2017],[-94.4394,17.4653,52.8209],[-94.4347,17.4672,70.403],[-94.4364,17.4611,60.3557],[-94.4326,17.4607,89.8815],[-94.4346,17.4581,64.0654],[-94.4328,17.4576,75.2711],[-94.4336,17.4554,98.5264],[-94.4314,17.4551,81.1923],[-94.4352,17.4521,102.7102],[-94.4338,17.4477,73.9991],[-94.4376,17.4483,73.6084],[-94.4364,17.4451,85.9699],[-94.4339,17.4449,70.3037],[-94.4345,17.4395,81.1472],[-94.432,17.44,101.9715],[-94.4328,17.4369,97.5851],[-94.4291,17.4342,94.9845],[-94.4344,17.4312,86.4719],[-94.4326,17.4287,132.2322],[-94.4341,17.4265,98.2357],[-94.3565,17.4513,157.5956],[-94.3508,17.4365,282.171],[-94.3734,17.4296,127.5363],[-94.3731,17.426,140.4854],[-94.3687,17.4272,158.2647],[-94.366,17.4208,171.3322],[-94.3663,17.4172,223.6689],[-94.3636,17.4173,236.3422],[-94.3616,17.4143,226.4343],[-94.3662,17.4127,238.7897],[-94.3652,17.411,180.111],[-94.363,17.4113,181.3469],[-94.36,17.4033,120.1078],[-94.3616,17.4014,116.2017],[-94.3494,17.4,112.9077],[-94.3495,17.3973,101.8966],[-94.2557,17.4012,252.7138],[-94.2163,17.3168,28.0343],[-94.2118,17.3184,39.2918],[-94.2078,17.3252,37.8127],[-94.2098,17.3296,28.9034],[-94.2108,17.3408,36.3993],[-94.2153,17.348,46.8456],[-94.2157,17.3517,74.8233],[-94.213,17.354,42.3757],[-94.2165,17.3574,61.7113],[-94.2115,17.3639,34.3396],[-94.2117,17.3702,26.8761],[-94.2051,17.3705,46.9721],[-94.1988,17.3759,45.4177],[-94.1979,17.3807,62.8674],[-94.1923,17.3869,88.1409],[-94.1849,17.3919,22.2123],[-94.1867,17.3975,15.0],[-94.1854,17.411,40.6063],[-94.1879,17.4138,26.485],[-94.1983,17.4099,13.5],[-94.2028,17.414,13.761],[-94.2013,17.4191,19.4334],[-94.2143,17.4343,12.375],[-94.2217,17.4498,12.5403],[-94.2254,17.4483,44.7853],[-94.2293,17.4595,13.7119],[-94.2277,17.465699999999998,14.1669],[-94.2313,17.4704,68.4122],[-94.2281,17.4909,12.6364],[-94.2172,17.4984,27.6423],[-94.2092,17.4885,89.7598],[-94.2064,17.4884,68.088],[-94.2035,17.491,59.4656],[-94.2076,17.499,36.4615],[-94.197,17.5052,25.2286],[-94.2016,17.5122,35.1054],[-94.2024,17.5169,29.0681],[-94.2042,17.5176,24.7869],[-94.2062,17.5146,37.9171],[-94.207,17.5158,30.4372],[-94.2088,17.5147,30.0313],[-94.208,17.5115,36.7035],[-94.2113,17.5081,49.9829],[-94.2153,17.5082,22.5157],[-94.218,17.5111,25.8134],[-94.223,17.5118,31.7277],[-94.2266,17.5089,27.5286],[-94.2289,17.5108,16.42],[-94.2322,17.5085,11.5712],[-94.2278,17.5151,11.1192],[-94.2277,17.5215,10.8413],[-94.2362,17.5305,9.5],[-94.2333,17.5359,10.1793],[-94.2398,17.5392,15.5333],[-94.2273,17.5424,12.5484],[-94.2222,17.5481,16.0752],[-94.2154,17.5433,11.1893],[-94.2077,17.5406,10.8001],[-94.2041,17.5404,9.9637],[-94.199,17.5436,8.5],[-94.2008,17.5415,9.8684],[-94.1974,17.5447,10.6035],[-94.1976,17.5483,15.4961],[-94.2053,17.5545,14.0865],[-94.2135,17.5565,10.5295],[-94.2223,17.5553,9.6390999999999991],[-94.2249,17.5565,9.0689],[-94.2244,17.559,8.7404],[-94.2202,17.5619,23.2166],[-94.2221,17.5758,13.8945],[-94.2199,17.5807,9.9909],[-94.2134,17.5816,12.66],[-94.2096,17.5774,9.6037],[-94.2065,17.5767,20.3878],[-94.2038,17.5792,11.925],[-94.2024,17.586,9.3532],[-94.1994,17.5866,10.3955],[-94.1954,17.5832,11.2665],[-94.193,17.5659,9.0524],[-94.1911,17.5644,11.1265],[-94.1802,17.5702,8.1623],[-94.1749,17.5836,10.1356],[-94.1698,17.5836,10.9324],[-94.1675,17.5814,9.2217],[-94.1671,17.5727,9.4615],[-94.1609,17.5732,9.6023],[-94.1518,17.5811,8.4175],[-94.149,17.5802,8.8459],[-94.1459,17.5747,9.5956],[-94.1427,17.5741,9.8235],[-94.1363,17.5761,8.9651],[-94.13,17.582,9.8036],[-94.1234,17.5854,20.4111],[-94.1218,17.5883,10.1964],[-94.1221,17.5911,10.3744],[-94.125,17.5947,7.0759],[-94.1411,17.5984,6.5],[-94.1459,17.6015,6.9249],[-94.1505,17.6072,14.1252],[-94.154,17.6074,12.4668],[-94.1608,17.6041,7.4311],[-94.166,17.5992,7.8035],[-94.1684,17.6001,8.2445],[-94.1686,17.6052,8.5434],[-94.162,17.6155,6.3437],[-94.1594,17.6255,7.2729],[-94.1453,17.6317,6.8835],[-94.1451,17.6365,6.4255],[-94.1594,17.6407,6.5273],[-94.1652,17.6447,6.3567],[-94.1691,17.6512,6.5237],[-94.1683,17.6589,7.715],[-94.1707,17.6601,6.2365],[-94.185,17.6518,4.5],[-94.1915,17.6559,6.3608],[-94.2006,17.6557,4.5],[-94.1972,17.6646,4.9282],[-94.1781,17.6763,5.4577],[-94.1791,17.6828,7.1394],[-94.1905,17.6955,4.0],[-94.1888,17.6991,6.4109],[-94.1824,17.704,4.4745],[-94.1803,17.7103,4.0],[-94.1815,17.7121,5.4564],[-94.1861,17.7134,4.0596],[-94.2001,17.7279,6.2054],[-94.2064,17.7315,4.5555],[-94.2105,17.7332,5.2793],[-94.2225,17.7325,5.1178],[-94.2258,17.7338,4.1705],[-94.2195,17.7389,3.734],[-94.2167,17.7451,4.8081],[-94.2181,17.7519,3.4564],[-94.2253,17.7609,12.7419],[-94.2159,17.776,3.0],[-94.209,17.7816,3.3731],[-94.2021,17.7837,4.3716],[-94.1979,17.7881,3.2127],[-94.2003,17.7957,4.9859],[-94.2097,17.7997,6.4579],[-94.2157,17.7975,14.8143],[-94.2208,17.7889,3.9785],[-94.2213,17.7982,3.2879],[-94.22,17.8053,3.7261],[-94.2165,17.8124,3.1206],[-94.1991,17.840699999999998,2.3618],[-94.1986,17.8508,2.0],[-94.2007,17.8556,3.8202],[-94.2074,17.8597,4.2022],[-94.2159,17.8586,2.2826],[-94.2425,17.8413,2.2215],[-94.248,17.8451,1.8351],[-94.2511,17.8449,1.9032],[-94.2543,17.8421,8.6443],[-94.2533,17.8354,1.2023],[-94.2554,17.8329,1.6659],[-94.2592,17.8375,0.5],[-94.2599,17.8474,6.9663],[-94.2632,17.8504,0.5],[-94.2747,17.8502,6.3205],[-94.2824,17.8445,1.4596],[-94.2918,17.8439,4.9822],[-94.2972,17.8395,1.8691],[-94.3098,17.8383,0.5],[-94.3144,17.8403,1.0573],[-94.3094,17.8393,2.0058],[-94.3079,17.8409,1.5718],[-94.3123,17.8496,1.0854],[-94.2943,17.8507,0.9185],[-94.2952,17.8546,4.6041],[-94.3019,17.8635,6.6381],[-94.3007,17.8656,1.9405],[-94.2915,17.871,2.7247],[-94.285,17.8682,1.4816],[-94.2837,17.8658,0.4042],[-94.2856,17.8637,1.7785],[-94.2901,17.8622,4.3751],[-94.2903,17.8654,6.1675],[-94.292,17.8658,2.8064],[-94.2951,17.8622,1.2446],[-94.2903,17.8559,1.9304],[-94.285,17.8553,3.5002],[-94.2838,17.8567,1.3864],[-94.2847,17.8605,4.7549],[-94.2791,17.8646,2.7687],[-94.2764,17.8611,6.4188],[-94.2719,17.8624,11.1161],[-94.2675,17.871,3.0317],[-94.2695,17.8741,3.5296],[-94.2714,17.8735,2.5922],[-94.2672,17.8878,19.4708],[-94.2773,17.8903,13.5288],[-94.2792,17.8928,22.2963],[-94.287,17.8943,25.01],[-94.2889,17.8991,24.9978],[-94.2907,17.8971,23.0349],[-94.2937,17.9047,31.3011],[-94.2988,17.903,33.2682],[-94.3021,17.9109,36.7184],[-94.3399,17.9045,7.8625],[-94.3397,17.9083,6.8505],[-94.3536,17.9136,3.7474],[-94.3591,17.9105,2.8523],[-94.3635,17.9048,3.6544],[-94.3658,17.9044,2.9955],[-94.3677,17.9004,5.8123],[-94.3717,17.8979,1.1546],[-94.3791,17.9116,0.6026],[-94.3829,17.9132,2.2119],[-94.3869,17.9136,4.08],[-94.3885,17.9115,1.7004],[-94.3873,17.9088,2.9745],[-94.3963,17.9052,3.8499],[-94.4012,17.906,2.5016],[-94.4082,17.9112,1.189],[-94.4127,17.9125,1.1138],[-94.4246,17.9099,2.1843],[-94.4371,17.9105,0.9495],[-94.4366,17.9142,0.6087],[-94.4414,17.9168,1.8693],[-94.4381,17.9237,0.784],[-94.441,17.9245,2.0333],[-94.4492,17.9333,2.1363],[-94.4455,17.9364,1.0137],[-94.4449,17.9428,2.4698],[-94.4457,17.9468,0.6107],[-94.4498,17.9513,0.3848],[-94.4454,17.9566,3.1091],[-94.4434,17.9639,0.4285],[-94.4374,17.9668,0.3288],[-94.4345,17.9739,0.1998],[-94.4278,17.9807,0.2815],[-94.4274,17.9848,0.6652],[-94.4321,17.992,0.6019],[-94.4296,17.9965,0.5266],[-94.4423,17.9991,0.7027],[-94.4434,18.0007,0.5356],[-94.4421,18.0068,0.449],[-94.4483,18.0115,0.0],[-94.4502,18.0172,0.0],[-94.4634,18.0276,0.0],[-94.4713,18.0281,1.6948],[-94.4861,18.0202,0.8669],[-94.4928,18.0255,1.0087],[-94.496,18.0228,0.8173],[-94.4994,18.024,0.8667],[-94.4977,18.0258,0.7718],[-94.4989,18.0284,0.7868],[-94.5032,18.0322,0.5565],[-94.5035,18.0356,0.765],[-94.5019,18.0372,0.877],[-94.5029,18.0415,0.7804],[-94.4958,18.0476,0.4987],[-94.4945,18.0509,0.8539],[-94.4958,18.054,0.6477],[-94.4982,18.0554,0.9241],[-94.5038,18.0514,0.9847],[-94.5032,18.053,0.5013],[-94.5087,18.0608,0.4532],[-94.5141,18.0657,0.3876],[-94.5154,18.0647,0.464],[-94.516,18.0687,0.4923],[-94.551,18.0708,0.8854],[-94.5665,18.092,0.8002],[-94.5696,18.0942,5.0416],[-94.5757,18.0888,6.634],[-94.5757,18.086,3.2956],[-94.5731,18.0865,3.9241],[-94.5738,18.083,2.923],[-94.5755,18.0836,3.1],[-94.5758,18.0821,3.1],[-94.5759,18.0842,2.4869],[-94.5799,18.0816,4.9238],[-94.5784,18.0722,14.9592],[-94.5757,18.0696,19.3613],[-94.5767,18.0655,5.0287],[-94.5739,18.0633,6.9448],[-94.5757,18.0616,9.1288],[-94.5715,18.0533,9.9669],[-94.5737,18.0517,12.2279],[-94.5707,18.0485,16.274],[-94.5718,18.041,19.1577],[-94.57,18.0382,22.2167],[-94.5715,18.0321,23.9749],[-94.5792,18.0268,27.4452],[-94.5716,18.0212,20.3847],[-94.5703,18.0221,17.0055],[-94.5649,18.0131,22.6179],[-94.5532,18.0205,13.6314],[-94.5556,18.0209,13.4548],[-94.5543,18.0218,13.6314],[-94.5556,18.0241,7.9472],[-94.5357,18.0308,1.5803],[-94.5328,18.0284,2.7048],[-94.5484,18.0119,11.0434],[-94.5451,18.0089,6.3339],[-94.5459,18.0061,12.192],[-94.5528,18.0073,10.7673],[-94.5582,18.0018,20.2886],[-94.5661,18.0038,27.6263],[-94.574,18.0103,32.6275],[-94.5847,18.0075,25.9441],[-94.5871,17.9894,16.1007],[-94.5763,17.9884,20.0977],[-94.5769,17.987,12.276],[-94.579,17.9865,9.94],[-94.5813,17.9813,13.8191],[-94.5853,17.9783,3.1281],[-94.5882,17.9786,2.774],[-94.5876,17.9841,5.4355],[-94.5973,17.9829,4.146],[-94.5946,17.9822,4.437],[-94.5871,17.9753,1.4959],[-94.5833,17.9692,0.7612],[-94.5794,17.9662,1.0488],[-94.5643,17.9609,4.0785],[-94.5653,17.955,2.6102],[-94.5686,17.9516,1.2965],[-94.5656,17.9413,1.5599],[-94.5697,17.9342,3.3159],[-94.5692,17.9294,4.991],[-94.5751,17.9306,2.3081],[-94.5742,17.9224,2.0574],[-94.5812,17.9206,1.2186],[-94.5811,17.9167,3.4031],[-94.577,17.919,2.9679],[-94.5765,17.9139,3.3938],[-94.5818,17.9117,6.4708],[-94.5822,17.9073,2.6982],[-94.5857,17.9064,1.6651],[-94.5857,17.8992,1.0959],[-94.5904,17.8966,0.3379],[-94.5992,17.8994,1.632],[-94.6121,17.8995,2.7801],[-94.6119,17.9009,5.6543],[-94.6223,17.902,9.9662],[-94.6228,17.8952,4.7701],[-94.621,17.8907,4.3327],[-94.6229,17.8896,3.4992],[-94.6205,17.8864,1.6694],[-94.6395,17.8778,2.4891],[-94.6444,17.8727,2.1498],[-94.6489,17.8707,3.8075]]]]}}