{"type": "Feature","bbox": [-96.6341,16.0119,-96.4029,16.188],"geometry": {"type": "MultiPolygon","coordinates": [[[[-96.5249,16.0138,1393.9382],[-96.5259,16.013,1358.8446],[-96.5273,16.0146,1387.9392],[-96.5258,16.0163,1418.2102],[-96.5203,16.0164,1410.2079],[-96.5246,16.0218,1575.2307],[-96.5243,16.0257,1671.5859],[-96.5191,16.0244,1553.7136],[-96.5202,16.029,1679.062],[-96.5178,16.0302,1656.3263],[-96.5199,16.0358,1872.6335],[-96.5158,16.0391,1983.0156],[-96.5126,16.0467,2347.0789],[-96.5062,16.0471,2012.8029],[-96.5026,16.0522,1967.7396],[-96.5046,16.0552,2057.7871],[-96.5027,16.0559,2057.2749],[-96.504,16.0602,2066.791],[-96.5135,16.0576,2330.3398],[-96.5155,16.0614,2326.4214],[-96.4984,16.0822,2469.9617],[-96.5108,16.0968,2784.1499],[-96.5127,16.1023,2928.0442],[-96.4832,16.1201,2707.8066],[-96.4763,16.1156,2706.1313],[-96.4738,16.1157,2665.167],[-96.467,16.1097,2692.2361],[-96.4657,16.1161,2445.0439],[-96.4639,16.1173,2403.6455],[-96.4615,16.1243,2308.8235],[-96.4523,16.125,2184.1667],[-96.4489,16.1276,2083.2747],[-96.4428,16.1256,2080.3918],[-96.4395,16.1213,2011.6654],[-96.4359,16.12,1990.4169],[-96.4331,16.116,1972.9091],[-96.4334,16.1126,1948.7146],[-96.4208,16.1124,2337.2322],[-96.4145,16.1166,2220.5654],[-96.4151,16.1268,2569.6772],[-96.4095,16.1311,2535.8118],[-96.4099,16.1353,2543.5845],[-96.4044,16.139,2532.6094],[-96.4067,16.1436,2575.4243],[-96.4029,16.1573,2636.5085],[-96.4075,16.1572,2568.2749],[-96.4109,16.1542,2492.7368],[-96.4163,16.1535,2460.7568],[-96.4243,16.1471,2183.7522],[-96.4293,16.1405,2096.9502],[-96.4304,16.1479,2187.7827],[-96.4325,16.151,2185.396],[-96.4318,16.1576,2224.0884],[-96.435,16.1591,2232.0083],[-96.438,16.1635,2260.5779],[-96.4414,16.1716,2340.5005],[-96.4487,16.1768,2341.0098],[-96.4565,16.176,2374.0127],[-96.4697,16.1817,2444.3665],[-96.4759,16.1791,2456.7134],[-96.479,16.1828,2586.1191],[-96.4868,16.1853,2621.9446],[-96.4894,16.1877,2645.5774],[-96.4981,16.1865,2668.7285],[-96.5008,16.1836,2704.5901],[-96.5059,16.1837,2573.6133],[-96.5139,16.188,2385.8789],[-96.5522,16.1778,1889.7948],[-96.5596,16.1805,1618.7698],[-96.5842,16.1708,1630.686],[-96.5839,16.1575,1240.2626],[-96.587,16.1544,1181.7286],[-96.5878,16.1513,1151.5354],[-96.5913,16.149,1132.4972],[-96.5921,16.1431,1060.7783],[-96.598,16.1412,1073.4613],[-96.6095,16.1275,1111.2424],[-96.6174,16.121,1031.6721],[-96.6216,16.1135,855.6921],[-96.6341,16.1127,1282.7836],[-96.6311,16.1081,1209.1779],[-96.6275,16.0942,768.6233],[-96.6151,16.093,1197.16],[-96.6084,16.0885,1390.8199],[-96.6019,16.0884,1672.4846],[-96.593,16.0839,1973.9253],[-96.5773,16.0818,2195.8596],[-96.5656,16.0714,2374.011],[-96.5643,16.0701,2374.4043],[-96.5669,16.0683,2236.6558],[-96.5667,16.0655,2196.6726],[-96.5734,16.0633,2028.4504],[-96.5682,16.0582,2209.25],[-96.558,16.0532,2009.1643],[-96.5542,16.0488,2071.4534],[-96.5432,16.0485,1635.7631],[-96.5406,16.0447,1620.908],[-96.5413,16.0404,1595.3724],[-96.5399,16.0396,1599.5558],[-96.546,16.0344,1571.4578],[-96.5492,16.0339,1555.0254],[-96.5474,16.0308,1508.5022],[-96.5506,16.0306,1562.371],[-96.5498,16.0283,1493.0813],[-96.5515,16.0243,1478.3867],[-96.5481,16.0246,1465.6376],[-96.5482,16.0221,1450.3207],[-96.5419,16.02,1426.0366],[-96.5417,16.0175,1431.2007],[-96.5397,16.0177,1442.6958],[-96.5397,16.0133,1438.3151],[-96.5374,16.014,1432.1936],[-96.5296,16.0119,1403.8657],[-96.5252,16.0121,1349.3372],[-96.5249,16.0138,1393.9382]]]]}
,"properties": {"GID_2": "MEX.20.256_2","GID_0": "MEX","country": "México","GID_1": "MEX.20_1","province": "Oaxaca","NL_NAME_1": "NA","county": "SanMateoRíoHondo","VARNAME_2": "NA","NL_NAME_2": "NA","TYPE_2": "Município","ENGTYPE_2": "Municipality","CC_2": "NA","HASC_2": "NA","name": "San_Mateo_Río_Hondo.county","area_km2": 211.7097,"hist_schema_id": "Elevation0-9000","hist_area_km2": {"775": 0.1019,"800": 0.1222,"825": 0.4074,"850": 0.2648,"875": 0.4685,"900": 0.3667,"925": 0.4278,"950": 0.8148,"975": 0.6722,"1000": 0.5296,"1025": 0.7129,"1050": 0.8352,"1075": 0.937,"1100": 0.9573,"1125": 0.9166,"1150": 1.0388,"1175": 0.998,"1200": 1.385,"1225": 1.161,"1250": 1.4054,"1275": 1.3239,"1300": 1.0795,"1325": 1.4054,"1350": 1.5072,"1375": 1.5887,"1400": 1.6498,"1425": 2.1387,"1450": 2.1387,"1475": 2.0164,"1500": 2.0369,"1525": 2.0572,"1550": 2.2201,"1575": 2.1183,"1600": 2.1183,"1625": 2.5257,"1650": 2.3221,"1675": 2.3425,"1700": 2.3832,"1725": 2.5053,"1750": 2.4035,"1775": 2.8516,"1800": 2.2813,"1825": 2.5258,"1850": 2.3221,"1875": 2.2202,"1900": 2.2813,"1925": 2.8109,"1950": 2.4239,"1975": 2.485,"2000": 2.648,"2025": 2.6277,"2050": 2.9128,"2075": 2.974,"2100": 3.1165,"2125": 3.1573,"2150": 3.3812,"2175": 3.5239,"2200": 3.8294,"2225": 4.3183,"2250": 4.3996,"2275": 5.1532,"2300": 5.6421,"2325": 6.3346,"2350": 6.2938,"2375": 5.9679,"2400": 6.5177,"2425": 5.8252,"2450": 6.2935,"2475": 5.5808,"2500": 5.54,"2525": 5.0513,"2550": 5.2142,"2575": 4.5827,"2600": 3.7069,"2625": 3.5236,"2650": 3.2996,"2675": 2.7293,"2700": 2.2812,"2725": 2.1183,"2750": 1.6702,"2775": 1.4461,"2800": 0.998,"2825": 0.6314,"2850": 0.5296,"2875": 0.5703,"2900": 0.2241,"2925": 0.1833,"2950": 0.1222,"2975": 0.163,"3000": 0.0204}}}