{"type":"Feature","properties":{"GID_2":"MEX.21.40_2","GID_0":"MEX","country":"México","GID_1":"MEX.21_1","province":"Puebla","NL_NAME_1":"NA","county":"Chignahuapan","VARNAME_2":"NA","NL_NAME_2":"NA","TYPE_2":"Município","ENGTYPE_2":"Municipality","CC_2":"NA","HASC_2":"NA","name":"Chignahuapan.county"},
"geometry":{"type": "MultiPolygon","coordinates": [[[[-98.2553,19.7188,2935.1492],[-98.2538,19.7163,2964.5544],[-98.255,19.7082,2943.1123],[-98.2532,19.7067,2966.4355],[-98.2524,19.6931,2899.4585],[-98.2462,19.6849,2771.7878],[-98.2444,19.6854,2754.6445],[-98.2411,19.6791,2692.7949],[-98.2411,19.6758,2691.1494],[-98.2328,19.6768,2754.8972],[-98.2281,19.6804,2842.7666],[-98.2291,19.6749,2787.5470999999998],[-98.228,19.6745,2787.5470999999998],[-98.2202,19.6737,2941.5869],[-98.2096,19.6772,3245.2678],[-98.2069,19.6747,3360.0059],[-98.195,19.675,3115.5972],[-98.1898,19.671,2993.4771],[-98.1902,19.6779,3045.9417],[-98.1874,19.6797,3085.6826],[-98.1827,19.6769,3059.7598],[-98.1813,19.6737,2995.4707],[-98.1767,19.6746,2821.8374],[-98.1702,19.6731,2723.1855],[-98.1659,19.6696,2670.3672],[-98.1656,19.6675,2667.1492],[-98.1567,19.6714,2750.2749],[-98.1528,19.6765,2825.5884],[-98.1486,19.6769,2879.0459],[-98.1486,19.6809,2897.4458],[-98.1437,19.6836,2933.6401],[-98.1247,19.6852,3001.48],[-98.1177,19.6883,2983.6089],[-98.1104,19.6858,2947.1221],[-98.1108,19.684,2950.8462],[-98.1065,19.6818,2897.7393],[-98.1066,19.6791,2898.2598],[-98.1037,19.6772,2894.1538],[-98.1,19.6712,2883.4275],[-98.101,19.668,2877.6025],[-98.0934,19.6739,2880.2727],[-98.0909,19.6776,2878.6448],[-98.0927,19.6833,2866.314],[-98.0904,19.6895,2857.0588],[-98.0839,19.6938,2828.1453],[-98.0828,19.7008,2786.6699],[-98.0743,19.7007,2747.1519],[-98.0739,19.7027,2749.7219],[-98.0688,19.7034,2725.9504],[-98.0677,19.7068,2724.8726],[-98.0644,19.709,2698.9966],[-98.0681,19.716,2667.1797],[-98.066,19.7281,2574.4709],[-98.0608,19.7289,2549.3442],[-98.056,19.7259,2562.4785],[-98.056,19.7228,2579.5276],[-98.0532,19.7205,2621.7097],[-98.0546,19.7186,2603.3901],[-98.0529,19.7131,2653.1262],[-98.0499,19.7123,2694.5303],[-98.0414,19.7006,2834.2505],[-98.035,19.6983,2955.7759],[-98.0305,19.7006,3110.1436],[-98.024,19.7077,3234.0093],[-98.0234,19.7128,3116.8145],[-98.0209,19.7144,3063.4429],[-98.0214,19.7176,3009.7222],[-98.0177,19.7234,2990.7329],[-98.0127,19.727,3023.1926],[-98.0102,19.7263,3056.5146],[-98.0079,19.7285,3041.7537],[-98.006,19.7282,3031.8169],[-98.0119,19.735,2983.0459],[-98.0123,19.7442,2890.2998],[-98.0081,19.7427,2859.3706],[-98.005,19.7439,2854.1274],[-97.9995,19.7409,2787.0637],[-97.9937,19.7415,2750.1787],[-97.9932,19.7427,2767.5083],[-97.9912,19.7411,2701.229],[-97.9866,19.7412,2679.7004],[-97.9799,19.7432,2656.9307],[-97.9815,19.7478,2717.144],[-97.979,19.753,2791.2551],[-97.976,19.7554,2684.4585],[-97.9798,19.7578,2736.6055],[-97.9844,19.7556,2778.1738],[-97.9887,19.7582,2799.1592],[-97.9924,19.7713,2798.1238],[-97.989,19.7761,2637.4846],[-97.9893,19.7784,2596.2651],[-97.9913,19.7838,2529.0186],[-97.998,19.7879,2443.793],[-97.9891,19.7921,2570.0652],[-97.9879,19.7962,2660.5552],[-97.9834,19.7972,2667.2549],[-97.98,19.8033,2566.0645],[-97.9864,19.8129,2406.4939],[-97.9784,19.8135,2614.9133],[-97.9756,19.8162,2700.3748],[-97.9696,19.8113,2752.731],[-97.9671,19.8141,2727.2446],[-97.9716,19.8163,2648.248],[-97.9737,19.8193,2600.2378],[-97.9704,19.8225,2708.9922],[-97.9651,19.8223,2897.5815],[-97.9648,19.8263,2827.5464],[-97.9611,19.8344,2534.0356],[-97.9651,19.8355,2496.731],[-97.9672,19.8426,2458.0525],[-97.97,19.843,2428.499],[-97.968,19.8448,2421.6458],[-97.9701,19.8479,2419.4958],[-97.9675,19.8493,2405.6802],[-97.9702,19.852,2313.9937],[-97.9759,19.8543,2194.1182],[-97.9787,19.8525,2156.0068],[-97.9834,19.8563,2016.3151],[-97.9826,19.8575,2024.0746],[-97.9855,19.857,2165.5793],[-97.9873,19.8599,2239.6621],[-97.9935,19.8585,2253.5112],[-97.9945,19.8607,2247.4023],[-97.9982,19.8601,2245.0361],[-98.0056,19.87,2269.9839],[-98.0122,19.8653,2258.959],[-98.0155,19.869,2257.2893],[-98.022,19.8677,2272.1218],[-98.0255,19.8714,2267.0078],[-98.0241,19.8722,2268.552],[-98.0236,19.8798,2263.9001],[-98.0265,19.8862,2280.8027],[-98.0235,19.8906,2307.5632],[-98.023,19.8961,2326.9187],[-98.0261,19.8986,2374.3354],[-98.0308,19.8989,2420.2339],[-98.0351,19.9049,2468.9385],[-98.037,19.9052,2469.5698],[-98.0388,19.9016,2463.2161],[-98.0462,19.9024,2448.5039],[-98.0508,19.8989,2441.8623],[-98.0515,19.8951,2424.3752],[-98.054,19.8956,2434.5596],[-98.0538,19.8994,2436.5251],[-98.0644,19.9109,2466.8008],[-98.0642,19.9146,2486.5154],[-98.0664,19.9193,2498.9844],[-98.0636,19.9199,2507.0542],[-98.0641,19.9224,2520.4243],[-98.0659,19.9219,2508.8933],[-98.0667,19.9239,2525.1182],[-98.0707,19.9221,2516.2437],[-98.0719,19.9239,2510.4087],[-98.0734,19.9322,2512.8657],[-98.0771,19.935,2513.3447],[-98.0773,19.9413,2553.9902],[-98.0799,19.9433,2559.8472],[-98.0823,19.9526,2571.541],[-98.0875,19.9508,2577.5845],[-98.0893,19.956,2585.9575],[-98.0922,19.9551,2580.3782],[-98.0944,19.9589,2571.8792],[-98.1005,19.957,2581.8826],[-98.1015,19.9604,2571.3989],[-98.1054,19.9642,2566.7302],[-98.1096,19.9653,2564.957],[-98.1124,19.9626,2564.1294],[-98.1159,19.965,2565.5522],[-98.1164,19.9627,2578.5596],[-98.1178,19.9662,2551.5396],[-98.1191,19.9659,2561.1729],[-98.1242,19.9707,2525.2944],[-98.1301,19.9689,2576.7554],[-98.1347,19.9642,2708.1794],[-98.1371,19.956,2829.8022],[-98.1396,19.9576,2816.1335],[-98.1404,19.9552,2871.7134],[-98.1492,19.9514,2908.6875],[-98.1509,19.9527,2906.6123],[-98.1533,19.9505,2906.3481],[-98.1554,19.9658,2763.9023],[-98.1571,19.967,2763.9023],[-98.1543,19.9704,2731.3965],[-98.1577,19.9753,2743.0239],[-98.1591,19.9752,2743.0239],[-98.1576,19.9722,2748.8599],[-98.1585,19.9709,2732.4917],[-98.1636,19.9701,2656.9512],[-98.167,19.9718,2629.6482],[-98.1807,19.9598,2734.9922],[-98.1978,19.9598,2543.9045],[-98.1978,19.9617,2541.449],[-98.2011,19.9645,2537.552],[-98.207,19.9636,2527.8767],[-98.2078,19.9649,2502.6829],[-98.2131,19.9654,2547.7183],[-98.2132,19.9684,2508.033],[-98.2171,19.9681,2528.0049],[-98.2224,19.964,2631.1274],[-98.2267,19.9562,2714.7905],[-98.2262,19.9523,2731.7437],[-98.221,19.9479,2781.8523],[-98.2221,19.9469,2798.2341],[-98.2251,19.9486,2817.7769],[-98.2273,19.9474,2822.9629],[-98.2302,19.9494,2804.3811],[-98.2414,19.9498,2734.2185],[-98.2496,19.9492,2673.0215],[-98.2538,19.9461,2655.1936],[-98.2422,19.9411,2810.1733],[-98.251,19.9349,2793.2231],[-98.2517,19.9295,2770.1345],[-98.2563,19.9293,2626.8872],[-98.2552,19.9255,2700.3137],[-98.2492,19.9261,2783.3687],[-98.2453,19.924,2809.8027],[-98.2483,19.9204,2738.1626],[-98.2481,19.9175,2680.262],[-98.2516,19.918,2675.9546],[-98.2563,19.915,2777.6665],[-98.2578,19.9165,2763.1216],[-98.2634,19.9152,2820.176],[-98.262,19.9163,2800.0422],[-98.2678,19.9161,2790.562],[-98.2678,19.9053,2790.0488],[-98.266,19.9016,2782.2749],[-98.2688,19.9002,2761.96],[-98.2694,19.8957,2743.8479],[-98.2784,19.8926,2606.4756],[-98.2866,19.8873,2560.9868],[-98.2909,19.8889,2555.4578],[-98.2911,19.8886,2557.2227],[-98.2879,19.885,2567.2197],[-98.289,19.8812,2585.0564],[-98.2925,19.8793,2594.7407],[-98.2911,19.8758,2601.5],[-98.3045,19.8701,2584.0278],[-98.315,19.8551,2589.4346],[-98.3017,19.8474,2595.6812],[-98.3053,19.8459,2596.5532],[-98.2995,19.8454,2613.7434],[-98.296,19.8476,2597.2539],[-98.2867,19.8491,2606.1865],[-98.2835,19.847,2599.9756],[-98.2775,19.8482,2601.0918],[-98.2692,19.8449,2603.0034],[-98.2654,19.8384,2618.4714],[-98.2662,19.8347,2612.6792],[-98.2646,19.823,2618.5112],[-98.261,19.8203,2615.1599],[-98.2549,19.8192,2620.7219],[-98.2509,19.8128,2629.3127],[-98.2532,19.8118,2634.2642],[-98.2497,19.8061,2646.4756],[-98.251,19.7951,2695.4971],[-98.2447,19.7919,2716.2456],[-98.2348,19.777,2942.8818],[-98.2298,19.7745,2981.3105],[-98.2258,19.7766,3043.7749],[-98.2256,19.7798,3082.0562],[-98.2162,19.7784,2843.7642],[-98.2214,19.7736,3022.061],[-98.2107,19.7743,2741.4648],[-98.2026,19.768,2771.1213],[-98.1944,19.7654,2705.0298],[-98.1935,19.763,2707.3369],[-98.1978,19.7621,2750.4558],[-98.1987,19.7582,2807.0461],[-98.1955,19.7534,2829.6389],[-98.1978,19.7488,2785.9219],[-98.1957,19.7416,2693.9124],[-98.2093,19.7384,2869.8252],[-98.2151,19.7413,2934.3779],[-98.219,19.737,2973.115],[-98.2314,19.7292,3017.3333],[-98.2363,19.7233,2978.7102],[-98.2486,19.7192,2937.1855],[-98.2553,19.7188,2935.1492]]]]}}