{"type": "Feature","id": "2727","bbox": [-99.33473,19.0578,-98.93915,19.57105],"geometry": {"type": "Polygon","coordinates": [[[-98.96395,19.08912,2946.6821],[-98.956,19.09966,2904.4177],[-98.94824,19.1101,2843.8794],[-98.9422,19.12137,2897.3201],[-98.93936,19.13439,2854.45],[-98.9392,19.13552,2854.2202],[-98.93915,19.13661,2854.2202],[-98.9392,19.13775,2856.5649],[-98.93936,19.13878,2862.7002],[-98.94442,19.15547,2950.2017],[-98.9529,19.17046,2832.5728],[-98.96142,19.18519,2523.8218],[-98.96643,19.20121,2295.8005],[-98.96504,19.21294,2237.0942],[-98.96339,19.22456,2240.0947],[-98.96158,19.23624,2229.6113],[-98.95972,19.24782,2228.4534],[-98.95873,19.26136,2229.0642],[-98.95961,19.27459,2228.5793],[-98.96209,19.28766,2227.4382],[-98.96602,19.30063,2234.8308],[-98.96664,19.30316,2233.9338],[-98.96752,19.30564,2238.4092],[-98.9685,19.30812,2240.4797],[-98.96974,19.3105,2248.3569],[-98.97408,19.31753,2279.6816],[-98.97904,19.32414,2354.3367],[-98.98431,19.33055,2401.2119],[-98.99005,19.33655,2409.2322],[-99.00736,19.34709,2287.1484],[-99.02679,19.35453,2239.8176],[-99.04509,19.36311,2239.0825],[-99.05883,19.37727,2233.2148],[-99.05532,19.38068,2232.406],[-99.05211,19.38388,2231.2151],[-99.04891,19.38698,2231.1118],[-99.0455,19.39034,2228.7512],[-99.04669,19.39215,2229.5073],[-99.04953,19.39634,2230.5786],[-99.05341,19.40109,2229.0151],[-99.05728,19.4046,2228.2109],[-99.04715,19.41086,2227.6711],[-99.04023,19.4185,2227.7061],[-99.03873,19.42729,2226.395],[-99.04509,19.4367,2225.8792],[-99.0456,19.43799,2225.6062],[-99.04622,19.43923,2225.3726],[-99.04679,19.44047,2228.4839],[-99.04736,19.44171,2228.4839],[-99.04917,19.446,2225.1938],[-99.05113,19.45013,2225.542],[-99.05341,19.45406,2227.168],[-99.05583,19.45799,2226.6204],[-99.06038,19.46527,2227.4426],[-99.06441,19.47282,2228.3513],[-99.06788,19.48067,2229.834],[-99.07072,19.48878,2230.6599],[-99.08172,19.49437,2230.0601],[-99.08989,19.50274,2230.3496],[-99.09501,19.51328,2233.1956],[-99.09697,19.52548,2296.5884],[-99.09738,19.52765,2340.4541],[-99.09759,19.52987,2388.0308],[-99.09754,19.53209,2309.3083],[-99.09718,19.53431,2335.0627],[-99.09759,19.54325,2349.5579],[-99.10131,19.55095,2374.5564],[-99.10756,19.55751,2442.0979],[-99.11547,19.56315,2497.0635],[-99.11754,19.56516,2436.6399],[-99.1196,19.56713,2470.6138],[-99.12172,19.56909,2463.3032],[-99.12374,19.57105,2472.6084],[-99.12911,19.56496,2343.7964],[-99.13469,19.55912,2300.0249],[-99.14064,19.55359,2292.4761],[-99.14684,19.54832,2261.6597],[-99.15495,19.53958,2252.3013],[-99.15464,19.53007,2245.8835],[-99.1551,19.52067,2241.4658],[-99.16549,19.51209,2245.0107],[-99.153809999999993,19.50682,2240.1533],[-99.14973,19.49953,2238.731],[-99.15288,19.49178,2237.6838],[-99.1628,19.48543,2240.626],[-99.16942,19.48408,2238.5918],[-99.17541,19.48155,2240.7905],[-99.18063,19.47773,2240.686],[-99.18503,19.47277,2243.3123],[-99.18869,19.46749,2246.2578],[-99.19236,19.46212,2249.2043],[-99.19598,19.4568,2252.9478],[-99.19965,19.45147,2254.7292],[-99.2119,19.43607,2282.9106],[-99.22513,19.42047,2353.3826],[-99.23753,19.4044,2382.5859],[-99.2474,19.38771,2492.7078],[-99.24854,19.38538,2510.2517],[-99.24967,19.38305,2487.4714],[-99.25081,19.38068,2470.7493],[-99.25195,19.3784,2486.4836],[-99.2597,19.36089,2563.7212],[-99.27334,19.35608,2611.0642],[-99.29065,19.35856,2714.0618],[-99.30926,19.36259,2613.9253],[-99.31453,19.3414,2866.991],[-99.32522,19.31918,2958.8188],[-99.33287,19.29769,3282.1929],[-99.3291,19.27836,3398.7078],[-99.32559,19.27526,3618.9006],[-99.32321,19.27185,3664.8186],[-99.32248,19.26823,3741.1855],[-99.32373,19.26446,3601.7703],[-99.33122,19.25593,3708.0601],[-99.33473,19.24673,3571.0881],[-99.33256,19.23852,3663.467],[-99.32285,19.23309,3789.9116],[-99.31814,19.23216,3781.5867],[-99.31442,19.2302,3791.469],[-99.31215,19.2273,3740.8369],[-99.31168,19.22306,3691.3052],[-99.31174,19.2225,3691.3052],[-99.31184,19.22193,3735.9446],[-99.31184,19.22131,3735.9446],[-99.31199,19.22079,3735.9446],[-99.31417,19.20353,3644.5112],[-99.31225,19.1856,3541.0557],[-99.30672,19.16849,3542.9802],[-99.29778,19.15371,3225.3806],[-99.29515,19.15025,3146.6135],[-99.29215,19.1472,3107.7771],[-99.28879,19.14462,3049.3523],[-99.28507,19.14245,3001.5803],[-99.26171,19.12064,3017.5498],[-99.22905,19.10922,2977.8765],[-99.1935,19.10359,3043.1455],[-99.16131,19.09914,3111.4556],[-99.15376,19.09832,3170.6245],[-99.14611,19.09739,3227.3301],[-99.13852,19.09646,3289.019],[-99.13087,19.09553,3280.8257],[-99.11025,19.0915,3070.9097],[-99.09046,19.08437,3014.8701],[-99.07191,19.07449,2972.3901],[-99.0548,19.06214,3017.8193],[-99.04281,19.0578,3123.9082],[-99.03413,19.06555,3165.3315],[-99.02659,19.07765,3277.5188],[-99.0178,19.08643,3308.3347],[-99.0055,19.08912,3374.0642],[-98.99124,19.08912,3422.1082],[-98.97687,19.0884,3153.6155],[-98.96395,19.08912,2946.6821]]]}
,"properties": {"ISO3166-1-Alpha-3": "MEX","country": "Mexico","fill": "#F0F","name": "Distrito Federal","area_km2": 1379.471,"hist_schema_id": "Elevation0-9000","hist_area_km2": {"2225": 270.705,"2250": 180.173,"2275": 48.654,"2300": 34.112,"2325": 26.97,"2350": 25.09,"2375": 25.553,"2400": 24.533,"2425": 23.373,"2450": 19.451,"2475": 18.691,"2500": 17.652,"2525": 16.512,"2550": 16.052,"2575": 14.851,"2600": 14.131,"2625": 12.771,"2650": 11.95,"2675": 11.57,"2700": 10.469,"2725": 12.572,"2750": 12.252,"2775": 12.412,"2800": 12.493,"2825": 14.696,"2850": 17.879,"2875": 17.5,"2900": 15.037,"2925": 16.179,"2950": 16.539,"2975": 16.62,"3000": 26.919,"3025": 27.981,"3050": 26.999,"3075": 29.423,"3100": 25.017,"3125": 20.529,"3150": 17.985,"3175": 17.024,"3200": 17.023,"3225": 17.584,"3250": 16.502,"3275": 17.443,"3300": 14.138,"3325": 12.917,"3350": 11.936,"3375": 11.395,"3400": 10.053,"3425": 10.794,"3450": 11.555,"3475": 9.291,"3500": 7.589,"3525": 6.127,"3550": 5.366,"3575": 4.425,"3600": 3.684,"3625": 2.903,"3650": 2.563,"3675": 2.362,"3700": 1.401,"3725": 1.001,"3750": 0.661,"3775": 0.46,"3800": 0.28,"3825": 0.38,"3850": 0.16,"3875": 0.08,"3900": 0.08}}}