{"type":"Feature","properties":{"GID_2":"MEX.20.460_2","GID_0":"MEX","country":"México","GID_1":"MEX.20_1","province":"Oaxaca","NL_NAME_1":"NA","county":"SantiagoCamotlán","VARNAME_2":"NA","NL_NAME_2":"NA","TYPE_2":"Município","ENGTYPE_2":"Municipality","CC_2":"NA","HASC_2":"NA","name":"Santiago_Camotlán.county"},
"geometry":{"type": "MultiPolygon","coordinates": [[[[-96.136,17.6614,97.3393],[-96.1381,17.6574,100.8249],[-96.1247,17.6548,107.9382],[-96.1233,17.6525,124.4542],[-96.1258,17.6509,113.6474],[-96.1307,17.6521,153.2282],[-96.1326,17.6504,129.7991],[-96.1301,17.6463,128.7754],[-96.1333,17.6383,137.0748],[-96.1396,17.6419,130.4498],[-96.1398,17.6459,135.4047],[-96.1413,17.6471,157.5973],[-96.1434,17.645,143.0081],[-96.1404,17.639,139.1826],[-96.1411,17.6367,127.4527],[-96.1462,17.6405,138.2821],[-96.1507,17.6386,129.8251],[-96.1501,17.634,161.035],[-96.1538,17.6285,171.4066],[-96.1504,17.6271,207.435],[-96.1508,17.6183,125.7855],[-96.147,17.6164,155.6778],[-96.1468,17.6147,147.0262],[-96.1516,17.6143,174.1129],[-96.1525,17.6178,130.2382],[-96.1554,17.6205,166.7801],[-96.1615,17.6171,219.7553],[-96.1624,17.6135,156.54],[-96.1608,17.6069,180.5128],[-96.1674,17.6039,152.0962],[-96.1642,17.6006,160.362],[-96.1644,17.5982,154.9221],[-96.1705,17.5947,177.443],[-96.1716,17.5919,179.3837],[-96.1682,17.5896,169.1235],[-96.1747,17.5861,163.4527],[-96.178,17.5799,267.7369],[-96.1731,17.577,199.7426],[-96.18,17.5708,222.4134],[-96.1884,17.5669,204.9509],[-96.1928,17.5681,185.7669],[-96.2005,17.567,219.8644],[-96.2023,17.5704,184.5741],[-96.2127,17.5715,187.3044],[-96.2174,17.5678,197.9567],[-96.2277,17.5672,222.6269],[-96.2323,17.561,247.261],[-96.2347,17.5508,228.914],[-96.2344,17.5431,231.7026],[-96.2362,17.5412,236.3907],[-96.2439,17.5366,262.7119],[-96.2601,17.538,247.4887],[-96.2701,17.534,272.0071],[-96.2739,17.5298,324.7957],[-96.2738,17.5248,319.6804],[-96.2774,17.5173,299.808],[-96.2832,17.512,378.8282],[-96.2829,17.5058,399.2148],[-96.2847,17.5025,314.7993],[-96.2836,17.4989,302.0696],[-96.2744,17.491,329.8224],[-96.2715,17.4902,337.699],[-96.2701,17.4843,337.3412],[-96.2588,17.4788,348.6253],[-96.2589,17.476,371.6245],[-96.2532,17.4726,359.9859],[-96.2476,17.4721,380.6644],[-96.2471,17.4689,429.2184],[-96.2484,17.4678,413.1881],[-96.2433,17.449,377.7943],[-96.2399,17.4484,369.1555],[-96.237799999999993,17.4448,377.3719],[-96.2349,17.4461,382.2305],[-96.2333,17.4418,388.3794],[-96.2294,17.4391,390.2132],[-96.2258,17.4302,405.1948],[-96.2169,17.4212,480.8323],[-96.1957,17.434,1545.6776],[-96.1937,17.4396,1772.0781],[-96.1863,17.4357,1714.396],[-96.1602,17.4284,1825.1718],[-96.1627,17.4338,1893.9407],[-96.1632,17.4424,1593.5876],[-96.1652,17.446,1443.2092],[-96.1674,17.4449,1453.6047],[-96.1733,17.4556,871.8405],[-96.1715,17.4588,880.6158],[-96.1677,17.46,911.7749],[-96.1626,17.4577,985.7366],[-96.1563,17.4587,1077.1666],[-96.1475,17.4573,1233.9136],[-96.145,17.4552,1345.0382],[-96.1389,17.454,1442.0071],[-96.1344,17.4503,1955.9874],[-96.1301,17.4405,2313.3416],[-96.1263,17.4421,2293.8562],[-96.1263,17.4444,2325.853],[-96.1224,17.4465,2374.3052],[-96.1144,17.4471,2059.2219],[-96.1101,17.4548,1954.5251],[-96.1109,17.4581,1852.3],[-96.1078,17.4621,1656.0126],[-96.1033,17.4636,1602.5199],[-96.1007,17.4665,1571.3113],[-96.0996,17.4752,1514.959],[-96.1014,17.4801,1299.717],[-96.1001,17.4859,1162.575],[-96.0963,17.4913,903.0862],[-96.0911,17.4951,766.3015],[-96.0888,17.4998,643.5546],[-96.0903,17.5089,1208.9047],[-96.0951,17.5107,1396.1587],[-96.0975,17.5138,1245.9041],[-96.0961,17.5214,951.8575],[-96.0974,17.5237,904.0057],[-96.0959,17.5275,804.5074],[-96.0928,17.5288,801.7896],[-96.0915,17.5271,788.5293],[-96.0883,17.5288,772.2462],[-96.0856,17.528,718.3875],[-96.0877,17.5306,858.3141],[-96.0893,17.538,969.9829],[-96.084,17.5429,1154.2975],[-96.0812,17.5436,1209.1346],[-96.087,17.5497,1346.1406],[-96.0835,17.5497,1353.3953],[-96.0763,17.5653,983.4976],[-96.0717,17.5864,960.6284],[-96.0854,17.5999,753.1057],[-96.0924,17.6004,696.5502],[-96.0993,17.6099,575.5458],[-96.1085,17.6107,556.4553],[-96.1275,17.6234,571.5569],[-96.0937,17.6259,375.4349],[-96.0873,17.6296,509.7699],[-96.0867,17.6316,438.0582],[-96.0908,17.6344,352.0959],[-96.0905,17.6385,323.4991],[-96.0923,17.6425,339.5929],[-96.0975,17.6465,249.7128],[-96.1012,17.6454,201.1203],[-96.106,17.6497,132.6383],[-96.1127,17.6506,213.4485],[-96.1141,17.654,233.2225],[-96.1181,17.6554,285.8314],[-96.1189,17.6564,297.9172],[-96.1151,17.6631,146.2283],[-96.1174,17.6684,99.679],[-96.136,17.6614,97.3393]]]]}}