{"type": "Feature","bbox": [-98.8489,16.4952,-98.6622,16.7524],"geometry": {"type": "MultiPolygon","coordinates": [[[[-98.6803,16.7464,396.1752],[-98.6845,16.7524,473.347],[-98.7773,16.7185,182.6266],[-98.7653,16.7054,157.1744],[-98.7618,16.6939,184.0587],[-98.7731,16.6961,169.471],[-98.7768,16.6942,190.141],[-98.7766,16.6928,183.085],[-98.7911,16.6809,178.5717],[-98.7948,16.6729,195.1414],[-98.8233,16.6544,242.0625],[-98.8489,16.6454,26.6143],[-98.844,16.6379,17.7892],[-98.8394,16.6369,19.018],[-98.8337,16.6332,18.8784],[-98.8315,16.6274,12.3662],[-98.8259,16.6221,41.2872],[-98.8285,16.6135,31.077],[-98.8229,16.6074,9.2198],[-98.8179,16.5898,11.7792],[-98.818,16.5872,10.1308],[-98.8234,16.5793,4.8665],[-98.8224,16.5796,4.8665],[-98.823,16.5715,8.8254],[-98.8207,16.5683,9.9314],[-98.8248,16.5662,5.3603],[-98.8213,16.5589,3.5952],[-98.8185,16.5558,1.2407],[-98.8134,16.5546,0.0],[-98.8059,16.5583,0.0],[-98.7902,16.5551,0.0],[-98.7725,16.5547,4.9371],[-98.7676,16.5496,0.8404],[-98.7653,16.5439,0.0],[-98.7395,16.517,4.1248],[-98.7302,16.5036,0.0],[-98.7283,16.5033,0.0],[-98.7273,16.5072,4.1525],[-98.724,16.5049,0.0],[-98.7283,16.5007,0.0],[-98.7231,16.4952,1.2768],[-98.7193,16.4961,10.3905],[-98.7188,16.502,8.4097],[-98.7163,16.5016,12.3849],[-98.7143,16.5046,8.9918],[-98.7096,16.5027,5.7952],[-98.7027,16.5056,6.2402],[-98.7039,16.5074,10.5851],[-98.7052,16.5069,5.5736],[-98.7032,16.5094,9.5362],[-98.7021,16.5081,7.8234],[-98.7,16.5091,7.8378],[-98.7008,16.5072,7.8234],[-98.6941,16.5083,6.1874],[-98.6937,16.5064,7.4338],[-98.6891,16.5105,6.1667],[-98.6851,16.5092,7.4517],[-98.6735,16.5111,5.0608],[-98.6707,16.5076,5.1494],[-98.664,16.5084,5.0343],[-98.6646,16.5163,8.3721],[-98.6792,16.5311,31.3077],[-98.7118,16.5461,42.2148],[-98.7225,16.5584,54.0458],[-98.739,16.5648,13.7133],[-98.7389,16.5596,18.4385],[-98.7422,16.56,18.7391],[-98.7446,16.5539,8.969],[-98.757,16.5495,9.1149],[-98.7588,16.5462,8.0726],[-98.7637,16.5573,25.5536],[-98.7733,16.5709,83.0124],[-98.7811,16.5769,81.9393],[-98.7881,16.6059,101.2584],[-98.788,16.6171,87.9109],[-98.7727,16.6241,127.2551],[-98.7661,16.6415,137.8469],[-98.7482,16.647,142.5082],[-98.7323,16.6561,194.8948],[-98.7055,16.6628,231.0497],[-98.6693,16.6579,197.096],[-98.6622,16.6824,226.1101],[-98.6623,16.6923,328.5569],[-98.6671,16.7103,425.1696],[-98.6642,16.7169,340.8364],[-98.6684,16.7181,277.1803],[-98.6752,16.7397,528.5699],[-98.6803,16.7464,396.1752]]]]}
,"properties": {"GID_2": "MEX.12.48_2","GID_0": "MEX","country": "México","GID_1": "MEX.12_1","province": "Guerrero","NL_NAME_1": "NA","county": "Marquelia","VARNAME_2": "NA","NL_NAME_2": "NA","TYPE_2": "Município","ENGTYPE_2": "Municipality","CC_2": "NA","HASC_2": "NA","name": "Marquelia.county","area_km2": 211.7773,"hist_schema_id": "Elevation0-9000","hist_area_km2": {"0": 38.5972,"25": 26.3169,"50": 6.8268,"75": 6.0542,"100": 7.2729,"125": 11.4158,"150": 19.9049,"175": 26.8702,"200": 24.2692,"225": 14.1546,"250": 7.5949,"275": 6.5997,"300": 4.7112,"325": 3.8177,"350": 2.5586,"375": 1.9088,"400": 1.0356,"425": 0.9341,"450": 0.6701,"475": 0.1827,"500": 0.0609,"525": 0.0203}}}