{"type": "Feature","bbox": [-89.8655,21.1421,-89.4873,21.3178],"geometry": {"type": "MultiPolygon","coordinates": [[[[-89.5155,21.1702,7.009],[-89.5127,21.1748,7.0296],[-89.5147,21.1929,6.8078],[-89.5144,21.2071,6.3031],[-89.5175,21.2109,6.3014],[-89.5224,21.2234,5.3581],[-89.5129,21.2213,4.2139],[-89.5149,21.2253,5.2262],[-89.516,21.2334,4.2502],[-89.5156,21.2396,4.0343],[-89.5087,21.2559,3.8882],[-89.5105,21.268,1.1268],[-89.5007,21.2802,0.9288],[-89.5017,21.314,3.0018],[-89.4873,21.3153,1.2171],[-89.4876,21.3178,0.0],[-89.5525,21.3079,0.0],[-89.5652,21.303,1.5424],[-89.6354,21.2911,1.8718],[-89.665,21.2886,1.5887],[-89.6748,21.2835,3.5453],[-89.6948,21.2809,1.6072],[-89.696,21.2823,0.0],[-89.7025,21.2826,0.0],[-89.6984,21.2703,0.0],[-89.6972,21.2726,1.4026],[-89.6952,21.2717,0.9414],[-89.6971,21.2684,0.9749],[-89.6937,21.2695,0.0],[-89.6904,21.2749,0.7488],[-89.6844,21.2754,0.0],[-89.683,21.2769,0.285],[-89.679,21.2762,0.0],[-89.6765,21.2776,2.6176],[-89.6749,21.2751,1.3246],[-89.6694,21.2738,1.844],[-89.6708,21.2719,2.272],[-89.6789,21.2693,0.4543],[-89.6755,21.2691,1.4425],[-89.6746,21.2662,1.4928],[-89.6785,21.2662,0.0],[-89.6813,21.2679,0.7978],[-89.6847,21.2642,0.4199],[-89.6965,21.2634,0.9089],[-89.7057,21.2574,0.0],[-89.7181,21.255,0.0],[-89.7248,21.2559,0.4294],[-89.7267,21.2551,1.7774],[-89.7278,21.2502,0.0917],[-89.7336,21.2478,0.0788],[-89.762,21.2467,0.5527],[-89.7765,21.2409,0.0134],[-89.7933,21.2424,0.0],[-89.7974,21.245,0.1961],[-89.7818,21.2528,0.0227],[-89.7764,21.2572,1.6329],[-89.7518,21.2607,-0.4246],[-89.7444,21.2593,-0.0036],[-89.7435,21.2625,0.0812],[-89.7377,21.2657,2.782],[-89.7264,21.2672,-0.4095],[-89.7229,21.2646,0.0112],[-89.718,21.2676,-0.3685],[-89.7078,21.2638,0.7526],[-89.6997,21.2694,0.0],[-89.7025,21.2736,2.6474],[-89.7077,21.2757,0.5549],[-89.7031,21.2775,0.7363],[-89.7031,21.28,0.7407],[-89.769,21.2663,0.5572],[-89.796,21.2588,0.0],[-89.8448,21.2499,0.2517],[-89.8395,21.2441,0.2504],[-89.8345,21.2438,0.6735],[-89.8313,21.2456,0.0337],[-89.83,21.2291,0.0515],[-89.8333,21.2261,-0.0489],[-89.8308,21.2225,0.2652],[-89.8326,21.2216,0.1034],[-89.836,21.2236,-0.2922],[-89.8428,21.2244,0.0254],[-89.8441,21.2225,0.0363],[-89.8406,21.2201,0.0],[-89.841,21.2183,0.0112],[-89.8448,21.2158,0.0811],[-89.851,21.2191,0.0883],[-89.8542,21.2166,-0.1872],[-89.8551,21.213,-0.0651],[-89.8642,21.2169,-0.3139],[-89.8655,21.174,3.0284],[-89.8362,21.1625,4.9434],[-89.8346,21.1772,3.9971],[-89.8261,21.1765,4.2177],[-89.8328,21.206,1.3599],[-89.8227,21.2054,0.752],[-89.8233,21.2007,0.8008],[-89.8012,21.1491,5.616],[-89.7918,21.1655,4.782],[-89.7841,21.1739,4.8086],[-89.7595,21.171,4.561],[-89.7575,21.1859,4.3193],[-89.7283,21.1832,4.4553],[-89.7267,21.1878,4.8364],[-89.7217,21.1883,4.1138],[-89.7144,21.1606,6.101],[-89.7077,21.1566,5.8863],[-89.7074,21.1597,6.1901],[-89.7034,21.1593,5.1815],[-89.7021,21.17,5.4306],[-89.68,21.1675,6.2438],[-89.6821,21.1507,6.5482],[-89.6677,21.1491,2.1465],[-89.6667,21.1451,7.1227],[-89.6602,21.1457,6.5242],[-89.6601,21.1426,7.1121],[-89.6572,21.1421,6.617],[-89.6547,21.1444,7.8093],[-89.6539,21.1507,7.0033],[-89.6603,21.1517,6.585],[-89.6604,21.156,6.4756],[-89.6488,21.1573,6.4301],[-89.6503,21.166,5.6464],[-89.6454,21.1662,7.2767],[-89.6444,21.1745,7.189],[-89.6462,21.1745,5.0433],[-89.6471,21.1847,4.4081],[-89.6189,21.1823,6.6951],[-89.6075,21.1786,6.7434],[-89.6063,21.1911,4.9002],[-89.5892,21.1911,5.8719],[-89.5777,21.1903,5.9689],[-89.5642,21.1856,7.1055],[-89.5363,21.1814,6.7883],[-89.5301,21.1787,5.3777],[-89.5299,21.1814,6.06],[-89.523,21.1792,5.7871],[-89.5313,21.1892,6.6111],[-89.5266,21.1904,6.2381],[-89.526,21.1875,6.5581],[-89.5243,21.1877,5.5618],[-89.5183,21.1801,6.5174],[-89.5228,21.1791,5.7871],[-89.5155,21.1702,7.009]]],
[[[-89.8646,21.2426,0.9559],[-89.8631,21.2384,-0.1672],[-89.8443,21.2434,0.0],[-89.8437,21.2451,0.1385],[-89.8445,21.2477,0.2828],[-89.8646,21.2426,0.9559]]]]}
,"properties": {"GID_2": "MEX.31.59_2","GID_0": "MEX","country": "México","GID_1": "MEX.31_1","province": "Yucatán","NL_NAME_1": "NA","county": "Progreso","VARNAME_2": "NA","NL_NAME_2": "NA","TYPE_2": "Município","ENGTYPE_2": "Municipality","CC_2": "NA","HASC_2": "NA","name": "Progreso.county","area_km2": 405.3277,"hist_schema_id": "Elevation0-9000","hist_area_km2": {"0": 405.3277}}}