{"type":"Feature","properties":{"GID_2":"MEX.30.106_2","GID_0":"MEX","country":"México","GID_1":"MEX.30_1","province":"Veracruz","NL_NAME_1":"NA","county":"ManlioFabioAltamirano","VARNAME_2":"NA","NL_NAME_2":"NA","TYPE_2":"Município","ENGTYPE_2":"Municipality","CC_2":"NA","HASC_2":"NA","name":"Manlio_Fabio_Altamirano.county"},
"geometry":{"type": "MultiPolygon","coordinates": [[[[-96.3052,18.9741,23.093],[-96.3039,18.9835,23.7984],[-96.3085,18.983,25.7061],[-96.3092,18.9807,23.5878],[-96.3114,18.9829,27.2247],[-96.3155,18.9823,28.8084],[-96.3129,18.9928,23.3948],[-96.3145,18.9975,26.0036],[-96.3058,19.0005,32.5731],[-96.3011,18.9973,24.5057],[-96.2993,18.9976,24.5057],[-96.2985,19.0019,23.6127],[-96.2966,19.002,21.0443],[-96.2973,19.0057,21.9306],[-96.2954,19.0076,19.8731],[-96.2953,19.0108,19.144],[-96.2976,19.0111,17.3743],[-96.2994,19.0178,27.905],[-96.3031,19.0155,27.8057],[-96.3063,19.0179,25.7863],[-96.3055,19.019,29.0255],[-96.3074,19.0192,29.0255],[-96.3073,19.0227,41.3057],[-96.3116,19.0244,39.4279],[-96.3125,19.0284,30.6131],[-96.3036,19.0288,28.4293],[-96.3031,19.0309,30.5161],[-96.3013,19.0308,28.1311],[-96.3022,19.0331,31.395],[-96.2972,19.0358,22.1585],[-96.2969,19.0371,20.2204],[-96.3,19.0379,29.2243],[-96.2934,19.0401,23.1184],[-96.2939,19.0464,23.3542],[-96.2924,19.0505,35.0364],[-96.294,19.0507,29.6791],[-96.2943,19.0528,35.9348],[-96.2924,19.0546,38.1108],[-96.2921,19.0522,40.4745],[-96.287,19.0527,30.166],[-96.2856,19.0583,33.2843],[-96.2845,19.0577,30.339],[-96.2828,19.0608,21.5857],[-96.2799,19.0593,30.3726],[-96.2795,19.0615,19.4252],[-96.268,19.0622,15.7938],[-96.2641,19.0645,20.2808],[-96.2653,19.0657,19.934],[-96.2638,19.0756,22.153199999999998],[-96.262,19.0753,23.4026],[-96.2612,19.0802,30.4021],[-96.2587,19.0798,30.1259],[-96.2563,19.0919,39.2782],[-96.2631,19.093,32.3665],[-96.2609,19.1022,32.6443],[-96.2637,19.1185,45.334],[-96.272,19.1218,63.0986],[-96.2619,19.131,63.3855],[-96.2666,19.1374,63.1497],[-96.2929,19.1542,38.9199],[-96.2905,19.1555,40.2274],[-96.2928,19.1555,36.6732],[-96.2942,19.1585,35.5947],[-96.2954,19.1574,33.4255],[-96.2992,19.159,29.7032],[-96.3041,19.1574,24.1351],[-96.3051,19.1595,20.863],[-96.3065,19.1589,19.4825],[-96.3065,19.1564,22.6707],[-96.3077,19.1565,21.6138],[-96.3078,19.1587,19.9364],[-96.3106,19.1588,17.4174],[-96.3108,19.1542,19.0558],[-96.3139,19.1501,22.1263],[-96.3127,19.1695,18.686],[-96.3096,19.1752,14.6044],[-96.309,19.1838,16.2185],[-96.3063,19.1835,18.2846],[-96.3061,19.1857,16.2169],[-96.3042,19.1848,17.1662],[-96.3019,19.187,15.7618],[-96.3068,19.1892,16.709],[-96.3088,19.192,15.8854],[-96.3147,19.1913,15.3803],[-96.3197,19.1987,13.8364],[-96.3299,19.1975,13.8337],[-96.3323,19.1988,12.2856],[-96.3431,19.1969,22.2766],[-96.3495,19.1929,27.8702],[-96.354,19.1933,26.0982],[-96.3596,19.1889,25.0701],[-96.3648,19.1921,19.9464],[-96.3661,19.1915,30.9443],[-96.3677,19.1973,31.2652],[-96.3701,19.1975,28.3913],[-96.3709,19.1959,21.1863],[-96.3798,19.1921,26.2591],[-96.3818,19.1882,26.1213],[-96.3894,19.1886,25.7245],[-96.3964,19.1863,27.8086],[-96.4042,19.1863,32.3649],[-96.4052,19.1845,32.5473],[-96.4077,19.1854,30.7082],[-96.411,19.1819,45.9706],[-96.4209,19.1894,38.0794],[-96.4268,19.1888,41.7506],[-96.4296,19.1852,46.8597],[-96.4338,19.1837,50.0749],[-96.4422,19.1871,63.3405],[-96.4445,19.1863,49.434],[-96.447,19.1801,71.0069],[-96.4438,19.1798,81.1739],[-96.4439,19.1765,131.1936],[-96.448,19.1744,137.794],[-96.4482,19.1718,77.5256],[-96.4436,19.172,73.1328],[-96.4384,19.17,82.4591],[-96.4339,19.1722,58.6494],[-96.4337,19.1702,73.0152],[-96.4302,19.1693,112.2517],[-96.4333,19.1714,63.8552],[-96.4287,19.1731,66.4662],[-96.4258,19.1704,100.8314],[-96.4282,19.1688,109.8292],[-96.4275,19.1673,102.844],[-96.426,19.1688,100.8314],[-96.4187,19.1689,62.2792],[-96.4188,19.1664,75.6777],[-96.4182,19.1688,61.6419],[-96.4153,19.1682,43.7244],[-96.4142,19.1709,48.5068],[-96.411,19.1692,44.7571],[-96.4083,19.1725,56.2248],[-96.4055,19.1712,43.4124],[-96.4022,19.1744,35.9115],[-96.4005,19.173,46.7155],[-96.4027,19.1719,78.676],[-96.4018,19.1701,57.2382],[-96.4063,19.1676,62.5017],[-96.4072,19.1633,80.7241],[-96.4098,19.1618,88.251],[-96.4094,19.1589,95.8495],[-96.4122,19.1589,95.7497],[-96.4138,19.1573,99.0323],[-96.4155,19.1495,98.8492],[-96.4043,19.144,81.3687],[-96.4051,19.1422,93.6458],[-96.4077,19.143,90.4681],[-96.4074,19.1339,39.5913],[-96.4016,19.1366,37.0614],[-96.3986,19.1353,36.5281],[-96.3965,19.1124,43.2264],[-96.3952,19.1107,38.0652],[-96.3959,19.1085,49.1804],[-96.3993,19.1087,48.5],[-96.3962,19.103,51.8763],[-96.3972,19.0929,46.9805],[-96.394,19.0936,45.722],[-96.3923,19.0904,71.78],[-96.3862,19.0911,69.23],[-96.3807,19.0942,39.3808],[-96.3807,19.0956,39.7717],[-96.38,19.0943,39.3808],[-96.3751,19.0936,42.0905],[-96.3796,19.0908,42.9409],[-96.3813,19.0857,44.2699],[-96.3798,19.081,46.2511],[-96.3719,19.0756,48.8589],[-96.377,19.0716,49.3559],[-96.3783,19.0651,57.05],[-96.3812,19.0656,59.4458],[-96.3906,19.0477,80.0536],[-96.3998,19.0447,71.7568],[-96.4035,19.0454,75.0537],[-96.4029,19.0431,85.1319],[-96.4111,19.0397,57.9686],[-96.4058,19.037,68.7006],[-96.4026,19.0375,54.2681],[-96.4022,19.0406,70.973],[-96.396,19.0379,62.6121],[-96.3963,19.0356,49.93],[-96.3995,19.0347,59.6895],[-96.3992,19.0323,60.8234],[-96.3899,19.0251,67.7712],[-96.3833,19.0252,67.3252],[-96.3666,19.0189,59.4917],[-96.3625,19.0192,59.1134],[-96.3606,19.0216,52.1032],[-96.3539,19.0205,51.8428],[-96.3539,19.0179,62.2157],[-96.3521,19.0182,61.089],[-96.3522,19.0153,52.7671],[-96.3466,19.015,57.0195],[-96.3466,19.0166,51.7455],[-96.3417,19.0167,50.9447],[-96.342,19.0145,42.261],[-96.3371,19.0128,49.2938],[-96.3344,19.0029,34.1822],[-96.3324,19.0034,29.6994],[-96.3267,18.9988,27.0159],[-96.3248,18.9987,28.3011],[-96.3247,19.0006,37.4987],[-96.3199,18.9994,28.4375],[-96.3229,18.9925,29.5519],[-96.3213,18.9857,32.9096],[-96.3245,18.9865,33.6239],[-96.323,18.9828,26.7655],[-96.3252,18.9819,32.7324],[-96.3246,18.978,35.1918],[-96.3182,18.9769,26.4717],[-96.3166,18.9785,26.5072],[-96.3115,18.978,29.0426],[-96.3101,18.9792,28.5961],[-96.3075,18.9749,24.6598],[-96.3052,18.9741,23.093]]]]}}