{"type":"Feature","properties":{"featurecla":"River","scalerank":10,"rivernum":22195,"dissolve":"22195River","name":"Lacantun1","name_alt":null,"note":"ID is link back to CEC data","name_full":"Lacantun","min_zoom":6.0,"strokeweig":0.2,"uident":2050701,"min_label":7.0},
"geometry":{"type": "LineString","coordinates": [[-91.3031306631454,16.250026759889863,393.0428],[-91.281320767312067,16.236517645306535,200.0071],[-91.234201626687067,16.216131903119035,202.88],[-91.204416470437067,16.200547593223206,200.3038],[-91.1776423818954,16.177354233848206,251.668],[-91.145822720437067,16.136094468223206,187.4754],[-91.120676236062067,16.129706121869035,191.5461],[-91.113270637103724,16.123806056764863,171.093],[-91.090646939187067,16.132432358848206,195.521],[-91.071359829812067,16.117010809369035,158.9755],[-91.044260220437067,16.107367254681535,150.0],[-91.029652473041224,16.094346421348206,154.4507],[-91.015858527728724,16.109686590619035,182.0638],[-91.0003962881454,16.111883856244035,171.8277],[-90.9686580068954,16.108465887494035,247.2124],[-90.9442439443954,16.124375718223206,172.5407],[-90.933827277728724,16.137722072389863,173.9386],[-90.929066535541224,16.143174546348206,161.5746],[-90.916249152728724,16.155218817181535,238.0723],[-90.899484829812067,16.183661199994035,162.3346],[-90.898996548562067,16.196112371869035,142.0959],[-90.912709113666224,16.213568426556535,157.6781],[-90.905873176166224,16.219427801556535,156.8766],[-90.8822322256454,16.216742254681535,146.1153],[-90.861561652728724,16.234645900514863,132.824],[-90.874338345437067,16.246446030723206,146.3852],[-90.8710017568954,16.252630926556535,153.9464],[-90.8805232412704,16.278265692181535,153.9556],[-90.885731574603724,16.309271551556535,139.811],[-90.868275519916224,16.336533921348206,178.2015],[-90.857736782937067,16.343817449994035,162.1393],[-90.800404426166224,16.348496811973206,146.9143],[-90.784250454812067,16.352972723431535,152.4675],[-90.768422004291224,16.348252671348206,118.625],[-90.777577277728724,16.387884832806535,143.0731],[-90.780832486062067,16.413031317181535,139.9639],[-90.784982876687067,16.424180405723206,130.0342],[-90.737131314187067,16.477403061973206,138.6092],[-90.728016730853724,16.479518947389863,133.9742],[-90.724354621478724,16.470404364056535,118.5312],[-90.7318416006454,16.443223374473206,118.8382],[-90.7289119131454,16.437201239056535,123.959],[-90.715646939187067,16.456162827598206,121.884],[-90.694569465228724,16.468207098431535,115.2718],[-90.7103572256454,16.482489324994035,131.8845],[-90.712513801166224,16.495632228639863,126.0569],[-90.705555793353724,16.501735744264863,132.9505],[-90.6957087881454,16.504095770306535,138.2939],[-90.6927791006454,16.514186916139863,130.872],[-90.704904751687067,16.557725327598206,116.1801],[-90.7142634756454,16.585272528119035,124.3025],[-90.699574348041224,16.607041733848206,133.309],[-90.654855923562067,16.616807358848206,117.1657]]}}