{"type":"Feature","properties":{"featurecla":"River","scalerank":10,"rivernum":22195,"dissolve":"22195River","name":"Tzaconeja","name_alt":"Lacantun","note":"ID is link back to CEC data","name_full":"Lacantun","min_zoom":6.0,"strokeweig":0.15,"uident":2050701,"min_label":7.0},
"geometry":{"type": "LineString","coordinates": [[-92.411936001687067,16.714951890098206,1888.0778],[-92.377064582416224,16.718532619264863,2056.8628],[-92.361398892312067,16.715765692181535,2044.6638],[-92.3265681631454,16.703070379681535,2104.7026],[-92.235218879291224,16.704413153119035,2021.4156],[-92.076486782937067,16.712754624473206,1255.385]]}}