{"type":"Feature","properties":{"featurecla":"River","scalerank":10,"rivernum":22198,"dissolve":"22198River","name":"La Venta","name_alt":null,"note":"ID is link back to CEC data","name_full":"La Venta","min_zoom":6.0,"strokeweig":0.2,"uident":2050301,"min_label":7.0},
"geometry":{"type": "LineString","coordinates": [[-93.775135871478724,16.992743231244035,580.6506],[-93.740061001687067,16.958522853639863,559.868],[-93.680978970437067,16.933294989056535,509.4204],[-93.608631965228724,16.891913153119035,502.8333],[-93.572377082416224,16.858669338014863,566.5111],[-93.557240363666224,16.855902410931535,720.8248],[-93.542958137103724,16.836696681764863,540.1161],[-93.547840949603724,16.796454168744035,742.7672],[-93.538807746478724,16.766140041139863,683.4192],[-93.538319465228724,16.754746811973206,710.5598],[-93.542795376687067,16.742254949994035,712.8148],[-93.558176236062067,16.716416733848206,769.2014],[-93.582834439187067,16.688503322389863,508.1899],[-93.5948787100204,16.678900457806535,516.0121],[-93.622670051166224,16.668158270306535,532.9902],[-93.646962043353724,16.653102931764863,517.8101],[-93.6432185537704,16.632147528119035,534.5444],[-93.646107551166224,16.610459702598206,571.3059],[-93.640207486062067,16.600449936973206,520.7148],[-93.6534724600204,16.583360093223206,585.7565],[-93.663319465228724,16.564032293744035,549.8127]]}}