{"type": "Feature","bbox": [-98.4927,19.2042,-98.3645,19.3277],"geometry": {"type": "MultiPolygon","coordinates": [[[[-98.4425,19.2335,2295.1326],[-98.4326,19.2332,2281.3511],[-98.4302,19.2348,2272.5132],[-98.4248,19.2351,2264.5168],[-98.4235,19.2297,2267.0908],[-98.4166,19.2271,2253.9529],[-98.4159,19.2308,2252.6772],[-98.4119,19.2316,2244.5269],[-98.4062,19.2301,2237.2988],[-98.4052,19.2042,2242.2153],[-98.3885,19.2156,2228.4761],[-98.3735,19.229,2214.8872],[-98.3691,19.2258,2209.2292],[-98.3645,19.2331,2207.042],[-98.3704,19.236,2210.0342],[-98.3773,19.2475,2225.7107],[-98.3767,19.2524,2264.5488],[-98.3813,19.2629,2302.7876],[-98.4013,19.2824,2227.8074],[-98.4018,19.2879,2228.3699],[-98.4069,19.2882,2230.0876],[-98.4101,19.2913,2233.1428],[-98.4077,19.3159,2268.0752],[-98.4126,19.3171,2285.8262],[-98.4144,19.3196,2295.1038],[-98.4207,19.3199,2313.0408],[-98.4284,19.3276,2379.1531],[-98.4413,19.3253,2522.6201],[-98.4432,19.3277,2570.064],[-98.4514,19.3227,2337.196],[-98.4582,19.3245,2280.7161],[-98.4572,19.3191,2293.0552],[-98.4598,19.3156,2277.1138],[-98.4657,19.3158,2280.908],[-98.4675,19.3046,2291.0693],[-98.4724,19.3027,2297.2627],[-98.4722,19.3004,2292.271],[-98.4738,19.2991,2294.5352],[-98.4794,19.3,2308.2141],[-98.4756,19.2941,2309.3469],[-98.4907,19.2916,2342.6445],[-98.4927,19.2894,2346.2542],[-98.4897,19.2897,2342.0449],[-98.4894,19.2841,2337.1189],[-98.4719,19.2844,2298.9189],[-98.4775,19.2794,2312.3352],[-98.4759,19.2734,2315.0002],[-98.472,19.2759,2307.8157],[-98.4713,19.2721,2309.7112],[-98.4666,19.2733,2304.1914],[-98.4666,19.2701,2306.582],[-98.462,19.2716,2298.0259],[-98.4627,19.2689,2296.946],[-98.4657,19.267,2302.9729],[-98.4652,19.2635,2307.3572],[-98.4684,19.2619,2313.5122],[-98.4701,19.2442,2343.6289],[-98.4781,19.2413,2366.9805],[-98.4791,19.2385,2377.2192],[-98.4756,19.2394,2367.0251],[-98.4664,19.2327,2395.1714],[-98.4556,19.2342,2315.877],[-98.451,19.2281,2321.9414],[-98.4478,19.2324,2303.1086],[-98.4425,19.2335,2295.1326]]]]}
,"properties": {"GID_2": "MEX.21.133_2","GID_0": "MEX","country": "México","GID_1": "MEX.21_1","province": "Puebla","NL_NAME_1": "NA","county": "SanMartínTexmelucan","VARNAME_2": "NA","NL_NAME_2": "NA","TYPE_2": "Município","ENGTYPE_2": "Municipality","CC_2": "NA","HASC_2": "NA","name": "San_Martín_Texmelucan.county","area_km2": 89.68481,"hist_schema_id": "Elevation0-9000","hist_area_km2": {"2200": 0.58055,"2225": 18.61592,"2250": 22.85699,"2275": 19.41274,"2300": 16.27113,"2325": 6.06403,"2350": 2.24145,"2375": 1.48084,"2400": 0.7604,"2425": 0.52031,"2450": 0.40021,"2475": 0.20012,"2500": 0.14006,"2525": 0.08004,"2550": 0.04002,"2575": 0.02001}}}