{"type": "Feature","bbox": [-103.299,20.3258,-103.1208,20.4802],"geometry": {"type": "MultiPolygon","coordinates": [[[[-103.1216,20.4055,1509.5542],[-103.1288,20.4127,1513.3879],[-103.1397,20.4186,1509.1492],[-103.1432,20.4229,1509.1768],[-103.1453,20.4285,1508.7635],[-103.1435,20.4393,1509.2793],[-103.1447,20.4437,1508.6274],[-103.1632,20.4551,1508.0918],[-103.1721,20.4531,1508.8156],[-103.191,20.4556,1509.9908],[-103.1996,20.4589,1509.3735],[-103.2032,20.4623,1508.8584],[-103.207,20.4749,1508.751],[-103.2115,20.4802,1509.4669],[-103.2118,20.4774,1509.2866],[-103.2182,20.4752,1510.6525],[-103.2202,20.4718,1510.0891],[-103.2197,20.4687,1515.9755],[-103.2263,20.4676,1514.4808],[-103.2186,20.4568,1524.7338],[-103.2491,20.4517,1532.2423],[-103.2404,20.4311,1565.5475],[-103.2523,20.4291,1608.6101],[-103.2558,20.4344,1598.9348],[-103.2557,20.4383,1586.941],[-103.2615,20.4449,1562.2532],[-103.2618,20.4382,1606.0945],[-103.2631,20.4371,1618.9502],[-103.2581,20.4311,1691.3125],[-103.2625,20.4256,1703.4119],[-103.2625,20.4224,1727.3892],[-103.2784,20.4117,1617.0225],[-103.2822,20.407,1552.1021],[-103.2831,20.4087,1553.5558],[-103.2878,20.4048,1552.4065],[-103.2884,20.3994,1558.1936],[-103.2972,20.3966,1574.8267],[-103.299,20.3903,1612.0962],[-103.2954,20.3792,1821.5427],[-103.2969,20.3761,1872.1865],[-103.2943,20.3756,1879.6143],[-103.2943,20.3694,1685.2676],[-103.29,20.3693,1680.589],[-103.2891,20.3621,1737.8323],[-103.295,20.3559,1957.9747],[-103.2898,20.3486,2189.4849],[-103.2881,20.3357,2159.4487],[-103.2863,20.3327,2165.0986],[-103.2851,20.3332,2176.9512],[-103.2823,20.3383,2140.1089],[-103.2717,20.3416,1946.7219],[-103.2605,20.3404,2207.0635],[-103.2489,20.3368,2309.7466],[-103.2449,20.3391,2381.0293],[-103.2393,20.3392,2422.9409],[-103.218,20.3347,2098.415],[-103.2064,20.3278,1690.7089],[-103.2061,20.3295,1698.4006],[-103.2017,20.3281,1652.5874],[-103.1997,20.3289,1646.3407],[-103.1954,20.3258,1617.3805],[-103.1844,20.3274,1647.7301],[-103.1842,20.3349,1712.7312],[-103.1783,20.3351,1728.474],[-103.1777,20.3367,1738.3508],[-103.174,20.3323,1712.1672],[-103.1689,20.3346,1694.563],[-103.1689,20.3358,1707.4502],[-103.1581,20.3365,1574.4218],[-103.1571,20.3439,1556.7015],[-103.1545,20.3436,1550.129],[-103.1463,20.3358,1544.1727],[-103.1391,20.3453,1604.406],[-103.1339,20.3488,1639.8894],[-103.1256,20.3612,1683.2621],[-103.1274,20.3712,1622.2255],[-103.1259,20.3819,1560.212],[-103.1276,20.3821,1560.8152],[-103.1273,20.3869,1543.162],[-103.1366,20.3883,1558.2681],[-103.1343,20.3954,1522.7007],[-103.1325,20.394,1520.7026],[-103.1301,20.3969,1518.2866],[-103.1235,20.3942,1521.348],[-103.125,20.3961,1518.3894],[-103.124,20.3987,1517.5983],[-103.1218,20.3979,1515.8345],[-103.1208,20.399,1515.0271],[-103.1231,20.4012,1512.8589],[-103.1216,20.4055,1509.5542]]]]}
,"properties": {"GID_2": "MEX.14.44_2","GID_0": "MEX","country": "México","GID_1": "MEX.14_1","province": "Jalisco","NL_NAME_1": "NA","county": "IxtlahuacándelosMembrillos","VARNAME_2": "NA","NL_NAME_2": "NA","TYPE_2": "Município","ENGTYPE_2": "Municipality","CC_2": "NA","HASC_2": "NA","name": "Ixtlahuacándelos_Membrillos.county","area_km2": 202.1532,"hist_schema_id": "Elevation0-9000","hist_area_km2": {"1500": 14.8411,"1525": 49.7533,"1550": 29.8871,"1575": 14.9258,"1600": 19.22,"1625": 14.1916,"1650": 10.1966,"1675": 9.3222,"1700": 6.9172,"1725": 5.6253,"1750": 4.2736,"1775": 2.8226,"1800": 2.2859,"1825": 2.286,"1850": 1.9481,"1875": 1.4909,"1900": 1.1331,"1925": 1.0735,"1950": 1.1132,"1975": 1.1729,"2000": 1.0337,"2025": 0.8747,"2050": 0.5566,"2075": 0.6958,"2100": 0.5169,"2125": 0.5964,"2150": 0.3777,"2175": 0.5765,"2200": 0.4175,"2225": 0.5368,"2250": 0.2982,"2275": 0.3181,"2300": 0.2386,"2325": 0.1988,"2350": 0.1193,"2375": 0.159,"2400": 0.0795,"2425": 0.0596,"2450": 0.0199}}}