{"type":"Feature","properties":{"GID_2":"MEX.5.78_2","GID_0":"MEX","country":"México","GID_1":"MEX.5_1","province":"Chiapas","NL_NAME_1":"NA","county":"PuebloNuevoSolistahuacán","VARNAME_2":"NA","NL_NAME_2":"NA","TYPE_2":"Município","ENGTYPE_2":"Municipality","CC_2":"NA","HASC_2":"NA","name":"Pueblo_Nuevo_Solistahuacán.county"},
"geometry":{"type": "MultiPolygon","coordinates": [[[[-92.9178,17.316,1838.4409],[-92.9078,17.2854,1796.1378],[-92.9005,17.2732,1605.181],[-92.9112,17.274,1869.417],[-92.9113,17.2686,1883.0123],[-92.9186,17.2745,1388.1743],[-92.9224,17.2749,1312.196],[-92.9244,17.2597,1540.8676],[-92.9167,17.2528,1807.7604],[-92.9217,17.2453,2074.5776],[-92.9346,17.252,2041.3199],[-92.9455,17.261,2221.3169],[-92.9638,17.2876,1374.2719],[-92.9716,17.2878,1299.233],[-92.9724,17.2785,1300.8997],[-92.9701,17.261,1266.8793],[-92.9632,17.2573,1544.2627],[-92.9632,17.2352,1609.024],[-92.9513,17.2355,1889.1407],[-92.9499,17.2413,1935.5985],[-92.9366,17.2346,2135.5642],[-92.9465,17.2176,1947.7568],[-92.9636,17.2178,1781.3821],[-92.9582,17.2112,1923.1104],[-92.9466,17.2052,1790.2288],[-92.9457,17.2026,1794.8394],[-92.9423,17.2039,1772.5708],[-92.9422,17.1967,1787.5233],[-92.9648,17.1972,1978.8275],[-92.9685,17.1684,1729.0491],[-92.9671,17.1681,1588.6426],[-92.9661,17.1718,1612.3406],[-92.9567,17.1654,1415.7943],[-92.9496,17.1636,1313.8828],[-92.9491,17.1666,1411.167],[-92.9403,17.1602,1344.9675],[-92.9386,17.1563,1293.106],[-92.941,17.1468,1109.9373],[-92.9397,17.1452,1082.2107],[-92.9344,17.1439,1028.6376],[-92.9347,17.1419,1041.2491],[-92.9098,17.1346,1055.7853],[-92.8992,17.136,1179.5055],[-92.8964,17.1399,1302.3329],[-92.8955,17.1468,1509.0614],[-92.8833,17.1457,1711.865],[-92.8812,17.146,1731.4788],[-92.8817,17.1484,1690.0514],[-92.8761,17.1488,1765.6329],[-92.8733,17.1457,1816.1775],[-92.8729,17.1404,1786.035],[-92.8663,17.1407,2152.9744],[-92.8633,17.139,2092.9751],[-92.846,17.1425,2103.1987],[-92.8309,17.1519,1754.7346],[-92.8327,17.1529,1731.8811],[-92.8384,17.1513,1892.3438],[-92.8471,17.1567,1920.324],[-92.8365,17.1569,1727.6798],[-92.8255,17.1539,1567.5422],[-92.8265,17.1614,1365.4531],[-92.8319,17.1624,1404.5649],[-92.8308,17.1644,1365.0227],[-92.8246,17.1624,1327.6852],[-92.8187,17.1732,1023.8147],[-92.8161,17.173,1018.2185],[-92.8115,17.1813,821.3075],[-92.8127,17.1857,983.2137],[-92.8036,17.1935,773.2518],[-92.8047,17.1966,770.8075],[-92.799,17.202,853.9954],[-92.8061,17.2023,913.8514],[-92.8063,17.2056,900.8208],[-92.7926,17.2054,830.1592],[-92.7912,17.2039,830.1592],[-92.793,17.2013,868.6929],[-92.7844,17.1914,648.0383],[-92.7923,17.1875,530.0002],[-92.7892,17.1839,516.1207],[-92.781,17.1814,476.168],[-92.7795,17.1882,557.9915],[-92.7773,17.1905,611.3473],[-92.7837,17.2133,1190.8097],[-92.7826,17.2146,1204.2058],[-92.7931,17.2168,964.5312],[-92.7936,17.2157,964.5312],[-92.7975,17.2182,868.9476],[-92.7971,17.2207,871.2784],[-92.7939,17.2199,982.0399],[-92.7947,17.2222,825.2357],[-92.7929,17.2227,825.2357],[-92.793,17.2259,665.4341],[-92.7897,17.2213,872.9247],[-92.7869,17.2245,794.6124],[-92.7977,17.233,514.3995],[-92.8023,17.2327,632.6863],[-92.8036,17.2365,527.3582],[-92.8107,17.2365,519.9576],[-92.8141,17.2464,898.4401],[-92.8092,17.246,572.7828],[-92.8122,17.2628,877.5522],[-92.8161,17.2639,1005.5555],[-92.8127,17.2675,926.983],[-92.8138,17.2805,642.3668],[-92.8259,17.284,778.5273],[-92.8328,17.2925,803.0075],[-92.8338,17.2698,989.065],[-92.8322,17.2677,991.713],[-92.8541,17.2732,898.8658],[-92.8608,17.2765,922.8993],[-92.8529,17.278,768.2102],[-92.8641,17.2915,873.3098],[-92.8766,17.2996,1001.1511],[-92.8667,17.3013,1278.3967],[-92.8734,17.3081,1453.9624],[-92.8762,17.3159,1336.5842],[-92.9178,17.316,1838.4409]]]]}}