{"type":"Feature","properties":{"GID_2":"MEX.30.203_2","GID_0":"MEX","country":"México","GID_1":"MEX.30_1","province":"Veracruz","NL_NAME_1":"NA","county":"Xico","VARNAME_2":"NA","NL_NAME_2":"NA","TYPE_2":"Município","ENGTYPE_2":"Municipality","CC_2":"NA","HASC_2":"NA","name":"Xico.county"},
"geometry":{"type": "MultiPolygon","coordinates": [[[[-97.1478,19.4478,3036.4097],[-97.1483,19.4456,2986.4678],[-97.1397,19.4349,2715.2939],[-97.1395,19.4305,2663.8169],[-97.1372,19.4289,2624.6968],[-97.1341,19.4224,2533.6321],[-97.1203,19.4228,2349.4895],[-97.1198,19.4216,2357.3245],[-97.1152,19.4221,2305.5449],[-97.1105,19.4196,2153.0872],[-97.0983,19.4227,1966.7269],[-97.097,19.4214,1940.7449],[-97.0939,19.4229,1918.9685],[-97.0917,19.4221,1919.1157],[-97.0903,19.4189,1893.0217],[-97.0913,19.4175,1853.1511],[-97.0816,19.4154,1821.3765],[-97.0657,19.4006,1554.787],[-97.0589,19.3988,1511.083],[-97.0574,19.3949,1514.748],[-97.0427,19.3961,1389.51],[-97.0412,19.3979,1392.5624],[-97.04,19.393,1363.3851],[-97.0371,19.3915,1345.0643],[-97.0308,19.3915,1336.2927],[-97.0202,19.3967,1290.6804],[-97.0116,19.3933,1298.2577],[-97.0092,19.3962,1229.401],[-97.0042,19.3974,1247.053],[-97.0025,19.3963,1229.9174],[-96.9996,19.4002,1236.9951],[-96.9934,19.4008,1155.67],[-96.9884,19.4035,1102.9214],[-96.9842,19.402,1084.2747],[-96.9806,19.4025,1070.4684],[-96.9791,19.3985,1115.9624],[-96.9706,19.4018,1010.8107],[-96.97,19.4002,1041.064],[-96.9649,19.3993,1022.7908],[-96.9642,19.3978,1002.8177],[-96.9601,19.3995,987.9816],[-96.9569,19.3964,968.5583],[-96.9527,19.3961,975.8738],[-96.9496,19.394,957.4742],[-96.9462,19.3948,946.4263],[-96.9448,19.3929,918.4339],[-96.9417,19.3934,921.9157],[-96.9308,19.3898,918.5107],[-96.9278,19.3879,918.8194],[-96.9263,19.3837,891.1487],[-96.9216,19.3845,896.2877],[-96.9182,19.3826,876.9902],[-96.9182,19.3811,829.9753],[-96.9118,19.3784,813.1597],[-96.9112,19.3759,777.5787],[-96.9073,19.3751,760.7708],[-96.9049,19.3704,707.9642],[-96.9055,19.3687,741.5535],[-96.9009,19.3688,714.5415],[-96.9009,19.3704,714.5415],[-96.8949,19.3722,693.5599],[-96.8963,19.3761,691.6965],[-96.9013,19.3776,798.7021],[-96.9046,19.3769,809.089],[-96.9078,19.3787,826.0995],[-96.909,19.3813,829.3762],[-96.9082,19.384,879.27],[-96.913,19.3849,841.4181],[-96.9164,19.3871,848.7148],[-96.9162,19.3911,863.7935],[-96.9224,19.3931,889.5478],[-96.9226,19.3965,909.4906],[-96.9259,19.3982,922.799],[-96.9264,19.4031,933.7274],[-96.9284,19.4014,946.554],[-96.931,19.4026,939.1354],[-96.9328,19.4065,999.3365],[-96.9387,19.409,995.7559],[-96.95,19.4225,1054.4624],[-96.9572,19.4249,1064.3268],[-96.9596,19.4243,1073.1204],[-96.9595,19.4258,1075.8926],[-96.9611,19.4268,1072.9924],[-96.9616,19.4257,1072.9924],[-96.9631,19.4285,1079.845],[-96.9635,19.4267,1079.5442],[-96.9665,19.4274,1093.8535],[-96.9741,19.434,1147.7889],[-96.9766,19.4396,1150.9136],[-96.981,19.4387,1231.8339],[-96.981,19.4405,1217.2213],[-96.9829,19.4385,1234.1044],[-96.9856,19.442,1256.8369],[-96.9892,19.4403,1206.7794],[-96.9919,19.4409,1207.3972],[-96.9914,19.4424,1240.2222],[-96.9933,19.4432,1258.7429],[-96.992,19.4434,1240.2222],[-96.9925,19.4447,1265.8281],[-96.9958,19.446,1258.0164],[-96.9955,19.4486,1266.3778],[-96.9983,19.4497,1290.3164],[-96.997,19.4592,1395.593],[-96.999,19.4623,1303.0878],[-97.0101,19.4628,1352.8813],[-97.0123,19.4657,1388.3954],[-97.0161,19.4672,1429.4955],[-97.0192,19.4662,1452.0193],[-97.0229,19.469,1499.9064],[-97.0274,19.468,1544.0599],[-97.0431,19.4759,1714.8706],[-97.045,19.4803,1769.5002],[-97.0497,19.4825,1882.1339],[-97.0509,19.4891,2066.3599],[-97.0563,19.4937,2244.103],[-97.057,19.4968,2303.854],[-97.0682,19.5033,2543.572],[-97.0726,19.5101,2728.6045],[-97.0765,19.5098,2770.2896],[-97.0831,19.5151,2830.2236],[-97.0912,19.5177,2897.4487],[-97.0926,19.5195,2907.0803],[-97.0998,19.52,2945.4067],[-97.1017,19.518,2936.1172],[-97.1013,19.5195,2945.4067],[-97.1071,19.5213,2969.9556],[-97.1068,19.523,2976.3989],[-97.1109,19.5178,3001.1907],[-97.1229,19.5192,3173.3516],[-97.1303,19.5155,3343.4297],[-97.1321,19.5121,3446.0474],[-97.1349,19.5116,3547.5149],[-97.1385,19.5082,3650.7222],[-97.1417,19.5007,3899.4856],[-97.1489,19.4902,3922.4722],[-97.1517,19.4772,4009.8601],[-97.1438,19.4588,3557.1394],[-97.1478,19.4478,3036.4097]]]]}}