{"type":"Feature","properties":{"GID_2":"MEX.14.68_2","GID_0":"MEX","country":"México","GID_1":"MEX.14_1","province":"Jalisco","NL_NAME_1":"NA","county":"Quitupan","VARNAME_2":"NA","NL_NAME_2":"NA","TYPE_2":"Município","ENGTYPE_2":"Municipality","CC_2":"NA","HASC_2":"NA","name":"Quitupan.county"},
"geometry":{"type": "MultiPolygon","coordinates": [[[[-102.7313,19.8989,2160.7649],[-102.7448,19.9079,2333.8252],[-102.7706,19.9299,2313.6243],[-102.784,19.9512,1894.0693],[-102.7753,19.9586,1779.8666],[-102.7769,19.9602,1748.4702],[-102.7799,19.96,1764.5154],[-102.7903,19.9511,1867.8245],[-102.794,19.9503,1899.6436],[-102.803,19.9526,1965.6809],[-102.8057,19.9572,1979.9967],[-102.8077,19.9562,1980.4143],[-102.8093,19.9591,1993.7246],[-102.8185,19.9625,2065.1953],[-102.8191,19.9612,2063.6606],[-102.822,19.9646,2085.1155],[-102.8247,19.963,2134.5557],[-102.8467,19.9683,2315.0933],[-102.8565,19.968,2428.0879],[-102.8614,19.9698,2479.6104],[-102.8598,19.9714,2554.7461],[-102.8638,19.9706,2493.5764],[-102.8746,19.9745,2294.6592],[-102.8788,19.9742,2207.572],[-102.882,19.9758,2189.4993],[-102.8821,19.9696,2214.4468],[-102.8856,19.9702,2225.4988],[-102.9026,19.9669,2395.8145],[-102.9089,19.9707,2321.229],[-102.9098,19.9583,2423.4963],[-102.9139,19.9477,2193.1814],[-102.9162,19.946,2158.0645],[-102.9194,19.9389,2033.9113],[-102.9214,19.9265,1859.8566],[-102.9194,19.9265,1827.2654],[-102.9201,19.9239,1863.1046],[-102.9173,19.9208,1915.3573],[-102.9195,19.913,2085.6777],[-102.918,19.9116,2089.7808],[-102.9198,19.907,2143.6536],[-102.9183,19.9058,2107.5183],[-102.9188,19.9011,2174.0732],[-102.9152,19.8991,2212.4216],[-102.9238,19.8968,2238.6816],[-102.9257,19.8946,2273.6841],[-102.9237,19.8924,2309.6248],[-102.9281,19.8908,2381.3618],[-102.9391,19.8918,2555.5664],[-102.9397,19.89,2601.0044],[-102.948,19.8864,2617.1284],[-102.951,19.8826,2504.6011],[-102.9548,19.8823,2555.6965],[-102.9527,19.8798,2557.2583],[-102.9534,19.877,2530.3945],[-102.9583,19.8736,2542.9497],[-102.9623,19.8682,2414.6826],[-102.9675,19.8673,2477.3621],[-102.974,19.869,2532.9771],[-102.9783,19.8668,2356.8511],[-102.9789,19.8681,2382.9917],[-102.979,19.8633,2287.8989],[-102.9759,19.8642,2341.8235],[-102.9813,19.8612,2251.9832],[-102.9799,19.8587,2254.832],[-102.982,19.8595,2242.8564],[-102.978,19.8567,2246.2642],[-102.9797,19.8553,2205.6973],[-102.978,19.8552,2207.1763],[-102.979,19.8535,2166.584],[-102.977,19.8516,2154.209],[-102.9747,19.8522,2205.6267],[-102.9769,19.8487,2110.6284],[-102.9724,19.8462,2168.0825],[-102.9748,19.8451,2107.9343],[-102.9734,19.8425,2128.5037],[-102.979,19.8296,1942.3097],[-102.9733,19.8182,2193.7446],[-102.9858,19.8024,1993.7682],[-102.9793,19.7968,1830.7728],[-102.9715,19.7949,1996.0963],[-102.9682,19.7955,2191.4055],[-102.966,19.7939,2302.9495],[-102.9695,19.7842,2214.4883],[-102.9675,19.7798,2149.293],[-102.9633,19.7798,2064.6328],[-102.968,19.7727,1955.7078],[-102.9828,19.7671,1738.3401],[-102.9837,19.7588,1918.7501],[-102.9878,19.7515,1656.668],[-102.9823,19.7473,1822.4678],[-102.9707,19.7468,2242.0811],[-102.973,19.7427,2228.7979],[-102.9747,19.7331,2231.7334],[-102.9716,19.7317,2346.8694],[-102.9713,19.7287,2202.2349],[-102.9638,19.726,1908.1219],[-102.9589,19.7206,1748.0024],[-102.9632,19.7139,1576.8882],[-102.9614,19.7121,1680.1169],[-102.9642,19.7043,1577.5372],[-102.9644,19.6972,1428.4138],[-102.9568,19.6956,1503.7531],[-102.9524,19.6899,1605.9718],[-102.9498,19.69,1741.6414],[-102.95,19.6885,1655.3831],[-102.943,19.6807,1497.7145],[-102.9435,19.6775,1466.1813],[-102.9487,19.6723,1448.8545],[-102.9516,19.6625,1333.7269],[-102.9549,19.6584,1279.4948],[-102.9595,19.659,1273.6399],[-102.961,19.661,1303.5842],[-102.9662,19.6608,1268.4297],[-102.9666,19.6585,1233.1835],[-102.9686,19.6574,1311.598],[-102.9674,19.6552,1202.663],[-102.9703,19.6545,1194.7374],[-102.9677,19.65,1183.9835],[-102.9685,19.647,1168.6874],[-102.97,19.6468,1168.6874],[-102.9696,19.6384,1173.1777],[-102.9731,19.6352,1148.5433],[-102.9705,19.6297,1135.0625],[-102.972,19.6287,1130.7382],[-102.9665,19.6254,1126.4775],[-102.9685,19.6212,1148.9001],[-102.9666,19.6173,1137.8252],[-102.9665,19.6124,1150.5154],[-102.9622,19.6154,1173.2228],[-102.9614,19.623,1217.1086],[-102.9579,19.6232,1200.6313],[-102.9566,19.6217,1246.9917],[-102.9553,19.6252,1230.6976],[-102.949,19.6316,1330.3655],[-102.9478,19.6296,1395.2521],[-102.9402,19.6327,1436.0361],[-102.9303,19.6285,1607.2274],[-102.9292,19.6341,1644.6243],[-102.9252,19.6354,1551.4948],[-102.9203,19.6322,1392.9666],[-102.9166,19.6329,1332.3784],[-102.9116,19.6289,1300.4644],[-102.9108,19.6253,1273.0913],[-102.9086,19.6254,1319.7673],[-102.9003,19.6364,1491.452],[-102.8967,19.636,1541.9524],[-102.8946,19.6314,1548.4445],[-102.8927,19.6309,1476.052],[-102.8866,19.6304,1382.8063],[-102.8814,19.6341,1117.556],[-102.8824,19.6297,1105.1406],[-102.8788,19.6269,1110.1221],[-102.8758,19.631,1237.735],[-102.8762,19.6338,1149.7938],[-102.869,19.6391,1297.1104],[-102.8667,19.6508,1341.5769],[-102.8587,19.6557,1475.4749],[-102.8547,19.6553,1561.0947],[-102.8518,19.6572,1626.1185],[-102.8366,19.654,1089.6189],[-102.8288,19.6571,981.6171],[-102.8232,19.6505,843.9324],[-102.8206,19.6515,859.8151],[-102.8233,19.6561,860.7839],[-102.8229,19.6573,920.0331],[-102.8203,19.6568,877.7836],[-102.82,19.6614,868.3987],[-102.8106,19.6612,956.9236],[-102.8001,19.6644,1178.0061],[-102.7927,19.6626,1622.3356],[-102.7912,19.6681,1521.9921],[-102.7927,19.6707,1509.0255],[-102.7912,19.6732,1514.7911],[-102.7924,19.6746,1518.969],[-102.7997,19.6731,1371.4249],[-102.8004,19.6749,1426.4974],[-102.8057,19.6748,1479.7767],[-102.7976,19.6781,1661.7126],[-102.7955,19.6847,1610.0811],[-102.7906,19.6869,1635.8971],[-102.7922,19.6884,1695.7578],[-102.7853,19.6948,1489.9955],[-102.7822,19.6952,1308.2449],[-102.7831,19.6982,1271.5513],[-102.7805,19.7043,1351.6107],[-102.7822,19.7072,1330.282],[-102.7855,19.7082,1380.5782],[-102.7856,19.7125,1399.9027],[-102.7922,19.7177,1467.3455],[-102.7958,19.7284,1590.7606],[-102.7983,19.7288,1623.2896],[-102.8049,19.7347,1728.6715],[-102.8049,19.7383,1745.3431],[-102.8069,19.74,1776.0897],[-102.8108,19.741,1777.4084],[-102.8094,19.7434,1801.5464],[-102.8026,19.7466,1863.1338],[-102.8039,19.7522,1903.1653],[-102.8052,19.7529,1903.1653],[-102.8163,19.7499,1701.6667],[-102.8166,19.7519,1716.9443],[-102.8086,19.7596,1850.2106],[-102.8132,19.7664,1902.8853],[-102.8118,19.774,2042.5159],[-102.8128,19.776,2028.6003],[-102.8195,19.7779,2141.0791],[-102.7923,19.8141,2087.106],[-102.7872,19.8136,2063.9065],[-102.785,19.8154,1981.6606],[-102.7818,19.813,1956.9065],[-102.7747,19.8127,1843.5504],[-102.7698,19.8095,1795.7957],[-102.7627,19.8101,1760.2473],[-102.7591,19.808,1752.3384],[-102.7552,19.814,1749.2195],[-102.7506,19.8143,1736.9695],[-102.75,19.8127,1735.6974],[-102.7452,19.812,1737.1755],[-102.7446,19.8142,1727.9],[-102.7394,19.8158,1711.8823],[-102.7392,19.8177,1720.0537],[-102.745,19.8248,1743.7477],[-102.7452,19.828,1751.8943],[-102.7485,19.829,1771.2599],[-102.7496,19.8321,1781.4717],[-102.7533,19.8341,1799.3323],[-102.7493,19.8345,1815.4521],[-102.7431,19.8446,1914.3536],[-102.7351,19.8473,1784.7477],[-102.7343,19.8504,1775.7793],[-102.7304,19.8532,1759.4423],[-102.7349,19.8604,1711.89],[-102.7356,19.8674,1674.3882],[-102.7337,19.8698,1661.7328],[-102.7354,19.8722,1634.6559],[-102.7348,19.8745,1632.5411],[-102.7425,19.8788,1618.6056],[-102.7398,19.8858,1636.9797],[-102.7325,19.8904,1737.832],[-102.7313,19.8989,2160.7649]]]]}}