{"type":"Feature","properties":{"GID_2":"MEX.20.1_2","GID_0":"MEX","country":"México","GID_1":"MEX.20_1","province":"Oaxaca","NL_NAME_1":"NA","county":"Abejones","VARNAME_2":"NA","NL_NAME_2":"NA","TYPE_2":"Município","ENGTYPE_2":"Municipality","CC_2":"NA","HASC_2":"NA","name":"Abejones.county"},
"geometry":{"type": "MultiPolygon","coordinates": [[[[-96.62,17.5582,1094.6078],[-96.6211,17.5579,1141.1862],[-96.6214,17.5603,1103.3091],[-96.6197,17.567,1081.9316],[-96.6345,17.5615,1401.4813],[-96.6453,17.563,1735.4528],[-96.6586,17.5565,2256.0303],[-96.6688,17.5466,2320.7341],[-96.6967,17.5313,2982.1284],[-96.7155,17.5023,3011.7776],[-96.7122,17.4956,2951.083],[-96.7081,17.4922,2774.106],[-96.684,17.4874,2888.293],[-96.6721,17.4875,2638.1094],[-96.668,17.4953,2432.8521],[-96.6602,17.5003,2291.6685],[-96.6565,17.5064,2193.1404],[-96.6349,17.5065,2111.3535],[-96.6453,17.4987,2748.7749],[-96.6493,17.4876,2906.6997],[-96.6618,17.4756,2948.7129],[-96.655,17.4677,2866.0447],[-96.6409,17.461,2782.3147],[-96.6415,17.4445,2659.925],[-96.6342,17.4372,2445.8411],[-96.6449,17.427,1737.9486],[-96.6411,17.4272,1751.0155],[-96.6384,17.4239,1726.6844],[-96.6318,17.4225,1705.0142],[-96.6208,17.4157,1598.6267],[-96.6101,17.4129,1525.8773],[-96.5718,17.4129,1310.4403],[-96.5705,17.4198,1299.7314],[-96.5741,17.4267,1348.0049],[-96.5727,17.4357,1339.849],[-96.5773,17.4361,1349.0769],[-96.5792,17.4388,1337.2981],[-96.5787,17.4408,1267.5433],[-96.5828,17.4416,1328.2058],[-96.5808,17.4505,1262.4597],[-96.5786,17.4516,1293.3938],[-96.5769,17.4489,1274.1238],[-96.5715,17.4539,1236.7855],[-96.576,17.4532,1302.2269],[-96.585,17.4564,1231.2764],[-96.5821,17.4643,1215.9957],[-96.5865,17.4692,1218.5962],[-96.5851,17.4734,1218.4111],[-96.5881,17.4753,1239.4502],[-96.5848,17.479,1209.498],[-96.5856,17.483,1220.5538],[-96.5923,17.49,1189.7299],[-96.5971,17.4981,1175.2798],[-96.601,17.4997,1284.728],[-96.6019,17.5052,1290.0696],[-96.5982,17.5117,1158.3586],[-96.6034,17.5187,1163.0033],[-96.605,17.5268,1148.9863],[-96.607,17.5285,1150.3359],[-96.6115,17.528,1150.9116],[-96.6118,17.5331,1173.4883],[-96.6103,17.5338,1178.5385],[-96.6114,17.5387,1126.0323],[-96.6094,17.5415,1122.7098],[-96.6119,17.5433,1115.8672],[-96.6124,17.5461,1117.8413],[-96.6152,17.5473,1160.0372],[-96.6157,17.5511,1260.9147],[-96.6185,17.5547,1206.5955],[-96.6171,17.5577,1108.1672],[-96.62,17.5582,1094.6078]]]]}}