{"type":"Feature","properties":{"GID_2":"MEX.21.131_2","GID_0":"MEX","country":"México","GID_1":"MEX.21_1","province":"Puebla","NL_NAME_1":"NA","county":"SanJuanAtenco","VARNAME_2":"NA","NL_NAME_2":"NA","TYPE_2":"Município","ENGTYPE_2":"Municipality","CC_2":"NA","HASC_2":"NA","name":"San_Juan_Atenco.county"},
"geometry":{"type": "MultiPolygon","coordinates": [[[[-97.5686,19.111,2443.7969],[-97.5716,19.1107,2463.2021],[-97.573,19.1122,2468.8982],[-97.5742,19.1064,2529.9287],[-97.5823,19.0923,2424.5366],[-97.5865,19.0934,2421.7549],[-97.5834,19.0585,2414.7612],[-97.5855,19.0596,2414.1104],[-97.5965,19.0462,2420.1123],[-97.5993,19.048,2436.6787],[-97.6066,19.0361,2709.3291],[-97.6139,19.0362,2779.0283],[-97.6115,19.0286,2477.4648],[-97.6151,19.02,2406.3535],[-97.6146,19.0175,2398.4966],[-97.6187,19.0127,2374.5679],[-97.62,19.0077,2339.105],[-97.6138,19.0117,2406.4082],[-97.6105,19.0112,2421.6016],[-97.6106,19.0129,2413.8364],[-97.6034,19.012,2684.2693],[-97.5991,19.0183,2768.0706],[-97.5919,19.0181,2821.0466],[-97.5878,19.0025,2477.1509],[-97.5895,18.9977,2434.0693],[-97.5852,18.9966,2482.6282],[-97.5822,18.9979,2487.9619],[-97.578,19.0034,2588.2271],[-97.5748,19.004,2738.6589],[-97.5704,19.0025,2813.6528],[-97.5674,19.0153,2460.7478],[-97.5612,19.0189,2423.0408],[-97.5606,19.017,2425.9294],[-97.5626,19.0158,2428.1323],[-97.5617,19.0149,2434.6794],[-97.56,19.0163,2425.9294],[-97.5526,19.0064,2429.1208],[-97.5494,19.0057,2426.8137],[-97.5479,19.0004,2428.8879],[-97.5444,18.9987,2429.1804],[-97.5343,18.9872,2432.5669],[-97.5286,18.9836,2433.2939],[-97.5233,18.9826,2444.1357],[-97.5192,18.9853,2441.4558],[-97.5174,18.9912,2446.6575],[-97.5169,19.0061,2451.041],[-97.5256,19.0066,2442.3379],[-97.5247,19.0164,2446.9453],[-97.5278,19.0184,2442.8208],[-97.5095,19.04,2480.6177],[-97.5082,19.0472,2486.5515],[-97.5163,19.0556,2473.5549],[-97.5138,19.0595,2476.9106],[-97.5073,19.053,2486.9229],[-97.5045,19.0527,2492.4966],[-97.5047,19.0509,2492.2549],[-97.5019,19.0506,2498.1628],[-97.5023,19.048,2497.1875],[-97.4995,19.0474,2499.897],[-97.4921,19.039,2509.5269],[-97.474,19.0479,2548.1963],[-97.479,19.0604,2539.3003],[-97.4871,19.0605,2522.7644],[-97.4904,19.0589,2519.8066],[-97.4952,19.0677,2508.0532],[-97.5047,19.0667,2494.4543],[-97.5279,19.08,2479.0854],[-97.5295,19.0814,2476.9131],[-97.5287,19.0833,2479.9102],[-97.533,19.084,2483.7585],[-97.533,19.0858,2491.1479],[-97.5398,19.0869,2451.8699],[-97.5384,19.0927,2445.7947],[-97.5408,19.093,2440.9353],[-97.5381,19.0992,2430.8247],[-97.5686,19.111,2443.7969]]]]}}