{"type": "Feature","bbox": [-96.3633,17.292,-96.2442,17.3682],"geometry": {"type": "MultiPolygon","coordinates": [[[[-96.2442,17.3126,1736.2244],[-96.2472,17.3163,1727.7448],[-96.2469,17.3196,1648.8223],[-96.2546,17.3362,1134.672],[-96.258,17.3333,1175.1205],[-96.2639,17.3329,1214.6895],[-96.2734,17.3401,1735.5535],[-96.2771,17.3411,2024.0209],[-96.2734,17.3438,1898.5746],[-96.2758,17.3523,1874.928],[-96.2711,17.3582,1790.5787],[-96.2734,17.3603,1876.0836],[-96.2774,17.3528,1904.7402],[-96.2805,17.3574,1790.6067],[-96.2873,17.3626,1483.5273],[-96.3048,17.3622,1233.644],[-96.3132,17.3682,918.5967],[-96.3187,17.3644,1013.9298],[-96.316,17.3582,983.8518],[-96.3172,17.3546,1046.7032],[-96.3151,17.3533,1043.0909],[-96.3144,17.3503,1044.9788],[-96.311,17.3485,1072.5852],[-96.3147,17.346,1083.9886],[-96.3167,17.3472,1121.2043],[-96.3202,17.344,1215.5522],[-96.3162,17.3418,1152.9507],[-96.3153,17.3381,1211.1475],[-96.3233,17.3344,1875.491],[-96.3281,17.3361,2056.5371],[-96.3335,17.3331,1994.645],[-96.3419,17.3321,2245.0579],[-96.3633,17.3123,2473.4097],[-96.3571,17.3066,2510.6584],[-96.3543,17.3009,2540.2073],[-96.3536,17.292,2679.0117],[-96.3402,17.301,2486.6362],[-96.2816,17.297,2285.8279],[-96.2725,17.2929,2076.6123],[-96.27,17.2947,2127.5334],[-96.2667,17.3021,2301.8765],[-96.2532,17.3078,1560.9963],[-96.254,17.3156,1469.2666],[-96.2442,17.3126,1736.2244]]]]}
,"properties": {"GID_2": "MEX.20.206_2","GID_0": "MEX","country": "México","GID_1": "MEX.20_1","province": "Oaxaca","NL_NAME_1": "NA","county": "SanJuanJuquilaVijanos","VARNAME_2": "NA","NL_NAME_2": "NA","TYPE_2": "Município","ENGTYPE_2": "Municipality","CC_2": "NA","HASC_2": "NA","name": "San_Juan_Juquila_Vijanos.county","area_km2": 56.63262,"hist_schema_id": "Elevation0-9000","hist_area_km2": {"925": 0.04047,"950": 0.08095,"975": 0.04047,"1000": 0.16189,"1025": 0.06071,"1050": 0.16189,"1075": 0.14166,"1100": 0.08095,"1125": 0.3238,"1150": 0.08095,"1175": 0.22262,"1200": 0.48571,"1225": 0.48572,"1250": 0.44525,"1275": 0.64765,"1300": 0.60717,"1325": 0.66789,"1350": 0.64765,"1375": 0.70839,"1400": 0.82981,"1425": 0.80957,"1450": 1.01197,"1475": 0.89055,"1500": 0.931,"1525": 1.17387,"1550": 1.01196,"1575": 0.95126,"1600": 1.21437,"1625": 1.29535,"1650": 1.1739,"1675": 1.39655,"1700": 1.23465,"1725": 1.19415,"1750": 1.53824,"1775": 0.97152,"1800": 1.41681,"1825": 1.65971,"1850": 1.2751,"1875": 1.41681,"1900": 1.57872,"1925": 1.8014,"1950": 1.78117,"1975": 1.74067,"2000": 1.72045,"2025": 1.41685,"2050": 1.17396,"2075": 1.25492,"2100": 0.95135,"2125": 1.25498,"2150": 1.03233,"2175": 1.03234,"2200": 0.85016,"2225": 0.72872,"2250": 0.64776,"2275": 1.13357,"2300": 0.87041,"2325": 0.9109,"2350": 0.80969,"2375": 0.82992,"2400": 0.72872,"2425": 0.50606,"2450": 0.50606,"2475": 0.30364,"2500": 0.2834,"2525": 0.24291,"2550": 0.18219,"2575": 0.26316,"2600": 0.1417,"2625": 0.1417,"2650": 0.12146,"2675": 0.06073,"2725": 0.02024,"2750": 0.12146}}}