{"type":"Feature","properties":{"GID_2":"MEX.21.19_2","GID_0":"MEX","country":"México","GID_1":"MEX.21_1","province":"Puebla","NL_NAME_1":"NA","county":"Atlequizayan","VARNAME_2":"NA","NL_NAME_2":"NA","TYPE_2":"Município","ENGTYPE_2":"Municipality","CC_2":"NA","HASC_2":"NA","name":"Atlequizayan.county"},
"geometry":{"type": "MultiPolygon","coordinates": [[[[-97.623,20.0438,789.2504],[-97.6268,20.0454,823.2524],[-97.6325,20.0421,883.348],[-97.6354,20.0383,858.071],[-97.6387,20.0288,965.6143],[-97.6367,20.0279,924.7961],[-97.6378,20.0228,998.7448],[-97.64,20.0219,1038.9719],[-97.6317,20.0122,790.1603],[-97.6351,20.0139,834.6265],[-97.6399,20.0138,867.3425],[-97.6394,20.009,985.5643],[-97.6433,20.0022,1093.2083],[-97.6306,19.9968,1121.576],[-97.6385,19.9904,556.9869],[-97.6356,19.9882,509.614],[-97.6276,19.9864,492.7378],[-97.6227,19.9881,477.4966],[-97.6203,19.991,481.7808],[-97.6203,19.9933,473.9511],[-97.6154,20.0017,472.4026],[-97.6166,20.0162,535.26],[-97.6125,20.0159,387.4997],[-97.6108,20.0188,367.0869],[-97.6167,20.0259,546.3801],[-97.6196,20.0235,775.231],[-97.621,20.0335,782.4573],[-97.6195,20.0388,842.5176],[-97.6249,20.0417,785.2207],[-97.623,20.0438,789.2504]]]]}}