{"type":"Feature","properties":{"GID_2":"MEX.22.13_2","GID_0":"MEX","country":"México","GID_1":"MEX.22_1","province":"Querétaro","NL_NAME_1":"NA","county":"PinaldeAmoles","VARNAME_2":"NA","NL_NAME_2":"NA","TYPE_2":"Município","ENGTYPE_2":"Municipality","CC_2":"NA","HASC_2":"NA","name":"Pinalde_Amoles.county"},
"geometry":{"type": "MultiPolygon","coordinates": [[[[-99.6934,21.2359,2474.2163],[-99.6835,21.2219,2650.4329],[-99.686,21.1982,2852.6462],[-99.7158,21.1828,2896.6157],[-99.7143,21.1746,2753.4502],[-99.6941,21.138,2949.1658],[-99.7012,21.1186,2647.7058],[-99.6877,21.1171,2761.5369],[-99.688,21.0984,2448.4324],[-99.692,21.0806,2174.8567],[-99.6764,21.0751,1969.3068],[-99.6853,21.0691,1832.9126],[-99.6937,21.0221,1305.9526],[-99.6568,21.0152,1785.4022],[-99.6669,21.0026,1379.7654],[-99.6497,20.9849,1536.774],[-99.6395,20.9852,1174.2214],[-99.6231,20.9804,1358.001],[-99.6216,20.9824,1395.3325],[-99.6164,20.9833,1416.5312],[-99.6091,20.9797,1556.5906],[-99.6034,20.9815,1762.8303],[-99.5933,20.9804,1946.4399],[-99.5894,20.9829,2178.7993],[-99.5859,20.9829,2232.4133],[-99.575,20.9803,2159.7664],[-99.5721,20.978,2189.8818],[-99.5649,20.9785,2348.2539],[-99.562,20.9749,2336.3484],[-99.5596,20.9772,2130.8357],[-99.5442,20.9804,1673.4716],[-99.5413,20.9835,1508.95],[-99.5375,20.9833,1439.1819],[-99.5298,20.9872,1302.1818],[-99.5269,20.9933,1180.2883],[-99.5159,20.9994,1037.5869],[-99.5171,21.0046,1019.2941],[-99.5159,21.008,991.6687],[-99.5108,21.0121,911.8615],[-99.5081,21.0193,877.2107],[-99.5096,21.0238,896.6686],[-99.5048,21.0232,864.569],[-99.5022,21.0248,899.7523],[-99.5038,21.0264,853.1364],[-99.5083,21.0261,977.994],[-99.5046,21.0305,914.2406],[-99.5039,21.0341,982.939],[-99.5003,21.0344,857.1749],[-99.4902,21.0313,851.8513],[-99.4891,21.0399,843.1833],[-99.482,21.0386,845.806],[-99.482,21.0411,859.4586],[-99.4861,21.0429,816.9587],[-99.4771,21.0461,796.0346],[-99.4786,21.0488,803.3778],[-99.4831,21.0505,799.9568],[-99.4829,21.0518,799.9568],[-99.4735,21.0517,790.8072],[-99.4749,21.0556,850.7777],[-99.4691,21.0561,832.3631],[-99.4671,21.0592,813.5188],[-99.4572,21.064,786.5242],[-99.4503,21.0661,836.1795],[-99.4479,21.0648,770.2242],[-99.4451,21.0695,767.7646],[-99.4419,21.0677,779.1249],[-99.4397,21.0689,748.6654],[-99.4406,21.075,741.3589],[-99.4378,21.0761,800.8159],[-99.4356,21.0817,745.1203],[-99.4388,21.0849,733.0774],[-99.4379,21.0898,740.6559],[-99.4364,21.0902,732.9014],[-99.4345,21.0874,733.7426],[-99.432,21.0963,796.4934],[-99.4292,21.0985,736.625],[-99.4316,21.1016,860.3782],[-99.4302,21.1032,748.3019],[-99.4403,21.1147,1076.1722],[-99.4463,21.1093,1321.6139],[-99.4531,21.106,988.1754],[-99.466,21.1144,1226.2892],[-99.468,21.1207,1712.6268],[-99.4624,21.1206,1504.8704],[-99.4636,21.1245,1622.9703],[-99.4673,21.1239,1623.4749],[-99.4671,21.1258,1548.3123],[-99.4705,21.127,1608.9907],[-99.4735,21.1234,1746.9988],[-99.4782,21.1279,1435.5376],[-99.4806,21.1269,1535.1918],[-99.4834,21.1305,1423.7522],[-99.4869,21.1283,1470.2871],[-99.4861,21.1353,1337.4507],[-99.4908,21.1394,1221.2379],[-99.4939,21.1383,1374.7633],[-99.4934,21.1406,1302.3896],[-99.4909,21.1395,1292.7782],[-99.4894,21.1436,1218.4441],[-99.4921,21.1455,1209.7349],[-99.4934,21.1421,1261.666],[-99.4988,21.1508,1069.8419],[-99.4945,21.1493,1081.3939],[-99.4926,21.1549,1047.0398],[-99.4987,21.1524,1045.3452],[-99.4965,21.1556,1197.9059],[-99.4976,21.1583,1183.8103],[-99.5104,21.1582,1281.416],[-99.509,21.161,1243.5461],[-99.5099,21.1619,1167.9137],[-99.508,21.1628,1191.7291],[-99.5069,21.1614,1265.3923],[-99.5008,21.1711,1009.6639],[-99.503,21.1705,1079.4813],[-99.5079,21.1727,960.5762],[-99.511,21.167,1083.79],[-99.5095,21.1659,1083.79],[-99.5103,21.1614,1167.9137],[-99.5136,21.1608,1245.8206],[-99.5145,21.1642,1203.7317],[-99.5233,21.1609,1411.53],[-99.5241,21.1615,1413.1632],[-99.5212,21.166,1245.3794],[-99.5239,21.1651,1345.4893],[-99.5234,21.164,1319.125],[-99.5263,21.1647,1371.2169],[-99.5273,21.1672,1453.2255],[-99.5337,21.161,1699.1876],[-99.5367,21.1665,1739.5891],[-99.5495,21.1802,1725.4263],[-99.5396,21.1874,1338.2317],[-99.5327,21.1771,1234.2986],[-99.5152,21.1871,1046.438],[-99.5147,21.1902,1088.5747],[-99.5115,21.1879,1043.3611],[-99.5095,21.1889,1033.6084],[-99.5128,21.1938,1161.3918],[-99.5164,21.196,1091.3691],[-99.5073,21.2124,1374.8744],[-99.5079,21.2152,1420.4534],[-99.5233,21.2228,1459.9526],[-99.5221,21.2315,1605.8795],[-99.5271,21.2407,1676.3466],[-99.5299,21.251,1656.4354],[-99.5251,21.254,1480.2483],[-99.523,21.2509,1409.201],[-99.5201,21.2539,1538.2373],[-99.5233,21.2635,1617.1995],[-99.5273,21.2665,1593.3531],[-99.5365,21.2867,1458.7897],[-99.5397,21.287,1433.2911],[-99.542,21.2899,1448.828],[-99.5465,21.2868,1522.895],[-99.5524,21.2914,1509.1814],[-99.5754,21.2867,1783.8442],[-99.5901,21.2974,1686.3491],[-99.5817,21.302,1811.8184],[-99.5796,21.3049,1850.1744],[-99.6006,21.3306,1572.7471],[-99.5845,21.3448,1170.281],[-99.5822,21.3453,1164.2759],[-99.5891,21.3522,1085.9398],[-99.5993,21.3581,613.9146],[-99.6075,21.3502,700.2439],[-99.6127,21.3496,678.886],[-99.6411,21.3379,791.7971],[-99.6374,21.3358,830.5873],[-99.633,21.3285,925.6483],[-99.6353,21.3187,933.0304],[-99.632,21.3178,1074.1145],[-99.6396,21.3158,898.7524],[-99.6417,21.3053,816.905],[-99.6468,21.2993,881.7172],[-99.6509,21.3,878.4667],[-99.6529,21.2956,883.376],[-99.6562,21.2959,919.6677],[-99.662,21.2927,950.3984],[-99.6678,21.2919,1051.1832],[-99.6684,21.289,1021.2606],[-99.6705,21.2881,983.7151],[-99.6736,21.2969,1667.6265],[-99.678,21.2888,1013.6447],[-99.6988,21.2675,1709.3005],[-99.6987,21.2408,2578.3428],[-99.6934,21.2359,2474.2163]]]]}}