{"type": "Feature","bbox": [-97.6844,19.7896,-97.6133,19.9164],"geometry": {"type": "MultiPolygon","coordinates": [[[[-97.6822,19.8091,1762.3883],[-97.6802,19.8073,1736.635],[-97.682,19.8043,1744.7212],[-97.6844,19.8034,1752.0864],[-97.684,19.8008,1760.1765],[-97.6817,19.799,1759.1288],[-97.6823,19.7976,1756.8386],[-97.6669,19.7896,2198.4795],[-97.667,19.7919,2198.9456],[-97.6616,19.7917,2038.017],[-97.66,19.7935,1924.9092],[-97.6449,19.7924,2460.2368],[-97.6443,19.8035,2489.8992],[-97.6326,19.8078,1975.2767],[-97.6314,19.8124,1934.29],[-97.6242,19.8159,2083.8337],[-97.6232,19.8189,2112.0291],[-97.6253,19.8196,2164.6279],[-97.6262,19.8236,2125.1567],[-97.6244,19.8323,2036.1967],[-97.6158,19.8578,2173.0957],[-97.6133,19.8592,2197.0537],[-97.6203,19.8692,2080.7153],[-97.6212,19.8794,1814.2363],[-97.6258,19.8815,1744.0094],[-97.6279,19.887,1563.7571],[-97.6249,19.8899,1561.9269],[-97.6175,19.8905,1542.464],[-97.6195,19.8924,1531.0653],[-97.616,19.8943,1512.3568],[-97.6187,19.9007,1517.826],[-97.6161,19.9069,1554.4419],[-97.6171,19.9113,1401.677],[-97.6157,19.9164,1380.2487],[-97.6195,19.9151,1388.2878],[-97.6308,19.9058,1398.1802],[-97.6362,19.91,1411.3954],[-97.6401,19.9086,1427.7288],[-97.6418,19.9047,1490.6074],[-97.648,19.9036,1512.6798],[-97.6499,19.9005,1510.1743],[-97.65,19.8966,1500.0197],[-97.6482,19.8946,1528.6818],[-97.6501,19.8899,1513.9668],[-97.6544,19.8896,1543.8423],[-97.6601,19.883,1556.262],[-97.6648,19.8833,1549.3464],[-97.6629,19.8818,1555.3319],[-97.6656,19.878,1581.6185],[-97.6639,19.8765,1580.8672],[-97.6659,19.8706,1608.0707],[-97.6651,19.865,1580.4045],[-97.6673,19.8657,1610.3826],[-97.6699,19.8633,1612.2168],[-97.6729,19.8633,1619.1361],[-97.6777,19.8562,1653.3428],[-97.6715,19.8448,1648.7059],[-97.6733,19.8345,1690.2534],[-97.6723,19.8326,1700.9653],[-97.6738,19.8302,1693.916],[-97.6721,19.8233,1706.8209],[-97.6748,19.8224,1741.6915],[-97.6773,19.8188,1723.8025],[-97.6738,19.8146,1758.4243],[-97.6766,19.814,1739.573],[-97.6822,19.8091,1762.3883]]]]}
,"properties": {"GID_2": "MEX.21.200_2","GID_0": "MEX","country": "México","GID_1": "MEX.21_1","province": "Puebla","NL_NAME_1": "NA","county": "Xochiapulco","VARNAME_2": "NA","NL_NAME_2": "NA","TYPE_2": "Município","ENGTYPE_2": "Municipality","CC_2": "NA","HASC_2": "NA","name": "Xochiapulco.county","area_km2": 59.98763,"hist_schema_id": "Elevation0-9000","hist_area_km2": {"1375": 0.09967,"1400": 0.81734,"1425": 0.21929,"1450": 0.11961,"1475": 0.35884,"1500": 0.39872,"1525": 0.63796,"1550": 1.25601,"1575": 1.79438,"1600": 1.8742,"1625": 2.01382,"1650": 2.0338,"1675": 2.27319,"1700": 2.57233,"1725": 2.5924,"1750": 3.64948,"1775": 3.76933,"1800": 3.31055,"1825": 3.05134,"1850": 2.7721,"1875": 2.53287,"1900": 2.47307,"1925": 2.25374,"1950": 2.13404,"1975": 1.5557,"2000": 1.6355,"2025": 1.99455,"2050": 2.11425,"2075": 1.27654,"2100": 0.97737,"2125": 0.95737,"2150": 0.75797,"2175": 0.7779,"2200": 0.59843,"2225": 0.39897,"2250": 0.37901,"2275": 0.21942999999999999,"2300": 0.17953,"2325": 0.13964,"2350": 0.29923,"2375": 0.17954,"2400": 0.15959,"2425": 0.11969,"2450": 0.21944,"2475": 0.0399}}}