{"type": "Feature","bbox": [-96.8735,19.7088,-96.8341,19.7769],"geometry": {"type": "MultiPolygon","coordinates": [[[[-96.8345,19.7146,1902.1812],[-96.8358,19.7187,1955.1648],[-96.8341,19.7228,1972.4216],[-96.8381,19.7199,1960.4514],[-96.8395,19.7281,1970.0608],[-96.84,19.7368,2011.4692],[-96.8379,19.7392,2068.1785],[-96.8417,19.7395,2060.5938],[-96.8431,19.7424,2038.8167],[-96.8412,19.7443,2024.5137],[-96.8413,19.7475,1991.6299],[-96.8373,19.7508,1975.7594],[-96.8409,19.7637,1385.6862],[-96.847,19.7648,1303.1642],[-96.8534,19.7715,1069.8486],[-96.8553,19.7703,1111.3489],[-96.8595,19.7711,981.1149],[-96.8608,19.7729,972.7888],[-96.8601,19.7758,911.9667],[-96.862,19.7769,875.962],[-96.8642,19.7755,851.0204],[-96.8626,19.7696,1024.8485],[-96.8723,19.7694,954.5591],[-96.8715,19.7675,1005.1149],[-96.873,19.7631,1055.8763],[-96.8708,19.7571,1206.0546],[-96.873,19.7546,1185.5444],[-96.8735,19.7476,1395.1169],[-96.8704,19.7414,1469.0583],[-96.8664,19.739,1593.7808],[-96.8638,19.7345,1876.2698],[-96.8663,19.7287,1987.7981],[-96.8609,19.7309,1988.7311],[-96.8568,19.7284,1984.1333],[-96.8544,19.7314,1973.4459],[-96.8494,19.7309,1990.2751],[-96.8507,19.7288,2004.9042],[-96.8545,19.7284,1984.5173],[-96.856,19.7259,1964.11],[-96.8573,19.7147,1877.4492],[-96.8551,19.7135,1851.8787],[-96.8558,19.7088,1832.1877],[-96.8479,19.711,1897.0146],[-96.8482,19.7128,1923.8322],[-96.8345,19.7146,1902.1812]]]]}
,"properties": {"GID_2": "MEX.30.98_2","GID_0": "MEX","country": "México","GID_1": "MEX.30_1","province": "Veracruz","NL_NAME_1": "NA","county": "LanderoyCoss","VARNAME_2": "NA","NL_NAME_2": "NA","TYPE_2": "Município","ENGTYPE_2": "Municipality","CC_2": "NA","HASC_2": "NA","name": "Landeroy_Coss.county","area_km2": 17.62093,"hist_schema_id": "Elevation0-9000","hist_area_km2": {"875": 0.01995,"900": 0.01995,"925": 0.05986,"950": 0.05986,"975": 0.0399,"1000": 0.03991,"1025": 0.13967,"1050": 0.11972,"1075": 0.11972,"1100": 0.13967,"1125": 0.07981,"1150": 0.23944,"1175": 0.19953,"1200": 0.19953,"1225": 0.11972,"1250": 0.13967,"1275": 0.13967,"1300": 0.21949,"1325": 0.21949,"1350": 0.27935,"1375": 0.17958,"1400": 0.19954,"1425": 0.15963,"1450": 0.27936,"1475": 0.23945,"1500": 0.07982,"1525": 0.17959,"1550": 0.25941,"1575": 0.23945,"1600": 0.15964,"1625": 0.37914,"1650": 0.33922,"1675": 0.25941,"1700": 0.29932,"1725": 0.15964,"1750": 0.19954,"1775": 0.1796,"1800": 0.13968,"1825": 0.13969,"1850": 0.39913,"1875": 0.33928,"1900": 0.71848,"1925": 0.91804,"1950": 1.6764,"1975": 2.81392,"2000": 2.33491,"2025": 1.45681,"2050": 0.27939,"2075": 0.01996}}}