{"type":"Feature","properties":{"GID_2":"MEX.24.12_2","GID_0":"MEX","country":"México","GID_1":"MEX.24_1","province":"SanLuisPotosí","NL_NAME_1":"NA","county":"CiudaddelMaíz","VARNAME_2":"NA","NL_NAME_2":"NA","TYPE_2":"Município","ENGTYPE_2":"Municipality","CC_2":"NA","HASC_2":"NA","name":"Ciudaddel_Maíz.county"},
"geometry":{"type": "MultiPolygon","coordinates": [[[[-99.5191,22.1969,1682.1191],[-99.5024,22.199,1420.1199],[-99.5011,22.1972,1376.1068],[-99.4977,22.2006,1351.525],[-99.4893,22.196,1419.1909],[-99.4841,22.1958,1479.3766],[-99.4543,22.2127,1435.0359],[-99.4086,22.2337,1152.5703],[-99.4053,22.2289,1098.0166],[-99.4001,22.2254,1109.5452],[-99.375,22.2149,819.6377],[-99.3171,22.2207,780.65],[-99.3497,22.2804,990.3806],[-99.3559,22.2796,1067.9932],[-99.3635,22.3003,1113.2786],[-99.366,22.3209,1164.2535],[-99.3722,22.3434,1143.3568],[-99.3461,22.3493,929.017],[-99.363,22.3872,595.6525],[-99.3764,22.4236,1130.4006],[-99.405,22.4103,924.3378],[-99.446,22.488,1259.3708],[-99.4555,22.4841,1519.7145],[-99.4712,22.5002,1050.8929],[-99.487799999999993,22.5416,1161.783],[-99.4932,22.5651,930.6065],[-99.4923,22.579,635.9418],[-99.4987,22.5716,965.5375],[-99.5034,22.5697,1195.4257],[-99.5097,22.5841,1036.2585],[-99.5246,22.5792,1769.9818],[-99.5325,22.5926,1825.085],[-99.5141,22.5923,1054.4482],[-99.5126,22.5982,1026.9387],[-99.509,22.5976,987.8101],[-99.5174,22.611,931.4089],[-99.5122,22.6121,1014.3719],[-99.5137,22.6151,1025.6584],[-99.5347,22.6128,1298.1808],[-99.5606,22.6412,962.1002],[-99.6825,22.6811,1251.0518],[-99.7018,22.6732,1101.0204],[-99.7184,22.6646,1066.3317],[-99.7241,22.6596,1058.0933],[-99.7548,22.6566,1083.3259],[-99.7641,22.6621,1107.0946],[-99.7702,22.6623,1099.7294],[-99.7794,22.6674,1064.2593],[-99.785,22.6685,1067.9161],[-99.7947,22.6677,1206.9446],[-99.7973,22.665,1127.0549],[-99.798,22.6667,1224.0466],[-99.8055,22.6578,1140.292],[-99.814,22.6608,1338.4617],[-99.8479,22.6784,1024.8669],[-99.8428,22.7306,1024.261],[-99.8824,22.7499,1021.8967],[-99.8832,22.7482,1021.8396],[-99.8921,22.7484,1022.8284],[-99.957,22.7517,1022.5375],[-99.9585,22.7498,1022.3181],[-100.0223,22.7259,1099.7037],[-100.0541,22.6124,1268.1794],[-100.0854,22.573,1160.8469],[-100.0688,22.5629,1139.6589],[-100.0735,22.5569,1156.7102],[-100.0703,22.5529,1155.1055],[-100.0677,22.5516,1154.7434],[-100.0647,22.5529,1148.261],[-100.0625,22.5501,1149.4875],[-100.0598,22.5514,1153.1438],[-100.0478,22.5482,1176.0459],[-100.0446,22.5438,1165.1101],[-100.0298,22.5478,1163.7104],[-100.0272,22.5448,1176.7627],[-100.0214,22.5422,1186.5664],[-100.0193,22.5386,1182.3698],[-100.0087,22.5352,1156.4968],[-100.0027,22.527,1202.2195],[-99.9985,22.5186,1198.8258],[-100.0258,22.4949,1136.5511],[-99.9674,22.4499,1265.1586],[-99.9943,22.4304,1174.6868],[-99.9741,22.3799,1580.8781],[-99.9448,22.3406,1036.1521],[-99.9178,22.3434,1089.8696],[-99.9292,22.3227,1032.146],[-99.9264,22.3216,1033.9193],[-99.9242,22.3182,1031.0955],[-99.9268,22.3134,1028.9559],[-99.9313,22.3192,1028.694],[-99.9332,22.3155,1027.7704],[-99.9339,22.2831,1027.8527],[-99.8832,22.2738,1028.1047],[-99.8641,22.2589,1027.8674],[-99.8842,22.2213,1030.4218],[-99.8312,22.1803,1091.7162],[-99.8434,22.1729,1254.1189],[-99.8162,22.1476,1186.6609],[-99.8045,22.1179,1148.8719],[-99.7624,22.1332,1117.6702],[-99.7472,22.1168,1233.7126],[-99.7394,22.111,1343.8751],[-99.722,22.1181,1123.8442],[-99.737,22.1461,1089.8357],[-99.7429,22.1523,1082.6383],[-99.7419,22.1554,1080.1458],[-99.7435,22.163,1078.749],[-99.7528,22.1724,1066.9174],[-99.7452,22.1723,1074.9974],[-99.7503,22.1768,1067.6355],[-99.7558,22.179,1062.7771],[-99.7508,22.1824,1070.8799],[-99.7446,22.1907,1141.2996],[-99.7369,22.1954,1242.0607],[-99.7344,22.1994,1250.678],[-99.7221,22.2056,1201.938],[-99.7148,22.2139,1152.3551],[-99.7028,22.2127,1116.6548],[-99.6979,22.2184,1101.7279],[-99.6932,22.2111,1106.1613],[-99.6867,22.2112,1109.1733],[-99.6862,22.2092,1113.3896],[-99.685,22.2106,1112.9945],[-99.6813,22.2026,1116.7639],[-99.6766,22.2029,1121.5974],[-99.6776,22.2013,1120.4902],[-99.6744,22.1997,1122.8468],[-99.6747,22.1976,1123.9775],[-99.6698,22.1979,1129.4038],[-99.6692,22.1942,1130.6482],[-99.6658,22.1909,1133.7188],[-99.6601,22.1923,1155.7643],[-99.6602,22.1971,1166.4331],[-99.6561,22.2009,1184.5826],[-99.6481,22.1998,1215.1373],[-99.6321,22.2064,1326.2109],[-99.6211,22.1981,1311.0844],[-99.6167,22.1902,1336.4595],[-99.6122,22.1922,1316.4739],[-99.6121,22.1868,1313.4944],[-99.6047,22.1902,1368.9839],[-99.6038,22.1879,1376.5881],[-99.5907,22.1909,1563.8754],[-99.585,22.1872,1499.2423],[-99.5875,22.1948,1449.8883],[-99.5793,22.1955,1393.603],[-99.5807,22.1991,1391.7601],[-99.5767,22.2016,1384.7512],[-99.5792,22.2062,1387.4562],[-99.5688,22.2076,1463.7397],[-99.561,22.2132,1642.4841],[-99.5558,22.2009,1687.158],[-99.553,22.2066,1679.7584],[-99.5455,22.2087,1463.1155],[-99.5371,22.1946,1517.9197],[-99.5191,22.1969,1682.1191]]]]}}