{"type":"Feature","properties":{"GID_2":"MEX.16.109_2","GID_0":"MEX","country":"México","GID_1":"MEX.16_1","province":"Michoacán","NL_NAME_1":"NA","county":"Zamora","VARNAME_2":"NA","NL_NAME_2":"NA","TYPE_2":"Município","ENGTYPE_2":"Municipality","CC_2":"NA","HASC_2":"NA","name":"Zamora.county"},
"geometry":{"type": "MultiPolygon","coordinates": [[[[-102.2444,19.9425,1651.4663],[-102.2455,19.9409,1636.1869],[-102.2482,19.9413,1620.9232],[-102.246,19.9409,1636.1869],[-102.2445,19.9381,1627.381],[-102.2417,19.9394,1659.332],[-102.2444,19.9425,1651.4663]]],
[[[-102.3888,19.9931,1757.3679],[-102.3903,19.9915,1720.9688],[-102.3787,19.9883,1665.5085],[-102.3696,19.9791,1570.231],[-102.3637,19.9819,1567.9838],[-102.3583,19.9801,1564.6399],[-102.3549,19.9839,1564.1897],[-102.3446,19.9896,1560.4382],[-102.3423,19.9887,1560.0823],[-102.3421,19.9933,1560.8005],[-102.3363,19.9911,1561.2817],[-102.3291,19.9939,1561.4541],[-102.3311,19.9979,1561.0154],[-102.3293,19.9999,1560.3788],[-102.3205,19.9987,1561.3938],[-102.309,19.9915,1561.6859],[-102.3067,19.9818,1562.071],[-102.3105,19.9792,1563.3636],[-102.3089,19.9742,1564.3984],[-102.3021,19.9746,1564.4088],[-102.2945,19.972,1566.8401],[-102.275,19.9599,1570.4635],[-102.2688,19.9534,1572.9971],[-102.2683,19.9506,1573.785],[-102.259,19.9486,1617.0605],[-102.2518,19.9497,1625.2893],[-102.2509,19.9508,1628.3872],[-102.2526,19.9533,1625.3073],[-102.2477,19.9557,1654.0413],[-102.239,19.9547,1703.843],[-102.2271,19.9571,1810.5388],[-102.2081,19.9826,1670.7634],[-102.185,19.9771,1644.8596],[-102.1826,19.9788,1642.0999],[-102.1804,19.9774,1650.14],[-102.1743,19.9792,1636.8281],[-102.1735,19.9817,1670.2197],[-102.1754,19.9892,1723.2133],[-102.1789,19.9928,1622.1213],[-102.1764,19.9947,1638.3315],[-102.1682,19.9933,1717.1113],[-102.1582,19.9864,1803.7836],[-102.1389,19.9822,1768.3851],[-102.1306,19.9842,1765.6245],[-102.1314,19.9891,1801.5846],[-102.1291,19.9933,1827.7469],[-102.1275,20.0044,1905.7791],[-102.1254,20.0072,1944.9849],[-102.1267,20.0089,1974.5621],[-102.1262,20.0119,2002.2302],[-102.1224,20.014,2070.3196],[-102.1226,20.0152,2070.3196],[-102.1251,20.0196,2071.1008],[-102.1285,20.0211,2041.3945],[-102.135,20.0191,2018.6978],[-102.1381,20.0197,2014.1146],[-102.1391,20.0219,1999.635],[-102.1482,20.0183,1942.6678],[-102.1507,20.0202,1936.993],[-102.1425,20.0257,1969.9515],[-102.1394,20.03,1966.4536],[-102.1442,20.0299,1984.3608],[-102.1533,20.0341,1936.5662],[-102.128,20.0594,2280.043],[-102.1375,20.0663,2426.6326],[-102.1444,20.0771,2128.0303],[-102.1556,20.0808,1907.1394],[-102.167,20.0794,1831.5043],[-102.1789,20.0801,1905.7163],[-102.2039,20.0841,1827.225],[-102.2055,20.087,1856.5842],[-102.2151,20.0912,1945.0504],[-102.2198,20.0897,1906.4133],[-102.2251,20.0925,1934.3191],[-102.2274,20.094,1926.5308],[-102.2275,20.0987,1981.8483],[-102.25,20.0968,1677.9836],[-102.2532,20.0947,1656.4729],[-102.2635,20.0972,1609.0547],[-102.2665,20.0868,1592.5012],[-102.2898,20.0899,1699.1353],[-102.3015,20.1045,1923.3678],[-102.3176,20.1095,2212.4297],[-102.342,20.1015,1648.6141],[-102.3562,20.1033,1567.6168],[-102.3592,20.1063,1588.6866],[-102.3655,20.1037,1555.1886],[-102.3686,20.1051,1554.6823],[-102.3642,20.0943,1555.1069],[-102.3668,20.0858,1555.1887],[-102.3683,20.0848,1555.5096],[-102.3681,20.0776,1556.2214],[-102.3703,20.0742,1555.7388],[-102.3721,20.0742,1555.7229],[-102.3753,20.0673,1555.8485],[-102.376,20.0618,1555.6135],[-102.3737,20.0594,1556.7059],[-102.3794,20.0483,1555.2227],[-102.395,20.047,1555.2471],[-102.4071,20.0437,1555.8226],[-102.4061,20.0387,1555.3864],[-102.4043,20.0388,1555.6798],[-102.4046,20.0333,1560.1156],[-102.3993,20.0211,1562.8541],[-102.4013,20.02,1562.6436],[-102.3993,20.0142,1582.6807],[-102.3965,20.0117,1646.0925],[-102.379,20.0111,1732.756],[-102.3762,20.0057,1794.9248],[-102.3888,19.9931,1757.3679]]]]}}