{"type":"Feature","properties":{"GID_2":"MEX.21.106_2","GID_0":"MEX","country":"México","GID_1":"MEX.21_1","province":"Puebla","NL_NAME_1":"NA","county":"Nopalucan","VARNAME_2":"NA","NL_NAME_2":"NA","TYPE_2":"Município","ENGTYPE_2":"Municipality","CC_2":"NA","HASC_2":"NA","name":"Nopalucan.county"},
"geometry":{"type": "MultiPolygon","coordinates": [[[[-97.836,19.1221,2557.9395],[-97.833,19.1286,2521.335],[-97.8268,19.1251,2501.644],[-97.8306,19.1234,2540.6931],[-97.8223,19.1153,2542.4961],[-97.8212,19.1085,2458.1069],[-97.8174,19.1002,2418.0142],[-97.814,19.0984,2407.3408],[-97.8125,19.101,2424.166],[-97.8056,19.1029,2441.9912],[-97.804,19.1046,2449.2324],[-97.8055,19.1109,2453.0176],[-97.8044,19.1174,2477.0806],[-97.8084,19.1311,2532.437],[-97.8047,19.1413,2588.2461],[-97.8119,19.1496,2584.1636],[-97.81,19.1536,2575.9177],[-97.8005,19.1558,2433.2732],[-97.7957,19.164,2384.0537],[-97.7875,19.1591,2379.5864],[-97.7832,19.1602,2371.5164],[-97.7798,19.1578,2363.4685],[-97.7707,19.1641,2350.4421],[-97.765,19.158,2349.2266],[-97.7692,19.1517,2391.989],[-97.7688,19.1491,2399.5122],[-97.7637,19.1474,2364.2063],[-97.7561,19.1781,2346.53],[-97.7515,19.1756,2347.1121],[-97.7469,19.1855,2348.4829],[-97.7981,19.2255,2372.3584],[-97.8047,19.222,2393.7864],[-97.8144,19.2228,2411.6934],[-97.8107,19.2353,2387.666],[-97.8062,19.2318,2381.374],[-97.8051,19.2337,2379.2517],[-97.8023,19.2323,2377.4968],[-97.7987,19.2278,2371.2385],[-97.7934,19.2324,2381.1709],[-97.7896,19.2307,2386.4385],[-97.7867,19.2399,2399.7339],[-97.7902,19.2431,2386.2378],[-97.7859,19.247,2385.876],[-97.8032,19.2558,2374.3252],[-97.8087,19.2551,2379.1685],[-97.8091,19.2596,2373.334],[-97.8312,19.2595,2404.1587],[-97.8384,19.2672,2390.3323],[-97.8269,19.273,2379.8765],[-97.8384,19.2873,2384.926],[-97.8597,19.2872,2399.3057],[-97.8703,19.2706,2424.5967],[-97.8541,19.2573,2412.9395],[-97.8601,19.2567,2418.8652],[-97.8651,19.2539,2430.0537],[-97.8705,19.2401,2444.9607],[-97.8604,19.2441,2427.5576],[-97.8539,19.2261,2427.8384],[-97.851,19.2229,2427.1614],[-97.8621,19.2138,2445.4912],[-97.8932,19.2003,2510.5291],[-97.8956,19.1975,2513.0845],[-97.8941,19.1973,2513.0845],[-97.8942,19.1912,2531.6416],[-97.8907,19.1896,2526.688],[-97.8898,19.187,2544.8911],[-97.9046,19.1776,2561.7041],[-97.908,19.1808,2562.2324],[-97.9114,19.1796,2563.9714],[-97.915,19.1761,2572.0986],[-97.9151,19.1733,2570.3003],[-97.9127,19.1741,2566.9409],[-97.9045,19.1623,2579.5098],[-97.9109,19.1494,3054.8337],[-97.9074,19.1413,3240.6355],[-97.8793,19.1366,2614.8259],[-97.8608,19.1353,2593.916],[-97.8576,19.1356,2570.783],[-97.8512,19.1399,2522.9807],[-97.8564,19.1302,2588.1528],[-97.8558,19.126,2612.7322],[-97.8503,19.1249,2639.6167],[-97.8453,19.1285,2606.2007],[-97.8406,19.1233,2612.3779],[-97.836,19.1221,2557.9395]]]]}}