{"type":"Feature","properties":{"GID_2":"MEX.20.134_2","GID_0":"MEX","country":"México","GID_1":"MEX.20_1","province":"Oaxaca","NL_NAME_1":"NA","county":"SanDionisioOcotlán","VARNAME_2":"NA","NL_NAME_2":"NA","TYPE_2":"Município","ENGTYPE_2":"Municipality","CC_2":"NA","HASC_2":"NA","name":"San_Dionisio_Ocotlán.county"},
"geometry":{"type": "MultiPolygon","coordinates": [[[[-96.6894,16.7471,1509.0343],[-96.6901,16.7458,1507.4357],[-96.6883,16.7462,1507.4357],[-96.6816,16.7429,1514.8103],[-96.6735,16.7427,1522.6882],[-96.6751,16.739,1522.4973],[-96.6742,16.7381,1523.5903],[-96.6647,16.7371,1532.0372],[-96.6635,16.7383,1533.7822],[-96.6595,16.7358,1536.1313],[-96.6595,16.734,1537.6907],[-96.6488,16.7358,1584.6233],[-96.6454,16.7419,1568.7336],[-96.6623,16.7424,1534.8016],[-96.6633,16.7456,1533.6689],[-96.6526,16.743,1543.5247],[-96.651,16.7433,1550.0623],[-96.6482,16.7479,1555.8279],[-96.6449,16.7478,1558.2438],[-96.6434,16.7457,1554.698],[-96.6384,16.7493,1565.7091],[-96.6401,16.7519,1572.496],[-96.6456,16.7537,1575.6656],[-96.6517,16.7531,1568.7395],[-96.6568,16.7606,1582.5416],[-96.6537,16.7636,1598.8503],[-96.6473,16.7648,1802.3569],[-96.6529,16.7673,1722.3511],[-96.6573,16.7648,1636.9801],[-96.6709,16.7662,1518.1316],[-96.6706,16.7616,1527.4922],[-96.6725,16.7595,1525.7815],[-96.679,16.7541,1515.933],[-96.6811,16.7547,1517.8651],[-96.6803,16.7566,1522.9834],[-96.6821,16.7551,1522.3325],[-96.6838,16.756,1528.2462],[-96.6894,16.7471,1509.0343]]]]}}