{"type":"Feature","properties":{"GID_2":"MEX.30.169_2","GID_0":"MEX","country":"México","GID_1":"MEX.30_1","province":"Veracruz","NL_NAME_1":"NA","county":"Teocelo","VARNAME_2":"NA","NL_NAME_2":"NA","TYPE_2":"Município","ENGTYPE_2":"Municipality","CC_2":"NA","HASC_2":"NA","name":"Teocelo.county"},
"geometry":{"type": "MultiPolygon","coordinates": [[[[-97.0152,19.3589,1348.8461],[-97.0114,19.3548,1202.0327],[-97.0074,19.3561,1182.0334],[-96.9997,19.3558,1156.0938],[-96.9961,19.358,1144.3087],[-96.9925,19.358,1183.1003],[-96.9914,19.36,1145.7635],[-96.9714,19.3559,1082.9448],[-96.9442,19.3686,911.619],[-96.9417,19.3646,925.0894],[-96.9377,19.3667,867.1632],[-96.9335,19.3656,817.6038],[-96.9316,19.3699,799.7084],[-96.9223,19.3492,862.8517],[-96.9204,19.3506,877.7542],[-96.9177,19.3501,860.4553],[-96.9163,19.352,837.9677],[-96.904,19.3453,908.2928],[-96.9003,19.3466,899.0596],[-96.8864,19.3429,609.8696],[-96.8859,19.3442,648.7546],[-96.8815,19.3447,645.3322],[-96.8831,19.3459,601.1386],[-96.8807,19.3481,592.4878],[-96.8794,19.3533,581.0048],[-96.8749,19.3544,591.7034],[-96.8747,19.3528,563.2471],[-96.8728,19.3529,574.2293],[-96.8722,19.3592,606.2902],[-96.8703,19.3588,603.059],[-96.8691,19.355,584.4399],[-96.8646,19.3595,547.5369],[-96.8604,19.3603,544.6199],[-96.859,19.3643,545.6835],[-96.8547,19.3646,588.681],[-96.854,19.3658,548.0857],[-96.8568,19.3676,512.2998],[-96.8559,19.3725,534.7269],[-96.8443,19.369,493.2139],[-96.8449,19.3717,536.4326],[-96.8427,19.3713,490.1825],[-96.8417,19.374,520.121],[-96.8459,19.3729,531.7951],[-96.8451,19.3753,515.1754],[-96.8465,19.3764,513.3414],[-96.8578,19.3798,561.2979],[-96.8601,19.3844,570.6372],[-96.8624,19.3836,547.0637],[-96.862799999999993,19.3811,561.1329],[-96.8657,19.3805,564.2411],[-96.8677,19.382,573.4653],[-96.87,19.3803,639.7041],[-96.8766,19.3811,605.0029],[-96.8783,19.3829,593.5047],[-96.8842,19.3817,679.5856],[-96.8866,19.3836,627.0067],[-96.886,19.3851,621.238],[-96.8903,19.3814,647.4497],[-96.8903,19.3797,647.9888],[-96.8935,19.3793,655.5702],[-96.8957,19.3749,694.5814],[-96.8952,19.3718,722.1564],[-96.9009,19.3704,714.5415],[-96.9009,19.3688,714.5415],[-96.9055,19.3687,741.5535],[-96.9049,19.3704,707.9642],[-96.9073,19.3751,760.7708],[-96.9112,19.3759,777.5787],[-96.9118,19.3784,813.1597],[-96.9182,19.3811,829.9753],[-96.9182,19.3826,876.9902],[-96.9216,19.3845,896.2877],[-96.9263,19.3837,891.1487],[-96.9278,19.3879,918.8194],[-96.9308,19.3898,918.5107],[-96.9417,19.3934,921.9157],[-96.9448,19.3929,918.4339],[-96.9462,19.3948,946.4263],[-96.9496,19.394,957.4742],[-96.9527,19.3961,975.8738],[-96.9569,19.3964,968.5583],[-96.9601,19.3995,987.9816],[-96.9642,19.3978,1002.8177],[-96.9649,19.3993,1022.7908],[-96.97,19.4002,1041.064],[-96.9706,19.4018,1010.8107],[-96.9791,19.3985,1115.9624],[-96.9806,19.4025,1070.4684],[-96.9842,19.402,1084.2747],[-96.9884,19.4035,1102.9214],[-96.9934,19.4008,1155.67],[-96.9996,19.4002,1236.9951],[-97.0025,19.3963,1229.9174],[-97.0042,19.3974,1247.053],[-97.0092,19.3962,1229.401],[-97.0116,19.3933,1298.2577],[-97.0202,19.3967,1290.6804],[-97.0306,19.3916,1336.2927],[-97.0289,19.3909,1324.0129],[-97.0278,19.3857,1389.4983],[-97.0228,19.3863,1358.6774],[-97.0209,19.3846,1343.1027],[-97.0145,19.3865,1318.0129],[-97.0112,19.3853,1308.5598],[-97.0094,19.3822,1265.8245],[-97.0032,19.3836,1230.3314],[-96.9996,19.3805,1223.0419],[-96.9993,19.3792,1228.5012],[-97.0028,19.3766,1210.7532],[-96.9999,19.3767,1198.4054],[-96.9972,19.3745,1235.1323],[-97.0021,19.3748,1249.6095],[-97.0051,19.3728,1287.3447],[-97.0112,19.3638,1306.2844],[-97.0154,19.361,1355.1819],[-97.0152,19.3589,1348.8461]]]]}}