{"type":"Feature","properties":{"GID_2":"MEX.21.11_2","GID_0":"MEX","country":"México","GID_1":"MEX.21_1","province":"Puebla","NL_NAME_1":"NA","county":"AlbinoZertuche","VARNAME_2":"NA","NL_NAME_2":"NA","TYPE_2":"Município","ENGTYPE_2":"Municipality","CC_2":"NA","HASC_2":"NA","name":"Albino_Zertuche.county"},
"geometry":{"type": "MultiPolygon","coordinates": [[[[-98.4868,17.9908,1323.6489],[-98.4807,18.0031,1501.2898],[-98.4835,18.0051,1426.491],[-98.4835,18.0083,1359.5205],[-98.486,18.0116,1333.5261],[-98.4858,18.0135,1329.8755],[-98.4831,18.0149,1317.7722],[-98.4895,18.0167,1410.884],[-98.4907,18.0211,1402.3519],[-98.4858,18.0251,1371.8944],[-98.4856,18.0286,1345.8342],[-98.4874,18.0315,1360.5137],[-98.4848,18.0349,1342.698],[-98.4871,18.0389,1334.6803],[-98.4915,18.0381,1352.8049],[-98.4965,18.0407,1241.9497],[-98.5011,18.0452,1186.1312],[-98.5013,18.0477,1163.5009],[-98.5136,18.0443,1372.3466],[-98.5285,18.0507,1472.0171],[-98.5312,18.0542,1300.9304],[-98.5347,18.0514,1299.0862],[-98.5365,18.0526,1259.7605],[-98.5424,18.0519,1229.1298],[-98.543,18.0499,1193.6622],[-98.5412,18.0478,1208.822],[-98.5444,18.0469,1265.2952],[-98.549,18.0497,1137.9011],[-98.555,18.0492,1096.7034],[-98.5549,18.0467,1191.0613],[-98.5561,18.047,1191.0613],[-98.5518,18.0418,1245.394],[-98.5539,18.0398,1305.3481],[-98.5523,18.0379,1332.9592],[-98.555,18.0361,1322.5115],[-98.555,18.0286,1217.9111],[-98.5568,18.0288,1235.6393],[-98.5551,18.0273,1217.9111],[-98.556,18.025,1224.8645],[-98.5621,18.0251,1284.2959],[-98.5632,18.0237,1245.3782],[-98.5712,18.0273,1331.9229],[-98.5741,18.0235,1367.9263],[-98.5807,18.0244,1431.4552],[-98.5813,18.0132,1433.6611],[-98.5842,18.0131,1449.062],[-98.5895,18.0095,1467.7833],[-98.596,18.0133,1352.208],[-98.601,18.0237,1217.4625],[-98.6029,18.0226,1163.6554],[-98.6069,18.0243,1081.4834],[-98.6106,18.0297,981.4995],[-98.6139,18.0293,966.5322],[-98.6163,18.031,995.1633],[-98.6154,18.0289,951.6536],[-98.617,18.0244,1048.4297],[-98.6212,18.0271,1134.1045],[-98.6196,18.0222,1162.1084],[-98.6272,18.022,1073.9331],[-98.6282,18.0136,1163.5468],[-98.625,18.0077,1123.0723],[-98.6185,18.0071,1209.1083],[-98.6158,18.0041,1266.6796],[-98.6189,17.9955,1373.9993],[-98.614,17.9935,1281.7817],[-98.6167,17.9912,1340.2783],[-98.6153,17.9856,1398.3789],[-98.6206,17.9848,1451.5464],[-98.6224,17.9802,1486.0621],[-98.6155,17.9771,1565.3071],[-98.6167,17.976,1530.7152],[-98.6137,17.9742,1507.5764],[-98.6151,17.9711,1403.38],[-98.6126,17.9733,1457.8276],[-98.6096,17.9732,1513.5599],[-98.6115,17.9737,1482.955],[-98.609,17.9798,1394.4292],[-98.6104,17.9841,1367.6594],[-98.6086,17.9874,1354.751],[-98.611,17.9935,1286.4518],[-98.6085,17.9968,1333.4043],[-98.6024,17.9967,1444.8022],[-98.5912,17.9929,1502.2368],[-98.5817,17.9996,1457.0629],[-98.5806,17.9949,1512.207],[-98.5822,17.9903,1604.6042],[-98.5897,17.9836,1770.9841],[-98.5825,17.9814,1648.4097],[-98.5849,17.9739,1603.61],[-98.5754,17.9764,1532.4351],[-98.5695,17.9722,1428.3704],[-98.5648,17.9742,1372.6826],[-98.5552,17.9729,1312.2058],[-98.5539,17.9788,1328.2214],[-98.5438,17.9734,1460.2842],[-98.5384,17.9838,1379.9902],[-98.5361,17.9757,1442.4587],[-98.5296,17.9758,1422.6288],[-98.5256,17.9852,1378.0361],[-98.5267,17.9898,1344.7659],[-98.5248,17.993,1322.5062],[-98.5267,17.9963,1312.575],[-98.5237,17.9942,1325.9286],[-98.5145,17.9926,1369.7119],[-98.505,17.9934,1361.0908],[-98.5005,17.9956,1335.7104],[-98.4945,17.9891,1299.5798],[-98.4868,17.9908,1323.6489]]]]}}