{"type": "Feature","bbox": [-101.0557,18.7941,-100.5231,19.3479],"geometry": {"type": "MultiPolygon","coordinates": [[[[-100.6132,18.887,413.6138],[-100.6107,18.8896,410.0957],[-100.6109,18.892,410.3614],[-100.6129,18.8935,425.353],[-100.6087,18.8948,419.0664],[-100.606,18.8929,423.3282],[-100.6005,18.8929,421.3885],[-100.6012,18.897,422.3843],[-100.6041,18.8994,456.8317],[-100.5994,18.9003,428.1636],[-100.594,18.9059,484.7574],[-100.5894,18.9081,517.302],[-100.5932,18.9153,434.8196],[-100.5904,18.9156,425.7499],[-100.5854,18.9113,432.6884],[-100.5804,18.9157,503.8495],[-100.5782,18.9141,434.8233],[-100.5742,18.9145,438.6775],[-100.574,18.917,436.38],[-100.578,18.9211,448.2849],[-100.5759,18.9229,448.7717],[-100.5652,18.9177,449.1105],[-100.5688,18.9217,444.5716],[-100.5639,18.9238,447.1474],[-100.565,18.9286,466.2749],[-100.5622,18.9286,472.5586],[-100.5632,18.9313,457.7832],[-100.562,18.9328,455.4017],[-100.5582,18.9351,457.5483],[-100.5468,18.9327,469.0286],[-100.5438,18.9347,483.6948],[-100.5436,18.9404,486.3945],[-100.5469,18.9414,530.3298],[-100.5497,18.9464,491.3103],[-100.5461,18.9501,482.2063],[-100.5476,18.9521,481.9297],[-100.5471,18.9628,496.7411],[-100.5448,18.9659,501.343],[-100.5401,18.9627,488.7985],[-100.5334,18.9644,500.2293],[-100.5332,18.9664,495.3561],[-100.5373,18.9723,526.1434],[-100.5338,18.9786,515.1004],[-100.5377,18.9842,519.0397],[-100.5352,18.9877,514.7336],[-100.5324,18.9857,509.3193],[-100.5302,18.987,503.8633],[-100.5324,18.9912,529.11],[-100.5302,18.9942,540.5224],[-100.5242,18.9927,517.0421],[-100.5231,18.9961,524.3458],[-100.5258,19.0016,537.7595],[-100.5308,19.0069,582.6563],[-100.5299,19.0093,535.5183],[-100.5258,19.0118,560.8406],[-100.5283,19.0157,658.3654],[-100.5273,19.0171,676.0646],[-100.5287,19.0194,638.6545],[-100.5317,19.0179,620.4338],[-100.5309,19.0194,631.9205],[-100.5327,19.0242,655.3276],[-100.5404,19.031,829.3102],[-100.5395,19.0401,827.4833],[-100.541,19.0382,782.7628],[-100.547,19.0375,728.3616],[-100.5531,19.0528,927.5542],[-100.5522,19.0561,1010.5737],[-100.5564,19.0582,885.4698],[-100.5601,19.056,822.5493],[-100.5679,19.0575,791.7242],[-100.5731,19.0556,729.4162],[-100.5759,19.0587,775.3177],[-100.5741,19.0627,821.5215],[-100.5754,19.0651,847.9886],[-100.5731,19.0693,769.6573],[-100.582,19.0716,795.8079],[-100.5889,19.0681,707.0748],[-100.5954,19.071,713.769],[-100.5974,19.0731,726.064],[-100.5935,19.0748,712.6053],[-100.5923,19.0799,686.2726],[-100.5887,19.0822,674.9338],[-100.5891,19.0838,673.2103],[-100.5946,19.085,725.0295],[-100.6025,19.0828,762.4675],[-100.6054,19.0835,774.8492],[-100.6021,19.0868,769.6117],[-100.6031,19.0885,772.478],[-100.6004,19.0894,768.5386],[-100.6009,19.0913,771.6956],[-100.5955,19.0914,663.1167],[-100.5935,19.0934,643.28],[-100.5926,19.0966,595.9716],[-100.5962,19.1031,723.3472],[-100.6003,19.1037,820.4485],[-100.6089,19.0993,848.4824],[-100.6223,19.103,541.2123],[-100.6329,19.1079,532.0073],[-100.6376,19.1135,497.4552],[-100.6389,19.1094,501.2658],[-100.6366,19.1045,524.0161],[-100.6423,19.0984,519.5884],[-100.6407,19.0941,500.8717],[-100.644,19.0947,492.7474],[-100.6481,19.093,484.0505],[-100.6494,19.0883,501.1906],[-100.6468,19.0864,491.1286],[-100.6439,19.0894,490.4887],[-100.6392,19.0858,484.7131],[-100.6466,19.0777,479.9405],[-100.6475,19.0738,474.5585],[-100.6524,19.0751,476.3735],[-100.6561,19.0681,477.15],[-100.6554,19.0668,493.1426],[-100.6494,19.0663,470.9447],[-100.6493,19.0625,481.5801],[-100.6441,19.065,499.0457],[-100.6438,19.0629,521.6866],[-100.6455,19.0632,487.4381],[-100.6466,19.0613,482.1564],[-100.6448,19.0575,487.6785],[-100.6439,19.0479,541.8198],[-100.6474,19.0473,590.6035],[-100.6483,19.0456,651.5042],[-100.6519,19.0312,486.0118],[-100.6519,19.0241,456.4876],[-100.6543,19.0198,455.8006],[-100.6568,19.0172,452.5782],[-100.6595,19.0176,450.9293],[-100.659,19.013,468.6741],[-100.6609,19.0101,443.2098],[-100.6695,19.0058,441.8839],[-100.6686,19.0065,441.8839],[-100.6743,19.0076,486.7658],[-100.6807,19.0068,487.2848],[-100.6791,19.0096,488.2552],[-100.6749,19.0081,486.7658],[-100.6742,19.0104,485.8783],[-100.6702,19.0118,485.8773],[-100.675,19.0115,487.3096],[-100.6777,19.015,494.8635],[-100.6835,19.0134,533.748],[-100.6904,19.0159,615.4975],[-100.699,19.0123,642.8878],[-100.6986,19.0152,669.6862],[-100.7007,19.0152,662.7738],[-100.7019,19.0175,722.7109],[-100.7012,19.0202,723.5115],[-100.7028,19.0207,750.4641],[-100.7038,19.0257,739.0757],[-100.7092,19.0323,757.0564],[-100.7078,19.0338,734.6866],[-100.7105,19.0413,687.3067],[-100.7111,19.0491,667.9769],[-100.7126,19.0503,667.9769],[-100.7088,19.0541,906.4],[-100.7075,19.066,937.6953],[-100.7154,19.0882,1134.5364],[-100.7122,19.0961,977.7447],[-100.715,19.107,962.5956],[-100.7174,19.1148,1377.1925],[-100.7233,19.121,1510.7524],[-100.7209,19.131,1144.2679],[-100.722,19.132,1120.6218],[-100.7192,19.1382,1443.6364],[-100.7246,19.1479,1705.823],[-100.7272,19.1494,1446.4238],[-100.7256,19.1534,1294.9695],[-100.7336,19.1516,1344.4729],[-100.7381,19.1554,1358.1195],[-100.7415,19.1549,1366.9137],[-100.7423,19.1578,1378.0259],[-100.7452,19.1744,1439.8765],[-100.7399,19.1817,1109.5269],[-100.7345,19.1839,909.5098],[-100.7389,19.1884,821.1088],[-100.7347,19.1872,784.2654],[-100.7335,19.1882,779.4461],[-100.735,19.1947,949.4674],[-100.731,19.1941,896.6125],[-100.7301,19.1973,828.8715],[-100.7341,19.1992,863.728],[-100.7349,19.2014,911.7532],[-100.7306,19.2021,907.6594],[-100.7345,19.2064,797.4877],[-100.7302,19.2084,825.0732],[-100.7344,19.2111,949.7922],[-100.738,19.2168,961.5516],[-100.7355,19.2166,920.1053],[-100.7371,19.2185,1023.358],[-100.7347,19.2211,830.5696],[-100.7411,19.2387,1383.3429],[-100.7371,19.2381,1390.4326],[-100.7361,19.2394,1453.585],[-100.7382,19.2406,1427.938],[-100.7388,19.245,1256.2356],[-100.7368,19.2492,1105.2546],[-100.7405,19.2443,1272.1317],[-100.7451,19.2466,1347.8682],[-100.7462,19.2459,1250.8163],[-100.7474,19.2511,1368.7874],[-100.7443,19.2534,1226.7854],[-100.7465,19.2553,1342.2139],[-100.7449,19.2583,1396.5171],[-100.7509,19.2583,1514.688],[-100.7506,19.263,1497.3428],[-100.7534,19.2673,1416.3624],[-100.7501,19.2809,1001.5353],[-100.7532,19.2881,879.5741],[-100.7591,19.2869,859.6711],[-100.7614,19.2831,825.0219],[-100.7662,19.2813,790.1825],[-100.7687,19.2775,790.5069],[-100.7724,19.2769,762.9427],[-100.7742,19.2711,720.6077],[-100.7774,19.2678,701.5769],[-100.7894,19.2654,695.2091],[-100.7904,19.2665,708.5308],[-100.7913,19.2642,695.2091],[-100.7947,19.2637,661.9338],[-100.7967,19.2621,662.3326],[-100.7957,19.2583,669.2244],[-100.8156,19.2547,799.2087],[-100.8287,19.2582,1100.6921],[-100.8362,19.2465,983.8652],[-100.8331,19.236,870.4877],[-100.8343,19.2312,817.4158],[-100.8327,19.2295,769.4586],[-100.8385,19.222,604.4365],[-100.8456,19.2192,698.1935],[-100.8544,19.2192,708.6992],[-100.8568,19.2178,741.264],[-100.8646,19.2176,766.3102],[-100.873,19.2198,774.7101],[-100.8743,19.2163,799.0776],[-100.8712,19.2116,795.4579],[-100.8718,19.2056,841.8726],[-100.8673,19.2041,878.3713],[-100.8719,19.1937,770.5095],[-100.8682,19.19,731.7279],[-100.8687,19.1884,714.4985],[-100.8636,19.1851,680.8164],[-100.8667,19.1805,713.7462],[-100.8733,19.1816,803.629],[-100.8853,19.1855,1321.3364],[-100.8877,19.1987,940.3759],[-100.8939,19.1983,924.1438],[-100.9014,19.2015,1046.4835],[-100.899,19.211,1158.8234],[-100.9044,19.2139,1330.6494],[-100.9034,19.2154,1330.6494],[-100.9074,19.2235,1699.894],[-100.912,19.2234,1757.6167],[-100.9116,19.2288,1717.0593],[-100.8984,19.2358,1112.0048],[-100.8979,19.2375,1093.5759],[-100.8759,19.2463,809.4138],[-100.875,19.2505,662.7527],[-100.8776,19.2522,740.2867],[-100.8777,19.2545,757.1309],[-100.8872,19.258,734.3932],[-100.8934,19.2552,810.7448],[-100.8981,19.2569,847.8359],[-100.9018,19.2557,937.6941],[-100.9059,19.2581,932.6235],[-100.9081,19.2559,977.8693],[-100.9131,19.256,1063.5483],[-100.9241,19.2612,1401.6589],[-100.9221,19.2632,1345.0725],[-100.9236,19.2718,1078.3779],[-100.9216,19.275,1002.4161],[-100.9354,19.2807,1277.8455],[-100.9436,19.2884,1451.9771],[-100.9534,19.2943,1927.601],[-100.9542,19.3014,1943.1787],[-100.9499,19.3088,1688.512],[-100.9437,19.3072,1343.735],[-100.9409,19.31,1245.0298],[-100.9423,19.3123,1269.3467],[-100.9385,19.3149,1197.7196],[-100.9424,19.3209,1210.1848],[-100.9432,19.3261,1085.4617],[-100.9418,19.328,1041.7595],[-100.954,19.3304,1593.4554],[-100.9607,19.3268,1746.4557],[-100.9663,19.3331,1766.9109],[-100.9784,19.3369,1894.9763],[-100.9844,19.3353,1865.1938],[-100.9882,19.3382,1862.3014],[-100.9899,19.335,1845.4176],[-100.9935,19.3363,1773.9565],[-100.9951,19.3354,1768.8276],[-100.9988,19.3397,1787.2207],[-101.0024,19.3408,1831.6033],[-101.004,19.3442,1879.4667],[-101.0035,19.3479,1835.3875],[-101.0076,19.3409,1972.4198],[-101.0072,19.3311,1761.1527],[-101.0124,19.3208,1748.8585],[-101.0114,19.3163,1625.9739],[-101.0171,19.3121,1525.6536],[-101.0154,19.3059,1684.8899],[-101.0196,19.2975,1938.7561],[-101.017,19.2945,1884.511],[-101.0172,19.2893,1933.1508],[-101.0191,19.2837,1654.4124],[-101.0224,19.2826,1558.4055],[-101.0202,19.2761,1856.4572],[-101.0229,19.2761,1878.1664],[-101.0249,19.2729,1888.4041],[-101.022,19.2686,1859.3257],[-101.0199,19.2688,1874.7542],[-101.018,19.2669,1864.6041],[-101.0204,19.2603,1865.4011],[-101.0241,19.2569,1838.1648],[-101.0248,19.2486,1767.8542],[-101.0269,19.2489,1817.769],[-101.0274,19.2464,1789.4298],[-101.0334,19.2442,1757.4628],[-101.0291,19.235,1862.6615],[-101.0292,19.2309,1906.7798],[-101.0345,19.2233,1778.0306],[-101.0315,19.2213,1644.719],[-101.0314,19.2164,1507.4183],[-101.041,19.1996,1446.4883],[-101.0449,19.1963,1386.7498],[-101.0446,19.1925,1323.2485],[-101.0557,19.188,927.4605],[-101.0435,19.1863,1296.6034],[-101.0428,19.1835,1337.5597],[-101.0395,19.182,1330.9464],[-101.0403,19.1802,1357.5728],[-101.0387,19.1787,1359.2411],[-101.0415,19.1752,1360.0677],[-101.033,19.1675,1390.9259],[-101.0287,19.1577,1351.8568],[-101.0228,19.1534,1297.8136],[-101.0252,19.1503,1515.3956],[-101.024,19.1428,1345.257],[-101.0255,19.1408,1310.7511],[-101.0206,19.1386,1163.2672],[-101.0236,19.1352,1098.5432],[-101.0214,19.1317,1151.9327],[-101.0212,19.1247,1194.8851],[-101.0156,19.1171,1140.9536],[-101.0157,19.1045,1041.6686],[-101.0086,19.1026,997.0339],[-101.0104,19.0988,1064.9221],[-101.0097,19.0958,1196.6841],[-100.9906,19.0809,1055.6362],[-100.9643,19.089,1100.312],[-100.9579,19.0854,910.9136],[-100.9474,19.093,1116.0657],[-100.9402,19.0919,1110.0179],[-100.9384,19.0902,1113.1267],[-100.9407,19.0868,1008.4129],[-100.9396,19.0849,922.0428],[-100.9307,19.0792,944.6201],[-100.9283,19.071,835.2455],[-100.9211,19.0704,792.7897],[-100.9081,19.0641,579.7654],[-100.9026,19.059,550.324],[-100.9042,19.056,559.4685],[-100.9015,19.0535,545.5715],[-100.9018,19.052,554.0144],[-100.8971,19.051,543.5523],[-100.8949,19.0539,551.91],[-100.8911,19.0492,543.4543],[-100.8875,19.0477,550.8461],[-100.8875,19.0439,540.6698],[-100.8834,19.0415,533.7013],[-100.8849,19.0395,519.2828],[-100.8775,19.0358,528.5632],[-100.8766,19.032,507.34],[-100.8727,19.0289,494.4656],[-100.8725,19.0274,493.7291],[-100.8757,19.0253,510.4557],[-100.8783,19.0197,532.5056],[-100.8769,19.0201,568.9387],[-100.8723,19.0168,543.3904],[-100.8705,19.0175,582.7568],[-100.8691,19.0158,584.7112],[-100.8654,19.0168,708.3348],[-100.8627,19.0132,736.7784],[-100.8742,19.0021,646.2972],[-100.8693,18.9924,897.2358],[-100.8628,18.9911,819.8792],[-100.8623,18.989,839.3167],[-100.8601,18.9883,783.0292],[-100.8568,18.9788,663.2818],[-100.8583,18.9746,574.549],[-100.8567,18.9727,559.2827],[-100.8575,18.967,579.3296],[-100.8594,18.9621,602.1936],[-100.8634,18.9614,628.9028],[-100.868,18.9558,676.3822],[-100.867,18.9539,703.848],[-100.8703,18.9484,808.9507],[-100.869,18.9449,872.0442],[-100.8664,18.9445,886.2098],[-100.8717,18.9357,703.202],[-100.8663,18.9302,643.9216],[-100.8675,18.9228,603.2898],[-100.8765,18.9231,906.7598],[-100.8769,18.9206,968.6711],[-100.8852,18.9107,1010.9675],[-100.8981,18.8845,940.1244],[-100.8913,18.8702,966.0654],[-100.8906,18.8606,734.5544],[-100.881,18.8528,630.9759],[-100.8686,18.8558,588.5061],[-100.8644,18.8484,608.0952],[-100.8668,18.8442,614.0336],[-100.8638,18.8403,627.0983],[-100.853,18.8403,686.1093],[-100.8527,18.8325,833.3052],[-100.8479,18.8204,1288.0809],[-100.8431,18.8249,1167.084],[-100.8395,18.826,1119.9614],[-100.8356,18.8305,1160.8607],[-100.8334,18.8283,1066.9037],[-100.8289,18.828,1021.889],[-100.8209,18.8299,830.3053],[-100.8117,18.8285,727.5952],[-100.8093,18.8305,654.8347],[-100.8041,18.8264,699.9897],[-100.8039,18.824,716.6714],[-100.8007,18.8226,788.3155],[-100.7905,18.8254,1178.6329],[-100.7918,18.8342,1007.9702],[-100.788,18.837,945.7668],[-100.7881,18.8388,910.2112],[-100.7804,18.8484,644.8809],[-100.7794,18.8514,587.4018],[-100.7821,18.8543,562.8649],[-100.7769,18.8598,420.6943],[-100.7733,18.8588,425.124],[-100.7691,18.8602,413.5918],[-100.7679,18.864,379.6708],[-100.7664,18.8656,385.5279],[-100.7652,18.8644,382.5411],[-100.7639,18.8669,372.6061],[-100.7597,18.8658,360.9254],[-100.7557,18.8677,375.7131],[-100.7488,18.8681,363.5162],[-100.7474,18.8664,362.2946],[-100.7483,18.8613,418.917],[-100.7462,18.858,387.0134],[-100.7411,18.8604,360.7101],[-100.7368,18.8605,358.7504],[-100.7364,18.8513,359.3731],[-100.724,18.8492,358.3801],[-100.7096,18.8358,358.0],[-100.7122,18.83,358.0],[-100.712,18.8259,360.1532],[-100.7028,18.8238,358.0],[-100.7055,18.8137,358.0],[-100.7058,18.7964,358.0],[-100.6961,18.7941,358.0],[-100.692,18.8056,372.3272],[-100.6899,18.8025,358.0],[-100.6877,18.8045,358.0],[-100.6847,18.8032,358.0],[-100.6833,18.8086,359.1065],[-100.6799,18.8096,358.0],[-100.68,18.8172,359.1736],[-100.6762,18.8168,376.2853],[-100.6669,18.8194,391.6374],[-100.668,18.8215,360.8818],[-100.6714,18.8207,361.1008],[-100.6729,18.8248,360.8179],[-100.6716,18.8282,363.6519],[-100.6684,18.829,370.8048],[-100.6661,18.8343,373.1598],[-100.6593,18.834,387.6774],[-100.6564,18.8384,371.8399],[-100.6507,18.8399,418.0649],[-100.6535,18.8439,393.527],[-100.6517,18.8479,393.404],[-100.6434,18.8489,382.3523],[-100.6428,18.8521,383.9228],[-100.6452,18.8603,394.2076],[-100.6404,18.8622,422.9171],[-100.6408,18.8659,389.7117],[-100.6375,18.8676,417.7714],[-100.6346,18.8666,430.0161],[-100.6294,18.8679,404.5375],[-100.6254,18.8659,405.0729],[-100.6222,18.8668,422.5852],[-100.6234,18.8713,398.9904],[-100.6196,18.8745,412.5592],[-100.6204,18.8785,405.574],[-100.6157,18.88,500.7321],[-100.6132,18.887,413.6138]]]]}
,"properties": {"GID_2": "MEX.16.93_2","GID_0": "MEX","country": "México","GID_1": "MEX.16_1","province": "Michoacán","NL_NAME_1": "NA","county": "TiquicheodeNicolásRomero","VARNAME_2": "NA","NL_NAME_2": "NA","TYPE_2": "Município","ENGTYPE_2": "Municipality","CC_2": "NA","HASC_2": "NA","name": "Tiquicheode_Nicolás_Romero.county","area_km2": 1496.537,"hist_schema_id": "Elevation0-9000","hist_area_km2": {"350": 4.756,"375": 15.488,"400": 24.354,"425": 29.004,"450": 36.621,"475": 50.493,"500": 59.752,"525": 64.26,"550": 71.956,"575": 83.037,"600": 87.219,"625": 80.02,"650": 69.972,"675": 62.813,"700": 58.079,"725": 48.478,"750": 44.748,"775": 42.302,"800": 39.815,"825": 35.285,"850": 30.275,"875": 30.174,"900": 25.546,"925": 22.379,"950": 21.538,"975": 19.954,"1000": 18.611,"1025": 20.253,"1050": 20.673,"1075": 17.628,"1100": 17.146,"1125": 14.461,"1150": 14.04,"1175": 12.638,"1200": 13.037,"1225": 11.274,"1250": 10.733,"1275": 10.373,"1300": 9.711,"1325": 9.07,"1350": 7.809,"1375": 7.148,"1400": 6.407,"1425": 5.486,"1450": 5.325,"1475": 5.145,"1500": 4.424,"1525": 4.544,"1550": 4.144,"1575": 3.843,"1600": 4.644,"1625": 4.844,"1650": 4.604,"1675": 4.964,"1700": 5.824,"1725": 6.404,"1750": 6.044,"1775": 7.465,"1800": 6.784,"1825": 5.423,"1850": 5.263,"1875": 4.423,"1900": 3.742,"1925": 3.582,"1950": 3.342,"1975": 2.161,"2000": 1.701,"2025": 1.181,"2050": 0.64,"2075": 0.46,"2100": 0.28,"2125": 0.32,"2150": 0.08,"2175": 0.08,"2200": 0.04}}}