{"type":"Feature","properties":{"GID_2":"MEX.26.18_2","GID_0":"MEX","country":"México","GID_1":"MEX.26_1","province":"Sonora","NL_NAME_1":"NA","county":"Caborca","VARNAME_2":"NA","NL_NAME_2":"NA","TYPE_2":"Município","ENGTYPE_2":"Municipality","CC_2":"NA","HASC_2":"NA","name":"Caborca.county"},
"geometry":{"type": "MultiPolygon","coordinates": [[[[-112.1197,31.6639,701.781],[-112.3457,31.7335,518.845],[-112.3468,31.683,530.9977],[-112.3501,31.6796,531.045],[-112.3524,31.6643,537.6005],[-112.3462,31.6616,540.4813],[-112.348,31.6544,542.8299],[-112.3376,31.6512,546.3479],[-112.3413,31.6419,550.4545],[-112.3102,31.6356,560.1779],[-112.3155,31.6183,567.3873],[-112.3462,31.6243,555.7699],[-112.3485,31.6155,558.7035],[-112.4205,31.6299,535.1354],[-112.4492,31.6151,576.3058],[-112.4452,31.5849,570.5337],[-112.4633,31.585,569.1772],[-112.4635,31.5526,599.1855],[-112.495,31.5533,592.7452],[-112.495,31.4892,657.8281],[-112.4835,31.4844,661.2671],[-112.4818,31.4796,667.0919],[-112.5205,31.4721,686.418],[-112.521,31.4443,771.8301],[-112.5298,31.4267,848.0498],[-112.51,31.4,721.7683],[-112.498,31.3984,664.7902],[-112.4675,31.3778,651.0766],[-112.5077,31.3554,586.9454],[-112.5219,31.3642,583.5753],[-112.5831,31.3349,461.566],[-112.5933,31.3322,447.7524],[-112.5952,31.343,447.3171],[-112.6033,31.3414,435.5489],[-112.6013,31.3113,443.6766],[-112.6209,31.2693,420.7458],[-112.6887,31.2547,276.3176],[-112.7057,31.2375,247.7218],[-112.7144,31.2422,246.2448],[-112.7478,31.1906,197.0974],[-112.7662,31.1733,183.3608],[-112.7893,31.1987,182.507],[-112.8113,31.1834,165.7245],[-112.8343,31.2019,174.1752],[-112.8742,31.1653,218.7123],[-112.9415,31.1254,75.2805],[-113.0093,31.0893,21.9059],[-112.9685,31.0329,39.161],[-112.974,31.0299,36.5203],[-112.9707,31.0253,37.8439],[-112.9653,31.028199999999998,39.7084],[-112.9573,31.0173,42.4137],[-112.9269,31.0315,57.7392],[-112.9116,31.0102,55.47],[-112.9595,31.0072,39.6369],[-112.9622,31.0016,37.9905],[-113.0051,31.0044,21.1552],[-113.005,31.0105,22.7888],[-112.9998,31.0104,24.1921],[-112.9996,31.0193,25.3847],[-113.0264,31.0243,13.1281],[-113.0267,31.0066,13.0958],[-113.0247,30.993,13.6437],[-113.0163,30.9897,17.6772],[-113.0161,30.9909,17.666],[-113.0006,30.9875,21.3219],[-113.0005,30.9775,21.3161],[-113.0129,30.9773,16.3503],[-113.0131,30.9699,15.0738],[-113.0226,30.9777,12.491],[-113.0309,30.9821,9.8678],[-113.0411,30.9827,6.7874],[-113.0433,30.9767,7.744],[-113.0417,30.9706,8.6483],[-113.0397,30.9699,8.9691],[-113.0345,30.9612,10.6062],[-113.0636,30.9589,8.6496],[-113.0628,30.9451,8.9048],[-113.0802,30.9451,5.0187],[-113.0809,30.9543,4.0707],[-113.0864,30.9537,3.4713],[-113.086,30.945,4.356],[-113.096,30.9448,3.4735],[-113.095,30.9538,3.649],[-113.0965,30.9677,0.2561],[-113.0978,30.9189,1.4708],[-113.1011,30.8909,0.9812],[-113.1151,30.8325,6.3622],[-113.1265,30.8172,0.0],[-113.1272,30.812,2.8284],[-113.118,30.7926,2.3973],[-113.1048,30.7577,4.5761],[-113.0958,30.7138,0.0],[-113.0881,30.688,5.3437],[-113.0778,30.6674,3.933],[-113.0398,30.6072,5.945],[-112.9876,30.5361,2.698],[-112.9844,30.5349,2.2004],[-112.9803,30.5419,5.3824],[-112.9818,30.538,2.5512],[-112.9799,30.5394,6.947],[-112.9808,30.5357,14.255],[-112.9797,30.532,1.9101],[-112.9447,30.505,1.6156],[-112.8991,30.4614,7.9014],[-112.8927,30.4511,2.3015],[-112.8762,30.4327,3.9855],[-112.8646,30.4139,5.0889],[-112.8566,30.3956,9.9714],[-112.85,30.3723,0.0],[-112.8467,30.3487,7.5353],[-112.846,30.3302,1.7075],[-112.8469,30.3062,1.831],[-112.8511,30.2847,0.0],[-112.858,30.2719,1.2373],[-112.8645,30.2682,1.6602],[-112.8597,30.2681,1.1153],[-112.8572,30.2633,0.0],[-112.857,30.2653,0.3968],[-112.8518,30.2699,0.0],[-112.839,30.2709,5.8547],[-112.8273,30.2685,0.779],[-112.8168,30.2635,0.0],[-112.7949,30.2458,32.391],[-112.7759,30.2257,30.639],[-112.7596,30.1986,26.6468],[-112.7539,30.1778,0.0],[-112.7523,30.1578,17.2037],[-112.7544,30.1249,1.2771],[-112.7537,30.1143,0.0],[-112.7607,30.0787,35.6521],[-112.7618,30.0684,0.0],[-112.7607,30.0602,26.9922],[-112.6303,30.0778,286.8118],[-112.6305,30.0903,319.239],[-112.6284,30.0919,324.213],[-112.6255,30.1351,345.5428],[-112.6347,30.1374,329.6397],[-112.6121,30.2172,680.5646],[-112.5696,30.199,607.1014],[-112.5652,30.2067,568.9724],[-112.5028,30.1801,550.2178],[-112.4271,30.1764,555.6288],[-112.4211,30.1717,539.1853],[-112.3599,30.1637,470.9883],[-112.3582,30.1467,463.6931],[-112.3344,30.1466,446.9747],[-112.3344,30.1678,442.3121],[-112.2808,30.1675,419.9403],[-112.2817,30.213,389.7533],[-112.1856,30.2124,383.8663],[-112.1736,30.2372,368.1234],[-112.1674,30.239,369.6957],[-112.1891,30.2674,341.5748],[-112.1969,30.2744,334.7932],[-112.2023,30.2888,327.5124],[-112.2514,30.2832,341.8609],[-112.2684,30.3372,299.5831],[-112.253,30.365,286.9278],[-112.2183,30.3742,286.3359],[-112.2283,30.4015,271.5523],[-112.1987,30.4095,286.7693],[-112.1903,30.4044,325.093],[-112.1863,30.4043,296.2957],[-112.1844,30.4093,295.5846],[-112.1867,30.4093,294.1144],[-112.1867,30.4636,274.8682],[-112.1659,30.4636,281.08],[-112.1659,30.4544,286.1353],[-112.15,30.4544,289.8864],[-112.1497,30.5182,265.2949],[-112.1402,30.5175,271.5369],[-112.1371,30.5479,274.576],[-112.1487,30.6185,285.9523],[-112.1315,30.6221,438.7411],[-112.1097,30.6394,378.8203],[-112.1055,30.6658,428.3371],[-112.1086,30.7011,290.8366],[-112.1124,30.7025,290.3192],[-112.1086,30.7178,295.8526],[-112.1032,30.7185,296.7773],[-112.103,30.7213,298.3787],[-112.0938,30.7214,302.6612],[-112.0966,30.7233,301.6369],[-112.0884,30.7332,312.8118],[-112.0974,30.7357,312.1223],[-112.0989,30.7339,309.8408],[-112.102,30.7355,310.5774],[-112.1011,30.7527,322.63],[-112.1213,30.7534,316.9905],[-112.1215,30.7483,313.7716],[-112.1358,30.7483,312.7335],[-112.135,30.7539,318.8787],[-112.1545,30.7544,318.337],[-112.1546,30.7586,321.7607],[-112.1571,30.7584,321.2672],[-112.1569,30.7558,319.8032],[-112.1581,30.7557,319.8032],[-112.1595,30.774,337.6555],[-112.1413,30.774,337.5041],[-112.1408,30.8382,418.8976],[-112.1362,30.877,538.1538],[-112.1291,30.8739,587.22],[-112.1086,30.8807,785.1499],[-112.1196,30.8903,785.9696],[-112.1058,30.8902,957.3228],[-112.1159,30.8972,856.9475],[-112.0926,30.9319,609.2593],[-112.0679,30.9739,545.43],[-112.0785,30.9786,540.1165],[-112.0677,30.997,532.1737],[-112.0735,30.9981,530.0672],[-112.0678,31.0054,531.3358],[-112.0726,31.0099,531.4875],[-112.0755,31.0102,531.1982],[-112.0817,31.0075,528.4988],[-112.0882,31.0121,529.0724],[-112.0791,31.0199,530.6615],[-112.0865,31.0244,523.8386],[-112.0969,31.0348,576.746],[-112.0946,31.042,557.6838],[-112.1109,31.0456,532.2446],[-112.1195,31.0428,527.9131],[-112.1309,31.0513,518.0636],[-112.1663,31.0659,483.3604],[-112.1333,31.1266,577.7523],[-112.214,31.1579,513.1229],[-112.2097,31.1627,511.6669],[-112.1988,31.1997,542.0765],[-112.2091,31.2001,545.7697],[-112.227,31.2184,577.3906],[-112.2275,31.2162,574.9133],[-112.2771,31.227,803.306],[-112.2666,31.2703,650.9853],[-112.2076,31.2615,649.4316],[-112.2141,31.2872,672.9528],[-112.2391,31.3108,683.1368],[-112.2729,31.3234,706.1699],[-112.294,31.3218,713.8398],[-112.295,31.3482,764.7423],[-112.2425,31.3568,740.1901],[-112.2565,31.3914,737.9487],[-112.2554,31.3959,749.5649],[-112.2588,31.4015,732.0739],[-112.2627,31.4253,708.8071],[-112.2387,31.4326,680.8894],[-112.2446,31.4568,661.5225],[-112.2173,31.4507,652.718],[-112.2092,31.4872,663.139],[-112.1918,31.4339,670.2274],[-112.1157,31.4934,877.5435],[-112.1833,31.5505,706.773],[-112.1652,31.5616,726.0654],[-112.1799,31.5655,704.0894],[-112.1795,31.5712,700.9309],[-112.1814,31.5731,698.1213],[-112.1825,31.5785,693.8941],[-112.1795,31.5826,692.3861],[-112.1717,31.5873,704.691],[-112.1638,31.5867,716.9342],[-112.1597,31.5924,718.8512],[-112.151,31.5955,728.4767],[-112.123,31.5983,767.3246],[-112.1179,31.6023,773.0129],[-112.1138,31.6028,777.8943],[-112.117,31.6142,763.2271],[-112.1179,31.6278,748.0051],[-112.1162,31.6501,724.4599],[-112.1197,31.6639,701.781]]]]}}