{"type": "Feature","bbox": [-96.412,15.9037,-96.2556,16.0456],"geometry": {"type": "MultiPolygon","coordinates": [[[[-96.3521,15.9037,893.1078],[-96.3388,15.9094,711.0483],[-96.3327,15.9089,628.6335],[-96.3349,15.9141,687.64],[-96.3331,15.9188,776.5648],[-96.3258,15.9227,1017.5383],[-96.324,15.9176,1028.8397],[-96.3162,15.9139,761.9023],[-96.2958,15.9123,739.092],[-96.2897,15.9136,916.5853],[-96.2828,15.9063,589.0995],[-96.2749,15.9101,647.4776],[-96.2738,15.9177,855.8775],[-96.2634,15.9194,751.5569],[-96.276,15.9256,1047.8787],[-96.277,15.9181,1004.5407],[-96.2965,15.9245,867.4339],[-96.2929,15.9324,1213.6619],[-96.2942,15.9346,1117.6866],[-96.2919,15.9368,1249.2059],[-96.2943,15.9384,1221.4196],[-96.2802,15.9449,1238.8802],[-96.2699,15.9442,1173.271],[-96.259,15.9541,591.9153],[-96.2556,15.9613,438.7268],[-96.2588,15.9593,446.8623],[-96.2601,15.9614,487.472],[-96.2651,15.9633,455.4711],[-96.2632,15.9658,472.8929],[-96.2639,15.9701,478.3533],[-96.2698,15.969,503.6591],[-96.2808,15.9705,507.4567],[-96.2811,15.975,490.8944],[-96.2757,15.9797,635.4487],[-96.2737,15.9851,877.2342],[-96.276,15.9899,995.9202],[-96.2756,15.993,1094.5869],[-96.2785,15.9957,1092.6188],[-96.2855,15.9968,1294.329],[-96.2876,15.9943,1156.4838],[-96.2899,15.9943,1042.0345],[-96.2924,15.9961,1007.6495],[-96.2926,16.0002,1159.5891],[-96.2967,16.0035,1466.2451],[-96.3036,16.0048,1185.0713],[-96.3106,16.0084,984.9095],[-96.3101,16.0126,899.8445],[-96.2974,16.0116,1063.8077],[-96.294,16.0217,1444.252],[-96.2889,16.0189,1232.9661],[-96.2846,16.0205,1153.4299],[-96.2922,16.0296,1616.2664],[-96.2921,16.035,1720.0175],[-96.309,16.0306,1234.2754],[-96.3162,16.0303,1063.4575],[-96.3173,16.029,1063.4575],[-96.3201,16.0303,842.7479],[-96.3246,16.0261,823.9376],[-96.3335,16.0247,1198.6844],[-96.3506,16.0264,1069.8627],[-96.3541,16.0316,1282.8802],[-96.3613,16.0358,1612.9515],[-96.3674,16.0433,2245.9268],[-96.3802,16.0456,2432.9221],[-96.3825,16.044,2318.2739],[-96.3851,16.037,2040.7236],[-96.3923,16.0319,1892.2239],[-96.3894,16.0282,2010.3206],[-96.3857,16.0267,2115.9399],[-96.3867,16.0204,2151.9243],[-96.3931,16.0161,2175.3938],[-96.3955,16.0106,2130.9851],[-96.4022,16.0086,2021.0525],[-96.3988,16.0076,2143.7861],[-96.3923,15.9993,2411.6509],[-96.4007,15.9956,2215.5625],[-96.4062,15.9907,2076.6331],[-96.412,15.9652,870.8677],[-96.4083,15.9634,866.7122],[-96.4052,15.9652,870.5581],[-96.4033,15.9628,849.9698],[-96.3995,15.9646,854.0494],[-96.3987,15.9615,881.7889],[-96.3957,15.9613,831.2454],[-96.3932,15.9562,972.4327],[-96.3856,15.9546,1217.6689],[-96.388,15.9452,1331.1819],[-96.3936,15.9373,1320.3755],[-96.3947,15.9303,1006.6807],[-96.3919,15.9239,921.6436],[-96.3887,15.9218,867.946],[-96.3803,15.923,642.6458],[-96.3521,15.9037,893.1078]]]]}
,"properties": {"GID_2": "MEX.20.255_2","GID_0": "MEX","country": "México","GID_1": "MEX.20_1","province": "Oaxaca","NL_NAME_1": "NA","county": "SanMateoPiñas","VARNAME_2": "NA","NL_NAME_2": "NA","TYPE_2": "Município","ENGTYPE_2": "Municipality","CC_2": "NA","HASC_2": "NA","name": "San_Mateo_Piñas.county","area_km2": 162.0711,"hist_schema_id": "Elevation0-9000","hist_area_km2": {"425": 0.0408,"450": 0.1835,"475": 0.2242,"500": 0.53,"525": 1.2028,"550": 1.3047,"575": 1.7736,"600": 2.0387,"625": 2.3648,"650": 2.4259,"675": 3.1394,"700": 3.3637,"725": 3.8733,"750": 4.0364,"775": 4.9944,"800": 4.7293,"825": 5.2797,"850": 5.3204,"875": 5.8096,"900": 5.7893,"925": 5.2184,"950": 5.5649,"975": 5.463,"1000": 5.7483,"1025": 5.0756,"1050": 5.3407,"1075": 5.1165,"1100": 5.1369,"1125": 4.3418,"1150": 3.7711,"1175": 3.6284,"1200": 3.404,"1225": 3.2205,"1250": 2.5682,"1275": 2.4866,"1300": 1.8752,"1325": 1.9363,"1350": 1.6101,"1375": 1.6101,"1400": 1.4878,"1425": 1.2228,"1450": 1.3655,"1475": 1.1209,"1500": 1.0394,"1525": 1.2024,"1550": 1.2432,"1575": 0.8152,"1600": 0.9782,"1625": 1.2228,"1650": 0.7948,"1675": 1.1209,"1700": 1.019,"1725": 0.9986,"1750": 0.856,"1775": 0.856,"1800": 0.856,"1825": 0.9171,"1850": 0.7541,"1875": 0.9375,"1900": 0.7133,"1925": 0.7744,"1950": 0.6318,"1975": 0.8763,"2000": 0.4687,"2025": 0.4891,"2050": 0.6318,"2075": 0.7337,"2100": 0.6114,"2125": 0.7744,"2150": 0.428,"2175": 0.428,"2200": 0.428,"2225": 0.2649,"2250": 0.3261,"2275": 0.3872,"2300": 0.1427,"2325": 0.1427,"2350": 0.163,"2375": 0.0815,"2400": 0.1427,"2425": 0.0611,"2450": 0.0204}}}