{"type":"Feature","properties":{"GID_2":"MEX.14.47_2","GID_0":"MEX","country":"México","GID_1":"MEX.14_1","province":"Jalisco","NL_NAME_1":"NA","county":"Jamay","VARNAME_2":"NA","NL_NAME_2":"NA","TYPE_2":"Município","ENGTYPE_2":"Municipality","CC_2":"NA","HASC_2":"NA","name":"Jamay.county"},
"geometry":{"type": "MultiPolygon","coordinates": [[[[-102.6109,20.2687,1525.0122],[-102.6118,20.2725,1528.0857],[-102.6037,20.2927,1532.73],[-102.6651,20.294,1528.5662],[-102.6658,20.2992,1528.6227],[-102.663,20.3003,1529.0229],[-102.6637,20.3054,1529.6956],[-102.6508,20.3057,1529.6942],[-102.6454,20.3086,1529.5671],[-102.6344,20.3064,1530.7007],[-102.6308,20.3082,1530.4026],[-102.6301,20.3102,1531.2216],[-102.6385,20.315,1533.5239],[-102.6459,20.3154,1539.8334],[-102.6516,20.3125,1541.3167],[-102.6517,20.3139,1539.0398],[-102.6561,20.3152,1539.8831],[-102.6625,20.3153,1546.8821],[-102.6616,20.3265,1546.3887],[-102.6603,20.3262,1546.3887],[-102.6579,20.33,1556.3711],[-102.6548,20.3293,1565.1693],[-102.6513,20.3364,1539.8392],[-102.6553,20.339,1541.5096],[-102.655,20.3411,1542.2731],[-102.6605,20.3437,1552.6425],[-102.6649,20.3526,1548.9656],[-102.6654,20.3563,1559.4094],[-102.6577,20.3687,1543.085],[-102.6618,20.3728,1542.6057],[-102.6791,20.3767,1535.7705],[-102.6804,20.3748,1536.1082],[-102.6728,20.3732,1535.9503],[-102.6728,20.3677,1537.4177],[-102.677,20.3622,1542.2717],[-102.6752,20.3576,1554.2888],[-102.7095,20.3491,1565.2474],[-102.7198,20.3429,1538.5375],[-102.7198,20.3447,1536.0345],[-102.7275,20.3436,1532.0364],[-102.7356,20.3363,1531.7542],[-102.7427,20.3242,1531.6202],[-102.7456,20.322,1532.4319],[-102.7457,20.3196,1532.743],[-102.7489,20.3176,1530.7548],[-102.7487,20.3166,1532.8252],[-102.745,20.3169,1539.8418],[-102.7429,20.312,1567.4717],[-102.7401,20.3126,1579.839],[-102.7339,20.3107,1622.0096],[-102.7332,20.3092,1652.4275],[-102.7347,20.3073,1694.936],[-102.7317,20.3023,1707.2522],[-102.7346,20.2975,1676.2042],[-102.747,20.2299,1519.0],[-102.7432,20.2249,1521.1449],[-102.7498,20.2212,1521.468],[-102.7468,20.2169,1521.7758],[-102.7484,20.2168,1521.731],[-102.7481,20.2115,1519.5022],[-102.7374,20.2145,1520.1237],[-102.7296,20.2137,1519.248],[-102.7295,20.2152,1521.3025],[-102.7273,20.2135,1519.8755],[-102.712,20.2134,1519.3093],[-102.7044,20.2101,1522.5332],[-102.6955,20.2141,1521.9403],[-102.6846,20.2122,1522.7417],[-102.6854,20.218,1523.3745],[-102.6798,20.2261,1524.9342],[-102.6729,20.2266,1524.1344],[-102.6704,20.2304,1523.4082],[-102.6667,20.2313,1524.1897],[-102.6605,20.2315,1524.8088],[-102.6565,20.2284,1524.1061],[-102.6513,20.2287,1524.0144],[-102.6477,20.2248,1524.3329],[-102.6434,20.2236,1524.6508],[-102.6338,20.2259,1524.5212],[-102.6267,20.2301,1525.2566],[-102.6201,20.2452,1523.75],[-102.6171,20.2476,1525.3203],[-102.621,20.2525,1525.4001],[-102.6172,20.255,1525.4933],[-102.6133,20.2551,1525.5137],[-102.6124,20.2592,1525.5995],[-102.6148,20.2633,1527.3243],[-102.6109,20.2687,1525.0122]]]]}}