{"type":"Feature","properties":{"GID_2":"MEX.4.1_2","GID_0":"MEX","country":"México","GID_1":"MEX.4_1","province":"Campeche","NL_NAME_1":"NA","county":"Calakmul","VARNAME_2":"NA","NL_NAME_2":"NA","TYPE_2":"Município","ENGTYPE_2":"Municipality","CC_2":"NA","HASC_2":"NA","name":"Calakmul.county"},
"geometry":{"type": "MultiPolygon","coordinates": [[[[-89.3742,17.8153,120.9221],[-89.1522,17.8156,142.4083],[-89.1522,17.9536,60.5993],[-89.2059,17.9541,72.9199],[-89.2074,17.9926,96.7152],[-89.2067,18.0211,174.7384],[-89.163,18.0185,63.6179],[-89.1634,18.0579,154.7532],[-89.1448,18.0577,79.6233],[-89.1444,18.0824,188.4967],[-89.2025,18.0833,159.298],[-89.2002,18.1446,176.407],[-89.1431,18.1458,155.453],[-89.1429,18.2242,159.3139],[-89.1581,18.2213,207.5051],[-89.1517,18.2936,160.2365],[-89.1324,18.2934,152.5482],[-89.1382,18.3855,167.306],[-89.1212,18.3858,164.4241],[-89.1255,18.4506,154.5418],[-89.1502,18.4511,148.2294],[-89.1496,18.5496,191.5356],[-89.1513,18.724,183.5213],[-89.1557,18.7531,142.2982],[-89.1444,18.7559,138.3148],[-89.1486,18.8773,106.5029],[-89.2069,18.8756,146.6121],[-89.2289,18.873,145.1458],[-89.236,18.927,114.1175],[-89.2335,18.9565,107.6732],[-89.3011,18.9533,132.7119],[-89.369,18.9571,180.1986],[-89.4771,18.9522,255.7757],[-89.4797,19.1345,250.2737],[-89.4821,19.1345,236.088],[-89.4805,19.1526,227.1746],[-89.5757,19.162,176.1744],[-89.5881,19.06,239.9571],[-89.7723,19.0648,157.9768],[-89.7775,19.0318,162.4277],[-89.9298,19.0248,128.0127],[-89.9297,19.0287,138.6501],[-90.007,19.0534,71.1515],[-89.9961,19.0235,117.0209],[-90.1565,19.0492,42.7158],[-90.1567,19.0168,49.2221],[-90.1614,19.0169,49.6334],[-90.1607,19.0016,50.5697],[-90.1632,18.998,50.1111],[-90.0632,18.996,55.8172],[-90.063,18.964,72.6061],[-90.0376,18.9609,62.1609],[-90.0678,18.7104,154.9098],[-90.1221,18.7161,56.5896],[-90.1209,18.7263,53.8602],[-90.1606,18.73,80.1555],[-90.1638,18.6926,62.0694],[-90.1389,18.6905,57.3251],[-90.1416,18.6667,62.5105],[-90.1747,18.6698,63.0602],[-90.178,18.6379,74.5454],[-90.198,18.6408,81.9106],[-90.2078,18.5907,156.7818],[-90.1967,18.5886,106.8362],[-90.2014,18.5596,86.5167],[-90.1723,18.5589,97.4556],[-90.1729,18.5109,106.9643],[-90.1623,18.512,119.1916],[-90.1669,18.4767,195.1305],[-90.146,18.478,129.0027],[-90.1483,18.4658,142.1301],[-90.0879,18.4692,150.493],[-90.0956,18.3923,149.5063],[-90.074,18.3917,195.8519],[-90.0776,18.2301,190.9332],[-90.0801,18.2301,187.7287],[-90.0821,18.1988,203.2304],[-90.2485,18.1934,153.4526],[-90.2488,18.1669,148.8307],[-90.2367,18.1671,140.5486],[-90.2355,18.105,183.6592],[-90.2455,17.8158,177.4547],[-89.3742,17.8153,120.9221]]]]}}