{"type": "Feature","bbox": [-96.5051,16.2387,-96.3888,16.3504],"geometry": {"type": "MultiPolygon","coordinates": [[[[-96.5051,16.3246,1645.1736],[-96.5035,16.3207,1573.3324],[-96.4943,16.3164,1620.6195],[-96.4861,16.3025,1678.3722],[-96.4743,16.278,2051.2632],[-96.4685,16.2509,2137.1987],[-96.4643,16.241,2238.4861],[-96.4616,16.2474,2132.8254],[-96.4437,16.2387,2350.9189],[-96.4326,16.2568,2113.4822],[-96.4203,16.2472,2160.842],[-96.4155,16.2496,2060.0112],[-96.4069,16.2629,1861.3367],[-96.402,16.258,1876.5123],[-96.3963,16.2558,1926.9425],[-96.3897,16.2491,1969.4893],[-96.3888,16.2675,2444.2559],[-96.3968,16.2645,2075.6602],[-96.4045,16.2731,2116.6646],[-96.4222,16.2827,1973.3083],[-96.4286,16.2895,1890.4125],[-96.4332,16.3012,1659.8523],[-96.4323,16.3023,1716.4537],[-96.4347,16.3021,1627.8337],[-96.4333,16.3068,1635.6439],[-96.4361,16.31,1616.4169],[-96.434,16.3153,1578.5736],[-96.4367,16.3168,1584.3455],[-96.4363,16.3198,1563.5756],[-96.4525,16.3129,1613.21],[-96.4657,16.3283,1577.588],[-96.4664,16.332,1545.1263],[-96.4747,16.3389,1560.5813],[-96.4794,16.3394,1503.7327],[-96.478,16.3439,1511.5337],[-96.4797,16.3446,1493.4766],[-96.4774,16.3482,1485.3323],[-96.4801,16.3503,1502.8728],[-96.4812,16.349,1514.3835],[-96.4795,16.347,1488.0042],[-96.4862,16.3465,1501.8888],[-96.485,16.3504,1562.4229],[-96.4902,16.3494,1546.8083],[-96.4959,16.3457,1587.4084],[-96.498,16.338,1599.2266],[-96.5002,16.3362,1598.6078],[-96.5007,16.3289,1600.8945],[-96.5051,16.3246,1645.1736]]]]}
,"properties": {"GID_2": "MEX.20.156_2","GID_0": "MEX","country": "México","GID_1": "MEX.20_1","province": "Oaxaca","NL_NAME_1": "NA","county": "SanIldefonsoAmatlán","VARNAME_2": "NA","NL_NAME_2": "NA","TYPE_2": "Município","ENGTYPE_2": "Municipality","CC_2": "NA","HASC_2": "NA","name": "San_Ildefonso_Amatlán.county","area_km2": 61.27712,"hist_schema_id": "Elevation0-9000","hist_area_km2": {"1475": 0.04069,"1500": 0.63071,"1525": 1.48526,"1550": 2.44159,"1575": 2.99103,"1600": 2.5231,"1625": 3.07257,"1650": 2.95054,"1675": 2.72679,"1700": 2.36055,"1725": 1.83149,"1750": 1.77048,"1775": 1.4449,"1800": 1.5874,"1825": 1.52638,"1850": 1.4857,"1875": 1.64854,"1900": 1.64856,"1925": 1.50611,"1950": 1.68931,"1975": 2.17779,"2000": 1.85216,"2025": 1.83181,"2050": 2.13713,"2075": 2.32033,"2100": 2.62564,"2125": 2.01503,"2150": 1.68937,"2175": 1.42476,"2200": 1.24156,"2225": 1.24156,"2250": 1.07873,"2275": 0.85484,"2300": 0.77342,"2325": 0.50882,"2350": 0.12212,"2375": 0.02036}}}