{"type":"Feature","properties":{"GID_2":"MEX.13.82_2","GID_0":"MEX","country":"México","GID_1":"MEX.13_1","province":"Hidalgo","NL_NAME_1":"NA","county":"ZapotlándeJuárez","VARNAME_2":"NA","NL_NAME_2":"NA","TYPE_2":"Município","ENGTYPE_2":"Municipality","CC_2":"NA","HASC_2":"NA","name":"Zapotlánde_Juárez.county"},
"geometry":{"type": "MultiPolygon","coordinates": [[[[-98.8501,20.0346,2465.5928],[-98.8521,20.0235,2430.3921],[-98.8512,20.0198,2413.5103],[-98.8548,20.0165,2383.6567],[-98.8557,20.0195,2405.8367],[-98.8542,20.024,2399.3447],[-98.8563,20.0248,2402.1387],[-98.8573,20.03,2433.3203],[-98.8555,20.0337,2422.7695],[-98.8573,20.0351,2455.106],[-98.8572,20.0381,2456.5061],[-98.862,20.0416,2480.6138],[-98.872,20.0426,2527.8694],[-98.8752,20.0449,2540.6914],[-98.8844,20.0457,2564.7356],[-98.8899,20.0442,2570.5874],[-98.895,20.0493,2585.3237],[-98.8983,20.0485,2615.2078],[-98.9042,20.0505,2642.5247],[-98.9099,20.0475,2703.7681],[-98.9165,20.0469,2664.3105],[-98.9192,20.0444,2635.8694],[-98.9088,20.022,2527.9929],[-98.903,20.0162,2480.4624],[-98.9063,19.9983,2441.7222],[-98.9061,19.9872,2404.7622],[-98.9084,19.9843,2393.4214],[-98.9047,19.978,2382.4849],[-98.9041,19.9685,2367.9568],[-98.9065,19.9668,2363.9155],[-98.905,19.9623,2359.4402],[-98.9075,19.9592,2354.4829],[-98.9055,19.954,2351.0518],[-98.8866,19.942,2331.2229],[-98.8868,19.9402,2329.9053],[-98.8911,19.9414,2334.3235],[-98.8929,19.935,2328.6602],[-98.8875,19.9334,2326.4082],[-98.8884,19.9327,2327.6226],[-98.8869,19.9295,2325.3865],[-98.8798,19.9243,2320.1626],[-98.8713,19.9423,2324.3494],[-98.843,19.9257,2317.4023],[-98.7969,19.9768,2326.2695],[-98.8075,19.9844,2330.9695],[-98.79,19.9864,2328.3481],[-98.8106,20.0218,2344.0144],[-98.8188,20.0264,2365.2439],[-98.8227,20.018,2349.6611],[-98.8307,20.0214,2381.6653],[-98.831,20.0228,2393.5005],[-98.8279,20.0242,2378.3308],[-98.8301,20.0255,2401.5469],[-98.8328,20.036,2449.04],[-98.8371,20.038,2493.4697],[-98.837,20.042,2470.7129],[-98.8426,20.0402,2478.1558],[-98.8442,20.041,2472.8865],[-98.8501,20.0346,2465.5928]]]]}}