{"type": "Feature","bbox": [-106.9516,31.12,-106.1811,31.7838],"geometry": {"type": "MultiPolygon","coordinates": [[[[-106.3103,31.1537,1456.917],[-106.2643,31.1766,1496.4783],[-106.2646,31.2546,1497.4491],[-106.2717,31.2452,1696.3779],[-106.2804,31.254,1642.3904],[-106.2804,31.272,1494.6982],[-106.2636,31.2731,1435.5376],[-106.2661,31.3182,1336.1816],[-106.255,31.3176,1332.9067],[-106.2552,31.3231,1334.6],[-106.2665,31.3227,1325.3762],[-106.2701,31.3706,1270.7942],[-106.281,31.3712,1278.4199],[-106.2595,31.4339,1177.9153],[-106.2349,31.4102,1164.5981],[-106.2223,31.4165,1149.5083],[-106.2124,31.4272,1135.6675],[-106.2097,31.4333,1129.8695],[-106.2035,31.4362,1124.9712],[-106.1984,31.4431,1116.4956],[-106.1821,31.4518,1097.5859],[-106.1811,31.4549,1097.073],[-106.1833,31.4582,1097.7019],[-106.2014,31.4629,1099.686],[-106.2106,31.4701,1099.7177],[-106.2196,31.4815,1102.4329],[-106.2252,31.5016,1102.0317],[-106.2373,31.5134,1103.2036],[-106.2471,31.5425,1105.1876],[-106.2811,31.5626,1108.6311],[-106.2895,31.5885,1109.9055],[-106.3028,31.6108,1111.3408],[-106.3032,31.6218,1112.0844],[-106.335,31.6643,1117.4551],[-106.3494,31.6959,1119.0945],[-106.3721,31.7122,1120.9875],[-106.3795,31.7304,1121.9713],[-106.417,31.7514,1125.4868],[-106.4336,31.7544,1126.8818],[-106.4507,31.7642,1132.4237],[-106.4557,31.7639,1127.6775],[-106.4663,31.7599,1129.0708],[-106.4732,31.7504,1130.3931],[-106.4855,31.7477,1132.0947],[-106.4904,31.7486,1131.1389],[-106.5067,31.7609,1137.001],[-106.5102,31.7607,1136.9774],[-106.5137,31.7704,1134.327],[-106.5234,31.7755,1139.0951],[-106.5279,31.7805,1138.8564],[-106.5285,31.7838,1141.8143],[-106.8677,31.7838,1255.4482],[-106.8617,31.7695,1256.0281],[-106.8606,31.7631,1255.4779],[-106.8631,31.7556,1254.2369],[-106.8582,31.7463,1258.0968],[-106.8458,31.7414,1258.9821],[-106.8364,31.6878,1252.7021],[-106.8328,31.6865,1251.2407],[-106.8308,31.6796,1252.3629],[-106.8315,31.6746,1253.0115],[-106.8775,31.6224,1227.2979],[-106.8601,31.6226,1221.6487],[-106.8526,31.6194,1233.249],[-106.8348,31.6176,1232.4885],[-106.8231,31.613,1235.1586],[-106.8088,31.6099,1233.999],[-106.8002,31.6052,1233.2134],[-106.7543,31.6067,1240.5988],[-106.7543,31.6034,1231.113],[-106.749,31.6034,1235.7522],[-106.7498,31.5042,1228.1145],[-106.7415,31.5033,1241.1619],[-106.7465,31.5001,1227.158],[-106.7507,31.4997,1223.9167],[-106.75,31.4959,1222.1165],[-106.7416,31.4843,1216.0536],[-106.7398,31.4793,1215.2719],[-106.7156,31.4712,1216.3693],[-106.7087,31.4666,1217.0236],[-106.7213,31.4547,1213.0186],[-106.6888,31.432,1208.3081],[-106.7055,31.4207,1219.6917],[-106.7417,31.4081,1215.4854],[-106.7418,31.4003,1218.644],[-106.8485,31.4012,1211.7316],[-106.8469,31.3718,1207.85],[-106.9516,31.3359,1187.2554],[-106.9225,31.2369,1176.405],[-106.8822,31.2341,1178.3552],[-106.8812,31.2254,1177.6803],[-106.8633,31.186,1178.0876],[-106.857,31.1806,1177.3484],[-106.8538,31.1739,1176.4623],[-106.8472,31.1686,1176.5455],[-106.8359,31.1517,1182.4171],[-106.8219,31.1456,1198.0051],[-106.82,31.142,1192.8348],[-106.8239,31.1277,1177.0256],[-106.8267,31.1233,1175.947],[-106.8213,31.12,1175.9965],[-106.777,31.1251,1198.3494],[-106.7458,31.1379,1209.6282],[-106.7456,31.1603,1211.3966],[-106.735,31.1592,1209.5809],[-106.719,31.1627,1211.3213],[-106.6864,31.165,1209.9663],[-106.6708,31.1683,1214.4166],[-106.659,31.1743,1214.8191],[-106.6564,31.1727,1215.9156],[-106.6477,31.1729,1218.0092],[-106.6353,31.1661,1222.5776],[-106.6297,31.1585,1225.7371],[-106.6202,31.1561,1230.6589],[-106.6196,31.1543,1230.6279],[-106.6147,31.152,1234.2513],[-106.6076,31.1553,1237.4131],[-106.597,31.1521,1242.8691],[-106.59,31.1527,1248.0028],[-106.5896,31.1514,1247.9552],[-106.5015,31.1525,1319.2432],[-106.5074,31.1873,1295.1028],[-106.3908,31.1876,1362.0139],[-106.3968,31.159,1351.3538],[-106.374,31.1547,1373.9044],[-106.3669,31.1871,1386.9377],[-106.3103,31.1537,1456.917]]]]}
,"properties": {"GID_2": "MEX.6.36_2","GID_0": "MEX","country": "México","GID_1": "MEX.6_1","province": "Chihuahua","NL_NAME_1": "NA","county": "Juárez","VARNAME_2": "NA","NL_NAME_2": "NA","TYPE_2": "Município","ENGTYPE_2": "Municipality","CC_2": "NA","HASC_2": "NA","name": "Juárez.county","area_km2": 3547.504,"hist_schema_id": "Elevation0-9000","hist_area_km2": {"1100": 29.317,"1125": 130.724,"1150": 58.611,"1175": 156.016,"1200": 580.335,"1225": 613.543,"1250": 953.033,"1275": 269.255,"1300": 230.964,"1325": 123.916,"1350": 75.196,"1375": 64.442,"1400": 64.806,"1425": 52.44,"1450": 36.844,"1475": 27.803,"1500": 23.798,"1525": 17.293,"1550": 10.301,"1575": 7.945,"1600": 6.425,"1625": 4.325,"1650": 3.511,"1675": 2.353,"1700": 2.045,"1725": 1.268,"1750": 0.525,"1775": 0.326,"1800": 0.127}}}