{"type":"Feature","properties":{"GID_2":"MEX.20.430_2","GID_0":"MEX","country":"México","GID_1":"MEX.20_1","province":"Oaxaca","NL_NAME_1":"NA","county":"SantaMaríaPetapa","VARNAME_2":"NA","NL_NAME_2":"NA","TYPE_2":"Município","ENGTYPE_2":"Municipality","CC_2":"NA","HASC_2":"NA","name":"Santa_María_Petapa.county"},
"geometry":{"type": "MultiPolygon","coordinates": [[[[-95.0502,16.8331,235.9956],[-95.0521,16.8353,242.0876],[-95.0594,16.8365,246.8209],[-95.0638,16.8354,247.343],[-95.0641,16.837,254.9511],[-95.0627,16.849,235.1936],[-95.0599,16.8517,217.1152],[-95.0619,16.8564,209.0267],[-95.0603,16.8613,222.4897],[-95.0565,16.8623,223.9588],[-95.0528,16.8585,229.1727],[-95.0506,16.8597,228.651],[-95.0514,16.8649,228.8269],[-95.0526,16.8652,226.1062],[-95.0521,16.8683,218.2325],[-95.0498,16.868,213.6812],[-95.0491,16.8721,209.5657],[-95.051,16.8724,211.6736],[-95.051,16.8761,216.7908],[-95.05,16.8832,201.6037],[-95.0479,16.8845,200.5094],[-95.0497,16.8866,204.4808],[-95.049,16.8898,191.4007],[-95.0282,16.8811,215.3131],[-95.0286,16.8785,206.2077],[-95.0264,16.8782,210.1102],[-95.016,16.8789,214.6851],[-95.0153,16.8817,221.906],[-95.0169,16.8818,221.906],[-95.0181,16.8849,217.5417],[-95.0143,16.8874,224.1203],[-95.0258,16.8859,202.6053],[-95.0223,16.8881,209.6972],[-95.0281,16.8892,203.3312],[-95.0351,16.8931,194.2295],[-95.0355,16.895,201.9795],[-95.033,16.8971,194.6217],[-95.0332,16.9006,193.6061],[-95.046,16.8991,189.7418],[-95.0462,16.9031,175.5169],[-95.0364,16.9056,201.1383],[-95.0304,16.9036,194.1822],[-95.0278,16.9059,196.3387],[-95.0186,16.9079,208.5654],[-95.0144,16.9131,275.5477],[-95.0112,16.9124,271.606],[-95.0114,16.9185,262.0507],[-95.0026,16.9228,192.2693],[-95.0006,16.9268,162.2613],[-94.9977,16.9269,152.5729],[-94.9969,16.9295,150.345],[-94.993,16.9316,205.8181],[-94.988,16.9304,229.3874],[-94.9854,16.9246,158.0564],[-94.9809,16.921,146.8459],[-94.9711,16.9279,107.4009],[-94.9655,16.9236,102.095],[-94.9552,16.9261,107.1246],[-94.9536,16.9276,98.7269],[-94.9557,16.9343,109.1576],[-94.9525,16.9356,97.0444],[-94.9489,16.9346,116.9632],[-94.9438,16.9377,92.6693],[-94.9431,16.94,98.1144],[-94.9485,16.9436,93.0904],[-94.9509,16.9495,89.1679],[-94.9468,16.9528,88.174],[-94.9461,16.9557,86.9591],[-94.943,16.955,87.6358],[-94.9409,16.9575,105.5143],[-94.9414,16.9596,89.8123],[-94.9447,16.9614,88.0273],[-94.9471,16.9768,103.0761],[-94.9493,16.977,84.0778],[-94.9542,16.97,95.1288],[-94.9545,16.9733,81.6756],[-94.9577,16.9784,81.9383],[-94.9494,16.9798,107.3278],[-94.9478,16.9821,110.758],[-94.9445,16.9824,120.7537],[-94.9445,16.9878,117.9158],[-94.9544,16.9952,88.5562],[-94.9605,16.9957,75.5415],[-94.9667,16.9923,82.6325],[-94.9664,16.9839,80.4444],[-94.9631,16.9826,77.3755],[-94.9643,16.9801,83.7431],[-94.9623,16.9764,82.2251],[-94.966,16.9742,90.7114],[-94.9666,16.9698,90.4034],[-94.9688,16.9695,88.9446],[-94.9687,16.9655,88.9647],[-94.97,16.9644,91.3951],[-94.9689,16.9599,87.8165],[-94.9742,16.953,93.7932],[-94.9777,16.9523,104.6394],[-94.9808,16.9559,120.8734],[-94.9873,16.9561,126.2982],[-94.9908,16.9601,123.9062],[-95.0076,16.9462,162.481],[-95.0127,16.9473,171.0291],[-95.0101,16.9441,184.8407],[-95.0176,16.9383,284.3015],[-95.0184,16.9342,296.6146],[-95.0214,16.9343,279.2941],[-95.0281,16.9407,221.2349],[-95.0315,16.9404,188.8899],[-95.0374,16.9449,127.2964],[-95.0396,16.9436,117.5979],[-95.0401,16.9403,144.6398],[-95.0326,16.9326,131.3621],[-95.0332,16.9245,163.7195],[-95.0555,16.9171,163.9453],[-95.0556,16.9113,204.9754],[-95.0537,16.9098,182.6833],[-95.056,16.9063,173.6231],[-95.0594,16.9099,166.1848],[-95.0635,16.9053,184.6512],[-95.0725,16.9072,181.9821],[-95.0744,16.9038,180.1257],[-95.0794,16.9036,178.0569],[-95.0835,16.8977,183.3726],[-95.0851,16.9013,211.1826],[-95.0915,16.8971,196.7428],[-95.0982,16.8973,198.3052],[-95.0975,16.9008,225.5719],[-95.0987,16.9022,198.6365],[-95.1054,16.9046,283.0215],[-95.1138,16.9033,214.8681],[-95.1297,16.9093,266.5351],[-95.1288,16.9056,270.848],[-95.1381,16.9091,281.887],[-95.1401,16.9119,283.1888],[-95.1518,16.9131,293.6788],[-95.1551,16.915,310.416],[-95.1507,16.8884,456.6376],[-95.1752,16.8859,743.4927],[-95.1389,16.825,254.0823],[-95.1371,16.825,255.7856],[-95.1379,16.8229,246.5418],[-95.1324,16.8191,257.4456],[-95.1309,16.8146,250.2775],[-95.1314,16.806,257.4089],[-95.1276,16.8026,272.9136],[-95.1214,16.8024,263.3868],[-95.1149,16.8067,255.5393],[-95.1132,16.8117,240.6552],[-95.1113,16.8106,246.0181],[-95.0964,16.8204,390.9545],[-95.0926,16.8177,280.8402],[-95.0954,16.8145,251.7322],[-95.096,16.8111,242.0773],[-95.0859,16.8127,318.612],[-95.0795,16.8158,433.8162],[-95.0736,16.8138,448.6759],[-95.0663,16.8164,268.246],[-95.0622,16.8146,240.9848],[-95.0594,16.8192,246.1155],[-95.0558,16.8214,244.6124],[-95.0548,16.8282,233.9663],[-95.0502,16.8331,235.9956]]]]}}