{"type":"Feature","properties":{"featurecla":"River","scalerank":11,"rivernum":22286,"dissolve":"22286River","name":"Huaynamota","name_alt":null,"note":"ID is link back to CEC data","name_full":"Huaynamota","min_zoom":6.7,"strokeweig":0.2,"uident":2023601,"min_label":7.7},
"geometry":{"type": "LineString","coordinates": [[-104.5458064443954,21.969427801556535,497.6795],[-104.54841061106207,21.960231838014863,548.089],[-104.54710852772872,21.950018621869035,296.6655],[-104.54600989491622,21.922145900514863,342.4014],[-104.54979407460372,21.891546942181535,263.4576],[-104.5543513662704,21.879217840619035,393.2122],[-104.5831599600204,21.876572983848206,576.0299],[-104.60399329335372,21.862168686973206,276.7799],[-104.63756262929122,21.853216864056535,235.6745],[-104.65778561106207,21.854681707806535,209.9049],[-104.66681881418707,21.861517645306535,397.7925],[-104.68757076731207,21.863959051556535,246.1964],[-104.68834387929122,21.864081121869035,246.1964],[-104.7120662100204,21.861639715619035,273.803],[-104.7318416006454,21.852158921348206,449.6645]]}}