{"type":"Feature","properties":{"ISO3166-1-Alpha-3":"MEX","country":"Mexico","fill":"#FF0","id":"2726","name":"Tlaxcala"},
"geometry":{"type": "Polygon","coordinates": [[[-97.86082,19.51271,3262.4158],[-97.85064,19.51716,3258.7429],[-97.84258,19.54346,3147.6379],[-97.87203,19.55891,3259.8147],[-97.91337,19.56919,2679.6409],[-97.94076,19.57984,2603.5903],[-97.95616,19.59271,2472.5381],[-97.96836,19.60743,2563.0815],[-97.98158,19.62056,2751.5347],[-98.00024,19.62872,2896.9263],[-98.01848,19.63162,3254.6611],[-98.0346,19.63611,3272.9968],[-98.0407,19.64526,3342.6611],[-98.02882,19.66221,3397.1494],[-98.0282,19.69177,3057.458],[-98.0436,19.71864,2867.8604],[-98.06251,19.73084,2541.3809],[-98.0729,19.71626,2670.7312],[-98.0714,19.69875,2751.3069],[-98.06902,19.68588,2921.032],[-98.07254,19.67709,3033.01],[-98.08866,19.67198,2901.2922],[-98.1023,19.67089,2893.2891],[-98.11589,19.671,3010.8079],[-98.12948,19.67177,3104.4167],[-98.14313,19.67275,2884.8828],[-98.16876,19.67218,2704.0435],[-98.19268,19.67926,3115.2214],[-98.21532,19.69094,3221.4849],[-98.23697,19.70412,2979.8743],[-98.24121,19.70862,3049.3284],[-98.24405,19.7143,3032.2095],[-98.2471,19.71875,2989.2595],[-98.25175,19.71962,2928.5051],[-98.2672,19.71451,2859.9629],[-98.27097,19.71043,2893.335],[-98.27118,19.70505,2801.5747],[-98.27562,19.69601,2900.5229],[-98.28441,19.68598,2820.7246],[-98.2933,19.67642,2634.6741],[-98.30146,19.66624,2574.0723],[-98.30818,19.65436,2518.9072],[-98.31852,19.63069,2586.3989],[-98.33071,19.60697,2509.8032],[-98.34621,19.59451,2508.7019],[-98.36683,19.60485,2506.7798],[-98.37019,19.60681,2507.1309],[-98.3735,19.60867,2505.9312],[-98.37675,19.61053,2505.1963],[-98.38006,19.61245,2504.6477],[-98.40073,19.61622,2501.9961],[-98.42202,19.61694,2500.0774],[-98.4429,19.61798,2500.0],[-98.46228,19.62289,2502.4722],[-98.46491,19.62449,2505.1714],[-98.46745,19.62635,2506.9233],[-98.46988,19.62847,2508.1572],[-98.4721,19.63069,2509.7512],[-98.48708,19.64412,2598.9077],[-98.50181,19.63772,2527.499],[-98.51602,19.62356,2560.4749],[-98.52972,19.61395,2500.9177],[-98.54574,19.61612,2518.4944],[-98.55953,19.62568,2525.4138],[-98.5725,19.63369,2521.5959],[-98.5862,19.63126,2527.7495],[-98.59736,19.62201,2548.627],[-98.60904,19.6126,2559.4233],[-98.62082,19.60764,2602.7969],[-98.63219,19.61146,2614.7075],[-98.63684,19.60087,2600.4397],[-98.6417,19.59245,2610.178],[-98.64868,19.58702,2622.6768],[-98.65948,19.58552,2692.2241],[-98.67188,19.5847,2779.873],[-98.68433,19.58428,2852.9067],[-98.69673,19.58387,2955.3125],[-98.70909,19.58294,2918.3755],[-98.70164,19.55121,3027.1506],[-98.69369,19.5324,2871.5254],[-98.67798,19.52144,2969.144],[-98.64749,19.51328,3018.5022],[-98.64496,19.50052,3136.1855],[-98.6432,19.4878,3129.3774],[-98.64196,19.47494,3181.4895],[-98.64087,19.46191,3354.8931],[-98.61317,19.45509,2929.7483],[-98.58051,19.44501,2822.0845],[-98.54832,19.43794,2742.4475],[-98.52191,19.44,2699.3711],[-98.50419,19.45034,2673.4717],[-98.49266,19.45427,2609.9365],[-98.48171,19.45075,2582.8921],[-98.4659,19.43835,2637.3311],[-98.46419,19.43525,2635.938],[-98.46311,19.43173,2621.3987],[-98.46269,19.42786,2597.1973],[-98.46295,19.42398,2566.7698],[-98.46078,19.41137,2464.0452],[-98.4569,19.39938,2358.709],[-98.45117,19.38812,2418.3381],[-98.44342,19.37794,2382.9341],[-98.4367,19.3659,2463.917],[-98.43515,19.35427,2464.8608],[-98.43298,19.34409,2441.6553],[-98.42456,19.3366,2417.5627],[-98.42166,19.33551,2394.1208],[-98.41887,19.33427,2404.7593],[-98.41613,19.33293,2426.8689],[-98.4135,19.33148,2417.3923],[-98.39825,19.32042,2293.2432],[-98.38569,19.30807,2226.5376],[-98.37546,19.29371,2218.0686],[-98.3674,19.27691,2217.1328],[-98.3644,19.26968,2213.7642],[-98.36141,19.26255,2212.0637],[-98.35825,19.25541,2211.0413],[-98.35505,19.24828,2230.9778],[-98.35174,19.24136,2294.7358],[-98.34771,19.23495,2211.1626],[-98.34306,19.22896,2200.0171],[-98.33774,19.22353,2196.3345],[-98.33081,19.21764,2193.7217],[-98.32337,19.21242,2192.3994],[-98.31552,19.20777,2189.6121],[-98.30746,19.20363,2187.9541],[-98.30591,19.2027,2187.9541],[-98.3043,19.20183,2188.4832],[-98.30275,19.20095,2188.6394],[-98.30115,19.20002,2188.0664],[-98.29722,19.19764,2186.6257],[-98.29345,19.19506,2185.9841],[-98.28978,19.19227,2186.4575],[-98.28627,19.18932,2184.5459],[-98.28301,19.18715,2183.8105],[-98.27986,19.18482,2182.9932],[-98.27686,19.18234,2183.0381],[-98.27387,19.17976,2182.0117],[-98.27009,19.17656,2181.3052],[-98.26622,19.17335,2180.5923],[-98.26239,19.17015,2179.5706],[-98.25857,19.16689,2180.46],[-98.25754,19.16601,2179.2139],[-98.2565,19.16514,2180.6143],[-98.25542,19.16426,2179.0259],[-98.25433,19.16333,2178.5056],[-98.25247,19.16188,2178.6177],[-98.25077,19.16012,2178.9707],[-98.24927,19.15837,2177.824],[-98.24793,19.1563,2177.4424],[-98.23976,19.14534,2197.2092],[-98.23201,19.13418,2197.6216],[-98.22415,19.12312,2170.6543],[-98.21573,19.11248,2202.4866],[-98.19346,19.10648,2277.6802],[-98.1732,19.11284,2269.897],[-98.15325,19.1225,2335.5781],[-98.13196,19.12669,2403.0889],[-98.1083,19.13485,2490.3333],[-98.08726,19.15713,2704.8198],[-98.06804,19.18472,2982.8789],[-98.05011,19.20916,3340.9219],[-98.04184,19.20684,3524.948],[-98.0329,19.20353,3584.7615],[-98.02375,19.19971,3616.3257],[-98.01507,19.19599,3383.0217],[-98.01471,19.19578,3383.0217],[-98.01435,19.19568,3383.0217],[-98.01404,19.19552,3383.0217],[-98.01373,19.19537,3323.6118],[-98.0097,19.19366,3229.5522],[-98.00567,19.19196,3162.3157],[-98.00164,19.19025,3135.8374],[-97.9976,19.1886,3093.47],[-97.99171,19.18606,3025.8352],[-97.98582,19.18358,2977.314],[-97.97993,19.181,2928.7219],[-97.97404,19.17852,2865.4736],[-97.95182,19.16793,2717.7554],[-97.92913,19.15847,2636.4458],[-97.90645,19.15599,2837.0256],[-97.88443,19.16622,2621.6045],[-97.87622,19.17325,2529.3687],[-97.86795,19.18007,2502.4958],[-97.85984,19.1871,2469.8542],[-97.85198,19.19454,2447.6973],[-97.84666,19.2119,2425.4988],[-97.85859,19.22803,2431.0913],[-97.87523,19.24461,2451.7139],[-97.88417,19.26342,2460.5693],[-97.88397,19.26435,2458.5762],[-97.88381,19.26528,2458.5762],[-97.88361,19.26616,2454.0034],[-97.8834,19.26709,2453.0928],[-97.87782,19.2781,2431.4668],[-97.8681,19.28461,2407.8015],[-97.85627,19.28869,2397.342],[-97.84423,19.29221,2389.2544],[-97.84092,19.2982,2401.5605],[-97.8371,19.30352,2401.2402],[-97.8326,19.30797,2413.6924],[-97.82759,19.31143,2426.7593],[-97.80501,19.30389,2440.657],[-97.7755,19.29645,2457.3401],[-97.74754,19.29489,2428.5994],[-97.7294,19.30502,2447.9768],[-97.72837,19.30311,2446.0342],[-97.72718,19.3012,2450.606],[-97.72568,19.29944,2446.6284],[-97.72408,19.2981,2446.7412],[-97.69804,19.28285,2350.6785],[-97.66812,19.28394,2345.9868],[-97.64031,19.29748,2341.624],[-97.62042,19.31949,2341.0],[-97.61282,19.34631,2345.3931],[-97.62125,19.36455,2347.0857],[-97.64124,19.37282,2377.082],[-97.66853,19.36993,2466.9702],[-97.68124,19.37391,2629.5649],[-97.69313,19.38088,2499.9128],[-97.70429,19.38988,2607.5623],[-97.71437,19.3998,2621.9907],[-97.72558,19.41179,2688.6213],[-97.73607,19.42434,2694.394],[-97.74687,19.4367,2666.2251],[-97.75901,19.44786,2849.3201],[-97.7771,19.45654,2744.7354],[-97.79472,19.45685,2707.5413],[-97.81188,19.4508,2707.6982],[-97.82852,19.44042,2586.0229],[-97.84449,19.43633,2577.2271],[-97.85219,19.44863,2697.8608],[-97.85663,19.46651,2677.2175],[-97.86252,19.47917,3068.7632],[-97.87182,19.48078,3117.2754],[-97.87803,19.48506,3162.8831],[-97.88138,19.49183,3043.5386],[-97.88216,19.50108,2960.3091],[-97.87859,19.51152,2994.4753],[-97.87084,19.51312,3093.9526],[-97.86082,19.51271,3262.4158]]]}}