{"type": "Feature","bbox": [-98.7084,19.1051,-97.6257,19.7289],"geometry": {"type": "MultiPolygon","coordinates": [[[[-98.2259,19.1402,2179.8818],[-98.223,19.1366,2174.4214],[-98.208,19.1327,2217.0249],[-98.1992,19.1382,2245.6489],[-98.1907,19.14,2270.1846],[-98.1882,19.1355,2273.2104],[-98.1971,19.1275,2234.5596],[-98.1916,19.1219,2238.543],[-98.2043,19.1149,2210.72],[-98.1986,19.1166,2215.4065],[-98.1868,19.116,2242.2427],[-98.1662,19.1051,2267.4053],[-98.1644,19.1056,2275.0835],[-98.1495,19.1209,2338.1555],[-98.1466,19.1228,2348.6528],[-98.1448,19.1213,2349.3928],[-98.1497,19.1139,2318.0376],[-98.1474,19.1144,2322.083],[-98.1322,19.1287,2406.3599],[-98.1282,19.1294,2420.0725],[-98.1102,19.1432,2524.3125],[-98.1032,19.1526,2598.6455],[-98.1027,19.1575,2628.521],[-98.0994,19.1614,2658.3926],[-98.1003,19.1634,2654.0403],[-98.0936,19.1662,2719.4453],[-98.0776,19.1769,2860.9451],[-98.0696,19.1852,2969.6523],[-98.0686,19.19,3024.8765],[-98.0628,19.1949,3100.7656],[-98.0593,19.2012,3215.4482],[-98.0505,19.2072,3365.6099],[-98.0476,19.2071,3482.6584],[-98.0415,19.2102,3621.929],[-98.0346,19.2188,3938.0947],[-98.0352,19.2241,4089.7314],[-98.0317,19.2309,4364.5889],[-98.0057,19.2089,3448.0437],[-97.9986,19.1983,3216.1956],[-97.9667,19.1875,2893.2896],[-97.9282,19.1642,2587.6323],[-97.922,19.1701,2575.7935],[-97.9151,19.1732,2570.3003],[-97.915,19.1761,2572.0986],[-97.9114,19.1796,2563.9714],[-97.908,19.1808,2562.2324],[-97.9046,19.1776,2561.7041],[-97.8898,19.187,2544.8911],[-97.8907,19.1896,2526.688],[-97.8942,19.1912,2531.6416],[-97.8941,19.1973,2513.0845],[-97.8956,19.1975,2513.0845],[-97.8932,19.2003,2510.5291],[-97.8621,19.2138,2445.4912],[-97.851,19.2229,2427.1614],[-97.8539,19.2261,2427.8384],[-97.8604,19.2441,2427.5576],[-97.8705,19.2401,2444.9607],[-97.8651,19.2539,2430.0537],[-97.8601,19.2567,2418.8652],[-97.8541,19.2573,2412.9395],[-97.8703,19.2706,2424.5967],[-97.8597,19.2872,2399.3057],[-97.8384,19.2873,2384.926],[-97.8396,19.2923,2386.9204],[-97.8372,19.2951,2387.3855],[-97.8393,19.3014,2394.8911],[-97.8209,19.3047,2431.9431],[-97.8005,19.3016,2439.4531],[-97.7854,19.2889,2430.8325],[-97.7767,19.2863,2421.1045],[-97.7752,19.2871,2427.5994],[-97.7734,19.2863,2421.699],[-97.7735,19.284,2416.1714],[-97.7714,19.2838,2416.4805],[-97.7697,19.2866,2422.4663],[-97.7651,19.2869,2421.3577],[-97.7571,19.2998,2452.7271],[-97.7539,19.2993,2442.9751],[-97.7451,19.3053,2419.1611],[-97.737,19.2967,2403.1494],[-97.7383,19.2871,2384.0251],[-97.7293,19.2931,2423.7664],[-97.7196,19.3048,2477.7505],[-97.7157,19.2978,2431.5203],[-97.7105,19.2956,2385.4802],[-97.7047,19.2971,2371.853],[-97.7012,19.2957,2366.4365],[-97.6992,19.2919,2365.1108],[-97.6909,19.2859,2353.2034],[-97.6776,19.2927,2351.3987],[-97.6695,19.2921,2347.0525],[-97.666,19.2955,2351.6702],[-97.658,19.3107,2349.6267],[-97.6461,19.3064,2342.6189],[-97.6389,19.319,2345.0105],[-97.6331,19.3162,2344.7444],[-97.6329,19.3203,2355.8672],[-97.6264,19.3239,2351.167],[-97.6257,19.3314,2370.3877],[-97.627,19.3337,2405.2134],[-97.6387,19.3383,2347.2974],[-97.6314,19.3554,2352.4316],[-97.6403,19.3608,2354.8291],[-97.6536,19.3538,2364.0181],[-97.6533,19.3589,2368.3145],[-97.658,19.3637,2378.9692],[-97.6661,19.3653,2434.2397],[-97.6688,19.3683,2427.9104],[-97.6707,19.3668,2524.0439],[-97.6739,19.3675,2593.0591],[-97.6765,19.3714,2651.5352],[-97.6778,19.3816,2685.3809],[-97.6813,19.3883,2753.6855],[-97.6868,19.387,2711.2454],[-97.6938,19.3892,2657.0249],[-97.6964,19.391,2614.8833],[-97.6982,19.3956,2532.8005],[-97.7032,19.3929,2620.2742],[-97.7055,19.3936,2631.7224],[-97.7077,19.3992,2687.7795],[-97.7066,19.4031,2722.1025],[-97.7088,19.4058,2730.2603],[-97.7119,19.4063,2752.9495],[-97.7211,19.4186,2791.8342],[-97.7207,19.4226,2782.5537],[-97.7234,19.4251,2751.0786],[-97.7245,19.4316,2815.769],[-97.7304,19.4325,2794.4189],[-97.7341,19.435,2748.3828],[-97.7353,19.4324,2725.5974],[-97.7366,19.4349,2711.4736],[-97.738,19.4319,2708.5266],[-97.7386,19.433,2726.8333],[-97.7417,19.4322,2750.7876],[-97.7473,19.4363,2666.2251],[-97.7452,19.4394,2697.3066],[-97.7447,19.445,2744.5586],[-97.7479,19.4512,2879.3926],[-97.754,19.4504,2956.7712],[-97.7567,19.4525,3002.7375],[-97.7548,19.4575,3098.7625],[-97.7688,19.4581,2802.1165],[-97.7707,19.4566,2751.7256],[-97.7739,19.4596,2770.8413],[-97.774,19.4692,3094.5854],[-97.778,19.4729,3193.6855],[-97.7866,19.4705,3095.0232],[-97.7969,19.4724,2837.4626],[-97.7976,19.4785,2907.248],[-97.7968,19.485,2997.5171],[-97.7949,19.4865,3036.3699],[-97.7945,19.4984,3383.3291],[-97.8055,19.4895,3282.667],[-97.8126,19.4869,3179.7883],[-97.8147,19.4825,3115.0559],[-97.8461,19.4688,2821.2974],[-97.8539,19.4583,2808.6448],[-97.8594,19.4543,2744.0342],[-97.8623,19.4562,2627.7471],[-97.8575,19.4648,2652.249],[-97.8521,19.4681,2730.4717],[-97.8474,19.474,2687.8],[-97.8487,19.4828,2747.7041],[-97.8582,19.4931,2781.2249],[-97.8719,19.4986,2843.5459],[-97.8709,19.5002,2858.9927],[-97.874,19.5029,2864.458],[-97.8776,19.5027,2900.6882],[-97.8815,19.4998,2942.9409],[-97.8897,19.5046,3010.4915],[-97.8864,19.5168,3101.9363],[-97.8875,19.5176,3141.0215],[-97.8779,19.5241,3225.3416],[-97.8717,19.5322,3298.1838],[-97.8683,19.5535,3253.2949],[-97.8701,19.5592,3229.5564],[-97.8758,19.5638,3120.4297],[-97.8818,19.5718,3018.7788],[-97.8926,19.5728,2846.25],[-97.8982,19.5771,2638.2366],[-97.9082,19.5795,2471.8066],[-97.9116,19.5841,2372.9585],[-97.9127,19.5899,2316.7112],[-97.9162,19.5939,2307.0298],[-97.9241,19.5903,2305.3337],[-97.9249,19.5885,2321.4595],[-97.9271,19.5897,2314.8188],[-97.9323,19.5873,2360.7273],[-97.9403,19.5885,2355.5635],[-97.943,19.5859,2386.3633],[-97.9466,19.5855,2400.8359],[-97.9501,19.5897,2431.8535],[-97.9507,19.5934,2434.9624],[-97.9493,19.5971,2463.1992],[-97.9505,19.6026,2499.9973],[-97.9539,19.6042,2515.1404],[-97.9576,19.6115,2526.9858],[-97.9646,19.6141,2557.4097],[-97.9661,19.6173,2584.2737],[-97.9688,19.6189,2617.3179],[-97.9679,19.6247,2652.7871],[-97.9781,19.6261,2635.9104],[-97.9838,19.6294,2667.7991],[-97.9959,19.6299,2777.9526],[-98.0011,19.6321,2834.2688],[-98.0422,19.6402,3466.5205],[-98.0379,19.6485,3229.5952],[-98.036,19.6651,3379.3516],[-98.0364,19.6858,3258.3489],[-98.0398,19.6895,3094.9189],[-98.0401,19.6996,2866.8845],[-98.0499,19.7123,2694.5303],[-98.0529,19.7131,2653.1262],[-98.0546,19.7186,2603.3901],[-98.0532,19.7206,2621.7097],[-98.056,19.7228,2579.5276],[-98.056,19.7259,2562.4785],[-98.0608,19.7289,2549.3442],[-98.066,19.7281,2574.4709],[-98.0669,19.7252,2615.1309],[-98.0681,19.716,2667.1797],[-98.0646,19.7087,2697.2693],[-98.0677,19.7068,2724.8726],[-98.0688,19.7034,2725.9504],[-98.0739,19.7027,2749.7219],[-98.0743,19.7007,2747.1519],[-98.0828,19.7008,2786.6699],[-98.0839,19.6938,2828.1453],[-98.0904,19.6895,2857.0588],[-98.0927,19.6833,2866.314],[-98.0909,19.6776,2878.6448],[-98.0934,19.6739,2880.2727],[-98.101,19.668,2877.6025],[-98.1,19.6712,2883.4275],[-98.1037,19.6772,2894.1538],[-98.1066,19.6791,2898.2598],[-98.1065,19.6818,2897.7393],[-98.1108,19.684,2950.8462],[-98.1104,19.6858,2947.1221],[-98.1177,19.6883,2983.6089],[-98.1247,19.6852,3001.48],[-98.1437,19.6836,2933.6401],[-98.1486,19.6809,2897.4458],[-98.1486,19.6769,2879.0459],[-98.1528,19.6765,2825.5884],[-98.1567,19.6714,2750.2749],[-98.1656,19.6675,2667.1492],[-98.1659,19.6696,2670.3672],[-98.1702,19.6731,2723.1855],[-98.1767,19.6746,2821.8374],[-98.1813,19.6737,2995.4707],[-98.1827,19.6769,3059.7598],[-98.1874,19.6797,3085.6826],[-98.1902,19.6779,3045.9417],[-98.1898,19.671,2993.4771],[-98.195,19.675,3115.5972],[-98.2069,19.6747,3360.0059],[-98.2096,19.6772,3245.2678],[-98.2202,19.6737,2941.5869],[-98.228,19.6745,2787.5470999999998],[-98.2291,19.6749,2787.5470999999998],[-98.2281,19.6804,2842.7666],[-98.2328,19.6768,2754.8972],[-98.2411,19.6758,2691.1494],[-98.2411,19.6791,2692.7949],[-98.2444,19.6854,2754.6445],[-98.2462,19.6849,2771.7878],[-98.2524,19.6931,2899.4585],[-98.2532,19.7067,2966.4355],[-98.255,19.7082,2943.1123],[-98.2538,19.7163,2964.5544],[-98.2553,19.7188,2935.1492],[-98.2656,19.717,2837.1304],[-98.272,19.7246,2818.8428],[-98.2752,19.7238,2788.481],[-98.2817,19.7263,2787.0283],[-98.2823,19.724,2844.854],[-98.2797,19.7169,2953.3491],[-98.2918,19.7259,2922.9529],[-98.2933,19.7262,2936.1724],[-98.2927,19.7239,2952.9077],[-98.3016,19.7231,2932.9771],[-98.3073,19.727,2929.302],[-98.3111,19.7277,2911.3435],[-98.3151,19.7247,2896.0322],[-98.3321,19.7217,2848.0847],[-98.3319,19.7116,2837.5232],[-98.3331,19.7118,2777.4338],[-98.3333,19.7088,2716.3364],[-98.3295,19.7038,2726.9153],[-98.33,19.699,2635.6287],[-98.3288,19.698,2613.9873],[-98.3209,19.701,2899.8823],[-98.3238,19.6853,2538.5],[-98.3817,19.6094,2504.8447],[-98.4127,19.6175,2501.0398],[-98.4301,19.6141,2500.0],[-98.4388,19.6143,2500.0],[-98.4414,19.6126,2501.9478],[-98.4433,19.6129,2501.2471],[-98.444,19.6157,2500.0],[-98.4507,19.6181,2501.4575],[-98.4541,19.6183,2500.6716],[-98.4604,19.6161,2500.0],[-98.4613,19.6144,2501.3813],[-98.466,19.6149,2500.8345],[-98.4668,19.6137,2506.2791],[-98.4785,19.618,2500.4451],[-98.4838,19.6188,2500.0],[-98.4875,19.6175,2500.8589],[-98.4902,19.62,2500.9148],[-98.4927,19.6138,2502.2771],[-98.4909,19.6102,2504.0215],[-98.4916,19.6074,2505.2632],[-98.4957,19.6074,2503.1792],[-98.5023,19.6032,2505.9233],[-98.5144,19.604,2500.7722],[-98.5192,19.6024,2503.0007],[-98.5283,19.6143,2500.9177],[-98.526,19.6194,2493.5901],[-98.5356,19.6344,2496.4553],[-98.5504,19.6186,2524.8096],[-98.5502,19.6245,2519.0791],[-98.5557,19.6254,2524.4658],[-98.5556,19.6281,2522.106],[-98.5637,19.6271,2525.1631],[-98.5614,19.6376,2513.9697],[-98.5664,19.6411,2507.041],[-98.569,19.6388,2507.9226],[-98.5799,19.6374,2515.9238],[-98.585,19.6278,2527.7932],[-98.5896,19.6229,2535.2415],[-98.5903,19.6194,2534.9978],[-98.6003,19.6114,2544.5796],[-98.6008,19.6083,2547.8394],[-98.6038,19.6056,2549.792],[-98.6098,19.602,2565.1375],[-98.6259,19.6003,2583.8823],[-98.631,19.602,2585.6184],[-98.6347,19.5978,2588.7019],[-98.6383,19.5989,2605.3389],[-98.642,19.6054,2627.0459],[-98.6447,19.607,2635.0671],[-98.6477,19.6078,2639.1655],[-98.6496,19.6064,2644.5022],[-98.6533,19.6078,2646.6619],[-98.6631,19.6048,2710.8342],[-98.6656,19.6062,2725.5117],[-98.6701,19.5985,2776.2561],[-98.6782,19.6,2959.1858],[-98.6814,19.5983,2994.2686],[-98.6815,19.5879,2913.6758],[-98.6924,19.5859,2900.9048],[-98.693,19.5837,2894.5232],[-98.6912,19.583,2927.5603],[-98.6912,19.5794,2886.8633],[-98.6891,19.5769,2865.0369],[-98.6933,19.5761,2879.9712],[-98.6956,19.5725,2889.5967],[-98.6948,19.5706,2891.7744],[-98.7013,19.5709,2926.7383],[-98.702,19.5653,2920.1685],[-98.6995,19.5672,2919.2329],[-98.7045,19.5613,2930.2129],[-98.7038,19.5591,2897.7998],[-98.706,19.5593,2899.2432],[-98.7081,19.5548,2929.4429],[-98.7055,19.5525,2960.48],[-98.7084,19.5476,3015.26],[-98.7016,19.5458,3152.1597],[-98.7023,19.5403,3011.5906],[-98.7,19.5313,2912.4785],[-98.6819,19.518,2984.5925],[-98.6782,19.5121,3054.1348],[-98.6757,19.4995,3175.8188],[-98.6604,19.4855,3422.2095],[-98.661,19.4784,3542.0908],[-98.6543,19.4711,3387.1934],[-98.6532,19.466,3346.9202],[-98.6405,19.4633,3371.3191],[-98.6341,19.4678,3252.8154],[-98.6294,19.457,3259.0732],[-98.6092,19.4506,2890.063],[-98.5913,19.4492,2769.3684],[-98.5703,19.4668,2810.4126],[-98.5579,19.4626,2813.4185],[-98.5438,19.4604,2900.4749],[-98.5352,19.4623,2912.5828],[-98.5232,19.4609,2765.248],[-98.519,19.4509,2597.958],[-98.5163,19.4392,2547.01],[-98.5127,19.4355,2523.2988],[-98.5103,19.428,2465.8323],[-98.5074,19.4254,2489.7288],[-98.5062,19.426,2458.0024],[-98.5037,19.4204,2453.8164],[-98.4985,19.4165,2422.4602],[-98.4905,19.4041,2404.1499],[-98.4873,19.3977,2381.4814],[-98.4868,19.389,2379.8147],[-98.4703,19.3608,2417.7417],[-98.4531,19.3448,2309.8203],[-98.4413,19.3253,2522.6201],[-98.4284,19.3276,2379.1531],[-98.4207,19.3199,2313.0408],[-98.4144,19.3196,2295.1038],[-98.4126,19.3171,2285.8262],[-98.4077,19.3159,2268.0752],[-98.4101,19.2913,2233.1428],[-98.4069,19.2882,2230.0876],[-98.4018,19.2879,2228.3699],[-98.4013,19.2824,2227.8074],[-98.3804,19.2617,2297.1846],[-98.3767,19.2524,2264.5488],[-98.3773,19.2475,2225.7107],[-98.3704,19.236,2210.0342],[-98.3645,19.2331,2207.042],[-98.3689,19.2261,2209.2292],[-98.3544,19.2209,2202.1611],[-98.3519,19.219,2201.3425],[-98.3442,19.2053,2198.7344],[-98.3368,19.2036,2195.4678],[-98.3349,19.2045,2197.2329],[-98.3307,19.2002,2194.7424],[-98.3349,19.1938,2193.1921],[-98.3379,19.1921,2194.3979],[-98.3427,19.1779,2201.4497],[-98.3239,19.1687,2188.1384],[-98.3122,19.1904,2189.7302],[-98.3072,19.1892,2189.8232],[-98.3024,19.1868,2189.1074],[-98.2917,19.1761,2185.6973],[-98.2697,19.1624,2182.6824],[-98.2382,19.1579,2177.0957],[-98.2379,19.1559,2178.1387],[-98.2367,19.1573,2178.8906],[-98.2302,19.1567,2184.9253],[-98.2284,19.1539,2181.2476],[-98.2299,19.1487,2185.8374],[-98.2244,19.1419,2168.9575],[-98.2259,19.1402,2179.8818]]]]}
,"properties": {"GID_1": "MEX.29_1","GID_0": "MEX","country": "México","province": "Tlaxcala","VARNAME_1": "NA","NL_NAME_1": "NA","TYPE_1": "Estado","ENGTYPE_1": "State","CC_1": "NA","HASC_1": "MX.TL","ISO_1": "MX-TLA","name": "Tlaxcala.province","area_km2": 4010.504,"hist_schema_id": "Elevation0-9000","hist_area_km2": {"2175": 27.234,"2200": 97.432,"2225": 92.1,"2250": 49.177,"2275": 60.944,"2300": 71.967,"2325": 55.433,"2350": 58.79,"2375": 67.046,"2400": 101.788,"2425": 156.255,"2450": 193.255,"2475": 224.384,"2500": 293.102,"2525": 351.72,"2550": 320.602,"2575": 255.648,"2600": 223.683,"2625": 177.978,"2650": 142.213,"2675": 124.218,"2700": 99.873,"2725": 79.451,"2750": 67.839,"2775": 57.046,"2800": 52.13,"2825": 46.833,"2850": 43.534,"2875": 44.33,"2900": 43.787,"2925": 39.528,"2950": 33.115,"2975": 27.622,"3000": 24.327,"3025": 21.948,"3050": 18.31,"3075": 19.749,"3100": 16.132,"3125": 15.773,"3150": 15.752,"3175": 12.655,"3200": 10.477,"3225": 9.018,"3250": 8.059,"3275": 7.699,"3300": 5.86,"3325": 4.901,"3350": 4.241,"3375": 3.341,"3400": 3.461,"3425": 2.622,"3450": 2.222,"3475": 2.001,"3500": 1.682,"3525": 1.682,"3550": 1.141,"3575": 1.221,"3600": 1.401,"3625": 1.061,"3650": 1.121,"3675": 1.081,"3700": 1.041,"3725": 1.061,"3750": 1.021,"3775": 0.881,"3800": 0.761,"3825": 0.901,"3850": 0.681,"3875": 0.601,"3900": 0.761,"3925": 0.621,"3950": 0.541,"3975": 0.5,"4000": 0.32,"4025": 0.36,"4050": 0.18,"4075": 0.2,"4100": 0.18,"4125": 0.18,"4150": 0.1,"4175": 0.14,"4200": 0.1,"4225": 0.12,"4275": 0.06,"4300": 0.06,"4325": 0.06,"4350": 0.06}}}