{"type": "Feature","bbox": [-96.8806,17.4756,-96.6293,17.6917],"geometry": {"type": "MultiPolygon","coordinates": [[[[-96.651,17.5602,1873.4956],[-96.6588,17.5683,1861.4785],[-96.659,17.5718,1751.3878],[-96.6552,17.575,1641.4977],[-96.6539,17.5789,1460.8564],[-96.6544,17.586,1272.265],[-96.6477,17.5949,1137.0046],[-96.6448,17.5962,1134.5818],[-96.6374,17.5965,1073.4097],[-96.6328,17.5945,1053.9099],[-96.6299,17.5968,1096.3652],[-96.6312,17.5993,1053.9812],[-96.6293,17.602,1061.8054],[-96.6299,17.6034,1066.1292],[-96.6325,17.6045,1077.5342],[-96.6404,17.6022,1094.3046],[-96.6384,17.6073,1039.4515],[-96.6401,17.6104,1023.8972],[-96.6418,17.6105,1168.2203],[-96.6438,17.6073,1074.6998],[-96.6462,17.6119,1038.1544],[-96.6491,17.6095,1039.3967],[-96.6505,17.6157,1073.147],[-96.6469,17.6215,1052.3457],[-96.6533,17.6191,1088.4424],[-96.6542,17.6216,1037.1412],[-96.6598,17.6233,1178.9889],[-96.6571,17.6266,999.6644],[-96.6584,17.6305,1037.762],[-96.662,17.6294,1133.5452],[-96.6609,17.6342,987.1949],[-96.6637,17.6348,1012.0433],[-96.6664,17.6313,1022.5996],[-96.6677,17.6366,987.0082],[-96.6727,17.6363,1032.6188],[-96.6735,17.6424,1025.6217],[-96.6699,17.6428,990.3359],[-96.6684,17.6412,995.5402],[-96.6646,17.6436,1032.8555],[-96.6653,17.6462,1051.8871],[-96.6702,17.6437,990.3359],[-96.6726,17.6448,1036.8815],[-96.6716,17.6477,959.0006],[-96.6733,17.6513,991.6212],[-96.676,17.649,959.3924],[-96.6785,17.651,1001.7843],[-96.6803,17.6494,1097.464],[-96.6795,17.6539,1020.4891],[-96.6808,17.6589,1126.2722],[-96.6828,17.6566,959.2221],[-96.6871,17.6569,960.5181],[-96.6891,17.6531,1011.3823],[-96.6916,17.6621,1039.4854],[-96.6896,17.6656,964.4842],[-96.6929,17.6643,978.8433],[-96.695,17.6668,948.1763],[-96.6983,17.6658,1011.0126],[-96.7012,17.6687,972.6951],[-96.701,17.6651,938.7625],[-96.704,17.6651,968.4503],[-96.7072,17.6676,966.4495],[-96.7121,17.677,956.4485],[-96.7156,17.6773,969.9844],[-96.7183,17.6814,935.9728],[-96.7229,17.6799,970.0769],[-96.7249,17.6821,968.7479],[-96.7275,17.6789,960.182],[-96.7311,17.6774,923.6119],[-96.7338,17.6806,927.1506],[-96.7379,17.6815,948.7444],[-96.7403,17.6853,984.2048],[-96.7435,17.6852,997.3875],[-96.7517,17.6917,951.2051],[-96.7596,17.6833,1007.4425],[-96.7629,17.6871,975.257],[-96.767,17.6864,1003.4833],[-96.7715,17.6759,962.4383],[-96.7732,17.6762,948.6608],[-96.7761,17.682,937.6299],[-96.7803,17.6782,962.4665],[-96.7871,17.6803,916.1093],[-96.7917,17.6778,911.822],[-96.7964,17.6779,901.172],[-96.8032,17.6802,949.3391],[-96.8059,17.6768,948.166],[-96.8104,17.6756,946.044],[-96.8121,17.6736,975.6781],[-96.8119,17.6705,930.4942],[-96.8085,17.6697,864.5758],[-96.8075,17.6675,931.6191],[-96.81,17.665,925.0244],[-96.8156,17.6631,855.3513],[-96.8174,17.6635,822.5544],[-96.8216,17.6697,831.7462],[-96.8201,17.6716,867.7454],[-96.8207,17.6737,871.5806],[-96.826,17.6711,897.0899],[-96.8271,17.6677,785.1101],[-96.833,17.6685,799.3265],[-96.8318,17.6732,804.0829],[-96.8362,17.6779,818.2268],[-96.8514,17.6729,758.9418],[-96.8548,17.6737,751.4257],[-96.8677,17.6588,1153.5481],[-96.8806,17.6221,806.1069],[-96.8779,17.5889,1463.7825],[-96.872,17.5563,1462.149],[-96.866,17.5367,1510.7024],[-96.8666,17.5282,1366.887],[-96.8537,17.518,1136.3204],[-96.8387,17.515,992.1664],[-96.8377,17.509,1052.2458],[-96.8299,17.504,1113.8878],[-96.8255,17.5053,1218.661],[-96.7996,17.4989,1293.8861],[-96.7959,17.4895,1638.3601],[-96.7878,17.4874,1854.0225],[-96.7722,17.4756,2240.0203],[-96.7185,17.495,3060.9783],[-96.7155,17.5023,3011.7776],[-96.6967,17.5313,2982.1284],[-96.6688,17.5466,2320.7341],[-96.6586,17.5565,2256.0303],[-96.651,17.5602,1873.4956]]]]}
,"properties": {"GID_2": "MEX.20.178_2","GID_0": "MEX","country": "México","GID_1": "MEX.20_1","province": "Oaxaca","NL_NAME_1": "NA","county": "SanJuanBautistaAtatlahuca","VARNAME_2": "NA","NL_NAME_2": "NA","TYPE_2": "Município","ENGTYPE_2": "Municipality","CC_2": "NA","HASC_2": "NA","name": "San_Juan_Bautista_Atatlahuca.county","area_km2": 423.0564,"hist_schema_id": "Elevation0-9000","hist_area_km2": {"725": 0.0404,"750": 0.101,"775": 0.2424,"800": 0.687,"825": 1.0709,"850": 1.7782,"875": 2.9503,"900": 3.8193,"925": 4.8907,"950": 6.4064,"975": 8.3671,"1000": 8.913,"1025": 7.8819,"1050": 7.6393,"1075": 8.5488,"1100": 7.8616,"1125": 7.9221,"1150": 7.9827,"1175": 7.1947,"1200": 6.9114,"1225": 7.3159,"1250": 6.386,"1275": 6.9114,"1300": 6.7096,"1325": 6.3861,"1350": 6.467,"1375": 6.4063,"1400": 6.5278,"1425": 6.6891,"1450": 5.3556,"1475": 5.0727,"1500": 5.6182,"1525": 5.4365,"1550": 5.3758,"1575": 5.2141,"1600": 5.7192,"1625": 5.0725,"1650": 5.6383,"1675": 5.7801,"1700": 5.0727,"1725": 4.6887,"1750": 5.5779,"1775": 5.4972,"1800": 5.4971,"1825": 5.477,"1850": 6.1237,"1875": 6.4269,"1900": 6.0229,"1925": 5.9825,"1950": 6.6495,"1975": 6.3464,"2000": 5.7807,"2025": 5.7606,"2050": 6.084,"2075": 5.6999,"2100": 5.8819,"2125": 6.1448,"2150": 6.0233,"2175": 5.9427,"2200": 5.397,"2225": 5.3768,"2250": 5.3566,"2275": 4.6491,"2300": 4.6693,"2325": 4.6896,"2350": 4.0831,"2375": 3.9214,"2400": 3.3555,"2425": 3.4566,"2450": 3.8406,"2475": 3.1129,"2500": 3.315,"2525": 3.3353,"2550": 2.9513,"2575": 2.4458,"2600": 2.6075,"2625": 2.1831,"2650": 2.4662,"2675": 2.163,"2700": 2.1427,"2725": 1.5565,"2750": 1.2736,"2775": 1.4151,"2800": 1.2938,"2825": 1.1523,"2850": 1.2939,"2875": 1.2736,"2900": 1.1321,"2925": 0.9502,"2950": 0.6267,"2975": 0.95009999999999994,"3000": 0.6671,"3025": 0.4852,"3050": 0.3639,"3075": 0.4852,"3100": 0.3841,"3125": 0.1617,"3150": 0.0404,"3175": 0.0607}}}