{"type":"Feature","properties":{"GID_2":"MEX.21.103_2","GID_0":"MEX","country":"México","GID_1":"MEX.21_1","province":"Puebla","NL_NAME_1":"NA","county":"Nauzontla","VARNAME_2":"NA","NL_NAME_2":"NA","TYPE_2":"Município","ENGTYPE_2":"Municipality","CC_2":"NA","HASC_2":"NA","name":"Nauzontla.county"},
"geometry":{"type": "MultiPolygon","coordinates": [[[[-97.5796,19.9979,1109.4547],[-97.5877,19.9984,1039.5729],[-97.5904,19.9965,1080.6808],[-97.5927,19.9917,1189.5923],[-97.5949,19.9919,1220.4523],[-97.595,19.9935,1196.6863],[-97.6017,19.9914,1295.1946],[-97.6032,19.9899,1290.0702],[-97.6029,19.9848,1394.6377],[-97.6068,19.9857,1221.1509],[-97.6091,19.9813,1168.7404],[-97.6073,19.9759,1300.7139],[-97.6018,19.9737,1492.6228],[-97.6005,19.9669,1564.91],[-97.6084,19.9603,1416.1864],[-97.6092,19.9555,1500.4325],[-97.6169,19.9461,1437.6619],[-97.6116,19.9391,1539.8835],[-97.6081,19.9368,1523.7001],[-97.6044,19.9292,1651.9729],[-97.6049,19.9253,1565.959],[-97.6027,19.9275,1539.254],[-97.5953,19.9282,1252.5433],[-97.5805,19.9351,1238.0458],[-97.5764,19.9431,1194.4829],[-97.5717,19.9488,1179.0927],[-97.5687,19.9499,1160.3813],[-97.5666,19.9541,1270.5505],[-97.5687,19.9561,1291.6554],[-97.5685,19.9614,1556.4011],[-97.5672,19.9671,1515.6782],[-97.5642,19.9672,1547.4738],[-97.5665,19.9729,1455.9122],[-97.5681,19.9733,1434.3311],[-97.5678,19.9894,1268.6385],[-97.5714,19.9944,1212.2915],[-97.5782,19.9953,1178.7131],[-97.5778,19.9965,1147.8296],[-97.5801,19.9964,1128.9127],[-97.5796,19.9979,1109.4547]]]]}}