{"type":"Feature","properties":{"GID_2":"MEX.30.122_2","GID_0":"MEX","country":"México","GID_1":"MEX.30_1","province":"Veracruz","NL_NAME_1":"NA","county":"Nogales","VARNAME_2":"NA","NL_NAME_2":"NA","TYPE_2":"Município","ENGTYPE_2":"Municipality","CC_2":"NA","HASC_2":"NA","name":"Nogales.county"},
"geometry":{"type": "MultiPolygon","coordinates": [[[[-97.2065,18.7804,1341.5857],[-97.2039,18.7775,1348.1992],[-97.2019,18.7799,1349.1672],[-97.1995,18.7784,1358.4164],[-97.2012,18.7761,1367.4347],[-97.1946,18.7711,1542.725],[-97.197,18.7628,1658.6377],[-97.1956,18.7586,1736.1533],[-97.1923,18.7593,1864.3024],[-97.1877,18.757,2078.137],[-97.1802,18.7587,2430.3538],[-97.1783,18.7578,2507.7493],[-97.1743,18.7588,2532.418],[-97.1744,18.7619,2447.4331],[-97.1727,18.7628,2394.3101],[-97.1617,18.7637,2530.3782],[-97.1625,18.7719,2250.4199],[-97.1593,18.7768,2197.2534],[-97.1604,18.7784,2278.5723],[-97.1782,18.7865,1972.2976],[-97.184,18.7852,1810.1588],[-97.186,18.7886,1659.8651],[-97.1827,18.7956,1329.3214],[-97.1849,18.7975,1332.8679],[-97.1923,18.7907,1335.0432],[-97.1928,18.7932,1336.2721],[-97.1945,18.7916,1333.5293],[-97.1978,18.7937,1336.0977],[-97.1959,18.7959,1355.214],[-97.1959,18.8014,1371.0938],[-97.2003,18.8056,1377.1163],[-97.1977,18.808,1373.905],[-97.1955,18.8071,1370.6792],[-97.1947,18.8134,1375.3252],[-97.1898,18.8124,1355.6604],[-97.1881,18.8172,1402.3076],[-97.1827,18.814,1398.0408],[-97.1766,18.8157,1339.272],[-97.1754,18.8146,1310.8655],[-97.1768,18.8139,1316.9249],[-97.1738,18.8107,1310.8162],[-97.1745,18.8091,1315.746],[-97.1701,18.8097,1309.9553],[-97.1678,18.8065,1304.401],[-97.1658,18.8111,1295.6309],[-97.1574,18.8184,1281.9999],[-97.1547,18.819,1277.5686],[-97.1523,18.8268,1271.1564],[-97.1529,18.8285,1268.8608],[-97.1543,18.8269,1271.5579],[-97.1611,18.8341,1289.7289],[-97.168,18.8305,1325.334],[-97.1707,18.8305,1379.3242],[-97.1707,18.8395,1791.0481],[-97.1735,18.8426,1884.9399],[-97.1735,18.8454,1942.6702],[-97.1782,18.8495,2327.6436],[-97.1792,18.8558,2425.7266],[-97.1912,18.8681,2307.1021],[-97.1932,18.8676,2297.4624],[-97.197,18.8703,2274.6777],[-97.1986,18.8695,2243.0947],[-97.1982,18.8708,2309.7739],[-97.205,18.8723,2223.552],[-97.2029,18.8767,2253.4155],[-97.207,18.8864,2291.9563],[-97.2125,18.8925,2363.5815],[-97.2123,18.8958,2398.8],[-97.2179,18.9111,2455.8989],[-97.2208,18.9123,2477.6023],[-97.2234,18.9105,2517.3545],[-97.2229,18.9079,2514.6113],[-97.2272,18.9078,2524.8691],[-97.2321,18.9036,2544.2131],[-97.2233,18.8884,2424.6904],[-97.2127,18.8796,2339.4001],[-97.2111,18.8761,2345.5049],[-97.2141,18.8733,2371.291],[-97.2117,18.8686,2290.3467],[-97.2155,18.8681,2321.5481],[-97.2143,18.8654,2422.4316],[-97.2165,18.8669,2344.3481],[-97.2216,18.8621,2448.8479],[-97.2237,18.8632,2507.1812],[-97.2291,18.8572,2321.5959],[-97.2311,18.853,2151.376],[-97.2296,18.852,2072.031],[-97.2299,18.8442,1800.8743],[-97.2275,18.8424,1770.3038],[-97.2324,18.8325,1604.7471],[-97.2304,18.8307,1586.615],[-97.229,18.8209,1505.5161],[-97.2275,18.819,1501.106],[-97.2356,18.8211,1539.1492],[-97.2367,18.8198,1543.9092],[-97.2327,18.8166,1575.9946],[-97.2345,18.8113,1595.55],[-97.2225,18.8079,1460.7925],[-97.2241,18.8054,1594.5399],[-97.2229,18.8025,1708.7156],[-97.2263,18.7995,1730.1555],[-97.228,18.7938,1505.894],[-97.2109,18.7875,1372.0197],[-97.2114,18.7832,1345.454],[-97.2081,18.7818,1338.1868],[-97.206,18.7827,1340.405],[-97.2065,18.7804,1341.5857]]]]}}