{"type":"Feature","properties":{"GID_2":"MEX.21.22_2","GID_0":"MEX","country":"México","GID_1":"MEX.21_1","province":"Puebla","NL_NAME_1":"NA","county":"Atzala","VARNAME_2":"NA","NL_NAME_2":"NA","TYPE_2":"Município","ENGTYPE_2":"Municipality","CC_2":"NA","HASC_2":"NA","name":"Atzala.county"},
"geometry":{"type": "MultiPolygon","coordinates": [[[[-98.5486,18.5263,1141.4948],[-98.5429,18.5319,1195.1121],[-98.5433,18.5415,1158.4082],[-98.5216,18.5388,1180.2424],[-98.5177,18.54,1187.637],[-98.519,18.5407,1184.5002],[-98.5196,18.553,1194.4331],[-98.5289,18.5588,1187.1156],[-98.5243,18.5604,1191.0974],[-98.5281,18.5652,1190.7114],[-98.5304,18.5653,1189.3265],[-98.5297,18.5662,1191.542],[-98.5323,18.5677,1187.6497],[-98.5361,18.5632,1184.5275],[-98.5368,18.5591,1184.559],[-98.5464,18.5575,1211.3833],[-98.5488,18.5558,1189.4724],[-98.5524,18.5568,1185.5417],[-98.5528,18.5541,1183.2424],[-98.5579,18.5566,1176.0739],[-98.5596,18.5595,1183.3604],[-98.5592,18.5627,1173.1133],[-98.5618,18.5609,1170.2756],[-98.5632,18.5498,1159.1394],[-98.5594,18.5465,1151.3921],[-98.5571,18.5407,1140.7943],[-98.5617,18.5327,1139.7305],[-98.5486,18.5263,1141.4948]]]]}}