{"type": "Feature","bbox": [-109.5768,28.5416,-109.2252,29.1868],"geometry": {"type": "MultiPolygon","coordinates": [[[[-109.2981,28.9393,775.4026],[-109.3142,28.9364,874.4482],[-109.3182,28.954,839.9375],[-109.3142,28.9997,1240.7227],[-109.2993,28.9977,1084.387],[-109.3085,29.0231,827.4208],[-109.3466,29.0977,1260.0836],[-109.3442,29.1,1234.3274],[-109.3333,29.1024,1104.5691],[-109.258,29.1294,645.577],[-109.2678,29.1446,605.4531],[-109.2699,29.182,357.653],[-109.2765,29.1836,438.1049],[-109.2789,29.1868,362.8821],[-109.2799,29.1804,348.9162],[-109.282,29.1782,346.0305],[-109.3027,29.1774,351.3292],[-109.3046,29.171,339.5],[-109.3075,29.1692,342.868],[-109.3297,29.166,350.8369],[-109.3392,29.1595,338.3509],[-109.3444,29.1634,336.5638],[-109.3565,29.1649,336.6133],[-109.3643,29.1631,343.532],[-109.3713,29.1637,341.7803],[-109.3808,29.1604,333.0],[-109.3806,29.1565,366.6224],[-109.3727,29.1551,352.4023],[-109.371,29.153,344.9919],[-109.3744,29.1453,340.7458],[-109.3796,29.1406,343.6522],[-109.3838,29.1396,335.4413],[-109.3884,29.14,332.8962],[-109.3944,29.1441,353.0505],[-109.4046,29.147,333.7],[-109.4097,29.1391,333.9283],[-109.4456,29.1574,725.4238],[-109.4472,29.1348,823.8527],[-109.4434,29.1064,332.0],[-109.4305,29.1058,356.824],[-109.4287,29.1041,361.9168],[-109.4281,29.0979,332.0],[-109.4214,29.0965,332.0],[-109.4063,29.1048,332.0],[-109.4054,29.104,332.0],[-109.4161,29.0968,341.6105],[-109.4211,29.0956,332.0],[-109.429,29.0973,332.0],[-109.4321,29.1051,346.2675],[-109.4436,29.1054,358.6521],[-109.4608,29.0984,342.3835],[-109.4731,29.1039,364.9194],[-109.4791,29.0959,335.0887],[-109.4839,29.0951,341.4541],[-109.4905,29.0971,332.0],[-109.4935,29.093,359.3278],[-109.4892,29.0932,542.7891],[-109.4867,29.0914,625.7097],[-109.4829,29.0824,866.8893],[-109.4709,29.0671,1071.8865],[-109.4835,29.0587,913.9668],[-109.5101,29.0647,1058.9546],[-109.5392,29.0553,1355.8469],[-109.5519,29.034,1442.9215],[-109.531,29.0082,1559.7181],[-109.5067,28.9934,1201.4285],[-109.5299,28.9835,1628.2372],[-109.5714,28.9868,966.2003],[-109.5768,28.9556,810.6984],[-109.5759,28.9384,519.3856],[-109.5618,28.9325,913.0591],[-109.545,28.9227,1102.8993],[-109.5641,28.9116,916.707],[-109.5468,28.8983,1023.1744],[-109.5291,28.8977,1360.0649],[-109.52,28.8889,1506.475],[-109.515,28.8863,1599.0493],[-109.5109,28.8786,1651.3461],[-109.5342,28.8667,1273.6396],[-109.5036,28.857,1404.9181],[-109.5032,28.8335,1451.9269],[-109.514,28.8188,1508.417],[-109.4164,28.8055,1028.2648],[-109.4361,28.7743,1125.5812],[-109.4353,28.7559,983.4266],[-109.419,28.7264,1406.6792],[-109.4071,28.7295,1329.9651],[-109.3944,28.7293,1255.871],[-109.3899,28.7326,1293.1101],[-109.3828,28.735,1165.0424],[-109.3724,28.7292,1236.9209],[-109.3636,28.7323,1211.4882],[-109.3514,28.734,1284.2698],[-109.3562,28.7089,1180.5708],[-109.3674,28.6873,1049.1481],[-109.3672,28.6737,1273.902],[-109.3708,28.6632,1043.7585],[-109.3673,28.6603,1046.9344],[-109.3748,28.6539,1039.6908],[-109.3756,28.6441,962.5155],[-109.365,28.6399,950.5189],[-109.3573,28.6446,1230.1533],[-109.3539,28.6428,1322.2855],[-109.3556,28.6398,1214.9108],[-109.3554,28.6332,1043.9233],[-109.3499,28.6283,1171.8804],[-109.3432,28.6273,1486.2592],[-109.3345,28.5941,1243.2183],[-109.3428,28.5922,1220.3175],[-109.3425,28.5901,1173.6035],[-109.3553,28.5898,1192.5459],[-109.3532,28.5777,842.5714],[-109.3371,28.5757,1165.384],[-109.3433,28.5513,861.2709],[-109.3395,28.5426,1101.7305],[-109.3215,28.5431,1024.2593],[-109.3105,28.5416,951.0712],[-109.3091,28.5463,991.9053],[-109.304,28.5511,1160.5095],[-109.2957,28.5492,1125.329],[-109.2959,28.5535,1031.2974],[-109.2606,28.5622,1091.5363],[-109.2597,28.5643,1072.7897],[-109.25,28.5602,1169.0972],[-109.2443,28.5624,1129.6724],[-109.2461,28.5671,1312.8894],[-109.2592,28.5735,1014.4791],[-109.2529,28.6139,1448.4321],[-109.2568,28.6297,1413.4764],[-109.2559,28.6384,1343.8022],[-109.2292,28.6353,1215.3112],[-109.2252,28.6509,1623.9136],[-109.2404,28.6634,1832.1981],[-109.2456,28.6867,1666.6948],[-109.2615,28.6928,1255.931],[-109.2701,28.7078,978.7119],[-109.2733,28.7102,951.4324],[-109.2772,28.7105,964.7602],[-109.2795,28.7139,927.8269],[-109.2783,28.7167,922.1197],[-109.2726,28.7192,965.6636],[-109.2726,28.724,984.3481],[-109.2673,28.7299,997.52],[-109.2625,28.729,1029.527],[-109.2595,28.7302,1049.822],[-109.2604,28.7365,1151.959],[-109.259,28.7405,1236.1123],[-109.2596,28.743,1262.3512],[-109.2651,28.7436,1278.4669],[-109.2675,28.7424,1197.7395],[-109.2713,28.7464,1162.2269],[-109.2686,28.7521,1320.3408],[-109.2926,28.8002,1300.762],[-109.3174,28.8041,1103.4514],[-109.3134,28.8253,1827.8254],[-109.2718,28.8683,1366.1968],[-109.2734,28.8722,1379.2496],[-109.2712,28.8723,1331.3936],[-109.2757,28.8941,880.2141],[-109.2934,28.9262,777.2572],[-109.2981,28.9393,775.4026]]]]}
,"properties": {"GID_2": "MEX.26.9_2","GID_0": "MEX","country": "México","GID_1": "MEX.26_1","province": "Sonora","NL_NAME_1": "NA","county": "Bacanora","VARNAME_2": "NA","NL_NAME_2": "NA","TYPE_2": "Município","ENGTYPE_2": "Municipality","CC_2": "NA","HASC_2": "NA","name": "Bacanora.county","area_km2": 1130.5416,"hist_schema_id": "Elevation0-9000","hist_area_km2": {"325": 3.3524,"350": 5.7783,"375": 8.0757,"400": 10.7999,"425": 17.2146,"450": 20.5902,"475": 26.3591,"500": 29.6774,"525": 31.35,"550": 30.908,"575": 30.171,"600": 30.0055,"625": 30.6352,"650": 29.7114,"675": 28.1191,"700": 28.866,"725": 29.3302,"750": 27.9207,"775": 27.1251,"800": 29.8182,"825": 30.0846,"850": 32.7987,"875": 33.0996,"900": 30.7072,"925": 29.652,"950": 29.9515,"975": 30.9984,"1000": 33.6264,"1025": 32.7759,"1050": 33.8757,"1075": 33.8793,"1100": 32.97,"1125": 31.0745,"1150": 29.0108,"1175": 27.1732,"1200": 23.7155,"1225": 21.5973,"1250": 18.0452,"1275": 17.1167,"1300": 15.1248,"1325": 13.5832,"1350": 11.9308,"1375": 10.1658,"1400": 9.6246,"1425": 8.3784,"1450": 6.8728,"1475": 5.8694,"1500": 4.2723,"1525": 3.2693,"1550": 3.1023,"1575": 2.341,"1600": 1.5788,"1625": 1.672,"1650": 1.2265,"1675": 0.7063,"1700": 0.9478,"1725": 0.5578,"1750": 0.3161,"1775": 0.372,"1800": 0.2045,"1825": 0.2418,"1850": 0.1674,"1875": 0.0558}}}