{"type": "Feature","bbox": [-93.1848,16.935,-93.0408,17.0548],"geometry": {"type": "MultiPolygon","coordinates": [[[[-93.0882,17.0486,400.9688],[-93.0945,17.0461,659.0654],[-93.1067,17.0453,945.1934],[-93.1129,17.048,1231.282],[-93.1144,17.0548,969.5488],[-93.1229,17.0544,1240.0591],[-93.1321,17.0498,1247.0676],[-93.1334,17.0532,1222.7134],[-93.1391,17.0526,1193.1858],[-93.1381,17.0489,1258.0538],[-93.1351,17.0493,1237.8223],[-93.1355,17.0451,1144.5922],[-93.1478,17.0409,901.9576],[-93.1431,17.0355,992.755],[-93.1425,17.0326,1074.5836],[-93.1488,17.0258,934.4076],[-93.1516,17.0264,909.9611],[-93.1492,17.0221,897.3298],[-93.1693,17.0114,783.7562],[-93.1716,17.0139,672.2087],[-93.1759,17.0079,694.7802],[-93.1848,17.0027,322.5641],[-93.1837,16.9988,284.7575],[-93.1783,16.9926,191.8104],[-93.1645,16.9857,212.7108],[-93.1648,16.9826,316.3304],[-93.1766,16.9755,1049.1539],[-93.1318,16.9521,1040.0111],[-93.1119,16.948,487.8377],[-93.1124,16.9419,612.3239],[-93.1107,16.9417,538.7098],[-93.109,16.9366,518.4425],[-93.104,16.935,412.0021],[-93.1009,16.9424,337.9983],[-93.1058,16.9557,203.9575],[-93.096,16.9453,479.9299],[-93.093,16.9555,504.9562],[-93.0829,16.9545,896.5045],[-93.074,16.9378,497.4467],[-93.0663,16.9418,901.6106],[-93.0654,16.9496,893.1031],[-93.055,16.9475,893.7014],[-93.0578,16.9532,837.4523],[-93.0541,16.9595,839.4908],[-93.0451,16.9607,855.5641],[-93.0408,16.9594,835.1787],[-93.0607,16.9789,446.6859],[-93.0567,16.9818,493.636],[-93.0585,16.9924,928.7452],[-93.0598,16.9926,928.7452],[-93.059,16.9948,897.0512],[-93.0694,17.0005,836.149],[-93.0642,17.0025,894.9423],[-93.0648,17.0065,912.9892],[-93.0659,17.006,912.9892],[-93.0678,17.0393,959.0709],[-93.0821,17.0417,524.9238],[-93.0882,17.0486,400.9688]]]]}
,"properties": {"GID_2": "MEX.5.25_2","GID_0": "MEX","country": "México","GID_1": "MEX.5_1","province": "Chiapas","NL_NAME_1": "NA","county": "Chicoasén","VARNAME_2": "NA","NL_NAME_2": "NA","TYPE_2": "Município","ENGTYPE_2": "Municipality","CC_2": "NA","HASC_2": "NA","name": "Chicoasén.county","area_km2": 115.75727,"hist_schema_id": "Elevation0-9000","hist_area_km2": {"175": 0.66917,"200": 2.08873,"225": 2.08869,"250": 1.56144,"275": 1.82505,"300": 2.21034,"325": 2.98086,"350": 3.42695,"375": 3.32547,"400": 3.73106,"425": 3.81211,"450": 3.89334,"475": 3.95404,"500": 3.58909,"525": 4.15668,"550": 4.21748,"575": 3.83221,"600": 4.05519,"625": 3.60917,"650": 3.58885,"675": 3.42659,"700": 3.04136,"725": 3.75102,"750": 2.91968,"775": 3.30489,"800": 3.56857,"825": 3.12258,"850": 2.85904,"875": 3.00093,"900": 2.49397,"925": 2.29118,"950": 2.37227,"975": 3.38591,"1000": 2.47352,"1025": 1.80441,"1050": 1.64226,"1075": 1.33804,"1100": 1.07448,"1125": 0.95281,"1150": 1.31768,"1175": 1.19603,"1200": 0.87166,"1225": 0.64868,"1250": 0.26353,"1275": 0.02027}}}