{"type":"Feature","properties":{"GID_2":"MEX.20.207_2","GID_0":"MEX","country":"México","GID_1":"MEX.20_1","province":"Oaxaca","NL_NAME_1":"NA","county":"SanJuanLachao","VARNAME_2":"NA","NL_NAME_2":"NA","TYPE_2":"Município","ENGTYPE_2":"Municipality","CC_2":"NA","HASC_2":"NA","name":"San_Juan_Lachao.county"},
"geometry":{"type": "MultiPolygon","coordinates": [[[[-97.0604,16.1367,961.3071],[-97.065,16.1398,859.8152],[-97.0563,16.1364,958.9309],[-97.0639,16.2032,2051.3684],[-97.0589,16.2084,1938.0134],[-97.0571,16.2072,1935.0144],[-97.0547,16.2087,1917.2314],[-97.0534,16.2071,1924.7095],[-97.0404,16.2112,1869.9475],[-97.0366,16.2099,1802.3369],[-97.0326,16.2118,1783.4678],[-97.03,16.2105,1790.876],[-97.0287,16.2126,1809.939],[-97.0271,16.21,1651.0752],[-97.0291,16.2068,1635.5342],[-97.0283,16.2002,1624.0656],[-97.0325,16.198,1559.0183],[-97.0322,16.1954,1536.2917],[-97.0342,16.1941,1467.531],[-97.0318,16.19,1495.452],[-97.0295,16.1886,1467.7048],[-97.0216,16.1934,1447.4785],[-97.0187,16.192,1352.7588],[-97.0175,16.1879,1321.8003],[-97.0155,16.189,1333.0007],[-97.0149,16.192,1314.7189],[-97.0181,16.1943,1357.1643],[-97.0215,16.201,1448.6443],[-97.0188,16.2069,1628.2249],[-97.019,16.2161,1816.3364],[-97.0271,16.2324,2631.824],[-97.0376,16.236,2213.7209],[-97.0429,16.2356,2095.9529],[-97.0513,16.2448,1898.3795],[-97.062,16.2453,1776.0034],[-97.0646,16.2502,1710.239],[-97.0696,16.2529,1614.6399],[-97.0719,16.2595,1456.8022],[-97.0758,16.2628,1321.5747],[-97.0749,16.2657,1248.3202],[-97.0776,16.2712,1181.2814],[-97.0883,16.2666,1172.0613],[-97.1108,16.2823,1297.2957],[-97.1301,16.2877,1452.0524],[-97.1614,16.2644,1561.679],[-97.1692,16.2642,1499.4397],[-97.1732,16.2576,1625.1406],[-97.1806,16.2563,1662.792],[-97.1837,16.252,1721.5098],[-97.1811,16.2459,1875.2566],[-97.1845,16.2413,2113.1743],[-97.1906,16.2458,1904.5299],[-97.1942,16.2446,1881.9159],[-97.1925,16.2466,1939.5392],[-97.1937,16.2473,1878.4758],[-97.1979,16.2447,2026.1757],[-97.199,16.2393,2006.2622],[-97.2015,16.2434,2084.4375],[-97.2001,16.2466,2096.9673],[-97.2047,16.2493,2097.061],[-97.2127,16.2439,2160.5254],[-97.2141,16.2444,2216.7266],[-97.2138,16.2479,2157.6472],[-97.2163,16.2465,2170.459],[-97.1993,16.1938,1058.7168],[-97.18,16.2069,1726.6464],[-97.1724,16.1673,624.8726],[-97.1704,16.1676,617.9856],[-97.1691,16.1644,613.5055],[-97.1645,16.165,589.0974],[-97.1618,16.1623,579.0645],[-97.1612,16.1674,643.1885],[-97.1544,16.1693,773.8594],[-97.1497,16.1731,1114.3721],[-97.1449,16.1698,1062.6442],[-97.1463,16.1495,723.567],[-97.1476,16.1423,539.3156],[-97.1494,16.1408,513.8824],[-97.1462,16.1378,505.1005],[-97.1244,16.1391,1027.7429],[-97.1252,16.136,915.299],[-97.1183,16.1334,923.4944],[-97.1179,16.1313,874.2892],[-97.1115,16.1332,1029.7095],[-97.1048,16.1309,1292.2677],[-97.1102,16.1249,920.1688],[-97.1159,16.1234,773.1857],[-97.1113,16.1225,839.0132],[-97.1044,16.1237,1112.453],[-97.1026,16.1306,1330.4471],[-97.0604,16.1367,961.3071]]]]}}