{"type": "Feature","bbox": [-102.4408,20.1863,-102.2325,20.3578],"geometry": {"type": "MultiPolygon","coordinates": [[[[-102.3472,20.3347,1530.9335],[-102.3553,20.3375,1530.4062],[-102.3584,20.337,1530.6454],[-102.3627,20.3297,1529.2346],[-102.3688,20.3281,1530.5992],[-102.3715,20.3165,1535.2966],[-102.3772,20.317,1535.5496],[-102.3962,20.3097,1534.1035],[-102.4,20.3128,1533.274],[-102.4029,20.3114,1535.3567],[-102.4101,20.3116,1535.7328],[-102.4279,20.3031,1533.8369],[-102.4295,20.2994,1533.2759],[-102.4312,20.2991,1533.2759],[-102.4314,20.296,1532.7444],[-102.4345,20.2951,1534.6344],[-102.4333,20.2829,1540.3519],[-102.435,20.2797,1554.6772],[-102.4346,20.2704,1544.4651],[-102.4406,20.2694,1549.7623],[-102.4386,20.2433,1536.4132],[-102.4342,20.2435,1537.2427],[-102.4339,20.2407,1537.8992],[-102.4361,20.2405,1537.1794],[-102.4358,20.237,1538.8074],[-102.4393,20.2297,1539.1328],[-102.4408,20.2211,1539.7773],[-102.4323,20.2223,1554.7822],[-102.4325,20.2234,1554.7822],[-102.4279,20.2247,1559.3656],[-102.4265,20.2232,1576.2354],[-102.4256,20.2247,1566.1742],[-102.4103,20.2215,1665.3376],[-102.3925,20.2207,1722.2144],[-102.3813,20.2239,1664.3402],[-102.3711,20.2135,1863.5115],[-102.3675,20.2061,1665.2197],[-102.3632,20.2014,1618.9019],[-102.3536,20.2013,1640.1888],[-102.3517,20.1977,1669.6995],[-102.3404,20.1879,2032.1219],[-102.3207,20.1891,1752.6508],[-102.3179,20.1918,1685.7537],[-102.3134,20.1918,1641.6696],[-102.3186,20.1948,1687.0775],[-102.3126,20.1941,1612.7754],[-102.3018,20.201,1559.3955],[-102.2853,20.1969,1543.1392],[-102.2833,20.1985,1543.6615],[-102.2827,20.1892,1541.304],[-102.2791,20.1863,1540.1417],[-102.2761,20.1918,1540.4216],[-102.272,20.194,1542.1212],[-102.2609,20.2083,1765.657],[-102.2409,20.2205,1548.4697],[-102.239,20.2208,1543.1946],[-102.2325,20.2097,1541.6698],[-102.2384,20.2416,1541.6001],[-102.2406,20.2442,1542.1777],[-102.2419,20.2506,1540.5918],[-102.2433,20.2509,1540.5349],[-102.2437,20.2551,1540.3325],[-102.2468,20.2553,1542.8776],[-102.2472,20.2632,1540.5952],[-102.2532,20.2725,1539.845],[-102.2607,20.2762,1539.4048],[-102.2732,20.2791,1538.7844],[-102.2746,20.2832,1538.564],[-102.2772,20.2824,1538.7905],[-102.2775,20.2838,1539.1638],[-102.2791,20.2816,1538.3152],[-102.2861,20.2791,1538.5018],[-102.2911,20.2797,1538.7708],[-102.2917,20.2783,1539.0168],[-102.2947,20.2795,1537.693],[-102.2958,20.2777,1537.7653],[-102.3013,20.2807,1537.8743],[-102.3025,20.278199999999998,1537.0396],[-102.3072,20.2777,1536.9379],[-102.3097,20.2805,1537.6963],[-102.312,20.2797,1537.9116],[-102.3123,20.2827,1538.8418],[-102.3086,20.2867,1538.4285],[-102.3096,20.2871,1538.25],[-102.3074,20.2971,1538.6296],[-102.3075,20.3009,1537.8422],[-102.3101,20.3028,1536.4282],[-102.307,20.3044,1537.351],[-102.3094,20.3054,1536.5188],[-102.3114,20.3106,1537.7029],[-102.3158,20.3069,1536.6763],[-102.3175,20.3074,1537.1962],[-102.318,20.3175,1537.199],[-102.3198,20.3176,1537.1614],[-102.3188,20.3206,1536.6121],[-102.3227,20.3211,1536.6111],[-102.3203,20.326,1535.7659],[-102.3188,20.3258,1536.324],[-102.319,20.3279,1536.8394],[-102.3164,20.3285,1536.9602],[-102.318,20.3296,1537.1177],[-102.3163,20.3306,1536.9597],[-102.3169,20.3329,1536.8132],[-102.3131,20.3333,1537.3041],[-102.2979,20.3539,1529.7632],[-102.3005,20.3565,1530.6401],[-102.3082,20.3578,1534.7227],[-102.3156,20.3449,1531.8796],[-102.3195,20.3448,1532.8124],[-102.3272,20.3495,1530.9883],[-102.3359,20.3415,1531.4863],[-102.3421,20.3403,1531.6553],[-102.344,20.3362,1529.9329],[-102.3472,20.3347,1530.9335]]]]}
,"properties": {"GID_2": "MEX.16.87_2","GID_0": "MEX","country": "México","GID_1": "MEX.16_1","province": "Michoacán","NL_NAME_1": "NA","county": "Tanhuato","VARNAME_2": "NA","NL_NAME_2": "NA","TYPE_2": "Município","ENGTYPE_2": "Municipality","CC_2": "NA","HASC_2": "NA","name": "Tanhuato.county","area_km2": 229.1392,"hist_schema_id": "Elevation0-9000","hist_area_km2": {"1525": 65.4041,"1550": 53.167,"1575": 23.9905,"1600": 15.4567,"1625": 13.249,"1650": 11.2599,"1675": 11.1009,"1700": 6.704,"1725": 5.4509,"1750": 4.3768,"1775": 3.382,"1800": 2.6261,"1825": 2.4868,"1850": 2.4073,"1875": 1.8701,"1900": 2.0094,"1925": 1.4324,"1950": 1.134,"1975": 0.6764,"2000": 0.7759,"2025": 0.1592,"2050": 0.0199}}}