{"type":"Feature","properties":{"GID_2":"MEX.12.78_2","GID_0":"MEX","country":"México","GID_1":"MEX.12_1","province":"Guerrero","NL_NAME_1":"NA","county":"ZapotitlánTablas","VARNAME_2":"NA","NL_NAME_2":"NA","TYPE_2":"Município","ENGTYPE_2":"Municipality","CC_2":"NA","HASC_2":"NA","name":"Zapotitlán_Tablas.county"},
"geometry":{"type": "MultiPolygon","coordinates": [[[[-98.8581,17.1545,816.0787],[-98.8553,17.1603,939.7357],[-98.8581,17.1634,1024.7987],[-98.858,17.1691,1299.3684],[-98.8542,17.1792,1801.5024],[-98.8585,17.1836,2006.4465],[-98.8574,17.1868,2070.4902],[-98.8599,17.191,2098.6599],[-98.86,17.2021,1959.2014],[-98.8613,17.2035,1935.5427],[-98.8603,17.2059,1960.7329],[-98.8621,17.2086,1973.8043],[-98.8599,17.2256,2222.9875],[-98.8552,17.2354,2082.7861],[-98.848,17.2402,2181.1946],[-98.8449,17.2448,2118.7666],[-98.841,17.2447,1951.106],[-98.8266,17.2524,2362.5845],[-98.8193,17.2532,2260.6941],[-98.8115,17.258,2635.5386],[-98.8154,17.2619,2615.4353],[-98.821,17.2616,2593.8213],[-98.8297,17.2643,2567.9834],[-98.8246,17.2654,2450.1899],[-98.8212,17.2683,2392.8425],[-98.8247,17.2835,2018.3329],[-98.8279,17.2857,1962.8246],[-98.8259,17.287,2007.9268],[-98.8258,17.2915,1889.6816],[-98.8162,17.2947,1992.2635],[-98.8139,17.2995,2097.6484],[-98.8145,17.3021,2176.9021],[-98.8109,17.3071,2188.8191],[-98.8048,17.311,2328.0012],[-98.8046,17.3157,2486.543],[-98.7985,17.3198,2602.6094],[-98.7941,17.3196,2596.9297],[-98.7944,17.3225,2535.9668],[-98.7921,17.3239,2495.959],[-98.7907,17.3225,2501.3423],[-98.7909,17.3296,2454.5022],[-98.7874,17.3276,2445.7261],[-98.7834,17.3284,2460.8767],[-98.7803,17.3309,2475.9956],[-98.7774,17.3283,2590.405],[-98.774,17.3295,2581.978],[-98.7729,17.3262,2612.9312],[-98.7709,17.326,2596.4006],[-98.7669,17.3331,2652.3901],[-98.7644,17.357,2457.4551],[-98.7607,17.3605,2359.0771],[-98.7586,17.3651,2247.7793],[-98.7625,17.3777,2291.364],[-98.7582,17.3813,1966.236],[-98.7483,17.3807,2267.5352],[-98.7478,17.3889,2170.3254],[-98.7594,17.3904,1885.5549],[-98.7572,17.3979,1914.5911],[-98.7467,17.4127,1718.7847],[-98.747,17.4188,1857.9623],[-98.7417,17.4306,1984.9415],[-98.7516,17.4502,1704.7496],[-98.7623,17.4889,1842.0654],[-98.7817,17.4819,2088.0815],[-98.793,17.4808,2054.7747],[-98.7904,17.4731,2212.1072],[-98.7934,17.4577,2062.5918],[-98.79,17.4559,2029.0071],[-98.7863,17.4422,2100.8086],[-98.788,17.4348,1932.079],[-98.7978,17.4381,1977.5366],[-98.7962,17.4348,1948.811],[-98.7982,17.4266,1825.3518],[-98.7956,17.4249,1803.3645],[-98.7966,17.422,1905.4436],[-98.8025,17.421,1911.5222],[-98.8054,17.4185,2007.826],[-98.8149,17.4199,1890.2656],[-98.8207,17.4155,1937.1665],[-98.8171,17.4094,1972.8492],[-98.8328,17.4009,2176.8762],[-98.8385,17.3955,2198.3101],[-98.8528,17.3865,2064.824],[-98.8695,17.3824,1780.6167],[-98.88,17.3696,1677.8623],[-98.8787,17.365,1853.5481],[-98.8846,17.3553,1706.4111],[-98.857,17.3543,2045.4128],[-98.8546,17.3421,2527.6743],[-98.8422,17.3354,2434.7852],[-98.839,17.3094,2074.29],[-98.8255,17.2996,1984.2976],[-98.826,17.2973,1983.4912],[-98.8299,17.2927,1875.4285],[-98.836,17.2934,1844.5566],[-98.8389,17.2878,1990.2625],[-98.8424,17.286,2015.6276],[-98.8461,17.2855,2101.0647],[-98.8478,17.2874,2143.3447],[-98.8494,17.287,2142.6321],[-98.8529,17.2844,2186.6592],[-98.8537,17.2791,2246.9563],[-98.8605,17.2822,2213.0547],[-98.8642,17.2819,2187.9265],[-98.8646,17.2782,2090.9238],[-98.8684,17.2761,1994.531],[-98.8683,17.2713,1857.7748],[-98.8704,17.2672,1754.9534],[-98.8752,17.2647,1705.7898],[-98.878,17.261,1702.3759],[-98.8813,17.2495,1646.9409],[-98.8804,17.2461,1559.306],[-98.8831,17.2427,1534.1375],[-98.8828,17.2407,1492.8302],[-98.8866,17.2393,1537.801],[-98.8896,17.2349,1437.0101],[-98.9034,17.2375,1326.3262],[-98.9068,17.2415,1324.7186],[-98.9142,17.2452,1230.1846],[-98.9187,17.2433,1206.6345],[-98.9262,17.2514,1104.1736],[-98.9282,17.2497,1065.4208],[-98.9361,17.2519,972.3288],[-98.938,17.2498,1005.9675],[-98.9376,17.2469,1015.2382],[-98.9347,17.2468,941.1483],[-98.9362,17.2433,939.2578],[-98.9333,17.2404,1000.339],[-98.9375,17.2367,977.1474],[-98.9333,17.233,963.4741],[-98.9345,17.2307,1010.8862],[-98.9303,17.2315,873.2266],[-98.933,17.2237,919.0874],[-98.9315,17.2207,913.4031],[-98.9323,17.2172,887.7075],[-98.9298,17.2131,849.3737],[-98.9272,17.2126,865.1655],[-98.9249,17.2145,940.4246],[-98.9227,17.2138,990.6775],[-98.9181,17.2155,1042.333],[-98.9128,17.2099,1335.0481],[-98.903,17.2055,1504.4934],[-98.9057,17.2039,1503.5577],[-98.9081,17.1973,1564.8113],[-98.9137,17.1975,1336.6178],[-98.9227,17.1935,930.6149],[-98.9288,17.1885,826.7682],[-98.9264,17.1857,815.8328],[-98.9275,17.1815,880.9097],[-98.9238,17.1809,813.9251],[-98.9261,17.179,832.0286],[-98.9256,17.1778,798.7915],[-98.9294,17.1775,822.5142],[-98.9256,17.1741,823.8903],[-98.9273,17.1724,872.0231],[-98.9249,17.1721,800.0359],[-98.9234,17.1741,805.1065],[-98.9224,17.1699,780.9323],[-98.919,17.1716,786.9786],[-98.9197,17.1682,829.3142],[-98.8849,17.171,1337.9629],[-98.8581,17.1545,816.0787]]]]}}