{"type":"Feature","properties":{"GID_2":"MEX.2.5_2","GID_0":"MEX","country":"México","GID_1":"MEX.2_1","province":"BajaCaliforniaSur","NL_NAME_1":"NA","county":"Mulegé","VARNAME_2":"NA","NL_NAME_2":"NA","TYPE_2":"Município","ENGTYPE_2":"Municipality","CC_2":"NA","HASC_2":"NA","name":"Mulegé.county"},
"geometry":{"type": "MultiPolygon","coordinates": [[[[-111.4357,26.641,2.179],[-111.4353,26.6379,48.3457],[-111.4369,26.6368,4.6435],[-111.4322,26.6321,25.4949],[-111.433,26.6297,2.558],[-111.4307,26.6278,3.9671],[-111.4304,26.6242,0.0],[-111.4256,26.6249,0.0],[-111.4256,26.6298,0.0],[-111.429,26.634,55.6301],[-111.4289,26.6367,30.6575],[-111.4357,26.641,2.179]]],
[[[-112.0687,27.1654,0.0],[-112.0691,27.1655,0.0],[-112.0677,27.1641,0.0],[-112.0678,27.1648,0.0],[-112.0687,27.1654,0.0]]],
[[[-112.0763,27.2482,2.6881],[-112.0881,27.2587,11.8256],[-112.0914,27.2587,19.7166],[-112.0984,27.2495,10.7579],[-112.1019,27.249,1.2485],[-112.1017,27.2434,15.6462],[-112.1052,27.2398,7.7994],[-112.1072,27.2406,0.0],[-112.1087,27.2389,1.388],[-112.1037,27.2365,1.6648],[-112.0943,27.2273,72.0671],[-112.0906,27.2179,0.0],[-112.0884,27.2162,0.0],[-112.0884,27.2069,0.0],[-112.0855,27.2058,39.0802],[-112.0852,27.1911,1.1165],[-112.0831,27.1907,5.3046],[-112.0849,27.1861,7.9607],[-112.0799,27.1839,15.9988],[-112.0779,27.1805,48.0658],[-112.0739,27.1778,2.2945],[-112.0705,27.1816,10.2877],[-112.0656,27.1838,40.8266],[-112.0609,27.1827,29.9339],[-112.0591,27.18,0.0],[-112.0535,27.1955,39.9486],[-112.0513,27.196,0.0],[-112.0485,27.2043,5.5349],[-112.0434,27.2086,24.5575],[-112.0467,27.2098,16.973],[-112.0464,27.2137,0.0],[-112.0508,27.218,0.0],[-112.0467,27.2238,0.0],[-112.0479,27.2261,7.3827],[-112.0568,27.2296,26.9116],[-112.0571,27.2325,0.0],[-112.0595,27.2341,0.0],[-112.0639,27.2351,11.7749],[-112.0661,27.237,5.8597],[-112.0661,27.2397,8.4924],[-112.0763,27.2482,2.6881]]],
[[[-114.8742,27.6524,0.0],[-114.8745,27.6515,0.0296],[-114.8734,27.6507,0.0296],[-114.8733,27.6522,0.0],[-114.8742,27.6524,0.0]]],
[[[-113.1611,26.9271,2.1754],[-113.1602,26.9299,0.0],[-113.1619,26.9318,0.4196],[-113.1649,26.9311,0.0],[-113.168,26.928,0.9305],[-113.1628,26.9255,1.9794],[-113.1626,26.9225,0.0],[-113.1599,26.9192,0.2918],[-113.1594,26.922,1.0895],[-113.1618,26.9256,0.0],[-113.1611,26.9271,2.1754]]],
[[[-111.9122,27.0358,5.0121],[-111.9099,27.0373,3.1139],[-111.9088,27.0428,0.0],[-111.9158,27.0372,0.0],[-111.9153,27.034,1.898],[-111.9122,27.0358,5.0121]]],
[[[-114.2935,27.1075,2.3192],[-114.2934,27.1106,0.0],[-114.2951,27.1091,1.1657],[-114.2949,27.1018,2.6853],[-114.2912,27.0986,0.0],[-114.2896,27.1014,5.7519],[-114.2935,27.1075,2.3192]]],
[[[-114.3726,27.1485,4.5538],[-114.3756,27.1507,0.0],[-114.3763,27.1479,4.3002],[-114.3848,27.146,0.0],[-114.3801,27.1446,1.8553],[-114.3748,27.1473,4.3002],[-114.3725,27.1452,0.0],[-114.3714,27.1476,3.2926],[-114.3726,27.1485,4.5538]]],
[[[-114.8762,27.6559,0.0],[-114.8761,27.6551,0.0],[-114.8748,27.6545,0.0],[-114.8755,27.6564,0.0],[-114.8762,27.6559,0.0]]],
[[[-114.0738,27.6604,0.0],[-114.0696,27.6602,0.0],[-114.0715,27.6616,0.0],[-114.0807,27.6598,0.0371],[-114.0787,27.6564,0.0],[-114.0738,27.6604,0.0]]],
[[[-114.1668,27.7102,0.9966],[-114.1727,27.7124,0.0],[-114.1728,27.711,0.3983],[-114.1587,27.7026,0.445],[-114.1492,27.7007,0.0],[-114.1524,27.7042,0.2087],[-114.1668,27.7102,0.9966]]],
[[[-114.1421,27.7173,0.0],[-114.1391,27.7145,0.2773],[-114.1377,27.7178,0.0],[-114.1403,27.7187,0.2423],[-114.1421,27.7173,0.0]]],
[[[-115.2221,27.8923,0.0],[-115.2215,27.8935,0.0],[-115.2231,27.8939,0.0],[-115.2233,27.8927,0.0],[-115.2221,27.8923,0.0]]],
[[[-115.1888,27.8828,0.0],[-115.1909,27.8855,0.0],[-115.1968,27.8865,6.6297],[-115.2131,27.8965,4.6705],[-115.2169,27.8963,0.0],[-115.2194,27.892,3.9999],[-115.2194,27.8894,1.9307],[-115.2135,27.8849,6.4831],[-115.1955,27.8806,86.1358],[-115.193,27.8769,0.0],[-115.1888,27.8761,70.178],[-115.1799,27.8643,6.6426],[-115.1792,27.8612,1.6945],[-115.1818,27.8602,0.0],[-115.1766,27.8564,5.7233],[-115.1761,27.8525,1.6526],[-115.1783,27.8502,6.6602],[-115.1736,27.8493,34.1968],[-115.1706,27.851,0.0],[-115.1704,27.8529,7.7895],[-115.1673,27.8522,11.2183],[-115.1589,27.8633,0.0],[-115.1614,27.8702,0.7236],[-115.1726,27.8742,0.0],[-115.1828,27.8757,17.2948],[-115.1888,27.8828,0.0]]],
[[[-114.2195,27.7595,0.2653],[-114.2265,27.7677,0.0],[-114.228,27.7657,0.1272],[-114.2264,27.766,0.1272],[-114.2213,27.7598,0.895],[-114.2249,27.7619,0.8427],[-114.2265,27.7649,0.136],[-114.2289,27.7626,0.3756],[-114.2263,27.7605,0.8427],[-114.2274,27.7601,0.7681],[-114.2296,27.7624,0.3756],[-114.2305,27.7656,0.0],[-114.2323,27.7636,0.9136],[-114.2328,27.7589,0.2846],[-114.2305,27.7573,0.4925],[-114.2303,27.7601,0.7452],[-114.2323,27.7605,0.7689],[-114.2308,27.7613,0.7689],[-114.2269,27.7575,0.783],[-114.2307,27.7563,0.5452],[-114.2326,27.7576,0.0],[-114.2334,27.7557,0.7879],[-114.2312,27.7538,0.7143],[-114.2289,27.7556,0.6302],[-114.2266,27.7551,0.7695],[-114.2257,27.7534,1.1946],[-114.2272,27.7522,0.6277],[-114.226,27.7516,1.0788],[-114.2279,27.7514,0.7993],[-114.2274,27.7503,0.9845],[-114.2348,27.7537,0.5356],[-114.2349,27.757,0.109],[-114.2363,27.7548,0.5293],[-114.2323,27.7495,1.2034],[-114.2388,27.7523,1.2707],[-114.2378,27.7548,0.4491],[-114.2486,27.7561,0.1348],[-114.2496,27.7542,0.4122],[-114.2478,27.7507,0.701],[-114.2506,27.7488,0.0],[-114.2457,27.7424,1.1221],[-114.24,27.7418,0.0599],[-114.2323,27.7382,0.0],[-114.2304,27.7404,1.9539],[-114.223,27.7367,0.0],[-114.2237,27.7403,0.0],[-114.2289,27.7448,1.9369],[-114.2276,27.7452,0.8067],[-114.2197,27.7405,0.9993],[-114.2165,27.7413,1.2719],[-114.2157,27.7387,1.5884],[-114.2192,27.7381,0.1482],[-114.2159,27.7362,1.0135],[-114.2147,27.7333,0.0],[-114.2108,27.7344,0.8203],[-114.2032,27.7317,1.4161],[-114.2016,27.7293,0.7363],[-114.1968,27.7289,0.7461],[-114.1855,27.7219,0.0],[-114.1914,27.7291,0.1848],[-114.1994,27.7334,0.0],[-114.2021,27.7385,0.4755],[-114.2048,27.739,0.0],[-114.2069,27.7415,0.0],[-114.2079,27.7451,2.5521],[-114.2183,27.7535,2.3456],[-114.2181,27.7564,0.6957],[-114.2139,27.7519,0.1018],[-114.2195,27.7595,0.2653]]],
[[[-114.1727,27.7666,0.5917],[-114.17,27.7661,0.1453],[-114.1766,27.77,0.7006],[-114.1791,27.769,0.0],[-114.1791,27.7611,0.643],[-114.1822,27.7663,0.7586],[-114.1798,27.7697,0.0],[-114.1843,27.7685,0.1744],[-114.1838,27.755,0.0],[-114.1824,27.7523,0.219],[-114.1848,27.7523,0.0],[-114.1843,27.7503,0.0],[-114.181,27.7493,0.5234],[-114.1827,27.7506,0.3866],[-114.1813,27.7522,0.219],[-114.1825,27.7549,0.5285],[-114.1796,27.7575,0.7014],[-114.1785,27.7498,0.9853],[-114.1723,27.7422,0.914],[-114.1628,27.7337,0.1739],[-114.1572,27.731,0.7598],[-114.1494,27.7229,0.2964],[-114.146,27.7216,0.0815],[-114.1486,27.724,0.4995],[-114.1537,27.7346,0.6532],[-114.155,27.7335,0.5788],[-114.1538,27.7303,0.6551],[-114.1552,27.7298,0.6815],[-114.1595,27.7382,0.5485],[-114.1638,27.7368,1.2368],[-114.161,27.7411,0.8498],[-114.1593,27.7413,1.0651],[-114.1598,27.7452,1.0195],[-114.1583,27.7463,0.6662],[-114.165,27.7559,1.8238],[-114.1649,27.7592,0.7861],[-114.1679,27.7612,1.251],[-114.1671,27.7625,0.959],[-114.1656,27.7612,0.7933],[-114.1657,27.7632,0.6527],[-114.1687,27.7654,0.6585],[-114.1711,27.7643,0.9449],[-114.1727,27.7666,0.5917]]],
[[[-114.2274,27.8321,0.4219],[-114.2265,27.8354,0.4505],[-114.2249,27.8344,0.0683],[-114.2249,27.8365,0.107],[-114.221,27.8385,0.0],[-114.2207,27.8404,0.0],[-114.2253,27.8388,0.0],[-114.2303,27.8325,0.835],[-114.2334,27.8309,0.0],[-114.2349,27.8261,0.0],[-114.2315,27.8245,0.0],[-114.2331,27.8274,0.0],[-114.2274,27.8321,0.4219]]],
[[[-114.1396,27.8929,0.1252],[-114.1384,27.8921,0.1252],[-114.137,27.8937,0.5493],[-114.1389,27.8936,0.1252],[-114.1396,27.8929,0.1252]]],
[[[-114.2287,27.885,0.0],[-114.2289,27.8863,0.0],[-114.2334,27.8858,0.0],[-114.2382,27.892,0.5891],[-114.2387,27.8906,0.0],[-114.2342,27.8851,0.0],[-114.2287,27.885,0.0]]],
[[[-114.2301,27.8954,0.0],[-114.2282,27.8955,0.0],[-114.2329,27.8967,0.2915],[-114.2339,27.895,0.2495],[-114.2328,27.8947,0.2495],[-114.2301,27.8954,0.0]]],
[[[-114.2273,27.8889,0.39],[-114.2234,27.8941,0.0],[-114.2254,27.894,0.0],[-114.2272,27.8909,0.51],[-114.2284,27.8919,0.51],[-114.2318,27.8898,0.2082],[-114.2295,27.8874,0.3548],[-114.2291,27.8893,0.7026],[-114.2273,27.8889,0.39]]],
[[[-114.17529999999999,27.9258,0.6934],[-114.1774,27.9276,0.0],[-114.1802,27.9246,0.1759],[-114.1786,27.9243,0.3816],[-114.17529999999999,27.9258,0.6934]]],
[[[-114.1072,27.9952,0.1431],[-114.106,27.9968,0.3182],[-114.1025,27.9965,0.0],[-114.1016,27.9983,0.0],[-114.1085,27.997,0.3576],[-114.109,27.995,0.1431],[-114.1072,27.9952,0.1431]]],
[[[-114.1726,27.9296,0.1532],[-114.1717,27.9307,0.0],[-114.1832,27.9304,0.3213],[-114.181,27.9273,0.3238],[-114.1783,27.9292,0.1682],[-114.1737,27.9282,0.0934],[-114.1726,27.9296,0.1532]]],
[[[-114.1607,27.9425,1.0695],[-114.16,27.944,0.0],[-114.1624,27.9451,0.1877],[-114.1632,27.9488,0.1118],[-114.1652,27.9503,0.5048],[-114.169,27.951,0.0],[-114.1659,27.9476,0.6772],[-114.1717,27.9489,0.0],[-114.1719,27.9418,0.5734],[-114.1694,27.9334,0.6157],[-114.1713,27.9295,0.1532],[-114.1698,27.9262,0.6729],[-114.1743,27.9242,0.0],[-114.1682,27.9236,0.6268],[-114.1642,27.9208,0.0],[-114.1653,27.9266,0.4055],[-114.1638,27.9276,0.0],[-114.1665,27.9266,0.4055],[-114.1684,27.928,0.0],[-114.1667,27.9307,1.0376],[-114.1672,27.9355,1.2544],[-114.1647,27.939,1.221],[-114.1576,27.9397,0.9597],[-114.1574,27.9362,0.0],[-114.1557,27.9387,0.0],[-114.156,27.9421,0.0],[-114.1579,27.9437,0.248],[-114.1607,27.9425,1.0695]]],
[[[-114.0766,27.999,0.6457],[-114.076,28.0,0.0],[-114.0785,28.0,0.5022],[-114.0781,27.9988,0.6457],[-114.0766,27.999,0.6457]]],
[[[-112.7864,26.4084,0.198],[-112.7901,26.4118,1.4753],[-112.7899,26.4075,1.2559],[-112.7865,26.406,1.9165],[-112.7853,26.4073,0.18],[-112.7864,26.4084,0.198]]],
[[[-111.8766,26.7423,0.0],[-111.8768,26.7412,0.0],[-111.873,26.7416,0.0],[-111.875,26.7435,8.1871],[-111.8766,26.7423,0.0]]],
[[[-113.2304,26.7701,1.1888],[-113.2347,26.7719,2.3392],[-113.239,26.7715,0.0],[-113.235,26.7667,0.0],[-113.2314,26.7662,1.1653],[-113.2191,26.7486,0.4475],[-113.2163,26.748,1.1401],[-113.2147,26.7381,0.3363],[-113.1993,26.7359,0.0811],[-113.197,26.7391,0.0],[-113.1987,26.7423,1.1028],[-113.1969,26.7423,1.4801],[-113.194,26.7411,0.641],[-113.1929,26.7383,0.284],[-113.1905,26.7446,0.0],[-113.195,26.7491,0.4],[-113.2039,26.7541,1.9808],[-113.2071,26.7603,0.0],[-113.219,26.7624,0.9703],[-113.2256,26.7691,0.0],[-113.2304,26.7701,1.1888]]],
[[[-113.1472,26.7962,1.174],[-113.1486,26.7946,0.0],[-113.1435,26.7966,0.7787],[-113.1432,26.7992,0.2733],[-113.1448,26.7992,0.9028],[-113.1472,26.7962,1.174]]],
[[[-111.888,26.7572,0.0],[-111.8889,26.7547,0.0],[-111.8867,26.7547,0.0],[-111.8865,26.7572,0.0],[-111.888,26.7572,0.0]]],
[[[-113.4676,26.814,0.4317],[-113.477,26.8184,1.5113],[-113.4808,26.8169,0.2976],[-113.4796,26.8152,0.0],[-113.4749,26.8157,1.3974],[-113.4689,26.8128,0.0],[-113.4676,26.814,0.4317]]],
[[[-113.4553,26.8235,1.9069],[-113.4617,26.8256,0.7792],[-113.4634,26.823,1.2607],[-113.4666,26.8229,0.9774],[-113.4691,26.82,0.7399],[-113.4686,26.8158,0.9393],[-113.4666,26.8166,0.8163],[-113.4612,26.8147,0.0907],[-113.456,26.8186,0.0],[-113.4553,26.8235,1.9069]]],
[[[-111.9135,26.8789,1.1096],[-111.9141,26.8795,1.1096],[-111.9154,26.8777,0.7403],[-111.9139,26.8781,0.7403],[-111.9135,26.8789,1.1096]]],
[[[-113.4011,26.8167,1.6184],[-113.3993,26.8148,0.0],[-113.3978,26.8145,0.3264],[-113.4003,26.819,0.0],[-113.4011,26.8167,1.6184]]],
[[[-113.4385,26.8205,1.4714],[-113.4425,26.8264,1.1245],[-113.4489,26.8236,0.6373],[-113.4491,26.8209,0.8005],[-113.4507,26.8225,0.5933],[-113.4531,26.8188,1.2053],[-113.4474,26.815,0.4117],[-113.4386,26.8149,0.0],[-113.4365,26.8175,1.8737],[-113.4385,26.8205,1.4714]]],
[[[-113.1523,26.9093,0.19],[-113.1546,26.9084,2.5494],[-113.156,26.9096,0.0],[-113.1544,26.9155,0.0],[-113.1569,26.9169,0.4265],[-113.1619,26.9125,1.3133],[-113.1623,26.9033,0.0],[-113.1588,26.9033,0.0],[-113.152,26.898,2.1335],[-113.1558,26.8915,1.6919],[-113.1547,26.8907,1.6919],[-113.15,26.893,0.0],[-113.1495,26.8951,0.2694],[-113.1507,26.9,1.9891],[-113.1491,26.9041,1.219],[-113.1523,26.9093,0.19]]],
[[[-112.988,26.5583,1.3079],[-112.9861,26.5572,0.6259],[-112.9879,26.5589,0.5488],[-112.9897,26.5587,0.552],[-112.9921,26.5568,1.0347],[-112.9905,26.5549,1.5261],[-112.9932,26.5542,0.8657],[-112.991,26.5536,1.0336],[-112.9895,26.55,0.658],[-112.9866,26.5492,0.8921],[-112.9849,26.5522,0.3408],[-112.9883,26.5556,1.4618],[-112.988,26.5583,1.3079]]],
[[[-113.0832,26.6435,0.0],[-113.0805,26.6451,0.3964],[-113.0819,26.6485,0.2398],[-113.0848,26.6457,0.5046],[-113.085,26.6426,0.5433],[-113.0832,26.6435,0.0]]],
[[[-113.0752,26.6214,0.0],[-113.074,26.6214,0.0723],[-113.0795,26.6274,0.2606],[-113.0815,26.6273,0.0],[-113.0805,26.6249,0.2148],[-113.0752,26.6214,0.0]]],
[[[-113.077,26.6336,0.0481],[-113.0757,26.6308,0.5115],[-113.0751,26.6336,0.0],[-113.0765,26.635,0.117],[-113.077,26.6336,0.0481]]],
[[[-113.0685,26.6505,0.0],[-113.0749,26.6501,0.7054],[-113.0744,26.6409,0.5045],[-113.0672,26.6441,0.0],[-113.0655,26.6486,0.0],[-113.0685,26.6505,0.0]]],
[[[-113.2251,26.731,0.6753],[-113.2298,26.7303,1.3389],[-113.2294,26.7264,1.5087],[-113.232,26.7321,1.4611],[-113.2306,26.7331,1.4611],[-113.2322,26.7345,0.0],[-113.2373,26.7333,0.0],[-113.2541,26.7161,1.6894],[-113.2575,26.7144,1.0628],[-113.2649,26.7141,0.0],[-113.268,26.7119,1.324],[-113.2678,26.7084,1.8042],[-113.2639,26.7036,1.0755],[-113.2575,26.7011,0.9143],[-113.2122,26.6933,0.8246],[-113.1837,26.6853,0.0],[-113.1692,26.6782,0.908],[-113.1458,26.6623,2.1091],[-113.1353,26.661,0.0],[-113.1356,26.6634,0.0],[-113.1412,26.6669,1.2904],[-113.1459,26.6737,0.4987],[-113.15,26.6752,1.406],[-113.1481,26.6765,1.0295],[-113.1497,26.6803,1.0872],[-113.1488,26.6823,1.1972],[-113.1535,26.685,1.1067],[-113.1523,26.6883,0.8772],[-113.1547,26.6936,0.9511],[-113.1593,26.6956,0.6592],[-113.1661,26.6923,1.0875],[-113.1655,26.6943,1.0998],[-113.1616,26.6962,0.8258],[-113.1628,26.6972,1.1064],[-113.1602,26.6975,0.383],[-113.1652,26.7033,1.614],[-113.1657,26.7062,0.0],[-113.1693,26.7063,1.1047],[-113.1726,26.7088,1.0983],[-113.1666,26.707,0.0],[-113.1699,26.7095,0.0],[-113.1699,26.7131,0.3111],[-113.1763,26.719,0.2589],[-113.1866,26.7215,0.6609],[-113.1934,26.7212,0.7554],[-113.1955,26.7182,0.3701],[-113.1932,26.717,1.2158],[-113.196,26.7136,1.0898],[-113.1951,26.7122,1.2088],[-113.1973,26.711,1.1372],[-113.1937,26.7072,1.2241],[-113.1969,26.7062,1.1264],[-113.1969,26.709,0.7818],[-113.2013,26.7104,0.9543],[-113.1988,26.7103,0.5657],[-113.1994,26.7135,0.6568],[-113.1963,26.7158,0.5886],[-113.1969,26.7177,0.3701],[-113.1991,26.7171,0.3182],[-113.1961,26.7201,0.5421],[-113.1964,26.7237,0.2543],[-113.1997,26.7219,1.791],[-113.2039,26.7224,0.7234],[-113.21,26.7246,1.6527],[-113.2121,26.728,0.4837],[-113.2179,26.7275,0.4577],[-113.2251,26.731,0.6753]]],
[[[-113.1029,26.6563,1.2234],[-113.1129,26.6575,0.2039],[-113.1136,26.6603,0.0],[-113.1164,26.6583,0.0],[-113.1172,26.6546,1.1941],[-113.1214,26.6527,0.0],[-113.1278,26.6461,0.0],[-113.1258,26.6436,1.2263],[-113.1261,26.6383,1.7084],[-113.0976,26.6276,1.2473],[-113.0849,26.6208,1.7209],[-113.0717,26.61,0.0],[-113.0685,26.6094,1.1791],[-113.0678,26.6109,0.8357],[-113.0725,26.6182,0.8319],[-113.0818,26.6216,0.7639],[-113.0823,26.624,0.142],[-113.086,26.6267,0.0],[-113.0882,26.6346,0.7279],[-113.0864,26.6412,0.7383],[-113.0925,26.6433,0.4284],[-113.0998,26.65,1.4582],[-113.0989,26.6525,1.0908],[-113.1005,26.6561,0.0],[-113.1029,26.6563,1.2234]]],
[[[-113.0953,26.6486,0.382],[-113.0933,26.6478,0.3491],[-113.0925,26.6498,0.0],[-113.0966,26.6504,1.4033],[-113.0953,26.6486,0.382]]],
[[[-113.0973,26.6544,0.0],[-113.0951,26.6527,0.434],[-113.0956,26.6562,0.7631],[-113.0977,26.6554,0.0],[-113.0973,26.6544,0.0]]],
[[[-113.093,26.6605,0.9267],[-113.0913,26.6631,0.1463],[-113.0938,26.6646,0.5815],[-113.1004,26.6604,1.8597],[-113.1006,26.6582,0.3089],[-113.0991,26.6577,0.3089],[-113.098,26.6603,0.2281],[-113.0954,26.6589,0.9084],[-113.093,26.6605,0.9267]]],
[[[-113.0868,26.6624,1.387],[-113.0896,26.6636,1.4917],[-113.0915,26.6588,0.6603],[-113.0868,26.6592,1.1908],[-113.0868,26.6624,1.387]]],
[[[-111.5751,26.5465,27.6822],[-111.5649,26.5503,13.1874],[-111.5614,26.5554,2.1259],[-111.5663,26.5592,2.8165],[-111.5682,26.5629,9.983],[-111.5679,26.5678,9.1493],[-111.5707,26.5726,16.0595],[-111.5696,26.5848,1.379],[-111.5711,26.5855,8.3245],[-111.5687,26.5887,11.7345],[-111.569,26.6021,14.5635],[-111.5647,26.6177,0.0],[-111.5682,26.6183,37.8587],[-111.5638,26.6209,15.1976],[-111.5667,26.6305,0.0],[-111.5685,26.6314,7.2369],[-111.5661,26.6353,2.2849],[-111.5677,26.6368,0.0],[-111.5666,26.6406,0.0],[-111.5688,26.6458,27.9969],[-111.5672,26.652,0.0],[-111.5687,26.6556,21.3115],[-111.5666,26.66,3.6033],[-111.5683,26.6631,33.4223],[-111.5681,26.6703,46.1739],[-111.5646,26.6761,6.119],[-111.5632,26.6828,3.8025],[-111.5647,26.6858,5.7611],[-111.5618,26.6902,14.7547],[-111.562,26.6973,0.0],[-111.5663,26.6965,15.4366],[-111.57,26.6991,9.3576],[-111.5693,26.7003,8.6666],[-111.571,26.7002,9.3576],[-111.5735,26.7044,3.3939],[-111.5718,26.7066,0.7001],[-111.5727,26.7077,2.0073],[-111.5793,26.7065,7.9738],[-111.5829,26.7097,15.8498],[-111.5824,26.7122,0.0],[-111.5868,26.7106,6.8257],[-111.5901,26.7129,5.2063],[-111.5935,26.7117,7.7682],[-111.5958,26.7129,8.2091],[-111.5975,26.7167,6.066],[-111.6081,26.719,0.3648],[-111.6104,26.7213,1.6676],[-111.611,26.7276,3.1093],[-111.617,26.7278,6.1834],[-111.6276,26.7328,8.1488],[-111.6283,26.7353,3.741],[-111.6261,26.7385,3.6046],[-111.6265,26.7403,9.6882],[-111.6318,26.7392,10.5837],[-111.6376,26.7433,2.8761],[-111.6481,26.7454,31.0901],[-111.6496,26.7535,14.0516],[-111.6576,26.7573,20.9396],[-111.6597,26.7652,16.2844],[-111.6642,26.7679,5.203],[-111.6678,26.7729,11.127],[-111.667,26.7803,9.0665],[-111.6774,26.779,0.8435],[-111.6834,26.7805,15.4413],[-111.6888,26.786,1.0589],[-111.6969,26.7892,4.4084],[-111.7063,26.7987,4.6898],[-111.7218,26.8068,5.4588],[-111.7272,26.8199,10.7448],[-111.7316,26.8232,8.3568],[-111.7308,26.825,7.926],[-111.7417,26.836,6.1449],[-111.7416,26.8388,0.0],[-111.7465,26.8425,8.4542],[-111.7483,26.846,3.3029],[-111.7606,26.8527,3.8091],[-111.7614,26.8558,16.0666],[-111.765,26.8576,5.1182],[-111.7665,26.8611,5.2819],[-111.772,26.8621,13.0614],[-111.7775,26.8681,0.0],[-111.7794,26.8673,2.3819],[-111.783,26.8691,11.6229],[-111.7837,26.8716,5.5524],[-111.7925,26.8746,11.164],[-111.7928,26.8767,8.1853],[-111.7963,26.8788,46.739],[-111.7961,26.8843,0.0],[-111.8005,26.8848,62.6021],[-111.8017,26.8889,0.675],[-111.8041,26.8863,30.9028],[-111.8086,26.8873,35.5265],[-111.8101,26.8908,3.5666],[-111.8167,26.8967,7.4032],[-111.8186,26.8954,19.4896],[-111.8221,26.8962,3.777],[-111.8274,26.8888,0.0],[-111.8323,26.8859,0.0],[-111.8322,26.8841,0.0],[-111.8461,26.882,3.8767],[-111.8513,26.8794,1.6157],[-111.853,26.8741,0.0],[-111.8443,26.8684,0.0],[-111.8465,26.8625,0.0],[-111.8462,26.8566,0.0],[-111.8386,26.8481,3.9508],[-111.8376,26.835,0.0],[-111.8279,26.8282,0.0],[-111.8252,26.8233,0.0],[-111.8248,26.8177,0.0],[-111.8283,26.8082,0.0],[-111.8236,26.7943,0.0],[-111.8241,26.7831,0.0],[-111.8193,26.7772,0.5287],[-111.8184,26.77,0.0],[-111.816,26.7669,0.0],[-111.818,26.7495,0.0],[-111.8138,26.7332,2.1022],[-111.8168,26.7213,0.0],[-111.8146,26.7155,0.6387],[-111.8086,26.7161,0.9466],[-111.7989,26.7008,0.3864],[-111.7972,26.6916,0.0],[-111.7948,26.6885,0.0],[-111.7662,26.6768,0.0],[-111.7647,26.6734,0.9146],[-111.7654,26.6681,0.0],[-111.7594,26.6607,0.4424],[-111.7424,26.6537,0.7297],[-111.7387,26.6486,0.0],[-111.7327,26.6444,0.3609],[-111.7288,26.6384,0.0],[-111.7166,26.6316,0.3272],[-111.7094,26.6196,1.2586],[-111.6956,26.6111,0.0],[-111.6924,26.6015,0.0],[-111.6811,26.5973,0.3073],[-111.6793,26.59,0.0],[-111.6774,26.5888,3.9881],[-111.678,26.5854,0.4541],[-111.6847,26.5757,0.0],[-111.7021,26.5596,0.0],[-111.721,26.5473,0.0],[-111.7312,26.5447,0.0],[-111.7337,26.5399,1.841],[-111.7402,26.5391,0.0],[-111.7443,26.5435,0.0],[-111.7417,26.5396,0.3788],[-111.7395,26.5379,0.3474],[-111.7333,26.5393,1.841],[-111.7307,26.5436,1.1781],[-111.7222,26.5459,1.0251],[-111.7144,26.5502,2.2929],[-111.693,26.5663,1.0566],[-111.6792,26.5529,22.438],[-111.6554,26.5619,21.9694],[-111.6468,26.5589,29.7237],[-111.6495,26.5564,32.7455],[-111.64,26.5391,88.7759],[-111.6306,26.54,70.9789],[-111.6235,26.5329,107.7767],[-111.6157,26.5289,89.5728],[-111.6158,26.5249,112.9498],[-111.6143,26.5237,109.5552],[-111.6091,26.5255,79.0709],[-111.6036,26.5322,78.8275],[-111.5976,26.5347,57.0771],[-111.5939,26.5384,60.7834],[-111.587,26.5402,39.3349],[-111.5751,26.5465,27.6822]]],
[[[-111.868,26.7212,7.4763],[-111.869,26.7199,0.0],[-111.868,26.7192,7.3416],[-111.8643,26.722,11.9948],[-111.8664,26.7227,0.0],[-111.868,26.7212,7.4763]]],
[[[-111.8839,26.7226,0.0],[-111.887,26.7233,77.481],[-111.8879,26.7257,1.4475],[-111.8901,26.7256,0.0],[-111.89,26.7206,20.6825],[-111.8846,26.7207,0.0],[-111.8839,26.7226,0.0]]],
[[[-111.7815,26.5461,23.018],[-111.7754,26.5539,9.2862],[-111.7677,26.5548,4.0494],[-111.7666,26.5542,2.658],[-111.7675,26.5501,2.9202],[-111.7658,26.5493,1.7687],[-111.7588,26.5471,1.0989],[-111.7514,26.5482,1.0064],[-111.7479,26.5469,1.2016],[-111.7483,26.5474,0.0],[-111.7517,26.5485,1.0064],[-111.76,26.5479,0.5423],[-111.7645,26.5504,1.0011],[-111.7631,26.5528,0.0],[-111.7638,26.5565,0.5877],[-111.769,26.5617,0.0],[-111.7789,26.5647,0.4685],[-111.7822,26.5683,26.4417],[-111.7871,26.587,0.0],[-111.7892,26.5896,1.8661],[-111.7924,26.5905,27.0213],[-111.7945,26.6031,2.3423],[-111.7971,26.6039,32.7883],[-111.8024,26.6117,28.4226],[-111.8043,26.6161,0.0],[-111.8031,26.6182,6.9345],[-111.8039,26.6216,0.0],[-111.8063,26.6225,0.0],[-111.8068,26.6264,6.2091],[-111.8116,26.6252,22.3506],[-111.8211,26.6352,1.0038],[-111.8317,26.6366,24.1405],[-111.8305,26.6397,1.8657],[-111.8279,26.6391,0.0],[-111.8331,26.644,0.0],[-111.8346,26.642,0.0],[-111.8321,26.6418,0.8749],[-111.8316,26.6395,0.0],[-111.8356,26.6379,5.7163],[-111.8379,26.6398,6.879],[-111.8359,26.6411,1.3976],[-111.8466,26.6443,5.3633],[-111.8469,26.647,2.6382],[-111.8502,26.6498,11.416],[-111.8485,26.6625,0.0],[-111.8524,26.6657,18.0145],[-111.8522,26.6732,37.2203],[-111.8606,26.6859,21.724],[-111.8636,26.694,0.0],[-111.8722,26.6987,13.8568],[-111.8769,26.7051,3.0959],[-111.8785,26.7032,0.0],[-111.8772,26.6992,0.0],[-111.8835,26.6998,3.2874],[-111.8829,26.7024,0.5854],[-111.8853,26.7051,2.7944],[-111.8835,26.7048,0.0],[-111.884,26.707,0.0],[-111.8859,26.708,2.3236],[-111.8843,26.7106,0.0],[-111.8913,26.7104,51.3543],[-111.8928,26.7117,0.0],[-111.8913,26.7135,8.7895],[-111.8961,26.7138,10.2991],[-111.8983,26.7161,0.0],[-111.9027,26.7134,8.1609],[-111.9096,26.7201,27.7376],[-111.9076,26.7259,23.8343],[-111.9027,26.7255,6.177],[-111.9036,26.7278,0.0],[-111.905,26.7273,0.0],[-111.9068,26.729,0.0],[-111.9073,26.7321,2.1787],[-111.9033,26.7332,5.7828],[-111.9034,26.7351,80.4018],[-111.9005,26.7377,0.0],[-111.9012,26.7422,47.2326],[-111.8996,26.7437,0.0],[-111.8973,26.7431,0.0],[-111.8908,26.7493,0.0],[-111.8919,26.7518,13.5289],[-111.8976,26.7521,1.7432],[-111.8952,26.7582,41.301],[-111.8898,26.7608,5.1451],[-111.8917,26.763,2.5615],[-111.8844,26.7658,29.5623],[-111.8798,26.7568,0.0],[-111.8765,26.756,24.2927],[-111.8785,26.7614,4.0714],[-111.8773,26.7673,44.9828],[-111.8741,26.772,0.0],[-111.8749,26.7762,1.2738],[-111.8644,26.7813,0.5211],[-111.8621,26.7841,1.4504],[-111.8632,26.7886,1.5297],[-111.8613,26.7925,0.5843],[-111.863,26.7941,4.0353],[-111.8649,26.8017,4.5077],[-111.8634,26.8053,3.4602],[-111.8641,26.8086,21.8748],[-111.8726,26.8184,2.0196],[-111.8717,26.8282,0.2963],[-111.8738,26.8324,0.0],[-111.88,26.8369,1.8204],[-111.8802,26.8386,0.0],[-111.8852,26.838,4.291],[-111.8885,26.8394,2.6321],[-111.8903,26.8427,2.3525],[-111.895,26.8431,18.5931],[-111.8953,26.8459,6.8949],[-111.9023,26.8531,23.8944],[-111.9127,26.858,5.4776],[-111.9129,26.8739,3.4868],[-111.9157,26.8754,10.731],[-111.9163,26.8774,0.0],[-111.9254,26.8781,1.6724],[-111.9389,26.8841,3.8642],[-111.9401,26.8863,0.239],[-111.9504,26.8915,1.2266],[-111.9526,26.8951,7.3784],[-111.9514,26.8966,0.0],[-111.9547,26.9,0.6985],[-111.9729,26.8971,2.3756],[-111.9827,26.8889,7.9461],[-111.9759,26.896,9.7092],[-111.9715,26.8985,2.3756],[-111.9566,26.9039,0.9133],[-111.9552,26.9028,0.5728],[-111.9562,26.9022,0.5728],[-111.9523,26.9013,0.0],[-111.9572,26.9051,5.6242],[-111.9566,26.9149,1.3736],[-111.9589,26.9131,1.2104],[-111.9645,26.9154,12.0982],[-111.971,26.9238,0.0],[-111.9707,26.9269,0.0],[-111.9752,26.9309,30.0987],[-111.9763,26.9369,3.4118],[-111.988,26.9417,13.1293],[-111.9944,26.9488,0.2841],[-112.0011,26.9515,6.6031],[-112.0041,26.9558,2.0977],[-112.0081,26.9579,0.0],[-112.0146,26.9735,16.2201],[-112.0159,26.9834,0.0],[-112.0153,26.9998,0.0],[-112.0102,27.0223,1.6173],[-112.0105,27.0241,0.3743],[-112.0127,27.0246,0.7374],[-112.0219,27.0347,0.7277],[-112.0119,27.0264,0.818],[-112.0097,27.0262,0.7314],[-112.0058,27.0336,0.0],[-112.0025,27.0361,2.7028],[-112.0007,27.0406,3.2638],[-111.9887,27.0561,0.5525],[-111.9851,27.0576,0.0],[-111.9764,27.0663,1.2053],[-111.9699,27.0701,0.8403],[-111.9604,27.0678,2.2553],[-111.9586,27.0648,0.9771],[-111.9547,27.0659,3.6986],[-111.9496,27.0702,1.1026],[-111.9463,27.0696,0.0],[-111.9451,27.0719,0.0],[-111.9477,27.0722,0.2901],[-111.9477,27.0766,3.6187],[-111.944,27.0796,0.0],[-111.9477,27.079,0.0],[-111.9528,27.083,35.1435],[-111.954,27.0866,0.0],[-111.9524,27.0941,0.0],[-111.9535,27.0964,0.0],[-111.9651,27.0947,30.7301],[-111.9746,27.0978,3.9341],[-111.9764,27.0965,6.4436],[-111.9925,27.096,13.5017],[-112.0089,27.1157,2.4198],[-112.017,27.1179,8.2381],[-112.0184,27.1196,2.4179],[-112.0338,27.1208,0.7698],[-112.0628,27.126,0.9552],[-112.0686,27.1295,6.3702],[-112.0708,27.1338,0.0],[-112.0882,27.1308,0.0],[-112.0972,27.1331,3.5764],[-112.1021,27.1368,0.4193],[-112.1063,27.1372,0.4696],[-112.1075,27.1396,0.0],[-112.112,27.1401,1.481],[-112.1145,27.1435,3.1133],[-112.1129,27.1442,0.0],[-112.114,27.1466,2.5421],[-112.1186,27.1477,0.0],[-112.1203,27.1519,1.1911],[-112.1235,27.1537,5.0874],[-112.1285,27.1546,1.9458],[-112.1362,27.1596,0.9106],[-112.1444,27.1615,1.9398],[-112.1566,27.1616,4.9792],[-112.1659,27.1656,0.598],[-112.1679,27.1689,1.2275],[-112.1667,27.1719,0.456],[-112.1708,27.1745,2.2947],[-112.1741,27.1797,2.1293],[-112.1863,27.1883,2.0205],[-112.1931,27.1963,0.5781],[-112.1992,27.2005,0.0],[-112.2133,27.2046,0.6418],[-112.2157,27.2102,0.0],[-112.2128,27.221,0.956],[-112.2148,27.2238,1.9021],[-112.2131,27.2244,2.964],[-112.211,27.221,1.8395],[-112.2069,27.23,1.0393],[-112.2045,27.23,1.5298],[-112.205,27.2289,1.5298],[-112.2036,27.2301,1.5298],[-112.2024,27.2361,4.9431],[-112.1982,27.2416,1.1054],[-112.1999,27.2426,16.6845],[-112.1997,27.2459,5.7702],[-112.207,27.2497,2.0446],[-112.2016,27.2481,0.7981],[-112.1991,27.2516,1.9356],[-112.2057,27.2562,16.755],[-112.2128,27.2656,4.9818],[-112.2172,27.2809,0.0],[-112.2257,27.2883,3.9317],[-112.231,27.2954,74.6784],[-112.2345,27.3147,23.7295],[-112.2379,27.3209,3.218],[-112.2411,27.3249,0.341],[-112.242,27.3196,20.5654],[-112.2432,27.3259,0.0],[-112.2534,27.3279,38.7821],[-112.262,27.3329,17.5349],[-112.2661,27.341,5.4099],[-112.2631,27.3416,0.0],[-112.2605,27.338,0.0],[-112.2629,27.3417,0.0],[-112.2685,27.3446,1.2475],[-112.2705,27.3575,1.1163],[-112.2741,27.3602,2.6688],[-112.2868,27.3643,0.0],[-112.2914,27.3681,2.1562],[-112.2909,27.3716,4.0626],[-112.2949,27.3786,0.7595],[-112.3032,27.3851,2.0929],[-112.3042,27.3953,0.0],[-112.2981,27.403199999999998,0.5169],[-112.3013,27.4071,0.4194],[-112.3061,27.4194,0.7276],[-112.3155,27.4246,1.2003],[-112.3181,27.4283,3.6656],[-112.3189,27.4345,41.2445],[-112.3151,27.4363,12.1279],[-112.3176,27.4374,8.796],[-112.3214,27.4426,3.1791],[-112.3223,27.4511,0.0],[-112.3213,27.4551,1.508],[-112.3192,27.4562,6.7485],[-112.3185,27.4608,0.0],[-112.3243,27.4706,19.0929],[-112.3232,27.4734,35.7668],[-112.3254,27.4807,40.6135],[-112.3236,27.4915,5.908],[-112.3246,27.4983,1.7941],[-112.3285,27.5018,2.6295],[-112.3312,27.5176,3.9823],[-112.337,27.5185,20.6232],[-112.3464,27.5281,13.1298],[-112.3527,27.5318,34.5792],[-112.3561,27.5371,18.248],[-112.3554,27.5424,0.0],[-112.3572,27.5486,0.0],[-112.3605,27.5533,26.8049],[-112.3642,27.5565,15.2956],[-112.3684,27.5573,44.9307],[-112.3722,27.5632,0.0],[-112.3916,27.5704,8.9456],[-112.4021,27.5817,3.1851],[-112.4125,27.5835,4.4229],[-112.4183,27.5903,1.5779],[-112.4238,27.5919,3.3968],[-112.4362,27.5902,2.7374],[-112.4419,27.5918,7.8805],[-112.4472,27.5978,1.6535],[-112.4503,27.5988,0.0],[-112.461,27.5972,0.0],[-112.4674,27.5996,25.9322],[-112.4697,27.6036,3.3099],[-112.4746,27.6072,18.6832],[-112.4745,27.6131,7.3729],[-112.4796,27.6146,30.4203],[-112.4809,27.6176,0.0],[-112.4869,27.6209,0.0],[-112.5005,27.6236,74.9555],[-112.5059,27.6282,10.0555],[-112.5183,27.6298,27.3234],[-112.5294,27.6377,1.4311],[-112.5426,27.6384,29.9829],[-112.5455,27.6414,35.741],[-112.5526,27.6409,21.9701],[-112.5608,27.6449,38.86],[-112.5727,27.6426,10.7159],[-112.5954,27.6505,1.2705],[-112.6002,27.6565,1.2119],[-112.6003,27.6614,0.0],[-112.598,27.6648,0.4163],[-112.602,27.6693,0.0],[-112.6159,27.6738,1.4178],[-112.6238,27.6788,1.5413],[-112.6252,27.683,0.0],[-112.6235,27.6879,3.5603],[-112.6289,27.6896,1.3031],[-112.6336,27.695,2.8168],[-112.6369,27.7005,0.0],[-112.6369,27.7055,0.0],[-112.6398,27.7048,1.3874],[-112.638,27.7062,1.3069],[-112.6432,27.7078,4.6826],[-112.6425,27.7093,1.6752],[-112.644,27.7104,4.6513],[-112.6522,27.7083,1.7704],[-112.661,27.7094,0.9623],[-112.6641,27.7153,1.421],[-112.6693,27.716,9.5571],[-112.676,27.7216,56.0118],[-112.6806,27.7306,0.0],[-112.6839,27.7344,18.7911],[-112.6877,27.7359,20.4018],[-112.6935,27.7446,21.5916],[-112.7016,27.7518,26.3641],[-112.705,27.7615,0.4491],[-112.708,27.7648,29.2111],[-112.7062,27.7763,2.0886],[-112.7083,27.7803,14.7298],[-112.716,27.7859,0.5112],[-112.7171,27.799,0.0],[-112.7139,27.8051,0.0],[-112.7207,27.8182,3.1274],[-112.7199,27.8251,5.5294],[-112.7238,27.8266,5.2602],[-112.7249,27.8233,4.5081],[-112.7286,27.8233,0.9439],[-112.7358,27.8271,0.0],[-112.7396,27.8304,0.9859],[-112.7425,27.8381,0.0],[-112.7582,27.8462,0.4741],[-112.7714,27.862,2.0386],[-112.7709,27.8696,2.3702],[-112.7724,27.872,8.6211],[-112.7682,27.88,0.3818],[-112.7692,27.8826,0.0],[-112.7677,27.8902,0.6633],[-112.7652,27.8934,0.4931],[-112.7622,27.8926,2.4891],[-112.7614,27.8969,9.7455],[-112.7618,27.9014,6.0319],[-112.766,27.9036,2.591],[-112.7653,27.9066,0.0],[-112.7626,27.9081,2.872],[-112.7618,27.9125,11.0247],[-112.7621,27.9208,1.9815],[-112.7641,27.9228,6.4663],[-112.7638,27.9282,2.4045],[-112.765,27.9343,0.0],[-112.7672,27.9367,0.0],[-112.7668,27.9403,0.0],[-112.7609,27.9582,0.0],[-112.757,27.9627,0.0],[-112.7564,27.9679,3.1016],[-112.7621,27.9853,4.2443],[-112.7621,27.9964,2.6958],[-112.7649,28.0,1.5664],[-114.0628,28.0,0.4027],[-114.0731,27.9931,0.2443],[-114.073,27.9917,0.7623],[-114.0717,27.9924,1.0752],[-114.0666,27.9889,1.3527],[-114.0713,27.9901,0.819],[-114.073,27.989,0.6785],[-114.0702,27.9877,0.8869],[-114.0741,27.9881,0.2492],[-114.0776,27.9866,0.1457],[-114.0719,27.9858,1.0702],[-114.0747,27.9836,0.892],[-114.074,27.9802,1.5056],[-114.0725,27.9798,1.5056],[-114.0744,27.9775,1.0719],[-114.0742,27.9729,1.9283],[-114.0789,27.974,1.3534],[-114.0776,27.9759,1.2279],[-114.076,27.9755,1.5966],[-114.0757,27.9793,0.7173],[-114.0811,27.9762,0.9839],[-114.0821,27.9774,0.5713],[-114.0833,27.9824,0.7647],[-114.0822,27.9839,0.4394],[-114.0835,27.9842,0.8219],[-114.0801,27.9886,0.7292],[-114.0831,27.9904,0.7748],[-114.0827,27.9879,0.9143],[-114.0839,27.9885,0.9143],[-114.0852,27.9925,0.8968],[-114.0822,27.9932,0.4357],[-114.0819,27.9952,0.8459],[-114.0808,27.9936,0.4357],[-114.0769,27.9942,0.7154],[-114.0759,27.9963,0.0],[-114.0789,27.9953,0.8411],[-114.0827,27.9985,0.8975],[-114.0839,27.9973,0.8975],[-114.0842,27.9987,0.8975],[-114.0864,27.9981,0.7386],[-114.0867,28.0,1.0039],[-114.0972,28.0,0.3707],[-114.0909,27.9992,0.8986],[-114.0939,27.9948,0.3448],[-114.0908,27.9975,0.8065],[-114.0879,27.9973,1.0214],[-114.0863,27.9947,0.9479],[-114.0892,27.9915,0.8286],[-114.0898,27.9927,0.3888],[-114.0921,27.9914,0.8079],[-114.0918,27.9935,0.2539],[-114.0956,27.9932,0.1851],[-114.0987,27.99,0.7308],[-114.0946,27.9918,0.6335],[-114.093,27.9905,0.6335],[-114.0955,27.9871,0.1715],[-114.0926,27.9832,0.3173],[-114.0948,27.9816,0.0],[-114.0959,27.9779,0.3537],[-114.0936,27.9773,0.0],[-114.0921,27.9811,0.8033],[-114.0906,27.9802,0.306],[-114.0913,27.977,0.0],[-114.0897,27.9779,0.0],[-114.0882,27.9748,0.1862],[-114.0867,27.9755,0.5814],[-114.0853,27.9735,0.5854],[-114.0818,27.9757,0.9839],[-114.081,27.9728,1.0347],[-114.0844,27.9704,0.9256],[-114.0858,27.9705,0.5584],[-114.0866,27.9729,0.0],[-114.0863,27.9676,1.0382],[-114.0875,27.9667,0.9512],[-114.0891,27.9691,0.0],[-114.0911,27.9651,0.4286],[-114.0919,27.957,1.7084],[-114.097,27.9491,0.0],[-114.0955,27.9502,0.7841],[-114.0949,27.9479,1.03],[-114.098,27.9466,0.4616],[-114.1062,27.9382,0.0],[-114.1059,27.9357,0.299],[-114.108,27.9342,0.3047],[-114.1068,27.9317,0.5605],[-114.1033,27.935,0.9243],[-114.1025,27.9394,1.0424],[-114.0992,27.9402,1.0204],[-114.0989,27.9377,1.1752],[-114.1056,27.9279,0.2102],[-114.1103,27.925,1.0745],[-114.1071,27.9247,1.3347],[-114.107,27.9233,1.424],[-114.111,27.9206,1.2184],[-114.1122,27.9214,1.3732],[-114.1101,27.9338,0.0],[-114.1239,27.9547,0.0],[-114.131,27.957,0.9516],[-114.1314,27.959,0.0],[-114.1344,27.9606,0.0],[-114.1358,27.9586,1.185],[-114.1341,27.9542,0.2119],[-114.138,27.9497,0.8818],[-114.1399,27.9509,0.3221],[-114.1365,27.9533,1.4941],[-114.1382,27.9587,1.2827],[-114.1351,27.9652,2.0672],[-114.1288,27.9642,0.0],[-114.1293,27.9729,0.0],[-114.1414,27.9928,0.0],[-114.1493,28.0,0.3979],[-114.2047,28.0,1.6611],[-114.2063,27.9971,1.3841],[-114.2296,27.9767,0.4346],[-114.2334,27.9703,1.6942],[-114.2507,27.9537,1.4541],[-114.2622,27.9451,0.0],[-114.2668,27.9386,0.0],[-114.2746,27.9185,0.0],[-114.2746,27.9073,1.1445],[-114.2714,27.8946,3.7976],[-114.2653,27.887,-1.7368],[-114.2558,27.8931,0.0],[-114.2495,27.9007,0.0],[-114.2477,27.9054,-0.3687],[-114.2344,27.9167,-0.0946],[-114.2379,27.9195,4.6412],[-114.2384,27.9223,5.245],[-114.2359,27.9226,6.8986],[-114.2337,27.9174,-0.9351],[-114.2174,27.9203,-0.3057],[-114.2183,27.9255,0.9845],[-114.224,27.9294,1.3844],[-114.225,27.9318,6.1227],[-114.2178,27.9278,1.399],[-114.2159,27.9294,1.6283],[-114.2172,27.9326,1.835],[-114.2144,27.9313,1.307],[-114.2157,27.9361,2.7581],[-114.2078,27.9299,1.7645],[-114.2077,27.9277,1.1715],[-114.2084,27.926,1.6177],[-114.214,27.9292,1.6127],[-114.217,27.927,1.0798],[-114.2163,27.9238,0.8491],[-114.2124,27.9207,1.0282],[-114.2059,27.9185,0.0657],[-114.2021,27.9216,0.2623],[-114.2076,27.9245,1.1201],[-114.206,27.9251,1.1201],[-114.2015,27.9219,-0.3035],[-114.1952,27.931,0.3111],[-114.1733,27.9333,1.1611],[-114.1805,27.946,0.0],[-114.1755,27.9506,1.4827],[-114.1654,27.954,1.4357],[-114.1499,27.9516,0.0],[-114.1486,27.9553,1.543],[-114.1478,27.9517,0.4705],[-114.1519,27.9498,0.4369],[-114.1522,27.9474,0.5498],[-114.1477,27.9449,0.336],[-114.1501,27.9448,0.2142],[-114.1451,27.9406,0.8425],[-114.1458,27.9346,0.8469],[-114.1479,27.9354,0.7681],[-114.1493,27.9417,0.8066],[-114.1526,27.9435,0.5143],[-114.1546,27.9435,0.0],[-114.1539,27.9401,1.054],[-114.156,27.9357,0.2449],[-114.1633,27.9362,0.5182],[-114.1643,27.9321,1.1058],[-114.1623,27.9314,1.0504],[-114.166,27.929,0.0],[-114.159,27.9287,0.0],[-114.1578,27.9255,0.558],[-114.1602,27.9226,0.0],[-114.1595,27.9192,0.4434],[-114.1624,27.9195,0.0],[-114.1624,27.9176,0.2716],[-114.1584,27.9171,0.2152],[-114.1539,27.9208,0.9621],[-114.1495,27.9198,0.0],[-114.1473,27.9152,0.0959],[-114.1402,27.908,0.1447],[-114.14,27.9027,0.0],[-114.1376,27.9029,1.0014],[-114.1343,27.9006,0.2626],[-114.1327,27.9009,1.5164],[-114.1391,27.9082,0.892],[-114.1382,27.9095,1.0604],[-114.1228,27.92,1.6274],[-114.1194,27.9185,1.2286],[-114.1188,27.9175,1.4453],[-114.121,27.9166,1.8533],[-114.1151,27.903199999999998,0.9021],[-114.1203,27.8995,1.3503],[-114.1235,27.9,1.2096],[-114.1231,27.8984,1.9698],[-114.1209,27.8985,0.9463],[-114.1224,27.8972,1.9698],[-114.1266,27.8987,3.1909],[-114.129,27.898,2.8454],[-114.1318,27.9003,0.8301],[-114.1363,27.8996,0.6282],[-114.1584,27.9048,0.0114],[-114.1596,27.9072,0.9674],[-114.1533,27.9065,0.8006],[-114.1499,27.9045,0.6304],[-114.1498,27.9079,0.7257],[-114.1522,27.9122,0.5021],[-114.1514,27.9139,0.8887],[-114.1479,27.9138,0.0959],[-114.1539,27.9176,0.7507],[-114.1513,27.9175,0.6262],[-114.151,27.9191,0.0],[-114.1542,27.9191,0.2936],[-114.1569,27.9173,0.2152],[-114.1568,27.9156,0.1721],[-114.161,27.9135,0.0],[-114.1578,27.913,0.7746],[-114.1542,27.9094,1.2023],[-114.1615,27.9106,0.0],[-114.1636,27.9095,0.3955],[-114.1683,27.9129,0.1424],[-114.1764,27.9155,0.7448],[-114.1724,27.9159,0.2203],[-114.1698,27.9137,0.1894],[-114.1693,27.9152,0.8089],[-114.1669,27.913,0.1424],[-114.1665,27.9184,0.0],[-114.1691,27.9161,0.0],[-114.1749,27.9173,0.6938],[-114.1679,27.9192,0.0],[-114.1709,27.9204,0.862],[-114.1695,27.9213,0.224],[-114.1716,27.9224,0.0],[-114.174,27.9227,0.0],[-114.1742,27.9207,0.4525],[-114.1768,27.9223,0.0],[-114.17529999999999,27.9187,0.6414],[-114.1763,27.9185,0.6414],[-114.1886,27.9207,0.0],[-114.1826,27.9166,0.3534],[-114.163,27.9084,0.5562],[-114.1568,27.9017,0.4437],[-114.1327,27.8975,2.6477],[-114.1313,27.8959,3.4795],[-114.1327,27.8954,3.3327],[-114.151,27.8992,0.0],[-114.1372,27.8948,1.8974],[-114.1357,27.8924,1.5574],[-114.1363,27.8875,0.3631],[-114.134,27.8926,1.5574],[-114.1305,27.8907,1.2222],[-114.1325,27.8846,0.1144],[-114.1298,27.8876,0.8551],[-114.1297,27.8849,0.0],[-114.1341,27.8798,0.4453],[-114.1333,27.8758,0.7531],[-114.1262,27.8806,1.1419],[-114.1309,27.8731,1.0423],[-114.133,27.8729,1.0145],[-114.1355,27.8749,0.4344],[-114.1351,27.8796,0.4453],[-114.1326,27.8825,0.0],[-114.1368,27.8797,0.7048],[-114.1417,27.8723,0.3568],[-114.141,27.8689,0.6252],[-114.1514,27.8568,1.0414],[-114.1563,27.8539,0.3351],[-114.1597,27.8468,1.9405],[-114.1677,27.8399,0.3266],[-114.1699,27.8334,0.4908],[-114.1786,27.8229,0.3104],[-114.1787,27.819,0.8228],[-114.1765,27.8165,0.1497],[-114.1746,27.8214,0.8109],[-114.1735,27.8206,0.8109],[-114.1737,27.8236,1.3719],[-114.161,27.8315,-0.3633],[-114.1618,27.8285,2.6881],[-114.1674,27.8226,0.6488],[-114.1662,27.8217,2.5464],[-114.1671,27.8204,2.082],[-114.1784,27.8141,0.1816],[-114.1777,27.8126,0.3793],[-114.1759,27.8151,0.6994],[-114.1751,27.8145,0.6994],[-114.1772,27.8113,0.3327],[-114.1772,27.8089,0.1278],[-114.1758,27.8106,0.8552],[-114.1748,27.8085,2.1162],[-114.177,27.7995,0.0],[-114.1738,27.7872,0.0],[-114.1673,27.7814,0.3533],[-114.1679,27.7851,0.7918],[-114.1701,27.7853,0.8438],[-114.1692,27.7875,0.954],[-114.1669,27.7859,1.1107],[-114.164,27.7777,0.6763],[-114.1592,27.7714,0.1509],[-114.1587,27.7637,0.0],[-114.1479,27.7485,0.8573],[-114.1485,27.7418,1.1045],[-114.1463,27.7373,0.9104],[-114.1477,27.738,0.9104],[-114.1484,27.733,0.6107],[-114.1435,27.7234,0.4475],[-114.1352,27.7192,1.6796],[-114.1254,27.7104,0.0],[-114.1242,27.7116,0.4986],[-114.1219,27.7091,0.4053],[-114.1182,27.7091,0.562],[-114.1189,27.7077,0.5597],[-114.1168,27.7062,0.077],[-114.1167,27.7097,0.5451],[-114.1146,27.7077,0.5247],[-114.1125,27.7091,0.5443],[-114.1112,27.7078,0.2983],[-114.1103,27.7098,0.5335],[-114.109,27.708,0.086],[-114.1052,27.709,1.083],[-114.0981,27.7076,0.2845],[-114.099,27.7105,0.809],[-114.0953,27.7106,0.1215],[-114.0973,27.7132,0.0937],[-114.0934,27.7104,0.0],[-114.0896,27.7158,0.0],[-114.0903,27.7126,0.4055],[-114.0891,27.712,0.0],[-114.082,27.7188,0.0],[-114.0852,27.72,0.0],[-114.0814,27.7212,0.0],[-114.0815,27.7264,0.8679],[-114.0792,27.7244,0.4845],[-114.0806,27.7242,0.3179],[-114.0797,27.7213,0.1951],[-114.0732,27.7239,0.0],[-114.0745,27.7285,0.1065],[-114.072,27.7283,0.0],[-114.0751,27.7306,0.5899],[-114.0742,27.732,0.5899],[-114.0704,27.7312,1.0831],[-114.0631,27.726,1.2969],[-114.0602,27.7273,1.3051],[-114.06,27.7244,0.1987],[-114.0642,27.7231,0.0786],[-114.0539,27.7179,0.2728],[-114.0486,27.7172,0.0],[-114.0482,27.7205,0.0],[-114.0554,27.7322,1.1531],[-114.047,27.7337,0.1119],[-114.0443,27.7362,1.226],[-114.0421,27.7351,0.1329],[-114.0416,27.731,0.0],[-114.0379,27.7317,0.0],[-114.0501,27.7632,0.0],[-114.0524,27.7663,0.0],[-114.0541,27.7639,1.2505],[-114.0558,27.7709,0.2966],[-114.069,27.7942,0.0],[-114.0687,27.8066,0.4548],[-114.0566,27.798,0.7371],[-114.0588,27.7931,0.6968],[-114.0567,27.7878,0.1705],[-114.055,27.7903,0.5491],[-114.0508,27.7888,1.0],[-114.0457,27.7836,0.0],[-114.0453,27.7778,0.0],[-114.0437,27.7768,0.0],[-114.0425,27.778199999999998,1.8384],[-114.0421,27.7769,0.5181],[-114.0421,27.7682,0.0],[-114.0397,27.7584,2.803],[-114.0293,27.7414,0.0],[-114.0262,27.7422,0.4988],[-114.0296,27.7436,0.1419],[-114.0281,27.7445,1.6989],[-114.0249,27.7434,0.4988],[-114.0148,27.7456,0.4711],[-114.011,27.7484,0.5667],[-113.9921,27.7487,0.0],[-113.9906,27.7495,0.1191],[-113.9919,27.7594,1.4925],[-113.9902,27.7595,0.0],[-113.988,27.7555,0.0],[-113.9825,27.7592,1.222],[-113.9767,27.7566,0.5677],[-113.9735,27.7528,0.0],[-113.9797,27.7448,0.0],[-113.9791,27.7423,0.0],[-113.9724,27.7419,0.0],[-113.9742,27.7444,0.0859],[-113.9726,27.7477,0.6377],[-113.9703,27.749,0.4453],[-113.9664,27.7479,0.5466],[-113.9632,27.7437,0.0],[-113.9618,27.7383,0.0],[-113.9601,27.7384,0.0],[-113.9598,27.7414,0.0],[-113.9584,27.7412,0.4167],[-113.9529,27.7344,0.0],[-113.9542,27.7336,0.0],[-113.951,27.7295,0.0],[-113.9484,27.7302,0.0],[-113.9476,27.7323,0.1203],[-113.9427,27.7291,0.0],[-113.9411,27.7294,0.0],[-113.9421,27.7311,0.2818],[-113.9349,27.7311,0.621],[-113.9301,27.7233,0.0],[-113.9277,27.7233,0.0],[-113.9249,27.719,0.0],[-113.92,27.7163,0.0],[-113.9198,27.7135,0.0],[-113.9232,27.7111,0.0],[-113.9213,27.7096,0.0],[-113.9235,27.7085,0.0],[-113.9228,27.7072,0.0],[-113.9315,27.7007,0.0],[-113.9322,27.6988,0.0],[-113.9289,27.6971,0.0],[-113.935,27.6971,0.0],[-113.9458,27.6842,0.0],[-113.9524,27.6865,0.0],[-113.9499,27.6834,0.0],[-113.946,27.6822,0.0],[-113.9509,27.6823,0.0],[-113.9517,27.6756,0.0],[-113.957,27.6641,0.0],[-113.9609,27.665,0.0],[-113.9799,27.6571,0.4979],[-113.9892,27.6593,0.2656],[-113.9952,27.6584,2.7463],[-114.0054,27.6618,0.6245],[-114.0115,27.6607,0.6167],[-114.0059,27.6651,0.2817],[-114.0162,27.6683,0.0],[-114.0157,27.6698,0.0],[-114.0174,27.6705,0.08],[-114.021,27.6694,0.0522],[-114.0197,27.6632,0.4554],[-114.0212,27.6614,0.5855],[-114.0253,27.6612,0.5727],[-114.0257,27.6599,0.4736],[-114.0242,27.6594,0.9044],[-114.0278,27.6576,0.8234],[-114.0308,27.6587,0.6562],[-114.0309,27.66,0.8255],[-114.0276,27.6592,0.9175],[-114.0291,27.661,0.68],[-114.0267,27.6604,0.4736],[-114.0271,27.6616,0.7959],[-114.0236,27.6638,0.369],[-114.025,27.6643,0.67],[-114.0245,27.6659,0.3321],[-114.0225,27.6657,0.2401],[-114.0224,27.6676,0.1772],[-114.0237,27.6678,0.295],[-114.0221,27.6697,0.0522],[-114.023,27.671,0.2193],[-114.0247,27.6702,0.599],[-114.0244,27.672,0.2193],[-114.0186,27.6714,0.2512],[-114.0179,27.6726,0.0],[-114.0215,27.6771,0.0],[-114.0284,27.6805,0.0],[-114.0268,27.6814,0.0],[-114.028,27.6827,0.0],[-114.0358,27.6849,0.0],[-114.0403,27.6844,0.0],[-114.0395,27.6812,0.2028],[-114.0483,27.6828,0.0467],[-114.051,27.679,0.5872],[-114.0549,27.6785,0.5845],[-114.0533,27.681,0.339],[-114.0502,27.6806,0.4055],[-114.05,27.6831,0.1279],[-114.0481,27.6837,0.0467],[-114.0507,27.6869,0.0],[-114.0526,27.6865,0.1669],[-114.0535,27.6821,0.5413],[-114.056,27.6809,0.6563],[-114.0552,27.683,0.5413],[-114.0576,27.6838,0.0546],[-114.0581,27.6815,0.5758],[-114.0587,27.6844,0.2875],[-114.0577,27.6853,0.2875],[-114.06,27.6867,0.668],[-114.054,27.6869,0.2278],[-114.0523,27.6881,0.1458],[-114.0543,27.6892,0.6367],[-114.052,27.6896,0.8101],[-114.0501,27.6874,0.666],[-114.0466,27.6873,0.0],[-114.0474,27.6895,0.0],[-114.0457,27.6908,0.0],[-114.0471,27.6917,0.0],[-114.0489,27.6899,0.0],[-114.0528,27.6928,0.0],[-114.0613,27.6924,0.0986],[-114.0759,27.6841,0.1023],[-114.0848,27.681,0.1518],[-114.0796,27.6765,0.1495],[-114.0733,27.6744,0.2362],[-114.0726,27.6776,0.195],[-114.0766,27.6814,0.7826],[-114.0776,27.6806,0.7826],[-114.0771,27.6824,0.2613],[-114.0708,27.6833,0.1424],[-114.068,27.6866,0.6358],[-114.0681,27.6825,0.0],[-114.064,27.6849,0.6255],[-114.0614,27.6836,0.4703],[-114.0614,27.6814,0.5715],[-114.0665,27.6819,0.2579],[-114.0644,27.6765,0.1557],[-114.0624,27.6789,0.5715],[-114.0593,27.677,0.7003],[-114.0593,27.6749,0.7914],[-114.0625,27.6742,0.157],[-114.0619,27.6659,0.0],[-114.0598,27.6637,0.0],[-114.0595,27.6726,0.7487],[-114.0576,27.6738,0.773],[-114.0577,27.6708,0.5243],[-114.0556,27.67,0.1978],[-114.052,27.6725,0.7099],[-114.0545,27.6768,0.7385],[-114.0509,27.6752,0.318],[-114.0492,27.677,0.7694],[-114.0478,27.6753,0.7639],[-114.0509,27.6741,0.318],[-114.05,27.6729,0.3415],[-114.0469,27.6733,0.3272],[-114.0465,27.6754,0.6581],[-114.0449,27.6732,0.0884],[-114.0425,27.676,0.923],[-114.0419,27.6746,0.2343],[-114.0362,27.6739,0.8775],[-114.0379,27.6708,0.601],[-114.0314,27.67,0.6622],[-114.0375,27.6691,0.2661],[-114.0422,27.6731,0.1174],[-114.0461,27.6689,0.0],[-114.0432,27.6646,0.2601],[-114.045,27.6584,0.2731],[-114.0472,27.6581,0.0],[-114.0475,27.6548,0.0],[-114.0518,27.6484,0.0],[-114.0548,27.6469,0.0],[-114.0669,27.6331,0.2549],[-114.0826,27.6217,0.0],[-114.0863,27.6164,1.6807],[-114.0895,27.6156,0.0],[-114.0909,27.6112,0.3655],[-114.0942,27.6131,0.0],[-114.0996,27.61,0.1508],[-114.0993,27.6083,0.2462],[-114.097,27.6087,0.5943],[-114.0958,27.6071,0.616],[-114.0988,27.6052,0.3674],[-114.0982,27.6039,0.6117],[-114.0997,27.6045,0.3674],[-114.1007,27.6001,0.5673],[-114.1016,27.6051,0.0],[-114.1075,27.6041,0.3193],[-114.109,27.6027,0.19],[-114.1087,27.6003,0.5613],[-114.1115,27.6,0.8113],[-114.1099,27.6022,0.4006],[-114.1112,27.6037,0.4939],[-114.1026,27.6073,0.1914],[-114.1059,27.6103,0.745],[-114.1051,27.6121,0.2176],[-114.1093,27.6084,0.3934],[-114.1095,27.6064,0.6094],[-114.114,27.6075,0.7928],[-114.1125,27.6099,0.5238],[-114.1105,27.6091,0.3798],[-114.11279999999999,27.6118,0.6203],[-114.1121,27.6138,0.6485],[-114.1095,27.6118,0.5567],[-114.105,27.6137,0.2176],[-114.1118,27.6153,0.6485],[-114.1095,27.6168,0.4049],[-114.1078,27.615,0.2744],[-114.1058,27.6157,0.4496],[-114.1078,27.6188,0.6223],[-114.1053,27.6186,0.3649],[-114.1079,27.6208,0.6895],[-114.104,27.6192,0.4182],[-114.1002,27.6204,0.0],[-114.1023,27.6242,0.0],[-114.1059,27.6252,0.0964],[-114.1154,27.621,0.0],[-114.113,27.6179,0.5774],[-114.1143,27.6156,0.5338],[-114.1165,27.6169,0.6045],[-114.1178,27.6204,0.6803],[-114.1168,27.6219,0.0],[-114.119,27.6233,0.1557],[-114.122,27.622,0.3725],[-114.1193,27.6202,0.6803],[-114.1209,27.6203,0.4396],[-114.1216,27.6174,0.3903],[-114.1199,27.6179,0.4819],[-114.1186,27.6156,0.3852],[-114.123,27.6164,0.5554],[-114.124,27.6225,0.5324],[-114.1258,27.6239,0.4511],[-114.1214,27.6249,0.0],[-114.1203,27.627,0.0],[-114.1269,27.6286,0.4797],[-114.1241,27.6313,0.4151],[-114.1273,27.6321,0.5947],[-114.1251,27.6347,0.5125],[-114.1203,27.6334,0.0633],[-114.1165,27.6348,0.0],[-114.1298,27.6405,0.1112],[-114.1351,27.6367,0.2582],[-114.1321,27.6369,0.4707],[-114.1335,27.6334,0.6144],[-114.1375,27.6359,0.5162],[-114.136,27.6379,0.3745],[-114.1377,27.6393,0.4902],[-114.1349,27.6391,0.2066],[-114.1373,27.6418,0.4596],[-114.1349,27.6418,0.4077],[-114.1348,27.6434,0.3487],[-114.1299,27.6427,0.2337],[-114.13,27.6442,0.4146],[-114.1473,27.657,0.6752],[-114.1587,27.6677,3.765],[-114.1606,27.6724,0.0],[-114.1647,27.6726,5.9154],[-114.1742,27.6802,3.3509],[-114.1935,27.6855,2.7372],[-114.1961,27.6894,0.3664],[-114.2003,27.6916,0.7804],[-114.2097,27.6919,1.1869],[-114.2098,27.6933,0.3006],[-114.2166,27.6955,0.0],[-114.2237,27.6926,0.3881],[-114.2349,27.6975,0.4152],[-114.2447,27.7054,0.5237],[-114.2505,27.7131,0.4278],[-114.2522,27.713,0.4717],[-114.2596,27.7192,0.6265],[-114.2598,27.7212,0.5607],[-114.2645,27.7257,0.5557],[-114.2838,27.7345,0.0],[-114.3,27.7502,0.0],[-114.3084,27.7633,0.0],[-114.3079,27.7648,0.0],[-114.3126,27.7695,0.0],[-114.3135,27.7729,0.0],[-114.3122,27.7755,0.0],[-114.3147,27.7819,0.7017],[-114.3124,27.7829,0.0],[-114.314,27.7842,0.7203],[-114.3148,27.7823,1.0249],[-114.3181,27.784,8.3607],[-114.3147,27.7866,0.4011],[-114.312,27.784,0.0],[-114.3073,27.7963,0.5544],[-114.3071,27.8007,0.654],[-114.3101,27.8023,0.6801],[-114.3113,27.801,1.0984],[-114.3126,27.8055,1.261],[-114.3081,27.8026,1.0885],[-114.3061,27.8048,0.1281],[-114.3052,27.8027,0.3001],[-114.3063,27.809,0.2969],[-114.3087,27.8112,0.7339],[-114.314,27.812,1.203],[-114.3126,27.8131,1.0752],[-114.3141,27.8146,1.2265],[-114.3095,27.8122,0.7436],[-114.3107,27.8151,1.1771],[-114.3072,27.8112,0.5077],[-114.3061,27.8133,0.266],[-114.3087,27.8207,0.6128],[-114.3054,27.8183,0.1565],[-114.3046,27.8139,0.0],[-114.3032,27.8231,0.6714],[-114.3,27.825,0.0],[-114.301,27.8308,0.7716],[-114.2989,27.831,0.8942],[-114.3033,27.8375,0.0],[-114.3049,27.8353,1.2935],[-114.3022,27.8305,0.7716],[-114.3062,27.8353,1.2935],[-114.3055,27.8375,0.8486],[-114.3092,27.8395,1.3478],[-114.311,27.8425,1.4158],[-114.3086,27.8425,1.4147],[-114.308,27.84,0.856],[-114.3047,27.8379,0.8486],[-114.3045,27.8408,1.6172],[-114.3003,27.8374,1.0834],[-114.2972,27.8323,0.0],[-114.2983,27.8274,0.0],[-114.2951,27.8369,0.0],[-114.2961,27.8498,0.0],[-114.2977,27.8521,0.6649],[-114.2961,27.8521,0.6801],[-114.2951,27.8475,0.0],[-114.2933,27.8586,0.0],[-114.2944,27.8645,0.5243],[-114.3061,27.8725,0.0],[-114.3177,27.8736,0.2901],[-114.3264,27.872,1.0628],[-114.3413,27.8655,0.0],[-114.3619,27.851,1.3691],[-114.3822,27.8337,2.0021],[-114.3873,27.8289,0.0],[-114.3908,27.8216,1.4854],[-114.3905,27.8196,1.6207],[-114.3876,27.8193,2.5531],[-114.383,27.8233,4.6366],[-114.3809,27.8218,0.0865],[-114.3792,27.8263,1.694],[-114.3773,27.8274,0.0],[-114.3792,27.828,1.0191],[-114.3825,27.8255,1.9407],[-114.3846,27.8258,1.5378],[-114.385,27.8275,2.0929],[-114.3817,27.8272,0.7502],[-114.3798,27.8341,2.2702],[-114.3748,27.8308,0.5389],[-114.3706,27.83,0.113],[-114.3756,27.8347,1.2794],[-114.3781,27.8344,1.46],[-114.3784,27.8361,2.0546],[-114.3762,27.8377,2.2484],[-114.3705,27.8399,1.6487],[-114.3707,27.837,1.4849],[-114.3727,27.8365,0.7449],[-114.3705,27.8325,0.4694],[-114.3672,27.8366,0.7535],[-114.369,27.8386,1.3288],[-114.3686,27.8411,2.1005],[-114.3669,27.8381,0.2622],[-114.3622,27.8366,0.2077],[-114.3588,27.8335,0.0],[-114.36,27.835,0.7057],[-114.3569,27.8345,0.0],[-114.3543,27.8409,0.2564],[-114.3551,27.8431,0.0],[-114.3524,27.8417,0.0],[-114.3558,27.8449,0.0],[-114.3551,27.8461,1.2455],[-114.3452,27.8444,0.2241],[-114.3428,27.8463,0.3827],[-114.3386,27.8462,0.0],[-114.3354,27.8495,0.0],[-114.3286,27.8499,1.5461],[-114.3276,27.847,1.1318],[-114.3307,27.8464,1.1616],[-114.3325,27.8483,0.734],[-114.3344,27.8469,0.1021],[-114.334,27.8433,0.213],[-114.3397,27.8437,0.0],[-114.3399,27.8412,0.0],[-114.3419,27.8399,0.6669],[-114.3478,27.8399,0.0],[-114.3418,27.8363,0.9864],[-114.3336,27.8272,1.057],[-114.3335,27.8261,1.0177],[-114.3374,27.8272,0.8642],[-114.3364,27.8233,0.7622],[-114.3377,27.8214,0.3324],[-114.3363,27.8193,0.9067],[-114.3404,27.8215,0.1661],[-114.3409,27.8183,1.0995],[-114.3468,27.8222,0.585],[-114.3469,27.8236,0.585],[-114.3436,27.8226,0.0],[-114.3436,27.8246,0.0],[-114.3522,27.8281,1.8419],[-114.356,27.8273,0.0],[-114.3523,27.8267,2.0983],[-114.3528,27.8229,0.4667],[-114.3507,27.8249,2.2379],[-114.3486,27.8237,0.0],[-114.347,27.8175,2.2667],[-114.35,27.8209,0.0],[-114.3508,27.8197,0.9623],[-114.3454,27.8108,1.5612],[-114.3442,27.8183,1.4945],[-114.3424,27.8175,1.2589],[-114.3428,27.8141,1.3667],[-114.3404,27.8138,2.4983],[-114.3376,27.8083,0.9032],[-114.3459,27.8087,0.0],[-114.3498,27.8123,0.0],[-114.3603,27.8155,0.0],[-114.3608,27.8139,0.0],[-114.3667,27.8136,0.0],[-114.3681,27.8113,1.2947],[-114.3727,27.8113,0.4447],[-114.3741,27.8086,3.058],[-114.3812,27.809,0.1671],[-114.3814,27.806,1.6812],[-114.3845,27.8073,1.1698],[-114.3849,27.8092,0.0],[-114.3861,27.8074,0.1709],[-114.3888,27.8099,0.3979],[-114.3906,27.8083,0.8508],[-114.3986,27.8154,1.3579],[-114.3957,27.8178,0.0],[-114.3933,27.8163,0.0],[-114.3921,27.8172,0.0],[-114.3954,27.8202,0.0],[-114.3971,27.8188,0.0],[-114.4016,27.8193,0.0],[-114.458,27.7887,13.0745],[-114.4881,27.775,15.2178],[-114.4993,27.772,24.5849],[-114.5031,27.7723,1.7145],[-114.5154,27.7784,29.4847],[-114.5212,27.7793,17.3142],[-114.5254,27.7815,39.2499],[-114.5269,27.7844,8.8473],[-114.5333,27.7861,4.1925],[-114.5449,27.7846,16.1457],[-114.5511,27.7819,59.8841],[-114.5609,27.7815,35.8454],[-114.5697,27.7833,17.7632],[-114.6053,27.7735,61.7886],[-114.6139,27.7764,9.8988],[-114.6339,27.7761,10.7959],[-114.6395,27.7772,7.0642],[-114.6429,27.7817,15.85],[-114.6538,27.7799,23.8643],[-114.6603,27.7812,11.1017],[-114.669,27.7883,6.2828],[-114.6915,27.7866,25.3605],[-114.7049,27.7888,1.405],[-114.7188,27.7958,7.3058],[-114.719,27.8024,3.2683],[-114.7209,27.8045,2.0051],[-114.7237,27.8041,2.2395],[-114.7371,27.8085,1.7891],[-114.7389,27.8061,2.5496],[-114.7442,27.8051,15.1808],[-114.7581,27.8071,0.0],[-114.7623,27.8058,8.1751],[-114.7684,27.8078,5.2257],[-114.7711,27.8117,3.0434],[-114.7872,27.8156,0.0],[-114.8024,27.811,2.7628],[-114.803,27.8122,0.0],[-114.8097,27.8117,3.9705],[-114.8267,27.8089,0.0],[-114.8396,27.8101,16.0605],[-114.8479,27.8182,6.9213],[-114.852,27.8202,15.3213],[-114.851,27.8248,2.0479],[-114.8658,27.8302,2.0635],[-114.869,27.8286,7.691],[-114.8816,27.8279,3.7549],[-114.8976,27.8327,1.5676],[-114.9091,27.8323,0.0],[-114.9128,27.834,0.3585],[-114.9226,27.8342,0.517],[-114.9386,27.8298,3.3513],[-114.972,27.8254,14.6939],[-114.9848,27.8255,0.0],[-114.9878,27.827,13.9717],[-115.0063,27.8284,15.4829],[-115.0165,27.832,14.6746],[-115.0205,27.8372,0.0],[-115.0199,27.8389,0.0],[-115.0225,27.84,2.3448],[-115.0269,27.8467,9.1354],[-115.0353,27.8496,43.2519],[-115.0362,27.8519,12.7697],[-115.0411,27.8541,0.0],[-115.0418,27.8567,20.3681],[-115.047,27.8559,1.1212],[-115.0501,27.8589,0.0],[-115.0547,27.8603,6.3699],[-115.0543,27.8614,1.9237],[-115.0714,27.8557,0.0],[-115.0727,27.8531,7.4506],[-115.0775,27.8519,8.9281],[-115.0783,27.8484,11.1277],[-115.082,27.8479,4.7335],[-115.078,27.8426,2.7928],[-115.0728,27.8401,5.8167],[-115.0704,27.8368,0.0],[-115.0676,27.8363,21.1277],[-115.0667,27.8331,2.7257],[-115.052,27.8198,0.0],[-115.0528,27.8181,0.0],[-115.0504,27.814,3.1324],[-115.0486,27.8026,11.177],[-115.0458,27.8003,0.0],[-115.0433,27.7926,0.0],[-115.0376,27.7867,1.9205],[-115.0315,27.7705,5.2564],[-115.0336,27.7679,0.0],[-115.0315,27.764,16.5176],[-115.0337,27.76,0.0],[-115.0306,27.7595,28.2613],[-115.0284,27.7563,44.1572],[-115.026,27.7565,64.921],[-115.0291,27.7554,4.4623],[-115.0248,27.7514,0.0],[-115.023,27.7449,30.5211],[-115.0253,27.7404,0.0],[-115.0144,27.7397,62.6951],[-115.0144,27.7362,20.0641],[-115.0096,27.7288,7.3178],[-115.0065,27.718,0.0],[-115.004,27.7191,8.3782],[-114.9987,27.7182,5.2496],[-114.9978,27.7242,0.0],[-115.0042,27.7266,44.9001],[-115.0009,27.7268,43.8971],[-114.9991,27.7297,33.8632],[-114.9962,27.7257,6.0616],[-114.9947,27.7261,1.4647],[-114.9939,27.7289,10.5132],[-114.9954,27.7324,19.9603],[-114.9909,27.7323,11.9321],[-114.9875,27.7309,9.1087],[-114.9872,27.7294,6.9504],[-114.9891,27.7289,3.167],[-114.9836,27.7279,1.2625],[-114.9796,27.7243,0.0],[-114.9738,27.7248,3.1506],[-114.9527,27.7161,4.078],[-114.9412,27.7064,1.505],[-114.9382,27.7017,5.2473],[-114.9349,27.6933,17.6009],[-114.9351,27.6881,20.9872],[-114.9366,27.6871,0.0],[-114.9327,27.6848,19.7512],[-114.9331,27.6787,3.1256],[-114.9304,27.676,1.7747],[-114.9216,27.6713,6.9967],[-114.912,27.6703,0.0],[-114.9096,27.668,0.0],[-114.9102,27.6667,0.0],[-114.9053,27.6666,6.9684],[-114.9006,27.6644,0.9592],[-114.9003,27.6689,0.0],[-114.9035,27.6739,68.5152],[-114.8978,27.6803,2.094],[-114.8941,27.6808,3.6609],[-114.8932,27.6847,15.1838],[-114.8951,27.6868,8.2494],[-114.8949,27.6895,5.0417],[-114.8889,27.6924,1.5732],[-114.8872,27.6951,9.4906],[-114.8803,27.6958,0.0],[-114.8801,27.6986,8.3489],[-114.876,27.7017,2.1062],[-114.8752,27.7066,1.7699],[-114.8745,27.7022,1.0861],[-114.8775,27.6991,0.9547],[-114.8674,27.6957,0.7456],[-114.8553,27.6875,2.3971],[-114.8488,27.68,0.0],[-114.8458,27.6712,0.0],[-114.846,27.665,0.5994],[-114.8493,27.6576,0.0],[-114.8474,27.6557,5.0626],[-114.8476,27.6477,1.236],[-114.852,27.64,0.2884],[-114.8585,27.6377,11.9689],[-114.862,27.6416,11.4562],[-114.862,27.6439,0.0],[-114.8716,27.6496,1.4325],[-114.8738,27.648,9.5285],[-114.8734,27.6432,3.3832],[-114.8627,27.638,11.8001],[-114.8614,27.6339,14.77],[-114.8639,27.6316,4.768],[-114.8623,27.6314,4.768],[-114.8611,27.6275,5.1586],[-114.8569,27.6245,2.885],[-114.8524,27.6237,0.0],[-114.8511,27.6223,26.1974],[-114.8524,27.6217,0.0],[-114.8476,27.6178,7.599],[-114.8447,27.6177,3.6551],[-114.846,27.6257,7.012],[-114.8419,27.6293,1.9482],[-114.8307,27.6312,0.8608],[-114.8212,27.6299,0.0],[-114.8111,27.6268,0.5186],[-114.7961,27.6171,11.1635],[-114.7848,27.6075,6.2244],[-114.7772,27.5991,14.6202],[-114.7722,27.5895,1.2967],[-114.7724,27.5869,0.0],[-114.7701,27.5855,0.988],[-114.7656,27.5765,1.4551],[-114.7613,27.5636,34.0637],[-114.763,27.5595,2.2632],[-114.7621,27.5549,0.0],[-114.7588,27.5518,50.3267],[-114.7578,27.5479,13.4461],[-114.7523,27.546,19.0089],[-114.7466,27.5402,6.7219],[-114.7446,27.5336,0.0],[-114.7425,27.5343,31.4625],[-114.7397,27.5328,21.3344],[-114.7373,27.5242,3.6353],[-114.7302,27.5236,31.2482],[-114.7291,27.5213,1.7512],[-114.7231,27.5229,22.8047],[-114.7145,27.5221,57.4637],[-114.7082,27.5178,0.0],[-114.6997,27.5164,0.0],[-114.6871,27.5084,1.5701],[-114.6795,27.5086,2.5472],[-114.6637,27.5048,48.4733],[-114.6522,27.4996,22.1505],[-114.649,27.4959,3.4624],[-114.6424,27.4955,32.1278],[-114.6391,27.4927,2.8024],[-114.64,27.4901,0.0],[-114.6349,27.4906,43.8827],[-114.6323,27.487,0.0],[-114.622,27.4862,22.2736],[-114.6177,27.4824,12.8307],[-114.6141,27.4825,32.5695],[-114.608,27.4791,27.5126],[-114.6055,27.4803,13.1249],[-114.6015,27.4788,22.6926],[-114.6011,27.4767,0.0],[-114.5958,27.4755,18.8542],[-114.5863,27.4626,13.4062],[-114.5772,27.4545,2.5009],[-114.5765,27.452,0.0],[-114.5722,27.4507,19.9161],[-114.5646,27.451,11.9028],[-114.5589,27.4459,20.0122],[-114.5557,27.446,16.3546],[-114.5491,27.4426,32.1739],[-114.5464,27.4376,6.1547],[-114.5419,27.4375,9.8369],[-114.5266,27.4291,21.1592],[-114.5168,27.4183,0.0],[-114.513,27.4168,3.4434],[-114.507,27.409,1.6687],[-114.5002,27.3938,0.0],[-114.4937,27.3735,4.862],[-114.4886,27.3504,4.5843],[-114.4851,27.2986,13.9955],[-114.4852,27.2826,28.8973],[-114.4883,27.2792,8.3138],[-114.4861,27.2769,20.231],[-114.4874,27.2763,20.231],[-114.4846,27.26,14.5658],[-114.4873,27.255,19.1489],[-114.4858,27.2524,13.4219],[-114.4863,27.249,5.6111],[-114.4883,27.2472,3.8517],[-114.4866,27.2459,17.1266],[-114.4875,27.2396,17.5058],[-114.4859,27.2383,0.5741],[-114.4851,27.2335,24.5545],[-114.488,27.2287,0.4687],[-114.4852,27.2258,30.6158],[-114.4837,27.2264,30.6158],[-114.4847,27.225,0.0],[-114.481,27.2237,0.0],[-114.4786,27.2171,29.4772],[-114.4681,27.22,3.0998],[-114.463,27.2189,10.2383],[-114.4607,27.2208,22.9374],[-114.4563,27.2206,21.0897],[-114.4511,27.2192,15.4998],[-114.4482,27.2176,13.5522],[-114.4467,27.2146,0.0],[-114.4428,27.2149,3.0991],[-114.4349,27.2098,4.0737],[-114.4281,27.1985,0.0],[-114.4271,27.1903,17.0326],[-114.4303,27.1837,20.0689],[-114.4327,27.1834,1.6337],[-114.4349,27.1775,6.2933],[-114.434,27.1764,5.2581],[-114.4308,27.1744,2.2381],[-114.427,27.1747,17.9705],[-114.426,27.1721,1.8349],[-114.4208,27.1736,0.0],[-114.4191,27.1701,0.0],[-114.4154,27.1689,2.6495],[-114.4069,27.1742,6.864],[-114.3991,27.1759,0.3343],[-114.3983,27.1808,6.4337],[-114.3963,27.1826,4.6492],[-114.3856,27.1809,1.8061],[-114.3749,27.1751,0.0],[-114.3622,27.1634,0.0],[-114.3414,27.1599,0.0],[-114.3324,27.1564,0.0],[-114.3272,27.1485,0.0],[-114.3144,27.1432,2.4122],[-114.3081,27.1362,4.2997],[-114.3039,27.134,13.8419],[-114.3009,27.1286,0.0],[-114.2983,27.1288,7.2286],[-114.2984,27.1258,0.0],[-114.2967,27.1236,0.0],[-114.2946,27.1279,5.2262],[-114.2964,27.1333,18.5271],[-114.2958,27.1381,0.0],[-114.2918,27.1432,1.8342],[-114.2754,27.1501,0.0],[-114.252,27.1519,0.0],[-114.2253,27.1488,8.6118],[-114.2115,27.1445,3.9822],[-114.1949,27.1427,0.9795],[-114.1682,27.1336,0.5613],[-114.1471,27.1241,7.0196],[-114.1251,27.1119,2.3348],[-114.0902,27.0861,6.5563],[-114.0802,27.0711,3.6721],[-114.0612,27.052,0.8931],[-114.0525,27.0324,0.0],[-114.0522,27.0208,0.0],[-114.0474,27.0162,1.5816],[-114.0392,27.0128,4.6924],[-114.0133,26.9806,5.5909],[-114.0098,26.9791,6.251],[-114.0028,26.9714,0.7938],[-114.0007,26.9728,3.5339],[-113.9836,26.9734,1.1814],[-113.9831,26.9763,2.3612],[-113.9797,26.9799,5.4299],[-113.9773,26.9918,0.0],[-113.9722,26.9956,6.3824],[-113.9646,26.9982,1.3122],[-113.947,26.9994,2.0454],[-113.9208,26.9952,0.0],[-113.9005,26.9898,1.3709],[-113.8719,26.9797,0.8676],[-113.8528,26.9704,0.0],[-113.8316,26.9574,0.4476],[-113.8082,26.9404,1.1801],[-113.7935,26.9267,4.4412],[-113.7818,26.9122,7.6643],[-113.761,26.8731,4.193],[-113.7572,26.8611,0.0],[-113.7415,26.8271,5.2441],[-113.73779999999999,26.8145,3.2352],[-113.7373,26.8049,0.0],[-113.7337,26.7995,3.202],[-113.7317,26.7988,0.7759],[-113.7287,26.8012,1.9852],[-113.7224,26.7993,2.7233],[-113.7151,26.7902,0.0],[-113.7068,26.7897,0.0],[-113.7013,26.7946,0.4427],[-113.687,26.7944,1.2451],[-113.6848,26.7912,0.9202],[-113.6822,26.7919,0.8479],[-113.681,26.7905,2.1847],[-113.6803,26.7886,1.1862],[-113.682,26.7878,0.8747],[-113.68,26.7849,0.359],[-113.6781,26.7856,1.1521],[-113.674,26.7828,0.7176],[-113.6757,26.7879,1.3618],[-113.6692,26.7839,0.8042],[-113.6646,26.7793,0.0],[-113.6616,26.7721,1.2439],[-113.6589,26.7711,0.2119],[-113.6592,26.7692,0.6082],[-113.6618,26.7708,0.3989],[-113.6616,26.7662,0.8715],[-113.6602,26.764,0.3176],[-113.6595,26.7654,0.3176],[-113.6575,26.7647,0.7333],[-113.6567,26.7607,0.0],[-113.6461,26.7613,0.0],[-113.6418,26.7581,0.7389],[-113.6364,26.7391,0.6094],[-113.6322,26.7382,0.0],[-113.6301,26.7402,0.8479],[-113.6265,26.7397,0.1777],[-113.6185,26.7307,0.4356],[-113.6062,26.7319,0.0],[-113.603,26.7254,0.0],[-113.5989,26.723,0.0],[-113.5976,26.7189,0.0],[-113.5977,26.7209,0.588],[-113.5938,26.7219,0.906],[-113.5931,26.7181,0.1767],[-113.5902,26.7153,0.706],[-113.5927,26.7148,1.5298],[-113.6056,26.721,0.3753],[-113.6195,26.7234,1.2317],[-113.6253,26.7281,0.3311],[-113.6269,26.7324,0.0],[-113.6366,26.7347,0.6945],[-113.6434,26.7383,1.1843],[-113.6456,26.7428,0.0],[-113.6451,26.7499,0.0],[-113.6433,26.7523,0.0],[-113.6455,26.7549,0.6514],[-113.6444,26.7564,0.5874],[-113.653,26.7568,1.288],[-113.6589,26.7594,1.4366],[-113.665,26.7673,1.3393],[-113.6661,26.7748,0.6501],[-113.683,26.7817,0.6943],[-113.6986,26.7913,0.5389],[-113.7004,26.7902,0.0],[-113.7001,26.7875,0.0],[-113.6915,26.7843,0.1767],[-113.6834,26.779,0.2758],[-113.6734,26.7687,0.0],[-113.6578,26.7564,0.8193],[-113.6374,26.7293,2.9159],[-113.6098,26.7146,1.3017],[-113.5767,26.7052,0.0],[-113.5712,26.7145,1.5576],[-113.5475,26.7202,0.0],[-113.5455,26.727,5.0622],[-113.5492,26.7311,0.0],[-113.5501,26.7355,0.403],[-113.5489,26.7384,0.0],[-113.5438,26.7429,1.5745],[-113.5237,26.751,0.6688],[-113.5218,26.7532,0.3102],[-113.5216,26.7564,0.6759],[-113.5184,26.7599,0.0],[-113.5203,26.7642,0.0],[-113.5105,26.7901,1.7908],[-113.5041,26.7943,1.436],[-113.4891,26.7996,0.0],[-113.4659,26.8047,0.0],[-113.4632,26.8085,0.4048],[-113.4638,26.8126,0.0],[-113.4716,26.807,1.6276],[-113.4751,26.8068,1.5857],[-113.4792,26.8092,0.1497],[-113.4735,26.8117,1.1012],[-113.4859,26.8147,1.5922],[-113.4852,26.8188,0.4486],[-113.4739,26.8252,-0.3141],[-113.4741,26.821,0.3385],[-113.4704,26.816,0.1662],[-113.4705,26.8232,0.2149],[-113.4667,26.8241,0.4653],[-113.465,26.8292,1.1144],[-113.4551,26.8309,0.5024],[-113.4373,26.8318,0.0],[-113.4346,26.8303,0.6232],[-113.4334,26.8264,0.0],[-113.4301,26.8294,1.1866],[-113.4267,26.829,0.6716],[-113.4233,26.8314,0.3721],[-113.4169,26.8323,2.0426],[-113.409,26.8255,1.095],[-113.4056,26.8251,0.0],[-113.4029,26.8269,0.0],[-113.3958,26.8254,0.0],[-113.391,26.8143,0.8116],[-113.3996,26.8117,1.0954],[-113.41,26.8216,1.7216],[-113.4212,26.8255,0.0],[-113.4228,26.8232,1.9524],[-113.4295,26.8206,0.3061],[-113.4326,26.8164,0.4701],[-113.43,26.8167,0.4437],[-113.4272,26.8147,0.0],[-113.4245,26.8178,1.1864],[-113.4216,26.8177,1.4982],[-113.4234,26.8163,0.5895],[-113.4212,26.8149,0.0],[-113.4166,26.8161,0.8826],[-113.4136,26.8152,0.36],[-113.4138,26.8169,1.3996],[-113.4128,26.8146,1.5225],[-113.4145,26.8134,0.9587],[-113.4134,26.8126,1.6505],[-113.4217,26.8125,0.4811],[-113.4284,26.8104,1.1603],[-113.4384,26.8118,0.9798],[-113.4483,26.811,0.0],[-113.4457,26.808,0.8074],[-113.4541,26.8113,0.2688],[-113.4603,26.8105,0.4684],[-113.4559,26.8056,2.0105],[-113.4412,26.8076,0.6746],[-113.4096,26.8057,0.8117],[-113.3627,26.7961,0.528],[-113.3326,26.7837,0.0],[-113.3097,26.7705,1.4176],[-113.2831,26.7519,0.0],[-113.2684,26.7508,0.0],[-113.2652,26.7535,0.0],[-113.2648,26.7619,0.0],[-113.2658,26.764,0.0],[-113.27,26.7656,0.7216],[-113.2689,26.7744,0.0],[-113.263,26.7832,0.2237],[-113.2687,26.7878,0.3021],[-113.2702,26.7848,1.1528],[-113.2731,26.7868,0.6352],[-113.2709,26.7879,0.6044],[-113.2694,26.7919,0.0],[-113.2672,26.806,0.1031],[-113.2687,26.8111,0.2077],[-113.2676,26.8176,0.1902],[-113.2716,26.8202,0.9179],[-113.2719,26.8257,1.1635],[-113.2701,26.8243,0.9034],[-113.2657,26.8317,1.3347],[-113.2707,26.8214,0.5294],[-113.2683,26.8194,0.9679],[-113.2651,26.8206,0.5177],[-113.2601,26.8325,0.0],[-113.2601,26.8377,0.4599],[-113.2623,26.8355,1.3388],[-113.265,26.8369,1.3219],[-113.258,26.839,0.6295],[-113.2526,26.8453,0.3057],[-113.2494,26.845,0.4338],[-113.2465,26.8401,0.3391],[-113.2409,26.8351,0.0],[-113.2344,26.8366,0.2398],[-113.2308,26.835,0.0],[-113.2294,26.8366,0.6357],[-113.2233,26.8371,0.4538],[-113.2098,26.8459,0.0],[-113.2077,26.8495,0.2069],[-113.2031,26.8511,0.0],[-113.2046,26.8697,1.1411],[-113.196,26.8951,0.2276],[-113.1983,26.9025,1.1165],[-113.1971,26.9024,0.298],[-113.1971,26.9045,0.0],[-113.2016,26.9175,1.9269],[-113.1995,26.9252,0.0],[-113.2008,26.9272,2.1901],[-113.1964,26.9346,0.0],[-113.1966,26.9385,0.7701],[-113.195,26.9386,0.0],[-113.1865,26.9722,1.2027],[-113.1803,26.9764,0.7093],[-113.1761,26.9764,0.9331],[-113.1747,26.9739,1.9613],[-113.1724,26.9746,0.0],[-113.1682,26.984,0.0],[-113.17,26.9868,1.7487],[-113.1752,26.9871,0.9309],[-113.177,26.9895,1.1904],[-113.1734,26.9941,1.0663],[-113.1681,26.9942,1.0681],[-113.1647,26.9924,0.5523],[-113.163,26.9875,0.8747],[-113.1597,26.9852,1.143],[-113.1577,26.9804,0.3518],[-113.1539,26.9773,1.0789],[-113.1496,26.9701,0.7589],[-113.1375,26.9348,1.2068],[-113.1368,26.9095,0.8058],[-113.133,26.9067,0.9505],[-113.1328,26.8967,0.6524],[-113.1309,26.8932,0.9396],[-113.1338,26.8812,0.4557],[-113.1358,26.8787,1.5377],[-113.1354,26.8696,5.2951],[-113.1384,26.8646,0.0],[-113.1382,26.8578,0.0],[-113.148,26.8453,2.6495],[-113.1674,26.831,0.8432],[-113.168,26.8273,1.5035],[-113.1715,26.8234,2.8955],[-113.1803,26.822,1.6692],[-113.1834,26.8145,0.0],[-113.1879,26.8092,0.7804],[-113.2001,26.8058,0.0],[-113.2017,26.8022,0.0],[-113.2088,26.7966,0.0],[-113.2077,26.7955,0.3679],[-113.2007,26.799,1.6949],[-113.2,26.7966,0.0],[-113.1944,26.7959,1.5906],[-113.1944,26.7921,1.1789],[-113.2012,26.7923,0.3254],[-113.2059,26.7897,1.5335],[-113.2134,26.7893,1.1208],[-113.2169,26.7922,0.0],[-113.2172,26.7971,0.0],[-113.2219,26.7942,1.0132],[-113.2263,26.7958,0.0],[-113.2306,26.7946,0.2756],[-113.2317,26.7894,1.7967],[-113.2347,26.7901,0.0],[-113.2354,26.7872,0.723],[-113.243,26.7899,0.0],[-113.2447,26.7873,1.4125],[-113.2426,26.7842,2.617],[-113.2345,26.7807,1.9757],[-113.2331,26.7745,0.7349],[-113.2225,26.774,0.9825],[-113.218,26.7675,1.5489],[-113.2097,26.7624,1.4808],[-113.2031,26.7628,0.0],[-113.2043,26.7653,0.9572],[-113.1993,26.7623,1.9192],[-113.1871,26.7623,2.0137],[-113.1858,26.7558,0.423],[-113.1854,26.7578,1.8634],[-113.1815,26.7592,0.5276],[-113.1849,26.7615,1.5285],[-113.182,26.765,0.8777],[-113.1792,26.7606,0.7093],[-113.1779,26.7618,0.0],[-113.18,26.7661,0.9879],[-113.1764,26.7656,1.3783],[-113.1756,26.7639,0.3644],[-113.1727,26.7656,0.0],[-113.1766,26.7714,0.5112],[-113.1744,26.7727,0.3512],[-113.1754,26.7759,1.7526],[-113.1726,26.7767,1.1343],[-113.1704,26.7745,0.0],[-113.1699,26.7765,0.0],[-113.1696,26.7849,0.4954],[-113.174,26.7868,1.5955],[-113.1731,26.7921,2.491],[-113.1693,26.7957,1.9663],[-113.1702,26.8031,2.054],[-113.1671,26.8046,2.2045],[-113.1676,26.8024,2.1506],[-113.1652,26.8,1.9569],[-113.1613,26.8009,2.2964],[-113.1652,26.8019,2.2398],[-113.1669,26.8063,2.7815],[-113.1653,26.8067,2.2181],[-113.1652,26.805,2.2314],[-113.161,26.802,2.2964],[-113.1559,26.8064,2.8647],[-113.1554,26.8025,2.1543],[-113.1509,26.8027,2.1928],[-113.1506,26.7998,2.1441],[-113.1532,26.7973,1.8238],[-113.1542,26.7927,1.7645],[-113.1586,26.7958,1.5426],[-113.1595,26.7948,0.5493],[-113.1523,26.7897,0.1968],[-113.1517,26.7947,0.0],[-113.1462,26.8021,1.4892],[-113.1418,26.8006,1.432],[-113.1387,26.7972,0.3947],[-113.1353,26.7971,1.2423],[-113.1369,26.796,1.1736],[-113.136,26.795,0.0],[-113.1319,26.7951,0.7545],[-113.1319,26.7984,1.2014],[-113.1344,26.798,1.2423],[-113.1355,26.7997,1.3049],[-113.1378,26.7983,1.4481],[-113.1392,26.8013,1.4628],[-113.1503,26.8033,2.1928],[-113.1469,26.8045,1.9608],[-113.1401,26.8133,3.7308],[-113.1362,26.8153,2.058],[-113.1317,26.815,2.0717],[-113.1236,26.8101,1.9533],[-113.1224,26.8028,3.2904],[-113.1247,26.801,2.8066],[-113.121,26.7999,4.9253],[-113.1211,26.7936,2.6431],[-113.124,26.7989,1.9973],[-113.1252,26.7966,2.4037],[-113.1238,26.7934,2.8773],[-113.1288,26.7916,2.6337],[-113.1359,26.7915,1.4353],[-113.1422,26.7959,0.7787],[-113.1491,26.7928,0.1904],[-113.1404,26.7806,0.6534],[-113.1417,26.777,1.5947],[-113.1501,26.7766,1.1745],[-113.1505,26.772,0.0],[-113.1467,26.7691,1.4545],[-113.1458,26.7641,1.4996],[-113.1387,26.7567,1.2736],[-113.1473,26.7569,4.5138],[-113.1502,26.7551,0.1066],[-113.152,26.7502,0.0],[-113.1488,26.7528,1.1242],[-113.1436,26.7483,1.5013],[-113.1302,26.7262,0.1142],[-113.1241,26.7194,0.0],[-113.1227,26.7201,1.1117],[-113.1212,26.7166,0.5688],[-113.1161,26.7167,0.849],[-113.1136,26.7145,0.5133],[-113.1075,26.7072,0.6165],[-113.1035,26.6991,0.0],[-113.0991,26.6979,0.4226],[-113.096,26.6948,0.4985],[-113.0944,26.6869,0.7304],[-113.0823,26.6744,0.192],[-113.0729,26.6598,0.2723],[-113.0607,26.6514,0.2342],[-113.0573,26.6443,1.1371],[-113.053,26.64,0.5063],[-113.0554,26.6356,1.2827],[-113.0629,26.6402,1.4103],[-113.0676,26.6404,1.5696],[-113.0737,26.636,1.3199],[-113.0734,26.6322,1.4762],[-113.0755,26.6297,1.8204],[-113.0724,26.6264,0.0],[-113.0712,26.6273,0.9702],[-113.0717,26.6302,1.0178],[-113.0686,26.6289,1.1193],[-113.0595,26.6164,1.4852],[-113.0592,26.6105,1.3248],[-113.0537,26.6047,0.9955],[-113.0533,26.6014,2.1911],[-113.0639,26.6129,0.0],[-113.0627,26.6072,0.0],[-113.0643,26.6106,0.1718],[-113.0658,26.606,0.0],[-113.0618,26.5992,0.0],[-113.039,26.5805,1.749],[-113.0365,26.5764,1.3127],[-113.0276,26.5689,1.6043],[-112.9855,26.5419,1.4807],[-112.9844,26.5431,0.4944],[-112.9871,26.5474,0.2809],[-112.9943,26.554,0.7687],[-112.9912,26.555,1.5261],[-112.9919,26.5559,1.0347],[-113.0003,26.5554,2.3708],[-113.0061,26.557,2.0559],[-113.0073,26.5581,2.2157],[-113.0056,26.5582,0.0],[-113.0058,26.5609,0.0],[-113.0116,26.5633,0.7575],[-113.0141,26.5623,0.5282],[-113.0188,26.5693,0.8073],[-113.0132,26.5681,0.2561],[-113.0043,26.5624,0.4989],[-112.9996,26.5616,0.0],[-112.9988,26.5584,0.1807],[-112.9946,26.5577,0.8787],[-112.9916,26.5605,1.2718],[-112.9864,26.5601,0.105],[-112.9839,26.557,0.0],[-112.982,26.5465,0.2973],[-112.9808,26.5459,0.7736],[-112.9804,26.5483,1.2214],[-112.9797,26.5473,1.2214],[-112.9803,26.5442,1.2342],[-112.9828,26.5432,0.0],[-112.9789,26.5355,0.0],[-112.9751,26.5333,0.0],[-112.9535,26.5369,0.0],[-112.9514,26.5392,0.0],[-112.9556,26.5416,0.7977],[-112.9624,26.5404,0.8491],[-112.9647,26.5419,1.9485],[-112.97,26.54,1.9863],[-112.9686,26.5427,0.9171],[-112.9669,26.5427,0.0],[-112.9701,26.5445,0.9242],[-112.9754,26.5428,2.1343],[-112.9757,26.5474,2.0785],[-112.9744,26.5479,1.6445],[-112.9733,26.5458,0.2233],[-112.9702,26.5493,2.2038],[-112.9695,26.5476,1.4226],[-112.9714,26.547,0.4245],[-112.9673,26.5461,0.3882],[-112.9663,26.5437,0.0],[-112.9495,26.5419,0.424],[-112.9412,26.5375,0.4184],[-112.931,26.5366,0.0],[-112.9198,26.5322,0.3093],[-112.9064,26.5296,0.4148],[-112.8931,26.521,0.3438],[-112.8917,26.5161,0.8335],[-112.8792,26.5131,0.5814],[-112.8764,26.5095,0.7683],[-112.8644,26.5029,0.6157],[-112.8538,26.4909,1.2845],[-112.8411,26.4819,0.0],[-112.8354,26.4809,1.0116],[-112.8338,26.4773,0.4712],[-112.8345,26.4734,0.0],[-112.8235,26.4666,0.0],[-112.8235,26.4708,1.1359],[-112.8197,26.4672,0.8842],[-112.8144,26.4569,1.1473],[-112.8276,26.4652,1.2346],[-112.83,26.4654,0.5438],[-112.8337,26.4611,0.0],[-112.8332,26.4593,0.1927],[-112.8304,26.4609,0.7566],[-112.8247,26.4553,0.1154],[-112.8245,26.4472,0.5062],[-112.8315,26.4476,1.0102],[-112.8488,26.46,0.8244],[-112.8546,26.466,0.5496],[-112.8541,26.4676,0.0],[-112.8442,26.4633,0.0],[-112.8378,26.4638,0.763],[-112.8353,26.4676,0.0],[-112.8413,26.4717,2.0484],[-112.8419,26.4746,1.6393],[-112.8436,26.476,1.3084],[-112.8494,26.4747,1.578],[-112.8475,26.4792,0.0],[-112.8682,26.4915,0.8575],[-112.8682,26.4933,0.7316],[-112.8786,26.4948,0.5373],[-112.8778,26.4973,0.755],[-112.8843,26.4989,0.06],[-112.8846,26.5021,0.0],[-112.8957,26.5036,2.0336],[-112.8977,26.5058,1.7481],[-112.8964,26.5069,0.743],[-112.9,26.5078,1.3821],[-112.8991,26.5174,0.0],[-112.9003,26.5193,0.0],[-112.9023,26.5179,0.8675],[-112.9032,26.5212,1.4317],[-112.9105,26.5216,1.738],[-112.9112,26.5233,1.3993],[-112.9189,26.5245,1.4929],[-112.9186,26.5267,0.5259],[-112.9284,26.5284,0.1174],[-112.9271,26.5232,0.3436],[-112.9201,26.5204,0.3174],[-112.9217,26.5149,1.1847],[-112.9222,26.52,1.3575],[-112.9235,26.5193,1.3575],[-112.9298,26.5219,3.6126],[-112.9311,26.5268,1.9002],[-112.9411,26.527,1.5562],[-112.9439,26.5291,0.1252],[-112.9458,26.5277,1.1773],[-112.9462,26.5293,0.3761],[-112.9495,26.5281,1.6042],[-112.9591,26.5305,0.0],[-112.9613,26.5304,1.6072],[-112.9626,26.5284,1.607],[-112.9601,26.5243,1.8021],[-112.9265,26.5083,0.9308],[-112.8896,26.4863,1.2966],[-112.815,26.4253,0.0],[-112.7946,26.4111,1.2014],[-112.7921,26.4112,1.4753],[-112.791,26.4133,0.8491],[-112.7943,26.4134,1.218],[-112.8022,26.4177,0.2549],[-112.8043,26.4228,0.0],[-112.8106,26.4255,0.1938],[-112.813,26.4299,1.2271],[-112.8174,26.4322,1.5687],[-112.8179,26.437,1.4269],[-112.8146,26.4369,1.1108],[-112.7895,26.424,1.5308],[-112.7619,26.4349,2.019],[-112.7787,26.5,140.0256],[-112.775,26.5493,68.0386],[-112.7715,26.5404,60.9005],[-112.7685,26.5373,63.5818],[-112.7604,26.5359,63.1874],[-112.7518,26.5389,73.2926],[-112.751,26.5366,59.1487],[-112.7452,26.5336,54.8737],[-112.7449,26.5309,55.6726],[-112.7392,26.5294,50.8615],[-112.718,26.5021,35.4998],[-112.7089,26.5071,37.627],[-112.704,26.5064,38.5823],[-112.6984,26.5078,41.7419],[-112.6881,26.5047,48.4651],[-112.6692,26.5058,63.7098],[-112.6612,26.5098,73.6862],[-112.6573,26.5152,84.6505],[-112.6581,26.5188,97.674],[-112.6538,26.5219,106.1475],[-112.6515,26.526,111.4555],[-112.6484,26.5274,117.0465],[-112.6462,26.5264,205.7751],[-112.6456,26.5186,240.2991],[-112.6392,26.5142,235.7739],[-112.6362,26.508,238.3103],[-112.6294,26.5044,216.6001],[-112.6287,26.5072,198.7428],[-112.6323,26.5084,264.2446],[-112.6345,26.5112,257.5748],[-112.626,26.5118,227.3462],[-112.6242,26.5147,225.1182],[-112.6213,26.5079,256.6169],[-112.6153,26.5028,221.3783],[-112.6117,26.5031,204.8932],[-112.6032,26.5645,290.4808],[-112.5991,26.5825,304.2009],[-112.5777,26.579,316.2447],[-112.5577,26.5778,282.0498],[-112.4088,26.5818,248.703],[-112.409,26.5664,261.2428],[-112.3806,26.5903,273.0005],[-112.3643,26.5884,442.0025],[-112.36,26.5831,330.9695],[-112.3558,26.5887,344.2039],[-112.346,26.5881,372.4048],[-112.3393,26.5845,414.3942],[-112.3303,26.5873,556.6508],[-112.3253,26.5805,777.5024],[-112.3179,26.5801,842.5263],[-112.3134,26.5768,917.9241],[-112.3116,26.5727,892.7812],[-112.3082,26.5709,828.3384],[-112.3007,26.5702,697.5875],[-112.2934,26.5749,450.3046],[-112.2901,26.5702,442.1198],[-112.2852,26.5674,397.0605],[-112.2823,26.5624,372.7822],[-112.275,26.5603,400.6558],[-112.2767,26.5536,375.4622],[-112.2731,26.5532,378.8571],[-112.2644,26.5567,394.6519],[-112.2524,26.5551,420.8187],[-112.227,26.5373,481.4403],[-112.226,26.5318,646.5866],[-112.1172,26.5303,457.1702],[-112.117,26.5161,877.0697],[-112.1089,26.5145,906.2083],[-112.1066,26.5166,914.0501],[-112.1036,26.524,921.7171],[-112.1009,26.5257,917.9797],[-112.0965,26.5238,914.4306],[-112.0937,26.5271,914.1493],[-112.0901,26.5274,868.2278],[-112.0866,26.5317,876.9633],[-112.0813,26.5343,831.1422],[-112.0784,26.5386,703.3986],[-112.0761,26.539,670.7614],[-112.0692,26.533,826.4871],[-112.0602,26.5325,748.5433],[-112.0584,26.5208,590.9553],[-112.0565,26.5189,607.0884],[-112.0539,26.5189,575.7475],[-112.0484,26.5237,592.4232],[-112.0454,26.5312,593.6245],[-112.0408,26.5324,708.4981],[-112.0313,26.5279,778.6089],[-112.0245,26.5277,559.7228],[-112.0183,26.5244,652.5807],[-112.011,26.5234,732.9427],[-112.0127,26.5207,666.2836],[-111.9756,26.5078,481.1551],[-111.9692,26.5,588.4652],[-111.9641,26.4982,498.0231],[-111.9614,26.5055,603.5017],[-111.9553,26.5138,496.1253],[-111.9511,26.5116,487.4026],[-111.9469,26.5133,502.3151],[-111.9384,26.5214,659.992],[-111.9285,26.5277,598.4664],[-111.9223,26.5286,548.6897],[-111.9165,26.5271,490.4865],[-111.9155,26.5351,532.0502],[-111.9138,26.5368,514.9363],[-111.9057,26.5374,637.2714],[-111.8958,26.5422,406.5005],[-111.8921,26.5413,313.6868],[-111.8883,26.5434,269.0354],[-111.8878,26.5469,248.1037],[-111.8804,26.5477,237.8665],[-111.8772,26.5541,206.4713],[-111.8662,26.5598,179.1014],[-111.86,26.5585,149.7282],[-111.8489,26.5632,120.0717],[-111.8436,26.5617,118.507],[-111.838,26.5557,115.2765],[-111.8152,26.5634,167.9224],[-111.805,26.5492,82.8589],[-111.8001,26.5457,58.1884],[-111.7922,26.5442,33.2085],[-111.7842,26.5477,31.2194],[-111.7815,26.5461,23.018]]]]}}