{"type": "Feature","bbox": [-95.5818,18.4717,-95.4602,18.6214],"geometry": {"type": "MultiPolygon","coordinates": [[[[-95.4681,18.6039,16.9235],[-95.4767,18.6038,12.8473],[-95.4788,18.6086,12.305],[-95.4817,18.6095,12.6226],[-95.4889,18.6079,11.0405],[-95.4929,18.6113,10.6872],[-95.4978,18.6087,9.9646],[-95.4989,18.6107,9.3217],[-95.5048,18.6086,9.1096],[-95.5054,18.6104,8.8379],[-95.5077,18.609,8.5893],[-95.5154,18.6087,6.2735],[-95.5155,18.6108,6.8943],[-95.5185,18.6112,5.9056],[-95.5325,18.6069,3.3081],[-95.5327,18.6093,3.6598],[-95.5447,18.6084,2.2478],[-95.5471,18.6107,1.7034],[-95.5477,18.6156,0.8073],[-95.5508,18.6162,0.9811],[-95.5512,18.6214,1.9173],[-95.5612,18.6172,0.6757],[-95.5684,18.6119,0.6147],[-95.5718,18.6149,0.9507],[-95.5753,18.6074,0.8675],[-95.576,18.6087,0.8675],[-95.5818,18.605,0.5865],[-95.5801,18.5987,0.6554],[-95.5808,18.5953,0.5687],[-95.5767,18.5948,0.2593],[-95.58,18.5929,0.6598],[-95.5802,18.5905,0.592],[-95.5739,18.5895,1.525],[-95.5719,18.5824,2.963],[-95.5668,18.5811,1.6932],[-95.5669,18.5693,1.6563],[-95.5683,18.5698,1.6563],[-95.5733,18.5611,1.2104],[-95.5707,18.5584,1.5506],[-95.5725,18.5551,1.8157],[-95.5717,18.5524,2.5408],[-95.568,18.5528,2.8306],[-95.5671,18.5503,1.419],[-95.5629,18.551,2.164],[-95.5543,18.5434,3.9207],[-95.5532,18.544,1.9529],[-95.5501,18.5393,3.0512],[-95.550299999999993,18.5351,2.0375],[-95.5433,18.5329,2.9441],[-95.54,18.5217,2.0314],[-95.5352,18.5201,2.7757],[-95.5358,18.5144,2.7511],[-95.5329,18.5122,2.4135],[-95.5406,18.5123,2.0197],[-95.539,18.5052,2.1035],[-95.5412,18.5052,2.1097],[-95.5423,18.4988,2.0289],[-95.5368,18.4986,4.2862],[-95.5331,18.4854,3.9213],[-95.5277,18.4892,4.6386],[-95.5236,18.4883,2.7523],[-95.5202,18.4848,1.9583],[-95.519,18.4802,3.1719],[-95.5152,18.4805,2.5497],[-95.5098,18.4717,2.2688],[-95.503,18.4755,2.4113],[-95.5032,18.4796,2.5749],[-95.4999,18.4838,2.3818],[-95.5024,18.4888,2.9852],[-95.5019,18.493,3.3997],[-95.5031,18.4954,2.4723],[-95.5048,18.4955,2.8251],[-95.5036,18.5009,4.2192],[-95.5013,18.5034,4.6394],[-95.4987,18.5189,2.0702],[-95.5032,18.5241,1.1734],[-95.4969,18.5278,5.5901],[-95.4961,18.5385,6.0625],[-95.488,18.5445,5.019],[-95.4899,18.5464,6.7393],[-95.4862,18.551,8.669],[-95.487,18.5527,10.2617],[-95.4926,18.554,6.7717],[-95.4926,18.5593,8.0464],[-95.4817,18.5635,10.4771],[-95.4838,18.5543,10.4841],[-95.48,18.5556,12.4877],[-95.4774,18.5515,9.542],[-95.4728,18.5538,11.0292],[-95.4697,18.5535,9.5054],[-95.4672,18.5718,13.8346],[-95.464,18.572,15.0969],[-95.4636,18.575,15.5699],[-95.4602,18.5759,15.4047],[-95.4609,18.5886,18.1481],[-95.4662,18.5878,17.4888],[-95.4681,18.6039,16.9235]]]]}
,"properties": {"GID_2": "MEX.30.143_2","GID_0": "MEX","country": "México","GID_1": "MEX.30_1","province": "Veracruz","NL_NAME_1": "NA","county": "Saltabarranca","VARNAME_2": "NA","NL_NAME_2": "NA","TYPE_2": "Município","ENGTYPE_2": "Municipality","CC_2": "NA","HASC_2": "NA","name": "Saltabarranca.county","area_km2": 108.87762,"hist_schema_id": "Elevation0-9000","hist_area_km2": {"0": 99.05047,"25": 9.82715}}}