{"type": "Feature","bbox": [-95.8374,17.2345,-95.1814,17.7412],"geometry": {"type": "MultiPolygon","coordinates": [[[[-95.2532,17.6015,45.3665],[-95.2521,17.6062,51.9183],[-95.2544,17.6088,56.1269],[-95.2592,17.6077,43.5491],[-95.2648,17.6016,60.0979],[-95.2675,17.6035,71.6062],[-95.2676,17.6083,43.6511],[-95.2747,17.6095,43.7771],[-95.2789,17.6148,41.5439],[-95.2702,17.6157,38.9591],[-95.2695,17.6191,39.2909],[-95.2716,17.6222,39.3348],[-95.2713,17.6247,53.6343],[-95.2628,17.6248,43.1641],[-95.2555,17.6216,37.561],[-95.2484,17.6256,37.0259],[-95.2506,17.6276,47.7524],[-95.2566,17.6274,38.1745],[-95.259,17.629,57.8818],[-95.253,17.6334,41.5979],[-95.2532,17.6421,48.9759],[-95.2482,17.646,45.0297],[-95.2446,17.6455,45.119],[-95.2429,17.6437,39.2777],[-95.2419,17.635,45.1624],[-95.2184,17.6393,35.0556],[-95.2115,17.6445,36.814],[-95.2086,17.6535,33.1641],[-95.2059,17.6547,40.6086],[-95.2037,17.6535,33.4461],[-95.2034,17.6488,35.7434],[-95.2012,17.6474,36.2656],[-95.1988,17.6479,36.1202],[-95.1969,17.6533,37.4926],[-95.1942,17.6551,32.7323],[-95.1916,17.6544,41.7337],[-95.1887,17.6496,35.5134],[-95.1872,17.6556,42.6825],[-95.1878,17.6711,36.3893],[-95.1849,17.6768,31.4496],[-95.1877,17.6806,32.2223],[-95.1851,17.6846,34.0555],[-95.1826,17.6846,34.5787],[-95.1814,17.6864,28.0],[-95.1824,17.6911,34.6776],[-95.1903,17.692,36.999],[-95.2389,17.7393,24.0],[-95.2393,17.7367,40.4164],[-95.2527,17.7335,27.3902],[-95.2587,17.7285,33.2172],[-95.2614,17.7326,27.7828],[-95.2627,17.7387,28.9852],[-95.2684,17.7412,33.6218],[-95.2697,17.7396,29.5657],[-95.2683,17.7331,25.6957],[-95.2631,17.7249,28.2757],[-95.2656,17.7175,31.2326],[-95.2716,17.7167,32.6379],[-95.2792,17.7219,26.8818],[-95.2807,17.7199,30.6202],[-95.28,17.7157,28.4397],[-95.2867,17.7167,32.144],[-95.2922,17.7124,30.8411],[-95.2912,17.7163,32.3128],[-95.2957,17.7223,28.9268],[-95.2978,17.7221,30.1515],[-95.3026,17.711,36.1326],[-95.3058,17.7112,35.0669],[-95.31,17.7086,32.644],[-95.3066,17.6972,32.7688],[-95.3166,17.6976,31.9015],[-95.3167,17.6924,29.8433],[-95.3213,17.6856,32.7504],[-95.3287,17.6858,37.2013],[-95.3338,17.6752,40.2964],[-95.3401,17.6744,37.294],[-95.3419,17.6825,39.104],[-95.3438,17.6837,32.2222],[-95.3516,17.6797,30.8764],[-95.3495,17.6756,30.9573],[-95.3517,17.6718,33.6457],[-95.3573,17.6713,32.928],[-95.3679,17.6737,32.3633],[-95.3697,17.6691,33.5108],[-95.3868,17.6639,35.7676],[-95.3953,17.6518,35.3866],[-95.403,17.652,35.4231],[-95.4072,17.6433,35.2999],[-95.4103,17.6436,35.1704],[-95.4107,17.6497,38.6529],[-95.413,17.6519,38.5414],[-95.4155,17.6508,38.5414],[-95.4185,17.644,37.2402],[-95.4226,17.6473,53.6044],[-95.4255,17.6475,43.8888],[-95.427,17.6452,40.5084],[-95.4257,17.6387,41.1548],[-95.4268,17.6366,39.3546],[-95.4342,17.6351,39.6547],[-95.4384,17.6311,40.5134],[-95.4401,17.6267,41.9262],[-95.4461,17.6218,43.0937],[-95.4561,17.6231,39.9624],[-95.4539,17.6148,42.267],[-95.4545,17.6111,44.879],[-95.4626,17.6087,41.8545],[-95.4731,17.6091,49.1084],[-95.4738,17.6066,44.0524],[-95.4724,17.6041,43.1184],[-95.4634,17.5992,67.7642],[-95.463,17.5964,50.4121],[-95.4706,17.5952,43.6505],[-95.4769,17.5884,48.2751],[-95.4793,17.5878,46.0566],[-95.4781,17.5949,42.9214],[-95.4842,17.6019,49.7426],[-95.4886,17.5968,46.0695],[-95.4951,17.5951,47.6283],[-95.4977,17.5919,46.1616],[-95.5063,17.5908,53.3167],[-95.5072,17.588,48.335],[-95.5018,17.5859,60.5744],[-95.5037,17.5838,50.0157],[-95.514,17.5855,72.8299],[-95.5147,17.5797,49.2986],[-95.5213,17.577,47.3056],[-95.5174,17.5696,47.7073],[-95.5217,17.5708,58.5974],[-95.5248,17.576,57.5122],[-95.5263,17.5719,58.9404],[-95.5311,17.5706,59.272],[-95.5302,17.5674,52.9705],[-95.5251,17.5621,84.085],[-95.532,17.5558,52.9914],[-95.5377,17.557,65.2905],[-95.5397,17.5606,66.0035],[-95.5461,17.5542,61.1209],[-95.5511,17.5534,68.1662],[-95.5555,17.5586,56.8084],[-95.5583,17.5483,62.9076],[-95.5612,17.5462,68.5338],[-95.5688,17.5512,60.7907],[-95.5726,17.5486,64.7833],[-95.5703,17.5376,78.0697],[-95.5712,17.5295,94.5573],[-95.5829,17.5193,94.0741],[-95.5935,17.5219,89.8933],[-95.5981,17.5251,98.3994],[-95.6078,17.5238,86.0333],[-95.6121,17.5155,97.8103],[-95.6175,17.5193,87.4127],[-95.614,17.513,117.1502],[-95.6064,17.5065,103.333],[-95.6044,17.5128,97.7166],[-95.5961,17.5092,132.7047],[-95.5963,17.5137,120.2697],[-95.5913,17.5138,103.0804],[-95.5835,17.5017,92.001],[-95.585,17.4989,88.0526],[-95.5897,17.4976,90.0028],[-95.5869,17.4925,101.5458],[-95.5876,17.4895,92.8457],[-95.5942,17.4823,99.0083],[-95.5983,17.4832,100.3115],[-95.6001,17.4821,134.1353],[-95.602,17.4766,108.3738],[-95.6219,17.4767,129.1507],[-95.6289,17.475,172.337],[-95.6324,17.4712,156.4641],[-95.6368,17.4707,134.6581],[-95.6383,17.4689,132.5875],[-95.6618,17.4759,126.4562],[-95.6627,17.4748,146.605],[-95.6667,17.4779,125.407],[-95.6647,17.4808,124.6536],[-95.6675,17.4837,121.4454],[-95.6712,17.4833,114.4932],[-95.6731,17.4805,121.6381],[-95.6841,17.4761,124.0468],[-95.6835,17.4735,131.4922],[-95.6798,17.4703,133.7865],[-95.6712,17.4672,167.5998],[-95.667,17.4626,140.4662],[-95.6673,17.4592,139.9491],[-95.6784,17.4516,256.4372],[-95.6702,17.4468,203.1886],[-95.6615,17.4476,158.1842],[-95.6589,17.4457,165.1158],[-95.6624,17.442,179.9543],[-95.6658,17.4409,161.8009],[-95.6657,17.437,171.5329],[-95.6682,17.4382,158.23],[-95.669,17.4358,171.8399],[-95.6729,17.4354,167.7708],[-95.6773,17.427,206.553],[-95.6803,17.4271,182.8287],[-95.6831,17.4246,164.7683],[-95.6845,17.4269,164.3282],[-95.6897,17.4256,188.4863],[-95.6906,17.4197,184.2801],[-95.7098,17.4103,294.4365],[-95.7437,17.3829,434.9863],[-95.7298,17.3601,404.3853],[-95.7328,17.3525,516.6618],[-95.731,17.3378,334.9001],[-95.729,17.3355,292.6019],[-95.7489,17.3185,485.2552],[-95.7694,17.3228,793.3658],[-95.778,17.3331,944.1805],[-95.7917,17.3323,679.7036],[-95.795,17.3132,858.861],[-95.8065,17.2938,494.0767],[-95.8374,17.2596,1056.4967],[-95.8245,17.2562,925.4106],[-95.8058,17.235,1063.1458],[-95.7978,17.2422,990.3726],[-95.7887,17.2546,919.0107],[-95.7731,17.2646,766.2836],[-95.7683,17.2624,567.6699],[-95.7641,17.2643,416.7188],[-95.7614,17.2636,392.2719],[-95.7559,17.2658,305.7509],[-95.7505,17.2657,292.7733],[-95.749,17.2675,262.8604],[-95.7484,17.2751,275.2727],[-95.746,17.2751,254.6823],[-95.7466,17.2788,259.0616],[-95.7425,17.2798,246.1331],[-95.7432,17.2835,232.8201],[-95.7398,17.2842,252.2111],[-95.7384,17.2819,241.4057],[-95.7396,17.2789,276.1445],[-95.7358,17.2822,230.0585],[-95.7302,17.2818,270.1248],[-95.73,17.2752,287.164],[-95.7256,17.2766,329.4654],[-95.7152,17.2703,637.1888],[-95.7125,17.2636,584.597],[-95.7164,17.2568,440.9724],[-95.7153,17.254,449.4079],[-95.7084,17.2476,420.029],[-95.7035,17.2477,409.3187],[-95.6959,17.242,269.5365],[-95.6946,17.2403,261.8913],[-95.6951,17.2362,234.2317],[-95.6901,17.2345,232.9565],[-95.6811,17.2348,225.2964],[-95.6784,17.2389,273.6349],[-95.6738,17.2413,213.0824],[-95.6779,17.2444,275.0726],[-95.6787,17.2492,232.2851],[-95.6754,17.2519,194.8198],[-95.6757,17.2487,214.1028],[-95.6722,17.2473,195.3754],[-95.6721,17.2515,211.4839],[-95.6677,17.2548,184.5848],[-95.6685,17.2625,345.1386],[-95.665,17.2718,187.0892],[-95.672,17.2734,208.0003],[-95.6724,17.2776,198.472],[-95.6657,17.2775,176.0375],[-95.6705,17.284,219.0886],[-95.6672,17.2855,199.0906],[-95.6678,17.2884,169.9568],[-95.66,17.2906,174.914],[-95.6587,17.2972,209.422],[-95.6616,17.2963,176.7591],[-95.6625,17.2991,191.4671],[-95.6548,17.3013,168.5501],[-95.6495,17.3059,163.9815],[-95.6489,17.3084,173.6531],[-95.6471,17.3088,174.5513],[-95.648,17.3113,175.3554],[-95.652,17.3124,180.5296],[-95.6487,17.3159,197.2677],[-95.6483,17.319,164.2967],[-95.6441,17.318,173.1587],[-95.6385,17.3226,145.4002],[-95.636,17.3209,140.9903],[-95.6324,17.3218,196.9842],[-95.6306,17.3257,194.134],[-95.6193,17.3346,145.8697],[-95.6156,17.3407,162.9574],[-95.6127,17.3401,156.5759],[-95.6104,17.342,139.112],[-95.6096,17.3457,146.1316],[-95.6037,17.3509,149.1279],[-95.6046,17.356,125.1067],[-95.6017,17.3594,136.3552],[-95.6037,17.3633,128.6948],[-95.5986,17.3675,136.7468],[-95.5954,17.3667,138.2246],[-95.5929,17.3685,112.3459],[-95.5973,17.3722,135.1766],[-95.5978,17.3745,120.2565],[-95.5904,17.373,133.2356],[-95.5845,17.3754,122.1009],[-95.579,17.3752,142.9597],[-95.5783,17.3833,121.1977],[-95.5721,17.3859,139.3732],[-95.5693,17.3967,99.2413],[-95.5659,17.3938,101.996],[-95.5574,17.3972,108.1621],[-95.5511,17.3953,100.0195],[-95.5509,17.399,96.9555],[-95.5631,17.4076,87.7897],[-95.5635,17.4126,87.6438],[-95.5603,17.4227,88.4581],[-95.5533,17.4228,85.6758],[-95.5529,17.428,88.216],[-95.5513,17.4295,88.0571],[-95.5481,17.4279,86.8163],[-95.5478,17.4227,86.8368],[-95.5457,17.4212,83.9359],[-95.5394,17.4209,81.6311],[-95.5357,17.4223,78.0],[-95.5353,17.4252,82.259],[-95.5301,17.4283,84.9896],[-95.5296,17.4332,77.7699],[-95.5276,17.4354,83.59],[-95.5153,17.4441,84.1417],[-95.5133,17.4536,81.1773],[-95.509,17.4506,82.3493],[-95.5101,17.4463,81.2793],[-95.5089,17.4428,77.4931],[-95.5042,17.4407,74.7161],[-95.5013,17.4422,75.3743],[-95.4998,17.4467,79.7301],[-95.4985,17.4469,82.005],[-95.4935,17.4418,73.6409],[-95.49,17.4418,80.8114],[-95.4769,17.4529,77.4489],[-95.4679,17.4486,76.1994],[-95.4617,17.4515,74.9618],[-95.4566,17.451,75.5947],[-95.451,17.4479,71.6768],[-95.4469,17.4424,69.3007],[-95.4448,17.4423,84.4788],[-95.446,17.4414,89.6574],[-95.4442,17.4421,84.4788],[-95.443,17.4484,73.6216],[-95.431,17.4525,67.8655],[-95.4341,17.4622,86.211],[-95.427,17.4579,74.0057],[-95.4227,17.4586,73.7258],[-95.4197,17.462,65.2513],[-95.4181,17.4585,77.0726],[-95.4067,17.4539,65.4542],[-95.4105,17.4623,71.8308],[-95.4119,17.4687,64.8619],[-95.4104,17.4706,78.3698],[-95.4075,17.4704,65.4186],[-95.3961,17.4621,65.6567],[-95.3924,17.464,66.2767],[-95.3923,17.4708,62.5437],[-95.3866,17.4731,63.7825],[-95.3873,17.4769,64.4615],[-95.3905,17.4782,66.3434],[-95.3893,17.4798,65.6893],[-95.3869,17.4799,66.7417],[-95.3825,17.4761,63.7038],[-95.3801,17.4761,63.2984],[-95.3716,17.4815,59.5515],[-95.3725,17.4864,63.4868],[-95.3701,17.4882,66.3166],[-95.3647,17.489,70.4841],[-95.3605,17.4917,58.1789],[-95.3566,17.491,60.3163],[-95.3537,17.4876,62.18],[-95.3509,17.4898,57.4028],[-95.3556,17.4936,60.0362],[-95.3498,17.4933,56.7892],[-95.3485,17.501,58.6917],[-95.342,17.503,82.8099],[-95.3476,17.5116,57.7374],[-95.3452,17.5172,79.7651],[-95.3425,17.5178,62.9168],[-95.3298,17.5107,53.5091],[-95.3257,17.5043,56.885],[-95.322,17.505,53.7391],[-95.319,17.5086,56.9918],[-95.3146,17.5084,60.5373],[-95.3128,17.5157,55.2698],[-95.317,17.5179,58.0336],[-95.3197,17.5225,89.0404],[-95.3235,17.5212,77.1022],[-95.3276,17.5255,82.5533],[-95.3254,17.5283,91.0881],[-95.327,17.531,87.2005],[-95.3159,17.537,49.9588],[-95.3145,17.5394,69.454],[-95.3079,17.5385,49.8685],[-95.3016,17.5402,53.7271],[-95.2943,17.5345,49.3116],[-95.2912,17.5342,48.1385],[-95.2884,17.537,59.6396],[-95.285,17.5464,50.0901],[-95.2748,17.547,47.6595],[-95.269,17.5452,51.3077],[-95.2662,17.5463,48.6939],[-95.2654,17.5484,47.5517],[-95.2675,17.5521,48.5299],[-95.2694,17.5531,47.8053],[-95.275,17.5519,50.1381],[-95.2778,17.5552,48.1594],[-95.2752,17.5574,48.0055],[-95.2687,17.5558,46.0474],[-95.2642,17.5599,58.1793],[-95.2649,17.5632,44.6997],[-95.2701,17.5664,46.5405],[-95.2708,17.5709,44.4876],[-95.2637,17.5724,51.241],[-95.2659,17.5792,46.8994],[-95.2642,17.5817,46.038],[-95.2567,17.5815,51.3017],[-95.2556,17.5897,62.4963],[-95.259,17.5915,43.6567],[-95.2601,17.594,44.4186],[-95.2532,17.6015,45.3665]]]]}
,"properties": {"GID_2": "MEX.20.501_2","GID_0": "MEX","country": "México","GID_1": "MEX.20_1","province": "Oaxaca","NL_NAME_1": "NA","county": "SantiagoYaveo","VARNAME_2": "NA","NL_NAME_2": "NA","TYPE_2": "Município","ENGTYPE_2": "Municipality","CC_2": "NA","HASC_2": "NA","name": "Santiago_Yaveo.county","area_km2": 1027.2846,"hist_schema_id": "Elevation0-9000","hist_area_km2": {"25": 13.4127,"50": 98.2596,"75": 192.9813,"100": 225.6295,"125": 141.2763,"150": 49.4281,"175": 38.801,"200": 41.0319,"225": 34.6426,"250": 32.4595,"275": 27.5638,"300": 21.2312,"325": 17.852,"350": 17.1033,"375": 12.7116,"400": 7.9351,"425": 7.5714,"450": 6.1746,"475": 5.3648,"500": 4.0894,"525": 3.6035,"550": 3.3606,"575": 3.1177,"600": 3.5429,"625": 2.5914,"650": 2.2877,"675": 2.227,"700": 2.0853,"725": 1.5792,"750": 1.2147,"775": 1.2148,"800": 0.7288,"825": 0.8503,"850": 0.7694,"875": 0.6884,"900": 0.5062,"925": 0.3644,"950": 0.3847,"975": 0.162,"1000": 0.2227,"1025": 0.0607,"1050": 0.0405,"1075": 0.0607,"1100": 0.0607,"1125": 0.0405}}}