{"type": "Feature","bbox": [-96.5338,16.6898,-96.3247,16.9185],"geometry": {"type": "MultiPolygon","coordinates": [[[[-96.5338,16.8517,2426.7471],[-96.5187,16.832,2234.8633],[-96.5057,16.8251,2024.3433],[-96.502,16.8215,1945.1039],[-96.4897,16.7925,1629.9058],[-96.4548,16.7662,1615.485],[-96.466,16.7619,1542.5083],[-96.4666,16.7599,1539.9723],[-96.4326,16.7397,1622.6027],[-96.4189,16.7362,1633.0809],[-96.4155,16.7293,1692.2731],[-96.4153,16.7233,1731.3256],[-96.4122,16.7225,1727.1495],[-96.4138,16.7051,1693.3479],[-96.4176,16.6994,1683.6987],[-96.4151,16.6944,1704.7542],[-96.418,16.6898,1727.7148],[-96.4049,16.6934,1846.0417],[-96.4039,16.6971,1763.7662],[-96.4157,16.7393,1645.6893],[-96.4241,16.7468,1783.3685],[-96.423,16.7506,1742.405],[-96.417,16.7573,1748.7849],[-96.4153,16.7652,1949.5547],[-96.4132,16.7807,1898.0212],[-96.4139,16.8051,1669.3181],[-96.4116,16.8141,1898.4653],[-96.4019,16.8108,1710.5128],[-96.3668,16.8192,2144.4868],[-96.3491,16.8036,1815.7368],[-96.336,16.8381,2502.3269],[-96.3331,16.8431,2544.5552],[-96.3247,16.8508,2574.363],[-96.325,16.8583,2325.9844],[-96.3332,16.8748,2203.1001],[-96.3537,16.8863,2169.8442],[-96.3753,16.893,1928.9088],[-96.3938,16.9009,1687.0974],[-96.4078,16.911,1683.6364],[-96.4152,16.9185,1649.5708],[-96.4269,16.9114,1651.7583],[-96.4233,16.9051,1667.3708],[-96.4219,16.8847,1741.4319],[-96.4273,16.8479,2057.8386],[-96.4263,16.8412,2000.2954],[-96.439,16.8333,2357.8145],[-96.4592,16.8443,2469.3921],[-96.4715,16.8544,2472.436],[-96.4718,16.8562,2476.3708],[-96.4851,16.8625,2665.0376],[-96.4904,16.8577,2764.2478],[-96.4936,16.8577,2761.8533],[-96.4986,16.8621,2779.9082],[-96.5185,16.8678,2897.0063],[-96.5194,16.8629,2712.5361],[-96.5259,16.8607,2642.1399],[-96.5338,16.8517,2426.7471]]]]}
,"properties": {"GID_2": "MEX.20.478_2","GID_0": "MEX","country": "México","GID_1": "MEX.20_1","province": "Oaxaca","NL_NAME_1": "NA","county": "SantiagoMatatlán","VARNAME_2": "NA","NL_NAME_2": "NA","TYPE_2": "Município","ENGTYPE_2": "Municipality","CC_2": "NA","HASC_2": "NA","name": "Santiago_Matatlán.county","area_km2": 184.0065,"hist_schema_id": "Elevation0-9000","hist_area_km2": {"1550": 0.7512,"1575": 3.9586,"1600": 5.6028,"1625": 7.4498,"1650": 8.8493,"1675": 11.2427,"1700": 10.9586,"1725": 12.8255,"1750": 12.8866,"1775": 11.1616,"1800": 9.7613,"1825": 8.016,"1850": 7.3462,"1875": 6.6563,"1900": 5.8445,"1925": 5.8647,"1950": 5.0124,"1975": 4.8297,"2000": 4.6268,"2025": 3.4904,"2050": 2.841,"2075": 3.0439,"2100": 2.496,"2125": 2.3134,"2150": 2.151,"2175": 1.9684,"2200": 1.6031,"2225": 1.5625,"2250": 1.4001999999999999,"2275": 1.7452,"2300": 1.3596,"2325": 1.5422,"2350": 1.4205,"2375": 1.1364,"2400": 1.2784,"2425": 1.2581,"2450": 0.9537,"2475": 1.0146,"2500": 0.9334,"2525": 0.7914,"2550": 0.6291,"2575": 0.6088,"2600": 0.5682,"2625": 0.5073,"2650": 0.3652,"2675": 0.3247,"2700": 0.2435,"2725": 0.2638,"2750": 0.142,"2775": 0.2232,"2800": 0.1015,"2825": 0.0203,"2850": 0.0406,"2900": 0.0203}}}