{"type": "Feature","bbox": [-107.1652,23.7744,-106.6047,24.2872],"geometry": {"type": "MultiPolygon","coordinates": [[[[-107.0611,23.9998,0.4706],[-107.0597,23.9998,0.4706],[-107.0602,24.0043,1.1558],[-107.0623,24.0022,0.0],[-107.0611,23.9998,0.4706]]],
[[[-106.8891,24.284,917.074],[-106.9132,24.2762,728.3623],[-106.9139,24.2657,1176.475],[-106.9189,24.2671,1023.5089],[-106.9208,24.2498,685.7885],[-106.9259,24.2404,500.4276],[-106.9251,24.232,477.4495],[-106.9287,24.2259,374.0517],[-106.9341,24.2234,204.6292],[-106.9377,24.2272,209.348],[-106.9389,24.225,185.2222],[-106.9336,24.2124,163.0867],[-106.9305,24.2117,164.4565],[-106.9284,24.2092,155.164],[-106.9264,24.1999,146.4612],[-106.931,24.1944,139.8423],[-106.9358,24.1925,142.7347],[-106.9392,24.1871,144.3259],[-106.9404,24.1796,167.7211],[-106.9372,24.1705,134.6779],[-106.9385,24.1672,128.0789],[-106.9423,24.1647,124.3819],[-106.9425,24.1562,103.9702],[-106.9472,24.1545,102.505],[-106.9526,24.1566,99.7229],[-106.9531,24.1592,97.3753],[-106.9498,24.1641,97.6646],[-106.9872,24.1582,71.1112],[-107.0001,24.1633,54.5921],[-107.0001,24.167,55.5396],[-107.012,24.1594,51.1228],[-107.0271,24.1589,53.5184],[-107.0289,24.1618,52.0862],[-107.0343,24.1605,49.2967],[-107.0337,24.1586,48.2694],[-107.0457,24.1586,34.6153],[-107.0492,24.1467,33.5744],[-107.0354,24.1284,36.8009],[-107.0503,24.1164,26.2235],[-107.0279,24.085,20.8255],[-107.0326,24.085,19.4581],[-107.0302,24.0805,17.0725],[-107.0262,24.0775,15.2107],[-107.0237,24.0792,16.3828],[-107.0162,24.0673,19.6557],[-107.0428,24.0672,1.9272],[-107.0484,24.0662,2.0382],[-107.0562,24.0623,3.1275],[-107.0642,24.0654,2.3575],[-107.066,24.0619,1.9049],[-107.0598,24.0582,1.5669],[-107.0605,24.0541,4.3313],[-107.0592,24.0542,4.0869],[-107.0622,24.0515,0.0],[-107.0619,24.0478,0.0],[-107.0559,24.0465,1.8231],[-107.0581,24.0429,0.2449],[-107.0562,24.0381,0.3075],[-107.0491,24.0342,0.8337],[-107.0589,24.0377,0.0],[-107.0693,24.0467,0.0],[-107.0829,24.0546,1.0003],[-107.0842,24.059,0.3567],[-107.0942,24.069,0.0],[-107.1038,24.07,0.815],[-107.1127,24.0736,1.2763],[-107.1185,24.0793,0.0],[-107.1243,24.0815,1.6006],[-107.1279,24.0945,0.3537],[-107.1363,24.0935,1.808],[-107.1419,24.0954,1.0563],[-107.1478,24.093,2.1908],[-107.152,24.0983,2.9005],[-107.1557,24.0973,1.0694],[-107.1556,24.1,0.4898],[-107.1609,24.104,0.3742],[-107.1652,24.1037,1.6581],[-107.1649,24.1009,0.9771],[-107.1586,24.0953,0.0],[-107.1473,24.0901,1.3939],[-107.1425,24.0844,0.2017],[-107.1383,24.0838,3.5115],[-107.1356,24.0774,0.0],[-107.1265,24.0752,0.2795],[-107.1207,24.0707,1.8875],[-107.1177,24.065,0.1534],[-107.1126,24.0639,1.1933],[-107.1105,24.061,1.1216],[-107.109,24.051,0.0],[-107.1022,24.0444,1.8245],[-107.1027,24.0415,0.7097],[-107.107,24.0368,0.0],[-107.1061,24.0356,2.6353],[-107.0937,24.0336,0.5046],[-107.0916,24.0312,0.3869],[-107.0898,24.0235,0.3662],[-107.0796,24.0241,1.8441],[-107.0685,24.0204,0.0],[-107.0635,24.0069,0.0],[-107.0603,24.0054,1.1558],[-107.059,24.0017,2.7403],[-107.0541,23.9981,0.5091],[-107.0516,23.998,0.0],[-107.0514,24.0016,0.7525],[-107.0499,24.0028,2.0322],[-107.0434,24.001,2.5519],[-107.0397,24.0054,0.964],[-107.0534,24.0167,2.0046],[-107.0388,24.0058,0.3983],[-107.0381,24.0013,1.1798],[-107.042,23.9992,1.5243],[-107.0452,23.999,0.9884],[-107.05,24.0013,1.3604],[-107.0505,23.9968,0.6068],[-107.0492,23.9951,0.0],[-107.0316,23.9815,1.9323],[-107.0289,23.9761,0.5757],[-107.023,23.9751,0.5328],[-107.018,23.9693,1.2907],[-107.014,23.969,2.4268],[-107.0115,23.967,1.9894],[-107.0111,23.9655,1.9894],[-107.0133,23.9654,1.3944],[-107.0111,23.9612,2.2108],[-107.0116,23.9584,1.5884],[-107.0062,23.957,1.5008],[-107.0012,23.9526,5.7291],[-106.9921,23.9517,1.7095],[-106.9929,23.9502,1.177],[-106.9892,23.9473,2.0079],[-106.988,23.9434,6.7464],[-106.9909,23.9448,5.6848],[-106.9946,23.9505,0.0],[-107.0041,23.9513,4.0795],[-107.0139,23.9562,0.9598],[-107.0163,23.9591,4.5225],[-107.0168,23.9636,2.5759],[-107.0209,23.9635,5.7317],[-107.0229,23.9651,5.9413],[-107.0228,23.9663,6.8772],[-107.0201,23.9661,0.6501],[-107.0203,23.9693,1.8061],[-107.027,23.9708,2.6798],[-107.0412,23.9834,1.9517],[-107.0656,24.0004,3.7678],[-107.0712,24.0116,0.4161],[-107.079,24.0158,0.0],[-107.0877,24.0177,0.0],[-107.0962,24.0256,0.0],[-107.0986,24.0306,0.6138],[-107.1074,24.0338,1.8368],[-107.1101,24.038,1.4463],[-107.1118,24.0347,2.8639],[-107.116,24.0374,1.654],[-107.0117,23.9529,2.8667],[-106.8933,23.8418,0.8428],[-106.8874,23.8301,0.0],[-106.8821,23.8047,4.1146],[-106.8838,23.801,3.8693],[-106.8815,23.7951,0.9655],[-106.8619,23.7744,0.0],[-106.7401,23.7893,22.591],[-106.7379,23.8006,42.1655],[-106.7429,23.8026,58.0758],[-106.7374,23.8332,112.9461],[-106.7317,23.8344,106.1898],[-106.7356,23.8533,123.4982],[-106.6855,23.8936,110.3827],[-106.6769,23.9063,120.8383],[-106.6706,23.9196,149.5474],[-106.6719,23.9238,178.8029],[-106.6904,23.9491,113.4424],[-106.6966,23.9504,98.3172],[-106.7032,23.9449,70.7276],[-106.7089,23.958,75.8844],[-106.714,23.959,55.0982],[-106.7152,23.962,53.6952],[-106.7125,23.9662,55.5196],[-106.7079,23.9638,54.8781],[-106.7041,23.9576,56.2494],[-106.6991,23.9608,57.1784],[-106.6943,23.9591,58.8095],[-106.6911,23.9609,62.5502],[-106.6884,23.9856,68.2736],[-106.6853,23.9975,80.1125],[-106.682,24.0018,83.7738],[-106.6823,24.0056,69.0931],[-106.6799,24.0127,73.0142],[-106.6754,24.0171,73.3751],[-106.6801,24.0234,74.8803],[-106.6779,24.0307,80.5817],[-106.6706,24.0318,75.8099],[-106.666,24.0361,79.0442],[-106.6637,24.0408,82.167],[-106.6569,24.0443,80.3748],[-106.6547,24.0481,88.3893],[-106.6593,24.0581,96.3128],[-106.6549,24.0601,100.1963],[-106.6538,24.0696,107.1784],[-106.6587,24.0822,91.1372],[-106.6626,24.0858,92.8517],[-106.6748,24.0904,132.6221],[-106.6767,24.0967,105.2617],[-106.6806,24.1014,98.8069],[-106.6776,24.1086,98.7289],[-106.6788,24.1163,103.7223],[-106.6819,24.119,118.5924],[-106.6957,24.1204,196.9562],[-106.6947,24.1236,149.4807],[-106.6963,24.128,161.0213],[-106.6907,24.126,181.2576],[-106.692,24.13,190.2837],[-106.6887,24.1308,145.5926],[-106.6871,24.129,160.3815],[-106.6776,24.1316,158.0408],[-106.6755,24.1306,155.6265],[-106.6739,24.1322,193.0018],[-106.6752,24.1344,145.6062],[-106.6706,24.137,163.002],[-106.6687,24.1363,171.0651],[-106.6682,24.1384,159.8863],[-106.664,24.1349,180.3106],[-106.6635,24.1381,160.1003],[-106.6683,24.1424,143.4146],[-106.6652,24.1455,141.7513],[-106.6611,24.1443,139.5],[-106.6565,24.1368,139.5],[-106.6483,24.1362,139.5],[-106.6463,24.138,140.7264],[-106.6456,24.14,166.1464],[-106.6526,24.1454,169.0575],[-106.6543,24.1512,149.6654],[-106.6481,24.1544,155.0824],[-106.6472,24.1575,146.9956],[-106.6435,24.16,147.489],[-106.6378,24.156,151.7388],[-106.6344,24.156,150.97],[-106.632,24.1602,153.5281],[-106.6349,24.1642,153.5753],[-106.6351,24.1682,156.0533],[-106.6295,24.1709,163.2269],[-106.6308,24.176,164.0826],[-106.6238,24.1789,170.4116],[-106.6206,24.1848,182.5643],[-106.6211,24.1914,172.5644],[-106.6184,24.1942,208.7838],[-106.621,24.1995,176.4891],[-106.6058,24.2052,186.0397],[-106.6047,24.2076,213.6276],[-106.6059,24.2112,182.7462],[-106.609,24.2113,195.6458],[-106.6107,24.2136,208.6956],[-106.6059,24.2164,181.4195],[-106.6744,24.2258,616.9962],[-106.7081,24.2331,346.7096],[-106.715,24.2257,198.8528],[-106.7142,24.2242,185.7343],[-106.7157,24.2233,213.6881],[-106.7149,24.2205,198.8712],[-106.7164,24.2166,183.9497],[-106.7228,24.2139,158.0868],[-106.7227,24.2183,165.4273],[-106.7244,24.2207,167.5918],[-106.7301,24.2207,171.6833],[-106.7335,24.2225,178.9305],[-106.7337,24.2282,192.3133],[-106.7356,24.2284,174.0337],[-106.7413,24.2245,184.1176],[-106.7453,24.2322,184.824],[-106.747,24.2454,185.3942],[-106.7508,24.2492,204.0257],[-106.7559,24.2497,195.1398],[-106.7591,24.2519,218.2017],[-106.7566,24.2585,215.4483],[-106.7577,24.2601,208.769],[-106.7589,24.2606,207.2757],[-106.7625,24.2567,200.7756],[-106.7659,24.257,207.56],[-106.7685,24.2604,204.6355],[-106.7735,24.2623,227.171],[-106.7736,24.2646,214.5142],[-106.7771,24.2646,220.4084],[-106.7761,24.2706,242.9733],[-106.7739,24.2727,230.0094],[-106.7793,24.2829,238.1915],[-106.7939,24.2872,291.1783],[-106.8466,24.2687,841.7579],[-106.8865,24.2811,944.6238],[-106.8891,24.284,917.074]]]]}
,"properties": {"GID_2": "MEX.25.9_2","GID_0": "MEX","country": "México","GID_1": "MEX.25_1","province": "Sinaloa","NL_NAME_1": "NA","county": "Elota","VARNAME_2": "NA","NL_NAME_2": "NA","TYPE_2": "Município","ENGTYPE_2": "Municipality","CC_2": "NA","HASC_2": "NA","name": "Elota.county","area_km2": 1638.481,"hist_schema_id": "Elevation0-9000","hist_area_km2": {"0": 169.451,"25": 207.592,"50": 256.471,"75": 235.64,"100": 130.29,"125": 73.227,"150": 91.311,"175": 81.987,"200": 57.137,"225": 46.375,"250": 38.749,"275": 32.093,"300": 27.003,"325": 22.302,"350": 18.317,"375": 14.39,"400": 11.779,"425": 13.094,"450": 12.204,"475": 11.295,"500": 10.153,"525": 10.559,"550": 8.297,"575": 7.832,"600": 6.246,"625": 5.492,"650": 5.067,"675": 3.848,"700": 3.5,"725": 3.461,"750": 2.901,"775": 2.727,"800": 2.224,"825": 2.108,"850": 1.624,"875": 2.03,"900": 1.76,"925": 1.972,"950": 1.296,"975": 1.295,"1000": 1.005,"1025": 0.657,"1050": 0.483,"1075": 0.464,"1100": 0.116,"1125": 0.464,"1150": 0.097,"1175": 0.097}}}