{"type":"Feature","properties":{"GID_2":"MEX.21.89_2","GID_0":"MEX","country":"México","GID_1":"MEX.21_1","province":"Puebla","NL_NAME_1":"NA","county":"Jolalpan","VARNAME_2":"NA","NL_NAME_2":"NA","TYPE_2":"Município","ENGTYPE_2":"Municipality","CC_2":"NA","HASC_2":"NA","name":"Jolalpan.county"},
"geometry":{"type": "MultiPolygon","coordinates": [[[[-98.8848,18.167,1467.0854],[-98.8841,18.1706,1407.2153],[-98.8803,18.1742,1370.0754],[-98.8725,18.1887,1249.2341],[-98.8678,18.1879,1225.7488],[-98.8631,18.1916,1195.42],[-98.861,18.189,1185.8983],[-98.8542,18.1882,1124.675],[-98.8539,18.1864,1157.8907],[-98.8512,18.1875,1090.9373],[-98.8416,18.1835,953.3341],[-98.8339,18.1834,817.644],[-98.8339,18.1916,969.123],[-98.851,18.2017,1331.5502],[-98.8512,18.2052,1301.4039],[-98.8467,18.2143,1253.522],[-98.8477,18.2164,1271.5513],[-98.8462,18.2293,1337.7852],[-98.8526,18.2316,1440.1526],[-98.8553,18.2368,1583.9509],[-98.8486,18.2392,1481.3464],[-98.8461,18.2438,1319.167],[-98.8441,18.2445,1307.0573],[-98.8445,18.2496,1230.5033],[-98.8432,18.2517,1194.4974],[-98.8467,18.2537,1112.1781],[-98.8466,18.2604,990.6501],[-98.841,18.2631,920.2988],[-98.8383,18.2619,920.3249],[-98.8364,18.2632,811.6384],[-98.8284,18.2623,826.3933],[-98.8191,18.2549,860.3365],[-98.8123,18.2609,805.1678],[-98.8091,18.2606,858.8198],[-98.8069,18.2577,788.7443],[-98.8051,18.2611,812.3453],[-98.8057,18.2656,855.4177],[-98.8029,18.2709,967.5295],[-98.8005,18.272,950.6805],[-98.8019,18.2738,916.0158],[-98.7929,18.2753,1048.6095],[-98.7795,18.2961,1356.6932],[-98.7771,18.2963,1336.6154],[-98.7652,18.2908,1395.7864],[-98.7721,18.303,1153.3545],[-98.769,18.3045,1141.1666],[-98.7643,18.3103,1168.078],[-98.7652,18.3148,1232.3131],[-98.7635,18.3164,1206.0355],[-98.7613,18.3159,1187.1504],[-98.7638,18.3179,1197.6002],[-98.7616,18.3265,1160.7389],[-98.763,18.331,1182.6411],[-98.7707,18.3419,1134.4342],[-98.778,18.3438,1195.9227],[-98.7841,18.3498,1279.5222],[-98.7807,18.3676,1165.5181],[-98.7791,18.3692,1135.1938],[-98.7823,18.3752,1106.6689],[-98.7812,18.3786,1083.6857],[-98.7829,18.3817,1088.3765],[-98.781,18.3837,1036.0092],[-98.783,18.3848,1021.0363],[-98.787,18.3924,922.3403],[-98.7925,18.3911,884.6555],[-98.7951,18.3922,935.7253],[-98.8062,18.3815,1118.5211],[-98.8264,18.3749,987.7536],[-98.8238,18.3793,957.8229],[-98.8264,18.3834,966.5431],[-98.8228,18.3833,923.2962],[-98.8237,18.39,1017.6348],[-98.8182,18.3934,971.4952],[-98.8189,18.3976,959.4932],[-98.8152,18.401,1007.9427],[-98.8168,18.4097,1043.7421],[-98.8146,18.4109,1058.1505],[-98.8136,18.4142,1073.9052],[-98.8153,18.4166,1094.6509],[-98.8182,18.4166,1091.8916],[-98.8245,18.42,1136.5826],[-98.8297,18.4201,1129.5826],[-98.8326,18.4239,1217.04],[-98.837,18.4259,1229.5215],[-98.8364,18.4303,1270.9714],[-98.8384,18.4313,1200.657],[-98.8409,18.431,1202.3651],[-98.8464,18.4264,1199.923],[-98.8496,18.4272,1240.9238],[-98.8543,18.424,1268.9586],[-98.8614,18.4247,1302.6892],[-98.8674,18.4159,1388.6628],[-98.8716,18.4165,1510.8291],[-98.8769,18.4148,1506.0825],[-98.8795,18.4118,1537.5162],[-98.8818,18.4126,1640.2871],[-98.8832,18.41,1577.511],[-98.89,18.4121,1498.3862],[-98.895,18.4078,1365.9799],[-98.8949,18.405,1364.2324],[-98.9021,18.4049,1398.8],[-98.9124,18.4016,1660.0957],[-98.917,18.4016,1564.7321],[-98.9171,18.4039,1583.6534],[-98.9194,18.4035,1534.8995],[-98.9264,18.4073,1387.3674],[-98.9361,18.4164,1267.2446],[-98.9379,18.4211,1232.0698],[-98.9406,18.4234,1224.0403],[-98.9444,18.4204,1240.7887],[-98.9494,18.4226,1190.551],[-98.9506,18.4177,1173.36],[-98.9552,18.4177,1163.2476],[-98.956,18.4197,1152.1847],[-98.9592,18.4203,1137.522],[-98.9617,18.4184,1169.7131],[-98.9703,18.4189,1166.1519],[-98.974,18.4171,1088.1191],[-98.9772,18.4236,1059.1746],[-98.9787,18.424,1068.4784],[-98.9794,18.4224,1048.0775],[-98.9817,18.4236,1046.0889],[-98.9857,18.4206,1054.1912],[-98.9833,18.4191,1050.088],[-98.9863,18.4166,1030.9019],[-98.984,18.4138,1041.3663],[-98.9861,18.4138,1023.3838],[-98.9877,18.4119,1060.2814],[-98.9859,18.4111,1019.5569],[-98.9869,18.4095,1072.9504],[-98.9835,18.4054,1016.5537],[-98.9866,18.4048,982.9666],[-98.9871,18.4002,972.5287],[-98.989,18.3987,972.8118],[-98.9879,18.3971,964.8182],[-98.9907,18.3974,972.8118],[-98.9906,18.3948,989.6109],[-98.9927,18.3958,955.8948],[-98.997,18.394,1019.1744],[-98.9992,18.3922,1013.9786],[-98.9982,18.3897,931.0137],[-99.0009,18.3883,899.21489999999994],[-99.0054,18.3899,917.0044],[-99.0098,18.386,884.0443],[-99.0131,18.3864,878.2271],[-99.0131,18.3886,867.8958],[-99.0156,18.3863,872.6645],[-99.0182,18.3878,847.0861],[-99.0199,18.3782,895.8436],[-99.0244,18.3756,871.8524],[-99.0236,18.3725,854.3862],[-99.0261,18.3722,864.4287],[-99.0315,18.3674,844.1273],[-99.0314,18.3649,833.1451],[-99.0356,18.3655,857.5475],[-99.0352,18.3629,840.4915],[-99.0384,18.3588,803.4857],[-99.0435,18.3594,799.6599],[-99.0434,18.3558,820.569],[-99.047,18.3551,800.7496],[-99.0485,18.3512,777.6323],[-99.0588,18.3489,787.2281],[-99.0577,18.3385,722.7337],[-99.0623,18.3333,757.3688],[-99.0666,18.3323,702.4941],[-99.07,18.3284,711.73],[-99.0699,18.3242,710.8881],[-99.0674,18.3192,715.5496],[-99.0624,18.3195,768.5012],[-99.062,18.314,707.0213],[-99.0642,18.3081,739.9946],[-99.0619,18.3051,695.8197],[-99.0595,18.3047,682.0542],[-99.0601,18.2967,688.8519],[-99.0518,18.2898,734.6423],[-99.0608,18.282,710.3866],[-99.0627,18.2817,710.3866],[-99.0652,18.2848,695.9415],[-99.0694,18.2832,682.2292],[-99.0688,18.2807,720.8212],[-99.0653,18.2799,706.519],[-99.0652,18.2771,738.043],[-99.0615,18.2715,698.3374],[-99.0577,18.273,681.2524],[-99.0548,18.2714,679.3339],[-99.0532,18.2642,675.8579],[-99.0548,18.2623,673.5747],[-99.0638,18.2625,724.0696],[-99.0641,18.2605,686.0136],[-99.0613,18.258,679.7028],[-99.0639,18.2519,726.5897],[-99.0561,18.25,693.6132],[-99.0491,18.2596,711.7362],[-99.0317,18.2723,829.4361],[-99.0169,18.2664,933.2653],[-99.0147,18.2633,1109.7222],[-99.0161,18.2634,1042.7197],[-99.0152,18.2582,1081.286],[-99.0179,18.2591,962.1796],[-99.0216,18.2502,810.1332],[-99.0236,18.2492,809.5801],[-99.0193,18.2454,950.7689],[-99.0113,18.2475,1114.0717],[-99.0066,18.2441,1098.6586],[-99.0043,18.2481,1058.2578],[-98.9995,18.2504,1027.4364],[-98.989,18.2493,969.1729],[-98.995,18.2374,987.5875],[-98.9941,18.2129,1126.9836],[-99.0001,18.1902,1089.2013],[-98.9572,18.1887,1133.1649],[-98.8848,18.167,1467.0854]]]]}}