{"type": "Feature","bbox": [-98.1228,19.3228,-98.056,19.3676],"geometry": {"type": "MultiPolygon","coordinates": [[[[-98.0905,19.3228,2589.6321],[-98.0868,19.3296,2587.5771],[-98.0887,19.3306,2585.7432],[-98.0871,19.3365,2870.0813],[-98.0813,19.3404,2648.4363],[-98.0783,19.338,2608.8423],[-98.077,19.3396,2579.7869],[-98.079,19.3497,2524.8198],[-98.0768,19.3509,2502.748],[-98.0738,19.3502,2516.3457],[-98.0607,19.341,2589.2927],[-98.056,19.3443,2589.2661],[-98.0602,19.3505,2561.9775],[-98.0597,19.3577,2532.3823],[-98.0663,19.3618,2512.4316],[-98.0698,19.3676,2488.9844],[-98.0717,19.3657,2493.168],[-98.0752,19.3664,2508.6819],[-98.0779,19.3641,2510.3142],[-98.0768,19.3631,2497.9897],[-98.0783,19.362,2497.314],[-98.0753,19.3591,2502.158],[-98.0819,19.3589,2481.5085],[-98.0837,19.3571,2461.3657],[-98.0873,19.3599,2456.9072],[-98.0923,19.3601,2434.4351],[-98.0971,19.3637,2419.0618],[-98.1031,19.3643,2397.99],[-98.1072,19.367,2386.4932],[-98.1225,19.3631,2366.7622],[-98.1207,19.3615,2373.8264],[-98.1228,19.3585,2378.8813],[-98.1162,19.3568,2397.9797],[-98.1224,19.351,2396.063],[-98.1137,19.3462,2432.3293],[-98.106,19.3384,2476.562],[-98.1052,19.3347,2495.6899],[-98.0905,19.3228,2589.6321]]]]}
,"properties": {"GID_2": "MEX.29.12_2","GID_0": "MEX","country": "México","GID_1": "MEX.29_1","province": "Tlaxcala","NL_NAME_1": "NA","county": "Cuaxomulco","VARNAME_2": "NA","NL_NAME_2": "NA","TYPE_2": "Município","ENGTYPE_2": "Municipality","CC_2": "NA","HASC_2": "NA","name": "Cuaxomulco.county","area_km2": 16.6438,"hist_schema_id": "Elevation0-9000","hist_area_km2": {"2375": 0.6401,"2400": 1.96035,"2425": 2.4605,"2450": 2.06046,"2475": 1.40034,"2500": 2.16046,"2525": 1.56037,"2550": 1.90048,"2575": 1.34039,"2600": 0.50016,"2625": 0.20006,"2650": 0.12004,"2675": 0.04001,"2700": 0.10003,"2725": 0.02001,"2750": 0.04001,"2775": 0.06002,"2800": 0.02001,"2825": 0.02001,"2850": 0.04001}}}