{"type": "Feature","bbox": [-96.9889,17.9336,-96.8119,18.0958],"geometry": {"type": "MultiPolygon","coordinates": [[[[-96.835,18.0165,325.8716],[-96.8274,18.0189,320.9221],[-96.8266,18.0246,338.3662],[-96.8213,18.027,460.8049],[-96.8161,18.0333,456.8986],[-96.8119,18.0323,304.6757],[-96.8124,18.0388,416.9624],[-96.8156,18.0438,427.9607],[-96.8136,18.0467,552.5469],[-96.8144,18.0478,544.8216],[-96.8168,18.0473,493.8456],[-96.8164,18.0519,546.8755],[-96.8144,18.0531,633.5983],[-96.8137,18.0563,772.4314],[-96.8321,18.073,715.2566],[-96.8347,18.0738,812.4421],[-96.8429,18.0709,853.42],[-96.8515,18.0723,958.0625],[-96.8605,18.0792,1183.8239],[-96.8634,18.0864,1409.7542],[-96.8733,18.0958,2025.4198],[-96.8901,18.0724,2353.9099],[-96.8979,18.0756,2151.1533],[-96.8966,18.0802,2205.7546],[-96.8978,18.0823,2301.8933],[-96.9052,18.0813,2308.3574],[-96.9159,18.0854,1977.1642],[-96.9288,18.0778,1373.157],[-96.9314,18.0729,1190.095],[-96.9351,18.0762,1219.1803],[-96.9396,18.0867,1387.6011],[-96.9451,18.0866,1670.2161],[-96.9575,18.0909,2049.1851],[-96.9651,18.0882,2352.4377],[-96.9663,18.0903,2428.8923],[-96.9889,18.0602,2330.7598],[-96.9832,18.027,1993.3717],[-96.9699,18.0021,1588.8591],[-96.9585,17.9687,1552.9132],[-96.9515,17.9573,1540.1041],[-96.9414,17.9461,1101.9255],[-96.9345,17.9427,750.7397],[-96.9361,17.9362,496.5363],[-96.9326,17.9407,545.5303],[-96.9245,17.938,510.7556],[-96.9211,17.9446,496.373],[-96.8889,17.9336,1345.1705],[-96.9126,17.959,494.1338],[-96.9175,17.9686,476.7376],[-96.9156,17.9734,484.2047],[-96.918,17.9746,484.8081],[-96.9152,17.977,506.4086],[-96.9086,17.976,444.0735],[-96.908,17.9797,441.2202],[-96.9037,17.9797,471.2667],[-96.9021,17.985,477.2809],[-96.8974,17.9883,501.7751],[-96.8961,17.9916,431.4849],[-96.8886,17.9889,436.0033],[-96.8834,18.0002,409.8928],[-96.8799,18.0017,424.3998],[-96.8717,18.0104,408.1575],[-96.8625,18.0102,379.496],[-96.8533,18.0133,363.2813],[-96.8397,18.0127,334.3878],[-96.835,18.0165,325.8716]]]]}
,"properties": {"GID_2": "MEX.20.64_2","GID_0": "MEX","country": "México","GID_1": "MEX.20_1","province": "Oaxaca","NL_NAME_1": "NA","county": "MazatlánVilladeFlores","VARNAME_2": "NA","NL_NAME_2": "NA","TYPE_2": "Município","ENGTYPE_2": "Municipality","CC_2": "NA","HASC_2": "NA","name": "Mazatlán_Villade_Flores.county","area_km2": 182.559,"hist_schema_id": "Elevation0-9000","hist_area_km2": {"300": 0.1613,"325": 0.2621,"350": 0.3226,"375": 0.3428,"400": 0.3024,"425": 0.988,"450": 1.0889,"475": 1.6536,"500": 1.4519,"525": 1.4115,"550": 1.3712,"575": 1.5527,"600": 1.4115,"625": 1.6131,"650": 2.1374,"675": 2.339,"700": 2.2382,"725": 2.4398,"750": 2.46,"775": 2.2987,"800": 2.5002,"825": 2.1776,"850": 2.601,"875": 2.1776,"900": 2.3187,"925": 2.5606,"950": 2.4598,"975": 2.6009,"1000": 2.6412,"1025": 2.9032,"1050": 2.8227,"1075": 2.5404,"1100": 2.7622,"1125": 2.8025,"1150": 2.7621,"1175": 2.7218,"1200": 2.883,"1225": 3.0444,"1250": 3.1048,"1275": 2.883,"1300": 3.1653,"1325": 2.8426,"1350": 3.1653,"1375": 3.0443,"1400": 2.8427,"1425": 2.8628,"1450": 3.0847,"1475": 2.9232,"1500": 3.1653,"1525": 3.266,"1550": 3.0242,"1575": 2.7822,"1600": 3.5887,"1625": 2.9636,"1650": 2.9838,"1675": 3.3466,"1700": 3.0644,"1725": 2.8829,"1750": 3.3869,"1775": 2.7821,"1800": 2.8628,"1825": 3.3465,"1850": 2.6007,"1875": 2.4393,"1900": 2.8626,"1925": 3.044,"1950": 2.5804,"1975": 2.8424,"2000": 2.4795,"2025": 2.0763,"2050": 1.9151,"2075": 1.3909,"2100": 1.532,"2125": 1.0482,"2150": 1.0482,"2175": 0.9272,"2200": 0.9474,"2225": 1.1086,"2250": 0.8667,"2275": 0.7861,"2300": 0.4233,"2325": 0.3628,"2350": 0.2822,"2375": 0.262,"2400": 0.1814,"2425": 0.0202,"2450": 0.0403}}}